{"type":"FeatureCollection","features":[
{"type":"Feature","properties":{"spotId":"E-camp-camp-0014","kind":"walk","km":0.09,"climbM":0,"name":"By Dietrich Creek","flags":[]},"geometry":{"type":"LineString","coordinates":[[-120.74381,52.10615],[-120.74302,52.10676]]}},
{"type":"Feature","properties":{"spotId":"E-duck-backcountry-0001","kind":"backcountry","km":6.73,"climbM":332,"name":"Unnamed wetland by Crooked Lake","flags":[]},"geometry":{"type":"LineString","coordinates":[[-120.69182,52.26954],[-120.60936,52.23634]]}},
{"type":"Feature","properties":{"spotId":"E-duck-drive-0120","kind":"walk","km":0.14,"climbM":0,"name":"Unnamed wetland 2.5 km SE of Hendrix, Mount","flags":[]},"geometry":{"type":"LineString","coordinates":[[-120.69252,52.0511],[-120.69272,52.04981]]}},
{"type":"Feature","properties":{"spotId":"E-duck-walk-0110","kind":"walk","km":0.32,"climbM":0,"name":"Unnamed lake 3.2 km NE of Ryan, Mount","flags":[]},"geometry":{"type":"LineString","coordinates":[[-120.67559,52.02258],[-120.67102,52.02319]]}},
{"type":"Feature","properties":{"spotId":"E-duck-walk-0159","kind":"walk","km":4.11,"climbM":222,"name":"Unnamed wetland by Deception Creek","flags":[]},"geometry":{"type":"LineString","coordinates":[[-120.63146,52.04005],[-120.57737,52.05598]]}},
{"type":"Feature","properties":{"spotId":"E-grouse-atv-0039","kind":"ride","km":4.35,"climbM":184,"name":"210 m S of Dietrich Creek","flags":[]},"geometry":{"type":"LineString","coordinates":[[-120.74205,52.10531],[-120.74173,52.10539],[-120.74121,52.10555],[-120.74069,52.1059],[-120.74022,52.10626],[-120.73976,52.10672],[-120.7397,52.10732],[-120.73973,52.10789],[-120.73974,52.10837],[-120.73956,52.1087],[-120.73913,52.10903],[-120.73869,52.10914],[-120.73729,52.10922],[-120.73494,52.10928],[-120.73304,52.10929],[-120.7312,52.10934],[-120.72948,52.10942],[-120.72906,52.10997],[-120.72844,52.11048],[-120.72805,52.11087],[-120.72754,52.11127],[-120.72677,52.11159],[-120.72589,52.11195],[-120.72516,52.1122],[-120.72458,52.11222],[-120.72412,52.11217],[-120.72349,52.11205],[-120.72278,52.11196],[-120.72189,52.11205],[-120.72105,52.11204],[-120.72029,52.11208],[-120.71907,52.11221],[-120.71797,52.11222],[-120.71697,52.11229],[-120.71602,52.11245],[-120.71525,52.11255],[-120.71435,52.11244],[-120.7133,52.11226],[-120.71212,52.11206],[-120.71128,52.11188],[-120.71071,52.11173],[-120.71029,52.11155],[-120.7099,52.11114],[-120.70934,52.11087],[-120.70874,52.11061],[-120.70783,52.11023],[-120.70712,52.11002],[-120.70674,52.10986],[-120.70639,52.10993],[-120.7063,52.1101],[-120.70638,52.11031],[-120.70661,52.11051],[-120.70676,52.11066],[-120.70679,52.11091],[-120.70689,52.11118],[-120.70693,52.11136],[-120.70689,52.11166],[-120.70698,52.11194],[-120.70715,52.11214],[-120.70738,52.11232],[-120.70761,52.11249],[-120.70776,52.11275],[-120.70797,52.11297],[-120.70809,52.11317],[-120.70816,52.11343],[-120.70833,52.11359],[-120.70859,52.11374],[-120.70917,52.11394],[-120.70957,52.11414],[-120.7099,52.11434],[-120.71024,52.11464],[-120.71057,52.1149],[-120.71086,52.11511],[-120.71096,52.11528],[-120.71097,52.11533],[-120.711,52.11536],[-120.71102,52.1154],[-120.71105,52.11543],[-120.71107,52.11547],[-120.7111,52.1155],[-120.71113,52.11554],[-120.71116,52.11558],[-120.71118,52.11561],[-120.71121,52.11565],[-120.71123,52.11568],[-120.71126,52.11571],[-120.71129,52.11574],[-120.71132,52.11577],[-120.71135,52.1158],[-120.71138,52.11582],[-120.71139,52.11583],[-120.7114,52.11583],[-120.71146,52.11587],[-120.71149,52.11588],[-120.71152,52.1159],[-120.71156,52.11592],[-120.7116,52.11594],[-120.71165,52.11596],[-120.7117,52.11598],[-120.71175,52.116],[-120.7118,52.11602],[-120.71185,52.11603],[-120.7119,52.11605],[-120.71195,52.11607],[-120.71199,52.11609],[-120.71204,52.11611],[-120.71209,52.11614],[-120.71214,52.11616],[-120.71218,52.11619],[-120.71223,52.11622],[-120.71227,52.11625],[-120.7123,52.11628],[-120.71234,52.11631],[-120.71238,52.11635],[-120.71244,52.11641],[-120.7125,52.11648],[-120.71254,52.11653],[-120.71256,52.11656],[-120.71259,52.1166],[-120.71262,52.11664],[-120.71264,52.11669],[-120.71267,52.11673],[-120.71271,52.11677],[-120.71273,52.1168],[-120.71276,52.11682],[-120.71277,52.11685],[-120.71279,52.11686],[-120.71281,52.11687],[-120.71282,52.11688],[-120.71283,52.11689],[-120.71284,52.1169],[-120.71285,52.11691],[-120.71285,52.11692],[-120.71286,52.11693],[-120.71287,52.11694],[-120.71289,52.11696],[-120.71291,52.11697],[-120.71293,52.11699],[-120.71295,52.117],[-120.71297,52.11702],[-120.71299,52.11703],[-120.713,52.11704],[-120.71302,52.11704],[-120.71304,52.11705],[-120.71305,52.11706],[-120.71306,52.11707],[-120.71308,52.11708],[-120.7131,52.11709],[-120.71312,52.11711],[-120.71314,52.11712],[-120.71316,52.11714],[-120.71318,52.11716],[-120.71321,52.11717],[-120.71323,52.11719],[-120.71326,52.11721],[-120.71328,52.11722],[-120.71331,52.11724],[-120.71333,52.11726],[-120.71335,52.11727],[-120.71339,52.1173],[-120.71342,52.11731],[-120.71345,52.11733],[-120.71347,52.11734],[-120.7135,52.11736],[-120.71352,52.11738],[-120.71355,52.11739],[-120.71357,52.11741],[-120.71359,52.11742],[-120.71363,52.11744],[-120.71379,52.11744],[-120.71401,52.11743],[-120.7142,52.11742],[-120.71442,52.11739],[-120.71482,52.11735],[-120.71503,52.11732],[-120.7152,52.1173],[-120.71537,52.11732],[-120.71559,52.11736],[-120.71572,52.1174],[-120.71582,52.11743],[-120.71596,52.11747],[-120.7161,52.11753],[-120.7162,52.11757],[-120.71639,52.11764],[-120.71652,52.11768],[-120.71671,52.11774],[-120.71684,52.11777],[-120.71697,52.1178],[-120.71714,52.11783],[-120.71725,52.11785],[-120.71739,52.11788],[-120.7176,52.11791],[-120.71774,52.11796],[-120.71785,52.11799],[-120.71798,52.11801],[-120.71811,52.11803],[-120.71817,52.11803],[-120.71823,52.11803],[-120.71834,52.11803],[-120.71843,52.11803],[-120.71848,52.11802]]}},
{"type":"Feature","properties":{"spotId":"E-grouse-atv-0047","kind":"ride","km":5.45,"climbM":191,"name":"160 m W of Deception Creek","flags":[]},"geometry":{"type":"LineString","coordinates":[[-120.57062,52.00832],[-120.57056,52.00845],[-120.57054,52.00852],[-120.57054,52.00878],[-120.57057,52.00886],[-120.57062,52.00898],[-120.57071,52.00915],[-120.57079,52.00933],[-120.57083,52.00939],[-120.57101,52.00956],[-120.57106,52.00967],[-120.57116,52.00979],[-120.57119,52.01001],[-120.5712,52.01007],[-120.57133,52.0104],[-120.5715,52.01068],[-120.5717,52.01085],[-120.57171,52.01087],[-120.57199,52.01105],[-120.57242,52.01129],[-120.57265,52.01146],[-120.57326,52.01185],[-120.57344,52.01202],[-120.57369,52.0122],[-120.57386,52.01238],[-120.57396,52.01257],[-120.5742,52.01275],[-120.57428,52.01286],[-120.57437,52.01296],[-120.57442,52.01308],[-120.57444,52.01319],[-120.5744,52.01338],[-120.5743,52.01357],[-120.57429,52.01377],[-120.57432,52.01389],[-120.57441,52.01407],[-120.57457,52.01424],[-120.57491,52.01444],[-120.575,52.01451],[-120.57532,52.01471],[-120.57548,52.0148],[-120.57555,52.01482],[-120.57565,52.01488],[-120.57581,52.01501],[-120.57588,52.01515],[-120.57588,52.01517],[-120.57586,52.01522],[-120.57586,52.01531],[-120.5759,52.01555],[-120.57588,52.01576],[-120.57587,52.01584],[-120.57591,52.01602],[-120.57593,52.01618],[-120.57592,52.01621],[-120.57599,52.01637],[-120.57604,52.01652],[-120.57608,52.01661],[-120.57609,52.01665],[-120.57617,52.01683],[-120.57626,52.01723],[-120.57628,52.01744],[-120.57629,52.01759],[-120.57628,52.01769],[-120.57639,52.01787],[-120.57641,52.01798],[-120.57642,52.01839],[-120.57641,52.01847],[-120.57638,52.01863],[-120.57634,52.01871],[-120.57636,52.0189],[-120.57637,52.01895],[-120.57637,52.01909],[-120.57626,52.01924],[-120.5761,52.01935],[-120.57603,52.01942],[-120.5759,52.01959],[-120.57579,52.01982],[-120.57577,52.01987],[-120.57571,52.01993],[-120.57561,52.02011],[-120.57557,52.02027],[-120.57555,52.02043],[-120.57551,52.02064],[-120.5755,52.02077],[-120.57543,52.02109],[-120.57543,52.02128],[-120.57542,52.0215],[-120.57542,52.0217],[-120.57543,52.0218],[-120.57548,52.02203],[-120.57548,52.02207],[-120.5756,52.02257],[-120.57574,52.0228],[-120.57587,52.02291],[-120.57603,52.02311],[-120.57609,52.02316],[-120.57618,52.02331],[-120.57623,52.02352],[-120.57621,52.02378],[-120.57616,52.02398],[-120.57613,52.02406],[-120.57603,52.0242],[-120.57592,52.02432],[-120.5758,52.02443],[-120.57561,52.02454],[-120.57548,52.02463],[-120.57533,52.02481],[-120.57528,52.02488],[-120.57521,52.02505],[-120.57519,52.02512],[-120.57521,52.02533],[-120.57525,52.02541],[-120.57537,52.02557],[-120.57546,52.02564],[-120.57565,52.02585],[-120.57572,52.02593],[-120.57595,52.02616],[-120.57619,52.02637],[-120.57632,52.0265],[-120.57644,52.02668],[-120.57664,52.02689],[-120.57682,52.0271],[-120.57725,52.02748],[-120.57742,52.02763],[-120.57756,52.0278],[-120.57768,52.02796],[-120.57777,52.02812],[-120.57795,52.02839],[-120.5781,52.02854],[-120.57834,52.02872],[-120.57842,52.02876],[-120.57851,52.02878],[-120.57871,52.02879],[-120.57882,52.02877],[-120.579,52.02868],[-120.57927,52.02852],[-120.57959,52.02841],[-120.57977,52.02835],[-120.58002,52.02829],[-120.58017,52.02829],[-120.58025,52.02835],[-120.58031,52.02841],[-120.58033,52.0285],[-120.5804,52.02861],[-120.58051,52.02873],[-120.58054,52.0288],[-120.58071,52.02901],[-120.5808,52.02905],[-120.58091,52.02907],[-120.58119,52.02903],[-120.58128,52.02902],[-120.58163,52.02909],[-120.58174,52.02912],[-120.58188,52.02921],[-120.58192,52.02926],[-120.58198,52.02939],[-120.5821,52.02958],[-120.58226,52.02987],[-120.5824,52.02998],[-120.58276,52.03007],[-120.58286,52.0301],[-120.58296,52.03014],[-120.58314,52.0302],[-120.58333,52.03023],[-120.5834,52.03025],[-120.58351,52.03037],[-120.58359,52.03056],[-120.58365,52.0306],[-120.58373,52.03063],[-120.58402,52.03073],[-120.58409,52.03077],[-120.58421,52.03089],[-120.5845,52.03105],[-120.58481,52.03121],[-120.58505,52.0313],[-120.5852,52.03133],[-120.58532,52.03137],[-120.58557,52.03149],[-120.5858,52.03156],[-120.58592,52.03161],[-120.58657,52.03188],[-120.58676,52.032],[-120.58705,52.03213],[-120.58723,52.03223],[-120.58743,52.03233],[-120.58774,52.03247],[-120.58803,52.03262],[-120.58811,52.03267],[-120.58831,52.03277],[-120.58849,52.03288],[-120.58915,52.0332],[-120.58935,52.03333],[-120.58959,52.03344],[-120.58991,52.03363],[-120.59003,52.03369],[-120.59035,52.03388],[-120.59056,52.03399],[-120.59068,52.03405],[-120.59106,52.03426],[-120.59114,52.03433],[-120.59133,52.03443],[-120.59148,52.03448],[-120.59165,52.03459],[-120.59191,52.0347],[-120.59204,52.03478],[-120.59219,52.03484],[-120.59237,52.03504],[-120.59241,52.03516],[-120.59243,52.03538],[-120.59258,52.03574],[-120.59278,52.03597],[-120.5929,52.03614],[-120.59314,52.03643],[-120.59334,52.03665],[-120.59339,52.03673],[-120.5935,52.03682],[-120.59353,52.03687],[-120.59358,52.03692],[-120.59374,52.03698],[-120.59403,52.03706],[-120.59421,52.03716],[-120.59437,52.03726],[-120.59444,52.03733],[-120.59446,52.03739],[-120.59445,52.03756],[-120.59447,52.03763],[-120.59449,52.03771],[-120.59458,52.03788],[-120.59468,52.03801],[-120.59468,52.03807],[-120.59466,52.03814],[-120.59458,52.0382],[-120.59448,52.03824],[-120.59439,52.03829],[-120.59426,52.03839],[-120.59422,52.03849],[-120.59421,52.03859],[-120.59422,52.03865],[-120.59437,52.03882],[-120.59443,52.0389],[-120.59445,52.03905],[-120.59444,52.03914],[-120.59449,52.03929],[-120.59463,52.03944],[-120.59487,52.03964],[-120.59492,52.03973],[-120.59501,52.0398],[-120.59514,52.03997],[-120.59539,52.04019],[-120.59548,52.04028],[-120.59578,52.04049],[-120.59588,52.04056],[-120.59598,52.04063],[-120.59626,52.04083],[-120.59645,52.04094],[-120.59666,52.04107],[-120.597,52.0413],[-120.59726,52.04149],[-120.59744,52.04168],[-120.59751,52.04178],[-120.59765,52.04215],[-120.5977,52.04235],[-120.59777,52.04243],[-120.59792,52.04257],[-120.598,52.04263],[-120.59811,52.04278],[-120.59812,52.04293],[-120.59807,52.04306],[-120.59803,52.04321],[-120.59801,52.0433],[-120.598,52.04343],[-120.59801,52.04355],[-120.59808,52.04366],[-120.59809,52.04371],[-120.59809,52.04373],[-120.59814,52.04387],[-120.59821,52.04392],[-120.59841,52.044],[-120.59848,52.04407],[-120.59852,52.04421],[-120.59868,52.04441],[-120.59878,52.04447],[-120.59904,52.04456],[-120.59916,52.0447],[-120.59927,52.04485],[-120.59948,52.04503],[-120.59973,52.04515],[-120.59986,52.0452],[-120.60005,52.04527],[-120.60012,52.04533],[-120.60021,52.04545],[-120.60029,52.04571],[-120.60033,52.04592],[-120.60033,52.04597],[-120.60043,52.04612],[-120.60054,52.0462],[-120.6008,52.04629],[-120.60114,52.04639],[-120.60123,52.04642],[-120.60131,52.04643],[-120.60139,52.04642],[-120.60165,52.04643],[-120.60187,52.04645],[-120.60222,52.04646],[-120.60264,52.04643],[-120.60287,52.04643],[-120.60298,52.04643]]}},
{"type":"Feature","properties":{"spotId":"E-grouse-atv-0054","kind":"ride","km":4.17,"climbM":112,"name":"810 m NW of Art Creek","flags":[]},"geometry":{"type":"LineString","coordinates":[[-120.64252,52.00031],[-120.64305,52.0004],[-120.64369,52.00047],[-120.64568,52.00022],[-120.64576,52.0002],[-120.64604,52.00015],[-120.64689,52.00002],[-120.64711,52.0],[-120.64738,51.99995],[-120.64776,51.9999],[-120.64781,51.99989],[-120.64823,51.99983],[-120.64863,51.99971],[-120.64867,51.99968],[-120.64895,51.99951],[-120.64925,51.99926],[-120.64977,51.99899],[-120.65024,51.99894],[-120.65095,51.99902],[-120.65163,51.99914],[-120.65178,51.99918],[-120.65213,51.99929],[-120.65257,51.9994],[-120.65318,51.99958],[-120.65333,51.99966],[-120.6535,51.99975],[-120.65373,51.99987],[-120.65405,52.00006],[-120.65412,52.00009],[-120.65434,52.00023],[-120.65468,52.00032],[-120.65497,52.00037],[-120.65517,52.00042],[-120.65555,52.00041],[-120.65595,52.0003],[-120.65624,52.00022],[-120.6564,52.00017],[-120.65641,52.00017],[-120.65673,52.00015],[-120.65696,52.00015],[-120.65738,52.00014],[-120.65774,52.00017],[-120.65818,52.00021],[-120.65857,52.00025],[-120.65884,52.00025],[-120.6591,52.0003],[-120.65937,52.00035],[-120.65965,52.00037],[-120.66004,52.00029],[-120.66042,52.0002],[-120.66064,52.00015],[-120.661,52.00003],[-120.66123,51.99996],[-120.66137,51.99994],[-120.66175,51.99991],[-120.66221,51.99998],[-120.66262,52.00009],[-120.66297,52.00015],[-120.66321,52.00022],[-120.66351,52.00039],[-120.66386,52.00058],[-120.66412,52.00076],[-120.665,52.00124],[-120.66539,52.00144],[-120.66576,52.00152],[-120.66616,52.00163],[-120.66636,52.00167],[-120.66653,52.00172],[-120.66663,52.00175],[-120.66696,52.00176],[-120.66775,52.00164],[-120.66859,52.00162],[-120.66909,52.0016],[-120.66992,52.00161],[-120.67063,52.00187],[-120.67097,52.002],[-120.67125,52.00224],[-120.67155,52.0025],[-120.67175,52.00284],[-120.67181,52.00324],[-120.67166,52.00384],[-120.67182,52.00415],[-120.67194,52.00422],[-120.67213,52.00433],[-120.67223,52.00438],[-120.6723,52.00441],[-120.67266,52.00456],[-120.6729,52.00464],[-120.67316,52.00464],[-120.67333,52.00459],[-120.67348,52.00448],[-120.67357,52.00439],[-120.67366,52.00432],[-120.67388,52.00422],[-120.6742,52.00413],[-120.67429,52.00409],[-120.67442,52.00402],[-120.67476,52.00394],[-120.67477,52.00394],[-120.67502,52.00401],[-120.67526,52.0041],[-120.67532,52.00413],[-120.67562,52.00416],[-120.67595,52.00412],[-120.67613,52.00408],[-120.6765,52.00398],[-120.6769,52.00406],[-120.67761,52.00423],[-120.67805,52.00443],[-120.67829,52.0045],[-120.67859,52.00458],[-120.6793,52.00512],[-120.6796,52.00543],[-120.67967,52.00574],[-120.67969,52.00593],[-120.67969,52.00595],[-120.67973,52.00609],[-120.67988,52.00619],[-120.68017,52.00629],[-120.68049,52.00635],[-120.68078,52.00641],[-120.68094,52.00651],[-120.68103,52.00662],[-120.68116,52.00676],[-120.68124,52.00686],[-120.68147,52.00705],[-120.68166,52.00719],[-120.68185,52.00734],[-120.68206,52.00742],[-120.68234,52.0075],[-120.68267,52.00756],[-120.68311,52.00763],[-120.68357,52.00768],[-120.68396,52.00768],[-120.68443,52.00775],[-120.68479,52.00789],[-120.68501,52.00801],[-120.68527,52.00807],[-120.68552,52.00806],[-120.68585,52.00804],[-120.68621,52.00802],[-120.68646,52.00809],[-120.68665,52.00824],[-120.68699,52.00846],[-120.68724,52.00872],[-120.68725,52.00878],[-120.68729,52.00894],[-120.68741,52.00911],[-120.68767,52.00916],[-120.68789,52.00917],[-120.68811,52.00922],[-120.68812,52.00922],[-120.6883,52.00932],[-120.68853,52.00951],[-120.6887,52.00973],[-120.68875,52.0098],[-120.68879,52.00985],[-120.68884,52.01003],[-120.68891,52.01022],[-120.68895,52.01027],[-120.68904,52.01037],[-120.68906,52.01038],[-120.68925,52.01043],[-120.68948,52.01045],[-120.6895,52.01045],[-120.68972,52.01041],[-120.68993,52.01032],[-120.69019,52.01021],[-120.69022,52.01019],[-120.69056,52.01005],[-120.69091,52.00987],[-120.69101,52.00981]]}},
{"type":"Feature","properties":{"spotId":"E-grouse-atv-0064","kind":"ride","km":4.93,"climbM":122,"name":"260 m E of Hendrix Creek","flags":[]},"geometry":{"type":"LineString","coordinates":[[-120.74338,52.04574],[-120.74337,52.04562],[-120.74337,52.04559],[-120.74335,52.04552],[-120.74333,52.04549],[-120.74331,52.04545],[-120.74328,52.04541],[-120.74326,52.04537],[-120.74322,52.04526],[-120.74321,52.04523],[-120.74321,52.04513],[-120.7432,52.04507],[-120.74322,52.04496],[-120.74323,52.04495],[-120.74322,52.04489],[-120.74319,52.04486],[-120.74318,52.04481],[-120.74316,52.04475],[-120.74314,52.04468],[-120.74305,52.04456],[-120.74305,52.04452],[-120.74302,52.04447],[-120.74299,52.04438],[-120.74294,52.04428],[-120.74294,52.04425],[-120.74292,52.04422],[-120.74291,52.0442],[-120.74282,52.04405],[-120.74273,52.04391],[-120.74266,52.04387],[-120.74263,52.04383],[-120.74258,52.04381],[-120.74258,52.0438],[-120.74246,52.04366],[-120.74242,52.04363],[-120.74237,52.04355],[-120.74231,52.04343],[-120.74225,52.04341],[-120.74221,52.04337],[-120.74213,52.04325],[-120.74206,52.04316],[-120.74204,52.04313],[-120.74201,52.04307],[-120.74192,52.04298],[-120.7419,52.04294],[-120.74188,52.04291],[-120.74185,52.04285],[-120.74181,52.04283],[-120.74175,52.04276],[-120.74169,52.04255],[-120.74148,52.04247],[-120.74141,52.04235],[-120.74136,52.04226],[-120.74133,52.04222],[-120.74117,52.04214],[-120.7409,52.04201],[-120.74085,52.04199],[-120.74083,52.04189],[-120.7408,52.04176],[-120.74076,52.04163],[-120.74071,52.04146],[-120.74068,52.04133],[-120.74063,52.04126],[-120.74063,52.04116],[-120.74061,52.04112],[-120.74061,52.04108],[-120.74061,52.04094],[-120.74062,52.04069],[-120.74062,52.04064],[-120.7406,52.04048],[-120.74057,52.04038],[-120.74052,52.04022],[-120.74051,52.04017],[-120.74049,52.04009],[-120.74043,52.03997],[-120.74036,52.03975],[-120.74035,52.03972],[-120.74029,52.03961],[-120.74022,52.03941],[-120.74021,52.03936],[-120.74021,52.03927],[-120.74014,52.03918],[-120.7401,52.03909],[-120.74008,52.03899],[-120.74,52.03884],[-120.73989,52.03856],[-120.73988,52.03849],[-120.73985,52.03837],[-120.73984,52.03834],[-120.73978,52.03821],[-120.73974,52.03808],[-120.7397,52.03794],[-120.7397,52.03792],[-120.73969,52.03788],[-120.73968,52.03781],[-120.73973,52.03762],[-120.73975,52.03755],[-120.73977,52.0374],[-120.73979,52.03724],[-120.7398,52.03721],[-120.73981,52.03717],[-120.73984,52.0371],[-120.73984,52.03703],[-120.73982,52.03699],[-120.73982,52.03689],[-120.73977,52.03673],[-120.73971,52.03657],[-120.73973,52.03651],[-120.73965,52.03646],[-120.7396,52.0364],[-120.73947,52.03623],[-120.7394,52.03614],[-120.73935,52.03608],[-120.73928,52.03603],[-120.73919,52.03597],[-120.73901,52.0358],[-120.73888,52.03563],[-120.73881,52.03553],[-120.73875,52.03548],[-120.73873,52.03544],[-120.7387,52.03537],[-120.73862,52.03524],[-120.73855,52.03511],[-120.73849,52.03501],[-120.73846,52.03496],[-120.73842,52.03485],[-120.73841,52.03481],[-120.73839,52.03471],[-120.73834,52.0346],[-120.73832,52.03456],[-120.73827,52.03446],[-120.73823,52.03437],[-120.73819,52.03425],[-120.73818,52.03421],[-120.73814,52.03407],[-120.73809,52.03388],[-120.73803,52.03374],[-120.73798,52.03364],[-120.73795,52.0336],[-120.7378,52.03345],[-120.73764,52.03332],[-120.73758,52.03329],[-120.73738,52.03315],[-120.73729,52.0331],[-120.73717,52.033],[-120.73697,52.03285],[-120.73678,52.0327],[-120.7366,52.03258],[-120.73652,52.03251],[-120.73647,52.03249],[-120.73641,52.03246],[-120.73624,52.03232],[-120.7362,52.0323],[-120.73611,52.03226],[-120.73605,52.03224],[-120.73596,52.03222],[-120.73588,52.03222],[-120.73571,52.03221],[-120.7355,52.03221],[-120.73533,52.03221],[-120.73517,52.03222],[-120.73498,52.03222],[-120.73484,52.03222],[-120.73466,52.03221],[-120.73447,52.03219],[-120.7344,52.03219],[-120.73422,52.03218],[-120.73409,52.03219],[-120.734,52.0322],[-120.73389,52.03221],[-120.73347,52.03225],[-120.73335,52.03225],[-120.73327,52.03224],[-120.73307,52.03227],[-120.7329,52.03226],[-120.73253,52.03222],[-120.73237,52.03216],[-120.73193,52.03183],[-120.73148,52.03154],[-120.73125,52.03146],[-120.73106,52.03138],[-120.73084,52.03129],[-120.73055,52.0312],[-120.73015,52.03107],[-120.72976,52.03091],[-120.72943,52.03066],[-120.7292,52.03034],[-120.72902,52.03016],[-120.72882,52.02976],[-120.72877,52.02959],[-120.72858,52.02938],[-120.72821,52.02899],[-120.72793,52.02864],[-120.7276,52.02826],[-120.72725,52.02804],[-120.72716,52.02762],[-120.72718,52.0274],[-120.72679,52.02699],[-120.72659,52.02676],[-120.72625,52.02654],[-120.72598,52.02641],[-120.72564,52.02614],[-120.72536,52.02591],[-120.72529,52.0256],[-120.72532,52.02538],[-120.72532,52.02537],[-120.72532,52.025],[-120.72546,52.02487],[-120.72568,52.02461],[-120.72555,52.02426],[-120.72558,52.02412],[-120.72553,52.02375],[-120.72553,52.02372],[-120.72549,52.02337],[-120.72556,52.02326],[-120.72559,52.02302],[-120.72556,52.02288],[-120.72571,52.02252],[-120.72554,52.02243],[-120.72538,52.02218],[-120.72521,52.02196],[-120.72541,52.02147],[-120.72538,52.02127],[-120.72514,52.02103],[-120.72483,52.02082],[-120.72478,52.02065],[-120.72476,52.02059],[-120.72475,52.02059],[-120.72456,52.02035],[-120.72443,52.02029],[-120.72419,52.02024],[-120.72393,52.02003],[-120.72372,52.01976],[-120.72362,52.01957],[-120.72361,52.01939],[-120.7236,52.01934],[-120.7236,52.01925],[-120.72361,52.01922],[-120.72361,52.0192],[-120.72361,52.01919],[-120.72363,52.01918],[-120.72365,52.01915],[-120.72365,52.01912],[-120.72369,52.01907],[-120.7237,52.01906],[-120.72372,52.01905],[-120.72374,52.01902],[-120.72376,52.01896],[-120.7238,52.01891],[-120.72382,52.01888],[-120.72387,52.01886],[-120.72396,52.01885],[-120.72399,52.0188],[-120.72403,52.01879],[-120.72414,52.01872],[-120.72418,52.0187],[-120.7242,52.01867],[-120.72425,52.01862],[-120.72433,52.01855],[-120.72431,52.01849],[-120.72431,52.01847],[-120.72432,52.01843],[-120.72427,52.01831],[-120.72423,52.01826],[-120.72423,52.01823],[-120.72421,52.0182],[-120.72415,52.01816],[-120.72412,52.01815],[-120.72409,52.01813],[-120.72404,52.01807],[-120.72399,52.01805],[-120.72395,52.01803],[-120.72392,52.01801],[-120.72388,52.01801],[-120.72382,52.01796],[-120.72377,52.01795],[-120.72372,52.01794],[-120.7237,52.01793],[-120.72367,52.01792],[-120.72363,52.01793],[-120.72361,52.01791],[-120.72356,52.01787],[-120.72353,52.01785],[-120.72351,52.01783],[-120.72349,52.01781],[-120.7235,52.0178],[-120.72353,52.01776],[-120.72351,52.01773],[-120.72348,52.01771],[-120.72345,52.01766],[-120.72344,52.01763],[-120.72339,52.01756],[-120.7234,52.01751],[-120.72339,52.01749],[-120.72336,52.01746],[-120.72335,52.01744],[-120.72339,52.01738],[-120.72337,52.0173],[-120.7234,52.01727],[-120.7234,52.01724],[-120.72338,52.01722],[-120.72338,52.01715],[-120.72336,52.01712],[-120.72335,52.01707],[-120.72335,52.01705],[-120.72336,52.01702],[-120.72334,52.01697],[-120.72333,52.01691],[-120.72335,52.01688],[-120.72336,52.01687],[-120.72336,52.01684],[-120.72333,52.01681],[-120.72332,52.01671],[-120.72332,52.01665],[-120.72334,52.01662],[-120.72333,52.01661],[-120.72331,52.01657],[-120.72332,52.01653],[-120.72331,52.01646],[-120.72328,52.01644],[-120.72327,52.01641],[-120.72328,52.01639],[-120.72328,52.01638],[-120.72326,52.01637],[-120.72326,52.01635],[-120.72327,52.01634],[-120.72326,52.01631],[-120.72325,52.0163],[-120.72323,52.01628],[-120.72323,52.01625],[-120.72324,52.01623],[-120.72326,52.01619],[-120.72327,52.01616],[-120.7233,52.01614],[-120.7233,52.01611],[-120.72332,52.01607],[-120.72331,52.016],[-120.72333,52.01597],[-120.72334,52.01593],[-120.72335,52.0159],[-120.72335,52.01588],[-120.72325,52.01576],[-120.72325,52.01569],[-120.72321,52.01563],[-120.72316,52.01558],[-120.72313,52.01552],[-120.7231,52.01549],[-120.72308,52.01541],[-120.72303,52.01532],[-120.72304,52.01526],[-120.72304,52.01522],[-120.72305,52.0152],[-120.72303,52.01517],[-120.72305,52.0151],[-120.72304,52.01507],[-120.72308,52.01504],[-120.72308,52.01502],[-120.72305,52.01501],[-120.72307,52.01498],[-120.72307,52.01493],[-120.72308,52.01491],[-120.72311,52.01491],[-120.72313,52.01489],[-120.72313,52.01488],[-120.72311,52.01487],[-120.7231,52.01486],[-120.72311,52.01485],[-120.72313,52.01483],[-120.72315,52.01482],[-120.72321,52.01478],[-120.72322,52.01476],[-120.72323,52.01474],[-120.72328,52.01471],[-120.72325,52.01465],[-120.7233,52.01462],[-120.72339,52.01461],[-120.72341,52.01458],[-120.72345,52.01458],[-120.72349,52.01456],[-120.72353,52.01455],[-120.72357,52.01453],[-120.72362,52.01452],[-120.72371,52.01451],[-120.7238,52.0145],[-120.72385,52.01448],[-120.72389,52.01447],[-120.72394,52.01447],[-120.72396,52.01445],[-120.724,52.01444],[-120.72405,52.01443],[-120.72407,52.01441],[-120.72408,52.01441],[-120.72411,52.0144],[-120.72416,52.01439],[-120.72425,52.01433],[-120.72426,52.01431],[-120.72427,52.01429],[-120.7243,52.01428],[-120.72431,52.01426],[-120.72432,52.01423],[-120.72431,52.01419],[-120.7243,52.01417],[-120.7243,52.01415],[-120.72429,52.01413],[-120.7243,52.0141],[-120.72427,52.01408],[-120.72427,52.01405],[-120.72426,52.01402],[-120.72422,52.01399],[-120.72419,52.01397],[-120.72421,52.01393],[-120.7242,52.01391],[-120.72427,52.01385],[-120.72427,52.01383],[-120.7243,52.01377],[-120.72431,52.01373],[-120.72428,52.01369],[-120.72427,52.01368],[-120.72425,52.01365],[-120.72425,52.01362],[-120.72428,52.01359],[-120.72429,52.01357],[-120.72431,52.01351],[-120.72437,52.01348],[-120.72438,52.01348],[-120.72439,52.01346],[-120.72437,52.01344],[-120.72438,52.01338],[-120.72446,52.01331],[-120.72446,52.0133],[-120.72446,52.01329],[-120.72443,52.01323],[-120.72444,52.0132],[-120.72449,52.01315],[-120.7245,52.01312],[-120.72448,52.01308],[-120.72449,52.01305],[-120.7245,52.01301],[-120.7245,52.01297],[-120.72451,52.01293],[-120.72453,52.0129],[-120.72452,52.01287],[-120.7245,52.01286],[-120.72448,52.01285],[-120.72447,52.01284],[-120.72449,52.01282],[-120.72448,52.01279],[-120.72448,52.01277],[-120.72448,52.01276],[-120.72449,52.01275],[-120.7245,52.01275],[-120.7245,52.01274],[-120.7245,52.01273],[-120.72451,52.01271],[-120.72453,52.0127],[-120.72454,52.01269],[-120.72456,52.01268],[-120.72456,52.01267],[-120.72455,52.01266],[-120.72454,52.01265],[-120.72454,52.01262],[-120.72457,52.0126],[-120.72458,52.01256],[-120.72459,52.01253],[-120.72458,52.01249],[-120.7246,52.01246],[-120.72461,52.01243],[-120.72463,52.0124],[-120.72463,52.01238],[-120.72464,52.01236],[-120.72463,52.01234],[-120.7246,52.01233],[-120.72458,52.0123],[-120.72457,52.01227],[-120.72458,52.01224],[-120.72457,52.01223],[-120.72456,52.01221],[-120.72455,52.01218],[-120.72454,52.01215],[-120.72451,52.01213],[-120.72451,52.0121],[-120.72451,52.01207],[-120.72452,52.01204],[-120.72454,52.01202],[-120.72455,52.01199],[-120.72458,52.01195],[-120.72457,52.01193],[-120.72457,52.01187],[-120.72458,52.01184],[-120.72456,52.01181],[-120.72456,52.01178],[-120.72455,52.01175],[-120.72459,52.01168],[-120.72456,52.01164],[-120.72454,52.01162],[-120.72453,52.0116],[-120.72452,52.0116],[-120.72452,52.01159],[-120.72451,52.01159],[-120.72449,52.01157],[-120.72448,52.01156],[-120.72447,52.01155],[-120.72445,52.01151],[-120.72445,52.01148],[-120.72444,52.01147],[-120.72444,52.01145],[-120.72443,52.01142],[-120.72442,52.01139],[-120.72439,52.01137],[-120.72438,52.01133],[-120.72436,52.0113],[-120.72437,52.01127],[-120.72438,52.01124],[-120.72438,52.01123],[-120.72438,52.01122],[-120.72437,52.0112],[-120.72438,52.01117],[-120.7244,52.01115],[-120.72441,52.01114],[-120.72443,52.01112],[-120.72443,52.01108],[-120.72444,52.01105],[-120.72445,52.01102],[-120.72446,52.01099],[-120.72445,52.01096],[-120.72446,52.01093],[-120.72447,52.0109],[-120.72447,52.01087],[-120.72447,52.01084],[-120.72445,52.01082],[-120.72445,52.01079],[-120.72443,52.01076],[-120.72441,52.01073],[-120.72439,52.01071],[-120.72438,52.01067],[-120.72436,52.01064],[-120.72434,52.01061],[-120.72432,52.01059],[-120.7243,52.01057],[-120.72428,52.01057],[-120.72426,52.01054],[-120.72421,52.01052],[-120.72418,52.0105],[-120.72417,52.01049],[-120.72414,52.01048],[-120.72412,52.01045],[-120.72408,52.01044],[-120.72405,52.01042],[-120.72401,52.01039],[-120.72397,52.01037],[-120.72394,52.01035],[-120.72391,52.01033],[-120.72389,52.0103],[-120.72386,52.01028],[-120.72383,52.01026],[-120.72382,52.01025],[-120.72379,52.01022],[-120.72375,52.01021],[-120.7237,52.01019],[-120.72365,52.01018],[-120.72363,52.01015],[-120.72363,52.01012],[-120.7236,52.0101],[-120.72356,52.01007],[-120.72357,52.01004],[-120.72356,52.01],[-120.72354,52.00998],[-120.72352,52.00991],[-120.7235,52.00988],[-120.7235,52.00987],[-120.72348,52.00984],[-120.72345,52.00982],[-120.72344,52.00978],[-120.72344,52.00976],[-120.72344,52.00975],[-120.72344,52.00972],[-120.72342,52.0097],[-120.72342,52.00969],[-120.72341,52.00968],[-120.72339,52.00966],[-120.72337,52.00963],[-120.72334,52.00961],[-120.72334,52.00958],[-120.72333,52.00956],[-120.72332,52.00955],[-120.72332,52.00952],[-120.72329,52.00949],[-120.72327,52.00945],[-120.7233,52.00943],[-120.72331,52.00939],[-120.72329,52.00936],[-120.72327,52.00934],[-120.72326,52.00933],[-120.72328,52.0093],[-120.72327,52.00927],[-120.72323,52.00925],[-120.72321,52.00923],[-120.7232,52.0092],[-120.72318,52.00918],[-120.72317,52.00917],[-120.72313,52.00915],[-120.72309,52.00914],[-120.72305,52.00913],[-120.72298,52.00909],[-120.72294,52.00902],[-120.7229,52.009],[-120.72289,52.00899],[-120.72286,52.00895],[-120.72285,52.00894],[-120.72282,52.00892]]}},
{"type":"Feature","properties":{"spotId":"E-grouse-atv-0070","kind":"walk","km":4.81,"climbM":342,"name":"290 m NE of Deception Creek","flags":["Route enters a Motor Vehicle for Hunting Closed Area: Spanish No-Name Lake Forest Service Road. Road Closure. Synopsis map 2-37/24."]},"geometry":{"type":"LineString","coordinates":[[-120.63781,52.0491],[-120.57441,52.0677]]}},
{"type":"Feature","properties":{"spotId":"E-grouse-atv-0070","kind":"ride","km":5.85,"climbM":205,"name":"290 m NE of Deception Creek","flags":["Route enters a Motor Vehicle for Hunting Closed Area: Spanish No-Name Lake Forest Service Road. Road Closure. Synopsis map 2-37/24."]},"geometry":{"type":"LineString","coordinates":[[-120.57441,52.0677],[-120.57441,52.06776],[-120.57438,52.06792],[-120.57437,52.06806],[-120.5744,52.06821],[-120.57451,52.06838],[-120.57462,52.06855],[-120.57467,52.06877],[-120.57468,52.06889],[-120.57464,52.06919],[-120.57458,52.0695],[-120.57453,52.06966],[-120.57438,52.06988],[-120.57428,52.07014],[-120.5743,52.07018],[-120.57429,52.0702],[-120.5743,52.07028],[-120.57438,52.07043],[-120.5744,52.07046],[-120.57447,52.07063],[-120.57453,52.07075],[-120.57458,52.07086],[-120.57458,52.07088],[-120.57459,52.07101],[-120.57474,52.07115],[-120.57479,52.07118],[-120.57493,52.07133],[-120.57523,52.07159],[-120.57545,52.07179],[-120.57566,52.07197],[-120.57581,52.07212],[-120.57589,52.0722],[-120.57597,52.07226],[-120.57603,52.07233],[-120.57602,52.07242],[-120.57607,52.07256],[-120.57611,52.07266],[-120.57614,52.07278],[-120.57629,52.07292],[-120.57648,52.07311],[-120.57662,52.07324],[-120.5768,52.07334],[-120.57709,52.07338],[-120.57735,52.07341],[-120.57746,52.07344],[-120.57764,52.07355],[-120.5778,52.07361],[-120.57797,52.07369],[-120.57808,52.07379],[-120.5778,52.07404],[-120.57752,52.07429],[-120.57725,52.07451],[-120.57689,52.07469],[-120.57646,52.07478],[-120.57602,52.07485],[-120.57556,52.07491],[-120.57517,52.07489],[-120.57473,52.07492],[-120.5742,52.07502],[-120.57376,52.07517],[-120.57346,52.07535],[-120.57308,52.07555],[-120.57279,52.07582],[-120.57253,52.07604],[-120.5721,52.0763],[-120.57169,52.07647],[-120.57097,52.07669],[-120.5706,52.07683],[-120.57029,52.07706],[-120.56999,52.07724],[-120.56954,52.07749],[-120.56918,52.07773],[-120.56891,52.07803],[-120.56867,52.07833],[-120.56834,52.0787],[-120.568,52.07904],[-120.56776,52.07926],[-120.56768,52.07933],[-120.56749,52.07934],[-120.56726,52.07926],[-120.56697,52.07906],[-120.56655,52.07879],[-120.5662,52.07851],[-120.56581,52.07829],[-120.56559,52.07807],[-120.56526,52.07768],[-120.56517,52.07707],[-120.56509,52.0766],[-120.56487,52.0762],[-120.56445,52.07574],[-120.56388,52.0751],[-120.56334,52.07449],[-120.56273,52.07366],[-120.56221,52.07295],[-120.56197,52.07241],[-120.56173,52.07186],[-120.56149,52.07132],[-120.56142,52.07109],[-120.56112,52.0709],[-120.55982,52.07042],[-120.55836,52.06977],[-120.55625,52.06879],[-120.55496,52.06822],[-120.55361,52.06738],[-120.55267,52.06684],[-120.55158,52.06629],[-120.55039,52.06566],[-120.54969,52.06527],[-120.54902,52.06487],[-120.54856,52.06449],[-120.54824,52.06411],[-120.54802,52.06388],[-120.54774,52.06376],[-120.54769,52.0635],[-120.54766,52.06322],[-120.54741,52.06285],[-120.54708,52.06252],[-120.54675,52.06212],[-120.54652,52.0619],[-120.54625,52.06154],[-120.54598,52.06106],[-120.54564,52.06059],[-120.54539,52.06022],[-120.545,52.05981],[-120.54448,52.05939],[-120.5438,52.05885],[-120.54323,52.0585],[-120.54288,52.05827],[-120.54216,52.05782],[-120.5411,52.05737],[-120.53979,52.0568],[-120.53882,52.05642],[-120.5372,52.05583],[-120.53548,52.05524],[-120.53348,52.0548],[-120.53196,52.05448],[-120.5305,52.05422],[-120.52956,52.05404],[-120.52913,52.05395]]}},
{"type":"Feature","properties":{"spotId":"E-grouse-atv-0102","kind":"ride","km":4.51,"climbM":104,"name":"170 m SW of McKinley Creek","flags":[]},"geometry":{"type":"LineString","coordinates":[[-120.74266,52.1434],[-120.74241,52.14341],[-120.7423,52.1434],[-120.74218,52.14336],[-120.742,52.14325],[-120.74194,52.14322],[-120.74174,52.14317],[-120.74154,52.1431],[-120.74145,52.14306],[-120.7413,52.14295],[-120.7412,52.1429],[-120.74101,52.14279],[-120.74086,52.14265],[-120.74064,52.14254],[-120.7405,52.1425],[-120.74023,52.14244],[-120.74009,52.14243],[-120.73995,52.1424],[-120.73959,52.1423],[-120.73928,52.14226],[-120.73904,52.14222],[-120.73874,52.14213],[-120.7384,52.14204],[-120.7383,52.142],[-120.7382,52.14196],[-120.73813,52.14191],[-120.73806,52.14185],[-120.738,52.14174],[-120.73788,52.14171],[-120.73779,52.14171],[-120.73773,52.14173],[-120.73742,52.14181],[-120.73716,52.14189],[-120.73708,52.14191],[-120.73705,52.14192],[-120.73684,52.142],[-120.73669,52.14208],[-120.73665,52.14212],[-120.73657,52.14223],[-120.73649,52.14242],[-120.73639,52.14253],[-120.73623,52.14264],[-120.73594,52.14277],[-120.73587,52.14281],[-120.73557,52.14294],[-120.73526,52.14304],[-120.73505,52.14306],[-120.73473,52.14305],[-120.7345,52.14301],[-120.73423,52.14299],[-120.73402,52.14298],[-120.73365,52.14304],[-120.73353,52.14307],[-120.73343,52.14306],[-120.73331,52.14304],[-120.73299,52.14294],[-120.73269,52.14283],[-120.73248,52.14277],[-120.73213,52.14274],[-120.73188,52.14272],[-120.73165,52.14266],[-120.73129,52.14264],[-120.73104,52.14262],[-120.73082,52.14256],[-120.73055,52.14254],[-120.73018,52.14255],[-120.72983,52.14259],[-120.72971,52.14261],[-120.72949,52.14261],[-120.72937,52.14259],[-120.72917,52.14252],[-120.72906,52.1425],[-120.7287,52.14235],[-120.72841,52.14223],[-120.72807,52.1421],[-120.72785,52.14203],[-120.72772,52.14202],[-120.72738,52.14204],[-120.72716,52.14205],[-120.72713,52.14206],[-120.72688,52.14216],[-120.72676,52.14218],[-120.72645,52.14229],[-120.72626,52.14233],[-120.72589,52.14234],[-120.72564,52.14235],[-120.72538,52.14235],[-120.72516,52.14233],[-120.72505,52.14232],[-120.72487,52.14227],[-120.72457,52.14216],[-120.72427,52.14203],[-120.72401,52.142],[-120.72365,52.14191],[-120.72355,52.14188],[-120.72324,52.14166],[-120.72314,52.14162],[-120.72279,52.14152],[-120.72268,52.14148],[-120.72242,52.14142],[-120.72229,52.14139],[-120.72194,52.14128],[-120.72183,52.14125],[-120.72146,52.1412],[-120.72119,52.14111],[-120.72094,52.14106],[-120.72072,52.14098],[-120.72044,52.14092],[-120.72018,52.14086],[-120.71986,52.14083],[-120.71961,52.14085],[-120.71933,52.14085],[-120.71909,52.14084],[-120.71885,52.14081],[-120.71882,52.14081],[-120.71859,52.14081],[-120.71833,52.14081],[-120.71798,52.14081],[-120.71769,52.14077],[-120.7175,52.14073],[-120.71727,52.14067],[-120.71694,52.14057],[-120.71666,52.1405],[-120.71652,52.1405],[-120.7162,52.14046],[-120.71605,52.14044],[-120.71572,52.14035],[-120.71571,52.14035],[-120.71546,52.14027],[-120.7152,52.1402],[-120.71485,52.14014],[-120.71459,52.1401],[-120.71425,52.14001],[-120.714,52.13992],[-120.7139,52.13985],[-120.71372,52.13973],[-120.71362,52.13969],[-120.71351,52.13965],[-120.71339,52.13963],[-120.71314,52.13956],[-120.7129,52.13947],[-120.71284,52.13944],[-120.71272,52.13936],[-120.71262,52.13933],[-120.71247,52.13923],[-120.71237,52.13919],[-120.7122,52.13909],[-120.71205,52.13898],[-120.71195,52.13893],[-120.71174,52.13881],[-120.71167,52.13876],[-120.71132,52.13863],[-120.71121,52.13859],[-120.71112,52.13856],[-120.71085,52.13847],[-120.7107,52.1384],[-120.71043,52.13831],[-120.71016,52.13815],[-120.70988,52.13799],[-120.70974,52.1379],[-120.70969,52.13788],[-120.70939,52.13773],[-120.70921,52.13762],[-120.709,52.13753],[-120.70876,52.13747],[-120.70862,52.13742],[-120.70827,52.13735],[-120.70794,52.13727],[-120.70764,52.13718],[-120.70728,52.13708],[-120.70719,52.13706],[-120.70683,52.13694],[-120.70659,52.13685],[-120.70645,52.1368],[-120.70625,52.1367],[-120.70596,52.13656],[-120.70588,52.13651],[-120.70569,52.13645],[-120.70552,52.13639],[-120.7054,52.13635],[-120.7052,52.13632],[-120.70511,52.13631],[-120.70484,52.13629],[-120.70469,52.13628],[-120.70437,52.13622],[-120.70428,52.13621],[-120.70402,52.13618],[-120.70381,52.13614],[-120.70354,52.13612],[-120.7035,52.13612],[-120.70328,52.13609],[-120.70305,52.13606],[-120.70274,52.13603],[-120.70264,52.13602],[-120.70244,52.13595],[-120.70216,52.13579],[-120.70206,52.13574],[-120.70181,52.13565],[-120.70158,52.13563],[-120.70128,52.13558],[-120.70112,52.13556],[-120.70077,52.13554],[-120.70048,52.13553],[-120.70038,52.13542],[-120.70031,52.13536],[-120.69996,52.13514],[-120.69967,52.13501],[-120.69956,52.13496],[-120.69931,52.13481],[-120.6992,52.13478],[-120.6991,52.13474],[-120.69899,52.13457],[-120.69892,52.13451],[-120.69874,52.13437],[-120.69854,52.13426],[-120.69839,52.1341],[-120.69803,52.13392],[-120.6978,52.13379],[-120.69764,52.13364],[-120.69752,52.13356],[-120.69721,52.13338],[-120.69701,52.13327],[-120.69693,52.1332],[-120.69674,52.13312],[-120.69659,52.13304],[-120.69657,52.13303],[-120.69649,52.13299],[-120.69623,52.13287],[-120.69612,52.13282],[-120.69578,52.13259],[-120.69558,52.13246],[-120.69527,52.13226],[-120.69504,52.13207],[-120.69499,52.13202],[-120.69483,52.13187],[-120.69463,52.13166],[-120.6944,52.13146],[-120.69435,52.13139],[-120.69424,52.13118],[-120.69423,52.13113],[-120.69422,52.13108],[-120.69414,52.13094],[-120.69389,52.13071],[-120.69377,52.13065],[-120.69366,52.1306],[-120.69354,52.13056],[-120.69334,52.13047],[-120.69333,52.13046],[-120.69302,52.13029],[-120.69292,52.13024],[-120.6927,52.13011],[-120.69242,52.12992],[-120.69232,52.12986],[-120.69215,52.12973],[-120.6919,52.12952],[-120.69182,52.12946],[-120.69176,52.12936],[-120.69169,52.1293],[-120.69142,52.12916],[-120.69127,52.12904],[-120.69106,52.12894],[-120.69087,52.12881],[-120.69066,52.1287],[-120.69034,52.12858],[-120.69023,52.12854],[-120.68998,52.12847],[-120.68985,52.12844],[-120.68984,52.12843],[-120.68974,52.12839],[-120.68946,52.12821],[-120.68939,52.12814],[-120.6893,52.12808],[-120.68915,52.12801],[-120.68899,52.12795],[-120.68877,52.12785],[-120.68867,52.12781],[-120.68853,52.1277],[-120.68834,52.12749],[-120.68831,52.12746]]}},
{"type":"Feature","properties":{"spotId":"E-grouse-drive-0006","kind":"roadside","km":5.17,"climbM":42,"name":"200 m SW of Hendrix Creek","flags":[]},"geometry":{"type":"LineString","coordinates":[[-120.74409,52.03216],[-120.74556,52.03414],[-120.74631,52.03573],[-120.74669,52.03611],[-120.74718,52.03641],[-120.74784,52.03674],[-120.74846,52.03695],[-120.74892,52.03711],[-120.75074,52.03862],[-120.75108,52.03914],[-120.75134,52.03977],[-120.75166,52.04016],[-120.75199,52.04035],[-120.75201,52.04036],[-120.75307,52.04074],[-120.75323,52.04082],[-120.75369,52.04105],[-120.75499,52.04227],[-120.75517,52.04256],[-120.75519,52.04288],[-120.75512,52.04302],[-120.75503,52.04319],[-120.75477,52.04346],[-120.75462,52.04365],[-120.75451,52.04391],[-120.7545,52.04394],[-120.75445,52.04436],[-120.75452,52.04465],[-120.75468,52.04492],[-120.75513,52.0454],[-120.7552,52.04616],[-120.75521,52.04626],[-120.7551,52.04698],[-120.75509,52.04744],[-120.75516,52.04765],[-120.75539,52.04802],[-120.7555,52.04849],[-120.75573,52.04882],[-120.75638,52.04937],[-120.75667,52.04973],[-120.75889,52.05394],[-120.75931,52.05459],[-120.75967,52.05517],[-120.76026,52.05583],[-120.76218,52.05866],[-120.76575,52.06218],[-120.76786,52.06489],[-120.7682,52.06558],[-120.76971,52.06718],[-120.76993,52.06741],[-120.7733,52.07083],[-120.7736,52.07113],[-120.77394,52.07174],[-120.77427,52.07311],[-120.77427,52.07312]]}},
{"type":"Feature","properties":{"spotId":"E-grouse-walk-0013","kind":"walk","km":3.62,"climbM":256,"name":"2.0 km N of Hidden Lake","flags":[]},"geometry":{"type":"LineString","coordinates":[[-120.57062,52.00832],[-120.55471,52.03927]]}},
{"type":"Feature","properties":{"spotId":"E-grouse-walk-0013","kind":"roadside","km":4.68,"climbM":77,"name":"2.0 km N of Hidden Lake","flags":[]},"geometry":{"type":"LineString","coordinates":[[-120.55471,52.03927],[-120.5547,52.03942],[-120.55473,52.03951],[-120.55478,52.03963],[-120.55482,52.03972],[-120.55489,52.03995],[-120.55498,52.04005],[-120.55503,52.04015],[-120.5551,52.04025],[-120.55518,52.04036],[-120.55525,52.04045],[-120.5553,52.04055],[-120.55546,52.04077],[-120.55565,52.04099],[-120.55574,52.04109],[-120.55586,52.04118],[-120.55606,52.04137],[-120.55623,52.04158],[-120.5563,52.04167],[-120.55652,52.04191],[-120.55667,52.0421],[-120.55675,52.04222],[-120.55682,52.04235],[-120.55692,52.04259],[-120.55705,52.04273],[-120.55713,52.04284],[-120.55724,52.04293],[-120.55742,52.0431],[-120.55756,52.04321],[-120.55771,52.04332],[-120.55781,52.04339],[-120.55804,52.04357],[-120.55815,52.04367],[-120.55829,52.04378],[-120.55843,52.04389],[-120.55855,52.044],[-120.55869,52.0441],[-120.55893,52.04426],[-120.55904,52.04434],[-120.55917,52.04442],[-120.55928,52.04451],[-120.55943,52.04458],[-120.55955,52.04466],[-120.55968,52.04474],[-120.55978,52.04481],[-120.5599,52.0449],[-120.56002,52.04497],[-120.56016,52.04505],[-120.56047,52.04528],[-120.56071,52.04543],[-120.56085,52.04553],[-120.56097,52.04563],[-120.56111,52.04571],[-120.56125,52.04581],[-120.56138,52.04589],[-120.56151,52.04597],[-120.56166,52.04608],[-120.56189,52.04627],[-120.562,52.04635],[-120.56214,52.04647],[-120.56221,52.04655],[-120.5623,52.04665],[-120.5624,52.04678],[-120.56249,52.0469],[-120.56257,52.04705],[-120.56272,52.04726],[-120.56282,52.04756],[-120.56295,52.04783],[-120.56303,52.04796],[-120.56307,52.04808],[-120.56312,52.04818],[-120.56316,52.04829],[-120.56323,52.04843],[-120.56328,52.04857],[-120.56334,52.04873],[-120.56338,52.04887],[-120.56343,52.04902],[-120.56353,52.04922],[-120.56359,52.04933],[-120.56364,52.04942],[-120.56371,52.04953],[-120.56392,52.04983],[-120.56401,52.04993],[-120.5641,52.05003],[-120.5642,52.05016],[-120.56434,52.0503],[-120.5645,52.05052],[-120.56473,52.05086],[-120.56481,52.05093],[-120.56492,52.05105],[-120.56503,52.05115],[-120.56516,52.05125],[-120.56527,52.05132],[-120.5654,52.05139],[-120.56551,52.05147],[-120.56558,52.05155],[-120.56566,52.05167],[-120.56571,52.05179],[-120.56571,52.05193],[-120.5657,52.05204],[-120.56571,52.05213],[-120.56573,52.05224],[-120.56577,52.05235],[-120.56579,52.05244],[-120.56588,52.05255],[-120.56591,52.05265],[-120.56598,52.05272],[-120.56605,52.05282],[-120.56612,52.05291],[-120.56622,52.053],[-120.56631,52.05311],[-120.56642,52.05321],[-120.56651,52.05329],[-120.56657,52.05341],[-120.5666,52.05353],[-120.5666,52.05365],[-120.56659,52.0539],[-120.56655,52.05411],[-120.56648,52.05434],[-120.56644,52.05456],[-120.5664,52.0547],[-120.56641,52.05481],[-120.56639,52.05491],[-120.56641,52.05512],[-120.5664,52.05525],[-120.56638,52.05535],[-120.56634,52.05547],[-120.56633,52.05556],[-120.56632,52.05569],[-120.5663,52.05581],[-120.56632,52.05617],[-120.56636,52.05629],[-120.56637,52.05641],[-120.56647,52.0569],[-120.56652,52.05704],[-120.56653,52.05715],[-120.56655,52.05725],[-120.56658,52.05739],[-120.56661,52.05751],[-120.56664,52.05763],[-120.56662,52.05772],[-120.5667,52.05808],[-120.56674,52.05821],[-120.56674,52.05836],[-120.56676,52.05849],[-120.56681,52.05865],[-120.56682,52.05878],[-120.56684,52.05888],[-120.56693,52.05912],[-120.56696,52.05925],[-120.56699,52.0594],[-120.56701,52.05952],[-120.56705,52.05965],[-120.56712,52.05979],[-120.56714,52.05991],[-120.56716,52.06],[-120.56727,52.06023],[-120.56728,52.06032],[-120.56733,52.06042],[-120.56737,52.06054],[-120.56746,52.06076],[-120.56754,52.06088],[-120.56762,52.06098],[-120.56769,52.0611],[-120.56775,52.06119],[-120.56784,52.06129],[-120.56793,52.06143],[-120.56804,52.06156],[-120.56811,52.06166],[-120.56819,52.06177],[-120.56824,52.06188],[-120.5683,52.06198],[-120.56833,52.06208],[-120.56837,52.06218],[-120.5684,52.06228],[-120.56845,52.06238],[-120.56847,52.06247],[-120.5685,52.06256],[-120.56853,52.06268],[-120.56857,52.06278],[-120.56861,52.06289],[-120.56862,52.063],[-120.56867,52.06311],[-120.56868,52.06323],[-120.56867,52.06335],[-120.56868,52.06345],[-120.56863,52.06356],[-120.56855,52.06367],[-120.56846,52.06373],[-120.56831,52.06382],[-120.56815,52.0639],[-120.56797,52.06396],[-120.56782,52.06398],[-120.56763,52.064],[-120.56746,52.06401],[-120.56729,52.06402],[-120.56709,52.06402],[-120.56686,52.06403],[-120.5667,52.06404],[-120.56655,52.06404],[-120.56633,52.06404],[-120.56613,52.06405],[-120.56596,52.06406],[-120.5658,52.06406],[-120.56563,52.06406],[-120.56548,52.06407],[-120.56531,52.06408],[-120.56513,52.06412],[-120.56495,52.06415],[-120.56481,52.06418],[-120.5646,52.06419],[-120.56442,52.06422],[-120.56422,52.06427],[-120.56406,52.06429],[-120.56389,52.06435],[-120.56372,52.06438],[-120.56354,52.06441],[-120.56338,52.06442],[-120.56313,52.06441],[-120.56291,52.06442],[-120.56274,52.06442],[-120.56256,52.0644],[-120.56239,52.06439],[-120.56221,52.06437],[-120.56204,52.06435],[-120.56188,52.06433],[-120.56172,52.06435],[-120.56164,52.06435],[-120.5613,52.06434],[-120.56114,52.06433],[-120.56105,52.06432],[-120.56098,52.06432],[-120.56079,52.06429],[-120.56061,52.06427],[-120.56022,52.06426],[-120.55974,52.06424],[-120.55957,52.06421],[-120.55935,52.0642],[-120.55919,52.06418],[-120.55889,52.06412],[-120.5587,52.0641],[-120.55833,52.06406],[-120.55813,52.06406],[-120.55784,52.06404],[-120.55765,52.06404],[-120.55746,52.06405],[-120.55721,52.06406],[-120.55702,52.06408],[-120.55686,52.06411],[-120.55652,52.06412],[-120.55634,52.06415],[-120.55598,52.06416],[-120.55583,52.06415],[-120.55553,52.06414],[-120.55538,52.06411],[-120.55501,52.06404],[-120.55471,52.06397],[-120.55449,52.0639],[-120.55433,52.06385],[-120.55394,52.06364],[-120.55382,52.06357],[-120.55365,52.06347],[-120.55356,52.0634],[-120.55344,52.06332],[-120.55329,52.06321],[-120.55318,52.06314],[-120.553,52.06296],[-120.55283,52.06276],[-120.55273,52.06266],[-120.55248,52.06246],[-120.55247,52.06244],[-120.55226,52.06226],[-120.55215,52.06217],[-120.55201,52.06208],[-120.55187,52.06195],[-120.55177,52.06188],[-120.55169,52.06179],[-120.55151,52.06161],[-120.55138,52.06151],[-120.55124,52.06141],[-120.55113,52.06131],[-120.55099,52.06121],[-120.55091,52.06113],[-120.55075,52.061],[-120.55063,52.06091],[-120.55036,52.0607],[-120.55024,52.0606],[-120.54997,52.06036],[-120.54986,52.06024],[-120.54978,52.06015],[-120.54968,52.06004],[-120.54956,52.05992],[-120.5494,52.0598],[-120.54924,52.0596],[-120.54898,52.05935],[-120.54877,52.05913],[-120.54864,52.05902],[-120.54845,52.05884]]}},
{"type":"Feature","properties":{"spotId":"E-grouse-walk-0015","kind":"roadside","km":4.68,"climbM":70,"name":"By No Name Lake","flags":["Route enters a Motor Vehicle for Hunting Closed Area: Spanish No-Name Lake Forest Service Road. Road Closure. Synopsis map 2-37/24."]},"geometry":{"type":"LineString","coordinates":[[-120.5361,52.00117],[-120.53612,52.00134],[-120.53612,52.00141],[-120.53607,52.00152],[-120.53605,52.00155],[-120.53593,52.00171],[-120.53578,52.00189],[-120.53563,52.00208],[-120.5356,52.00213],[-120.53553,52.00223],[-120.53538,52.00245],[-120.53529,52.00261],[-120.53526,52.0027],[-120.53519,52.00283],[-120.53513,52.00296],[-120.5351,52.003],[-120.53503,52.00313],[-120.535,52.00318],[-120.5349,52.00333],[-120.53479,52.00347],[-120.53478,52.00352],[-120.53471,52.00362],[-120.53468,52.00369],[-120.53458,52.00391],[-120.53453,52.00403],[-120.53453,52.00424],[-120.53453,52.0043],[-120.53457,52.00446],[-120.53466,52.00465],[-120.53468,52.00476],[-120.53468,52.00478],[-120.53467,52.00497],[-120.53466,52.00505],[-120.53467,52.0052],[-120.53467,52.00528],[-120.53464,52.00541],[-120.53464,52.00544],[-120.53462,52.0056],[-120.53455,52.00575],[-120.5345,52.00591],[-120.53447,52.00598],[-120.53438,52.00616],[-120.53433,52.00634],[-120.53432,52.00656],[-120.53433,52.00669],[-120.53432,52.00689],[-120.5343,52.00708],[-120.53429,52.00727],[-120.53428,52.00732],[-120.53427,52.00751],[-120.53426,52.00764],[-120.53426,52.0077],[-120.53426,52.0079],[-120.53427,52.00802],[-120.53432,52.00816],[-120.53438,52.00837],[-120.53442,52.00842],[-120.5345,52.00855],[-120.5346,52.00865],[-120.53481,52.00882],[-120.5349,52.00889],[-120.53503,52.00901],[-120.53521,52.00914],[-120.53534,52.00923],[-120.53559,52.00944],[-120.5357,52.00954],[-120.53599,52.00974],[-120.53622,52.00992],[-120.53634,52.01005],[-120.53659,52.01025],[-120.53665,52.01031],[-120.53681,52.01049],[-120.53698,52.01072],[-120.53707,52.0109],[-120.53711,52.01097],[-120.53718,52.01117],[-120.53722,52.01131],[-120.53729,52.01172],[-120.53729,52.01186],[-120.53727,52.01208],[-120.53726,52.01212],[-120.53726,52.01216],[-120.53725,52.01227],[-120.53725,52.01242],[-120.53731,52.0126],[-120.53736,52.01283],[-120.53742,52.01294],[-120.53753,52.01305],[-120.53777,52.01321],[-120.53786,52.01326],[-120.53788,52.01327],[-120.53803,52.01333],[-120.53818,52.01341],[-120.53842,52.01357],[-120.53849,52.01361],[-120.53879,52.01384],[-120.5389,52.01395],[-120.53897,52.014],[-120.53913,52.01417],[-120.53932,52.01429],[-120.53941,52.01435],[-120.53958,52.01448],[-120.53964,52.01453],[-120.53976,52.0147],[-120.53983,52.01483],[-120.5399,52.01501],[-120.53997,52.01514],[-120.53998,52.01516],[-120.54015,52.01531],[-120.54019,52.01537],[-120.54038,52.01553],[-120.54048,52.01563],[-120.54069,52.01579],[-120.54092,52.01593],[-120.54101,52.016],[-120.54107,52.01605],[-120.54111,52.01611],[-120.54116,52.01627],[-120.54112,52.01643],[-120.5411,52.01648],[-120.54108,52.01661],[-120.54108,52.0167],[-120.54107,52.0168],[-120.54108,52.01698],[-120.54111,52.01718],[-120.54116,52.01729],[-120.54119,52.01749],[-120.54123,52.01768],[-120.54124,52.01774],[-120.54129,52.0179],[-120.5413,52.01792],[-120.54133,52.01797],[-120.54136,52.01815],[-120.54139,52.01822],[-120.54139,52.01844],[-120.54136,52.01866],[-120.54137,52.01876],[-120.54137,52.01879],[-120.54139,52.01891],[-120.54146,52.01902],[-120.54154,52.01914],[-120.54168,52.0193],[-120.5417,52.01938],[-120.5417,52.0194],[-120.54168,52.01951],[-120.54166,52.01971],[-120.54165,52.01977],[-120.54164,52.01992],[-120.54164,52.01996],[-120.54162,52.02005],[-120.54166,52.02013],[-120.54167,52.02025],[-120.5417,52.02032],[-120.54175,52.02043],[-120.54182,52.02051],[-120.54187,52.02062],[-120.54213,52.02093],[-120.54224,52.02104],[-120.54229,52.02113],[-120.5424,52.02124],[-120.5425,52.02136],[-120.54268,52.02154],[-120.54292,52.02172],[-120.54304,52.02182],[-120.54308,52.02185],[-120.54314,52.02189],[-120.54339,52.02208],[-120.54361,52.02231],[-120.54374,52.02245],[-120.54386,52.02257],[-120.54398,52.02276],[-120.54411,52.02288],[-120.54437,52.02304],[-120.54452,52.02313],[-120.54467,52.02319],[-120.5449,52.02328],[-120.54506,52.02336],[-120.54523,52.02347],[-120.54534,52.02354],[-120.54549,52.02363],[-120.54565,52.02373],[-120.54594,52.02396],[-120.54611,52.02404],[-120.54637,52.02419],[-120.54659,52.0243],[-120.54675,52.02437],[-120.54706,52.02455],[-120.5474,52.02479],[-120.54748,52.02488],[-120.54761,52.02498],[-120.54787,52.02523],[-120.54795,52.0253],[-120.54803,52.02542],[-120.5481,52.02551],[-120.54818,52.02562],[-120.54825,52.02571],[-120.54839,52.02592],[-120.54847,52.02603],[-120.5486,52.02624],[-120.54865,52.02635],[-120.54883,52.02659],[-120.5489,52.0267],[-120.54896,52.02683],[-120.54905,52.02715],[-120.54917,52.02753],[-120.54931,52.02777],[-120.54933,52.02789],[-120.54937,52.02799],[-120.54939,52.02809],[-120.54938,52.02829],[-120.54939,52.02842],[-120.54938,52.02852],[-120.54939,52.02865],[-120.54938,52.02879],[-120.54939,52.0289],[-120.5494,52.02899],[-120.54945,52.02915],[-120.5495,52.02934],[-120.54961,52.02959],[-120.54968,52.0297],[-120.54978,52.02996],[-120.54986,52.03012],[-120.55002,52.03037],[-120.55015,52.03053],[-120.55036,52.03106],[-120.5505,52.03128],[-120.55055,52.03138],[-120.5506,52.03147],[-120.55064,52.03157],[-120.55071,52.03167],[-120.55075,52.03178],[-120.55077,52.03187],[-120.55078,52.03198],[-120.5508,52.03208],[-120.55081,52.03218],[-120.55081,52.0323],[-120.55079,52.03239],[-120.55078,52.03244],[-120.55085,52.03256],[-120.55095,52.03266],[-120.55104,52.03275],[-120.55118,52.03286],[-120.55125,52.03298],[-120.55125,52.033],[-120.55135,52.03308],[-120.55145,52.03325],[-120.55174,52.03355],[-120.55199,52.03385],[-120.5521,52.03396],[-120.55221,52.03408],[-120.55231,52.03417],[-120.55236,52.03422],[-120.5524,52.03431],[-120.55247,52.03442],[-120.55254,52.03455],[-120.5526,52.03465],[-120.55277,52.03487],[-120.55286,52.03498],[-120.55299,52.03509],[-120.55306,52.03518],[-120.55315,52.03525],[-120.55323,52.03537],[-120.55332,52.0355],[-120.55338,52.03562],[-120.55342,52.03571],[-120.5535,52.03584],[-120.55364,52.03604],[-120.55369,52.03613],[-120.55378,52.03626],[-120.55391,52.03639],[-120.55398,52.03648],[-120.55406,52.03673],[-120.55407,52.03684],[-120.55416,52.03704],[-120.55422,52.03714],[-120.55437,52.0375],[-120.5544,52.03761],[-120.55445,52.03773],[-120.55447,52.03783],[-120.55454,52.03795],[-120.55458,52.03805],[-120.55463,52.03815],[-120.55465,52.03824],[-120.55468,52.03836],[-120.55472,52.03854],[-120.55475,52.03886],[-120.55474,52.03908],[-120.55472,52.03919],[-120.55471,52.03927]]}},
{"type":"Feature","properties":{"spotId":"E-grouse-walk-0026","kind":"walk","km":5.35,"climbM":99,"name":"300 m S of Crooked Lake","flags":[]},"geometry":{"type":"LineString","coordinates":[[-120.71738,52.23992],[-120.64021,52.23128]]}},
{"type":"Feature","properties":{"spotId":"E-grouse-walk-0026","kind":"roadside","km":4.25,"climbM":103,"name":"300 m S of Crooked Lake","flags":[]},"geometry":{"type":"LineString","coordinates":[[-120.64021,52.23128],[-120.64008,52.23128],[-120.63977,52.2313],[-120.63945,52.23128],[-120.63913,52.23128],[-120.63884,52.2313],[-120.63853,52.2313],[-120.63827,52.2313],[-120.63824,52.2313],[-120.63793,52.23132],[-120.63755,52.23131],[-120.63733,52.23131],[-120.63725,52.23131],[-120.63717,52.23131],[-120.63684,52.23136],[-120.63652,52.23139],[-120.63646,52.23139],[-120.63622,52.23144],[-120.63593,52.23147],[-120.63561,52.23148],[-120.63544,52.23148],[-120.63515,52.23153],[-120.6351,52.23153],[-120.63481,52.23155],[-120.63446,52.23157],[-120.63417,52.23157],[-120.63383,52.23154],[-120.63352,52.23151],[-120.63323,52.2315],[-120.6329,52.23145],[-120.63258,52.23142],[-120.63223,52.23135],[-120.63184,52.2313],[-120.63153,52.23127],[-120.63119,52.23127],[-120.63083,52.23126],[-120.6307,52.23122],[-120.63058,52.23122],[-120.63039,52.23122],[-120.63007,52.2312],[-120.62976,52.23117],[-120.62943,52.23113],[-120.62909,52.2311],[-120.62877,52.23107],[-120.62847,52.23104],[-120.62815,52.23101],[-120.62783,52.23097],[-120.62771,52.23093],[-120.62759,52.23094],[-120.62726,52.23089],[-120.62697,52.23087],[-120.62666,52.23084],[-120.62634,52.23083],[-120.62609,52.2308],[-120.62604,52.23079],[-120.62571,52.23075],[-120.62538,52.23074],[-120.62501,52.23072],[-120.62488,52.23071],[-120.62468,52.23069],[-120.62433,52.23064],[-120.624,52.23059],[-120.62369,52.23054],[-120.62331,52.23049],[-120.62288,52.23043],[-120.62256,52.2304],[-120.62221,52.23036],[-120.6219,52.23032],[-120.62159,52.2303],[-120.62122,52.23027],[-120.62088,52.23024],[-120.62056,52.23021],[-120.62026,52.23015],[-120.62012,52.23013],[-120.61979,52.23008],[-120.61947,52.23001],[-120.61938,52.23],[-120.61925,52.22997],[-120.61878,52.22989],[-120.61841,52.2298],[-120.61823,52.22977],[-120.61808,52.22974],[-120.61778,52.22966],[-120.61749,52.22959],[-120.6172,52.22955],[-120.61686,52.22948],[-120.61649,52.22937],[-120.61613,52.22927],[-120.61577,52.2292],[-120.61543,52.22914],[-120.61513,52.22907],[-120.61481,52.229],[-120.61449,52.22893],[-120.61413,52.22888],[-120.61401,52.22883],[-120.61391,52.22882],[-120.61356,52.22875],[-120.61311,52.22867],[-120.6128,52.22861],[-120.61245,52.22851],[-120.61209,52.22843],[-120.61177,52.22838],[-120.61171,52.22837],[-120.61155,52.22834],[-120.61122,52.22827],[-120.61088,52.2282],[-120.61057,52.22812],[-120.61018,52.22802],[-120.6099,52.22795],[-120.6096,52.2279],[-120.60926,52.22783],[-120.60899,52.22776],[-120.60867,52.22769],[-120.60829,52.22763],[-120.60827,52.22757],[-120.60809,52.22751],[-120.60789,52.22743],[-120.60709,52.22711],[-120.60659,52.22692],[-120.60618,52.22671],[-120.60598,52.22659],[-120.60553,52.22639],[-120.60534,52.22628],[-120.60511,52.22618],[-120.60472,52.22598],[-120.60433,52.22582],[-120.60415,52.22571],[-120.60395,52.22561],[-120.6038,52.22549],[-120.60361,52.22539],[-120.60349,52.22528],[-120.60291,52.22483],[-120.60278,52.2247],[-120.60263,52.22458],[-120.6025,52.22446],[-120.60236,52.22434],[-120.60223,52.22421],[-120.6018,52.22387],[-120.60148,52.22366],[-120.60128,52.22354],[-120.6009,52.22333],[-120.60045,52.22317],[-120.59932,52.22273],[-120.5991,52.22267],[-120.59885,52.22252],[-120.59842,52.22233],[-120.59825,52.22225],[-120.59791,52.22204],[-120.59752,52.22183],[-120.59734,52.22172],[-120.59697,52.22153],[-120.59674,52.22142],[-120.59612,52.22113],[-120.59594,52.22103],[-120.5957,52.22092],[-120.59531,52.22072],[-120.59486,52.22051],[-120.59465,52.22043],[-120.59445,52.22034],[-120.59428,52.22026],[-120.59387,52.22004],[-120.59364,52.21995],[-120.5934,52.21988],[-120.59283,52.21974],[-120.59169,52.21945],[-120.59126,52.21933],[-120.59101,52.21928],[-120.59056,52.21919],[-120.59016,52.21907],[-120.58994,52.21902],[-120.5895,52.2189],[-120.58882,52.21868],[-120.58863,52.21862],[-120.58797,52.21835],[-120.58777,52.21828],[-120.58717,52.21803],[-120.58696,52.21796],[-120.58677,52.21788],[-120.58651,52.2178],[-120.5863,52.21771],[-120.58603,52.21764],[-120.58579,52.21755],[-120.58494,52.21727],[-120.58489,52.21726]]}},
{"type":"Feature","properties":{"spotId":"E-moose-atv-0090","kind":"ride","km":2.63,"climbM":5,"name":"3.1 km SW of McNeil Lake","flags":[]},"geometry":{"type":"LineString","coordinates":[[-120.65985,52.04403],[-120.66004,52.04403],[-120.6602,52.04402],[-120.66038,52.04399],[-120.66053,52.04397],[-120.66067,52.04395],[-120.66082,52.04393],[-120.66097,52.04389],[-120.66112,52.04384],[-120.66123,52.0438],[-120.66126,52.04379],[-120.66138,52.04375],[-120.6614,52.04374],[-120.66153,52.04368],[-120.66164,52.04359],[-120.6617,52.0435],[-120.66172,52.04341],[-120.66171,52.04331],[-120.66166,52.0432],[-120.66152,52.04309],[-120.66139,52.04296],[-120.6613,52.04287],[-120.66117,52.0428],[-120.66104,52.04274],[-120.66085,52.04271],[-120.66069,52.04268],[-120.66049,52.04264],[-120.66032,52.04263],[-120.66017,52.04261],[-120.65994,52.04257],[-120.65971,52.04252],[-120.65958,52.04247],[-120.65937,52.04243],[-120.65918,52.04237],[-120.65898,52.04232],[-120.65879,52.04228],[-120.65852,52.04223],[-120.65831,52.04222],[-120.65808,52.04223],[-120.65786,52.04226],[-120.65768,52.04228],[-120.65748,52.04228],[-120.6573,52.04228],[-120.6571,52.04229],[-120.65694,52.04229],[-120.65685,52.04227],[-120.65682,52.04226],[-120.65671,52.04223],[-120.65659,52.04217],[-120.65647,52.04212],[-120.65632,52.04206],[-120.65615,52.04201],[-120.65612,52.042],[-120.65601,52.04197],[-120.65582,52.04192],[-120.65563,52.04187],[-120.65547,52.04184],[-120.65531,52.04183],[-120.65514,52.04183],[-120.65496,52.04185],[-120.65483,52.04182],[-120.65475,52.04179],[-120.65463,52.04174],[-120.65462,52.04173],[-120.65449,52.04166],[-120.65438,52.04158],[-120.65428,52.04148],[-120.65417,52.0414],[-120.6541,52.04131],[-120.65403,52.0412],[-120.654,52.0411],[-120.65402,52.041],[-120.65407,52.04089],[-120.65414,52.0408],[-120.65421,52.04072],[-120.65425,52.04062],[-120.65433,52.04052],[-120.6544,52.04042],[-120.65446,52.04032],[-120.65455,52.0402],[-120.65462,52.0401],[-120.65467,52.04001],[-120.65467,52.03991],[-120.65466,52.03979],[-120.65465,52.03969],[-120.65466,52.03959],[-120.65466,52.03948],[-120.6547,52.03939],[-120.65472,52.0393],[-120.65475,52.03919],[-120.65479,52.03908],[-120.65484,52.03899],[-120.65486,52.03888],[-120.65486,52.03872],[-120.65487,52.03862],[-120.65486,52.03851],[-120.65487,52.03836],[-120.65487,52.03826],[-120.65485,52.03815],[-120.65483,52.03805],[-120.65482,52.03795],[-120.65479,52.03785],[-120.6548,52.03778],[-120.65476,52.03764],[-120.65467,52.0375],[-120.65465,52.03744],[-120.65471,52.03728],[-120.6547,52.03718],[-120.65456,52.03707],[-120.65449,52.03702],[-120.65426,52.03687],[-120.65405,52.03671],[-120.65401,52.03668],[-120.65392,52.03664],[-120.65362,52.03652],[-120.65352,52.03647],[-120.65328,52.03632],[-120.65306,52.03616],[-120.65289,52.03608],[-120.65258,52.03605],[-120.65241,52.03603],[-120.65237,52.03603],[-120.65211,52.036],[-120.65198,52.03596],[-120.65181,52.03587],[-120.65171,52.03576],[-120.65165,52.0357],[-120.65155,52.03554],[-120.65152,52.03546],[-120.65148,52.03532],[-120.65154,52.03519],[-120.65164,52.03507],[-120.65172,52.03502],[-120.65202,52.03487],[-120.6522,52.03473],[-120.65226,52.03467],[-120.65242,52.0345],[-120.65248,52.03443],[-120.65273,52.03429],[-120.65303,52.03419],[-120.65324,52.03414],[-120.65336,52.03412],[-120.65366,52.03408],[-120.6539,52.03405],[-120.65419,52.034],[-120.65443,52.03391],[-120.6544,52.0339],[-120.65424,52.03393],[-120.65396,52.03394],[-120.65367,52.03396],[-120.65357,52.03397],[-120.65335,52.03394],[-120.65322,52.03391],[-120.65311,52.03387],[-120.65299,52.03383],[-120.65272,52.03371],[-120.65249,52.03369],[-120.65224,52.0337],[-120.65194,52.03368],[-120.65183,52.03368],[-120.65153,52.0337],[-120.65118,52.03371],[-120.65087,52.0337],[-120.65061,52.03369],[-120.6503,52.03367],[-120.65006,52.03361],[-120.64983,52.03357],[-120.64954,52.0335],[-120.64937,52.03346],[-120.64905,52.0334],[-120.64875,52.03334],[-120.64845,52.03333],[-120.64812,52.03334],[-120.64796,52.03333],[-120.64776,52.03329],[-120.64741,52.03325],[-120.64716,52.03321],[-120.64689,52.03319],[-120.64662,52.03318],[-120.64649,52.03317],[-120.64635,52.03316],[-120.64609,52.03316],[-120.64579,52.03316],[-120.6455,52.03317],[-120.64523,52.03318],[-120.64495,52.03321],[-120.64459,52.03328],[-120.64433,52.03332],[-120.6442,52.03335],[-120.64389,52.03339],[-120.64361,52.03339],[-120.64325,52.03335]]}},
{"type":"Feature","properties":{"spotId":"E-moose-atv-0090","kind":"walk","km":0.05,"climbM":0,"name":"3.1 km SW of McNeil Lake","flags":[]},"geometry":{"type":"LineString","coordinates":[[-120.65985,52.04403],[-120.65988,52.04357]]}},
{"type":"Feature","properties":{"spotId":"E-moose-backcountry-0001","kind":"backcountry","km":5.76,"climbM":330,"name":"By Ruth Redfern Creek","flags":[]},"geometry":{"type":"LineString","coordinates":[[-120.65186,52.06078],[-120.58491,52.09203]]}},
{"type":"Feature","properties":{"spotId":"E-moose-backcountry-0002","kind":"backcountry","km":5.39,"climbM":457,"name":"410 m SW of Deception Creek","flags":[]},"geometry":{"type":"LineString","coordinates":[[-120.57062,52.00832],[-120.54961,52.05495]]}},
{"type":"Feature","properties":{"spotId":"E-moose-backcountry-0010","kind":"backcountry","km":5.62,"climbM":493,"name":"370 m SW of Deception Lake","flags":[]},"geometry":{"type":"LineString","coordinates":[[-120.68793,52.10261],[-120.61226,52.12241]]}},
{"type":"Feature","properties":{"spotId":"E-moose-drive-0020","kind":"walk","km":0.09,"climbM":0,"name":"140 m NW of Dietrich Creek","flags":[]},"geometry":{"type":"LineString","coordinates":[[-120.72746,52.10953],[-120.72739,52.10874]]}},
{"type":"Feature","properties":{"spotId":"E-moose-drive-0021","kind":"walk","km":0.12,"climbM":0,"name":"By Dietrich Creek","flags":[]},"geometry":{"type":"LineString","coordinates":[[-120.70538,52.10619],[-120.70644,52.10539]]}},
{"type":"Feature","properties":{"spotId":"E-moose-drive-0023","kind":"walk","km":0.21,"climbM":0,"name":"By Hendrix Creek","flags":[]},"geometry":{"type":"LineString","coordinates":[[-120.74781,52.03672],[-120.74594,52.03817]]}},
{"type":"Feature","properties":{"spotId":"E-moose-drive-0029","kind":"walk","km":0.21,"climbM":0,"name":"3.6 km NE of Ryan, Mount","flags":[]},"geometry":{"type":"LineString","coordinates":[[-120.67078,52.02877],[-120.66998,52.02699]]}},
{"type":"Feature","properties":{"spotId":"E-moose-walk-0012","kind":"walk","km":0.36,"climbM":0,"name":"2.3 km NE of Art Creek","flags":[]},"geometry":{"type":"LineString","coordinates":[[-120.61573,52.0104],[-120.61503,52.01356]]}},
{"type":"Feature","properties":{"spotId":"E-moose-walk-0052","kind":"walk","km":0.75,"climbM":108,"name":"1.0 km N of Dietrich Creek","flags":[]},"geometry":{"type":"LineString","coordinates":[[-120.71738,52.10956],[-120.71332,52.11584]]}},
{"type":"Feature","properties":{"spotId":"E-moose-walk-0054","kind":"walk","km":0.67,"climbM":38,"name":"410 m NE of Dietrich Creek","flags":[]},"geometry":{"type":"LineString","coordinates":[[-120.68777,52.09254],[-120.68197,52.09739]]}},
{"type":"Feature","properties":{"spotId":"E-moose-walk-0056","kind":"walk","km":4.28,"climbM":214,"name":"460 m E of Deception Creek","flags":["Route crosses private land (ParcelMap BC, updated 2026-09-22): get permission first or go around."]},"geometry":{"type":"LineString","coordinates":[[-120.57062,52.00832],[-120.56812,52.04667]]}},
{"type":"Feature","properties":{"spotId":"E-moose-walk-0064","kind":"walk","km":0.34,"climbM":1,"name":"By Hendrix Creek","flags":[]},"geometry":{"type":"LineString","coordinates":[[-120.7449,52.03326],[-120.74043,52.03451]]}},
{"type":"Feature","properties":{"spotId":"E-moose-walk-0065","kind":"walk","km":2.53,"climbM":304,"name":"1.6 km NE of Hidden Lake","flags":["Route enters a Motor Vehicle for Hunting Closed Area: Spanish No-Name Lake Forest Service Road. Road Closure. Synopsis map 2-37/24."]},"geometry":{"type":"LineString","coordinates":[[-120.5351,52.003],[-120.52263,52.02435]]}},
{"type":"Feature","properties":{"spotId":"E-moose-walk-0066","kind":"walk","km":0.94,"climbM":2,"name":"4.4 km SW of McNeil Lake","flags":[]},"geometry":{"type":"LineString","coordinates":[[-120.64325,52.03335],[-120.65467,52.02869]]}},
{"type":"Feature","properties":{"spotId":"E-moose-walk-0120","kind":"walk","km":0.31,"climbM":73,"name":"2.5 km SW of McNeil Lake","flags":[]},"geometry":{"type":"LineString","coordinates":[[-120.63513,52.04318],[-120.63949,52.04262]]}}
]}
