{"type":"FeatureCollection","features":[
{"type":"Feature","properties":{"spotId":"E-camp-camp-0075","kind":"walk","km":0.07,"climbM":1,"name":"700 m NE of Weller Creek","flags":[]},"geometry":{"type":"LineString","coordinates":[[-120.70888,51.90668],[-120.70871,51.90729]]}},
{"type":"Feature","properties":{"spotId":"E-deer-walk-0173","kind":"walk","km":0.67,"climbM":31,"name":"2.1 km NW of Canim Lake","flags":[]},"geometry":{"type":"LineString","coordinates":[[-120.69665,51.90184],[-120.69656,51.90182],[-120.69649,51.90181],[-120.6963,51.90179],[-120.69611,51.90177],[-120.69598,51.90174],[-120.69581,51.90171],[-120.69562,51.90168],[-120.69545,51.90166],[-120.6952,51.90164],[-120.69504,51.90162],[-120.69487,51.9016],[-120.69473,51.90157],[-120.69452,51.90153],[-120.69432,51.90146],[-120.69418,51.90142],[-120.69397,51.90135],[-120.69375,51.90131],[-120.69356,51.90128],[-120.6934,51.90126],[-120.69316,51.90122],[-120.69299,51.90116],[-120.69282,51.90109],[-120.69268,51.90103],[-120.69255,51.90095],[-120.69244,51.90088],[-120.69232,51.90081],[-120.69221,51.90073],[-120.69207,51.90065],[-120.69193,51.90055],[-120.69183,51.90049],[-120.69172,51.90039],[-120.69162,51.90031],[-120.69149,51.90026],[-120.69138,51.9002],[-120.69122,51.90016],[-120.69106,51.90014],[-120.6909,51.90013],[-120.69085,51.90013],[-120.69076,51.90011],[-120.69063,51.90005],[-120.69055,51.90001],[-120.69052,51.9],[-120.68879,51.90126]]}},
{"type":"Feature","properties":{"spotId":"E-deer-walk-0186","kind":"walk","km":1.7,"climbM":26,"name":"By Dan MacKay Creek","flags":["Route crosses reserve land: CANIM LAKE 6. Get permission from the band office to hunt on or across it (synopsis page 9, 99%)."]},"geometry":{"type":"LineString","coordinates":[[-120.62254,51.8963],[-120.61627,51.91108]]}},
{"type":"Feature","properties":{"spotId":"E-duck-drive-0017","kind":"walk","km":0.06,"climbM":0,"name":"Unnamed wetland 300 m N of Spanish Creek","flags":[]},"geometry":{"type":"LineString","coordinates":[[-120.5233,51.97877],[-120.52341,51.97819]]}},
{"type":"Feature","properties":{"spotId":"E-duck-drive-0020","kind":"walk","km":0.26,"climbM":10,"name":"Unnamed wetland 230 m S of Spanish Creek","flags":[]},"geometry":{"type":"LineString","coordinates":[[-120.50711,51.97904],[-120.50756,51.97675]]}},
{"type":"Feature","properties":{"spotId":"E-duck-drive-0148","kind":"walk","km":0.15,"climbM":0,"name":"Unnamed lake 900 m NE of Weller Creek","flags":[]},"geometry":{"type":"LineString","coordinates":[[-120.70453,51.90573],[-120.7049,51.90704]]}},
{"type":"Feature","properties":{"spotId":"E-duck-walk-0008","kind":"walk","km":0.37,"climbM":4,"name":"Unnamed wetland 120 m E of Spanish Creek","flags":[]},"geometry":{"type":"LineString","coordinates":[[-120.51141,51.97901],[-120.50983,51.97586]]}},
{"type":"Feature","properties":{"spotId":"E-duck-walk-0010","kind":"walk","km":0.64,"climbM":0,"name":"Unnamed wetland by Deception Creek","flags":["Route crosses private land (ParcelMap BC, updated 2026-09-22): get permission first or go around."]},"geometry":{"type":"LineString","coordinates":[[-120.57485,51.99385],[-120.56691,51.9909]]}},
{"type":"Feature","properties":{"spotId":"E-duck-walk-0012","kind":"walk","km":0.49,"climbM":6,"name":"Unnamed wetland by Spanish Creek","flags":[]},"geometry":{"type":"LineString","coordinates":[[-120.52357,51.9788],[-120.52494,51.97449]]}},
{"type":"Feature","properties":{"spotId":"E-grouse-atv-0023","kind":"ride","km":6.29,"climbM":228,"name":"By Spanish Creek","flags":[]},"geometry":{"type":"LineString","coordinates":[[-120.50993,51.9794],[-120.50925,51.97936],[-120.50773,51.97909],[-120.50735,51.97905],[-120.50701,51.97901],[-120.50664,51.9791],[-120.506,51.97924],[-120.50526,51.97918],[-120.50456,51.97935],[-120.50375,51.97935],[-120.50146,51.97965],[-120.50048,51.97969],[-120.50044,51.97969],[-120.50007,51.97971],[-120.49828,51.98002],[-120.49824,51.98003],[-120.49777,51.98007],[-120.49757,51.98009],[-120.49702,51.97994],[-120.49663,51.97946],[-120.49649,51.97928],[-120.49626,51.97925],[-120.49585,51.9792],[-120.49579,51.97919],[-120.49502,51.97921],[-120.49364,51.97989],[-120.49338,51.97991],[-120.49282,51.97969],[-120.49161,51.97976],[-120.49007,51.97937],[-120.48993,51.97933],[-120.48962,51.97853],[-120.48872,51.9781],[-120.48851,51.97801],[-120.4881,51.97795],[-120.48731,51.97741],[-120.48605,51.97723],[-120.48503,51.97645],[-120.48417,51.97638],[-120.48287,51.97651],[-120.48234,51.97664],[-120.48137,51.97706],[-120.47905,51.97717],[-120.47844,51.97746],[-120.47723,51.97771],[-120.47646,51.97819],[-120.47595,51.9785],[-120.47471,51.97841],[-120.47138,51.97978],[-120.47108,51.97984],[-120.47071,51.97979],[-120.46918,51.97951],[-120.46856,51.97953],[-120.46671,51.97919],[-120.46364,51.97917],[-120.46308,51.97928],[-120.46264,51.97934],[-120.46237,51.97936],[-120.46182,51.97939],[-120.46123,51.97939],[-120.46094,51.97938],[-120.46001,51.97931],[-120.45944,51.97927],[-120.45916,51.97928],[-120.45836,51.97937],[-120.45754,51.97945],[-120.45725,51.97948],[-120.45706,51.97948],[-120.45667,51.97948],[-120.4563,51.97946],[-120.45612,51.97944],[-120.45585,51.9794],[-120.45522,51.97927],[-120.45427,51.97909],[-120.45349,51.9789],[-120.45322,51.97885],[-120.45267,51.97876],[-120.45207,51.97867],[-120.45175,51.97864],[-120.45159,51.97863],[-120.45135,51.97864],[-120.45082,51.97869],[-120.4501,51.97877],[-120.45005,51.97877],[-120.44996,51.97877],[-120.44967,51.97876],[-120.44946,51.97877],[-120.44887,51.97882],[-120.44868,51.97884],[-120.4483,51.97886],[-120.44801,51.97889],[-120.44731,51.97901],[-120.44674,51.9791],[-120.44672,51.9791],[-120.44656,51.97912],[-120.44619,51.97915],[-120.44592,51.97917],[-120.44513,51.97926],[-120.44488,51.9793],[-120.44475,51.97933],[-120.44458,51.97938],[-120.44403,51.97963],[-120.44382,51.97972],[-120.4437,51.97976],[-120.44361,51.97977],[-120.44347,51.97977],[-120.44343,51.97977],[-120.44298,51.97974],[-120.44241,51.97971],[-120.44213,51.9797],[-120.442,51.97971],[-120.44179,51.97973],[-120.44132,51.97982],[-120.44091,51.97989],[-120.44075,51.97994],[-120.44048,51.98004],[-120.44044,51.98005],[-120.44021,51.98014],[-120.43945,51.9804],[-120.43926,51.98044],[-120.43886,51.98049],[-120.4386,51.98052],[-120.43848,51.98051],[-120.43802,51.98046],[-120.43784,51.98043],[-120.43775,51.98043],[-120.43734,51.98047],[-120.43655,51.98055],[-120.43544,51.98064],[-120.43529,51.98067],[-120.43499,51.98073],[-120.43477,51.98077],[-120.43414,51.98083],[-120.43352,51.98089],[-120.43298,51.98097],[-120.43259,51.981],[-120.43233,51.98101],[-120.43228,51.98101],[-120.43215,51.98103],[-120.4321,51.98106],[-120.43201,51.98112],[-120.43195,51.98114],[-120.43192,51.98114],[-120.43165,51.98114],[-120.43129,51.98114],[-120.43118,51.98115],[-120.43097,51.98122],[-120.4308,51.98125],[-120.4305,51.98126],[-120.42986,51.98131],[-120.42926,51.98131],[-120.42873,51.98131],[-120.4282,51.98131],[-120.42806,51.98133],[-120.4278,51.98141],[-120.42761,51.98146],[-120.42726,51.98151],[-120.42687,51.98158],[-120.42663,51.98161],[-120.42654,51.98163],[-120.42635,51.98167],[-120.42608,51.98173],[-120.42545,51.98189]]}},
{"type":"Feature","properties":{"spotId":"E-grouse-drive-0013","kind":"roadside","km":4.2,"climbM":87,"name":"By Deception Creek","flags":[]},"geometry":{"type":"LineString","coordinates":[[-120.56859,51.98248],[-120.56848,51.98247],[-120.56821,51.98242],[-120.56802,51.9824],[-120.56776,51.98237],[-120.5674,51.98232],[-120.56731,51.98231],[-120.56721,51.98229],[-120.56702,51.98226],[-120.56678,51.98222],[-120.56659,51.98219],[-120.56642,51.98216],[-120.56623,51.98213],[-120.56604,51.9821],[-120.56586,51.98207],[-120.56551,51.982],[-120.56515,51.98191],[-120.56501,51.98187],[-120.56474,51.98177],[-120.56461,51.98172],[-120.56427,51.98152],[-120.56399,51.98129],[-120.5637,51.98106],[-120.56356,51.98095],[-120.56321,51.98072],[-120.56306,51.98064],[-120.56272,51.98045],[-120.5626,51.98039],[-120.56234,51.9803],[-120.56207,51.9802],[-120.5618,51.98013],[-120.56165,51.98009],[-120.56136,51.98004],[-120.561,51.97996],[-120.56082,51.97993],[-120.56063,51.97989],[-120.56034,51.97983],[-120.55998,51.97978],[-120.55972,51.97976],[-120.55941,51.97973],[-120.55912,51.97973],[-120.55883,51.97973],[-120.55867,51.97973],[-120.55838,51.97976],[-120.55831,51.97976],[-120.55823,51.97976],[-120.55794,51.97979],[-120.5576,51.97984],[-120.55724,51.97989],[-120.55704,51.97993],[-120.55668,51.97997],[-120.55644,51.98],[-120.55627,51.98003],[-120.55608,51.98005],[-120.55589,51.98006],[-120.55565,51.98009],[-120.55529,51.98014],[-120.5551,51.98016],[-120.5549,51.98018],[-120.5546,51.98022],[-120.55423,51.98021],[-120.55404,51.9802],[-120.55377,51.98019],[-120.5534,51.98018],[-120.55322,51.98018],[-120.55285,51.98018],[-120.55256,51.98017],[-120.55227,51.98018],[-120.55198,51.98021],[-120.55183,51.98022],[-120.55155,51.98027],[-120.5514,51.98029],[-120.55114,51.98036],[-120.55087,51.98045],[-120.5505,51.98055],[-120.55031,51.98061],[-120.54994,51.98073],[-120.5497,51.9808],[-120.54952,51.98087],[-120.54917,51.98098],[-120.54887,51.98103],[-120.54871,51.98106],[-120.5484,51.98106],[-120.54825,51.98105],[-120.54794,51.981],[-120.54767,51.98092],[-120.54741,51.9808],[-120.54736,51.98077],[-120.547,51.98059],[-120.54682,51.9805],[-120.54658,51.98039],[-120.54629,51.9803],[-120.54615,51.98026],[-120.54599,51.98023],[-120.5457,51.98014],[-120.54545,51.98001],[-120.54533,51.97994],[-120.54507,51.97974],[-120.54475,51.97951],[-120.54468,51.97946],[-120.54432,51.9793],[-120.54405,51.97919],[-120.54395,51.97911],[-120.54373,51.97899],[-120.54347,51.9789],[-120.54334,51.97885],[-120.54305,51.97879],[-120.54276,51.97877],[-120.5426,51.97875],[-120.54246,51.97876],[-120.5421,51.97872],[-120.54191,51.97869],[-120.54172,51.97867],[-120.54136,51.97863],[-120.54113,51.97861],[-120.54076,51.97858],[-120.5404,51.97855],[-120.54021,51.97852],[-120.53998,51.97852],[-120.53962,51.9785],[-120.53941,51.97849],[-120.53905,51.9785],[-120.53886,51.9785],[-120.53867,51.97851],[-120.53831,51.97853],[-120.53804,51.97853],[-120.53768,51.97856],[-120.53749,51.97857],[-120.53714,51.97858],[-120.53677,51.97862],[-120.53658,51.97864],[-120.53639,51.97866],[-120.53605,51.97869],[-120.53569,51.97872],[-120.5355,51.97874],[-120.53513,51.97877],[-120.53477,51.97877],[-120.53458,51.97877],[-120.53445,51.97877],[-120.53411,51.97876],[-120.53392,51.97877],[-120.53356,51.97876],[-120.53342,51.97874],[-120.53313,51.97872],[-120.53298,51.97871],[-120.53267,51.97873],[-120.53238,51.97875],[-120.5321,51.9788],[-120.53203,51.97881],[-120.53166,51.97886],[-120.53147,51.97888],[-120.53128,51.97891],[-120.53091,51.97896],[-120.53074,51.97898],[-120.53036,51.97903],[-120.53005,51.97908],[-120.52968,51.97915],[-120.52936,51.97921],[-120.52908,51.97926],[-120.52893,51.97928],[-120.52864,51.97929],[-120.52849,51.97928],[-120.52835,51.97927],[-120.52801,51.97925],[-120.52783,51.97923],[-120.52746,51.97919],[-120.52727,51.97918],[-120.52709,51.97916],[-120.52672,51.97912],[-120.52654,51.97911],[-120.52636,51.97909],[-120.52609,51.97906],[-120.52572,51.97903],[-120.52565,51.97902],[-120.52554,51.97901],[-120.52517,51.97897],[-120.52499,51.97895],[-120.5248,51.97893],[-120.52444,51.97889],[-120.52425,51.97887],[-120.52389,51.97884],[-120.5237,51.97882],[-120.52334,51.97877],[-120.52315,51.97876],[-120.52279,51.97872],[-120.5226,51.97869],[-120.52241,51.97868],[-120.52205,51.97864],[-120.52186,51.97861],[-120.5215,51.97858],[-120.52131,51.97856],[-120.52112,51.97855],[-120.52076,51.9785],[-120.52057,51.97848],[-120.52021,51.97845],[-120.51989,51.97841],[-120.51953,51.97838],[-120.51917,51.97834],[-120.51898,51.97832],[-120.51882,51.97828],[-120.51866,51.97826],[-120.51833,51.97823],[-120.51807,51.97823],[-120.5177,51.97824],[-120.51751,51.97824],[-120.51732,51.97824],[-120.51696,51.97825],[-120.51667,51.97825],[-120.51648,51.97826],[-120.51611,51.97827],[-120.51575,51.97827],[-120.51541,51.97827],[-120.51509,51.97828],[-120.5148,51.97831],[-120.5145,51.97838],[-120.51422,51.97844],[-120.51386,51.97852],[-120.51366,51.97855],[-120.51347,51.97859],[-120.51328,51.97863],[-120.51291,51.9787],[-120.51254,51.97878],[-120.51235,51.97882],[-120.51198,51.9789],[-120.51179,51.97893],[-120.5116,51.97897],[-120.51141,51.97901],[-120.51104,51.97909],[-120.51091,51.97912]]}},
{"type":"Feature","properties":{"spotId":"E-grouse-drive-0045","kind":"roadside","km":4.2,"climbM":70,"name":"By Spanish Creek","flags":[]},"geometry":{"type":"LineString","coordinates":[[-120.51091,51.97912],[-120.51085,51.97913],[-120.51048,51.9792],[-120.51019,51.97928],[-120.51005,51.97933],[-120.50993,51.9794],[-120.50983,51.97947],[-120.50948,51.97968],[-120.50931,51.9798],[-120.50897,51.98002],[-120.50879,51.98013],[-120.50844,51.98035],[-120.50823,51.98048],[-120.50787,51.98069],[-120.50767,51.98086],[-120.5074,51.981],[-120.5071,51.98109],[-120.50685,51.9812],[-120.50647,51.98137],[-120.50628,51.98145],[-120.50591,51.98162],[-120.50561,51.98175],[-120.50541,51.98184],[-120.50504,51.98201],[-120.50467,51.98217],[-120.50447,51.98226],[-120.50428,51.98234],[-120.50408,51.98243],[-120.50371,51.9826],[-120.50352,51.98268],[-120.50314,51.98285],[-120.50282,51.98299],[-120.50244,51.98314],[-120.50225,51.98322],[-120.50188,51.98338],[-120.50174,51.98344],[-120.50137,51.98362],[-120.50116,51.98372],[-120.50096,51.98378],[-120.50077,51.98384],[-120.5004,51.98398],[-120.5001,51.98411],[-120.49991,51.98419],[-120.49953,51.98437],[-120.49934,51.98445],[-120.49918,51.98451],[-120.49915,51.98453],[-120.49877,51.9847],[-120.49858,51.98479],[-120.49821,51.98495],[-120.49801,51.98504],[-120.49764,51.98521],[-120.49744,51.98528],[-120.49725,51.98537],[-120.49688,51.98554],[-120.49668,51.98562],[-120.49631,51.98579],[-120.49607,51.98591],[-120.49582,51.98601],[-120.49555,51.98611],[-120.49527,51.98619],[-120.49506,51.98627],[-120.49487,51.98634],[-120.49467,51.98641],[-120.4943,51.98656],[-120.49405,51.98665],[-120.4939,51.98669],[-120.49363,51.98676],[-120.49328,51.98681],[-120.49291,51.98689],[-120.49272,51.98693],[-120.49235,51.987],[-120.49222,51.98704],[-120.49197,51.98714],[-120.49161,51.98731],[-120.4914,51.98743],[-120.49112,51.98761],[-120.49079,51.98783],[-120.49052,51.98801],[-120.49044,51.98808],[-120.49029,51.98824],[-120.49024,51.98833],[-120.49016,51.98848],[-120.49003,51.98871],[-120.48996,51.98882],[-120.48983,51.98904],[-120.48972,51.98924],[-120.48957,51.98942],[-120.48938,51.98959],[-120.48908,51.98981],[-120.48906,51.98983],[-120.48893,51.98992],[-120.48861,51.99014],[-120.48846,51.99025],[-120.48829,51.99037],[-120.48799,51.99059],[-120.48767,51.9908],[-120.48736,51.99102],[-120.48723,51.99114],[-120.48707,51.99125],[-120.48677,51.99147],[-120.48662,51.99158],[-120.48632,51.9918],[-120.48618,51.99191],[-120.48603,51.99203],[-120.48575,51.99222],[-120.48572,51.99225],[-120.48551,51.99242],[-120.48529,51.99261],[-120.48519,51.99272],[-120.48497,51.99294],[-120.48486,51.99306],[-120.48464,51.99328],[-120.48443,51.99346],[-120.4843,51.99348],[-120.48419,51.99357],[-120.48391,51.99374],[-120.48388,51.99375],[-120.48372,51.99385],[-120.48335,51.99407],[-120.4833,51.99409],[-120.48315,51.99418],[-120.48278,51.9944],[-120.48249,51.9945],[-120.48221,51.9946],[-120.48211,51.99462],[-120.48181,51.99464],[-120.48174,51.99465],[-120.48159,51.99467],[-120.4814,51.99468],[-120.48111,51.99472],[-120.48082,51.99479],[-120.48068,51.99483],[-120.48049,51.99492],[-120.48029,51.99501],[-120.4801,51.99509],[-120.47973,51.99527],[-120.47953,51.99536],[-120.47916,51.99554],[-120.47895,51.99564],[-120.47875,51.99572],[-120.47862,51.99577],[-120.47835,51.99587],[-120.4782,51.9959],[-120.47791,51.99597],[-120.47772,51.99601],[-120.47735,51.99606],[-120.47716,51.99609],[-120.47698,51.99612],[-120.47666,51.99616],[-120.47629,51.99621],[-120.4761,51.99623],[-120.47582,51.99626],[-120.47576,51.99627],[-120.47563,51.99628],[-120.47527,51.99632],[-120.47494,51.99638],[-120.47479,51.99642],[-120.47451,51.99653],[-120.47439,51.9966],[-120.4743,51.99666],[-120.47394,51.99688],[-120.47359,51.99709],[-120.47327,51.99729],[-120.4729,51.99751],[-120.47252,51.99773],[-120.47234,51.99784],[-120.47214,51.99798],[-120.47202,51.99803],[-120.47189,51.99808],[-120.47161,51.99815],[-120.47146,51.99816],[-120.47114,51.99816],[-120.47094,51.99817],[-120.47075,51.9982],[-120.47055,51.99826],[-120.47036,51.99832],[-120.47017,51.99838],[-120.4698,51.99851],[-120.46943,51.99862],[-120.4691,51.99872],[-120.46898,51.99878],[-120.4687,51.99884],[-120.46833,51.99892],[-120.468,51.99902],[-120.46775,51.99917],[-120.46737,51.99939],[-120.4671,51.99951],[-120.46697,51.99959],[-120.46685,51.99965],[-120.46667,51.99967],[-120.46635,51.99976],[-120.4662,51.99983],[-120.46606,51.99991],[-120.46597,52.0],[-120.46591,52.00003],[-120.46556,52.00018],[-120.46523,52.0004],[-120.46505,52.00048],[-120.46496,52.00052],[-120.46459,52.00067],[-120.46446,52.0007],[-120.46423,52.00076],[-120.46389,52.00086],[-120.4638,52.0009],[-120.46345,52.00102],[-120.46334,52.00106],[-120.46323,52.00109]]}},
{"type":"Feature","properties":{"spotId":"E-moose-atv-0042","kind":"ride","km":2.15,"climbM":188,"name":"1.9 km N of Tommy Archie Lake","flags":[]},"geometry":{"type":"LineString","coordinates":[[-120.48616,51.94471],[-120.48626,51.94477],[-120.48634,51.94481],[-120.48663,51.94489],[-120.48678,51.94495],[-120.48712,51.94512],[-120.48718,51.94513],[-120.48752,51.94525],[-120.48785,51.94543],[-120.48795,51.94551],[-120.48797,51.94556],[-120.48802,51.94572],[-120.48807,51.9459],[-120.48808,51.94596],[-120.48807,51.94615],[-120.48806,51.94633],[-120.48805,51.94649],[-120.48804,51.94671],[-120.48803,51.94692],[-120.488,51.9471],[-120.48799,51.9473],[-120.48795,51.94748],[-120.48793,51.94755],[-120.48792,51.94776],[-120.48791,51.94798],[-120.4879,51.94815],[-120.48787,51.94836],[-120.48786,51.94858],[-120.48786,51.94866],[-120.48794,51.94877],[-120.48806,51.94883],[-120.48831,51.94885],[-120.48867,51.94889],[-120.48885,51.94889],[-120.48889,51.9489],[-120.48923,51.94881],[-120.48929,51.94878],[-120.48944,51.94874],[-120.4896,51.94867],[-120.48969,51.94859],[-120.48989,51.94848],[-120.4901,51.94833],[-120.49047,51.94816],[-120.49055,51.94813],[-120.49078,51.9481],[-120.49113,51.94811],[-120.49116,51.94811],[-120.49141,51.94811],[-120.49158,51.94819],[-120.49165,51.94823],[-120.49184,51.94839],[-120.49187,51.94845],[-120.49187,51.94849],[-120.49187,51.94864],[-120.49186,51.94881],[-120.49186,51.94894],[-120.4919,51.94913],[-120.49193,51.94921],[-120.49192,51.94936],[-120.49201,51.94957],[-120.4921,51.94976],[-120.49211,51.9498],[-120.49212,51.94991],[-120.49222,51.95003],[-120.49232,51.9501],[-120.49243,51.95019],[-120.49267,51.95033],[-120.49274,51.95037],[-120.49284,51.95045],[-120.49288,51.95049],[-120.49289,51.95054],[-120.49288,51.95073],[-120.49283,51.9508],[-120.49266,51.95093],[-120.4923,51.9511],[-120.4922,51.95118],[-120.49217,51.95123],[-120.49216,51.95132],[-120.49218,51.95133],[-120.49223,51.95137],[-120.4924,51.95145],[-120.4925,51.95148],[-120.49282,51.95149],[-120.49316,51.9515],[-120.49346,51.95151],[-120.49371,51.95153],[-120.49398,51.95158],[-120.49415,51.95163],[-120.49425,51.95164],[-120.49454,51.95165],[-120.49469,51.95163],[-120.49485,51.95156],[-120.49508,51.95152],[-120.49543,51.9515],[-120.49557,51.95149],[-120.49585,51.9515],[-120.4962,51.95152],[-120.49654,51.95158],[-120.49672,51.9516],[-120.49679,51.95162],[-120.497,51.95164],[-120.49708,51.95164],[-120.49718,51.95161],[-120.49731,51.95157],[-120.4974,51.95153],[-120.49757,51.9515],[-120.49776,51.95148],[-120.4978,51.95147],[-120.49801,51.95141],[-120.49836,51.95142],[-120.4986,51.95144],[-120.49872,51.95148],[-120.49893,51.95158],[-120.49897,51.95158],[-120.49904,51.95163],[-120.49934,51.95176],[-120.49945,51.95181],[-120.49961,51.9519],[-120.4999,51.95197],[-120.50006,51.95198],[-120.50033,51.95194],[-120.50044,51.95191],[-120.50045,51.9519],[-120.50059,51.95183],[-120.50071,51.9518],[-120.5009,51.95174],[-120.50105,51.95168],[-120.50121,51.95166],[-120.50148,51.95158],[-120.50181,51.95152],[-120.50193,51.95149],[-120.50215,51.95142],[-120.50248,51.95133],[-120.50281,51.95119],[-120.50291,51.95115],[-120.50315,51.95112],[-120.50317,51.95112],[-120.50332,51.95114],[-120.50363,51.95114],[-120.50392,51.95115],[-120.50412,51.95115],[-120.50422,51.95113],[-120.50456,51.95114],[-120.50464,51.95114],[-120.50483,51.95118],[-120.50489,51.95119],[-120.50499,51.95123]]}},
{"type":"Feature","properties":{"spotId":"E-moose-atv-0042","kind":"walk","km":0.14,"climbM":0,"name":"1.9 km N of Tommy Archie Lake","flags":[]},"geometry":{"type":"LineString","coordinates":[[-120.50499,51.95123],[-120.50661,51.95049]]}},
{"type":"Feature","properties":{"spotId":"E-moose-atv-0043","kind":"ride","km":4.14,"climbM":66,"name":"930 m W of Boss Creek","flags":[]},"geometry":{"type":"LineString","coordinates":[[-120.68675,51.9243],[-120.68693,51.92429],[-120.68711,51.92424],[-120.68726,51.92416],[-120.68739,51.92409],[-120.68757,51.92397],[-120.68765,51.92388],[-120.68774,51.9238],[-120.68777,51.92375],[-120.68782,51.92366],[-120.68791,51.92357],[-120.68803,51.9235],[-120.68815,51.92341],[-120.68832,51.92327],[-120.68843,51.92318],[-120.68855,51.92308],[-120.68864,51.923],[-120.6887,51.9229],[-120.68879,51.92281],[-120.68893,51.92271],[-120.68904,51.92264],[-120.68916,51.92254],[-120.68923,51.92245],[-120.68927,51.92235],[-120.68929,51.92226],[-120.68932,51.92223],[-120.68938,51.92213],[-120.68947,51.92204],[-120.68957,51.92195],[-120.6897,51.92187],[-120.68984,51.92179],[-120.68994,51.92171],[-120.69005,51.92164],[-120.69009,51.9216],[-120.69017,51.92149],[-120.69023,51.92141],[-120.6903,51.92132],[-120.6903,51.9213],[-120.69033,51.92121],[-120.69041,51.92113],[-120.69049,51.92103],[-120.69055,51.92091],[-120.69061,51.92081],[-120.69066,51.92072],[-120.69062,51.92061],[-120.69058,51.92052],[-120.69049,51.92038],[-120.69041,51.92025],[-120.69036,51.92016],[-120.69027,51.92008],[-120.69018,51.91997],[-120.69007,51.91986],[-120.68998,51.91979],[-120.6899,51.91969],[-120.68983,51.9196],[-120.68976,51.9195],[-120.68968,51.91939],[-120.68964,51.9193],[-120.68959,51.91921],[-120.68955,51.91911],[-120.68958,51.91906],[-120.68967,51.91899],[-120.68972,51.91894],[-120.68978,51.91889],[-120.6899,51.9188],[-120.69005,51.91867],[-120.69019,51.91857],[-120.69027,51.91849],[-120.69039,51.9184],[-120.69054,51.9183],[-120.69064,51.91823],[-120.69075,51.91816],[-120.69091,51.91808],[-120.69105,51.918],[-120.69113,51.91792],[-120.69125,51.91784],[-120.69126,51.91781],[-120.69135,51.91774],[-120.69145,51.91764],[-120.69157,51.91753],[-120.69161,51.91744],[-120.69163,51.91735],[-120.69166,51.9172],[-120.6917,51.91701],[-120.69173,51.91683],[-120.69175,51.91674],[-120.6918,51.9167],[-120.69196,51.91658],[-120.69211,51.9165],[-120.69216,51.91647],[-120.69222,51.91643],[-120.69236,51.91633],[-120.69246,51.9162],[-120.69251,51.91607],[-120.69255,51.91596],[-120.69259,51.91582],[-120.69265,51.91571],[-120.69267,51.91561],[-120.69275,51.9155],[-120.69282,51.91542],[-120.69289,51.91531],[-120.69287,51.91529],[-120.69284,51.91517],[-120.69278,51.91507],[-120.69272,51.91498],[-120.69259,51.9149],[-120.69246,51.91483],[-120.69239,51.91473],[-120.69231,51.91461],[-120.69229,51.91446],[-120.6923,51.91437],[-120.69234,51.91428],[-120.69238,51.91418],[-120.69237,51.91405],[-120.6923,51.91396],[-120.69219,51.91389],[-120.69213,51.91388],[-120.69199,51.91389],[-120.69184,51.91391],[-120.69177,51.91395],[-120.69159,51.914],[-120.69143,51.91404],[-120.69128,51.91407],[-120.69118,51.91407],[-120.69112,51.91407],[-120.69108,51.91404],[-120.69092,51.91396],[-120.69081,51.91386],[-120.69071,51.91373],[-120.69056,51.91365],[-120.69049,51.91364],[-120.69039,51.91363],[-120.69015,51.91362],[-120.68992,51.91362],[-120.68972,51.91362],[-120.68954,51.91364],[-120.68937,51.91363],[-120.68913,51.91364],[-120.68896,51.91362],[-120.68877,51.91363],[-120.68853,51.91362],[-120.68831,51.91359],[-120.68816,51.91356],[-120.68789,51.91355],[-120.68766,51.91353],[-120.68744,51.91354],[-120.68725,51.91356],[-120.68707,51.9136],[-120.68693,51.9136],[-120.68678,51.91362],[-120.68672,51.91361],[-120.68664,51.91359],[-120.68658,51.91358],[-120.68638,51.91356],[-120.68616,51.91353],[-120.68596,51.91348],[-120.68579,51.91343],[-120.68563,51.91338],[-120.68561,51.91338],[-120.68546,51.91332],[-120.68529,51.91326],[-120.68507,51.91322],[-120.68485,51.91321],[-120.68468,51.91319],[-120.68445,51.91316],[-120.68443,51.91316],[-120.68425,51.91314],[-120.68407,51.91311],[-120.68393,51.9131],[-120.68367,51.91307],[-120.68348,51.91304],[-120.68331,51.91301],[-120.683,51.91299],[-120.68277,51.91298],[-120.68276,51.91298],[-120.68258,51.91294],[-120.68239,51.91294],[-120.68225,51.91292],[-120.68208,51.91288],[-120.68192,51.91282],[-120.68181,51.91274],[-120.68174,51.91264],[-120.68173,51.91253],[-120.68184,51.91243],[-120.68195,51.91233],[-120.68208,51.91222],[-120.68219,51.91214],[-120.68232,51.91205],[-120.68245,51.91195],[-120.6826,51.91184],[-120.68269,51.91173],[-120.68281,51.91161],[-120.68298,51.91148],[-120.6831,51.9114],[-120.68319,51.91133],[-120.68331,51.91124],[-120.68344,51.91118],[-120.68358,51.91112],[-120.68376,51.91105],[-120.6839,51.91102],[-120.68406,51.911],[-120.68412,51.91098],[-120.68426,51.91093],[-120.68438,51.91085],[-120.68447,51.91076],[-120.68458,51.91066],[-120.68471,51.91057],[-120.68485,51.9105],[-120.68497,51.91043],[-120.68509,51.91034],[-120.68521,51.91028],[-120.68533,51.91019],[-120.68546,51.91012],[-120.68554,51.91002],[-120.68559,51.90993],[-120.68564,51.90983],[-120.68564,51.90979],[-120.68567,51.9097],[-120.68569,51.90961],[-120.68565,51.9095],[-120.68567,51.90941],[-120.68565,51.90928],[-120.68564,51.90916],[-120.68564,51.90901],[-120.68563,51.90888],[-120.68561,51.90874],[-120.68557,51.90857],[-120.68556,51.90843],[-120.68555,51.90833],[-120.68554,51.90824],[-120.68552,51.90812],[-120.6855,51.90797],[-120.68548,51.90786],[-120.68545,51.90777],[-120.68545,51.90761],[-120.68544,51.90748],[-120.68547,51.9074],[-120.68548,51.9073],[-120.68552,51.90721],[-120.68559,51.90707],[-120.68565,51.90701],[-120.6857,51.90695],[-120.68576,51.90685],[-120.68588,51.90672],[-120.68596,51.90666],[-120.68599,51.90663],[-120.68611,51.90652],[-120.6862,51.90644],[-120.6863,51.90636],[-120.68639,51.90629],[-120.68648,51.9062],[-120.6866,51.9061],[-120.68668,51.90601],[-120.68671,51.90598],[-120.68671,51.90594],[-120.68674,51.90586],[-120.68673,51.90582],[-120.68668,51.90566],[-120.68664,51.90551],[-120.68662,51.90539],[-120.68653,51.90527],[-120.68644,51.90515],[-120.68638,51.90506],[-120.68637,51.90499],[-120.68637,51.9049],[-120.68639,51.90481],[-120.68646,51.90477],[-120.68674,51.90477],[-120.6869,51.90482],[-120.68697,51.90487],[-120.68701,51.90489],[-120.68732,51.90508],[-120.68758,51.90519],[-120.68765,51.9052],[-120.68795,51.90527],[-120.68917,51.90536],[-120.68928,51.90535],[-120.68956,51.90527],[-120.6897,51.90523],[-120.68995,51.90512],[-120.69014,51.9051],[-120.69026,51.90512],[-120.6903,51.90513],[-120.69062,51.90519],[-120.69067,51.9052],[-120.69083,51.90525],[-120.69108,51.90543],[-120.6913,51.90553],[-120.69132,51.90555],[-120.69161,51.90561],[-120.69178,51.90563],[-120.69212,51.90577],[-120.69228,51.90582],[-120.69251,51.90591],[-120.69273,51.90602],[-120.693,51.90618],[-120.69325,51.90631],[-120.69346,51.90646],[-120.69373,51.90656],[-120.694,51.90666],[-120.69427,51.90678],[-120.69436,51.90679],[-120.6944,51.90679],[-120.69474,51.90677],[-120.69512,51.90674],[-120.69522,51.90671],[-120.6955,51.90664],[-120.6958,51.90662],[-120.69593,51.90663],[-120.69628,51.90662],[-120.6966,51.90654],[-120.69683,51.90646],[-120.69718,51.90631],[-120.69731,51.90625],[-120.69745,51.9061],[-120.69756,51.90604],[-120.69778,51.90589],[-120.69786,51.90581],[-120.69799,51.90577],[-120.69817,51.90565],[-120.69819,51.90563],[-120.69823,51.90557],[-120.69824,51.90555],[-120.69827,51.90553],[-120.69831,51.90552],[-120.69843,51.90544],[-120.69843,51.90539]]}},
{"type":"Feature","properties":{"spotId":"E-moose-atv-0043","kind":"walk","km":0.2,"climbM":1,"name":"930 m W of Boss Creek","flags":[]},"geometry":{"type":"LineString","coordinates":[[-120.68675,51.9243],[-120.68654,51.92608]]}},
{"type":"Feature","properties":{"spotId":"E-moose-atv-0076","kind":"ride","km":1.23,"climbM":30,"name":"2.4 km NW of Canim Lake","flags":[]},"geometry":{"type":"LineString","coordinates":[[-120.68583,51.90678],[-120.68588,51.90672],[-120.68596,51.90666],[-120.68599,51.90663],[-120.68611,51.90652],[-120.6862,51.90644],[-120.6863,51.90636],[-120.68639,51.90629],[-120.68648,51.9062],[-120.6866,51.9061],[-120.68668,51.90601],[-120.68671,51.90598],[-120.68671,51.90594],[-120.68674,51.90586],[-120.68673,51.90582],[-120.68668,51.90566],[-120.68664,51.90551],[-120.68662,51.90539],[-120.68653,51.90527],[-120.68644,51.90515],[-120.68638,51.90506],[-120.68637,51.90499],[-120.68637,51.9049],[-120.68639,51.90481],[-120.68646,51.90477],[-120.68674,51.90477],[-120.6869,51.90482],[-120.68697,51.90487],[-120.68701,51.90489],[-120.68732,51.90508],[-120.68758,51.90519],[-120.68765,51.9052],[-120.68795,51.90527],[-120.68917,51.90536],[-120.68928,51.90535],[-120.68956,51.90527],[-120.6897,51.90523],[-120.68995,51.90512],[-120.69014,51.9051],[-120.69026,51.90512],[-120.6903,51.90513],[-120.69062,51.90519],[-120.69067,51.9052],[-120.69083,51.90525],[-120.69108,51.90543],[-120.6913,51.90553],[-120.69132,51.90555],[-120.69161,51.90561],[-120.69178,51.90563],[-120.69212,51.90577],[-120.69228,51.90582],[-120.69251,51.90591],[-120.69273,51.90602],[-120.693,51.90618],[-120.69325,51.90631],[-120.69346,51.90646],[-120.69373,51.90656],[-120.694,51.90666],[-120.69427,51.90678],[-120.69436,51.90679],[-120.6944,51.90679],[-120.69474,51.90677],[-120.69512,51.90674],[-120.69522,51.90671],[-120.6955,51.90664],[-120.6958,51.90662],[-120.69593,51.90663],[-120.69628,51.90662],[-120.6966,51.90654],[-120.69683,51.90646],[-120.69718,51.90631],[-120.69731,51.90625],[-120.69745,51.9061],[-120.69756,51.90604],[-120.69778,51.90589],[-120.69786,51.90581],[-120.69799,51.90577],[-120.69817,51.90565],[-120.69819,51.90563],[-120.69823,51.90557],[-120.69824,51.90555],[-120.69827,51.90553],[-120.69831,51.90552],[-120.69843,51.90544],[-120.69843,51.90539]]}},
{"type":"Feature","properties":{"spotId":"E-moose-atv-0076","kind":"walk","km":0.14,"climbM":10,"name":"2.4 km NW of Canim Lake","flags":[]},"geometry":{"type":"LineString","coordinates":[[-120.68583,51.90678],[-120.68403,51.90615]]}},
{"type":"Feature","properties":{"spotId":"E-moose-walk-0105","kind":"walk","km":0.54,"climbM":27,"name":"1.8 km SE of No Name Lake rec site","flags":[]},"geometry":{"type":"LineString","coordinates":[[-120.53253,51.9891],[-120.5325,51.98909],[-120.53235,51.98903],[-120.53233,51.98902],[-120.53202,51.98895],[-120.53198,51.98892],[-120.53173,51.98869],[-120.53165,51.98851],[-120.5316,51.9884],[-120.53149,51.9883],[-120.53118,51.98821],[-120.53083,51.98812],[-120.53075,51.98809],[-120.53043,51.98808],[-120.53019,51.98807],[-120.53011,51.98806],[-120.52976,51.98805],[-120.52942,51.98805],[-120.52938,51.98803],[-120.52919,51.98784],[-120.52909,51.98779],[-120.52616,51.98881]]}}
]}
