{"type":"FeatureCollection","features":[
{"type":"Feature","properties":{"spotId":"E-camp-camp-0055","kind":"walk","km":0.01,"climbM":0,"name":"270 m SE of Moffat Creek","flags":[]},"geometry":{"type":"LineString","coordinates":[[-121.48756,52.2048],[-121.48773,52.20483]]}},
{"type":"Feature","properties":{"spotId":"E-duck-drive-0013","kind":"walk","km":0.07,"climbM":0,"name":"Unnamed wetland 300 m E of Moffat Creek","flags":[]},"geometry":{"type":"LineString","coordinates":[[-121.4171,52.18792],[-121.41712,52.18725]]}},
{"type":"Feature","properties":{"spotId":"E-duck-drive-0018","kind":"walk","km":0.2,"climbM":0,"name":"Unnamed wetland 450 m SE of Moffat Creek","flags":[]},"geometry":{"type":"LineString","coordinates":[[-121.36308,52.15101],[-121.36356,52.15277]]}},
{"type":"Feature","properties":{"spotId":"E-duck-drive-0061","kind":"walk","km":0.23,"climbM":1,"name":"Unnamed wetland 360 m NE of Eagle (Murphy) Lake","flags":[]},"geometry":{"type":"LineString","coordinates":[[-121.29696,52.07216],[-121.29415,52.07337]]}},
{"type":"Feature","properties":{"spotId":"E-duck-drive-0072","kind":"walk","km":0.07,"climbM":0,"name":"Unnamed wetland by Harrison Creek","flags":[]},"geometry":{"type":"LineString","coordinates":[[-121.27463,52.06765],[-121.27484,52.06703]]}},
{"type":"Feature","properties":{"spotId":"E-duck-drive-0094","kind":"walk","km":0.06,"climbM":0,"name":"Unnamed wetland by Two Mile Creek","flags":[]},"geometry":{"type":"LineString","coordinates":[[-121.38707,52.06957],[-121.38644,52.07001]]}},
{"type":"Feature","properties":{"spotId":"E-duck-walk-0003","kind":"walk","km":0.32,"climbM":0,"name":"Unnamed wetland by Moffat Creek","flags":[]},"geometry":{"type":"LineString","coordinates":[[-121.40508,52.17618],[-121.40661,52.1735]]}},
{"type":"Feature","properties":{"spotId":"E-duck-walk-0007","kind":"walk","km":0.5,"climbM":0,"name":"Unnamed wetland 330 m SE of Moffat Creek","flags":[]},"geometry":{"type":"LineString","coordinates":[[-121.45111,52.16612],[-121.45216,52.17053]]}},
{"type":"Feature","properties":{"spotId":"E-duck-walk-0014","kind":"walk","km":0.38,"climbM":0,"name":"Unnamed wetland by Moffat Creek","flags":[]},"geometry":{"type":"LineString","coordinates":[[-121.26525,52.13538],[-121.26387,52.13869]]}},
{"type":"Feature","properties":{"spotId":"E-duck-walk-0015","kind":"walk","km":0.4,"climbM":0,"name":"Unnamed wetland 310 m SW of Moffat Creek","flags":[]},"geometry":{"type":"LineString","coordinates":[[-121.37599,52.16097],[-121.37999,52.16364]]}},
{"type":"Feature","properties":{"spotId":"E-duck-walk-0043","kind":"walk","km":0.31,"climbM":11,"name":"Unnamed wetland 380 m NE of Eagle (Murphy) Lake","flags":["Route crosses private land (ParcelMap BC, updated 2026-09-22): get permission first or go around."]},"geometry":{"type":"LineString","coordinates":[[-121.29421,52.07068],[-121.29171,52.07304]]}},
{"type":"Feature","properties":{"spotId":"E-duck-walk-0053","kind":"walk","km":0.35,"climbM":0,"name":"Unnamed wetland by McIntosh Lakes","flags":[]},"geometry":{"type":"LineString","coordinates":[[-121.47073,52.10947],[-121.47577,52.10893]]}},
{"type":"Feature","properties":{"spotId":"E-duck-walk-0067","kind":"walk","km":0.35,"climbM":0,"name":"Unnamed wetland by Eagle Creek","flags":[]},"geometry":{"type":"LineString","coordinates":[[-121.42399,52.04037],[-121.42108,52.043]]}},
{"type":"Feature","properties":{"spotId":"E-grouse-atv-0004","kind":"walk","km":0.05,"climbM":1,"name":"By Blue Moon Creek","flags":[]},"geometry":{"type":"LineString","coordinates":[[-121.4985,52.17798],[-121.49868,52.17754]]}},
{"type":"Feature","properties":{"spotId":"E-grouse-atv-0004","kind":"ride","km":3.64,"climbM":37,"name":"By Blue Moon Creek","flags":[]},"geometry":{"type":"LineString","coordinates":[[-121.49868,52.17754],[-121.49871,52.17755],[-121.49879,52.17759],[-121.49887,52.17761],[-121.49893,52.17761],[-121.49905,52.17761],[-121.49915,52.17763],[-121.4994,52.17772],[-121.49953,52.17775],[-121.49974,52.1778],[-121.49985,52.17782],[-121.49998,52.17784],[-121.50011,52.17788],[-121.50032,52.17801],[-121.50057,52.17806],[-121.50081,52.17814],[-121.50086,52.17816],[-121.50119,52.17832],[-121.50146,52.17844],[-121.50165,52.17856],[-121.50195,52.17868],[-121.50204,52.17874],[-121.5023,52.17882],[-121.50251,52.17897],[-121.50283,52.17912],[-121.50302,52.17919],[-121.50335,52.17927],[-121.50342,52.17929],[-121.50357,52.17931],[-121.50366,52.17934],[-121.50371,52.17935],[-121.50393,52.17947],[-121.50413,52.17947],[-121.5045,52.1794],[-121.50458,52.17938],[-121.5049,52.17932],[-121.50499,52.17931],[-121.50524,52.17926],[-121.50561,52.17915],[-121.50592,52.17907],[-121.50605,52.17903],[-121.50639,52.17897],[-121.5066,52.17889],[-121.50679,52.17877],[-121.50682,52.17872],[-121.50687,52.17866],[-121.50691,52.1786],[-121.50691,52.17857],[-121.50698,52.17841],[-121.507,52.17832],[-121.50708,52.17828],[-121.50717,52.1783],[-121.50747,52.17846],[-121.50753,52.17851],[-121.50767,52.17874],[-121.50768,52.17881],[-121.50781,52.17883],[-121.50803,52.17894],[-121.50816,52.17899],[-121.50847,52.17912],[-121.50856,52.17912],[-121.50863,52.17915],[-121.50875,52.17916],[-121.5089,52.17918],[-121.50923,52.17922],[-121.5093,52.17923],[-121.50967,52.1793],[-121.50984,52.17932],[-121.50995,52.17932],[-121.51025,52.17935],[-121.5106,52.17936],[-121.51079,52.17936],[-121.51111,52.17936],[-121.51128,52.17932],[-121.5116,52.17925],[-121.51194,52.17916],[-121.51218,52.17912],[-121.51235,52.17911],[-121.5127,52.17909],[-121.51285,52.17906],[-121.51297,52.17907],[-121.5133,52.17908],[-121.51342,52.17907],[-121.5137,52.17902],[-121.51404,52.17901],[-121.51426,52.17896],[-121.51463,52.1789],[-121.51493,52.17884],[-121.5153,52.17882],[-121.51551,52.17875],[-121.51554,52.17869],[-121.51556,52.17851],[-121.51563,52.17829],[-121.51562,52.17815],[-121.51562,52.17796],[-121.51563,52.17779],[-121.51573,52.17765],[-121.5158,52.17755],[-121.51578,52.17746],[-121.51576,52.17729],[-121.51566,52.17713],[-121.51567,52.17708],[-121.51571,52.17697],[-121.51572,52.17678],[-121.51561,52.17663],[-121.51545,52.17643],[-121.51531,52.17624],[-121.51526,52.17611],[-121.51516,52.17589],[-121.51505,52.1758],[-121.51492,52.17573],[-121.51477,52.17555],[-121.51471,52.17546],[-121.51468,52.17541],[-121.51458,52.17531],[-121.51456,52.17528],[-121.51445,52.17523],[-121.51432,52.17518],[-121.51401,52.175],[-121.51377,52.17482],[-121.51377,52.17473],[-121.51387,52.17464],[-121.51391,52.1746],[-121.51406,52.17439],[-121.51408,52.17431],[-121.51409,52.17426],[-121.51408,52.1742],[-121.51407,52.17412],[-121.51405,52.1741],[-121.51397,52.17402],[-121.51368,52.17389],[-121.51364,52.17387],[-121.51355,52.17379],[-121.51351,52.1737],[-121.51343,52.1736],[-121.51338,52.17354],[-121.51337,52.17347],[-121.51338,52.17331],[-121.51341,52.17323],[-121.51346,52.17317],[-121.51367,52.17295],[-121.51371,52.17292],[-121.51374,52.17289],[-121.51398,52.17271],[-121.51434,52.17249],[-121.51452,52.17233],[-121.51461,52.17223],[-121.51464,52.17219],[-121.51475,52.17202],[-121.51475,52.17196],[-121.51474,52.17179],[-121.5147,52.17174],[-121.51468,52.17163],[-121.51468,52.17144],[-121.51472,52.17134],[-121.51476,52.17127],[-121.5149,52.17111],[-121.51505,52.17095],[-121.51523,52.17081],[-121.51537,52.17064],[-121.51567,52.17044],[-121.51592,52.17032],[-121.51629,52.1701],[-121.51646,52.17003],[-121.51681,52.1699],[-121.51701,52.16976],[-121.51732,52.16958],[-121.51751,52.16943],[-121.51765,52.16934],[-121.51771,52.16929],[-121.51791,52.16908],[-121.51798,52.16896],[-121.51797,52.16883],[-121.51796,52.16873],[-121.51793,52.16869],[-121.51781,52.16846],[-121.5178,52.1684],[-121.51776,52.16821],[-121.51771,52.16801],[-121.51767,52.16779],[-121.51763,52.1677],[-121.51756,52.16764],[-121.51755,52.16752],[-121.51756,52.16731],[-121.51757,52.16725],[-121.51762,52.16721],[-121.5179,52.167],[-121.51799,52.16691],[-121.51801,52.16686],[-121.51804,52.16668],[-121.51803,52.16661],[-121.51802,52.16639],[-121.51804,52.16629],[-121.51806,52.16623],[-121.51815,52.16616],[-121.51852,52.16601],[-121.51855,52.16595],[-121.51854,52.16581],[-121.51853,52.16561],[-121.51858,52.16549],[-121.51878,52.16534],[-121.519,52.16523],[-121.51929,52.16516],[-121.51945,52.16515],[-121.51957,52.16509],[-121.51965,52.16501],[-121.51976,52.16484],[-121.51985,52.16476],[-121.51992,52.16473],[-121.52026,52.16464],[-121.52041,52.16463],[-121.52053,52.16459],[-121.52075,52.16446],[-121.52084,52.16438],[-121.52092,52.16429],[-121.52099,52.16412],[-121.5211,52.164],[-121.52131,52.16392],[-121.52147,52.16376],[-121.52154,52.16367],[-121.52163,52.16346],[-121.52166,52.16335],[-121.52177,52.16319],[-121.52204,52.16299],[-121.52213,52.16291],[-121.52243,52.16272],[-121.52268,52.16258],[-121.52273,52.16254],[-121.52282,52.16246],[-121.52298,52.16236],[-121.5233,52.16221],[-121.52359,52.16208],[-121.52376,52.162],[-121.52405,52.16183],[-121.52425,52.16173],[-121.52431,52.16168]]}},
{"type":"Feature","properties":{"spotId":"E-grouse-atv-0017","kind":"ride","km":4.19,"climbM":52,"name":"1.6 km SE of Tillicum Lake","flags":[]},"geometry":{"type":"LineString","coordinates":[[-121.39958,52.10007],[-121.39957,52.10008],[-121.39937,52.10012],[-121.39918,52.1002],[-121.399,52.10028],[-121.39886,52.10033],[-121.39868,52.10038],[-121.39849,52.10044],[-121.3983,52.10048],[-121.39808,52.10049],[-121.39787,52.10054],[-121.39771,52.10058],[-121.39752,52.10061],[-121.39746,52.10062],[-121.39727,52.10064],[-121.39706,52.10067],[-121.3969,52.10069],[-121.39674,52.10071],[-121.39655,52.10071],[-121.39636,52.10074],[-121.39617,52.10076],[-121.39593,52.1008],[-121.39574,52.10083],[-121.39552,52.10087],[-121.39536,52.10089],[-121.39517,52.1009],[-121.39498,52.10094],[-121.39479,52.10098],[-121.39463,52.10098],[-121.39439,52.10098],[-121.39423,52.101],[-121.39404,52.10101],[-121.39385,52.10105],[-121.39369,52.10105],[-121.39365,52.10105],[-121.3935,52.10107],[-121.39334,52.10108],[-121.39318,52.10109],[-121.39302,52.10111],[-121.39288,52.10118],[-121.39278,52.10125],[-121.39267,52.10131],[-121.39264,52.10135],[-121.39251,52.10143],[-121.39243,52.10151],[-121.39234,52.10155],[-121.3923,52.10157],[-121.39217,52.10162],[-121.39201,52.10163],[-121.39168,52.1017],[-121.39162,52.10173],[-121.39152,52.10177],[-121.39127,52.10184],[-121.39109,52.10189],[-121.39093,52.10194],[-121.39077,52.10195],[-121.39058,52.10198],[-121.39036,52.102],[-121.39028,52.10203],[-121.39012,52.10205],[-121.39003,52.10208],[-121.38996,52.10217],[-121.38982,52.10224],[-121.38964,52.10234],[-121.38948,52.10239],[-121.38932,52.10248],[-121.38921,52.10249],[-121.38908,52.10255],[-121.38895,52.10262],[-121.38881,52.10268],[-121.38869,52.10275],[-121.38862,52.10279],[-121.38859,52.10282],[-121.38846,52.10287],[-121.38828,52.10292],[-121.38809,52.10296],[-121.38787,52.10299],[-121.38768,52.10304],[-121.38751,52.10309],[-121.38741,52.10311],[-121.38722,52.1031],[-121.38706,52.10311],[-121.3869,52.10312],[-121.3868,52.10311],[-121.38671,52.1031],[-121.38655,52.10311],[-121.38636,52.10309],[-121.38617,52.10304],[-121.3859,52.10304],[-121.38571,52.10303],[-121.38555,52.10298],[-121.38524,52.10294],[-121.38508,52.1029],[-121.38484,52.10285],[-121.38446,52.10281],[-121.38424,52.1028],[-121.38408,52.10273],[-121.38397,52.10265],[-121.38385,52.10263],[-121.38382,52.10261],[-121.38358,52.10252],[-121.38345,52.10243],[-121.38334,52.10233],[-121.38322,52.10227],[-121.38312,52.10219],[-121.38298,52.10207],[-121.38287,52.10199],[-121.38285,52.10198],[-121.38268,52.10201],[-121.38251,52.10204],[-121.38247,52.10204],[-121.38235,52.10204],[-121.38216,52.10205],[-121.3819,52.10204],[-121.38171,52.10203],[-121.38152,52.10202],[-121.38125,52.102],[-121.38103,52.10199],[-121.38084,52.10199],[-121.38068,52.10197],[-121.38055,52.10198],[-121.38046,52.10198],[-121.3803,52.102],[-121.38016,52.10206],[-121.38006,52.10214],[-121.37995,52.1022],[-121.37986,52.10224],[-121.37982,52.10227],[-121.37969,52.10236],[-121.37963,52.1024],[-121.3795,52.10251],[-121.37937,52.10258],[-121.37924,52.10264],[-121.37905,52.10269],[-121.37888,52.10272],[-121.37869,52.10276],[-121.3785,52.10278],[-121.37831,52.1028],[-121.37814,52.10282],[-121.37806,52.10282],[-121.37783,52.10282],[-121.37764,52.10286],[-121.37748,52.10289],[-121.37737,52.10293],[-121.37731,52.10294],[-121.37714,52.10299],[-121.3769,52.10305],[-121.37684,52.10306],[-121.3764,52.10315],[-121.3763,52.10318],[-121.376,52.10322],[-121.37581,52.10322],[-121.37565,52.10324],[-121.37546,52.10324],[-121.37524,52.10323],[-121.37505,52.10321],[-121.37485,52.1032],[-121.37484,52.1032],[-121.3746,52.10321],[-121.37452,52.10318],[-121.37427,52.10319],[-121.37405,52.10317],[-121.37386,52.10319],[-121.3737,52.10319],[-121.37346,52.10321],[-121.37327,52.10325],[-121.37311,52.10324],[-121.3728,52.10325],[-121.3726,52.10324],[-121.37241,52.10325],[-121.37225,52.10325],[-121.37207,52.10326],[-121.37193,52.10328],[-121.3719,52.10329],[-121.37171,52.10331],[-121.37146,52.10337],[-121.37119,52.10344],[-121.37106,52.1035],[-121.37092,52.10357],[-121.37076,52.10367],[-121.37058,52.10373],[-121.37039,52.1038],[-121.37023,52.10385],[-121.37006,52.1039],[-121.37002,52.10392],[-121.36993,52.10396],[-121.3698,52.10401],[-121.36961,52.10408],[-121.36949,52.10415],[-121.36935,52.10423],[-121.36934,52.10424],[-121.36913,52.10439],[-121.36899,52.10445],[-121.36885,52.1045],[-121.36871,52.10453],[-121.36857,52.10458],[-121.36843,52.10464],[-121.36824,52.10472],[-121.36805,52.10478],[-121.36787,52.10485],[-121.36768,52.10495],[-121.36754,52.10504],[-121.36742,52.1051],[-121.36723,52.10519],[-121.36714,52.10524],[-121.3671,52.10526],[-121.36696,52.10534],[-121.36681,52.10544],[-121.36671,52.10554],[-121.36656,52.10561],[-121.36645,52.10568],[-121.36639,52.10576],[-121.36628,52.10587],[-121.36622,52.10596],[-121.36616,52.106],[-121.36609,52.10612],[-121.36596,52.10623],[-121.36589,52.10634],[-121.36574,52.10643],[-121.36566,52.10654],[-121.36557,52.10664],[-121.36546,52.10673],[-121.36533,52.10686],[-121.36524,52.10698],[-121.3651,52.10708],[-121.36501,52.10716],[-121.36495,52.10725],[-121.36487,52.10733],[-121.36472,52.1074],[-121.36462,52.10749],[-121.36453,52.10757],[-121.36445,52.1076],[-121.36428,52.1077],[-121.36414,52.10779],[-121.36405,52.1078],[-121.36401,52.10784],[-121.36383,52.10792],[-121.36372,52.10801],[-121.36359,52.10809],[-121.36356,52.10812],[-121.36353,52.10819],[-121.36344,52.10829],[-121.3633,52.10843],[-121.36321,52.10855],[-121.36319,52.10865],[-121.36307,52.10882],[-121.36299,52.10895],[-121.36292,52.10911],[-121.36288,52.10919],[-121.36284,52.10934],[-121.36281,52.1095],[-121.36281,52.10951],[-121.36273,52.10963],[-121.36272,52.1098],[-121.36272,52.10992],[-121.36272,52.10995],[-121.36268,52.11008],[-121.36264,52.11019],[-121.36254,52.11035],[-121.36251,52.11048],[-121.36249,52.11065],[-121.36245,52.11079],[-121.36245,52.11091],[-121.36239,52.11103],[-121.36237,52.11113],[-121.3623,52.11127],[-121.36224,52.11135],[-121.36217,52.11148],[-121.3621,52.11163],[-121.36213,52.11167],[-121.3621,52.11177],[-121.36205,52.11191],[-121.36201,52.11203],[-121.36198,52.11215],[-121.36198,52.11216],[-121.36192,52.11227],[-121.36187,52.11235],[-121.36187,52.11249],[-121.36183,52.11259],[-121.36181,52.11273],[-121.36181,52.11277],[-121.36175,52.11288],[-121.36169,52.11298],[-121.36164,52.11311],[-121.36163,52.11322],[-121.36163,52.11332],[-121.36163,52.11344],[-121.36162,52.11356],[-121.36159,52.11368],[-121.3616,52.11379],[-121.36162,52.11393],[-121.36165,52.11408],[-121.3617,52.11419],[-121.3617,52.11429],[-121.36172,52.11441],[-121.36172,52.11452],[-121.36165,52.11465],[-121.36168,52.11475],[-121.36166,52.11487],[-121.36168,52.11502],[-121.36168,52.11504],[-121.36172,52.11513],[-121.36178,52.11524],[-121.36181,52.1153],[-121.3618,52.1154],[-121.36183,52.11543],[-121.36186,52.11547],[-121.36186,52.11552],[-121.36187,52.11562],[-121.36186,52.11574],[-121.36186,52.11586],[-121.36188,52.11597],[-121.36191,52.11608],[-121.36191,52.11618],[-121.3619,52.11628],[-121.36193,52.11632],[-121.36193,52.11639],[-121.36189,52.11649],[-121.36179,52.11661],[-121.36167,52.11673],[-121.36153,52.11681],[-121.3614,52.11688],[-121.36134,52.11691],[-121.36128,52.11696],[-121.36114,52.11706],[-121.36098,52.11717],[-121.36086,52.11723],[-121.3608,52.11729],[-121.36063,52.11743],[-121.36056,52.11752],[-121.36044,52.1176],[-121.3603,52.11771],[-121.36021,52.11779],[-121.36013,52.11787],[-121.36005,52.11791],[-121.35991,52.11799],[-121.35976,52.11808],[-121.35963,52.11819],[-121.35954,52.11828],[-121.3594,52.11839],[-121.35932,52.11848],[-121.35926,52.11856],[-121.35923,52.1186],[-121.35913,52.1187],[-121.35898,52.1188],[-121.35887,52.11888]]}},
{"type":"Feature","properties":{"spotId":"E-grouse-atv-0025","kind":"walk","km":0.09,"climbM":0,"name":"260 m W of Two Mile Creek","flags":[]},"geometry":{"type":"LineString","coordinates":[[-121.39585,52.06199],[-121.39526,52.06128]]}},
{"type":"Feature","properties":{"spotId":"E-grouse-atv-0025","kind":"ride","km":5.67,"climbM":87,"name":"260 m W of Two Mile Creek","flags":[]},"geometry":{"type":"LineString","coordinates":[[-121.39526,52.06128],[-121.39526,52.06127],[-121.39521,52.06116],[-121.39511,52.06102],[-121.39506,52.06088],[-121.39503,52.06076],[-121.39503,52.0606],[-121.39503,52.06046],[-121.39497,52.06031],[-121.39496,52.06024],[-121.39492,52.06016],[-121.39484,52.06013],[-121.39477,52.06013],[-121.3947,52.0601],[-121.39459,52.06001],[-121.39451,52.05993],[-121.39436,52.05983],[-121.39426,52.05974],[-121.3941,52.05962],[-121.39393,52.05954],[-121.39376,52.05947],[-121.3936,52.05941],[-121.39355,52.05936],[-121.3935,52.05925],[-121.39349,52.05916],[-121.3935,52.05904],[-121.3935,52.05895],[-121.39351,52.05887],[-121.39357,52.0588],[-121.3937,52.05871],[-121.39375,52.05868],[-121.39392,52.0585],[-121.3941,52.05831],[-121.39434,52.0581],[-121.39461,52.05789],[-121.39486,52.05772],[-121.39515,52.05762],[-121.39556,52.05752],[-121.3959,52.0575],[-121.39622,52.05739],[-121.39656,52.05726],[-121.39691,52.0571],[-121.3973,52.05696],[-121.39763,52.05684],[-121.39791,52.05672],[-121.39821,52.05662],[-121.39857,52.05651],[-121.39899,52.05641],[-121.39942,52.05635],[-121.39984,52.05633],[-121.4002,52.05633],[-121.40071,52.05632],[-121.40112,52.05632],[-121.40159,52.05628],[-121.40195,52.05629],[-121.40236,52.0563],[-121.40278,52.05629],[-121.40316,52.05617],[-121.40355,52.05603],[-121.40386,52.05591],[-121.40467,52.05551],[-121.40502,52.05536],[-121.40534,52.05515],[-121.40558,52.05493],[-121.40579,52.05475],[-121.40598,52.05457],[-121.40627,52.0544],[-121.40662,52.0542],[-121.40693,52.05399],[-121.40728,52.05381],[-121.40758,52.05367],[-121.40779,52.0535],[-121.40794,52.05328],[-121.40792,52.05304],[-121.40783,52.05281],[-121.40759,52.05262],[-121.40726,52.05244],[-121.40679,52.05228],[-121.40632,52.05209],[-121.40593,52.0519],[-121.40557,52.05171],[-121.40513,52.05157],[-121.40467,52.05145],[-121.40418,52.05135],[-121.40367,52.05135],[-121.40317,52.05144],[-121.40268,52.05157],[-121.40223,52.05169],[-121.40177,52.0518],[-121.40132,52.05192],[-121.40089,52.05204],[-121.40048,52.05212],[-121.40005,52.05212],[-121.39966,52.0521],[-121.39928,52.05206],[-121.39896,52.05197],[-121.39873,52.05171],[-121.39863,52.05146],[-121.39851,52.05125],[-121.39828,52.05098],[-121.39811,52.05077],[-121.39781,52.05063],[-121.39744,52.05057],[-121.39711,52.05062],[-121.39675,52.05062],[-121.39639,52.05055],[-121.39599,52.05051],[-121.39553,52.05056],[-121.39515,52.05053],[-121.3947,52.05048],[-121.39439,52.05028],[-121.39446,52.05008],[-121.39463,52.04987],[-121.39478,52.04964],[-121.39494,52.04938],[-121.39517,52.04916],[-121.39546,52.04896],[-121.39575,52.04871],[-121.39601,52.04849],[-121.3962,52.04827],[-121.39624,52.04804],[-121.39621,52.04779],[-121.39616,52.04748],[-121.39611,52.04715],[-121.39621,52.04696],[-121.39636,52.04677],[-121.39658,52.04657],[-121.39684,52.04638],[-121.39717,52.04624],[-121.39753,52.0461],[-121.39793,52.04596],[-121.39836,52.0459],[-121.39875,52.04588],[-121.3991,52.0458],[-121.39944,52.04576],[-121.39977,52.04574],[-121.40024,52.04575],[-121.40069,52.04576],[-121.40177,52.04585],[-121.4022,52.0458],[-121.40266,52.0458],[-121.40309,52.04587],[-121.40351,52.04584],[-121.40393,52.04571],[-121.40435,52.04559],[-121.40479,52.04545],[-121.40523,52.0453],[-121.40567,52.04518],[-121.40601,52.04502],[-121.40634,52.04485],[-121.40667,52.04469],[-121.40691,52.04447],[-121.40715,52.04423],[-121.40741,52.044],[-121.40767,52.04379],[-121.40793,52.04358],[-121.40821,52.04338],[-121.40849,52.04319],[-121.4088,52.04301],[-121.40912,52.04282],[-121.40947,52.04263],[-121.40978,52.04247],[-121.41008,52.04233],[-121.4104,52.04216],[-121.41068,52.04198],[-121.41094,52.04182],[-121.41115,52.04164],[-121.41124,52.04149],[-121.41136,52.04123],[-121.41148,52.04108],[-121.41163,52.04096],[-121.41186,52.0409],[-121.41213,52.04091],[-121.41257,52.04103],[-121.41305,52.04108],[-121.41349,52.04107],[-121.41393,52.04109],[-121.41427,52.04101],[-121.41462,52.04093],[-121.41506,52.04083],[-121.41539,52.04078],[-121.41578,52.04075],[-121.41611,52.0407],[-121.41659,52.04077],[-121.41707,52.04084],[-121.41757,52.04083],[-121.41806,52.04081],[-121.41856,52.04082],[-121.41902,52.04077],[-121.41943,52.04071],[-121.4198,52.04071],[-121.42019,52.04077],[-121.42054,52.04087],[-121.4209,52.04101],[-121.42125,52.04112],[-121.42156,52.04123],[-121.42204,52.04125],[-121.42241,52.04122],[-121.42278,52.0412],[-121.42316,52.04111],[-121.42343,52.04101],[-121.42361,52.04083],[-121.42385,52.04061],[-121.42389,52.04056],[-121.424,52.04045],[-121.42405,52.04043],[-121.42442,52.04037],[-121.42449,52.04032],[-121.42453,52.04029],[-121.42464,52.04026],[-121.42476,52.0402],[-121.42482,52.04019],[-121.42495,52.0402],[-121.42509,52.04023],[-121.42516,52.04023],[-121.42532,52.04023],[-121.42549,52.04026],[-121.42556,52.04025],[-121.42567,52.04021],[-121.42572,52.04019],[-121.42576,52.04017],[-121.42598,52.04009],[-121.42603,52.04008],[-121.42613,52.04009],[-121.42619,52.0401],[-121.42629,52.04011],[-121.42633,52.04011],[-121.42643,52.04007],[-121.42654,52.04006],[-121.42659,52.04006],[-121.42671,52.04009],[-121.42678,52.0401],[-121.42686,52.04008],[-121.42692,52.04005],[-121.42694,52.04004],[-121.42701,52.03999],[-121.42704,52.03995],[-121.42712,52.03994],[-121.42717,52.03995],[-121.42725,52.03998],[-121.42738,52.04],[-121.42749,52.03999],[-121.42753,52.03998],[-121.42764,52.03995],[-121.42768,52.03992],[-121.4277,52.03987],[-121.4277,52.03986],[-121.42771,52.03981]]}},
{"type":"Feature","properties":{"spotId":"E-grouse-atv-0034","kind":"walk","km":0.58,"climbM":21,"name":"900 m W of Spout Lake","flags":[]},"geometry":{"type":"LineString","coordinates":[[-121.45873,52.01081],[-121.46517,52.00739]]}},
{"type":"Feature","properties":{"spotId":"E-grouse-atv-0034","kind":"ride","km":4.73,"climbM":41,"name":"900 m W of Spout Lake","flags":[]},"geometry":{"type":"LineString","coordinates":[[-121.46517,52.00739],[-121.46496,52.00744],[-121.46452,52.00749],[-121.46412,52.00754],[-121.46381,52.00763],[-121.46352,52.00774],[-121.46336,52.00795],[-121.46316,52.00816],[-121.46295,52.00836],[-121.46263,52.00849],[-121.46227,52.0085],[-121.46193,52.00844],[-121.46153,52.00834],[-121.46109,52.00828],[-121.46065,52.00826],[-121.4602,52.00824],[-121.45978,52.00827],[-121.45937,52.00835],[-121.45903,52.00844],[-121.45862,52.00856],[-121.45824,52.00869],[-121.45785,52.00881],[-121.45734,52.00893],[-121.45723,52.00908],[-121.45705,52.00922],[-121.4572,52.00932],[-121.45725,52.00935],[-121.4573,52.00939],[-121.45736,52.00943],[-121.45744,52.00947],[-121.45749,52.00951],[-121.45757,52.00956],[-121.45763,52.0096],[-121.45771,52.00964],[-121.4578,52.00967],[-121.45788,52.00969],[-121.45793,52.00972],[-121.45802,52.00973],[-121.45811,52.00973],[-121.45818,52.00973],[-121.45825,52.00971],[-121.45828,52.00966],[-121.45838,52.00972],[-121.45844,52.00975],[-121.45848,52.00979],[-121.45853,52.00985],[-121.45859,52.00988],[-121.45867,52.00991],[-121.45866,52.00997],[-121.45868,52.01001],[-121.45869,52.01007],[-121.45877,52.01007],[-121.45884,52.01009],[-121.45891,52.01013],[-121.45897,52.01016],[-121.45896,52.01021],[-121.4589,52.01025],[-121.45892,52.0103],[-121.45891,52.01035],[-121.45894,52.01039],[-121.45899,52.01043],[-121.45891,52.01044],[-121.45886,52.01047],[-121.45884,52.01051],[-121.45893,52.01052],[-121.45899,52.01055],[-121.45907,52.01056],[-121.45911,52.0106],[-121.45912,52.01065],[-121.45919,52.01065],[-121.45915,52.01069],[-121.45908,52.01072],[-121.45899,52.01075],[-121.45908,52.01076],[-121.45916,52.01078],[-121.45922,52.0108],[-121.45929,52.01083],[-121.45935,52.01086],[-121.45944,52.01086],[-121.45951,52.01087],[-121.45957,52.01091],[-121.45959,52.01095],[-121.45961,52.011],[-121.45958,52.01104],[-121.45962,52.0111],[-121.45969,52.01112],[-121.45976,52.01115],[-121.45977,52.01116],[-121.45982,52.0112],[-121.45981,52.01125],[-121.4598,52.0113],[-121.45977,52.01134],[-121.45982,52.01138],[-121.45985,52.01142],[-121.45987,52.01148],[-121.45988,52.01153],[-121.45995,52.01154],[-121.45997,52.01159],[-121.45994,52.01163],[-121.45988,52.01166],[-121.45984,52.0117],[-121.45983,52.01176],[-121.45977,52.01179],[-121.45976,52.01184],[-121.45975,52.0119],[-121.45972,52.01194],[-121.45967,52.01197],[-121.4597,52.01201],[-121.45973,52.01206],[-121.45973,52.0121],[-121.45974,52.01215],[-121.45967,52.01215],[-121.45966,52.0122],[-121.45962,52.01224],[-121.45962,52.01228],[-121.45961,52.01233],[-121.45957,52.01237],[-121.45951,52.01241],[-121.45947,52.01245],[-121.45938,52.01246],[-121.45933,52.0125],[-121.4593,52.01254],[-121.45926,52.01258],[-121.4592,52.01263],[-121.45925,52.01267],[-121.45925,52.01272],[-121.45923,52.01277],[-121.4592,52.01281],[-121.45918,52.01285],[-121.4592,52.01291],[-121.45921,52.01295],[-121.45921,52.013],[-121.45919,52.01304],[-121.45923,52.01309],[-121.45924,52.01313],[-121.45926,52.01319],[-121.45926,52.01324],[-121.45924,52.01329],[-121.45926,52.01333],[-121.45934,52.01336],[-121.45935,52.01342],[-121.45935,52.01348],[-121.45941,52.01352],[-121.4594,52.01358],[-121.45943,52.01363],[-121.45948,52.01367],[-121.45956,52.01369],[-121.45962,52.01373],[-121.45967,52.01377],[-121.45972,52.01381],[-121.45979,52.01384],[-121.45986,52.01387],[-121.45993,52.01389],[-121.45999,52.01392],[-121.46008,52.01394],[-121.46014,52.01397],[-121.46022,52.01398],[-121.46023,52.01403],[-121.46027,52.01407],[-121.46033,52.01411],[-121.46038,52.01413],[-121.46042,52.01418],[-121.46045,52.01422],[-121.4605,52.01425],[-121.46057,52.01428],[-121.46061,52.01432],[-121.46066,52.01436],[-121.4607,52.0144],[-121.46078,52.01441],[-121.46082,52.01445],[-121.46086,52.0145],[-121.46092,52.01452],[-121.461,52.01451],[-121.46106,52.01454],[-121.46113,52.01456],[-121.4612,52.01454],[-121.46128,52.01456],[-121.46136,52.01455],[-121.46137,52.0146],[-121.46139,52.01464],[-121.46147,52.01465],[-121.46154,52.01467],[-121.46161,52.01469],[-121.46169,52.01469],[-121.46172,52.01474],[-121.46173,52.01478],[-121.4617,52.01483],[-121.46165,52.01486],[-121.46161,52.0149],[-121.46159,52.01495],[-121.46157,52.01499],[-121.46156,52.01504],[-121.46156,52.01508],[-121.46157,52.01513],[-121.46162,52.01516],[-121.46167,52.0152],[-121.46173,52.01525],[-121.46177,52.01528],[-121.4618,52.01532],[-121.46184,52.01536],[-121.46187,52.0154],[-121.46189,52.01545],[-121.46194,52.0155],[-121.46191,52.01555],[-121.46192,52.0156],[-121.46195,52.01564],[-121.46193,52.01568],[-121.46197,52.01572],[-121.46197,52.01576],[-121.46193,52.01583],[-121.46197,52.01588],[-121.46196,52.01593],[-121.4619,52.01596],[-121.46192,52.01601],[-121.46199,52.01604],[-121.46203,52.01607],[-121.46205,52.0161],[-121.46211,52.01612],[-121.46218,52.01616],[-121.4622,52.0162],[-121.46221,52.01625],[-121.46225,52.0163],[-121.4623,52.01634],[-121.46237,52.01635],[-121.46241,52.01639],[-121.46242,52.01645],[-121.46249,52.01647],[-121.46249,52.01652],[-121.4625,52.01656],[-121.4625,52.01661],[-121.46252,52.01666],[-121.46252,52.0167],[-121.46254,52.01672],[-121.46256,52.01677],[-121.46256,52.01681],[-121.46256,52.01686],[-121.46259,52.01688],[-121.46259,52.01691],[-121.46259,52.01696],[-121.46258,52.017],[-121.46258,52.01705],[-121.46261,52.01709],[-121.46265,52.01714],[-121.46271,52.01719],[-121.46278,52.01722],[-121.46282,52.01726],[-121.46286,52.01732],[-121.46289,52.01737],[-121.46291,52.01742],[-121.46297,52.01745],[-121.46302,52.01749],[-121.46307,52.01753],[-121.4631,52.01758],[-121.46309,52.01762],[-121.4631,52.01767],[-121.46311,52.01772],[-121.46312,52.01776],[-121.46313,52.01781],[-121.46313,52.01785],[-121.46313,52.0179],[-121.46316,52.01798],[-121.46311,52.01802],[-121.46306,52.01806],[-121.46302,52.0181],[-121.46295,52.01812],[-121.46287,52.01812],[-121.4628,52.01813],[-121.46257,52.0182],[-121.46236,52.01835],[-121.46199,52.01848],[-121.4617,52.01861],[-121.46137,52.01875],[-121.46102,52.01899],[-121.46067,52.01915],[-121.46028,52.01936],[-121.46009,52.01957],[-121.45983,52.01979],[-121.45943,52.02003],[-121.45893,52.02022],[-121.45847,52.02041],[-121.458,52.02054],[-121.45766,52.02063],[-121.4573,52.02072],[-121.45683,52.02078],[-121.45644,52.02083],[-121.45606,52.0209],[-121.45575,52.02104],[-121.45541,52.02124],[-121.45506,52.02145],[-121.4547,52.02164],[-121.45434,52.02178],[-121.45399,52.02185],[-121.45365,52.02189],[-121.45319,52.02193],[-121.45277,52.02199],[-121.45235,52.02208],[-121.452,52.02221],[-121.45173,52.02234],[-121.45186,52.02258],[-121.45198,52.02284],[-121.45216,52.02311],[-121.45227,52.02338],[-121.45218,52.02371],[-121.45207,52.02407],[-121.45195,52.02434],[-121.45173,52.02451],[-121.45133,52.02469],[-121.4509,52.02487],[-121.45064,52.02504],[-121.45037,52.02523],[-121.45015,52.02539],[-121.44986,52.02553],[-121.44958,52.02566],[-121.44925,52.02583],[-121.4491,52.02591],[-121.44869,52.02601],[-121.44826,52.0261],[-121.4475,52.02618],[-121.44653,52.02623],[-121.44555,52.02632],[-121.44471,52.02642],[-121.44392,52.02656],[-121.44277,52.02681],[-121.44209,52.02697],[-121.44132,52.02706],[-121.44034,52.02714],[-121.43965,52.0272],[-121.4393,52.02722],[-121.43904,52.02729],[-121.43868,52.02746],[-121.43847,52.02755],[-121.43817,52.02772],[-121.43773,52.02805],[-121.43731,52.02837],[-121.43688,52.02867],[-121.43667,52.02885],[-121.43661,52.02899],[-121.43661,52.02907],[-121.43662,52.02922],[-121.43664,52.0293],[-121.43673,52.02954],[-121.43675,52.02962],[-121.43693,52.03005],[-121.437,52.03025],[-121.43701,52.03032],[-121.43707,52.03065],[-121.43707,52.03093],[-121.43707,52.031],[-121.43708,52.03114],[-121.43711,52.03128],[-121.43713,52.03135],[-121.43725,52.03159],[-121.43728,52.03163],[-121.43746,52.03176],[-121.43774,52.03204],[-121.4378,52.0321],[-121.43781,52.03211]]}},
{"type":"Feature","properties":{"spotId":"E-grouse-atv-0071","kind":"ride","km":3.99,"climbM":73,"name":"460 m E of Moffat Creek","flags":[]},"geometry":{"type":"LineString","coordinates":[[-121.2866,52.15134],[-121.28527,52.15135],[-121.28471,52.15119],[-121.28382,52.15105],[-121.28159,52.15084],[-121.27984,52.15066],[-121.27854,52.15054],[-121.27662,52.15039],[-121.27514,52.15039],[-121.27409,52.15038],[-121.27307,52.15038],[-121.27226,52.15038],[-121.27129,52.15041],[-121.27058,52.15039],[-121.26989,52.15034],[-121.26887,52.15022],[-121.26783,52.15007],[-121.26653,52.14987],[-121.26534,52.1497],[-121.26429,52.14954],[-121.26332,52.1494],[-121.26225,52.14924],[-121.26096,52.14912],[-121.25941,52.14903],[-121.25811,52.14894],[-121.2571,52.14887],[-121.25625,52.14884],[-121.25481,52.1489],[-121.25374,52.14925],[-121.25324,52.14931],[-121.25253,52.14925],[-121.2522,52.14924],[-121.25191,52.14917],[-121.25169,52.14898],[-121.25106,52.14849],[-121.24981,52.1482],[-121.24688,52.148],[-121.24504,52.14784],[-121.24456,52.1479],[-121.24395,52.1479],[-121.24308,52.14799],[-121.24243,52.1481],[-121.24168,52.14824],[-121.24131,52.14831],[-121.24105,52.14837],[-121.24089,52.14837],[-121.2406,52.14829],[-121.24047,52.14829],[-121.24017,52.14833],[-121.23995,52.14831],[-121.23981,52.14823],[-121.23951,52.14802],[-121.23905,52.1478],[-121.23869,52.1477],[-121.23856,52.14765],[-121.23829,52.14764],[-121.23798,52.14766],[-121.23772,52.14761],[-121.23719,52.14767],[-121.23656,52.14771],[-121.23624,52.14774],[-121.236,52.14772],[-121.23579,52.1477],[-121.2354,52.14772],[-121.23505,52.14769],[-121.23462,52.14762],[-121.23408,52.14749],[-121.23311,52.14715],[-121.23231,52.14688],[-121.23136,52.14659],[-121.23065,52.14655],[-121.23052,52.14655]]}},
{"type":"Feature","properties":{"spotId":"E-grouse-drive-0004","kind":"roadside","km":6.2,"climbM":65,"name":"850 m W of Eagle Creek","flags":["Route crosses private land (ParcelMap BC, updated 2026-09-22): get permission first or go around."]},"geometry":{"type":"LineString","coordinates":[[-121.4704,52.03358],[-121.47094,52.03358],[-121.47151,52.03364],[-121.47292,52.03389],[-121.47316,52.03388],[-121.4756,52.03351],[-121.47679,52.03318],[-121.47709,52.03316],[-121.4781,52.03316],[-121.47954,52.03313],[-121.4803,52.03302],[-121.48142,52.03295],[-121.482,52.03284],[-121.48323,52.03275],[-121.48413,52.03275],[-121.48526,52.03258],[-121.48742,52.0325],[-121.48814,52.0325],[-121.48841,52.0325],[-121.48844,52.03251],[-121.4891,52.03259],[-121.48945,52.03264],[-121.48971,52.03269],[-121.49035,52.03283],[-121.49107,52.03298],[-121.49111,52.03299],[-121.49284,52.03349],[-121.4935,52.03367],[-121.495,52.0341],[-121.49544,52.03418],[-121.49625,52.03419],[-121.49669,52.03428],[-121.49693,52.03436],[-121.49759,52.03458],[-121.49894,52.03488],[-121.49942,52.03501],[-121.49972,52.03504],[-121.49989,52.03505],[-121.50084,52.03506],[-121.50228,52.03504],[-121.5039,52.03492],[-121.5043,52.03492],[-121.50485,52.03502],[-121.5062,52.03543],[-121.50662,52.03551],[-121.50693,52.03553],[-121.50727,52.0355],[-121.50801,52.0353],[-121.50838,52.03526],[-121.50875,52.03526],[-121.50925,52.03529],[-121.51054,52.0356],[-121.51073,52.03563],[-121.51106,52.03567],[-121.51118,52.03569],[-121.51173,52.0357],[-121.5124,52.03569],[-121.51267,52.03575],[-121.51276,52.03579],[-121.51352,52.03615],[-121.51472,52.0366],[-121.51518,52.03677],[-121.51533,52.03683],[-121.51591,52.03705],[-121.51722,52.03753],[-121.51766,52.03768],[-121.51801,52.0378],[-121.51888,52.03804],[-121.52007,52.0383],[-121.5213,52.03852],[-121.52158,52.03859],[-121.52254,52.03896],[-121.52318,52.0393],[-121.52364,52.03971],[-121.52371,52.03977],[-121.52399,52.04009],[-121.52459,52.04076],[-121.52469,52.04094],[-121.52472,52.04188],[-121.52485,52.0421],[-121.52509,52.04232],[-121.52582,52.04286],[-121.52648,52.04375],[-121.52665,52.04419],[-121.52663,52.0452],[-121.52651,52.04578],[-121.52631,52.04604],[-121.52611,52.04619],[-121.52584,52.04623],[-121.52559,52.04622],[-121.52541,52.04626],[-121.52526,52.04635],[-121.52497,52.04682],[-121.52457,52.0473],[-121.52428,52.04759],[-121.5234,52.04824],[-121.52337,52.04826],[-121.52205,52.04931],[-121.52151,52.04983],[-121.52081,52.05074],[-121.52047,52.05112],[-121.52005,52.05153],[-121.51953,52.05195],[-121.51918,52.05218],[-121.51911,52.05223],[-121.51889,52.05235],[-121.51804,52.05281],[-121.51764,52.05309],[-121.51752,52.05324],[-121.51738,52.05341],[-121.51729,52.05368],[-121.51735,52.0539],[-121.51757,52.05414],[-121.51772,52.05452],[-121.51784,52.05471],[-121.51798,52.05481],[-121.51808,52.05489],[-121.51812,52.055],[-121.518,52.05532],[-121.51799,52.05555],[-121.51809,52.05631],[-121.51814,52.05668],[-121.51813,52.05673],[-121.51809,52.05701],[-121.51777,52.05776]]}},
{"type":"Feature","properties":{"spotId":"E-grouse-drive-0005","kind":"roadside","km":4.42,"climbM":27,"name":"1.3 km N of Walters Lake","flags":[]},"geometry":{"type":"LineString","coordinates":[[-121.41892,52.24125],[-121.41892,52.2413],[-121.4189,52.24139],[-121.41887,52.24157],[-121.41885,52.24165],[-121.4188,52.24172],[-121.41877,52.24181],[-121.41874,52.24193],[-121.41864,52.24212],[-121.41861,52.24222],[-121.41856,52.2424],[-121.41865,52.2426],[-121.41867,52.24265],[-121.41868,52.24275],[-121.41872,52.24294],[-121.41878,52.24315],[-121.41879,52.24324],[-121.41887,52.24345],[-121.41897,52.24364],[-121.41899,52.24374],[-121.41903,52.24394],[-121.41903,52.24405],[-121.41902,52.24425],[-121.41901,52.24447],[-121.41903,52.2445],[-121.41901,52.24453],[-121.41902,52.24456],[-121.41901,52.24459],[-121.41902,52.24461],[-121.419,52.24473],[-121.41899,52.24484],[-121.41894,52.24493],[-121.4188,52.24514],[-121.41875,52.2452],[-121.41871,52.24525],[-121.41839,52.24542],[-121.41812,52.24555],[-121.41785,52.24559],[-121.41752,52.24571],[-121.41744,52.24575],[-121.41725,52.24581],[-121.41691,52.24602],[-121.41686,52.24608],[-121.41682,52.2461],[-121.41666,52.24627],[-121.41666,52.24631],[-121.41666,52.24645],[-121.41665,52.24652],[-121.41673,52.24673],[-121.41684,52.24695],[-121.41687,52.24704],[-121.41691,52.24718],[-121.41696,52.2473],[-121.41703,52.2475],[-121.41703,52.24755],[-121.41712,52.24774],[-121.41722,52.24796],[-121.41726,52.24804],[-121.41737,52.24824],[-121.4175,52.2484],[-121.41769,52.24862],[-121.41774,52.24868],[-121.4178,52.24879],[-121.41793,52.24895],[-121.41807,52.24912],[-121.41814,52.24921],[-121.41822,52.24932],[-121.41827,52.24935],[-121.41839,52.24954],[-121.41859,52.24975],[-121.41882,52.2499],[-121.41903,52.25005],[-121.41929,52.25019],[-121.41957,52.25035],[-121.41968,52.25047],[-121.41988,52.25061],[-121.41998,52.25071],[-121.42006,52.25088],[-121.42026,52.25087],[-121.4206,52.25094],[-121.42076,52.25097],[-121.42091,52.25099],[-121.42101,52.251],[-121.42125,52.25108],[-121.42157,52.25114],[-121.42162,52.25115],[-121.42226,52.25125],[-121.42238,52.25125],[-121.42273,52.25127],[-121.42305,52.25128],[-121.42312,52.25128],[-121.42344,52.25126],[-121.42373,52.25113],[-121.42386,52.251],[-121.42399,52.25079],[-121.4241,52.25061],[-121.42429,52.25046],[-121.42456,52.25033],[-121.42487,52.25026],[-121.4252,52.25022],[-121.42524,52.2502],[-121.42534,52.25019],[-121.42568,52.25019],[-121.42593,52.2502],[-121.42612,52.25018],[-121.42645,52.25005],[-121.42666,52.24993],[-121.42675,52.24985],[-121.42705,52.24966],[-121.42714,52.24961],[-121.4274,52.24947],[-121.42758,52.24943],[-121.4279,52.24944],[-121.42795,52.24944],[-121.42823,52.24946],[-121.42824,52.24946],[-121.42842,52.24947],[-121.42852,52.24948],[-121.42869,52.24953],[-121.42878,52.24956],[-121.42901,52.24971],[-121.42909,52.24979],[-121.42921,52.24988],[-121.42925,52.24997],[-121.42934,52.25016],[-121.42936,52.25021],[-121.42933,52.25042],[-121.4293,52.25047],[-121.42922,52.25067],[-121.42919,52.25081],[-121.42909,52.25091],[-121.4289,52.25108],[-121.42875,52.25126],[-121.42858,52.25141],[-121.42833,52.25161],[-121.42811,52.2518],[-121.42802,52.25188],[-121.42778,52.2521],[-121.42763,52.25231],[-121.42758,52.25243],[-121.42746,52.25256],[-121.42735,52.25275],[-121.42734,52.25285],[-121.42733,52.25293],[-121.42733,52.25312],[-121.42737,52.25333],[-121.4274,52.25345],[-121.42746,52.25365],[-121.42747,52.2537],[-121.42757,52.2539],[-121.42767,52.25408],[-121.42771,52.25422],[-121.4277,52.25424],[-121.42774,52.25438],[-121.42787,52.25459],[-121.42802,52.25479],[-121.42804,52.25481],[-121.42812,52.25498],[-121.42821,52.25516],[-121.42826,52.25521],[-121.42835,52.25541],[-121.42852,52.25562],[-121.42862,52.25576],[-121.42882,52.25597],[-121.42899,52.25613],[-121.4292,52.25632],[-121.42938,52.2565],[-121.42948,52.2566],[-121.42962,52.25682],[-121.42962,52.25688],[-121.42965,52.25693],[-121.42967,52.25709],[-121.42965,52.25731],[-121.42965,52.25738],[-121.42963,52.25749],[-121.42963,52.25751],[-121.42962,52.25762],[-121.42962,52.2577],[-121.42962,52.25774],[-121.42962,52.2578],[-121.42963,52.25792],[-121.42968,52.25809],[-121.4297,52.25823],[-121.42976,52.25839],[-121.42978,52.25853],[-121.42982,52.25874],[-121.42985,52.25894],[-121.42989,52.25902],[-121.42995,52.25915],[-121.42999,52.25926],[-121.43007,52.25945],[-121.43011,52.25948],[-121.43022,52.2597],[-121.43025,52.25979],[-121.43034,52.26],[-121.43048,52.26018],[-121.43052,52.26028],[-121.43062,52.26044],[-121.43064,52.26045],[-121.43064,52.26046],[-121.43075,52.26057],[-121.4309,52.26075],[-121.43109,52.26095],[-121.43128,52.26115],[-121.43144,52.26122],[-121.43169,52.26126],[-121.43185,52.26127],[-121.43214,52.26129],[-121.43245,52.26129],[-121.43248,52.26129],[-121.43277,52.26129],[-121.43288,52.26129],[-121.43317,52.26126],[-121.43336,52.26123],[-121.4335,52.26117],[-121.43376,52.26107],[-121.43387,52.26102],[-121.43399,52.26093],[-121.43404,52.26086],[-121.43425,52.26068],[-121.43446,52.26052],[-121.43458,52.26044],[-121.43483,52.26034],[-121.43501,52.26027],[-121.43529,52.26019],[-121.43559,52.26011],[-121.43584,52.26002],[-121.43613,52.26],[-121.43647,52.26001],[-121.4368,52.26008],[-121.43708,52.26021],[-121.43713,52.26028],[-121.43714,52.26046],[-121.43725,52.26065],[-121.43749,52.26084],[-121.4376,52.26086],[-121.43763,52.26087],[-121.43793,52.26088],[-121.43827,52.26084],[-121.43854,52.26076],[-121.43886,52.26067],[-121.43894,52.26063],[-121.43917,52.26059],[-121.43945,52.26051],[-121.43969,52.26048],[-121.43985,52.2605],[-121.44017,52.26058],[-121.44033,52.26063],[-121.4405,52.26069],[-121.44076,52.26083],[-121.44104,52.26091],[-121.44136,52.26104],[-121.44141,52.26105],[-121.44167,52.26118],[-121.44193,52.26127],[-121.44224,52.2614],[-121.44251,52.26152],[-121.44284,52.26165],[-121.44305,52.26173],[-121.44323,52.26188],[-121.44335,52.26198],[-121.44346,52.26213],[-121.44348,52.26217],[-121.44353,52.26219],[-121.44361,52.26239],[-121.4436,52.26259],[-121.4436,52.26278],[-121.44366,52.26292]]}},
{"type":"Feature","properties":{"spotId":"E-grouse-drive-0009","kind":"roadside","km":4.87,"climbM":88,"name":"320 m NW of McIntosh Lakes","flags":[]},"geometry":{"type":"LineString","coordinates":[[-121.46587,52.16356],[-121.46552,52.16375],[-121.46509,52.16395],[-121.4649,52.164],[-121.46454,52.1641],[-121.46386,52.16423],[-121.46196,52.1646],[-121.46157,52.16465],[-121.46099,52.16472],[-121.4606,52.16474],[-121.46058,52.16473],[-121.46019,52.1647],[-121.45955,52.16457],[-121.45907,52.16445],[-121.45846,52.16438],[-121.45782,52.16437],[-121.45677,52.16458],[-121.45654,52.16466],[-121.45601,52.16479],[-121.45504,52.16492],[-121.4545,52.16502],[-121.45419,52.16506],[-121.45411,52.16508],[-121.45392,52.16518],[-121.45364,52.16529],[-121.45353,52.16534],[-121.45335,52.16545],[-121.45316,52.16552],[-121.45279,52.16567],[-121.45248,52.16579],[-121.45227,52.16586],[-121.45195,52.16595],[-121.45185,52.16597],[-121.45156,52.16604],[-121.45123,52.16611],[-121.45105,52.16613],[-121.45092,52.16614],[-121.4507,52.16613],[-121.45044,52.16607],[-121.45012,52.16598],[-121.45002,52.16597],[-121.44981,52.16592],[-121.44951,52.16583],[-121.44922,52.16576],[-121.44912,52.16573],[-121.4488,52.16558],[-121.4487,52.16555],[-121.44866,52.1655],[-121.44843,52.16542],[-121.44817,52.16526],[-121.44798,52.16517],[-121.44764,52.165],[-121.44755,52.16494],[-121.44724,52.16471],[-121.4472,52.16466],[-121.44694,52.16447],[-121.44647,52.16421],[-121.44628,52.16412],[-121.44576,52.16404],[-121.44506,52.16395],[-121.44491,52.16392],[-121.44483,52.16392],[-121.44449,52.16391],[-121.44427,52.1639],[-121.44391,52.16387],[-121.44363,52.16384],[-121.44337,52.16383],[-121.44326,52.16381],[-121.44316,52.16377],[-121.44299,52.16375],[-121.44278,52.16375],[-121.44225,52.16369],[-121.44211,52.16366],[-121.44132,52.16365],[-121.44048,52.1636],[-121.43997,52.16362],[-121.43951,52.16365],[-121.43846,52.1637],[-121.43822,52.16372],[-121.43797,52.16374],[-121.43794,52.16375],[-121.43621,52.16384],[-121.43308,52.16411],[-121.43207,52.16416],[-121.43108,52.16428],[-121.42999,52.16446],[-121.42923,52.16447],[-121.42867,52.16438],[-121.42806,52.16421],[-121.42714,52.16381],[-121.42664,52.16367],[-121.42553,52.16347],[-121.425,52.16345],[-121.42346,52.16349],[-121.42186,52.16331],[-121.42138,52.16329],[-121.42088,52.16332],[-121.41947,52.16368],[-121.41837,52.16402],[-121.41709,52.16427],[-121.41674,52.1643],[-121.4157,52.16428],[-121.41521,52.16422],[-121.41425,52.16425],[-121.41339,52.16433],[-121.41261,52.16448],[-121.41175,52.16465],[-121.41115,52.16472],[-121.40846,52.16485],[-121.40708,52.16496],[-121.40664,52.16496],[-121.4062,52.16492],[-121.40503,52.16466],[-121.40405,52.16458],[-121.40321,52.16442],[-121.40186,52.16404],[-121.40098,52.16352],[-121.40041,52.16325],[-121.4002,52.1631],[-121.3999,52.16283],[-121.39957,52.16242]]}},
{"type":"Feature","properties":{"spotId":"E-grouse-drive-0031","kind":"roadside","km":4.87,"climbM":15,"name":"720 m SW of Moffat Creek","flags":[]},"geometry":{"type":"LineString","coordinates":[[-121.27466,52.13622],[-121.27513,52.13628],[-121.27545,52.13637],[-121.27586,52.1366],[-121.27693,52.13746],[-121.27745,52.13775],[-121.27839,52.13814],[-121.2787,52.13837],[-121.27885,52.13872],[-121.27888,52.13903],[-121.27888,52.1395],[-121.2787,52.13996],[-121.27884,52.14042],[-121.27929,52.14097],[-121.27948,52.14159],[-121.27975,52.14202],[-121.28011,52.14239],[-121.28047,52.14267],[-121.28067,52.14276],[-121.28089,52.14294],[-121.28134,52.14315],[-121.28243,52.14328],[-121.28351,52.14372],[-121.28401,52.14387],[-121.28506,52.14402],[-121.28593,52.14411],[-121.28677,52.14414],[-121.28754,52.14411],[-121.28855,52.14411],[-121.28921,52.14403],[-121.29022,52.14402],[-121.29149,52.14419],[-121.29188,52.14431],[-121.29268,52.14466],[-121.29271,52.14471],[-121.29279,52.14473],[-121.29342,52.14516],[-121.29421,52.14557],[-121.29469,52.1457],[-121.29549,52.14584],[-121.29698,52.14576],[-121.29775,52.14577],[-121.29839,52.1459],[-121.29891,52.1461],[-121.29952,52.14627],[-121.3,52.14635],[-121.30174,52.14632],[-121.30282,52.14625],[-121.30341,52.14626],[-121.30638,52.14644],[-121.30781,52.14654],[-121.31047,52.14679],[-121.31327,52.147],[-121.31397,52.14708],[-121.31471,52.14718],[-121.31535,52.14733],[-121.31603,52.14744],[-121.3166,52.14747],[-121.31738,52.14747],[-121.31821,52.1475],[-121.32025,52.14773],[-121.32236,52.14789],[-121.32449,52.14803],[-121.32615,52.14815],[-121.32695,52.14824],[-121.32792,52.14847],[-121.3282,52.14856],[-121.32892,52.14872],[-121.33052,52.14924],[-121.33097,52.14941],[-121.33179,52.14966],[-121.33234,52.14978],[-121.33325,52.1499],[-121.33425,52.14995],[-121.33456,52.15001],[-121.33511,52.15019],[-121.33562,52.15048],[-121.33574,52.15057]]}},
{"type":"Feature","properties":{"spotId":"E-grouse-drive-0034","kind":"roadside","km":5.63,"climbM":49,"name":"520 m NW of Moffat Creek","flags":[]},"geometry":{"type":"LineString","coordinates":[[-121.49096,52.24605],[-121.49134,52.24607],[-121.49188,52.24618],[-121.49286,52.24644],[-121.4932,52.24654],[-121.49363,52.24673],[-121.49659,52.2487],[-121.49743,52.24925],[-121.49806,52.24951],[-121.49868,52.24969],[-121.49914,52.24975],[-121.49962,52.24971],[-121.49965,52.24971],[-121.50083,52.24934],[-121.50122,52.24923],[-121.5018,52.24891],[-121.50253,52.24853],[-121.50284,52.24841],[-121.50306,52.24836],[-121.50327,52.24832],[-121.50356,52.24833],[-121.50366,52.24834],[-121.50395,52.24841],[-121.50423,52.24857],[-121.50496,52.24922],[-121.50677,52.25019],[-121.50751,52.25077],[-121.50867,52.25168],[-121.50993,52.25267],[-121.5105,52.25344],[-121.51067,52.25378],[-121.51083,52.25402],[-121.51098,52.25423],[-121.51105,52.2543],[-121.51133,52.25458],[-121.51175,52.25491],[-121.51291,52.2555],[-121.51359,52.25585],[-121.51446,52.2564],[-121.51484,52.25664],[-121.51512,52.25691],[-121.51529,52.2573],[-121.51571,52.25928],[-121.51585,52.25995],[-121.51625,52.26186],[-121.51652,52.26314],[-121.51662,52.26362],[-121.51676,52.26429],[-121.517,52.26479],[-121.51702,52.26481],[-121.51776,52.26573],[-121.51829,52.26639],[-121.51844,52.26657],[-121.51871,52.2669],[-121.51906,52.26745],[-121.51925,52.26804],[-121.51943,52.26829],[-121.51975,52.26853],[-121.51999,52.26864],[-121.52073,52.269],[-121.52125,52.26933],[-121.52138,52.26948],[-121.52187,52.27005],[-121.52202,52.27022],[-121.52214,52.27046],[-121.52215,52.27065],[-121.52215,52.27069],[-121.52207,52.27083],[-121.52203,52.27092],[-121.52155,52.27135],[-121.52151,52.27139],[-121.52118,52.27187],[-121.52095,52.2722],[-121.52076,52.27261],[-121.52077,52.27304],[-121.52084,52.2748],[-121.52085,52.27516],[-121.52072,52.27551],[-121.52011,52.27634],[-121.52009,52.27661],[-121.52015,52.27681],[-121.52029,52.27695],[-121.52079,52.27719],[-121.52289,52.27819],[-121.52356,52.27844],[-121.52398,52.27852],[-121.52403,52.27853],[-121.52432,52.27852],[-121.52441,52.27852],[-121.52477,52.27844],[-121.52509,52.27837],[-121.52522,52.27833],[-121.52583,52.27816],[-121.52617,52.27813],[-121.52749,52.27822],[-121.52864,52.2783],[-121.52985,52.27829],[-121.53012,52.27827],[-121.53152,52.27816],[-121.53225,52.27815],[-121.53266,52.2782],[-121.53284,52.27823]]}},
{"type":"Feature","properties":{"spotId":"E-grouse-drive-0054","kind":"roadside","km":4.44,"climbM":34,"name":"2.1 km NE of Spout Lake","flags":[]},"geometry":{"type":"LineString","coordinates":[[-121.32439,52.00718],[-121.32413,52.00716],[-121.3238,52.00713],[-121.32326,52.00714],[-121.32304,52.00716],[-121.32279,52.00715],[-121.32253,52.00716],[-121.32224,52.00718],[-121.3221,52.00719],[-121.32174,52.00718],[-121.32145,52.00717],[-121.32119,52.0072],[-121.32075,52.00725],[-121.32044,52.0073],[-121.31993,52.0074],[-121.31965,52.00742],[-121.3193,52.0074],[-121.31917,52.0074],[-121.31882,52.00741],[-121.3187,52.00741],[-121.31835,52.00743],[-121.31798,52.00748],[-121.31772,52.00751],[-121.31763,52.00752],[-121.3173,52.00751],[-121.31723,52.0075],[-121.31689,52.00748],[-121.31679,52.00746],[-121.3166,52.00743],[-121.31624,52.00728],[-121.31591,52.00717],[-121.3158,52.00716],[-121.31546,52.00709],[-121.31533,52.00708],[-121.31503,52.00703],[-121.31467,52.00697],[-121.31454,52.00693],[-121.31432,52.00689],[-121.31415,52.00682],[-121.31389,52.00677],[-121.31355,52.00673],[-121.31339,52.00672],[-121.31287,52.00672],[-121.31264,52.00674],[-121.31249,52.00676],[-121.31222,52.00683],[-121.31187,52.00694],[-121.3115,52.00704],[-121.31133,52.00708],[-121.31112,52.00716],[-121.31097,52.00719],[-121.31059,52.00723],[-121.31027,52.00727],[-121.3099,52.00733],[-121.30955,52.00738],[-121.30922,52.00729],[-121.309,52.00722],[-121.3089,52.00717],[-121.30868,52.00694],[-121.30857,52.00689],[-121.30826,52.0068],[-121.30793,52.00671],[-121.30767,52.00661],[-121.3074,52.00655],[-121.30711,52.00649],[-121.30702,52.00647],[-121.30675,52.00643],[-121.30652,52.00637],[-121.30647,52.00636],[-121.30628,52.00632],[-121.30601,52.00629],[-121.30592,52.00628],[-121.30556,52.00626],[-121.30547,52.00626],[-121.30514,52.00622],[-121.30496,52.0062],[-121.3046,52.00618],[-121.30428,52.00617],[-121.30395,52.00617],[-121.30359,52.00623],[-121.30334,52.00624],[-121.30308,52.00618],[-121.30294,52.00614],[-121.30261,52.00607],[-121.30245,52.00604],[-121.3021,52.006],[-121.30201,52.00599],[-121.30174,52.00599],[-121.30164,52.00599],[-121.30133,52.00599],[-121.30108,52.006],[-121.30083,52.006],[-121.30073,52.006],[-121.30047,52.00601],[-121.30043,52.00601],[-121.30013,52.00601],[-121.30003,52.00601],[-121.29999,52.00602],[-121.29971,52.00607],[-121.29936,52.00614],[-121.29925,52.00615],[-121.29901,52.00618],[-121.29869,52.00617],[-121.2985,52.00616],[-121.29815,52.00613],[-121.29789,52.00613],[-121.29757,52.00612],[-121.29735,52.00612],[-121.297,52.00612],[-121.29692,52.00612],[-121.29675,52.00611],[-121.2964,52.00611],[-121.29608,52.00614],[-121.29595,52.00616],[-121.29568,52.00622],[-121.29556,52.00625],[-121.29543,52.00629],[-121.29536,52.00632],[-121.2952,52.00637],[-121.2949,52.00643],[-121.29487,52.00644],[-121.29477,52.00646],[-121.2945,52.00653],[-121.2943,52.00657],[-121.2942,52.00658],[-121.29387,52.00663],[-121.29358,52.00667],[-121.2933,52.00673],[-121.29299,52.00679],[-121.29291,52.00681],[-121.29255,52.00689],[-121.29246,52.00691],[-121.29211,52.007],[-121.29199,52.00705],[-121.29176,52.00712],[-121.29158,52.00716],[-121.29129,52.0072],[-121.29108,52.00723],[-121.29072,52.00726],[-121.29043,52.00728],[-121.29018,52.00726],[-121.28988,52.00718],[-121.28954,52.00713],[-121.28935,52.00709],[-121.28911,52.00706],[-121.28874,52.00705],[-121.28861,52.00705],[-121.28832,52.00705],[-121.28823,52.00704],[-121.28794,52.00704],[-121.28778,52.00704],[-121.28751,52.00701],[-121.28738,52.00699],[-121.28721,52.00689],[-121.28715,52.00683],[-121.28705,52.00667],[-121.28699,52.0065],[-121.28692,52.00631],[-121.28688,52.00621],[-121.28674,52.006],[-121.2866,52.00587],[-121.28646,52.00577],[-121.28615,52.00561],[-121.28609,52.00558],[-121.28579,52.00545],[-121.28567,52.00539],[-121.28553,52.00533],[-121.28535,52.00523],[-121.28529,52.0052],[-121.28514,52.00516],[-121.28494,52.00506],[-121.28469,52.00492],[-121.28456,52.00485],[-121.2844,52.00473],[-121.28416,52.00461],[-121.28407,52.0044],[-121.28388,52.00419],[-121.28381,52.00413],[-121.28366,52.00407],[-121.28331,52.00402],[-121.28298,52.00397],[-121.28263,52.00391],[-121.28253,52.0039],[-121.28227,52.00385],[-121.28202,52.00377],[-121.28189,52.00371],[-121.28155,52.00359],[-121.28146,52.00356],[-121.28113,52.00345],[-121.28096,52.0034],[-121.28067,52.00334],[-121.28031,52.00325],[-121.28011,52.00315],[-121.28001,52.00312],[-121.27993,52.0031],[-121.2797,52.00303],[-121.27943,52.00296],[-121.2792,52.00287],[-121.27897,52.00283],[-121.27861,52.00271],[-121.27826,52.00259],[-121.27805,52.00252],[-121.27782,52.00237],[-121.27779,52.00235],[-121.27776,52.00231],[-121.27767,52.00212],[-121.27765,52.00196],[-121.27762,52.0018],[-121.27757,52.00159],[-121.27755,52.00153],[-121.2775,52.00139],[-121.27748,52.00132],[-121.27745,52.00116],[-121.27742,52.00092],[-121.27743,52.00087],[-121.27746,52.00069],[-121.27748,52.00062],[-121.27749,52.0004],[-121.27749,52.00031],[-121.27744,52.00016],[-121.2774,52.0],[-121.27738,51.99983],[-121.27737,51.99971],[-121.27735,51.99958],[-121.27731,51.99926],[-121.2773,51.99895],[-121.27736,51.99884],[-121.27745,51.99872],[-121.27757,51.99859],[-121.27771,51.99847],[-121.27789,51.99836],[-121.27808,51.99826],[-121.27823,51.99815],[-121.27834,51.99803],[-121.27834,51.99791],[-121.27826,51.9978],[-121.27797,51.99761],[-121.2777,51.99749],[-121.27741,51.99739],[-121.27721,51.99733],[-121.27703,51.99727],[-121.27665,51.99712],[-121.27654,51.99708],[-121.27632,51.99703],[-121.27609,51.997],[-121.27594,51.99699],[-121.27582,51.99695],[-121.27543,51.9968],[-121.27527,51.99673],[-121.27513,51.99666],[-121.27487,51.99654],[-121.27454,51.99644],[-121.27419,51.99627],[-121.27382,51.99612],[-121.27361,51.99603]]}},
{"type":"Feature","properties":{"spotId":"E-grouse-walk-0004","kind":"roadside","km":6.96,"climbM":65,"name":"660 m SE of Eagle Creek","flags":[]},"geometry":{"type":"LineString","coordinates":[[-121.45165,52.02237],[-121.45168,52.02241],[-121.45173,52.0225],[-121.45177,52.02259],[-121.45181,52.02268],[-121.45186,52.02278],[-121.45195,52.02288],[-121.45204,52.02296],[-121.4521,52.02304],[-121.45217,52.02313],[-121.45221,52.02323],[-121.4522,52.02333],[-121.45215,52.02342],[-121.45217,52.02352],[-121.45216,52.02361],[-121.45213,52.02371],[-121.45211,52.0238],[-121.45208,52.02389],[-121.45206,52.02398],[-121.45204,52.02408],[-121.45202,52.02419],[-121.45198,52.02431],[-121.45189,52.02441],[-121.45187,52.02442],[-121.45172,52.02448],[-121.45159,52.02454],[-121.4514,52.02461],[-121.45126,52.02467],[-121.4511,52.02474],[-121.45094,52.02483],[-121.45082,52.02489],[-121.45066,52.02497],[-121.45052,52.02505],[-121.45039,52.02514],[-121.45027,52.02522],[-121.45012,52.02532],[-121.44998,52.02541],[-121.44985,52.02548],[-121.44973,52.02554],[-121.44957,52.02563],[-121.44942,52.02571],[-121.4493,52.02577],[-121.44911,52.02585],[-121.44898,52.02592],[-121.44884,52.02598],[-121.44872,52.02604],[-121.44779,52.02615],[-121.44725,52.0262],[-121.44698,52.02621],[-121.44682,52.02623],[-121.44672,52.02624],[-121.44643,52.02626],[-121.44612,52.02626],[-121.44583,52.02629],[-121.44558,52.02633],[-121.44508,52.02639],[-121.44479,52.02642],[-121.44453,52.02645],[-121.44426,52.02649],[-121.44391,52.02657],[-121.44363,52.02661],[-121.44315,52.0267],[-121.44284,52.02678],[-121.44229,52.02693],[-121.44183,52.02702],[-121.44134,52.02708],[-121.4403,52.02715],[-121.43934,52.02723],[-121.43894,52.02728],[-121.43884,52.02735],[-121.43847,52.02753],[-121.4381,52.02772],[-121.43793,52.02785],[-121.43781,52.02796],[-121.43765,52.02806],[-121.43751,52.02817],[-121.43735,52.02828],[-121.43686,52.02863],[-121.43665,52.02882],[-121.43658,52.02897],[-121.43658,52.02912],[-121.4366,52.02927],[-121.43672,52.02957],[-121.4368,52.02974],[-121.43699,52.03022],[-121.43704,52.03039],[-121.43705,52.03056],[-121.43703,52.0307],[-121.43704,52.03088],[-121.43703,52.03104],[-121.43706,52.03121],[-121.43707,52.03124],[-121.43717,52.0314],[-121.43731,52.03155],[-121.43739,52.0317],[-121.43764,52.03196],[-121.4378,52.03211],[-121.43771,52.03223],[-121.4375,52.0324],[-121.43726,52.03254],[-121.43692,52.0325],[-121.43656,52.03253],[-121.4364,52.03272],[-121.43656,52.03291],[-121.43671,52.03311],[-121.43659,52.03332],[-121.43645,52.03354],[-121.43625,52.03371],[-121.43622,52.03394],[-121.43635,52.03415],[-121.4363,52.03435],[-121.43619,52.03459],[-121.43601,52.03479],[-121.43587,52.03502],[-121.43605,52.0352],[-121.43607,52.03543],[-121.43587,52.03565],[-121.43575,52.03585],[-121.43574,52.0361],[-121.43587,52.03632],[-121.43586,52.03653],[-121.43594,52.03673],[-121.43601,52.03693],[-121.43607,52.03713],[-121.43599,52.03736],[-121.43593,52.03756],[-121.43585,52.03779],[-121.4358,52.03802],[-121.43587,52.03828],[-121.4357,52.03849],[-121.43555,52.03869],[-121.43544,52.03892],[-121.43524,52.03916],[-121.43495,52.03928],[-121.43468,52.0394],[-121.43458,52.03964],[-121.43447,52.03986],[-121.4342,52.03985],[-121.43412,52.03989],[-121.43402,52.03991],[-121.43392,52.03994],[-121.43382,52.03993],[-121.4337,52.03989],[-121.43353,52.03991],[-121.43344,52.03994],[-121.43334,52.03992],[-121.43319,52.03991],[-121.433,52.03988],[-121.43279,52.03985],[-121.43257,52.03982],[-121.43235,52.03976],[-121.4321,52.03973],[-121.43185,52.03972],[-121.4316,52.03973],[-121.43136,52.03972],[-121.43111,52.0397],[-121.43092,52.03969],[-121.43063,52.03967],[-121.43041,52.03964],[-121.43026,52.03958],[-121.43011,52.03949],[-121.42997,52.03937],[-121.42976,52.03923],[-121.42962,52.03919],[-121.42948,52.03923],[-121.4293,52.03931],[-121.42916,52.03938],[-121.42895,52.03943],[-121.4287,52.03941],[-121.42844,52.03942],[-121.42824,52.03955],[-121.42813,52.03964],[-121.4279,52.03975],[-121.42779,52.03979],[-121.42775,52.03991],[-121.42766,52.03999],[-121.42748,52.04001],[-121.42733,52.03995],[-121.42718,52.03998],[-121.42708,52.04005],[-121.42691,52.0401],[-121.42672,52.04011],[-121.4266,52.0401],[-121.4264,52.04015],[-121.42618,52.04014],[-121.42602,52.04013],[-121.42585,52.04017],[-121.42568,52.04025],[-121.42542,52.04031],[-121.4252,52.04034],[-121.42501,52.04036],[-121.42482,52.04035],[-121.42467,52.04033],[-121.42453,52.04037],[-121.42436,52.0404],[-121.42399,52.04037],[-121.42377,52.04064],[-121.42362,52.04078],[-121.42347,52.04091],[-121.42326,52.04102],[-121.42306,52.04111],[-121.42268,52.04123],[-121.42259,52.04124],[-121.42243,52.04123],[-121.42227,52.04126],[-121.42213,52.04128],[-121.42191,52.04128],[-121.42182,52.04128],[-121.42165,52.04124],[-121.42146,52.0412],[-121.42131,52.04117],[-121.42113,52.0411],[-121.42098,52.04104],[-121.42082,52.04098],[-121.42069,52.04093],[-121.42053,52.04089],[-121.42038,52.04084],[-121.42023,52.0408],[-121.42004,52.04074],[-121.4199,52.04071],[-121.41974,52.04069],[-121.41954,52.04069],[-121.41937,52.04071],[-121.4192,52.04074],[-121.41898,52.04078],[-121.41882,52.04081],[-121.41866,52.04082],[-121.41845,52.04088],[-121.41817,52.04086],[-121.41791,52.04086],[-121.41774,52.04086],[-121.4175,52.04087],[-121.41731,52.04085],[-121.41715,52.04084],[-121.41698,52.04081],[-121.41683,52.0408],[-121.41666,52.04076],[-121.41652,52.04074],[-121.41636,52.04072],[-121.41618,52.04072],[-121.41601,52.0407],[-121.41585,52.04069],[-121.4158,52.0407],[-121.41566,52.04075],[-121.41536,52.04082],[-121.41511,52.04087],[-121.41492,52.0409],[-121.41469,52.04093],[-121.41445,52.04098],[-121.41423,52.04103],[-121.41406,52.04104],[-121.41385,52.04107],[-121.41365,52.04109],[-121.41341,52.04112],[-121.41315,52.04115],[-121.41293,52.04113],[-121.41271,52.04111],[-121.41251,52.04102],[-121.41231,52.04098],[-121.41216,52.04094],[-121.412,52.04093],[-121.41181,52.0409],[-121.41165,52.0409],[-121.41158,52.04092],[-121.41155,52.04094],[-121.41143,52.04107],[-121.41137,52.04117],[-121.41136,52.04126],[-121.41136,52.04136],[-121.41133,52.04142],[-121.41131,52.04145],[-121.41122,52.04157],[-121.4111,52.04167],[-121.41098,52.04177],[-121.41085,52.04187],[-121.41073,52.04196],[-121.41056,52.04205],[-121.41044,52.04212],[-121.4103,52.0422],[-121.41015,52.04228],[-121.41001,52.04234],[-121.40986,52.04243],[-121.40975,52.04249],[-121.40961,52.04257],[-121.40946,52.04265],[-121.4093,52.04274],[-121.40917,52.04282],[-121.40903,52.04289],[-121.40888,52.04298],[-121.40875,52.04306],[-121.40864,52.04313],[-121.40848,52.04323],[-121.4083,52.04336],[-121.40818,52.04344],[-121.40806,52.04353],[-121.40793,52.04362],[-121.40785,52.04369],[-121.40772,52.04378],[-121.40761,52.04385],[-121.40749,52.04393],[-121.4074,52.04398],[-121.40725,52.04407],[-121.40713,52.04417],[-121.40701,52.04427],[-121.4069,52.04434],[-121.40679,52.04442],[-121.4067,52.04449],[-121.40659,52.04459],[-121.40649,52.04468],[-121.40637,52.04477],[-121.40628,52.04485],[-121.40622,52.04488],[-121.40617,52.04492],[-121.406,52.04502],[-121.40586,52.04508],[-121.40573,52.04514],[-121.40554,52.04521],[-121.4053,52.04527],[-121.40502,52.04533],[-121.40489,52.04538],[-121.40474,52.04543],[-121.40451,52.04552],[-121.40439,52.04557],[-121.40424,52.0456],[-121.40406,52.04564],[-121.40389,52.04569],[-121.40368,52.04573],[-121.40352,52.04578],[-121.40333,52.04583],[-121.40312,52.04585],[-121.40298,52.04584],[-121.4028,52.04584],[-121.4026,52.04584],[-121.40241,52.04584],[-121.40229,52.04585],[-121.40223,52.04584],[-121.40206,52.04583],[-121.40187,52.04583],[-121.40171,52.04583],[-121.40152,52.04583],[-121.40142,52.04582],[-121.40126,52.04582],[-121.40107,52.04581],[-121.40088,52.0458],[-121.40065,52.04575],[-121.40044,52.04573],[-121.40025,52.04573],[-121.40008,52.04573],[-121.40001,52.04573],[-121.39989,52.04573],[-121.3997,52.04574],[-121.39955,52.04575],[-121.39947,52.04575],[-121.39936,52.04578],[-121.39922,52.04579],[-121.39908,52.04582],[-121.39894,52.04584],[-121.39879,52.04586],[-121.3986,52.04588],[-121.39841,52.04589],[-121.39819,52.04591],[-121.39801,52.04597],[-121.39788,52.04601],[-121.39772,52.04607],[-121.39753,52.04613],[-121.39739,52.04617],[-121.39723,52.04624],[-121.3971,52.04628],[-121.39694,52.04636],[-121.39679,52.04643],[-121.39662,52.04653],[-121.39653,52.04661],[-121.3964,52.04672],[-121.39629,52.04682],[-121.39617,52.04696],[-121.39614,52.04705],[-121.39613,52.04718],[-121.39614,52.0473],[-121.39617,52.04741],[-121.39618,52.04747],[-121.39619,52.04754],[-121.3962,52.04764],[-121.39622,52.04776],[-121.39623,52.04786],[-121.39627,52.04796],[-121.39628,52.04806],[-121.39626,52.04817],[-121.39623,52.04826],[-121.39614,52.04837],[-121.39603,52.04848],[-121.39594,52.04857],[-121.3958,52.0487],[-121.3957,52.04879],[-121.39559,52.04887],[-121.39544,52.04896],[-121.39532,52.04902],[-121.39522,52.0491],[-121.39519,52.04912],[-121.39513,52.04918],[-121.39507,52.04923],[-121.39502,52.04933],[-121.39496,52.04941],[-121.39493,52.04951],[-121.39491,52.04961],[-121.39488,52.04971],[-121.39483,52.04982],[-121.3948,52.04986],[-121.39477,52.04992],[-121.39469,52.05],[-121.39463,52.05008],[-121.39454,52.05019],[-121.39452,52.05028],[-121.39452,52.05032],[-121.39453,52.05035],[-121.39469,52.05041],[-121.39481,52.05046],[-121.39496,52.0505],[-121.39518,52.05055],[-121.39534,52.05058],[-121.3954,52.05059],[-121.39559,52.05059],[-121.39576,52.05059],[-121.39593,52.05057],[-121.39613,52.05055],[-121.39638,52.05053],[-121.39647,52.05056],[-121.39664,52.05057],[-121.39687,52.05059],[-121.39715,52.0506],[-121.39738,52.05062],[-121.3976,52.05064],[-121.39776,52.05064],[-121.39785,52.05069],[-121.3979,52.05071],[-121.39805,52.05079],[-121.39819,52.05087],[-121.3983,52.05096],[-121.39839,52.05104],[-121.39847,52.05113],[-121.39854,52.05123],[-121.39861,52.05133],[-121.39867,52.05143],[-121.39871,52.05152],[-121.39875,52.05161],[-121.39879,52.05173],[-121.39884,52.05183],[-121.39892,52.05194],[-121.39902,52.05202],[-121.39911,52.05206],[-121.39928,52.0521],[-121.39944,52.05214],[-121.39959,52.05216],[-121.39976,52.05219],[-121.39982,52.05219],[-121.4,52.05214],[-121.40004,52.05215],[-121.40022,52.05212],[-121.40039,52.05212],[-121.40057,52.0521],[-121.40075,52.05208],[-121.40092,52.05205],[-121.40109,52.05203],[-121.40125,52.05201],[-121.4014,52.05196],[-121.40156,52.0519],[-121.40177,52.05184],[-121.4019,52.0518],[-121.40208,52.05174],[-121.40218,52.05171]]}},
{"type":"Feature","properties":{"spotId":"E-grouse-walk-0020","kind":"roadside","km":4.6,"climbM":93,"name":"200 m NW of Two Mile Creek","flags":[]},"geometry":{"type":"LineString","coordinates":[[-121.39082,52.07043],[-121.39081,52.07061],[-121.39081,52.07073],[-121.39077,52.07095],[-121.39075,52.07108],[-121.39076,52.07127],[-121.39075,52.07148],[-121.39079,52.07166],[-121.39084,52.07177],[-121.391,52.07197],[-121.39124,52.07219],[-121.39129,52.07225],[-121.39158,52.07245],[-121.3917,52.07262],[-121.39182,52.07281],[-121.39193,52.07299],[-121.39196,52.07306],[-121.3921,52.07326],[-121.39211,52.07347],[-121.3921,52.07366],[-121.39206,52.07383],[-121.39205,52.07389],[-121.39204,52.07409],[-121.39212,52.07428],[-121.39222,52.07447],[-121.39224,52.07454],[-121.39231,52.07474],[-121.3923,52.07496],[-121.39219,52.07515],[-121.39214,52.07528],[-121.39205,52.07538],[-121.39185,52.07555],[-121.39166,52.07574],[-121.39154,52.07587],[-121.39142,52.07603],[-121.39139,52.07607],[-121.3913,52.07618],[-121.39118,52.07636],[-121.39115,52.07643],[-121.39112,52.07665],[-121.39116,52.07677],[-121.39119,52.07684],[-121.39122,52.0769],[-121.39136,52.07708],[-121.39141,52.07714],[-121.39165,52.07733],[-121.39189,52.07753],[-121.39224,52.07776],[-121.39245,52.07794],[-121.3927,52.07815],[-121.39293,52.07838],[-121.39304,52.07849],[-121.3933,52.0787],[-121.39337,52.07876],[-121.39356,52.07897],[-121.39372,52.07912],[-121.39378,52.07916],[-121.39383,52.07921],[-121.39387,52.07932],[-121.39387,52.0795],[-121.39388,52.07967],[-121.39393,52.07978],[-121.39396,52.0798],[-121.39403,52.07987],[-121.39416,52.07994],[-121.39419,52.07995],[-121.39437,52.08003],[-121.39469,52.08009],[-121.39497,52.08015],[-121.39526,52.08022],[-121.39536,52.08024],[-121.39566,52.08035],[-121.39597,52.0804],[-121.39625,52.08045],[-121.39634,52.08047],[-121.39662,52.08058],[-121.39664,52.08059],[-121.39699,52.08072],[-121.39712,52.08076],[-121.39728,52.08079],[-121.39741,52.08081],[-121.39745,52.08082],[-121.39761,52.08083],[-121.39776,52.08083],[-121.39785,52.08084],[-121.39814,52.08085],[-121.39847,52.08085],[-121.39866,52.08086],[-121.39891,52.08087],[-121.3992,52.08087],[-121.39949,52.08089],[-121.39976,52.08091],[-121.4,52.08092],[-121.40006,52.08092],[-121.40034,52.08093],[-121.40059,52.08095],[-121.40072,52.08095],[-121.40105,52.08098],[-121.40127,52.08101],[-121.4014,52.08102],[-121.40165,52.08106],[-121.40192,52.0811],[-121.40207,52.08112],[-121.40233,52.08117],[-121.40261,52.08121],[-121.40285,52.08127],[-121.40289,52.08128],[-121.40316,52.08134],[-121.40329,52.08137],[-121.40356,52.08141],[-121.40391,52.08147],[-121.40413,52.0815],[-121.40445,52.08158],[-121.40452,52.0816],[-121.40473,52.08167],[-121.40478,52.08168],[-121.40501,52.0817],[-121.40534,52.08178],[-121.40571,52.08187],[-121.40604,52.08198],[-121.40631,52.08207],[-121.40643,52.08212],[-121.40654,52.08215],[-121.4069,52.08221],[-121.40698,52.08222],[-121.40708,52.08223],[-121.40717,52.08225],[-121.40751,52.08231],[-121.4076,52.08233],[-121.40763,52.08233],[-121.40798,52.08241],[-121.40832,52.08254],[-121.40844,52.0826],[-121.4088,52.08277],[-121.40891,52.08285],[-121.40905,52.08296],[-121.40909,52.08299],[-121.40918,52.08307],[-121.40926,52.08315],[-121.40943,52.0833],[-121.40952,52.08345],[-121.40963,52.08358],[-121.4097,52.08376],[-121.40984,52.08392],[-121.41004,52.08402],[-121.41038,52.08421],[-121.41057,52.08433],[-121.41068,52.08439],[-121.41091,52.08449],[-121.41098,52.08451],[-121.41107,52.08453],[-121.41121,52.08463],[-121.41143,52.08473],[-121.41154,52.08478],[-121.4118,52.08485],[-121.41205,52.0849],[-121.41237,52.08495],[-121.41256,52.085],[-121.41266,52.08504],[-121.41299,52.08513],[-121.41312,52.08516],[-121.41338,52.08522],[-121.41364,52.08531],[-121.4139,52.08536],[-121.414,52.08538],[-121.41412,52.0854],[-121.41419,52.08542],[-121.41454,52.08548],[-121.41492,52.08555],[-121.41482,52.08579],[-121.41472,52.08598],[-121.41471,52.08604],[-121.41468,52.08609],[-121.41462,52.0862],[-121.41451,52.08633],[-121.4144,52.0865],[-121.41435,52.08657],[-121.4143,52.08671],[-121.41424,52.08678],[-121.41417,52.08687],[-121.41403,52.08703],[-121.414,52.08712],[-121.41395,52.08719],[-121.41389,52.08725],[-121.41385,52.08733],[-121.41381,52.08741],[-121.41378,52.08746],[-121.4137,52.0876],[-121.41358,52.08776],[-121.41352,52.08784],[-121.41332,52.08801],[-121.41322,52.08808],[-121.41295,52.08822],[-121.41282,52.08829],[-121.41249,52.08851],[-121.41239,52.08856],[-121.41241,52.08872],[-121.41243,52.08887],[-121.41251,52.08903],[-121.41271,52.08925],[-121.41294,52.08939],[-121.41311,52.08947],[-121.41323,52.08952],[-121.4134,52.08959],[-121.4137,52.08974],[-121.41382,52.08976],[-121.4139,52.08979],[-121.41395,52.08981],[-121.41405,52.08985],[-121.41421,52.08988],[-121.41428,52.08988],[-121.41443,52.08987],[-121.41459,52.08986],[-121.41475,52.08986],[-121.41494,52.08987],[-121.41511,52.08988],[-121.41526,52.08989],[-121.41534,52.08991],[-121.41552,52.08997],[-121.41559,52.08999],[-121.41566,52.09001],[-121.41582,52.09005],[-121.41601,52.09008],[-121.41621,52.09007],[-121.41639,52.09008],[-121.41658,52.0901],[-121.4168,52.09012],[-121.41694,52.09016],[-121.41709,52.09019],[-121.41726,52.09025],[-121.41739,52.09032],[-121.41755,52.09042],[-121.41769,52.09052],[-121.4178,52.0906],[-121.41782,52.09064],[-121.41786,52.09072],[-121.41791,52.09083],[-121.41794,52.09093],[-121.41799,52.09105],[-121.41802,52.09114],[-121.41809,52.09124],[-121.41818,52.09135],[-121.41824,52.09137],[-121.41838,52.09145],[-121.41918,52.09153],[-121.42097,52.0916],[-121.42267,52.09161],[-121.42378,52.09165],[-121.42688,52.092],[-121.42754,52.09212],[-121.42903,52.09226],[-121.42919,52.09263],[-121.42949,52.0932]]}},
{"type":"Feature","properties":{"spotId":"E-moose-atv-0020","kind":"ride","km":1.82,"climbM":22,"name":"1.4 km W of Cossack Lake","flags":[]},"geometry":{"type":"LineString","coordinates":[[-121.43359,52.1899],[-121.43391,52.18996],[-121.43417,52.19001],[-121.43432,52.19004],[-121.43451,52.19006],[-121.43479,52.19017],[-121.43506,52.19019],[-121.43519,52.1902],[-121.43551,52.19033],[-121.43577,52.19044],[-121.43592,52.19056],[-121.43593,52.19062],[-121.43589,52.19075],[-121.43586,52.19076],[-121.43581,52.19079],[-121.43571,52.19082],[-121.43562,52.19087],[-121.43556,52.19093],[-121.43556,52.191],[-121.43562,52.19117],[-121.43581,52.19131],[-121.43607,52.1914],[-121.43637,52.19148],[-121.43647,52.19153],[-121.43654,52.19158],[-121.43656,52.19164],[-121.43663,52.19175],[-121.43664,52.1918],[-121.43668,52.19185],[-121.43674,52.1919],[-121.43675,52.19203],[-121.43666,52.19214],[-121.43667,52.1922],[-121.43696,52.19232],[-121.43706,52.19238],[-121.43711,52.19244],[-121.4371,52.19251],[-121.43704,52.19256],[-121.43693,52.1926],[-121.43681,52.19264],[-121.43667,52.19265],[-121.43656,52.1927],[-121.43653,52.19277],[-121.43661,52.19292],[-121.43662,52.19308],[-121.43662,52.19316],[-121.43657,52.19329],[-121.4365,52.19339],[-121.43641,52.19345],[-121.43629,52.19349],[-121.43617,52.19352],[-121.43591,52.19349],[-121.43578,52.19347],[-121.43563,52.19347],[-121.43528,52.19338],[-121.43519,52.19337],[-121.43511,52.19337],[-121.43494,52.1934],[-121.43484,52.19345],[-121.43467,52.19358],[-121.43457,52.19373],[-121.43453,52.19381],[-121.43446,52.19388],[-121.43434,52.1939],[-121.43423,52.19388],[-121.43417,52.19382],[-121.43416,52.1937],[-121.43406,52.19364],[-121.43396,52.19364],[-121.43385,52.1937],[-121.43377,52.19379],[-121.43354,52.19395],[-121.43347,52.1941],[-121.43348,52.19424],[-121.43356,52.19443],[-121.43357,52.19462],[-121.43358,52.19466],[-121.43371,52.19481],[-121.43371,52.19488],[-121.43366,52.19496],[-121.43351,52.19507],[-121.43336,52.19527],[-121.43329,52.19541],[-121.43329,52.19548],[-121.43335,52.19554],[-121.43333,52.1956],[-121.43324,52.19565],[-121.43299,52.19568],[-121.43286,52.19571],[-121.43277,52.19576],[-121.43271,52.1959],[-121.43273,52.19596],[-121.43287,52.19611],[-121.43283,52.19616],[-121.43272,52.1962],[-121.43258,52.19614],[-121.43249,52.19613],[-121.43242,52.19615],[-121.43239,52.1962],[-121.43241,52.1964],[-121.43246,52.19654],[-121.43258,52.19665],[-121.43266,52.19669],[-121.43272,52.19674],[-121.43275,52.19685],[-121.4327,52.1969],[-121.4326,52.19694],[-121.43252,52.19694],[-121.43243,52.19699],[-121.43243,52.19705],[-121.43256,52.19715],[-121.43257,52.1972],[-121.43251,52.19727],[-121.43244,52.19732],[-121.4324,52.19746],[-121.43236,52.19751],[-121.43219,52.1976],[-121.4322,52.19767],[-121.43228,52.19773],[-121.43246,52.19785],[-121.43279,52.19801],[-121.43302,52.19813],[-121.43311,52.19827],[-121.43313,52.19836],[-121.43308,52.1985],[-121.43311,52.19859],[-121.43334,52.1988],[-121.43335,52.19888],[-121.43325,52.1991],[-121.43322,52.1992],[-121.43322,52.19925],[-121.43326,52.19928],[-121.4333,52.19929],[-121.43346,52.19928],[-121.43361,52.19927],[-121.43377,52.19922],[-121.43389,52.19916],[-121.43404,52.19914],[-121.43411,52.19914],[-121.43429,52.19915],[-121.43445,52.19915],[-121.43461,52.19915],[-121.4348,52.19916],[-121.43498,52.19916],[-121.43517,52.19915],[-121.43533,52.19915],[-121.43552,52.19913],[-121.43567,52.19912],[-121.43585,52.19913],[-121.43602,52.19915],[-121.4362,52.1992],[-121.43641,52.19924]]}},
{"type":"Feature","properties":{"spotId":"E-moose-atv-0020","kind":"walk","km":0.08,"climbM":1,"name":"1.4 km W of Cossack Lake","flags":[]},"geometry":{"type":"LineString","coordinates":[[-121.43641,52.19924],[-121.43686,52.19855]]}},
{"type":"Feature","properties":{"spotId":"E-moose-atv-0025","kind":"ride","km":3.62,"climbM":26,"name":"400 m N of Moffat Creek","flags":[]},"geometry":{"type":"LineString","coordinates":[[-121.47173,52.18635],[-121.47166,52.18636],[-121.47147,52.18638],[-121.47129,52.18639],[-121.47109,52.18642],[-121.47093,52.18646],[-121.47074,52.18648],[-121.47059,52.18652],[-121.47045,52.18655],[-121.47029,52.18656],[-121.4701,52.18656],[-121.46994,52.18658],[-121.46977,52.1866],[-121.4696,52.18662],[-121.46941,52.18665],[-121.46924,52.18668],[-121.46909,52.1867],[-121.46894,52.18672],[-121.46871,52.18674],[-121.46855,52.18677],[-121.46838,52.18679],[-121.46824,52.18682],[-121.46806,52.18685],[-121.46791,52.18687],[-121.46775,52.1869],[-121.46759,52.18692],[-121.46744,52.18694],[-121.46728,52.18698],[-121.46712,52.187],[-121.46696,52.18703],[-121.46681,52.18705],[-121.46663,52.18708],[-121.46643,52.1871],[-121.46621,52.18713],[-121.46599,52.18716],[-121.4658,52.18719],[-121.46565,52.18721],[-121.46546,52.18724],[-121.4653,52.18726],[-121.46513,52.18729],[-121.46499,52.18731],[-121.46483,52.18733],[-121.46466,52.18736],[-121.46447,52.18739],[-121.46431,52.18741],[-121.46415,52.18742],[-121.46396,52.18745],[-121.46378,52.18747],[-121.46362,52.1875],[-121.46343,52.18752],[-121.46324,52.18755],[-121.46306,52.18759],[-121.46291,52.18759],[-121.46272,52.18764],[-121.46252,52.18767],[-121.46235,52.1877],[-121.46221,52.18772],[-121.462,52.18774],[-121.46184,52.18776],[-121.46169,52.18778],[-121.46152,52.1878],[-121.46137,52.18783],[-121.46119,52.18784],[-121.46105,52.18786],[-121.46113,52.18802],[-121.46126,52.18815],[-121.4613,52.18825],[-121.4613,52.18828],[-121.46114,52.18847],[-121.4611,52.18858],[-121.46109,52.18868],[-121.46124,52.189],[-121.46131,52.18921],[-121.46133,52.18932],[-121.46133,52.18974],[-121.46127,52.18987],[-121.46115,52.19004],[-121.46114,52.19019],[-121.46123,52.19027],[-121.46139,52.19038],[-121.46144,52.19048],[-121.46141,52.19058],[-121.46137,52.1908],[-121.46128,52.19101],[-121.4612,52.19112],[-121.4611,52.19136],[-121.46095,52.19165],[-121.46093,52.19175],[-121.46086,52.19195],[-121.46079,52.19206],[-121.46066,52.19215],[-121.46041,52.1923],[-121.46023,52.19237],[-121.46007,52.19241],[-121.45967,52.1925],[-121.45939,52.19259],[-121.45922,52.19263],[-121.45889,52.19268],[-121.45879,52.19271],[-121.45876,52.19276],[-121.45884,52.19285],[-121.45921,52.19311],[-121.45946,52.19328],[-121.45957,52.19338],[-121.45964,52.1935],[-121.45965,52.19362],[-121.45964,52.19384],[-121.45974,52.19396],[-121.45981,52.19406],[-121.45982,52.19416],[-121.4597,52.19469],[-121.4597,52.19479],[-121.45971,52.19489],[-121.45976,52.19499],[-121.45979,52.19502],[-121.45989,52.19508],[-121.46031,52.19527],[-121.46047,52.19535],[-121.46055,52.19543],[-121.46078,52.19563],[-121.46089,52.1957],[-121.46118,52.19584],[-121.46131,52.19591],[-121.46141,52.19599],[-121.46161,52.19599],[-121.46181,52.19599],[-121.46198,52.19599],[-121.46214,52.19599],[-121.46233,52.19599],[-121.46254,52.19599],[-121.46271,52.19599],[-121.46286,52.19599],[-121.46305,52.19599],[-121.4632,52.19599],[-121.46339,52.19599],[-121.46356,52.19597],[-121.46359,52.19597],[-121.46371,52.19591],[-121.46387,52.19587],[-121.46395,52.19587],[-121.46411,52.19586],[-121.46428,52.19587],[-121.46447,52.19585],[-121.46465,52.19584],[-121.4648,52.19585],[-121.46497,52.19585],[-121.46513,52.19585],[-121.46528,52.19584],[-121.46544,52.19585],[-121.46561,52.19585],[-121.46579,52.19584],[-121.46597,52.19584],[-121.46613,52.19585],[-121.4663,52.19585],[-121.46648,52.19584],[-121.46664,52.19583],[-121.46679,52.19582],[-121.46696,52.1958],[-121.46715,52.19578],[-121.46731,52.19575],[-121.46748,52.19576],[-121.4677,52.19575],[-121.46784,52.19575],[-121.46799,52.19573],[-121.46817,52.1957],[-121.46831,52.19568],[-121.46847,52.19566],[-121.46864,52.19564],[-121.46878,52.19562],[-121.46896,52.1956],[-121.46912,52.19558],[-121.46928,52.19555],[-121.46944,52.19554],[-121.46961,52.19551],[-121.46978,52.1955],[-121.47,52.19547],[-121.47019,52.19544],[-121.47034,52.19542],[-121.4705,52.1954],[-121.47065,52.19538],[-121.47083,52.19537],[-121.47102,52.19535],[-121.47121,52.19534],[-121.47137,52.1953],[-121.47153,52.19529],[-121.47172,52.19526],[-121.47188,52.19524],[-121.47209,52.19519],[-121.47225,52.19517],[-121.47243,52.19515],[-121.4726,52.19513],[-121.47277,52.1951],[-121.47296,52.19509],[-121.47312,52.19507],[-121.47329,52.19505],[-121.47344,52.19503],[-121.47365,52.195],[-121.47382,52.19497],[-121.474,52.19495],[-121.47416,52.19493],[-121.47434,52.1949],[-121.47449,52.19488],[-121.47465,52.19485],[-121.47482,52.19483],[-121.47501,52.19479],[-121.47516,52.19478],[-121.47532,52.19475],[-121.4755,52.19474],[-121.47566,52.19472],[-121.47588,52.1947],[-121.47604,52.19468],[-121.47619,52.19466],[-121.47634,52.19465],[-121.47653,52.19463],[-121.47672,52.19462],[-121.47691,52.19459],[-121.4771,52.19457],[-121.47726,52.19454],[-121.47741,52.19451],[-121.47754,52.19449],[-121.47773,52.19447],[-121.47791,52.19444],[-121.47809,52.19442],[-121.47825,52.19439],[-121.47844,52.19438],[-121.4786,52.19436],[-121.47879,52.19435],[-121.479,52.19432],[-121.47919,52.1943],[-121.47933,52.19427],[-121.4795,52.19424],[-121.47964,52.1942],[-121.47979,52.19418],[-121.47998,52.19415],[-121.48017,52.19413],[-121.48033,52.19412],[-121.48051,52.19412],[-121.48066,52.19411],[-121.48085,52.19411],[-121.48102,52.19411],[-121.48118,52.19413],[-121.48134,52.19417],[-121.4815,52.1942],[-121.48159,52.1942],[-121.48177,52.19419],[-121.48194,52.19415],[-121.48209,52.19409],[-121.48227,52.19404],[-121.48246,52.19399],[-121.48262,52.19396],[-121.48277,52.19393],[-121.48292,52.1939],[-121.48308,52.19386],[-121.48324,52.19384],[-121.48342,52.19383],[-121.48356,52.19381],[-121.48373,52.19379],[-121.48387,52.19376],[-121.48411,52.19374],[-121.48428,52.19373],[-121.48444,52.19372],[-121.48461,52.19369],[-121.48475,52.19367],[-121.4849,52.19364],[-121.48508,52.19362],[-121.48524,52.1936],[-121.48541,52.19359],[-121.48556,52.19357],[-121.48574,52.19356],[-121.48599,52.19354],[-121.48613,52.19353],[-121.48629,52.19353],[-121.48647,52.19352],[-121.48663,52.1935],[-121.48681,52.19347],[-121.48694,52.19342]]}},
{"type":"Feature","properties":{"spotId":"E-moose-atv-0025","kind":"walk","km":0.16,"climbM":0,"name":"400 m N of Moffat Creek","flags":[]},"geometry":{"type":"LineString","coordinates":[[-121.47173,52.18635],[-121.47133,52.1849]]}},
{"type":"Feature","properties":{"spotId":"E-moose-atv-0038","kind":"ride","km":1.02,"climbM":12,"name":"1.9 km NW of Eagle Creek","flags":[]},"geometry":{"type":"LineString","coordinates":[[-121.46673,52.03707],[-121.46677,52.03721],[-121.46688,52.03742],[-121.4669,52.03748],[-121.46691,52.03755],[-121.46694,52.03766],[-121.46695,52.03788],[-121.46695,52.03795],[-121.46697,52.03805],[-121.46696,52.03825],[-121.46697,52.03836],[-121.46697,52.03843],[-121.46697,52.03861],[-121.46696,52.03884],[-121.46698,52.03903],[-121.46699,52.03908],[-121.46699,52.03929],[-121.46698,52.03935],[-121.46692,52.03956],[-121.4669,52.03961],[-121.46682,52.03979],[-121.46681,52.03983],[-121.46676,52.04006],[-121.46675,52.04024],[-121.46674,52.04042],[-121.46674,52.04048],[-121.46674,52.04054],[-121.46679,52.04068],[-121.46681,52.04072],[-121.46683,52.0408],[-121.46688,52.04081],[-121.46705,52.04087],[-121.4673,52.0409],[-121.46763,52.04093],[-121.46798,52.04097],[-121.46824,52.04098],[-121.46849,52.04098],[-121.46872,52.04098],[-121.46906,52.04103],[-121.46917,52.04107],[-121.46948,52.04112],[-121.46972,52.04121],[-121.46989,52.04137],[-121.46993,52.04146],[-121.47,52.04162],[-121.47001,52.04169],[-121.47,52.04188],[-121.47,52.04209],[-121.46993,52.04231],[-121.46981,52.04244],[-121.46967,52.04258],[-121.46952,52.04269],[-121.46942,52.04283],[-121.46938,52.04297],[-121.46935,52.04306],[-121.46932,52.04319],[-121.46922,52.04338],[-121.46915,52.04354],[-121.46904,52.04374],[-121.46891,52.04395],[-121.46887,52.04403],[-121.4687,52.04425],[-121.46864,52.04433],[-121.46854,52.04452]]}},
{"type":"Feature","properties":{"spotId":"E-moose-atv-0038","kind":"walk","km":0.35,"climbM":8,"name":"1.9 km NW of Eagle Creek","flags":[]},"geometry":{"type":"LineString","coordinates":[[-121.46854,52.04452],[-121.47195,52.04692]]}},
{"type":"Feature","properties":{"spotId":"E-moose-drive-0012","kind":"walk","km":0.24,"climbM":3,"name":"330 m SE of Moffat Creek","flags":[]},"geometry":{"type":"LineString","coordinates":[[-121.48757,52.20543],[-121.48431,52.20617]]}},
{"type":"Feature","properties":{"spotId":"E-moose-drive-0018","kind":"walk","km":0.18,"climbM":0,"name":"1.3 km S of Woodjam Creek","flags":[]},"geometry":{"type":"LineString","coordinates":[[-121.2627,52.16355],[-121.26358,52.16206]]}},
{"type":"Feature","properties":{"spotId":"E-moose-drive-0027","kind":"walk","km":0.17,"climbM":0,"name":"880 m NW of Two Mile Lake","flags":[]},"geometry":{"type":"LineString","coordinates":[[-121.40139,52.06133],[-121.40074,52.05983]]}},
{"type":"Feature","properties":{"spotId":"E-moose-walk-0041","kind":"walk","km":2.85,"climbM":21,"name":"260 m NW of Woodjam Creek","flags":[]},"geometry":{"type":"LineString","coordinates":[[-121.34427,52.18168],[-121.32036,52.20267]]}},
{"type":"Feature","properties":{"spotId":"E-moose-walk-0043","kind":"walk","km":1.89,"climbM":6,"name":"2.5 km W of Cossack Lake","flags":[]},"geometry":{"type":"LineString","coordinates":[[-121.42981,52.19465],[-121.45031,52.20607]]}},
{"type":"Feature","properties":{"spotId":"E-moose-walk-0061","kind":"walk","km":1.04,"climbM":75,"name":"880 m S of Eagle Creek","flags":["Route crosses private land (ParcelMap BC, updated 2026-09-22): get permission first or go around."]},"geometry":{"type":"LineString","coordinates":[[-121.32214,52.06893],[-121.33413,52.06316]]}}
]}
