{"type":"FeatureCollection","features":[
{"type":"Feature","properties":{"spotId":"E-duck-drive-0145","kind":"walk","km":0.28,"climbM":0,"name":"Fly Lake","flags":[]},"geometry":{"type":"LineString","coordinates":[[-121.30821,51.90766],[-121.31145,51.90617]]}},
{"type":"Feature","properties":{"spotId":"E-duck-drive-0153","kind":"walk","km":0.15,"climbM":0,"name":"Unnamed wetland 2.5 km NE of Fly Lake rec site","flags":[]},"geometry":{"type":"LineString","coordinates":[[-121.29209,51.92454],[-121.29001,51.92413]]}},
{"type":"Feature","properties":{"spotId":"E-duck-drive-0155","kind":"walk","km":0.27,"climbM":0,"name":"Unnamed wetland 500 m SE of Rail Lake","flags":[]},"geometry":{"type":"LineString","coordinates":[[-121.46107,51.93417],[-121.4614,51.93175]]}},
{"type":"Feature","properties":{"spotId":"E-duck-walk-0063","kind":"walk","km":0.35,"climbM":0,"name":"Unnamed wetland by Peach Lake","flags":[]},"geometry":{"type":"LineString","coordinates":[[-121.31511,51.99084],[-121.31381,51.98783]]}},
{"type":"Feature","properties":{"spotId":"E-duck-walk-0082","kind":"walk","km":0.44,"climbM":1,"name":"Unnamed wetland 270 m S of Spout Lake","flags":[]},"geometry":{"type":"LineString","coordinates":[[-121.40732,51.98181],[-121.40466,51.9854]]}},
{"type":"Feature","properties":{"spotId":"E-duck-walk-0090","kind":"walk","km":0.39,"climbM":3,"name":"Unnamed wetland 200 m E of Rail Creek","flags":["Route crosses private land (ParcelMap BC, updated 2026-09-22): get permission first or go around."]},"geometry":{"type":"LineString","coordinates":[[-121.41417,51.90622],[-121.41935,51.90487]]}},
{"type":"Feature","properties":{"spotId":"E-duck-walk-0094","kind":"walk","km":0.37,"climbM":0,"name":"Unnamed wetland by Fly Lake","flags":[]},"geometry":{"type":"LineString","coordinates":[[-121.30634,51.90635],[-121.30651,51.90641],[-121.30666,51.90643],[-121.30698,51.90643],[-121.30733,51.90639],[-121.30753,51.90635],[-121.30785,51.90635],[-121.30804,51.90636],[-121.31152,51.90569]]}},
{"type":"Feature","properties":{"spotId":"E-grouse-atv-0058","kind":"walk","km":1.76,"climbM":51,"name":"640 m S of Westman Creek","flags":[]},"geometry":{"type":"LineString","coordinates":[[-121.2618,51.90217],[-121.25036,51.91632]]}},
{"type":"Feature","properties":{"spotId":"E-grouse-atv-0058","kind":"ride","km":4.99,"climbM":100,"name":"640 m S of Westman Creek","flags":[]},"geometry":{"type":"LineString","coordinates":[[-121.25036,51.91632],[-121.25033,51.91635],[-121.25013,51.91657],[-121.25005,51.91664],[-121.24996,51.91671],[-121.24984,51.9168],[-121.2497,51.91688],[-121.24953,51.91697],[-121.24942,51.91706],[-121.24935,51.91719],[-121.24931,51.9173],[-121.24926,51.91743],[-121.24917,51.91763],[-121.24917,51.91782],[-121.24921,51.91796],[-121.24928,51.91809],[-121.24937,51.91818],[-121.24937,51.91819],[-121.24949,51.91829],[-121.24961,51.91841],[-121.2498,51.91858],[-121.24986,51.91869],[-121.25004,51.91882],[-121.2502,51.91892],[-121.25047,51.9191],[-121.25069,51.91921],[-121.25083,51.9193],[-121.25091,51.91934],[-121.25102,51.91939],[-121.25108,51.91943],[-121.25118,51.91947],[-121.25126,51.91954],[-121.25137,51.91962],[-121.25149,51.91969],[-121.25167,51.91976],[-121.25177,51.9198],[-121.25186,51.91986],[-121.25196,51.91992],[-121.25204,51.91996],[-121.25214,51.92001],[-121.25225,51.92007],[-121.25235,51.92014],[-121.25246,51.92021],[-121.25256,51.92027],[-121.25265,51.92032],[-121.25273,51.92037],[-121.25281,51.92042],[-121.25288,51.92048],[-121.25298,51.92054],[-121.25309,51.92058],[-121.25319,51.92063],[-121.2533,51.92066],[-121.25342,51.9207],[-121.25354,51.92073],[-121.25369,51.92077],[-121.25382,51.92081],[-121.25395,51.92083],[-121.25405,51.92084],[-121.25418,51.92086],[-121.25433,51.9209],[-121.25446,51.92094],[-121.25457,51.92101],[-121.25465,51.92106],[-121.25475,51.92112],[-121.2548,51.92121],[-121.25488,51.92127],[-121.25497,51.92136],[-121.25507,51.92143],[-121.25516,51.9215],[-121.25528,51.92161],[-121.25542,51.92174],[-121.25555,51.92187],[-121.25563,51.92194],[-121.25573,51.922],[-121.25593,51.92213],[-121.25607,51.92221],[-121.2562,51.92226],[-121.25633,51.9223],[-121.25653,51.92234],[-121.25668,51.92238],[-121.2568,51.92243],[-121.25698,51.92249],[-121.25717,51.92257],[-121.25737,51.92262],[-121.25754,51.92268],[-121.25759,51.92268],[-121.25763,51.92267],[-121.25762,51.92261],[-121.25765,51.92256],[-121.25769,51.92251],[-121.25774,51.92246],[-121.25778,51.92239],[-121.25785,51.92236],[-121.25791,51.92233],[-121.25796,51.9223],[-121.25801,51.92225],[-121.25808,51.92221],[-121.25815,51.92218],[-121.25823,51.92215],[-121.25831,51.9221],[-121.25837,51.92207],[-121.25842,51.92203],[-121.25848,51.922],[-121.25857,51.92195],[-121.25863,51.92191],[-121.2587,51.92187],[-121.25876,51.92185],[-121.25883,51.92182],[-121.2589,51.92179],[-121.25898,51.92176],[-121.25905,51.92173],[-121.25911,51.92169],[-121.25914,51.92164],[-121.25921,51.92161],[-121.25927,51.92158],[-121.25936,51.92154],[-121.25944,51.92151],[-121.2595,51.92148],[-121.25957,51.92145],[-121.25964,51.92142],[-121.25971,51.92139],[-121.2598,51.92137],[-121.2599,51.92135],[-121.25997,51.92132],[-121.26004,51.92129],[-121.26012,51.92127],[-121.26019,51.92124],[-121.26025,51.92123],[-121.26033,51.92119],[-121.2604,51.92117],[-121.26049,51.92114],[-121.26054,51.9211],[-121.26062,51.92108],[-121.26071,51.92106],[-121.2608,51.92103],[-121.26089,51.92101],[-121.26098,51.92098],[-121.26108,51.92095],[-121.26117,51.92092],[-121.26128,51.9209],[-121.26139,51.92088],[-121.26148,51.92085],[-121.26155,51.92084],[-121.26163,51.92081],[-121.2617,51.92079],[-121.26178,51.92078],[-121.26187,51.92077],[-121.26195,51.92075],[-121.26202,51.92072],[-121.26211,51.9207],[-121.26219,51.92068],[-121.26228,51.92065],[-121.26234,51.92062],[-121.26242,51.92058],[-121.2625,51.92055],[-121.26258,51.92052],[-121.26267,51.9205],[-121.26276,51.92047],[-121.26288,51.92045],[-121.26301,51.92045],[-121.26314,51.92044],[-121.26327,51.92043],[-121.26339,51.92042],[-121.2635,51.92041],[-121.26361,51.92041],[-121.26373,51.92041],[-121.26383,51.92037],[-121.26393,51.92038],[-121.26404,51.9204],[-121.26413,51.9204],[-121.26421,51.9204],[-121.26431,51.92039],[-121.26441,51.92041],[-121.26449,51.92041],[-121.26457,51.92042],[-121.26466,51.92042],[-121.26475,51.92042],[-121.26484,51.92044],[-121.26491,51.92045],[-121.26503,51.92045],[-121.26516,51.92044],[-121.26527,51.92043],[-121.26537,51.92043],[-121.26546,51.92043],[-121.26555,51.92042],[-121.26566,51.92042],[-121.26576,51.92042],[-121.26586,51.92042],[-121.26596,51.92043],[-121.26608,51.92044],[-121.2662,51.92045],[-121.2663,51.92045],[-121.26641,51.92046],[-121.2665,51.92047],[-121.26657,51.92047],[-121.26666,51.92046],[-121.26677,51.92047],[-121.26688,51.92045],[-121.26696,51.92045],[-121.26704,51.92045],[-121.26715,51.92045],[-121.26725,51.92049],[-121.26736,51.92048],[-121.26745,51.92046],[-121.26753,51.92043],[-121.26763,51.92042],[-121.26774,51.92042],[-121.26786,51.92042],[-121.26793,51.92041],[-121.26805,51.92041],[-121.26817,51.92042],[-121.26829,51.92043],[-121.26842,51.92045],[-121.26855,51.92048],[-121.26869,51.92052],[-121.26882,51.92057],[-121.26893,51.92061],[-121.26905,51.92065],[-121.26914,51.92069],[-121.26921,51.92072],[-121.26928,51.92075],[-121.26936,51.92078],[-121.26944,51.92082],[-121.26952,51.92084],[-121.2696,51.92088],[-121.26966,51.92091],[-121.26972,51.92095],[-121.2698,51.921],[-121.26988,51.92105],[-121.26996,51.9211],[-121.27003,51.92115],[-121.27006,51.92122],[-121.27011,51.92129],[-121.27017,51.92138],[-121.27019,51.92142],[-121.27022,51.92146],[-121.27025,51.9215],[-121.27032,51.92158],[-121.27038,51.92165],[-121.27041,51.92172],[-121.27043,51.92177],[-121.27045,51.92183],[-121.2705,51.9219],[-121.27056,51.92197],[-121.27063,51.92204],[-121.2707,51.9221],[-121.27078,51.92217],[-121.27084,51.92224],[-121.27089,51.9223],[-121.27095,51.92235],[-121.27101,51.9224],[-121.27105,51.92245],[-121.27113,51.92252],[-121.2712,51.92258],[-121.27125,51.92262],[-121.27131,51.92268],[-121.27136,51.92273],[-121.27142,51.92278],[-121.2715,51.92284],[-121.27155,51.92289],[-121.27161,51.92295],[-121.27164,51.92299],[-121.27166,51.92304],[-121.27171,51.92308],[-121.27174,51.92312],[-121.27172,51.92317],[-121.27171,51.92322],[-121.27168,51.92327],[-121.27166,51.92332],[-121.27164,51.92339],[-121.27163,51.92345],[-121.27165,51.92351],[-121.27167,51.92357],[-121.2718,51.92368],[-121.27185,51.92373],[-121.27188,51.92378],[-121.27191,51.92382],[-121.27197,51.92389],[-121.272,51.92395],[-121.27202,51.924],[-121.27203,51.92405],[-121.27205,51.92409],[-121.27207,51.92414],[-121.27209,51.9242],[-121.2721,51.92425],[-121.27212,51.92431],[-121.27216,51.92437],[-121.27218,51.92444],[-121.27219,51.92449],[-121.27222,51.92454],[-121.27223,51.92458],[-121.27227,51.92465],[-121.2723,51.9247],[-121.27236,51.92475],[-121.2724,51.9248],[-121.27245,51.92485],[-121.27248,51.92488],[-121.27252,51.92492],[-121.27258,51.92496],[-121.27267,51.92498],[-121.27277,51.925],[-121.27289,51.92503],[-121.27301,51.92504],[-121.27314,51.92504],[-121.27327,51.92504],[-121.27339,51.92503],[-121.27348,51.92503],[-121.27356,51.92503],[-121.27367,51.92505],[-121.2738,51.92505],[-121.27393,51.92506],[-121.27403,51.92507],[-121.27415,51.9251],[-121.27423,51.92511],[-121.27431,51.92511],[-121.2744,51.92511],[-121.27452,51.92512],[-121.27465,51.92512],[-121.27478,51.9251],[-121.27489,51.92509],[-121.27501,51.92507],[-121.2751,51.92505],[-121.27516,51.92501],[-121.27523,51.925],[-121.27536,51.92501],[-121.27548,51.92503],[-121.27556,51.92504],[-121.27563,51.92506],[-121.27572,51.92508],[-121.27581,51.9251],[-121.27592,51.92514],[-121.27598,51.92517],[-121.27606,51.92521],[-121.27611,51.92525],[-121.27617,51.9253],[-121.27622,51.92533],[-121.27626,51.92537],[-121.2763,51.92543],[-121.2764,51.92545],[-121.27647,51.9255],[-121.27657,51.92554],[-121.27668,51.92558],[-121.27678,51.92561],[-121.27687,51.92563],[-121.27698,51.92564],[-121.27708,51.92565],[-121.27719,51.92564],[-121.27727,51.92565],[-121.27742,51.92566],[-121.27759,51.92569],[-121.27768,51.92571],[-121.27785,51.92576],[-121.27794,51.92578],[-121.27811,51.92583],[-121.27818,51.92585],[-121.2783,51.92591],[-121.27841,51.92595],[-121.27852,51.92599],[-121.27862,51.92603],[-121.27872,51.92607],[-121.27879,51.92612],[-121.27887,51.92616],[-121.27895,51.9262],[-121.27901,51.92624],[-121.27907,51.92627],[-121.27914,51.92631],[-121.27917,51.92636],[-121.27927,51.92644],[-121.27931,51.92649],[-121.27939,51.92657],[-121.27943,51.92665],[-121.27945,51.92672],[-121.27948,51.92679],[-121.27951,51.92686],[-121.27954,51.92692],[-121.27958,51.92697],[-121.2796,51.92703],[-121.27968,51.92715],[-121.27975,51.92727],[-121.27979,51.92732],[-121.27986,51.9274],[-121.27992,51.92745],[-121.27994,51.92748],[-121.27995,51.9275],[-121.27999,51.92754],[-121.28004,51.92759],[-121.28012,51.92767],[-121.28028,51.92777],[-121.28038,51.92781],[-121.28059,51.9279],[-121.2807,51.92794],[-121.2809,51.92802],[-121.28101,51.92806],[-121.28123,51.92812],[-121.28133,51.92813],[-121.28144,51.92815],[-121.28155,51.92817],[-121.28174,51.92816],[-121.28192,51.92819],[-121.28202,51.9282],[-121.28212,51.92821],[-121.2823,51.92823],[-121.28245,51.92824],[-121.28263,51.92824],[-121.28279,51.92824],[-121.28288,51.92824],[-121.28304,51.9282],[-121.28313,51.92822],[-121.28326,51.92818],[-121.28335,51.92815],[-121.28344,51.92813],[-121.28348,51.92811],[-121.28353,51.92809],[-121.28362,51.9281],[-121.28354,51.92819],[-121.2835,51.92824],[-121.28349,51.9283],[-121.28341,51.92835],[-121.28322,51.92843],[-121.28306,51.92849],[-121.28294,51.92855],[-121.28276,51.92861],[-121.28268,51.92865],[-121.2826,51.92867],[-121.2824,51.92873],[-121.28223,51.92875],[-121.28207,51.92877],[-121.28198,51.92878],[-121.28184,51.92886],[-121.28162,51.92891],[-121.2814,51.92897],[-121.28116,51.92903],[-121.28104,51.92907],[-121.28083,51.92914],[-121.2806,51.92922],[-121.28037,51.92929],[-121.28026,51.92928],[-121.28004,51.92935],[-121.2798,51.92942],[-121.27953,51.9295],[-121.2794,51.92954],[-121.2791,51.9296],[-121.27884,51.92965],[-121.27871,51.92967],[-121.27843,51.92968],[-121.27818,51.92966],[-121.27789,51.9297],[-121.2776,51.92974],[-121.27745,51.92976],[-121.27729,51.92978],[-121.27698,51.92981],[-121.27684,51.92984],[-121.27657,51.9299],[-121.27631,51.92996],[-121.27617,51.92998],[-121.27605,51.93],[-121.2758,51.93015],[-121.27568,51.93019],[-121.27556,51.93023],[-121.27545,51.93027],[-121.27522,51.93035],[-121.27512,51.93039],[-121.27497,51.93045],[-121.27479,51.93053],[-121.27472,51.93056],[-121.27457,51.93059],[-121.27449,51.93062],[-121.27434,51.93065],[-121.27425,51.93067],[-121.27417,51.93068],[-121.27404,51.93071],[-121.27391,51.93074],[-121.27375,51.93078],[-121.27355,51.93082],[-121.27336,51.93087],[-121.27326,51.9309],[-121.27309,51.93094],[-121.27302,51.93096],[-121.27291,51.93101],[-121.27282,51.93103],[-121.27273,51.93105],[-121.27258,51.93108],[-121.27244,51.9311],[-121.27237,51.93113],[-121.2723,51.93114],[-121.27221,51.93117],[-121.27213,51.93119],[-121.27194,51.93125],[-121.27174,51.93131],[-121.27165,51.93134],[-121.27155,51.93138],[-121.27139,51.93145],[-121.27127,51.9315],[-121.27119,51.93154],[-121.27113,51.93157],[-121.27096,51.93165],[-121.27087,51.93166],[-121.27079,51.93167],[-121.27069,51.93169],[-121.2706,51.93169],[-121.2705,51.9317],[-121.2704,51.9317],[-121.27029,51.9317],[-121.27019,51.93171],[-121.27009,51.93171],[-121.26997,51.93171],[-121.2699,51.93172],[-121.26975,51.93173],[-121.26957,51.93173],[-121.26947,51.93173],[-121.26937,51.93173],[-121.26914,51.93172],[-121.26904,51.93171],[-121.26885,51.9317],[-121.26865,51.93168],[-121.26842,51.93164],[-121.26817,51.9316],[-121.26796,51.93156],[-121.26785,51.93154],[-121.26764,51.93151],[-121.26742,51.93148],[-121.26732,51.93145],[-121.26712,51.93141],[-121.26701,51.9314],[-121.26689,51.93138],[-121.26675,51.93138],[-121.26665,51.93139],[-121.26657,51.9314],[-121.26649,51.93142],[-121.26641,51.93143],[-121.26635,51.93144],[-121.26625,51.93146],[-121.26619,51.93148],[-121.26604,51.93153],[-121.26587,51.93157],[-121.2657,51.9316],[-121.26562,51.93161],[-121.26553,51.93162],[-121.26537,51.93165],[-121.26525,51.93168],[-121.26512,51.93167],[-121.26501,51.93168],[-121.26484,51.93171],[-121.26475,51.93173],[-121.26461,51.93174],[-121.26449,51.93173],[-121.26437,51.93172],[-121.26424,51.93171],[-121.26412,51.93172],[-121.264,51.93173],[-121.26385,51.93174],[-121.26371,51.93174],[-121.26358,51.93174],[-121.26344,51.93174],[-121.26329,51.93175],[-121.26322,51.93175],[-121.2631,51.93175],[-121.26299,51.93175],[-121.2629,51.93175],[-121.26275,51.93176],[-121.26262,51.93177],[-121.26243,51.93177],[-121.26225,51.93174],[-121.26215,51.93172]]}},
{"type":"Feature","properties":{"spotId":"E-grouse-atv-0080","kind":"ride","km":3.78,"climbM":200,"name":"720 m NE of Timothy Creek","flags":[]},"geometry":{"type":"LineString","coordinates":[[-121.36375,51.92985],[-121.36371,51.92981],[-121.3637,51.92978],[-121.36359,51.92968],[-121.36352,51.9296],[-121.36343,51.9295],[-121.36333,51.92941],[-121.36321,51.9293],[-121.36309,51.92922],[-121.36301,51.92918],[-121.36297,51.92916],[-121.36285,51.9291],[-121.36268,51.92905],[-121.36252,51.92899],[-121.36229,51.92893],[-121.36213,51.92889],[-121.362,51.92884],[-121.36182,51.92878],[-121.36167,51.92873],[-121.36163,51.9287],[-121.36153,51.9286],[-121.3614,51.92852],[-121.36137,51.92849],[-121.36129,51.92834],[-121.36119,51.92826],[-121.36117,51.92824],[-121.36107,51.92816],[-121.36095,51.92809],[-121.36081,51.92799],[-121.36067,51.92788],[-121.36056,51.92778],[-121.36046,51.92769],[-121.36043,51.92766],[-121.36036,51.92757],[-121.36029,51.92747],[-121.36021,51.92737],[-121.36017,51.92733],[-121.36012,51.92728],[-121.36003,51.92719],[-121.3599,51.92708],[-121.35976,51.92699],[-121.35966,51.9269],[-121.35959,51.92685],[-121.35952,51.92681],[-121.35937,51.92672],[-121.35922,51.92663],[-121.3591,51.92657],[-121.35892,51.92648],[-121.35879,51.9264],[-121.3586,51.9263],[-121.35849,51.92623],[-121.35832,51.92612],[-121.35819,51.92604],[-121.35803,51.92596],[-121.35788,51.92588],[-121.35775,51.92581],[-121.35761,51.92572],[-121.35745,51.92563],[-121.35734,51.92555],[-121.35718,51.92546],[-121.35712,51.92543],[-121.35702,51.92537],[-121.35691,51.9253],[-121.35683,51.92522],[-121.35674,51.92512],[-121.35666,51.92503],[-121.35657,51.92495],[-121.3565,51.92488],[-121.35649,51.92478],[-121.35638,51.92467],[-121.35628,51.92456],[-121.35621,51.92446],[-121.3562,51.92444],[-121.35612,51.92432],[-121.35601,51.92412],[-121.35594,51.92399],[-121.35589,51.92388],[-121.35582,51.92375],[-121.35576,51.92363],[-121.35569,51.92353],[-121.35563,51.92344],[-121.35556,51.92333],[-121.35547,51.92319],[-121.35542,51.92308],[-121.35537,51.92298],[-121.35531,51.92287],[-121.35526,51.92276],[-121.35519,51.92264],[-121.35516,51.92255],[-121.35512,51.92245],[-121.35508,51.92236],[-121.35506,51.92227],[-121.35502,51.92218],[-121.35499,51.92209],[-121.35497,51.922],[-121.35495,51.92191],[-121.35493,51.92183],[-121.35487,51.92176],[-121.35471,51.92172],[-121.35454,51.92168],[-121.35441,51.92164],[-121.35425,51.92158],[-121.3541,51.92153],[-121.35394,51.92148],[-121.35381,51.92142],[-121.35362,51.92136],[-121.35341,51.92129],[-121.35326,51.92124],[-121.35309,51.9212],[-121.3529,51.92115],[-121.35271,51.9211],[-121.35257,51.92106],[-121.3524,51.92102],[-121.35223,51.92098],[-121.35205,51.92094],[-121.35189,51.92089],[-121.35176,51.92085],[-121.35159,51.9208],[-121.35145,51.92076],[-121.35129,51.92071],[-121.3511,51.92065],[-121.35092,51.92059],[-121.35074,51.92053],[-121.35057,51.92046],[-121.35044,51.92041],[-121.35027,51.92037],[-121.35016,51.92031],[-121.35001,51.92027],[-121.34987,51.92022],[-121.34974,51.92017],[-121.34955,51.9201],[-121.34939,51.92006],[-121.34918,51.91999],[-121.34892,51.91992],[-121.34862,51.91982],[-121.34842,51.91976],[-121.34822,51.91968],[-121.34804,51.91962],[-121.34784,51.91958],[-121.34771,51.91953],[-121.34757,51.91947],[-121.3474,51.91943],[-121.34722,51.91942],[-121.34706,51.91942],[-121.34691,51.91946],[-121.34674,51.91951],[-121.34661,51.91954],[-121.34658,51.91955],[-121.34643,51.91959],[-121.34637,51.91961],[-121.34627,51.91964],[-121.34609,51.91968],[-121.34589,51.91972],[-121.34576,51.91975],[-121.34555,51.9198],[-121.34537,51.91983],[-121.34518,51.91985],[-121.34502,51.91985],[-121.34484,51.91984],[-121.34465,51.91981],[-121.34449,51.91976],[-121.34432,51.91971],[-121.34419,51.91967],[-121.34404,51.91961],[-121.34392,51.91956],[-121.34374,51.9195],[-121.3436,51.91944],[-121.3434,51.91937],[-121.34327,51.91932],[-121.3431,51.91927],[-121.3429,51.91919],[-121.34277,51.91915],[-121.34264,51.9191],[-121.34249,51.91905],[-121.34234,51.919],[-121.34216,51.91896],[-121.342,51.91892],[-121.34183,51.91888],[-121.34166,51.91884],[-121.34157,51.91884],[-121.34141,51.91885],[-121.34119,51.91884],[-121.34103,51.91882],[-121.34087,51.91882],[-121.34064,51.91881],[-121.34045,51.9188],[-121.34025,51.91879],[-121.34006,51.91876],[-121.33989,51.91874],[-121.33973,51.91873],[-121.33953,51.9187],[-121.33931,51.91867],[-121.33912,51.91863],[-121.33893,51.9186],[-121.33876,51.91857],[-121.33857,51.91855],[-121.33838,51.91851],[-121.33823,51.91847],[-121.33801,51.91842],[-121.33787,51.91839],[-121.33769,51.91836],[-121.3375,51.91833],[-121.33733,51.91829],[-121.33717,51.91826],[-121.33696,51.9182],[-121.33681,51.91817],[-121.33662,51.91812],[-121.33648,51.9181],[-121.33634,51.91807],[-121.33616,51.91805],[-121.33599,51.91802],[-121.33579,51.91799],[-121.33564,51.91797],[-121.33541,51.91793],[-121.33532,51.91793],[-121.33512,51.91793],[-121.33502,51.91794],[-121.33494,51.91795],[-121.33477,51.91795],[-121.33459,51.91798],[-121.33439,51.91801],[-121.33426,51.91804],[-121.33407,51.91806],[-121.33391,51.91809],[-121.33373,51.91813],[-121.33358,51.91815],[-121.33338,51.91819],[-121.33322,51.9182],[-121.33307,51.91824],[-121.33291,51.91825],[-121.33275,51.91825],[-121.33255,51.91825],[-121.33237,51.91824],[-121.33221,51.91824],[-121.33204,51.91825],[-121.33189,51.91825],[-121.33169,51.91828],[-121.3315,51.91829],[-121.33125,51.91832],[-121.33106,51.91832],[-121.3309,51.91833],[-121.33076,51.91833],[-121.33054,51.91833],[-121.33032,51.91832],[-121.33018,51.91832],[-121.33,51.91831],[-121.32984,51.9183],[-121.32965,51.91829],[-121.32944,51.91828],[-121.32928,51.91828],[-121.32909,51.91827],[-121.32893,51.91826],[-121.32871,51.91826],[-121.32855,51.91827],[-121.32836,51.91829],[-121.32814,51.91832],[-121.32798,51.91835],[-121.32783,51.91839],[-121.32766,51.91838],[-121.32747,51.91839],[-121.32731,51.91841],[-121.32726,51.91841],[-121.32718,51.91842],[-121.32715,51.91842],[-121.32699,51.91843],[-121.32681,51.91846],[-121.32664,51.91849],[-121.32645,51.91853],[-121.3263,51.91854],[-121.32614,51.91855],[-121.32594,51.91856],[-121.32575,51.91856],[-121.32556,51.91855],[-121.3254,51.91857],[-121.32521,51.91859],[-121.32506,51.91862],[-121.32491,51.91863],[-121.32471,51.91866],[-121.32452,51.91867],[-121.32437,51.91868],[-121.32423,51.91869],[-121.32402,51.9187],[-121.32386,51.91871],[-121.32366,51.91874],[-121.32347,51.91876],[-121.32329,51.9188],[-121.32313,51.91884],[-121.323,51.91887],[-121.32285,51.91891],[-121.32272,51.91895],[-121.32258,51.91897],[-121.32237,51.91898],[-121.32221,51.91899],[-121.32204,51.919],[-121.32192,51.91908],[-121.32177,51.91909],[-121.32162,51.91911],[-121.32148,51.91913],[-121.32127,51.91916],[-121.32111,51.9192],[-121.32094,51.91924],[-121.32076,51.91927],[-121.3206,51.91929],[-121.32039,51.91933],[-121.32017,51.91939],[-121.32,51.91944],[-121.31981,51.91949],[-121.31973,51.9195],[-121.31966,51.91953],[-121.31948,51.91957],[-121.31931,51.91961],[-121.31917,51.91968],[-121.31908,51.91976],[-121.31898,51.91983],[-121.31885,51.91992],[-121.3188,51.91997],[-121.31875,51.92006]]}},
{"type":"Feature","properties":{"spotId":"E-grouse-drive-0028","kind":"roadside","km":4.73,"climbM":47,"name":"800 m N of Rail Lake rec site","flags":["Route crosses private land (ParcelMap BC, updated 2026-09-22): get permission first or go around."]},"geometry":{"type":"LineString","coordinates":[[-121.46477,51.96019],[-121.46484,51.961],[-121.4649,51.96155],[-121.46491,51.96167],[-121.46495,51.96178],[-121.46507,51.96187],[-121.46539,51.96201],[-121.46582,51.96221],[-121.46584,51.96222],[-121.46606,51.96236],[-121.46633,51.96256],[-121.46645,51.96268],[-121.46654,51.96281],[-121.46668,51.96304],[-121.46672,51.9631],[-121.46685,51.96318],[-121.46702,51.96323],[-121.46721,51.9633],[-121.46742,51.96336],[-121.46763,51.9634],[-121.46787,51.96345],[-121.468,51.96348],[-121.46812,51.96351],[-121.46826,51.96354],[-121.46854,51.96364],[-121.46868,51.96372],[-121.46881,51.96382],[-121.46895,51.96392],[-121.46912,51.96402],[-121.46931,51.96412],[-121.46946,51.96421],[-121.46981,51.96439],[-121.47015,51.96456],[-121.47045,51.96475],[-121.47056,51.96485],[-121.47059,51.96488],[-121.47071,51.96506],[-121.47084,51.96522],[-121.47097,51.96537],[-121.47115,51.96558],[-121.47132,51.96574],[-121.47137,51.96579],[-121.47154,51.96601],[-121.47171,51.96623],[-121.47176,51.96634],[-121.4718,51.96645],[-121.47181,51.9666],[-121.47181,51.96675],[-121.47182,51.96686],[-121.47181,51.96698],[-121.47179,51.96711],[-121.47178,51.96713],[-121.47173,51.96724],[-121.47167,51.96737],[-121.47158,51.96749],[-121.47137,51.96772],[-121.4713,51.96786],[-121.47121,51.96806],[-121.4711,51.96824],[-121.47098,51.96846],[-121.4709,51.9686],[-121.47079,51.96873],[-121.47069,51.96886],[-121.47048,51.96907],[-121.47037,51.9692],[-121.47026,51.96932],[-121.47011,51.96952],[-121.47002,51.96965],[-121.46988,51.96989],[-121.46982,51.97001],[-121.46977,51.97016],[-121.46971,51.9703],[-121.46963,51.97045],[-121.46954,51.9706],[-121.4694,51.97077],[-121.46925,51.97094],[-121.46916,51.97106],[-121.46896,51.97125],[-121.46877,51.97142],[-121.46857,51.97158],[-121.46832,51.97179],[-121.46808,51.97198],[-121.46794,51.97214],[-121.46783,51.97231],[-121.46774,51.97249],[-121.46758,51.97285],[-121.46752,51.97298],[-121.46747,51.97312],[-121.46745,51.97328],[-121.46742,51.97344],[-121.46735,51.97358],[-121.4673,51.97371],[-121.46721,51.9739],[-121.46716,51.97402],[-121.46713,51.97408],[-121.46707,51.9743],[-121.467,51.97441],[-121.46693,51.97457],[-121.46686,51.97473],[-121.4668,51.97489],[-121.46675,51.97504],[-121.4667,51.97518],[-121.46668,51.97532],[-121.46668,51.97545],[-121.46666,51.97556],[-121.46664,51.97567],[-121.4666,51.97593],[-121.46657,51.97602],[-121.46654,51.97619],[-121.46648,51.97639],[-121.46645,51.97652],[-121.46641,51.9766],[-121.46639,51.97664],[-121.46636,51.97678],[-121.46626,51.97698],[-121.46621,51.97711],[-121.46614,51.97723],[-121.46606,51.97735],[-121.46597,51.97747],[-121.46588,51.97761],[-121.4658,51.97776],[-121.46572,51.97792],[-121.46566,51.97803],[-121.46556,51.97819],[-121.46544,51.97849],[-121.46541,51.97854],[-121.46534,51.97866],[-121.46528,51.97874],[-121.46527,51.97878],[-121.46519,51.97892],[-121.4651,51.97907],[-121.46504,51.97911],[-121.46495,51.97921],[-121.46478,51.97943],[-121.46469,51.97954],[-121.46449,51.97977],[-121.46435,51.97995],[-121.46428,51.98007],[-121.46422,51.98015],[-121.46409,51.98034],[-121.46402,51.98048],[-121.46394,51.98063],[-121.46389,51.98076],[-121.46383,51.98087],[-121.46375,51.981],[-121.46367,51.98111],[-121.46367,51.98132],[-121.4638,51.9815],[-121.46396,51.98165],[-121.46417,51.98184],[-121.46433,51.98197],[-121.46447,51.98208],[-121.46463,51.98219],[-121.46493,51.9824],[-121.46518,51.9826],[-121.46541,51.98279],[-121.4657,51.98309],[-121.46587,51.9833],[-121.46605,51.98352],[-121.46622,51.98379],[-121.46631,51.98393],[-121.46656,51.98437],[-121.46674,51.98459],[-121.46681,51.9847],[-121.46687,51.98483],[-121.46689,51.985],[-121.4669,51.98516],[-121.46692,51.98542],[-121.46693,51.9856],[-121.46694,51.98577],[-121.46695,51.98591],[-121.46697,51.98606],[-121.46698,51.98619],[-121.46697,51.98649],[-121.46695,51.98664],[-121.46692,51.98677],[-121.4669,51.98692],[-121.46686,51.98715],[-121.46684,51.98729],[-121.46681,51.98743],[-121.46679,51.98756],[-121.46674,51.98771],[-121.46665,51.98785],[-121.46654,51.98799],[-121.46646,51.98814],[-121.4664,51.9883],[-121.46638,51.98841],[-121.46637,51.98851],[-121.46642,51.98873],[-121.46643,51.98887],[-121.46642,51.98896],[-121.46628,51.98929],[-121.46627,51.9893],[-121.46579,51.98983],[-121.46575,51.98989],[-121.46557,51.9902],[-121.46544,51.99062],[-121.46536,51.99084],[-121.46525,51.99118],[-121.46533,51.99145],[-121.46549,51.99208],[-121.46552,51.99252],[-121.4658,51.99328],[-121.46581,51.99353],[-121.46569,51.99398],[-121.46568,51.99429],[-121.4658,51.99558],[-121.46593,51.99584],[-121.46629,51.99621],[-121.46637,51.9963],[-121.46652,51.99653],[-121.4666,51.99692],[-121.46684,51.998],[-121.46682,51.99811],[-121.46674,51.99852],[-121.46659,51.99868],[-121.46649,51.99879]]}},
{"type":"Feature","properties":{"spotId":"E-grouse-drive-0064","kind":"roadside","km":3.33,"climbM":16,"name":"1.9 km SW of Spout Lake","flags":[]},"geometry":{"type":"LineString","coordinates":[[-121.46642,51.98896],[-121.46697,51.98901],[-121.4673,51.98903],[-121.46826,51.98904],[-121.46873,51.98909],[-121.46995,51.98924],[-121.4704,51.98929],[-121.47089,51.98933],[-121.47128,51.98943],[-121.47161,51.98957],[-121.47221,51.98993],[-121.47254,51.99004],[-121.47297,51.9901],[-121.474,51.99016],[-121.47531,51.99023],[-121.47557,51.99029],[-121.47606,51.99039],[-121.47641,51.99042],[-121.47734,51.99035],[-121.47751,51.99034],[-121.47838,51.99024],[-121.47907,51.99011],[-121.4804,51.98983],[-121.48115,51.98977],[-121.48141,51.98971],[-121.48255,51.98943],[-121.48284,51.98936],[-121.48392,51.98919],[-121.4845,51.98911],[-121.48509,51.98888],[-121.48557,51.98871],[-121.4857,51.98869],[-121.48622,51.98862],[-121.48656,51.98866],[-121.4872,51.98879],[-121.48751,51.98881],[-121.48764,51.98882],[-121.48788,51.98883],[-121.48808,51.98884],[-121.48824,51.98886],[-121.48846,51.98888],[-121.48866,51.98889],[-121.48886,51.98889],[-121.48912,51.98888],[-121.4893,51.98888],[-121.48955,51.98887],[-121.48975,51.98886],[-121.48996,51.98884],[-121.49021,51.98882],[-121.49044,51.9888],[-121.49078,51.98871],[-121.49113,51.98865],[-121.49136,51.98861],[-121.49161,51.98858],[-121.49188,51.98856],[-121.49215,51.98855],[-121.49243,51.98856],[-121.49269,51.98859],[-121.49292,51.98862],[-121.49314,51.98866],[-121.49336,51.98867],[-121.49358,51.98868],[-121.49407,51.98873],[-121.49426,51.98875],[-121.49445,51.98877],[-121.49462,51.98879],[-121.49491,51.98881],[-121.495,51.98882],[-121.49526,51.98886],[-121.4957,51.9889],[-121.49587,51.98892],[-121.49606,51.98895],[-121.49628,51.98899],[-121.49651,51.98904],[-121.49674,51.98907],[-121.49685,51.98908],[-121.49696,51.9891],[-121.49713,51.98913],[-121.49732,51.98917],[-121.49749,51.9892],[-121.49768,51.98924],[-121.49785,51.98925],[-121.49804,51.98927],[-121.49824,51.98932],[-121.49846,51.98937],[-121.49866,51.98941],[-121.49888,51.98945],[-121.49914,51.9895],[-121.49942,51.98954],[-121.49962,51.98959],[-121.49982,51.98962],[-121.50004,51.98964],[-121.50027,51.98965],[-121.50049,51.98966],[-121.50071,51.98966],[-121.50109,51.98969],[-121.5012,51.98969],[-121.50144,51.9897],[-121.50168,51.98972],[-121.50186,51.98977],[-121.50204,51.98982],[-121.5022,51.98985],[-121.50225,51.98986],[-121.50245,51.98992],[-121.50267,51.98997],[-121.50288,51.99001],[-121.5031,51.99007],[-121.50332,51.99013],[-121.50359,51.99015],[-121.50385,51.99017],[-121.50404,51.99019],[-121.50423,51.9902],[-121.50443,51.99023],[-121.50465,51.99025],[-121.50506,51.99026],[-121.50526,51.99024],[-121.50548,51.99024],[-121.50567,51.99024],[-121.50585,51.99023],[-121.50621,51.99024],[-121.50641,51.99021],[-121.5066,51.9902],[-121.50684,51.99018],[-121.50709,51.99017],[-121.50728,51.99015],[-121.50748,51.99014],[-121.50771,51.9901],[-121.50795,51.99005],[-121.50814,51.99002],[-121.5083,51.99],[-121.50833,51.99],[-121.50853,51.99],[-121.50874,51.99],[-121.50896,51.99002],[-121.50919,51.99004],[-121.5096,51.99005],[-121.50986,51.99002],[-121.50999,51.99002],[-121.51014,51.99],[-121.51034,51.98999],[-121.51054,51.98998],[-121.51078,51.98997],[-121.511,51.98993],[-121.5112,51.98987],[-121.51139,51.98981],[-121.5116,51.98975],[-121.51181,51.98968],[-121.51203,51.98963],[-121.51226,51.98959],[-121.51247,51.98953],[-121.51267,51.98947],[-121.51292,51.98941],[-121.51316,51.98935],[-121.51325,51.98934]]}},
{"type":"Feature","properties":{"spotId":"E-moose-atv-0044","kind":"ride","km":1.79,"climbM":17,"name":"3.2 km N of Fly Lake rec site","flags":[]},"geometry":{"type":"LineString","coordinates":[[-121.30141,51.93613],[-121.30134,51.93613],[-121.30115,51.93616],[-121.301,51.93618],[-121.30084,51.93621],[-121.30069,51.93625],[-121.30055,51.93628],[-121.30041,51.93628],[-121.30034,51.9362],[-121.30025,51.93608],[-121.30013,51.93596],[-121.29995,51.93586],[-121.29975,51.93577],[-121.29942,51.93559],[-121.29935,51.93557],[-121.29914,51.93547],[-121.29909,51.93545],[-121.29891,51.9354],[-121.2987,51.93536],[-121.29852,51.93533],[-121.29817,51.93525],[-121.29798,51.93521],[-121.29781,51.93518],[-121.29762,51.93516],[-121.29739,51.93515],[-121.29716,51.93513],[-121.29692,51.9351],[-121.29688,51.93509],[-121.29684,51.93508],[-121.29671,51.93506],[-121.29646,51.93502],[-121.29622,51.93497],[-121.29599,51.93491],[-121.29575,51.93485],[-121.29554,51.93482],[-121.29531,51.9348],[-121.2951,51.93477],[-121.29492,51.93473],[-121.29469,51.93467],[-121.29447,51.93461],[-121.29425,51.93455],[-121.29404,51.93448],[-121.29382,51.93443],[-121.29362,51.93436],[-121.29348,51.93425],[-121.29338,51.93413],[-121.29327,51.93402],[-121.29316,51.9339],[-121.29313,51.93384],[-121.29309,51.93375],[-121.29305,51.9336],[-121.29296,51.93341],[-121.29295,51.93336],[-121.29293,51.93332],[-121.29286,51.93322],[-121.29277,51.9331],[-121.29265,51.93297],[-121.2926,51.93284],[-121.29253,51.93272],[-121.29244,51.9326],[-121.29221,51.93239],[-121.2921,51.93229],[-121.29197,51.93219],[-121.29185,51.93208],[-121.29176,51.93197],[-121.29172,51.93188],[-121.29167,51.93179],[-121.29166,51.93163],[-121.29175,51.93152],[-121.29188,51.93142],[-121.29202,51.93133],[-121.29229,51.93114],[-121.29239,51.93102],[-121.29249,51.93087],[-121.29255,51.93072],[-121.29257,51.93059],[-121.29256,51.93048],[-121.29245,51.93022],[-121.29243,51.93011],[-121.29242,51.92998],[-121.29243,51.92959],[-121.29241,51.92942],[-121.29235,51.9292],[-121.29229,51.92907],[-121.29224,51.92892],[-121.2922,51.92876],[-121.29219,51.92862],[-121.2922,51.92848],[-121.29219,51.92833],[-121.29216,51.92812],[-121.29203,51.928],[-121.29186,51.92789],[-121.29163,51.92767],[-121.29158,51.92758],[-121.29147,51.9274],[-121.29137,51.92728],[-121.29126,51.92716],[-121.29122,51.92709],[-121.29116,51.92703],[-121.29111,51.9269],[-121.29109,51.92678],[-121.29108,51.92666],[-121.29105,51.92653],[-121.29104,51.92638],[-121.29103,51.92622],[-121.29102,51.92613],[-121.29106,51.92593],[-121.29111,51.92582],[-121.29116,51.92566],[-121.29125,51.92551],[-121.29143,51.92531],[-121.29163,51.9251],[-121.29175,51.92499],[-121.2919,51.9248],[-121.29203,51.9246],[-121.29209,51.92454]]}},
{"type":"Feature","properties":{"spotId":"E-moose-atv-0044","kind":"walk","km":0.3,"climbM":0,"name":"3.2 km N of Fly Lake rec site","flags":[]},"geometry":{"type":"LineString","coordinates":[[-121.30141,51.93613],[-121.3055,51.93506]]}},
{"type":"Feature","properties":{"spotId":"E-moose-atv-0046","kind":"ride","km":1.76,"climbM":27,"name":"1.3 km NW of Westman Creek","flags":[]},"geometry":{"type":"LineString","coordinates":[[-121.26994,51.93168],[-121.27,51.93168],[-121.27024,51.93169],[-121.27026,51.93169],[-121.27042,51.93168],[-121.27065,51.93167],[-121.2708,51.93171],[-121.27096,51.93162],[-121.27117,51.93153],[-121.27131,51.93147],[-121.27149,51.9314],[-121.27165,51.93133],[-121.27167,51.93132],[-121.27168,51.93131],[-121.27189,51.93124],[-121.27207,51.93119],[-121.27226,51.93115],[-121.27248,51.93111],[-121.27268,51.93107],[-121.27292,51.931],[-121.27314,51.93093],[-121.27352,51.93079],[-121.27388,51.9307],[-121.27413,51.93062],[-121.27423,51.93059],[-121.27429,51.93057],[-121.27438,51.93054],[-121.27471,51.93044],[-121.27491,51.93038],[-121.27507,51.93034],[-121.27508,51.93034],[-121.27511,51.93033],[-121.27545,51.93025],[-121.27567,51.93019],[-121.27588,51.93013],[-121.27623,51.93],[-121.27644,51.92995],[-121.27664,51.92991],[-121.27686,51.92989],[-121.27721,51.92983],[-121.27747,51.92979],[-121.27771,51.92976],[-121.27791,51.92972],[-121.27812,51.9297],[-121.27837,51.92968],[-121.27856,51.92966],[-121.2788,51.9296],[-121.27914,51.92953],[-121.27932,51.92949],[-121.27942,51.92948],[-121.27952,51.92945],[-121.27985,51.92931],[-121.28029,51.92923],[-121.28048,51.9292],[-121.28065,51.92916],[-121.28073,51.92914],[-121.28098,51.92906],[-121.2812,51.92901],[-121.28154,51.92892],[-121.28155,51.92892],[-121.2818,51.92885],[-121.28212,51.92877],[-121.28234,51.92872],[-121.28255,51.92867],[-121.28274,51.92862],[-121.2829,51.92856],[-121.2832,51.92839],[-121.28332,51.92832],[-121.28337,51.92814],[-121.28369,51.92801],[-121.28393,51.92792],[-121.28417,51.92785],[-121.28455,51.92773],[-121.28473,51.92767],[-121.28498,51.9276],[-121.28549,51.92746],[-121.2858,51.92738],[-121.28605,51.92733],[-121.28619,51.9273],[-121.28621,51.9273],[-121.28622,51.92729],[-121.28649,51.92716],[-121.28679,51.92697],[-121.28712,51.92677],[-121.28741,51.92662],[-121.28771,51.92644],[-121.28773,51.92643],[-121.28789,51.92634],[-121.28808,51.92627],[-121.28829,51.92619],[-121.28848,51.92611],[-121.28867,51.92604],[-121.28886,51.92599],[-121.28922,51.92587],[-121.28957,51.92571],[-121.28991,51.92556],[-121.29024,51.92538],[-121.29043,51.92528],[-121.29079,51.92511],[-121.29111,51.92495],[-121.29145,51.9248],[-121.29189,51.92464],[-121.29203,51.9246],[-121.29209,51.92454]]}},
{"type":"Feature","properties":{"spotId":"E-moose-atv-0046","kind":"walk","km":0.18,"climbM":0,"name":"1.3 km NW of Westman Creek","flags":[]},"geometry":{"type":"LineString","coordinates":[[-121.26994,51.93168],[-121.27001,51.93007]]}},
{"type":"Feature","properties":{"spotId":"E-moose-drive-0037","kind":"walk","km":0.17,"climbM":3,"name":"190 m N of Rail Creek","flags":[]},"geometry":{"type":"LineString","coordinates":[[-121.45311,51.93934],[-121.45095,51.94002]]}},
{"type":"Feature","properties":{"spotId":"E-moose-drive-0039","kind":"walk","km":0.04,"climbM":0,"name":"2.3 km NE of Fly Lake rec site","flags":[]},"geometry":{"type":"LineString","coordinates":[[-121.29343,51.92384],[-121.29313,51.92348]]}},
{"type":"Feature","properties":{"spotId":"E-moose-walk-0023","kind":"walk","km":0.35,"climbM":2,"name":"780 m SW of Rail Lake","flags":[]},"geometry":{"type":"LineString","coordinates":[[-121.4694,51.93242],[-121.47256,51.92994]]}},
{"type":"Feature","properties":{"spotId":"E-moose-walk-0024","kind":"walk","km":0.7,"climbM":0,"name":"By Timothy Creek","flags":[]},"geometry":{"type":"LineString","coordinates":[[-121.36731,51.92925],[-121.36837,51.92297]]}},
{"type":"Feature","properties":{"spotId":"E-moose-walk-0076","kind":"walk","km":0.79,"climbM":3,"name":"1.5 km E of Rail Lake","flags":[]},"geometry":{"type":"LineString","coordinates":[[-121.44036,51.94702],[-121.44028,51.94685],[-121.44023,51.94671],[-121.44018,51.9466],[-121.44011,51.94649],[-121.44008,51.94639],[-121.44004,51.94628],[-121.44,51.94619],[-121.43997,51.9461],[-121.43993,51.94598],[-121.4399,51.94587],[-121.43981,51.94572],[-121.43976,51.94564],[-121.43619,51.94039]]}},
{"type":"Feature","properties":{"spotId":"E-moose-walk-0077","kind":"walk","km":1.86,"climbM":20,"name":"900 m NW of Westman Creek","flags":[]},"geometry":{"type":"LineString","coordinates":[[-121.29209,51.92454],[-121.26562,51.92807]]}}
]}
