{"type":"FeatureCollection","features":[
{"type":"Feature","properties":{"spotId":"E-camp-camp-0046","kind":"walk","km":0.01,"climbM":0,"name":"4.5 km N of Gustafsen Lake","flags":[]},"geometry":{"type":"LineString","coordinates":[[-121.73482,51.59225],[-121.73462,51.59226]]}},
{"type":"Feature","properties":{"spotId":"E-camp-camp-0048","kind":"walk","km":0.04,"climbM":0,"name":"840 m SW of Neilson Lake","flags":[]},"geometry":{"type":"LineString","coordinates":[[-121.69898,51.51897],[-121.69836,51.51897]]}},
{"type":"Feature","properties":{"spotId":"E-deer-atv-0103","kind":"ride","km":3.31,"climbM":34,"name":"1.5 km SW of Gustafsen Lake","flags":[]},"geometry":{"type":"LineString","coordinates":[[-121.73826,51.5269],[-121.73814,51.52682],[-121.73801,51.52676],[-121.73787,51.5267],[-121.73773,51.52667],[-121.7376,51.52663],[-121.73744,51.52659],[-121.73731,51.52656],[-121.73717,51.52653],[-121.73701,51.5265],[-121.73687,51.52646],[-121.73673,51.52642],[-121.7366,51.52638],[-121.73644,51.52636],[-121.7363,51.52633],[-121.73614,51.52629],[-121.73601,51.52626],[-121.73588,51.52621],[-121.73587,51.52621],[-121.73577,51.52615],[-121.73568,51.52607],[-121.7356,51.52599],[-121.73551,51.52591],[-121.73543,51.52584],[-121.73533,51.52576],[-121.73525,51.52569],[-121.73518,51.5256],[-121.73511,51.5255],[-121.73508,51.52541],[-121.73507,51.52532],[-121.73507,51.52523],[-121.73507,51.52514],[-121.73506,51.52505],[-121.73507,51.52496],[-121.73507,51.52487],[-121.73507,51.52477],[-121.73507,51.52468],[-121.73508,51.52459],[-121.73508,51.5245],[-121.73505,51.5244],[-121.735,51.5243],[-121.73496,51.52421],[-121.73489,51.52412],[-121.73482,51.52403],[-121.73475,51.52395],[-121.73465,51.52386],[-121.73454,51.52379],[-121.73449,51.52378],[-121.73445,51.52375],[-121.73434,51.52369],[-121.73424,51.52363],[-121.73412,51.52356],[-121.73401,51.5235],[-121.7339,51.52344],[-121.73378,51.52337],[-121.73367,51.52331],[-121.73356,51.52326],[-121.73343,51.52319],[-121.73331,51.52314],[-121.7332,51.52308],[-121.73307,51.52302],[-121.73294,51.52295],[-121.73283,51.52288],[-121.73272,51.52282],[-121.73262,51.52274],[-121.73252,51.52266],[-121.73244,51.52259],[-121.73234,51.52252],[-121.73224,51.52243],[-121.73214,51.52236],[-121.73207,51.52229],[-121.73199,51.52221],[-121.73191,51.52213],[-121.73182,51.52206],[-121.7317,51.52201],[-121.73159,51.52195],[-121.73146,51.52189],[-121.73133,51.52183],[-121.7312,51.52178],[-121.73106,51.52172],[-121.73093,51.52167],[-121.73088,51.52167],[-121.73077,51.52167],[-121.73073,51.52167],[-121.73057,51.52167],[-121.73043,51.5217],[-121.73027,51.52173],[-121.73014,51.52176],[-121.72998,51.52178],[-121.72981,51.52178],[-121.72966,51.52177],[-121.7295,51.52174],[-121.72936,51.52173],[-121.7292,51.52171],[-121.72904,51.52168],[-121.7289,51.52166],[-121.72874,51.52165],[-121.7286,51.52163],[-121.72844,51.52162],[-121.72828,51.5216],[-121.72813,51.52157],[-121.72797,51.52155],[-121.72782,51.52153],[-121.72767,51.52151],[-121.72752,51.52148],[-121.72748,51.52147],[-121.72738,51.52144],[-121.72725,51.5214],[-121.72712,51.52135],[-121.72698,51.52131],[-121.72687,51.52124],[-121.72674,51.5212],[-121.72661,51.52115],[-121.72648,51.52111],[-121.72634,51.52107],[-121.72622,51.52101],[-121.72608,51.52095],[-121.72597,51.5209],[-121.72584,51.52085],[-121.72571,51.52081],[-121.72557,51.52076],[-121.72545,51.52072],[-121.72533,51.52067],[-121.7252,51.52062],[-121.72507,51.52057],[-121.72495,51.52051],[-121.72484,51.52045],[-121.7248,51.52042],[-121.72473,51.52038],[-121.72463,51.52031],[-121.72453,51.52023],[-121.72443,51.52015],[-121.72433,51.52007],[-121.72423,51.51999],[-121.72415,51.51992],[-121.72405,51.51985],[-121.72395,51.51977],[-121.72387,51.51969],[-121.72377,51.51961],[-121.72369,51.51953],[-121.7236,51.51945],[-121.72352,51.51936],[-121.72345,51.51928],[-121.72336,51.5192],[-121.72326,51.51913],[-121.72317,51.51905],[-121.72307,51.51898],[-121.72298,51.51891],[-121.72291,51.51883],[-121.72283,51.51874],[-121.72276,51.51866],[-121.7227,51.51857],[-121.72265,51.51851],[-121.72263,51.51849],[-121.72259,51.5184],[-121.72255,51.51832],[-121.72253,51.51822],[-121.72248,51.51814],[-121.72243,51.51805],[-121.72237,51.51796],[-121.72232,51.51788],[-121.72225,51.51779],[-121.72218,51.5177],[-121.7221,51.51762],[-121.72203,51.51754],[-121.72196,51.51746],[-121.72189,51.51738],[-121.7218,51.51729],[-121.72172,51.5172],[-121.72163,51.51712],[-121.72156,51.51705],[-121.72148,51.51696],[-121.72138,51.51689],[-121.7213,51.51681],[-121.7212,51.51673],[-121.72111,51.51665],[-121.72103,51.51656],[-121.72096,51.51647],[-121.72089,51.51639],[-121.72081,51.5163],[-121.72072,51.51622],[-121.72065,51.51614],[-121.72058,51.51606],[-121.7205,51.51598],[-121.72043,51.5159],[-121.72036,51.51581],[-121.72032,51.51578],[-121.72025,51.51569],[-121.72018,51.51561],[-121.72011,51.51553],[-121.72002,51.51544],[-121.71994,51.51535],[-121.71987,51.51527],[-121.7198,51.51518],[-121.71973,51.5151],[-121.71966,51.51501],[-121.71961,51.51493],[-121.71954,51.51484],[-121.71945,51.51476],[-121.71937,51.51468],[-121.71928,51.51459],[-121.7192,51.51451],[-121.71911,51.51443],[-121.71905,51.51435],[-121.71896,51.51427],[-121.71888,51.5142],[-121.71881,51.51411],[-121.71872,51.51403],[-121.71865,51.51394],[-121.71857,51.51386],[-121.7185,51.51378],[-121.71843,51.51369],[-121.71835,51.51361],[-121.71828,51.51352],[-121.71821,51.51344],[-121.71814,51.51336],[-121.71807,51.51328],[-121.71798,51.5132],[-121.71791,51.51311],[-121.71784,51.51303],[-121.71779,51.51294],[-121.71772,51.51286],[-121.71765,51.51278],[-121.71758,51.5127],[-121.71749,51.51262],[-121.7174,51.51254],[-121.71731,51.51246],[-121.71724,51.51238],[-121.71716,51.5123],[-121.71707,51.51222],[-121.717,51.51213],[-121.71692,51.51205],[-121.7169,51.51204],[-121.71685,51.51197],[-121.71676,51.5119],[-121.71668,51.51183],[-121.7166,51.51174],[-121.7165,51.51167],[-121.71641,51.5116],[-121.71633,51.51152],[-121.71626,51.51143],[-121.71618,51.51134],[-121.71609,51.51126],[-121.71602,51.51119],[-121.71592,51.51111],[-121.71584,51.51102],[-121.71577,51.51094],[-121.71567,51.51086],[-121.71559,51.51079],[-121.71549,51.51072],[-121.71537,51.51065],[-121.71526,51.51059],[-121.7151,51.51054],[-121.71496,51.51052],[-121.71482,51.51049],[-121.71467,51.51048],[-121.71451,51.51048],[-121.71435,51.51048],[-121.7142,51.51046],[-121.71404,51.51044],[-121.7139,51.51042],[-121.71375,51.5104],[-121.71359,51.51037],[-121.71345,51.51034],[-121.71329,51.5103],[-121.71314,51.51027],[-121.71298,51.51024],[-121.71283,51.51022],[-121.71268,51.51022],[-121.71252,51.51022],[-121.71237,51.51021],[-121.71223,51.51021],[-121.71209,51.51021],[-121.71207,51.51021],[-121.71191,51.5102],[-121.71186,51.51018],[-121.71173,51.51013],[-121.71161,51.51008],[-121.71147,51.51001],[-121.71134,51.50996],[-121.71121,51.50991],[-121.71106,51.50988],[-121.7109,51.50983],[-121.71076,51.5098],[-121.7106,51.50979],[-121.71044,51.50979],[-121.71027,51.50979],[-121.71011,51.50982],[-121.70996,51.50985],[-121.70982,51.50987],[-121.70964,51.5099],[-121.7095,51.50992],[-121.70934,51.50993],[-121.7092,51.50994],[-121.70904,51.50993],[-121.70889,51.50992],[-121.70879,51.5099],[-121.70865,51.50986],[-121.70852,51.50981],[-121.7084,51.50975],[-121.70828,51.5097],[-121.70824,51.50968],[-121.70815,51.50964],[-121.70804,51.50958],[-121.70792,51.50956],[-121.70784,51.50955],[-121.70768,51.50955],[-121.70754,51.50955],[-121.70739,51.50957],[-121.70723,51.50958],[-121.70709,51.50959],[-121.70705,51.50959],[-121.70693,51.50959],[-121.70679,51.50958],[-121.70664,51.50956],[-121.70648,51.50954],[-121.70633,51.50952],[-121.70618,51.50949],[-121.7061,51.50948],[-121.70604,51.50947],[-121.7059,51.50945],[-121.70574,51.5094],[-121.7056,51.50936],[-121.70547,51.50931],[-121.70534,51.50926],[-121.70528,51.50925]]}},
{"type":"Feature","properties":{"spotId":"E-deer-atv-0103","kind":"walk","km":0.27,"climbM":2,"name":"1.5 km SW of Gustafsen Lake","flags":[]},"geometry":{"type":"LineString","coordinates":[[-121.73826,51.5269],[-121.74131,51.52541]]}},
{"type":"Feature","properties":{"spotId":"E-deer-atv-0134","kind":"ride","km":5.69,"climbM":68,"name":"190 m S of Dog Creek","flags":[]},"geometry":{"type":"MultiLineString","coordinates":[[[-121.75552,51.54087],[-121.75554,51.54082],[-121.75558,51.54064],[-121.75562,51.54051],[-121.75563,51.5404],[-121.75567,51.5402],[-121.75572,51.53998],[-121.75582,51.53981],[-121.75597,51.53964],[-121.756,51.5396],[-121.75605,51.53947],[-121.75612,51.53926],[-121.75614,51.53916],[-121.75615,51.53907],[-121.75615,51.53887],[-121.75621,51.53871],[-121.75623,51.53867],[-121.7563,51.53858],[-121.75649,51.53841],[-121.75658,51.53837],[-121.75667,51.53828],[-121.75672,51.53826],[-121.75682,51.53808],[-121.75685,51.53791],[-121.75693,51.53772],[-121.75702,51.53765],[-121.75725,51.53758],[-121.75754,51.53752],[-121.75788,51.53746],[-121.75807,51.53738],[-121.75811,51.53734],[-121.7583,51.53718],[-121.75847,51.53701],[-121.7587,51.53691],[-121.75873,51.53688],[-121.75886,51.53683],[-121.75912,51.53671],[-121.75947,51.53669],[-121.75976,51.53668],[-121.75999,51.53672],[-121.76033,51.53671],[-121.76058,51.53656],[-121.76083,51.53644],[-121.76098,51.53636],[-121.76121,51.53626],[-121.76147,51.53613],[-121.76178,51.53602],[-121.76201,51.53589],[-121.76225,51.53578],[-121.76238,51.53571],[-121.76257,51.53555],[-121.76267,51.53552],[-121.7628,51.53545],[-121.76286,51.53537],[-121.76287,51.53526],[-121.76287,51.53507],[-121.76286,51.53499],[-121.76288,51.53492],[-121.76288,51.53471],[-121.76289,51.53453],[-121.76291,51.53435],[-121.76294,51.53416],[-121.76297,51.53412],[-121.76303,51.53393],[-121.76308,51.53373],[-121.76316,51.53354],[-121.76319,51.53351],[-121.76322,51.53355],[-121.76347,51.53368],[-121.76367,51.53384],[-121.76388,51.53398],[-121.76409,51.53414],[-121.76421,51.53425],[-121.76448,51.53443],[-121.76452,51.53444],[-121.76456,51.53447],[-121.76465,51.53449],[-121.76497,51.53468],[-121.76502,51.53473],[-121.76521,51.53493],[-121.76528,51.53502],[-121.76545,51.53518],[-121.76562,51.53537],[-121.7658,51.53553],[-121.76593,51.53562],[-121.76613,51.53565],[-121.76639,51.53577],[-121.76658,51.53592],[-121.76661,51.53594],[-121.76674,51.536],[-121.76678,51.53602],[-121.76681,51.53605],[-121.76708,51.53615],[-121.76735,51.53625],[-121.76744,51.53627],[-121.7677,51.53632],[-121.76778,51.53635],[-121.76787,51.53638],[-121.768,51.53641],[-121.76813,51.53648],[-121.76817,51.53649],[-121.76824,51.53654],[-121.76828,51.53655],[-121.76831,51.53658],[-121.76855,51.53666],[-121.76888,51.53677],[-121.76914,51.53686],[-121.76947,51.53693],[-121.76979,51.53697],[-121.76983,51.53697],[-121.76996,51.53698],[-121.7703,51.53698],[-121.77035,51.53698],[-121.77066,51.53698],[-121.77097,51.53696],[-121.77132,51.53685],[-121.77159,51.53676],[-121.77177,51.53672],[-121.77194,51.53672],[-121.77191,51.53678],[-121.77189,51.53688],[-121.77185,51.53696],[-121.7718,51.53705],[-121.77176,51.53714],[-121.7717,51.53726],[-121.77165,51.53736],[-121.77159,51.53747],[-121.77153,51.53758],[-121.77145,51.53772],[-121.77142,51.53782],[-121.77139,51.53793],[-121.77137,51.53807],[-121.77135,51.53826],[-121.77133,51.53836],[-121.7713,51.53847],[-121.77127,51.53856],[-121.77122,51.5387],[-121.77119,51.53882],[-121.77113,51.53893],[-121.77106,51.53903],[-121.77098,51.53912],[-121.77097,51.53914],[-121.77091,51.5392],[-121.77085,51.53929],[-121.77082,51.53934],[-121.77083,51.53935],[-121.77081,51.53945],[-121.77084,51.53957],[-121.77087,51.53961],[-121.77101,51.5397],[-121.77102,51.53971],[-121.77114,51.53977],[-121.77129,51.53986],[-121.77144,51.53994],[-121.77161,51.54003],[-121.77173,51.54009],[-121.77189,51.54017],[-121.772,51.54023],[-121.77216,51.54029],[-121.77218,51.5403],[-121.77232,51.54036],[-121.77245,51.5404],[-121.77262,51.54044],[-121.77279,51.54049],[-121.77293,51.54053],[-121.77309,51.54057],[-121.77326,51.5406],[-121.77328,51.5406],[-121.77342,51.54064],[-121.77362,51.54068],[-121.77377,51.54071],[-121.77397,51.54075],[-121.77415,51.54079],[-121.77434,51.54085],[-121.77438,51.54086],[-121.7746,51.54093],[-121.77492,51.54103],[-121.77505,51.54108],[-121.77521,51.54113],[-121.77522,51.54113],[-121.77543,51.54119],[-121.77561,51.54127],[-121.77577,51.54135],[-121.77587,51.54145],[-121.77593,51.54156],[-121.776,51.54167],[-121.77604,51.5418],[-121.77604,51.5419],[-121.77604,51.54204],[-121.77603,51.54214],[-121.77603,51.54229],[-121.77604,51.54239],[-121.77604,51.54251],[-121.77603,51.54265],[-121.77603,51.54276],[-121.77603,51.54289],[-121.77604,51.543],[-121.77604,51.54317],[-121.77603,51.54329],[-121.77603,51.54342],[-121.77607,51.54364],[-121.77609,51.54374],[-121.77614,51.54393],[-121.77614,51.54406],[-121.77615,51.54419],[-121.77615,51.54431],[-121.77615,51.54441],[-121.77614,51.54451],[-121.77614,51.54462],[-121.77617,51.54475],[-121.77619,51.54487],[-121.77623,51.54496],[-121.77629,51.54508],[-121.77633,51.54519],[-121.77637,51.54529],[-121.77639,51.54538],[-121.77643,51.5455],[-121.77647,51.54565],[-121.77654,51.54578],[-121.7766,51.54586],[-121.77665,51.54595],[-121.77672,51.54603],[-121.77676,51.54613],[-121.77676,51.54623],[-121.77676,51.54637],[-121.77677,51.54646],[-121.77677,51.54656],[-121.77676,51.54666],[-121.77676,51.54679],[-121.77676,51.54688],[-121.77677,51.54701],[-121.77681,51.54715],[-121.77681,51.54716],[-121.77686,51.54729],[-121.77692,51.54739],[-121.77699,51.54751],[-121.77705,51.54764],[-121.77707,51.54776],[-121.77708,51.54786],[-121.77709,51.54797],[-121.77713,51.54809],[-121.77717,51.54819],[-121.77723,51.54828],[-121.77728,51.54841],[-121.77731,51.5485],[-121.77735,51.54863],[-121.77739,51.54873],[-121.77743,51.54882],[-121.77748,51.54895],[-121.77752,51.54907],[-121.77756,51.5492],[-121.77756,51.54929],[-121.77757,51.54939],[-121.77757,51.54949],[-121.77756,51.54959],[-121.77756,51.54972],[-121.77752,51.54983],[-121.77743,51.54992],[-121.77734,51.55001],[-121.77729,51.55004],[-121.77723,51.5501],[-121.77717,51.55016],[-121.77712,51.5502],[-121.77701,51.55027],[-121.77688,51.55038],[-121.77676,51.55047],[-121.77666,51.55054],[-121.77662,51.55057],[-121.77653,51.55063],[-121.77638,51.55072],[-121.77626,51.5508],[-121.77616,51.55088],[-121.77607,51.55097],[-121.77598,51.55107],[-121.77591,51.55116],[-121.77582,51.55126],[-121.77572,51.55133],[-121.77564,51.5514],[-121.77563,51.55141],[-121.77551,51.55149],[-121.77541,51.55157],[-121.7753,51.55164],[-121.77514,51.55178],[-121.77502,51.55187],[-121.7749,51.55198],[-121.77482,51.55206],[-121.77471,51.55215],[-121.77462,51.55224],[-121.77453,51.55232],[-121.77443,51.5524],[-121.77434,51.55248],[-121.77423,51.55256],[-121.77414,51.55264],[-121.77403,51.55272],[-121.77392,51.5528],[-121.77381,51.55287],[-121.77371,51.55296],[-121.77361,51.55304],[-121.7735,51.55314],[-121.77337,51.55313],[-121.77323,51.55311],[-121.77309,51.5531],[-121.77291,51.55308],[-121.77274,51.55306],[-121.77257,51.55304],[-121.7724,51.55304],[-121.77225,51.55303],[-121.77208,51.55303],[-121.77195,51.55303],[-121.77193,51.55303],[-121.77178,51.55303],[-121.77162,51.55303],[-121.7714,51.55303],[-121.77121,51.55303],[-121.77105,51.55302],[-121.77087,51.55297],[-121.77072,51.55294],[-121.77055,51.5529],[-121.77041,51.55287],[-121.77024,51.55285],[-121.76998,51.55284],[-121.76976,51.55284],[-121.76957,51.55285],[-121.7694,51.55285],[-121.76933,51.55285],[-121.7692,51.55289],[-121.76908,51.55291],[-121.76889,51.5529],[-121.76872,51.5529],[-121.76855,51.5529],[-121.7684,51.5529],[-121.76825,51.55289],[-121.76809,51.55287],[-121.76794,51.55284],[-121.76779,51.55281],[-121.76761,51.55278],[-121.76744,51.55274],[-121.76728,51.55269],[-121.7671,51.55266],[-121.76695,51.55265],[-121.76681,51.55265],[-121.76664,51.55265],[-121.76636,51.55266],[-121.76616,51.55269],[-121.76603,51.55271],[-121.76583,51.55272],[-121.76567,51.55272],[-121.76552,51.55272],[-121.76538,51.55272],[-121.76532,51.55272],[-121.76515,51.55272],[-121.76496,51.55272],[-121.7648,51.55272],[-121.76476,51.55272],[-121.76463,51.55271],[-121.76449,51.55271],[-121.76433,51.55272],[-121.76431,51.55272],[-121.76415,51.55272],[-121.76399,51.55272],[-121.76384,51.55272],[-121.76366,51.55271],[-121.76355,51.55272],[-121.76349,51.55272],[-121.7633,51.55272],[-121.76314,51.55272],[-121.76307,51.55272],[-121.76299,51.55272],[-121.76268,51.55272],[-121.76245,51.55274],[-121.76231,51.55275],[-121.76215,51.55278],[-121.76199,51.5528],[-121.76183,51.55283],[-121.76164,51.55285],[-121.76141,51.55287],[-121.76125,51.55288],[-121.76108,51.55288],[-121.76087,51.55291],[-121.76061,51.55296],[-121.76042,51.55301],[-121.76026,51.55306],[-121.7601,51.55309],[-121.75986,51.55315],[-121.7597,51.55318],[-121.75952,51.55322],[-121.75928,51.55327],[-121.75912,51.5533],[-121.75892,51.55333],[-121.75876,51.55335],[-121.75857,51.55335],[-121.7584,51.55335],[-121.75819,51.55335],[-121.75799,51.55336],[-121.75782,51.55338],[-121.75767,51.55341],[-121.7575,51.55343],[-121.75733,51.55345],[-121.75714,51.55345],[-121.75698,51.55344],[-121.75682,51.55345],[-121.75666,51.55345],[-121.75658,51.55345],[-121.75643,51.55348],[-121.75626,51.55351],[-121.75608,51.55351],[-121.7559,51.55352],[-121.75562,51.55353],[-121.75542,51.55353],[-121.75522,51.55352],[-121.75499,51.55352],[-121.75478,51.55353],[-121.75458,51.55353],[-121.75442,51.55352],[-121.75424,51.55352],[-121.75408,51.55354],[-121.75392,51.55356],[-121.75377,51.55359],[-121.75361,51.55362],[-121.75348,51.5537],[-121.75338,51.55379],[-121.75336,51.55383],[-121.75332,51.55389],[-121.75329,51.55398],[-121.75326,51.55405],[-121.75326,51.55407],[-121.75321,51.55418],[-121.75319,51.55428],[-121.75317,51.55438],[-121.75314,51.5545],[-121.75308,51.55461],[-121.75302,51.55471],[-121.75296,51.5548],[-121.7529,51.5549],[-121.75285,51.55499],[-121.75278,51.55509],[-121.75268,51.55517],[-121.75254,51.55527],[-121.75243,51.55536],[-121.75231,51.55543],[-121.75219,51.55548],[-121.75213,51.55551]],[[-121.75213,51.55551],[-121.75199,51.55556],[-121.75186,51.55558]]]}},
{"type":"Feature","properties":{"spotId":"E-deer-atv-0134","kind":"walk","km":0.17,"climbM":1,"name":"190 m S of Dog Creek","flags":[]},"geometry":{"type":"LineString","coordinates":[[-121.75186,51.55558],[-121.74947,51.55535]]}},
{"type":"Feature","properties":{"spotId":"E-deer-drive-0090","kind":"walk","km":0.13,"climbM":0,"name":"1.4 km SW of Neilson Lake","flags":[]},"geometry":{"type":"LineString","coordinates":[[-121.70026,51.51312],[-121.70192,51.51368]]}},
{"type":"Feature","properties":{"spotId":"E-deer-drive-0114","kind":"walk","km":0.14,"climbM":3,"name":"710 m S of CanoeLake","flags":[]},"geometry":{"type":"LineString","coordinates":[[-121.6004,51.62076],[-121.60012,51.61951]]}},
{"type":"Feature","properties":{"spotId":"E-deer-drive-0119","kind":"walk","km":0.23,"climbM":0,"name":"1.5 km SW of Whale Lake rec site","flags":[]},"geometry":{"type":"LineString","coordinates":[[-121.68358,51.55023],[-121.6869,51.55054]]}},
{"type":"Feature","properties":{"spotId":"E-deer-walk-0159","kind":"walk","km":3.15,"climbM":29,"name":"700 m NE of Boar Lake","flags":[]},"geometry":{"type":"LineString","coordinates":[[-121.61105,51.56513],[-121.63683,51.5418]]}},
{"type":"Feature","properties":{"spotId":"E-deer-walk-0164","kind":"walk","km":0.32,"climbM":1,"name":"1.0 km NE of Dog Creek","flags":[]},"geometry":{"type":"LineString","coordinates":[[-121.74125,51.57152],[-121.74409,51.56924]]}},
{"type":"Feature","properties":{"spotId":"E-deer-walk-0179","kind":"walk","km":0.3,"climbM":0,"name":"1.5 km SW of Whale Lake rec site","flags":[]},"geometry":{"type":"LineString","coordinates":[[-121.68355,51.55035],[-121.68788,51.55082]]}},
{"type":"Feature","properties":{"spotId":"E-deer-walk-0183","kind":"walk","km":0.58,"climbM":7,"name":"2.4 km SW of CanoeLake","flags":[]},"geometry":{"type":"LineString","coordinates":[[-121.61743,51.60365],[-121.62005,51.60859]]}},
{"type":"Feature","properties":{"spotId":"E-deer-walk-0184","kind":"walk","km":0.93,"climbM":18,"name":"310 m SW of Gustafsen Lake","flags":["Route crosses private land (ParcelMap BC, updated 2026-09-22): get permission first or go around."]},"geometry":{"type":"LineString","coordinates":[[-121.74644,51.53958],[-121.73481,51.53543]]}},
{"type":"Feature","properties":{"spotId":"E-deer-walk-0188","kind":"walk","km":1.08,"climbM":5,"name":"2.8 km N of Whale Lake rec site","flags":[]},"geometry":{"type":"LineString","coordinates":[[-121.67071,51.58949],[-121.66054,51.58212]]}},
{"type":"Feature","properties":{"spotId":"E-deer-walk-0196","kind":"walk","km":0.31,"climbM":6,"name":"900 m NW of Whale Lake rec site","flags":[]},"geometry":{"type":"LineString","coordinates":[[-121.68234,51.56231],[-121.67812,51.56315]]}},
{"type":"Feature","properties":{"spotId":"E-duck-drive-0092","kind":"walk","km":0.1,"climbM":0,"name":"Unnamed wetland 3.2 km NW of Whale Lake rec site","flags":[]},"geometry":{"type":"LineString","coordinates":[[-121.70705,51.5718],[-121.70831,51.57222]]}},
{"type":"Feature","properties":{"spotId":"E-duck-drive-0093","kind":"walk","km":0.02,"climbM":0,"name":"Unnamed wetland 3.1 km NW of Whale Lake rec site","flags":[]},"geometry":{"type":"LineString","coordinates":[[-121.68688,51.58384],[-121.68661,51.58372]]}},
{"type":"Feature","properties":{"spotId":"E-duck-drive-0110","kind":"walk","km":0.06,"climbM":0,"name":"Unnamed lake 4.3 km NW of Whale Lake rec site","flags":[]},"geometry":{"type":"LineString","coordinates":[[-121.70997,51.586],[-121.71032,51.58651]]}},
{"type":"Feature","properties":{"spotId":"E-duck-drive-0118","kind":"walk","km":0.12,"climbM":0,"name":"Unnamed wetland 1.4 km SW of Neilson Lake","flags":[]},"geometry":{"type":"LineString","coordinates":[[-121.70079,51.51259],[-121.7023,51.51319]]}},
{"type":"Feature","properties":{"spotId":"E-duck-drive-0136","kind":"walk","km":0.28,"climbM":4,"name":"Unnamed wetland 3.1 km SW of Muench Lake","flags":[]},"geometry":{"type":"LineString","coordinates":[[-121.66076,51.74049],[-121.66304,51.73846]]}},
{"type":"Feature","properties":{"spotId":"E-duck-walk-0056","kind":"walk","km":0.43,"climbM":4,"name":"Unnamed lake 2.1 km NW of Whale Lake rec site","flags":[]},"geometry":{"type":"LineString","coordinates":[[-121.68649,51.57251],[-121.6863,51.57254],[-121.68607,51.57253],[-121.68584,51.57253],[-121.68557,51.57263],[-121.68527,51.57273],[-121.68505,51.57286],[-121.68502,51.57287],[-121.68484,51.57299],[-121.68472,51.57308],[-121.68464,51.57315],[-121.68446,51.57333],[-121.68428,51.57354],[-121.68414,51.5737],[-121.68396,51.57389],[-121.68388,51.57396],[-121.68358,51.57406],[-121.68342,51.57412],[-121.68185,51.57478]]}},
{"type":"Feature","properties":{"spotId":"E-duck-walk-0081","kind":"walk","km":0.33,"climbM":1,"name":"Unnamed lake 1.5 km SW of Whale Lake rec site","flags":[]},"geometry":{"type":"LineString","coordinates":[[-121.68442,51.54755],[-121.67986,51.54667]]}},
{"type":"Feature","properties":{"spotId":"E-duck-walk-0085","kind":"walk","km":0.33,"climbM":0,"name":"Unnamed wetland 380 m SW of Neilson Lake","flags":[]},"geometry":{"type":"LineString","coordinates":[[-121.69911,51.52309],[-121.69436,51.52331]]}},
{"type":"Feature","properties":{"spotId":"E-duck-walk-0089","kind":"walk","km":0.47,"climbM":3,"name":"Unnamed wetland 1.4 km SW of Neilson Lake","flags":[]},"geometry":{"type":"LineString","coordinates":[[-121.69896,51.51786],[-121.70571,51.51777]]}},
{"type":"Feature","properties":{"spotId":"E-duck-walk-0137","kind":"walk","km":0.4,"climbM":0,"name":"Unnamed wetland 2.1 km SW of Muench Lake","flags":[]},"geometry":{"type":"LineString","coordinates":[[-121.64788,51.73772],[-121.64664,51.74123]]}},
{"type":"Feature","properties":{"spotId":"E-grouse-atv-0019","kind":"walk","km":0.18,"climbM":2,"name":"3.0 km W of Muench Lake","flags":[]},"geometry":{"type":"LineString","coordinates":[[-121.66879,51.74939],[-121.67073,51.74836]]}},
{"type":"Feature","properties":{"spotId":"E-grouse-atv-0019","kind":"ride","km":5.58,"climbM":47,"name":"3.0 km W of Muench Lake","flags":[]},"geometry":{"type":"LineString","coordinates":[[-121.67073,51.74836],[-121.67079,51.74836],[-121.67119,51.74839],[-121.67158,51.74842],[-121.67196,51.74842],[-121.67231,51.74842],[-121.67264,51.74847],[-121.67298,51.74855],[-121.67336,51.74864],[-121.67375,51.7487],[-121.67415,51.74877],[-121.67451,51.74886],[-121.6748,51.74898],[-121.67508,51.7491],[-121.67518,51.74911],[-121.67552,51.7491],[-121.67587,51.74904],[-121.67622,51.74902],[-121.67655,51.74905],[-121.67686,51.74912],[-121.67717,51.7492],[-121.67741,51.74932],[-121.67764,51.74946],[-121.67791,51.74955],[-121.67825,51.74963],[-121.67861,51.7497],[-121.67897,51.74979],[-121.6793,51.74989],[-121.67963,51.74998],[-121.67995,51.75006],[-121.68024,51.75009],[-121.6804,51.75007],[-121.68055,51.75003],[-121.68062,51.74996],[-121.68065,51.74993],[-121.68068,51.74984],[-121.68069,51.74965],[-121.68063,51.74947],[-121.68058,51.74928],[-121.68056,51.74907],[-121.68072,51.74887],[-121.68089,51.74872],[-121.68107,51.74857],[-121.68125,51.74842],[-121.68144,51.74827],[-121.68163,51.7481],[-121.68184,51.74793],[-121.68206,51.74778],[-121.6823,51.74765],[-121.68253,51.7475],[-121.68278,51.74736],[-121.68302,51.74725],[-121.68305,51.74723],[-121.68331,51.7471],[-121.68361,51.74697],[-121.68391,51.74683],[-121.68421,51.7467],[-121.68452,51.74656],[-121.68479,51.74641],[-121.68503,51.74626],[-121.68521,51.74611],[-121.68532,51.74591],[-121.68542,51.7457],[-121.68553,51.74548],[-121.68561,51.74526],[-121.6857,51.74504],[-121.68582,51.74486],[-121.68599,51.74469],[-121.68602,51.74465],[-121.68617,51.74451],[-121.68635,51.74434],[-121.68652,51.7442],[-121.68676,51.74401],[-121.68704,51.74387],[-121.68722,51.7437],[-121.68724,51.74349],[-121.6872,51.74344],[-121.68709,51.74324],[-121.68717,51.74303],[-121.68733,51.74287],[-121.68752,51.74272],[-121.6877,51.74256],[-121.68788,51.74236],[-121.68799,51.74219],[-121.68811,51.74202],[-121.68833,51.74185],[-121.68865,51.74178],[-121.68883,51.74178],[-121.68896,51.74178],[-121.68926,51.74177],[-121.68956,51.74177],[-121.68985,51.7418],[-121.6899,51.7418],[-121.69027,51.74184],[-121.69068,51.74186],[-121.69107,51.74188],[-121.69141,51.7419],[-121.69175,51.74192],[-121.69205,51.74185],[-121.69236,51.74174],[-121.69264,51.74164],[-121.69294,51.7416],[-121.69325,51.74161],[-121.69361,51.74164],[-121.6939,51.74153],[-121.69414,51.74138],[-121.69439,51.74124],[-121.69468,51.74116],[-121.69506,51.74118],[-121.69533,51.74125],[-121.6956,51.74133],[-121.69592,51.74137],[-121.69627,51.74137],[-121.6966,51.74133],[-121.69689,51.7413],[-121.69698,51.74131],[-121.69699,51.74132],[-121.69704,51.74128],[-121.69705,51.74126],[-121.69709,51.74114],[-121.69713,51.74112],[-121.69716,51.74111],[-121.69736,51.74106],[-121.69755,51.74104],[-121.6977,51.74102],[-121.69787,51.74096],[-121.69799,51.7409],[-121.69811,51.74083],[-121.69827,51.74075],[-121.69839,51.74068],[-121.69855,51.74058],[-121.69873,51.74048],[-121.6989,51.74037],[-121.69896,51.74035],[-121.69915,51.74026],[-121.6993,51.74018],[-121.69945,51.74011],[-121.69956,51.74004],[-121.69971,51.73998],[-121.69984,51.73992],[-121.69998,51.73985],[-121.70012,51.73978],[-121.70033,51.73974],[-121.70047,51.73969],[-121.70072,51.73965],[-121.70092,51.73961],[-121.7011,51.73958],[-121.70132,51.73956],[-121.70146,51.73954],[-121.70165,51.73955],[-121.70184,51.73955],[-121.70203,51.73953],[-121.70217,51.73955],[-121.7023,51.73962],[-121.70241,51.73968],[-121.70253,51.73978],[-121.70258,51.73988],[-121.70261,51.73998],[-121.70262,51.7401],[-121.70265,51.7402],[-121.70267,51.74033],[-121.70277,51.74047],[-121.70287,51.7406],[-121.70292,51.74068],[-121.70303,51.74085],[-121.70314,51.74096],[-121.70319,51.74106],[-121.70324,51.74116],[-121.70322,51.74126],[-121.70313,51.74135],[-121.70299,51.74145],[-121.70293,51.74151],[-121.70295,51.74155],[-121.70302,51.74164],[-121.70311,51.74173],[-121.70321,51.74184],[-121.70335,51.74195],[-121.70348,51.74205],[-121.70363,51.74217],[-121.70373,51.74225],[-121.70377,51.7423],[-121.70393,51.74243],[-121.70404,51.74249],[-121.70416,51.74257],[-121.70428,51.74265],[-121.70434,51.74276],[-121.70439,51.74288],[-121.70445,51.74296],[-121.70452,51.74305],[-121.70462,51.74314],[-121.7047,51.74321],[-121.70483,51.74327],[-121.7049,51.7433],[-121.7051,51.74334],[-121.70528,51.74342],[-121.7054,51.74347],[-121.70553,51.74361],[-121.70563,51.74375],[-121.70577,51.74388],[-121.70581,51.74397],[-121.70587,51.74405],[-121.70597,51.74413],[-121.70611,51.74421],[-121.70628,51.74425],[-121.70651,51.74431],[-121.7067,51.74431],[-121.70693,51.7443],[-121.70715,51.7443],[-121.70719,51.7443],[-121.70726,51.74434],[-121.70726,51.74436],[-121.70735,51.74444],[-121.70745,51.74453],[-121.70754,51.74466],[-121.7076,51.74475],[-121.70761,51.74478],[-121.70766,51.74481],[-121.70775,51.74487],[-121.70793,51.74497],[-121.70805,51.74503],[-121.70828,51.74511],[-121.70833,51.74513],[-121.70843,51.74518],[-121.70846,51.7452],[-121.70847,51.74522],[-121.7085,51.74526],[-121.70858,51.74534],[-121.70867,51.74541],[-121.70878,51.74549],[-121.70894,51.7456],[-121.70911,51.74568],[-121.70922,51.74573],[-121.70929,51.74574],[-121.70934,51.74574],[-121.7095,51.74573],[-121.7097,51.74569],[-121.7098,51.74568],[-121.70992,51.74572],[-121.71012,51.74579],[-121.71025,51.74584],[-121.71038,51.74593],[-121.71053,51.74599],[-121.71058,51.74599],[-121.71072,51.74601],[-121.71089,51.74605],[-121.7111,51.74607],[-121.71127,51.74607],[-121.71143,51.74606],[-121.71157,51.74608],[-121.71163,51.74608],[-121.71186,51.74614],[-121.71203,51.74617],[-121.71218,51.74623],[-121.71226,51.74633],[-121.71232,51.74647],[-121.71236,51.74657],[-121.71241,51.74671],[-121.71241,51.74682],[-121.7124,51.74694],[-121.7124,51.74708],[-121.71238,51.74719],[-121.71238,51.7473],[-121.71236,51.74741],[-121.71236,51.74745],[-121.71242,51.74756],[-121.71247,51.74769],[-121.71251,51.74781],[-121.71254,51.74791],[-121.71259,51.74801],[-121.71265,51.7481],[-121.71272,51.7482],[-121.71281,51.74832],[-121.71286,51.74835],[-121.71298,51.74842],[-121.71316,51.7485],[-121.71339,51.74854],[-121.71343,51.74854],[-121.71355,51.74855],[-121.71372,51.74858],[-121.71388,51.74861],[-121.71406,51.74865],[-121.71419,51.7487],[-121.71437,51.74878],[-121.71449,51.74886],[-121.71462,51.7489],[-121.71475,51.74896],[-121.71486,51.74907],[-121.71488,51.74919],[-121.71486,51.74927],[-121.71486,51.74931],[-121.71491,51.74947],[-121.71497,51.74952],[-121.715,51.74955],[-121.7152,51.74957],[-121.71541,51.74967],[-121.71548,51.7498],[-121.71556,51.7499],[-121.71568,51.75],[-121.71589,51.75008],[-121.71604,51.75015],[-121.71629,51.75023],[-121.71657,51.75023],[-121.71679,51.75026],[-121.71699,51.75028],[-121.71722,51.75033],[-121.71739,51.75036],[-121.71758,51.75041],[-121.71774,51.75046],[-121.71789,51.75049],[-121.71808,51.75052],[-121.7183,51.75055],[-121.71849,51.75057],[-121.71866,51.75061],[-121.7189,51.75065],[-121.71912,51.75071],[-121.71935,51.75075],[-121.71954,51.75078],[-121.71972,51.75085],[-121.71987,51.7509],[-121.72004,51.75096],[-121.72017,51.75102],[-121.72038,51.7511],[-121.7205,51.75116],[-121.72068,51.75123],[-121.72088,51.75132],[-121.72106,51.75137],[-121.7213,51.75143],[-121.72142,51.75149],[-121.72157,51.75154],[-121.72176,51.75158],[-121.72192,51.75164],[-121.72203,51.75168],[-121.72218,51.75174],[-121.72232,51.75179],[-121.72245,51.75185],[-121.72264,51.75191],[-121.72282,51.75197],[-121.72301,51.75204],[-121.72317,51.75209],[-121.72334,51.75217],[-121.72345,51.75223],[-121.72361,51.75237],[-121.72372,51.75248],[-121.72378,51.75252],[-121.72388,51.75259],[-121.72398,51.75269],[-121.7241,51.75277],[-121.72423,51.75287],[-121.7243,51.75291],[-121.72449,51.75284],[-121.72467,51.7528],[-121.72483,51.75278],[-121.72497,51.75277],[-121.7252,51.75276],[-121.72539,51.75278],[-121.72564,51.75278],[-121.72578,51.75278],[-121.72596,51.75278],[-121.72597,51.75277],[-121.72613,51.75275],[-121.72635,51.75272],[-121.72655,51.75269],[-121.7267,51.75263],[-121.72674,51.75262],[-121.72689,51.75252],[-121.727,51.75244],[-121.72713,51.75233],[-121.72728,51.75223],[-121.72737,51.7521],[-121.72744,51.752],[-121.72746,51.75199],[-121.72761,51.75182],[-121.7277,51.75171],[-121.72774,51.75167]]}},
{"type":"Feature","properties":{"spotId":"E-grouse-atv-0052","kind":"walk","km":2.43,"climbM":30,"name":"480 m NE of Dog Creek","flags":["Route crosses private land (ParcelMap BC, updated 2026-09-22): get permission first or go around."]},"geometry":{"type":"LineString","coordinates":[[-121.691,51.5305],[-121.65998,51.52027]]}},
{"type":"Feature","properties":{"spotId":"E-grouse-atv-0052","kind":"ride","km":3.5,"climbM":53,"name":"480 m NE of Dog Creek","flags":["Route crosses private land (ParcelMap BC, updated 2026-09-22): get permission first or go around."]},"geometry":{"type":"LineString","coordinates":[[-121.65998,51.52027],[-121.65989,51.52021],[-121.65966,51.52004],[-121.6596,51.52],[-121.65946,51.51985],[-121.65933,51.51964],[-121.65926,51.51944],[-121.65924,51.51925],[-121.65924,51.51904],[-121.65923,51.51882],[-121.6592,51.51858],[-121.65907,51.51837],[-121.65891,51.51816],[-121.65878,51.51799],[-121.65866,51.51781],[-121.65853,51.51765],[-121.65841,51.51746],[-121.65831,51.51728],[-121.6583,51.5171],[-121.6583,51.51692],[-121.65828,51.51689],[-121.65823,51.51673],[-121.6582,51.51668],[-121.65802,51.51647],[-121.65794,51.51628],[-121.65788,51.51621],[-121.65764,51.51606],[-121.6574,51.5159],[-121.65713,51.51574],[-121.65685,51.51557],[-121.65658,51.51542],[-121.65633,51.51527],[-121.65617,51.51517],[-121.6561,51.51511],[-121.65586,51.51498],[-121.6556,51.51485],[-121.65536,51.51472],[-121.65512,51.51458],[-121.65491,51.51443],[-121.6547,51.51427],[-121.65449,51.51414],[-121.6542,51.51406],[-121.654,51.51399],[-121.65371,51.51392],[-121.65337,51.51383],[-121.6531,51.51375],[-121.65283,51.51367],[-121.65254,51.51361],[-121.65225,51.51359],[-121.65191,51.51359],[-121.65161,51.5136],[-121.65127,51.5136],[-121.65099,51.51361],[-121.65086,51.5136],[-121.65067,51.51356],[-121.65041,51.51342],[-121.65017,51.51328],[-121.64995,51.51316],[-121.64969,51.51302],[-121.64966,51.51301],[-121.64945,51.51289],[-121.64917,51.51275],[-121.64894,51.51263],[-121.64871,51.51252],[-121.64846,51.51239],[-121.6482,51.51226],[-121.64794,51.51215],[-121.64772,51.51204],[-121.64758,51.51194],[-121.64746,51.51187],[-121.64722,51.51171],[-121.64698,51.51155],[-121.64673,51.51137],[-121.64652,51.51118],[-121.64639,51.51103],[-121.64634,51.51092],[-121.6463,51.51085],[-121.64621,51.51078],[-121.64609,51.51067],[-121.64582,51.51052],[-121.64559,51.51037],[-121.64538,51.5102],[-121.64534,51.51015],[-121.64524,51.51001],[-121.64509,51.50985],[-121.64499,51.50977],[-121.64489,51.5097],[-121.64475,51.50961],[-121.64463,51.50954],[-121.64438,51.50938],[-121.64418,51.50926],[-121.64411,51.50922],[-121.64388,51.5091],[-121.64366,51.50898],[-121.64359,51.50895],[-121.6434,51.50887],[-121.64316,51.50876],[-121.64293,51.50865],[-121.6427,51.50854],[-121.64269,51.50854],[-121.64265,51.50851],[-121.64241,51.50839],[-121.64212,51.50826],[-121.64187,51.50814],[-121.64162,51.50802],[-121.64133,51.50792],[-121.64127,51.5079],[-121.64098,51.50787],[-121.64068,51.50784],[-121.64039,51.50778],[-121.64025,51.50774],[-121.64012,51.50768],[-121.63987,51.5076],[-121.63955,51.5075],[-121.63922,51.50742],[-121.63914,51.50739],[-121.63888,51.50732],[-121.63855,51.50724],[-121.63828,51.50716],[-121.63801,51.50708],[-121.63774,51.50701],[-121.63746,51.50694],[-121.63713,51.50687],[-121.63678,51.5068],[-121.63645,51.50668],[-121.63621,51.50658],[-121.63594,51.50644],[-121.6357,51.50631],[-121.63548,51.50617],[-121.63537,51.50607],[-121.6353,51.50601],[-121.63527,51.50598],[-121.63516,51.50584],[-121.63508,51.50565],[-121.635,51.50545],[-121.635,51.50544],[-121.63492,51.50524],[-121.63488,51.50506],[-121.63485,51.50487],[-121.63481,51.50468],[-121.63474,51.50448],[-121.63469,51.50433],[-121.63468,51.50429],[-121.63461,51.50409],[-121.6346,51.504],[-121.63457,51.50389],[-121.63452,51.50371],[-121.63443,51.50349],[-121.63435,51.50329],[-121.6343,51.50321],[-121.63426,51.50311],[-121.63408,51.50292],[-121.63404,51.50288],[-121.6338,51.50276],[-121.63351,51.50264],[-121.6335,51.50264],[-121.63324,51.50256],[-121.63306,51.5025],[-121.63297,51.50247],[-121.63272,51.50239],[-121.63239,51.50228],[-121.6321,51.50214],[-121.63189,51.50197],[-121.63165,51.5018],[-121.6314,51.50165],[-121.63113,51.50153],[-121.63083,51.50142],[-121.6305,51.50131],[-121.63014,51.50123],[-121.6298,51.50114],[-121.6295,51.50106],[-121.6293,51.501],[-121.62916,51.50093],[-121.62887,51.50082],[-121.62862,51.50074],[-121.62834,51.50063],[-121.62805,51.5005],[-121.62779,51.50041],[-121.62769,51.50037],[-121.62752,51.5003],[-121.62748,51.50029],[-121.62726,51.50021],[-121.62674,51.50001],[-121.62658,51.49992],[-121.62639,51.49984],[-121.6262,51.49975],[-121.62618,51.49974]]}},
{"type":"Feature","properties":{"spotId":"E-grouse-drive-0008","kind":"roadside","km":4.85,"climbM":67,"name":"1.7 km NE of Gustafsen Lake","flags":[]},"geometry":{"type":"LineString","coordinates":[[-121.71701,51.56221],[-121.71687,51.56235],[-121.71674,51.56247],[-121.71656,51.56261],[-121.71639,51.56277],[-121.71621,51.56295],[-121.716,51.56315],[-121.71582,51.56332],[-121.71564,51.5635],[-121.71545,51.56369],[-121.71529,51.5639],[-121.71515,51.56409],[-121.71514,51.56412],[-121.715,51.5643],[-121.71487,51.56448],[-121.7147,51.56463],[-121.71453,51.56479],[-121.71433,51.56496],[-121.71411,51.56517],[-121.71393,51.56531],[-121.71374,51.56542],[-121.71366,51.56547],[-121.71338,51.5656],[-121.71314,51.56573],[-121.71292,51.56586],[-121.7127,51.56601],[-121.71251,51.56618],[-121.71233,51.56632],[-121.71217,51.56648],[-121.71203,51.56667],[-121.71186,51.56688],[-121.71174,51.56706],[-121.71159,51.56725],[-121.71154,51.56746],[-121.71147,51.56766],[-121.71137,51.56788],[-121.71133,51.56801],[-121.71132,51.56808],[-121.71127,51.56828],[-121.71115,51.56849],[-121.71097,51.56868],[-121.71086,51.56891],[-121.71077,51.56913],[-121.7107,51.56933],[-121.71047,51.56952],[-121.71035,51.56956],[-121.71002,51.56959],[-121.70973,51.5696],[-121.70944,51.56961],[-121.70912,51.56974],[-121.7089,51.56988],[-121.70869,51.57002],[-121.70849,51.5702],[-121.70828,51.57041],[-121.70813,51.57057],[-121.70797,51.57072],[-121.70777,51.5709],[-121.70761,51.5711],[-121.70745,51.5713],[-121.70731,51.57149],[-121.70715,51.57169],[-121.70697,51.57189],[-121.70689,51.57197],[-121.7068,51.57208],[-121.70664,51.57227],[-121.70645,51.57246],[-121.70642,51.57248],[-121.70621,51.57262],[-121.706,51.57276],[-121.70574,51.57291],[-121.70542,51.57303],[-121.70506,51.5731],[-121.70481,51.57315],[-121.70471,51.57317],[-121.70435,51.57322],[-121.70403,51.57323],[-121.70391,51.57323],[-121.70374,51.57323],[-121.70343,51.57328],[-121.7033,51.57332],[-121.70323,51.57334],[-121.70301,51.57341],[-121.70274,51.57351],[-121.70246,51.57362],[-121.70221,51.57378],[-121.70199,51.57395],[-121.70178,51.57415],[-121.70154,51.57432],[-121.70131,51.57448],[-121.70104,51.57463],[-121.70077,51.57478],[-121.70047,51.57488],[-121.70024,51.57495],[-121.7002,51.57496],[-121.69995,51.57507],[-121.69974,51.57517],[-121.6997,51.57519],[-121.69961,51.57522],[-121.69941,51.5753],[-121.6992,51.57539],[-121.69897,51.57552],[-121.69876,51.57567],[-121.69863,51.57585],[-121.69852,51.57596],[-121.6984,51.57615],[-121.69831,51.57624],[-121.69828,51.57628],[-121.69824,51.57632],[-121.698,51.57646],[-121.6978,51.57662],[-121.69762,51.57678],[-121.69753,51.57697],[-121.69752,51.57715],[-121.6975,51.57733],[-121.69747,51.57754],[-121.69745,51.57775],[-121.69738,51.57795],[-121.69728,51.57814],[-121.69714,51.57832],[-121.69692,51.57854],[-121.69671,51.57871],[-121.69654,51.57886],[-121.69636,51.57901],[-121.69617,51.57919],[-121.69599,51.57939],[-121.69581,51.57956],[-121.69559,51.5797],[-121.69537,51.57984],[-121.69513,51.57998],[-121.69483,51.58009],[-121.69451,51.58015],[-121.69419,51.58015],[-121.69389,51.58015],[-121.69357,51.58014],[-121.69325,51.58015],[-121.69312,51.58014],[-121.69278,51.58014],[-121.69243,51.58019],[-121.6923,51.58022],[-121.69203,51.58033],[-121.69184,51.58048],[-121.69166,51.58064],[-121.69147,51.58083],[-121.69131,51.58098],[-121.69116,51.58114],[-121.69101,51.58136],[-121.69089,51.58157],[-121.69074,51.58178],[-121.69063,51.58196],[-121.69053,51.58207],[-121.69035,51.58226],[-121.6903,51.58234],[-121.6902,51.58255],[-121.69015,51.58263],[-121.68996,51.58282],[-121.68978,51.58299],[-121.68963,51.58318],[-121.68946,51.58336],[-121.68933,51.58345],[-121.68906,51.58375],[-121.6888,51.58375],[-121.68864,51.58382],[-121.68832,51.58392],[-121.68799,51.58402],[-121.68784,51.58405],[-121.68754,51.58408],[-121.68723,51.58413],[-121.68699,51.5842],[-121.68677,51.58421],[-121.68655,51.58424],[-121.68644,51.58425],[-121.68616,51.58423],[-121.686,51.58421],[-121.68571,51.58426],[-121.68564,51.58426],[-121.68532,51.58432],[-121.68503,51.58436],[-121.68473,51.58441],[-121.68442,51.58446],[-121.68422,51.58449],[-121.68416,51.58451],[-121.68402,51.58452],[-121.68377,51.58457],[-121.68348,51.58464],[-121.68315,51.5847],[-121.68286,51.58472],[-121.68257,51.58477],[-121.68245,51.58488],[-121.68227,51.58496],[-121.68217,51.58512],[-121.68192,51.58529],[-121.68149,51.58559],[-121.68124,51.58568],[-121.68104,51.58575],[-121.68078,51.58581],[-121.68041,51.58585],[-121.68014,51.58587],[-121.67975,51.58587],[-121.67945,51.58589],[-121.67924,51.58593],[-121.67903,51.58597],[-121.67878,51.58605],[-121.6785,51.58619],[-121.67822,51.58629],[-121.67796,51.58639],[-121.67768,51.58649],[-121.67762,51.58653],[-121.67739,51.58667],[-121.67717,51.5868],[-121.67693,51.58692],[-121.67676,51.58706],[-121.67671,51.58708],[-121.67665,51.58713],[-121.67649,51.58721],[-121.67615,51.58741],[-121.67593,51.58761],[-121.67564,51.58781],[-121.67533,51.58793],[-121.67499,51.5881],[-121.67469,51.58819],[-121.67437,51.58827],[-121.67406,51.58836],[-121.67389,51.58843],[-121.67362,51.58853],[-121.67333,51.58861],[-121.67304,51.58867],[-121.67269,51.58874],[-121.67236,51.58882],[-121.6721,51.58891],[-121.67179,51.58902],[-121.6715,51.58914],[-121.67145,51.58918],[-121.67119,51.58928],[-121.67094,51.58939],[-121.67071,51.58949],[-121.67045,51.58963],[-121.6702,51.58976],[-121.66995,51.58992],[-121.66975,51.59007]]}},
{"type":"Feature","properties":{"spotId":"E-grouse-drive-0011","kind":"roadside","km":5.41,"climbM":17,"name":"2.6 km SW of Muench Lake","flags":[]},"geometry":{"type":"LineString","coordinates":[[-121.66456,51.74794],[-121.66441,51.74788],[-121.66417,51.74777],[-121.66398,51.74769],[-121.6638,51.74764],[-121.66354,51.74751],[-121.66346,51.74744],[-121.6632,51.74728],[-121.66296,51.74715],[-121.66269,51.74702],[-121.66244,51.74691],[-121.6622,51.74676],[-121.66203,51.74662],[-121.66185,51.74645],[-121.66166,51.74629],[-121.66161,51.74621],[-121.66153,51.74603],[-121.66142,51.74585],[-121.66137,51.74562],[-121.66136,51.74542],[-121.66135,51.74521],[-121.66147,51.745],[-121.66159,51.74483],[-121.66168,51.74465],[-121.66173,51.74445],[-121.66172,51.74425],[-121.66173,51.74405],[-121.66169,51.74386],[-121.66165,51.74376],[-121.66161,51.74367],[-121.66154,51.74347],[-121.66151,51.74326],[-121.6615,51.74306],[-121.66155,51.74287],[-121.66164,51.74269],[-121.66176,51.74248],[-121.66183,51.7423],[-121.66185,51.7421],[-121.66181,51.74192],[-121.6617,51.74173],[-121.66162,51.74156],[-121.66153,51.74138],[-121.66145,51.74123],[-121.66136,51.74102],[-121.66125,51.74085],[-121.66103,51.74065],[-121.66079,51.74051],[-121.66062,51.74043],[-121.66042,51.74036],[-121.6601,51.74026],[-121.65979,51.74019],[-121.65947,51.74012],[-121.6592,51.74006],[-121.65887,51.73996],[-121.65858,51.73985],[-121.65828,51.73973],[-121.65804,51.73963],[-121.65781,51.73948],[-121.65765,51.73938],[-121.65757,51.73933],[-121.65734,51.73918],[-121.65718,51.73908],[-121.65694,51.73895],[-121.6566,51.73884],[-121.65634,51.73879],[-121.65599,51.73873],[-121.65565,51.73866],[-121.6556,51.73865],[-121.65532,51.73859],[-121.655,51.7385],[-121.65467,51.73841],[-121.65432,51.73834],[-121.65397,51.73824],[-121.65363,51.73817],[-121.65333,51.73815],[-121.65303,51.73814],[-121.65271,51.73812],[-121.65242,51.7381],[-121.65236,51.73808],[-121.65206,51.73799],[-121.65177,51.7379],[-121.65149,51.73779],[-121.65119,51.73767],[-121.6509,51.73763],[-121.65057,51.73763],[-121.65023,51.73764],[-121.64988,51.73765],[-121.64952,51.73766],[-121.64917,51.73768],[-121.64886,51.73768],[-121.64854,51.73771],[-121.64822,51.73773],[-121.64788,51.73772],[-121.64757,51.73765],[-121.64728,51.73755],[-121.64701,51.73745],[-121.64669,51.73733],[-121.64639,51.73723],[-121.64613,51.73714],[-121.64606,51.73709],[-121.64589,51.73711],[-121.64557,51.73714],[-121.64528,51.73717],[-121.64502,51.73721],[-121.64496,51.73722],[-121.64462,51.73728],[-121.64433,51.73736],[-121.64401,51.73744],[-121.64366,51.73751],[-121.64336,51.73757],[-121.64302,51.73765],[-121.64278,51.73778],[-121.64255,51.73794],[-121.64228,51.73811],[-121.64207,51.73825],[-121.64185,51.73842],[-121.64167,51.73856],[-121.64145,51.73868],[-121.64144,51.73869],[-121.64113,51.73877],[-121.64085,51.73884],[-121.64056,51.73891],[-121.64027,51.73899],[-121.63996,51.73905],[-121.63966,51.73912],[-121.63935,51.73919],[-121.63906,51.73925],[-121.639,51.73923],[-121.63882,51.7392],[-121.63864,51.73919],[-121.63843,51.73918],[-121.63825,51.73918],[-121.63809,51.73916],[-121.6379,51.73917],[-121.63775,51.73916],[-121.6376,51.73915],[-121.63744,51.73915],[-121.63728,51.73914],[-121.63711,51.73914],[-121.63694,51.73913],[-121.63678,51.73912],[-121.63676,51.73911],[-121.6367,51.73912],[-121.63656,51.73912],[-121.63639,51.73912],[-121.63624,51.73913],[-121.63608,51.73913],[-121.63592,51.73913],[-121.63572,51.73913],[-121.63556,51.73913],[-121.63541,51.73913],[-121.63524,51.73912],[-121.63507,51.7391],[-121.63489,51.73909],[-121.63469,51.73912],[-121.63459,51.73916],[-121.63446,51.73916],[-121.63417,51.73913],[-121.6339,51.73907],[-121.63348,51.73899],[-121.63315,51.73897],[-121.63281,51.73896],[-121.63255,51.73894],[-121.63226,51.7389],[-121.63198,51.73885],[-121.63172,51.73875],[-121.63146,51.73861],[-121.63123,51.7385],[-121.63098,51.7384],[-121.63067,51.73833],[-121.63033,51.73829],[-121.63002,51.73827],[-121.62969,51.73823],[-121.62951,51.73819],[-121.62917,51.73813],[-121.62904,51.7381],[-121.62874,51.73801],[-121.62849,51.73789],[-121.6283,51.73771],[-121.62816,51.73751],[-121.62794,51.73733],[-121.62768,51.73719],[-121.62747,51.73703],[-121.62733,51.73694],[-121.627,51.73679],[-121.6268,51.73667],[-121.62657,51.73655],[-121.62633,51.73645],[-121.62607,51.73633],[-121.62581,51.73623],[-121.62547,51.73615],[-121.62512,51.7362],[-121.62483,51.73623],[-121.62454,51.73626],[-121.62421,51.73625],[-121.62386,51.73621],[-121.62353,51.73613],[-121.62324,51.73609],[-121.62292,51.7361],[-121.62257,51.7361],[-121.62223,51.73611],[-121.62189,51.7361],[-121.62159,51.7361],[-121.62128,51.7361],[-121.62098,51.73611],[-121.62066,51.73611],[-121.62055,51.7361],[-121.62026,51.73602],[-121.62009,51.73595],[-121.6198,51.73585],[-121.6196,51.73579],[-121.6193,51.73568],[-121.61901,51.73557],[-121.61875,51.73548],[-121.61848,51.73539],[-121.61822,51.7353],[-121.61792,51.73523],[-121.61761,51.73516],[-121.61732,51.73509],[-121.617,51.73499],[-121.6167,51.73493],[-121.61634,51.73489],[-121.61598,51.73485],[-121.61565,51.73484],[-121.61531,51.73481],[-121.61498,51.73477],[-121.61465,51.73475],[-121.6143,51.73475],[-121.61401,51.73475],[-121.61369,51.73473],[-121.61336,51.73471],[-121.61304,51.73468],[-121.61273,51.73466],[-121.61242,51.73464],[-121.61213,51.73463],[-121.61177,51.7346],[-121.61143,51.73457],[-121.6114,51.73457],[-121.61105,51.73454],[-121.61075,51.73451],[-121.61044,51.73448],[-121.61015,51.73446],[-121.60979,51.73445],[-121.6095,51.73442],[-121.60922,51.73439],[-121.60893,51.73436],[-121.60857,51.73433],[-121.6082,51.7343],[-121.60784,51.73428],[-121.60754,51.73426],[-121.60716,51.73424],[-121.6068,51.73419],[-121.60644,51.73413],[-121.60607,51.73408],[-121.60571,51.73407],[-121.60533,51.73406],[-121.60504,51.73404],[-121.60475,51.73402],[-121.60446,51.73399],[-121.6041,51.73397],[-121.60373,51.73394],[-121.60342,51.73392],[-121.60312,51.7339],[-121.60283,51.73388],[-121.60254,51.73384],[-121.60225,51.73381],[-121.60195,51.73377],[-121.60166,51.73373],[-121.6013,51.73367],[-121.60104,51.73362]]}},
{"type":"Feature","properties":{"spotId":"E-grouse-drive-0016","kind":"roadside","km":5.74,"climbM":36,"name":"3.2 km N of Whale Lake rec site","flags":[]},"geometry":{"type":"LineString","coordinates":[[-121.686,51.58421],[-121.68631,51.58416],[-121.68654,51.58404],[-121.68681,51.5839],[-121.68699,51.58374],[-121.68714,51.58356],[-121.68724,51.58337],[-121.68729,51.58329],[-121.68741,51.58312],[-121.68751,51.58293],[-121.68761,51.58272],[-121.6877,51.58253],[-121.68782,51.58234],[-121.68797,51.58214],[-121.6881,51.58198],[-121.68823,51.58177],[-121.68833,51.58155],[-121.68844,51.58136],[-121.68855,51.58119],[-121.68868,51.581],[-121.68871,51.58096],[-121.68873,51.58077],[-121.68871,51.58058],[-121.68867,51.5804],[-121.6886,51.58021],[-121.68851,51.58002],[-121.68835,51.57983],[-121.68828,51.57976],[-121.68799,51.5795],[-121.68788,51.57931],[-121.6878,51.5791],[-121.68769,51.5789],[-121.68759,51.57869],[-121.68753,51.57849],[-121.68745,51.57831],[-121.68735,51.5781],[-121.68732,51.57803],[-121.68732,51.57799],[-121.6873,51.57794],[-121.68726,51.57785],[-121.68723,51.57776],[-121.68719,51.57767],[-121.68718,51.57764],[-121.68715,51.57759],[-121.68711,51.5775],[-121.68708,51.5774],[-121.68704,51.57732],[-121.687,51.57723],[-121.68696,51.57714],[-121.6869,51.57705],[-121.68686,51.57696],[-121.68681,51.57688],[-121.68677,51.57679],[-121.68671,51.5767],[-121.68667,51.57661],[-121.68662,51.57652],[-121.68656,51.57643],[-121.68652,51.57635],[-121.68641,51.57621],[-121.68637,51.57614],[-121.68619,51.57595],[-121.68617,51.57593],[-121.68612,51.57584],[-121.68612,51.57577],[-121.68611,51.57565],[-121.68608,51.57552],[-121.68614,51.5754],[-121.68623,51.57532],[-121.68625,51.57529],[-121.68641,51.57513],[-121.68656,51.57494],[-121.68673,51.57474],[-121.6869,51.57456],[-121.68695,51.57452],[-121.6871,51.57432],[-121.68722,51.57412],[-121.68726,51.57405],[-121.6873,51.57383],[-121.68727,51.57371],[-121.68726,51.57369],[-121.68714,51.57351],[-121.68711,51.57346],[-121.68703,51.57331],[-121.68696,51.57322],[-121.6869,51.57314],[-121.68679,51.57297],[-121.68668,51.57279],[-121.68656,51.57261],[-121.68649,51.57251],[-121.68643,51.57242],[-121.68631,51.57224],[-121.68618,51.57208],[-121.68606,51.57189],[-121.68595,51.57171],[-121.68585,51.57155],[-121.68573,51.57139],[-121.68561,51.57123],[-121.68559,51.57119],[-121.68543,51.57099],[-121.68525,51.57082],[-121.68522,51.57078],[-121.68513,51.57068],[-121.68501,51.57061],[-121.68476,51.57048],[-121.68459,51.57033],[-121.68432,51.57011],[-121.68411,51.56993],[-121.684,51.56974],[-121.68389,51.56956],[-121.68381,51.56941],[-121.68375,51.56923],[-121.68367,51.56901],[-121.68364,51.5688],[-121.68361,51.56861],[-121.68359,51.56842],[-121.68357,51.56824],[-121.68353,51.56804],[-121.68352,51.5679],[-121.68352,51.56782],[-121.68351,51.56764],[-121.68352,51.56745],[-121.68352,51.56725],[-121.68357,51.56708],[-121.68359,51.56686],[-121.68358,51.56665],[-121.68359,51.56647],[-121.68357,51.56641],[-121.68358,51.56623],[-121.68359,51.56605],[-121.68361,51.56583],[-121.68364,51.56562],[-121.68363,51.56542],[-121.68364,51.56522],[-121.68363,51.56503],[-121.68363,51.56485],[-121.68363,51.56467],[-121.6836,51.56449],[-121.68353,51.5643],[-121.68352,51.56428],[-121.68349,51.56425],[-121.68341,51.56405],[-121.68338,51.56401],[-121.68329,51.56385],[-121.68319,51.56367],[-121.68312,51.56355],[-121.683,51.56336],[-121.68288,51.56316],[-121.68279,51.56305],[-121.6827,51.56286],[-121.68268,51.56283],[-121.68257,51.56268],[-121.68245,51.56251],[-121.68234,51.56231],[-121.68224,51.56212],[-121.68213,51.56194],[-121.68202,51.56176],[-121.68195,51.56168],[-121.68181,51.56148],[-121.68167,51.56128],[-121.68156,51.56111],[-121.68145,51.56093],[-121.68134,51.56075],[-121.68126,51.56056],[-121.68118,51.56037],[-121.68107,51.56015],[-121.68093,51.55994],[-121.68088,51.55981],[-121.68077,51.55961],[-121.68072,51.55943],[-121.68065,51.55925],[-121.6806,51.55906],[-121.6806,51.55885],[-121.68067,51.55865],[-121.6807,51.55859],[-121.68076,51.55847],[-121.68087,51.55828],[-121.68099,51.55808],[-121.68105,51.55789],[-121.6811,51.5577],[-121.68116,51.5575],[-121.68126,51.55731],[-121.68136,51.55711],[-121.68144,51.55691],[-121.68149,51.55668],[-121.68154,51.55649],[-121.68155,51.55644],[-121.68159,51.55629],[-121.68165,51.5561],[-121.68173,51.55589],[-121.68176,51.55578],[-121.68179,51.55566],[-121.68184,51.55548],[-121.68189,51.55527],[-121.68198,51.55503],[-121.68205,51.55481],[-121.68207,51.55463],[-121.68207,51.55454],[-121.68206,51.55441],[-121.68209,51.55428],[-121.68211,51.55422],[-121.68212,51.55418],[-121.68219,51.554],[-121.68225,51.55381],[-121.68231,51.55369],[-121.68236,51.5536],[-121.68242,51.55339],[-121.68249,51.55317],[-121.68254,51.55294],[-121.6826,51.55271],[-121.68266,51.55252],[-121.68274,51.55234],[-121.68282,51.55216],[-121.68286,51.55204],[-121.6829,51.55198],[-121.68294,51.55188],[-121.683,51.55176],[-121.68308,51.55157],[-121.68316,51.55134],[-121.68321,51.55112],[-121.68326,51.55091],[-121.68334,51.55072],[-121.68344,51.55054],[-121.68355,51.55035],[-121.6836,51.55015],[-121.68363,51.54996],[-121.68368,51.54978],[-121.68373,51.54961],[-121.68379,51.54941],[-121.68384,51.5492],[-121.68389,51.549],[-121.68395,51.54881],[-121.68401,51.54867],[-121.68403,51.54862],[-121.68412,51.54844],[-121.68417,51.54835],[-121.6842,51.54815],[-121.68425,51.54796],[-121.68442,51.54755],[-121.68453,51.54736],[-121.68463,51.54717],[-121.68471,51.54699],[-121.68475,51.54678],[-121.68475,51.54655],[-121.68479,51.54633],[-121.68482,51.54612],[-121.68483,51.54589],[-121.68482,51.54568],[-121.68483,51.54548],[-121.68488,51.54529],[-121.68491,51.5451],[-121.68496,51.5449],[-121.68504,51.54467],[-121.68512,51.54445],[-121.68515,51.54433],[-121.68521,51.54415],[-121.68526,51.54402],[-121.68535,51.54384],[-121.68546,51.54364],[-121.68559,51.54348],[-121.6858,51.54333],[-121.68602,51.54318],[-121.68624,51.54303],[-121.68646,51.54289],[-121.68668,51.54273],[-121.6869,51.54255],[-121.68715,51.54237],[-121.68736,51.54224],[-121.68764,51.54208],[-121.68786,51.54193],[-121.68805,51.54175],[-121.68818,51.54159],[-121.68833,51.54142],[-121.68856,51.54124],[-121.68879,51.54107],[-121.68897,51.54092],[-121.68916,51.54074],[-121.68931,51.54054],[-121.68948,51.54034],[-121.68967,51.54016],[-121.6897,51.54012],[-121.68986,51.53998],[-121.69005,51.53979],[-121.69025,51.53961],[-121.6905,51.53947],[-121.69057,51.53943],[-121.69076,51.53935],[-121.69099,51.53924],[-121.69121,51.53911],[-121.69146,51.53901],[-121.69149,51.539],[-121.69172,51.53892],[-121.69198,51.53882],[-121.69213,51.53876],[-121.69223,51.53871],[-121.69248,51.53861],[-121.69274,51.53846],[-121.69283,51.53839],[-121.69294,51.53823],[-121.69306,51.53805],[-121.69316,51.53794],[-121.69318,51.53792],[-121.69334,51.53776],[-121.69339,51.53772],[-121.69346,51.53764],[-121.69349,51.5376],[-121.6937,51.53743],[-121.69389,51.53729],[-121.69404,51.53718],[-121.69409,51.53713],[-121.69423,51.53704]]}},
{"type":"Feature","properties":{"spotId":"E-grouse-drive-0042","kind":"roadside","km":6.71,"climbM":33,"name":"6.6 km N of Snag Lake rec site","flags":[]},"geometry":{"type":"LineString","coordinates":[[-121.7398,51.72803],[-121.73974,51.72805],[-121.73944,51.72812],[-121.73922,51.72817],[-121.7391,51.72819],[-121.739,51.72821],[-121.73862,51.72819],[-121.73833,51.72817],[-121.73797,51.72817],[-121.7379,51.72817],[-121.73763,51.72817],[-121.73731,51.72816],[-121.73715,51.72815],[-121.73681,51.72816],[-121.73647,51.72816],[-121.73612,51.7282],[-121.73576,51.7282],[-121.73547,51.7282],[-121.73509,51.72821],[-121.73473,51.72822],[-121.73457,51.72822],[-121.73437,51.72821],[-121.73403,51.72817],[-121.73373,51.72811],[-121.73342,51.72804],[-121.73313,51.72795],[-121.7328,51.72784],[-121.73248,51.72773],[-121.73217,51.72763],[-121.73211,51.72762],[-121.73186,51.72757],[-121.73155,51.72758],[-121.73121,51.7276],[-121.73092,51.72764],[-121.73057,51.72766],[-121.73028,51.72766],[-121.72995,51.72766],[-121.72979,51.72766],[-121.72962,51.72766],[-121.7295,51.72766],[-121.7293,51.72766],[-121.729,51.72766],[-121.72869,51.72768],[-121.72838,51.72773],[-121.72806,51.72785],[-121.72776,51.72793],[-121.72767,51.72796],[-121.72733,51.728],[-121.72705,51.72799],[-121.72697,51.72797],[-121.72671,51.72791],[-121.72653,51.72784],[-121.72627,51.72776],[-121.726,51.72765],[-121.72567,51.72757],[-121.72535,51.72753],[-121.72506,51.72744],[-121.72495,51.72741],[-121.72475,51.72736],[-121.72443,51.72731],[-121.7243,51.72729],[-121.72426,51.72726],[-121.72407,51.72716],[-121.72386,51.72701],[-121.72365,51.72686],[-121.72343,51.7267],[-121.72318,51.7265],[-121.72304,51.7264],[-121.72294,51.72635],[-121.72286,51.72634],[-121.72258,51.72631],[-121.72229,51.7263],[-121.72198,51.7263],[-121.72164,51.72626],[-121.7213,51.7262],[-121.72103,51.72617],[-121.72099,51.72616],[-121.7207,51.72613],[-121.72039,51.72612],[-121.72008,51.7261],[-121.72,51.7261],[-121.71969,51.72603],[-121.71942,51.72591],[-121.71913,51.7258],[-121.71886,51.72573],[-121.71855,51.72569],[-121.71824,51.72565],[-121.71793,51.72564],[-121.71761,51.72571],[-121.71728,51.72581],[-121.71698,51.72591],[-121.71692,51.72593],[-121.71675,51.72598],[-121.71671,51.726],[-121.7164,51.726],[-121.71623,51.72597],[-121.71597,51.72586],[-121.71568,51.72574],[-121.71538,51.72565],[-121.71505,51.72557],[-121.71471,51.72551],[-121.71462,51.72548],[-121.7143,51.72543],[-121.71422,51.72542],[-121.71393,51.72543],[-121.71361,51.72543],[-121.71351,51.72545],[-121.71327,51.72548],[-121.71317,51.72548],[-121.71293,51.72552],[-121.71287,51.72552],[-121.71261,51.72556],[-121.71229,51.72559],[-121.712,51.72561],[-121.71168,51.72561],[-121.71163,51.72561],[-121.71126,51.7256],[-121.71094,51.72555],[-121.71091,51.72555],[-121.71077,51.72553],[-121.71048,51.72545],[-121.71042,51.72543],[-121.71037,51.7254],[-121.71012,51.72527],[-121.70982,51.72518],[-121.70955,51.72507],[-121.70925,51.72495],[-121.70911,51.72487],[-121.70879,51.72479],[-121.70859,51.72473],[-121.70832,51.72461],[-121.70816,51.72454],[-121.70789,51.72442],[-121.70765,51.72432],[-121.70737,51.72424],[-121.70709,51.72415],[-121.70701,51.72412],[-121.70667,51.72405],[-121.70638,51.72401],[-121.70608,51.72396],[-121.70583,51.72389],[-121.70552,51.72382],[-121.70524,51.72373],[-121.70496,51.72361],[-121.70472,51.72348],[-121.70447,51.72338],[-121.70417,51.7233],[-121.70387,51.72323],[-121.70375,51.7232],[-121.70341,51.72307],[-121.7031,51.72287],[-121.70294,51.72267],[-121.70281,51.72247],[-121.70271,51.72234],[-121.70261,51.72225],[-121.70235,51.72212],[-121.70217,51.72204],[-121.70187,51.72192],[-121.70156,51.72186],[-121.70125,51.7218],[-121.70093,51.72174],[-121.70079,51.72171],[-121.70054,51.72159],[-121.70026,51.72147],[-121.69995,51.7214],[-121.69964,51.72138],[-121.69935,51.72134],[-121.69902,51.72127],[-121.69875,51.72118],[-121.69865,51.72112],[-121.69857,51.72105],[-121.69838,51.72088],[-121.69818,51.72073],[-121.69798,51.72058],[-121.69778,51.7204],[-121.69751,51.72023],[-121.6972,51.72012],[-121.69685,51.72005],[-121.6965,51.72005],[-121.6962,51.72005],[-121.6959,51.72005],[-121.69558,51.71998],[-121.69534,51.71983],[-121.69517,51.71967],[-121.695,51.71952],[-121.69477,51.71938],[-121.69461,51.71933],[-121.6945,51.71928],[-121.69418,51.71928],[-121.69385,51.71928],[-121.69375,51.71927],[-121.69349,51.71918],[-121.69329,51.71901],[-121.69321,51.71881],[-121.69298,51.71869],[-121.69281,51.7187],[-121.69251,51.71883],[-121.69222,51.71886],[-121.69193,51.71886],[-121.69163,51.71888],[-121.69134,51.71888],[-121.69102,51.71887],[-121.69069,51.71884],[-121.69034,51.71878],[-121.68998,51.71873],[-121.6897,51.7187],[-121.68941,51.71872],[-121.68909,51.71878],[-121.68885,51.7189],[-121.68882,51.71897],[-121.68885,51.71907],[-121.68891,51.71927],[-121.68894,51.71946],[-121.68892,51.71965],[-121.68881,51.71984],[-121.68867,51.72004],[-121.68848,51.72024],[-121.68836,51.72034],[-121.6883,51.72035],[-121.68797,51.72031],[-121.68765,51.72032],[-121.6873,51.72032],[-121.68703,51.72038],[-121.68691,51.7204],[-121.68656,51.72053],[-121.6864,51.7206],[-121.68613,51.72072],[-121.68586,51.7208],[-121.68554,51.72081],[-121.68519,51.72079],[-121.6849,51.72074],[-121.6847,51.7206],[-121.68466,51.72052],[-121.68454,51.72033],[-121.6844,51.72015],[-121.6842,51.71999],[-121.68402,51.71984],[-121.68394,51.71965],[-121.68381,51.71948],[-121.68354,51.71926],[-121.68348,51.71925],[-121.68314,51.71926],[-121.6828,51.71926],[-121.68246,51.71926],[-121.68212,51.71926],[-121.68179,51.71922],[-121.68147,51.71916],[-121.68119,51.7191],[-121.68088,51.71905],[-121.6806,51.719],[-121.68045,51.71897],[-121.68018,51.71889],[-121.67989,51.71881],[-121.67959,51.71874],[-121.67929,51.71868],[-121.67897,51.71859],[-121.67867,51.71851],[-121.67835,51.71843],[-121.67807,51.71836],[-121.67784,51.71825],[-121.67761,51.71809],[-121.67738,51.71797],[-121.67713,51.71784],[-121.67684,51.71773],[-121.67655,51.71763],[-121.67627,51.71753],[-121.67599,51.71745],[-121.67568,51.71741],[-121.67539,51.71743],[-121.67524,51.71745],[-121.67515,51.71746],[-121.67489,51.71759],[-121.67483,51.71764],[-121.67478,51.71773],[-121.67479,51.71792],[-121.6748,51.71811],[-121.67481,51.71829],[-121.6748,51.7185],[-121.67478,51.71872],[-121.67478,51.71891],[-121.67479,51.71912],[-121.6748,51.71931],[-121.67479,51.7195],[-121.67471,51.71971],[-121.67459,51.71988],[-121.67443,51.72008],[-121.67442,51.72026],[-121.67446,51.72046],[-121.67447,51.72066],[-121.67446,51.72087],[-121.67446,51.721],[-121.67444,51.72102],[-121.67441,51.72111],[-121.6743,51.72129],[-121.6742,51.72148],[-121.67419,51.72169],[-121.67413,51.72188],[-121.67401,51.72202],[-121.67385,51.72209],[-121.67351,51.72211],[-121.67322,51.7221],[-121.67292,51.72208],[-121.67263,51.72205],[-121.67231,51.72198],[-121.67203,51.72191],[-121.67174,51.72185],[-121.67145,51.72177],[-121.67118,51.72167],[-121.67092,51.72157],[-121.67063,51.72151],[-121.6703,51.72149],[-121.66998,51.72144],[-121.66967,51.72135],[-121.66935,51.72123],[-121.66908,51.72113],[-121.66877,51.72104],[-121.66846,51.72097],[-121.66812,51.72094],[-121.6678,51.72094],[-121.6675,51.72092],[-121.66742,51.72091],[-121.66712,51.72082],[-121.66695,51.72075],[-121.66666,51.72068],[-121.66635,51.72061],[-121.66604,51.72056],[-121.66577,51.72049],[-121.66545,51.7204],[-121.66514,51.7203],[-121.66488,51.72019],[-121.66464,51.72005],[-121.66438,51.71992],[-121.66414,51.7198],[-121.66383,51.71968],[-121.66355,51.71961],[-121.66321,51.71951],[-121.66288,51.71945],[-121.66259,51.7194],[-121.66228,51.71941],[-121.66199,51.71945],[-121.66172,51.71956],[-121.66151,51.71969],[-121.66126,51.71985],[-121.6611,51.71992]]}},
{"type":"Feature","properties":{"spotId":"E-grouse-drive-0048","kind":"roadside","km":5.84,"climbM":70,"name":"3.2 km NE of Snag Lake rec site","flags":[]},"geometry":{"type":"LineString","coordinates":[[-121.71338,51.68825],[-121.71368,51.68824],[-121.71372,51.68823],[-121.71406,51.68821],[-121.71416,51.6882],[-121.71439,51.68816],[-121.7147,51.68811],[-121.71503,51.68805],[-121.71535,51.68799],[-121.71564,51.68793],[-121.71592,51.68787],[-121.71621,51.68781],[-121.71625,51.6878],[-121.7165,51.68775],[-121.71679,51.68768],[-121.71711,51.68767],[-121.71746,51.68762],[-121.71778,51.68761],[-121.71795,51.68758],[-121.718,51.68755],[-121.71829,51.68743],[-121.71839,51.68735],[-121.7185,51.68727],[-121.71862,51.68709],[-121.71863,51.68705],[-121.71865,51.68702],[-121.71869,51.68697],[-121.71874,51.68688],[-121.7188,51.68676],[-121.71891,51.68654],[-121.71898,51.68636],[-121.71906,51.68614],[-121.71917,51.68593],[-121.71931,51.68572],[-121.71946,51.68555],[-121.71962,51.68535],[-121.71975,51.68519],[-121.71995,51.685],[-121.72004,51.68492],[-121.72014,51.68483],[-121.72023,51.68476],[-121.72046,51.68465],[-121.72073,51.68453],[-121.72098,51.6844],[-121.7212,51.68425],[-121.72139,51.68408],[-121.7215,51.6839],[-121.72152,51.68371],[-121.72154,51.68351],[-121.72164,51.68333],[-121.72182,51.68318],[-121.72187,51.68316],[-121.72213,51.68304],[-121.72244,51.68299],[-121.72272,51.68298],[-121.72307,51.68301],[-121.72339,51.68302],[-121.72372,51.68303],[-121.72407,51.68306],[-121.72427,51.68307],[-121.72444,51.68308],[-121.72476,51.68307],[-121.72507,51.68305],[-121.72538,51.68304],[-121.72572,51.68302],[-121.72608,51.68297],[-121.72663,51.68285],[-121.72694,51.6828],[-121.72723,51.68274],[-121.72752,51.68267],[-121.72778,51.68256],[-121.72828,51.68234],[-121.72856,51.68226],[-121.72885,51.68215],[-121.72916,51.68206],[-121.72947,51.68195],[-121.7297,51.68183],[-121.72998,51.68171],[-121.73039,51.68154],[-121.73042,51.68153],[-121.73067,51.68142],[-121.7307,51.68141],[-121.73084,51.68131],[-121.73109,51.6812],[-121.73138,51.68109],[-121.7316,51.68102],[-121.732,51.68092],[-121.73224,51.68087],[-121.73235,51.68085],[-121.73267,51.68082],[-121.7328,51.68079],[-121.73314,51.68077],[-121.73345,51.68077],[-121.73377,51.68077],[-121.73407,51.68078],[-121.73436,51.68077],[-121.73469,51.68075],[-121.73485,51.68071],[-121.73498,51.68066],[-121.73525,51.68057],[-121.73551,51.68046],[-121.73577,51.68035],[-121.73607,51.68022],[-121.73636,51.6801],[-121.73661,51.68],[-121.73686,51.67991],[-121.73715,51.67977],[-121.73733,51.67963],[-121.7375,51.67955],[-121.73774,51.67944],[-121.73794,51.67931],[-121.73818,51.67917],[-121.73836,51.67905],[-121.7385,51.67895],[-121.73875,51.67882],[-121.739,51.67861],[-121.7392,51.67845],[-121.7393,51.67839],[-121.73946,51.67829],[-121.73965,51.67817],[-121.73983,51.67802],[-121.73995,51.67789],[-121.73998,51.67786],[-121.74004,51.67778],[-121.74014,51.67765],[-121.74032,51.67748],[-121.74053,51.67734],[-121.74076,51.67719],[-121.74097,51.67703],[-121.74112,51.67694],[-121.74121,51.67689],[-121.74132,51.67681],[-121.74135,51.67677],[-121.74158,51.67664],[-121.74168,51.6766],[-121.74172,51.67658],[-121.74194,51.67647],[-121.742,51.67645],[-121.74226,51.67636],[-121.74251,51.67626],[-121.74257,51.67621],[-121.74276,51.67607],[-121.74301,51.67587],[-121.74321,51.67568],[-121.74339,51.6755],[-121.74351,51.67538],[-121.74367,51.67522],[-121.74383,51.67506],[-121.74405,51.67491],[-121.74433,51.67476],[-121.74454,51.67462],[-121.74479,51.67445],[-121.74486,51.67435],[-121.74495,51.67427],[-121.7452,51.67413],[-121.74572,51.67388],[-121.74597,51.67375],[-121.74617,51.6736],[-121.74636,51.67344],[-121.74669,51.67309],[-121.74694,51.67291],[-121.74716,51.67277],[-121.74738,51.67265],[-121.74759,51.67252],[-121.74781,51.67236],[-121.74802,51.67215],[-121.7482,51.67194],[-121.74839,51.67179],[-121.74851,51.67163],[-121.74854,51.67161],[-121.74857,51.67152],[-121.74865,51.67136],[-121.74876,51.67117],[-121.74886,51.67096],[-121.74894,51.67085],[-121.74904,51.67064],[-121.74906,51.67062],[-121.74909,51.67053],[-121.74912,51.67045],[-121.74913,51.67025],[-121.74912,51.6701],[-121.74912,51.66991],[-121.74911,51.66973],[-121.74906,51.66955],[-121.74896,51.66934],[-121.74888,51.66913],[-121.74886,51.66891],[-121.74887,51.6687],[-121.74899,51.66848],[-121.74917,51.66831],[-121.74939,51.66816],[-121.74962,51.668],[-121.74984,51.66784],[-121.75004,51.66769],[-121.75026,51.66753],[-121.75055,51.66739],[-121.75079,51.66726],[-121.75102,51.66715],[-121.75127,51.66702],[-121.75151,51.66688],[-121.75171,51.66673],[-121.7519,51.66658],[-121.75214,51.66645],[-121.75237,51.66632],[-121.75259,51.66618],[-121.75282,51.66604],[-121.75306,51.66594],[-121.75334,51.66581],[-121.75353,51.66567],[-121.75371,51.66552],[-121.75393,51.66538],[-121.75417,51.66525],[-121.7544,51.66508],[-121.75464,51.6649],[-121.75483,51.66472],[-121.75504,51.66455],[-121.75526,51.6644],[-121.7555,51.66423],[-121.75573,51.6641],[-121.75597,51.66397],[-121.7562,51.66385],[-121.75646,51.66373],[-121.75669,51.66359],[-121.75691,51.66344],[-121.75716,51.66333],[-121.75745,51.66321],[-121.75767,51.66309],[-121.7577,51.66307],[-121.75777,51.66303],[-121.75793,51.66293],[-121.75817,51.6628],[-121.75842,51.66268],[-121.75865,51.66256],[-121.75893,51.66238],[-121.75925,51.6622],[-121.75936,51.66214],[-121.75958,51.66201],[-121.75962,51.66198],[-121.75991,51.66184],[-121.76015,51.66171],[-121.76041,51.66156],[-121.76065,51.66142],[-121.7609,51.6613],[-121.76103,51.66126],[-121.76116,51.6612],[-121.76122,51.66118],[-121.76142,51.66109],[-121.76147,51.66106],[-121.76163,51.66097],[-121.76184,51.66084],[-121.76216,51.66064],[-121.76236,51.66055],[-121.76264,51.66043],[-121.76296,51.66031],[-121.76327,51.66016],[-121.76352,51.66003],[-121.76375,51.65991],[-121.7639,51.65982],[-121.764,51.65977],[-121.76425,51.65964],[-121.76447,51.65949],[-121.76471,51.65938],[-121.76505,51.65914],[-121.76531,51.65903],[-121.76556,51.65889],[-121.76581,51.65876],[-121.76606,51.65861],[-121.76631,51.65851],[-121.76659,51.65842],[-121.76683,51.65831],[-121.76714,51.65821],[-121.76736,51.65809],[-121.76743,51.65805],[-121.76764,51.65795],[-121.76784,51.65785],[-121.76793,51.65781],[-121.76812,51.65767],[-121.76836,51.65754],[-121.76859,51.65741],[-121.76881,51.65727],[-121.76906,51.65712],[-121.7693,51.65696],[-121.76956,51.65681],[-121.76984,51.65666],[-121.77002,51.65651],[-121.77021,51.65636],[-121.77045,51.65621],[-121.7706,51.65614],[-121.7707,51.6561],[-121.77095,51.65596],[-121.77118,51.65582],[-121.77143,51.65566],[-121.77172,51.65552],[-121.77195,51.65537],[-121.77215,51.65521],[-121.77228,51.65515]]}},
{"type":"Feature","properties":{"spotId":"E-moose-atv-0059","kind":"ride","km":2.69,"climbM":14,"name":"1.5 km E of Fish Lake","flags":[]},"geometry":{"type":"LineString","coordinates":[[-121.61689,51.65554],[-121.61702,51.65565],[-121.61722,51.65579],[-121.61743,51.65595],[-121.61767,51.6561],[-121.61794,51.65629],[-121.61811,51.65649],[-121.61822,51.6566],[-121.61828,51.65666],[-121.61849,51.65684],[-121.61871,51.65698],[-121.61874,51.657],[-121.61901,51.65713],[-121.6193,51.65723],[-121.61938,51.65727],[-121.61976,51.65741],[-121.62003,51.65753],[-121.62022,51.65769],[-121.62038,51.65788],[-121.62053,51.65808],[-121.62071,51.65826],[-121.62087,51.65842],[-121.62105,51.65862],[-121.62119,51.65875],[-121.62122,51.65879],[-121.62131,51.65898],[-121.62132,51.65911],[-121.62132,51.6592],[-121.6214,51.6594],[-121.6215,51.65962],[-121.62165,51.65984],[-121.62177,51.66002],[-121.62184,51.66014],[-121.62198,51.66034],[-121.62209,51.66052],[-121.6221,51.66056],[-121.62197,51.66075],[-121.62189,51.66081],[-121.62176,51.66094],[-121.6216,51.6611],[-121.62145,51.66126],[-121.62139,51.66137],[-121.62139,51.66158],[-121.62147,51.66176],[-121.62161,51.66193],[-121.62177,51.66211],[-121.62191,51.66229],[-121.62195,51.66233],[-121.62206,51.66245],[-121.62224,51.66266],[-121.62237,51.66288],[-121.62238,51.6629],[-121.62245,51.66308],[-121.62245,51.66328],[-121.62246,51.66346],[-121.62246,51.66349],[-121.62247,51.6637],[-121.62251,51.66391],[-121.62256,51.66412],[-121.62264,51.66432],[-121.62272,51.66445],[-121.62275,51.6645],[-121.62295,51.6647],[-121.62316,51.66485],[-121.6234,51.66498],[-121.62364,51.66511],[-121.62393,51.66523],[-121.62423,51.66534],[-121.62456,51.66544],[-121.62483,51.66549],[-121.6249,51.66551],[-121.62526,51.66558],[-121.62564,51.66566],[-121.62598,51.66572],[-121.62634,51.66578],[-121.62669,51.66585],[-121.627,51.66591],[-121.6273,51.666],[-121.62763,51.6661],[-121.62798,51.6662],[-121.62831,51.66626],[-121.62862,51.66633],[-121.62891,51.6664],[-121.629,51.66642],[-121.62924,51.66652],[-121.62948,51.66669],[-121.62963,51.66688],[-121.62963,51.66691],[-121.62963,51.66694],[-121.62964,51.66709],[-121.62964,51.66727],[-121.62971,51.66734],[-121.62999,51.66744],[-121.63034,51.66748],[-121.63063,51.6675],[-121.63099,51.66749],[-121.63116,51.66749],[-121.63134,51.6675],[-121.63168,51.6675],[-121.63206,51.66752],[-121.63242,51.66759],[-121.6327,51.66766],[-121.63302,51.66772],[-121.63335,51.66776],[-121.63367,51.66781],[-121.63376,51.66783],[-121.63397,51.66788],[-121.63414,51.66793],[-121.63427,51.66797],[-121.63431,51.66798],[-121.63456,51.66806],[-121.63483,51.66817],[-121.6351,51.66832],[-121.63513,51.66834],[-121.63518,51.66838],[-121.63536,51.66849],[-121.63561,51.66864],[-121.63591,51.6688],[-121.63624,51.66893],[-121.63657,51.66905],[-121.63691,51.66919],[-121.63721,51.66934],[-121.63749,51.66951],[-121.63776,51.66965],[-121.63802,51.66978],[-121.63836,51.66991],[-121.63859,51.66999],[-121.63869,51.67002],[-121.63881,51.67007],[-121.63898,51.67016],[-121.63896,51.67034],[-121.63895,51.6705],[-121.63895,51.67052],[-121.63893,51.67071],[-121.63891,51.67092],[-121.63892,51.67111],[-121.63892,51.6713],[-121.6389,51.67139],[-121.63876,51.6716],[-121.63864,51.67179]]}},
{"type":"Feature","properties":{"spotId":"E-moose-atv-0059","kind":"walk","km":0.16,"climbM":1,"name":"1.5 km E of Fish Lake","flags":[]},"geometry":{"type":"LineString","coordinates":[[-121.63864,51.67179],[-121.63634,51.67146]]}},
{"type":"Feature","properties":{"spotId":"E-moose-atv-0061","kind":"ride","km":3.58,"climbM":24,"name":"850 m NW of Boar Lake rec site","flags":[]},"geometry":{"type":"LineString","coordinates":[[-121.6807,51.55859],[-121.68043,51.55849],[-121.68013,51.55836],[-121.67986,51.55822],[-121.67952,51.5581],[-121.67936,51.55804],[-121.67929,51.55802],[-121.6791,51.55798],[-121.67877,51.55789],[-121.67851,51.5578],[-121.67826,51.55769],[-121.67814,51.55764],[-121.67796,51.55758],[-121.67782,51.55753],[-121.6777,51.5575],[-121.67752,51.55745],[-121.67727,51.55739],[-121.67707,51.55736],[-121.67693,51.55732],[-121.67676,51.55728],[-121.67645,51.55723],[-121.67644,51.55723],[-121.67612,51.5572],[-121.67583,51.5572],[-121.67552,51.55721],[-121.67517,51.55726],[-121.67488,51.55731],[-121.67456,51.55733],[-121.67423,51.55734],[-121.67417,51.55735],[-121.67384,51.5575],[-121.67354,51.55756],[-121.67339,51.55755],[-121.67336,51.55755],[-121.67305,51.55755],[-121.67273,51.55747],[-121.67245,51.5574],[-121.67231,51.55741],[-121.67198,51.55743],[-121.67166,51.55748],[-121.67145,51.55751],[-121.67116,51.55757],[-121.67085,51.55757],[-121.67078,51.55753],[-121.67072,51.55749],[-121.67065,51.55742],[-121.67054,51.55731],[-121.67031,51.55717],[-121.67004,51.55695],[-121.66982,51.55673],[-121.66976,51.55663],[-121.66974,51.55645],[-121.66975,51.55626],[-121.66977,51.55606],[-121.66983,51.5558],[-121.66982,51.55567],[-121.66979,51.55562],[-121.66968,51.55551],[-121.66944,51.55531],[-121.66923,51.55514],[-121.66898,51.55498],[-121.66872,51.55485],[-121.66838,51.55464],[-121.6681,51.55449],[-121.66798,51.55449],[-121.66782,51.55452],[-121.66756,51.55464],[-121.66744,51.55472],[-121.66742,51.55474],[-121.66725,51.55482],[-121.66696,51.55476],[-121.66666,51.55469],[-121.66655,51.55468],[-121.66623,51.55466],[-121.6659,51.55465],[-121.66568,51.55462],[-121.66541,51.55452],[-121.66518,51.55448],[-121.66492,51.55439],[-121.66464,51.55431],[-121.66437,51.55422],[-121.66415,51.55411],[-121.66397,51.55397],[-121.66379,51.5538],[-121.66358,51.55368],[-121.66333,51.55355],[-121.66309,51.55338],[-121.66288,51.55318],[-121.66269,51.55298],[-121.66248,51.55281],[-121.66241,51.55275],[-121.66226,51.55264],[-121.66205,51.55251],[-121.66182,51.55237],[-121.66154,51.55217],[-121.66131,51.55206],[-121.66112,51.55198],[-121.66087,51.55187],[-121.66059,51.55176],[-121.66024,51.55178],[-121.65989,51.55178],[-121.65956,51.55176],[-121.65928,51.55171],[-121.65925,51.55171],[-121.65899,51.55167],[-121.65869,51.55163],[-121.65847,51.55159],[-121.65836,51.55156],[-121.65826,51.55149],[-121.65815,51.55143],[-121.65808,51.55135],[-121.65808,51.55116],[-121.65807,51.55106],[-121.65792,51.55087],[-121.65772,51.55073],[-121.65754,51.55057],[-121.65737,51.55038],[-121.65721,51.55022],[-121.65693,51.5501],[-121.6566,51.54999],[-121.65629,51.54988],[-121.65618,51.54976],[-121.65618,51.54958],[-121.65616,51.5494],[-121.65599,51.54922],[-121.65578,51.54907],[-121.65562,51.54891],[-121.65554,51.54871],[-121.65549,51.54854],[-121.65535,51.54833],[-121.65527,51.54813],[-121.65529,51.54794],[-121.65535,51.54776],[-121.65549,51.54758],[-121.65548,51.54749],[-121.65543,51.54728],[-121.65535,51.54709],[-121.6553,51.54701],[-121.65515,51.54681],[-121.65491,51.5466],[-121.65487,51.54652],[-121.65486,51.5464],[-121.65485,51.54618],[-121.65497,51.54599],[-121.65515,51.54581],[-121.65535,51.54561],[-121.65552,51.54542],[-121.6556,51.54534],[-121.65561,51.54529],[-121.65575,51.5451],[-121.65586,51.54488],[-121.65588,51.54469],[-121.65591,51.54458],[-121.65593,51.54449],[-121.65594,51.54446],[-121.65622,51.54429],[-121.65647,51.54418],[-121.6567,51.54403],[-121.65684,51.54383],[-121.6569,51.54363],[-121.65695,51.54345],[-121.65702,51.54327],[-121.65707,51.54305],[-121.6571,51.54286],[-121.65719,51.54265],[-121.65722,51.54261],[-121.65733,51.54241],[-121.65749,51.5422],[-121.65767,51.54202],[-121.65797,51.54186],[-121.65819,51.54172],[-121.65842,51.54159],[-121.65868,51.54147],[-121.65899,51.54123],[-121.65947,51.54111],[-121.65988,51.54093],[-121.66042,51.54083],[-121.66111,51.54077],[-121.66142,51.54073],[-121.66166,51.54069],[-121.66192,51.54062],[-121.66206,51.54055],[-121.66223,51.54048],[-121.66233,51.54042],[-121.66248,51.54034]]}},
{"type":"Feature","properties":{"spotId":"E-moose-atv-0061","kind":"walk","km":0.32,"climbM":1,"name":"850 m NW of Boar Lake rec site","flags":[]},"geometry":{"type":"LineString","coordinates":[[-121.66248,51.54034],[-121.66562,51.54245]]}},
{"type":"Feature","properties":{"spotId":"E-moose-drive-0049","kind":"walk","km":0.09,"climbM":3,"name":"210 m NE of Dog Creek","flags":[]},"geometry":{"type":"LineString","coordinates":[[-121.69799,51.53459],[-121.69687,51.53419]]}},
{"type":"Feature","properties":{"spotId":"E-moose-walk-0092","kind":"walk","km":2.25,"climbM":16,"name":"650 m NE of Rock Lake","flags":["Route crosses provincial park: Moose Valley Park. Hunting only where that park allows it, in open season. Check its bcparks.ca page (synopsis page 9, 99%)."]},"geometry":{"type":"LineString","coordinates":[[-121.65126,51.65675],[-121.66142,51.67596]]}}
]}
