{"type":"FeatureCollection","features":[
{"type":"Feature","properties":{"spotId":"E-camp-camp-0015","kind":"walk","km":0.04,"climbM":0,"name":"By McEwen Creek","flags":[]},"geometry":{"type":"LineString","coordinates":[[-122.42365,51.69916],[-122.42357,51.69953]]}},
{"type":"Feature","properties":{"spotId":"E-deer-atv-0061","kind":"ride","km":5.82,"climbM":207,"name":"650 m SW of Meason Creek","flags":[]},"geometry":{"type":"LineString","coordinates":[[-122.25301,51.68214],[-122.25339,51.68203],[-122.25358,51.68196],[-122.25376,51.68193],[-122.25379,51.68193],[-122.25394,51.68192],[-122.25416,51.68192],[-122.25436,51.68194],[-122.25465,51.68205],[-122.25494,51.68218],[-122.25528,51.68231],[-122.25541,51.68233],[-122.2557,51.68241],[-122.25592,51.6824],[-122.25609,51.6824],[-122.25606,51.68237],[-122.25595,51.68226],[-122.25584,51.68214],[-122.25579,51.68209],[-122.25574,51.68203],[-122.25565,51.68191],[-122.25544,51.68172],[-122.25518,51.68147],[-122.2551,51.68135],[-122.255,51.68124],[-122.2549,51.68109],[-122.2548,51.68097],[-122.25478,51.68096],[-122.25466,51.68082],[-122.2545,51.68069],[-122.2542,51.68049],[-122.25406,51.68042],[-122.25376,51.68022],[-122.25361,51.68011],[-122.25348,51.67999],[-122.25326,51.67976],[-122.25311,51.67964],[-122.25303,51.67963],[-122.25298,51.67964],[-122.25285,51.67967],[-122.2525,51.67974],[-122.25233,51.67978],[-122.25213,51.67981],[-122.25192,51.67984],[-122.25136,51.67992],[-122.25116,51.67995],[-122.25094,51.68],[-122.25074,51.68003],[-122.25027,51.6801],[-122.25007,51.68012],[-122.24985,51.68016],[-122.24936,51.68025],[-122.24892,51.6803],[-122.24872,51.68033],[-122.24849,51.68037],[-122.24827,51.68038],[-122.24802,51.68039],[-122.24776,51.68035],[-122.24755,51.68032],[-122.24736,51.68028],[-122.24716,51.68022],[-122.24681,51.68013],[-122.24663,51.68007],[-122.24644,51.68001],[-122.24609,51.67993],[-122.24586,51.67986],[-122.24563,51.67981],[-122.24545,51.67975],[-122.24504,51.67966],[-122.24481,51.67961],[-122.24464,51.67958],[-122.24445,51.67953],[-122.24422,51.67948],[-122.24399,51.67941],[-122.24379,51.67937],[-122.24349,51.6793],[-122.2432,51.67924],[-122.24291,51.67917],[-122.24274,51.67913],[-122.24255,51.6791],[-122.24236,51.67907],[-122.24193,51.67894],[-122.24167,51.67888],[-122.24141,51.67882],[-122.24098,51.67878],[-122.2406,51.67872],[-122.24055,51.67871],[-122.24049,51.6787],[-122.24011,51.67865],[-122.23972,51.6786],[-122.23965,51.67859],[-122.23945,51.67856],[-122.23902,51.67851],[-122.2388,51.67847],[-122.23861,51.67844],[-122.23844,51.67841],[-122.23819,51.67838],[-122.23796,51.67835],[-122.23778,51.67831],[-122.2376,51.67828],[-122.23717,51.67821],[-122.23694,51.67816],[-122.23672,51.67811],[-122.23654,51.67807],[-122.23641,51.67805],[-122.23593,51.67798],[-122.23558,51.67793],[-122.23537,51.67788],[-122.23517,51.67784],[-122.23498,51.67782],[-122.23479,51.6778],[-122.2346,51.6778],[-122.23441,51.67779],[-122.23417,51.67775],[-122.23391,51.67772],[-122.23372,51.67769],[-122.23352,51.67767],[-122.23332,51.67766],[-122.23301,51.67763],[-122.23275,51.67764],[-122.23249,51.67764],[-122.23218,51.67764],[-122.23186,51.67765],[-122.23163,51.67764],[-122.23141,51.67762],[-122.23118,51.67759],[-122.23103,51.67758],[-122.23095,51.67757],[-122.23074,51.67756],[-122.23054,51.67756],[-122.23031,51.67757],[-122.23009,51.67757],[-122.2296,51.67758],[-122.22937,51.67759],[-122.22915,51.67759],[-122.22892,51.67758],[-122.22868,51.67757],[-122.22842,51.67756],[-122.22814,51.67755],[-122.2279,51.67751],[-122.22782,51.67754],[-122.22761,51.67752],[-122.22738,51.67751],[-122.22713,51.67749],[-122.22687,51.67747],[-122.22665,51.67746],[-122.22642,51.67745],[-122.22599,51.67745],[-122.2258,51.67744],[-122.2256,51.67743],[-122.22548,51.67742],[-122.22537,51.67742],[-122.22515,51.6774],[-122.22496,51.67739],[-122.22477,51.67737],[-122.22456,51.67737],[-122.22434,51.67736],[-122.22412,51.67733],[-122.22392,51.67729],[-122.22371,51.67726],[-122.2235,51.6772],[-122.22329,51.67714],[-122.22327,51.67714],[-122.22306,51.67706],[-122.22287,51.67698],[-122.2227,51.67691],[-122.2225,51.67683],[-122.22213,51.67668],[-122.22192,51.67662],[-122.22172,51.67656],[-122.22151,51.6765],[-122.22122,51.67639],[-122.22119,51.67639],[-122.22086,51.6763],[-122.22049,51.67617],[-122.22015,51.67604],[-122.21984,51.67593],[-122.21949,51.67578],[-122.21931,51.67573],[-122.21913,51.67571],[-122.2189,51.67571],[-122.21867,51.67569],[-122.21843,51.67563],[-122.21818,51.67556],[-122.21778,51.67545],[-122.21765,51.67542],[-122.21743,51.67541],[-122.21709,51.6754],[-122.2168,51.67541],[-122.21648,51.67543],[-122.21627,51.67544],[-122.21617,51.67548],[-122.21598,51.6755],[-122.21578,51.67551],[-122.21556,51.67553],[-122.21536,51.67556],[-122.21517,51.67563],[-122.215,51.67569],[-122.21479,51.67576],[-122.21461,51.67582],[-122.21443,51.67591],[-122.21422,51.67607],[-122.21421,51.67609],[-122.21411,51.67622],[-122.21399,51.67637],[-122.21385,51.67654],[-122.21381,51.67661],[-122.21358,51.6768],[-122.21349,51.67691],[-122.2134,51.67703],[-122.21331,51.67713],[-122.21319,51.67725],[-122.21294,51.67744],[-122.21274,51.67759],[-122.21246,51.67778],[-122.21217,51.678],[-122.21192,51.67821],[-122.21173,51.67838],[-122.21159,51.67852],[-122.21151,51.6786],[-122.21134,51.67873],[-122.21117,51.67881],[-122.21098,51.67888],[-122.21069,51.67904],[-122.21041,51.67918],[-122.21007,51.67936],[-122.20977,51.67951],[-122.20942,51.6797],[-122.2091,51.67988],[-122.20866,51.68015],[-122.20831,51.68032],[-122.20804,51.68048],[-122.20788,51.68069],[-122.20782,51.68081],[-122.20779,51.68094],[-122.2078,51.68109],[-122.20783,51.68125],[-122.20783,51.68138],[-122.20777,51.68151],[-122.20762,51.68161],[-122.20727,51.68173],[-122.2071,51.68176],[-122.20687,51.68176],[-122.20663,51.68175],[-122.20643,51.68174],[-122.20621,51.68173],[-122.20598,51.68172],[-122.20575,51.68178],[-122.20546,51.68195],[-122.20528,51.68203],[-122.20493,51.68219],[-122.20458,51.68234],[-122.20425,51.68248],[-122.20397,51.68265],[-122.20372,51.68284],[-122.20344,51.68302],[-122.20314,51.68323],[-122.20296,51.68334],[-122.20271,51.68353],[-122.20243,51.6837],[-122.20218,51.68386],[-122.2018,51.6841],[-122.20166,51.68418],[-122.20142,51.68436],[-122.20116,51.68456],[-122.2009,51.68476],[-122.20079,51.68484],[-122.20075,51.6849],[-122.20059,51.685],[-122.20043,51.68512],[-122.20027,51.68523],[-122.2,51.68543],[-122.19999,51.68544],[-122.19987,51.68556],[-122.19971,51.68569],[-122.19947,51.68591],[-122.19919,51.68612],[-122.19905,51.68623],[-122.199,51.68627],[-122.19883,51.68644],[-122.19869,51.68656],[-122.19856,51.68668],[-122.19852,51.68675],[-122.1985,51.68689],[-122.1985,51.68698],[-122.1985,51.68701],[-122.19848,51.68713],[-122.19848,51.68747],[-122.19846,51.68761],[-122.19841,51.68775],[-122.19834,51.6879],[-122.19826,51.68805],[-122.19823,51.68809],[-122.1982,51.68814],[-122.19807,51.68824],[-122.19804,51.68825],[-122.19774,51.68838],[-122.19743,51.68855],[-122.19725,51.68862],[-122.19702,51.68868],[-122.19679,51.68872],[-122.19656,51.68877],[-122.19635,51.68881],[-122.19605,51.68885],[-122.19585,51.68887],[-122.19559,51.68891],[-122.1953,51.68894],[-122.19517,51.68898],[-122.19493,51.68904],[-122.19473,51.68911],[-122.19469,51.68914],[-122.19463,51.68916],[-122.19454,51.6892],[-122.19436,51.68931],[-122.19417,51.68941],[-122.19398,51.68947],[-122.19378,51.68953],[-122.19362,51.68955],[-122.19359,51.68956],[-122.19342,51.6896],[-122.1933,51.68964],[-122.19323,51.68966],[-122.19295,51.68973],[-122.19266,51.68981],[-122.19237,51.68987],[-122.19218,51.6899],[-122.19195,51.68995],[-122.19178,51.69],[-122.19173,51.69001],[-122.19153,51.6901],[-122.19135,51.69018],[-122.19118,51.69024]]}},
{"type":"Feature","properties":{"spotId":"E-deer-atv-0061","kind":"walk","km":0.08,"climbM":14,"name":"650 m SW of Meason Creek","flags":[]},"geometry":{"type":"LineString","coordinates":[[-122.25301,51.68214],[-122.25247,51.68146]]}},
{"type":"Feature","properties":{"spotId":"E-deer-atv-0078","kind":"ride","km":3.39,"climbM":43,"name":"1.2 km W of Joes Creek","flags":[]},"geometry":{"type":"LineString","coordinates":[[-122.25384,51.74087],[-122.2539,51.7407],[-122.25398,51.74052],[-122.25403,51.74036],[-122.25407,51.7402],[-122.25409,51.74007],[-122.2541,51.73947],[-122.25411,51.73932],[-122.25412,51.73917],[-122.25406,51.73892],[-122.25407,51.73851],[-122.25409,51.73838],[-122.25412,51.73815],[-122.25412,51.73812],[-122.25415,51.73799],[-122.25415,51.73798],[-122.2542,51.73785],[-122.25421,51.73772],[-122.25413,51.73772],[-122.25385,51.73769],[-122.25365,51.7376],[-122.25346,51.7375],[-122.25332,51.73745],[-122.25299,51.73729],[-122.2529,51.73718],[-122.25289,51.73706],[-122.25289,51.73689],[-122.25291,51.73673],[-122.25293,51.73661],[-122.25294,51.73657],[-122.25299,51.73639],[-122.25302,51.73611],[-122.25304,51.73598],[-122.25304,51.73575],[-122.25297,51.73563],[-122.25287,51.73556],[-122.25263,51.7355],[-122.25241,51.73548],[-122.25228,51.73546],[-122.25188,51.73546],[-122.25166,51.73547],[-122.25156,51.7355],[-122.25122,51.73569],[-122.251,51.73581],[-122.25083,51.73591],[-122.25064,51.73593],[-122.25046,51.73595],[-122.25027,51.73596],[-122.24998,51.73598],[-122.24971,51.736],[-122.24939,51.73602],[-122.24932,51.73606],[-122.24888,51.73614],[-122.24871,51.73615],[-122.24852,51.73617],[-122.24832,51.73619],[-122.24813,51.73621],[-122.24792,51.73627],[-122.24773,51.73633],[-122.24752,51.73639],[-122.24731,51.73644],[-122.24709,51.7365],[-122.24686,51.73654],[-122.24667,51.73656],[-122.24611,51.73658],[-122.24573,51.73667],[-122.24535,51.73667],[-122.24514,51.73665],[-122.24492,51.73664],[-122.24451,51.73664],[-122.24431,51.73665],[-122.24411,51.73666],[-122.24375,51.73666],[-122.24351,51.73665],[-122.24328,51.73667],[-122.24247,51.7368],[-122.24228,51.73686],[-122.24193,51.73699],[-122.24159,51.73714],[-122.24126,51.73729],[-122.24091,51.73744],[-122.24062,51.73756],[-122.24038,51.73776],[-122.24015,51.73794],[-122.23994,51.73821],[-122.23979,51.73832],[-122.23965,51.73846],[-122.23956,51.73856],[-122.23954,51.73857],[-122.23951,51.73867],[-122.23948,51.73881],[-122.23948,51.7391],[-122.23949,51.73926],[-122.23943,51.73944],[-122.23928,51.73961],[-122.23909,51.73975],[-122.23886,51.73986],[-122.23865,51.73991],[-122.23843,51.73996],[-122.23823,51.74],[-122.23803,51.74006],[-122.23784,51.74013],[-122.23749,51.74031],[-122.23733,51.7404],[-122.23708,51.74062],[-122.23691,51.74083],[-122.23684,51.74096],[-122.23679,51.74109],[-122.23678,51.74122],[-122.23677,51.74135],[-122.23676,51.74148],[-122.23675,51.74186],[-122.23678,51.74209],[-122.23689,51.74232],[-122.23694,51.74248],[-122.23698,51.74263],[-122.23698,51.74277],[-122.23696,51.7429],[-122.23695,51.74302],[-122.2369,51.74313],[-122.23683,51.74325],[-122.2368,51.74328],[-122.2367,51.74336],[-122.23648,51.74352],[-122.23634,51.74363],[-122.23605,51.7438],[-122.23558,51.7442],[-122.23548,51.74425],[-122.23533,51.74436],[-122.235,51.74458],[-122.23466,51.74478],[-122.23456,51.74487],[-122.23453,51.74489],[-122.23444,51.74501],[-122.23435,51.74513],[-122.23424,51.74527],[-122.23416,51.7454],[-122.23404,51.74565],[-122.23402,51.74579],[-122.23399,51.74593],[-122.23393,51.74605],[-122.23387,51.74617],[-122.23378,51.7464],[-122.23375,51.74654],[-122.23373,51.74662],[-122.23371,51.74668],[-122.23367,51.74682],[-122.23359,51.74695],[-122.2335,51.74709],[-122.23339,51.74722],[-122.23325,51.74735],[-122.23312,51.74746],[-122.23283,51.74768],[-122.23268,51.74774],[-122.23249,51.74782],[-122.23219,51.74794],[-122.23185,51.74804],[-122.23165,51.74808],[-122.23146,51.74812],[-122.23144,51.74812],[-122.23098,51.74813],[-122.23085,51.74813],[-122.23052,51.74802],[-122.23014,51.74789],[-122.22996,51.74781],[-122.22979,51.74773],[-122.2296,51.74765],[-122.22925,51.74752],[-122.22909,51.74744],[-122.22889,51.74737],[-122.22869,51.74731],[-122.22849,51.74725],[-122.22827,51.74719],[-122.2281,51.74713],[-122.22791,51.74708],[-122.22773,51.74704],[-122.22754,51.74701],[-122.22716,51.74697],[-122.22697,51.74697],[-122.22679,51.74692],[-122.2265,51.74682],[-122.22638,51.74671]]}},
{"type":"Feature","properties":{"spotId":"E-deer-atv-0078","kind":"walk","km":0.05,"climbM":4,"name":"1.2 km W of Joes Creek","flags":[]},"geometry":{"type":"LineString","coordinates":[[-122.25384,51.74087],[-122.2532,51.74079]]}},
{"type":"Feature","properties":{"spotId":"E-deer-atv-0085","kind":"ride","km":3.69,"climbM":0,"name":"2.3 km E of Alkali Creek","flags":["Route crosses private land (ParcelMap BC, updated 2026-09-22): get permission first or go around."]},"geometry":{"type":"LineString","coordinates":[[-122.27989,51.73533],[-122.27999,51.73531],[-122.28016,51.73527],[-122.28035,51.73522],[-122.28055,51.73516],[-122.28074,51.7351],[-122.28095,51.73503],[-122.28114,51.73494],[-122.28143,51.73475],[-122.28159,51.73469],[-122.28187,51.7345],[-122.28194,51.73444],[-122.2822,51.73426],[-122.28232,51.73415],[-122.28243,51.73403],[-122.28266,51.73378],[-122.28279,51.73366],[-122.2831,51.73344],[-122.28328,51.73335],[-122.28348,51.73327],[-122.28368,51.7332],[-122.284,51.73305],[-122.28444,51.73288],[-122.28476,51.73279],[-122.28498,51.73272],[-122.28511,51.73269],[-122.2853,51.73263],[-122.28558,51.73246],[-122.28581,51.73229],[-122.28609,51.7321],[-122.28637,51.73193],[-122.28657,51.73183],[-122.28689,51.73169],[-122.28719,51.73154],[-122.28739,51.7314],[-122.28762,51.73126],[-122.28797,51.73114],[-122.28835,51.73096],[-122.28865,51.7308],[-122.28879,51.73074],[-122.28885,51.73068],[-122.28904,51.73059],[-122.28924,51.7305],[-122.28954,51.73036],[-122.28955,51.73035],[-122.28986,51.73019],[-122.29005,51.7301],[-122.2904,51.72991],[-122.29073,51.72974],[-122.29089,51.72965],[-122.29107,51.72955],[-122.29142,51.72939],[-122.29177,51.72923],[-122.2921,51.72907],[-122.29234,51.72892],[-122.29265,51.72871],[-122.29292,51.7285],[-122.29326,51.72835],[-122.29372,51.72818],[-122.294,51.728],[-122.29425,51.72783],[-122.29451,51.72769],[-122.29485,51.72754],[-122.29504,51.72744],[-122.29524,51.72733],[-122.29556,51.72718],[-122.29575,51.72709],[-122.2961,51.72691],[-122.2964,51.72671],[-122.29653,51.72661],[-122.29681,51.72644],[-122.29711,51.72632],[-122.29729,51.72626],[-122.29748,51.7262],[-122.29764,51.72611],[-122.29777,51.72598],[-122.29801,51.72571],[-122.29826,51.7255],[-122.29827,51.7255],[-122.29859,51.72536],[-122.29879,51.72531],[-122.29901,51.72526],[-122.29935,51.72518],[-122.29956,51.72513],[-122.29967,51.7251],[-122.2998,51.72508],[-122.29997,51.72503],[-122.30016,51.72499],[-122.30036,51.72494],[-122.30055,51.72489],[-122.30076,51.72486],[-122.30096,51.72483],[-122.30116,51.72477],[-122.30135,51.72471],[-122.30173,51.72462],[-122.30206,51.7245],[-122.30225,51.72444],[-122.30232,51.72443],[-122.30244,51.7244],[-122.30266,51.72434],[-122.30286,51.72427],[-122.30291,51.72421],[-122.30324,51.72412],[-122.30345,51.72407],[-122.30366,51.72402],[-122.30385,51.72397],[-122.30404,51.72392],[-122.30429,51.72389],[-122.30452,51.72386],[-122.30478,51.72383],[-122.30506,51.7238],[-122.30525,51.72377],[-122.30541,51.72371],[-122.30562,51.72362],[-122.30583,51.72352],[-122.30615,51.72339],[-122.3065,51.72329],[-122.3067,51.7232],[-122.30689,51.7231],[-122.30713,51.72292],[-122.3073,51.7227],[-122.30757,51.72249],[-122.30779,51.72227],[-122.30788,51.72216],[-122.30798,51.72212],[-122.30814,51.72209],[-122.30833,51.72209],[-122.3085,51.72207],[-122.30869,51.72206],[-122.30892,51.72204],[-122.30915,51.72202],[-122.30934,51.72203],[-122.30953,51.72205],[-122.3097,51.72207],[-122.30989,51.7221],[-122.31027,51.7221],[-122.31047,51.72208],[-122.31056,51.72206],[-122.31089,51.72197],[-122.31108,51.72193],[-122.31128,51.7219],[-122.31138,51.72187],[-122.31163,51.72186],[-122.31208,51.72187],[-122.3124,51.72185],[-122.31259,51.7218],[-122.31276,51.72174],[-122.31296,51.72171],[-122.31317,51.72167],[-122.31337,51.72159],[-122.31358,51.72151],[-122.31406,51.72133],[-122.31422,51.72128],[-122.3143,51.72126],[-122.31441,51.72123],[-122.31476,51.72121],[-122.31509,51.72123],[-122.31537,51.72126],[-122.31557,51.72128],[-122.31572,51.72132],[-122.31594,51.7214],[-122.31612,51.7215],[-122.31636,51.72168],[-122.31646,51.72179],[-122.31659,51.72181],[-122.31681,51.72183],[-122.31702,51.72184],[-122.3177,51.72184],[-122.31791,51.72185],[-122.31816,51.72185],[-122.3184,51.72188],[-122.31858,51.72193],[-122.31893,51.72205],[-122.31927,51.72217],[-122.31951,51.7223],[-122.31959,51.72236],[-122.31969,51.7225],[-122.31967,51.72262],[-122.31964,51.72267],[-122.31952,51.72283],[-122.31942,51.72296],[-122.31934,51.72308],[-122.31937,51.7232],[-122.31953,51.72342],[-122.3196,51.72345],[-122.31977,51.7235],[-122.31996,51.72353],[-122.32017,51.72354],[-122.32038,51.72353],[-122.32066,51.72351],[-122.32094,51.72349],[-122.32104,51.72348],[-122.32126,51.72349],[-122.3216,51.72348],[-122.32179,51.72353],[-122.32196,51.72362],[-122.32212,51.72374],[-122.32218,51.7238]]}},
{"type":"Feature","properties":{"spotId":"E-deer-atv-0085","kind":"walk","km":0.11,"climbM":0,"name":"2.3 km E of Alkali Creek","flags":["Route crosses private land (ParcelMap BC, updated 2026-09-22): get permission first or go around."]},"geometry":{"type":"LineString","coordinates":[[-122.27989,51.73533],[-122.28034,51.73624]]}},
{"type":"Feature","properties":{"spotId":"E-deer-atv-0141","kind":"ride","km":8.77,"climbM":160,"name":"760 m N of Fraser River","flags":["Route crosses private land (ParcelMap BC, updated 2026-09-22): get permission first or go around."]},"geometry":{"type":"LineString","coordinates":[[-122.31173,51.74849],[-122.31222,51.74844],[-122.31245,51.74827],[-122.31249,51.74824],[-122.31275,51.74803],[-122.31291,51.74793],[-122.31312,51.74785],[-122.31331,51.7478],[-122.3135,51.74776],[-122.31361,51.74778],[-122.31379,51.74782],[-122.31387,51.74781],[-122.31393,51.74779],[-122.31405,51.74774],[-122.31421,51.74765],[-122.31446,51.74746],[-122.31454,51.74741],[-122.3146,51.74737],[-122.31475,51.74725],[-122.31487,51.74711],[-122.31496,51.747],[-122.31506,51.74688],[-122.31527,51.74659],[-122.31547,51.74636],[-122.31558,51.74624],[-122.31568,51.7461],[-122.31575,51.74596],[-122.31581,51.74582],[-122.31586,51.74571],[-122.31589,51.7456],[-122.31594,51.74547],[-122.316,51.74534],[-122.31601,51.74522],[-122.31603,51.74511],[-122.31618,51.74481],[-122.31627,51.74459],[-122.31631,51.74445],[-122.31634,51.74439],[-122.31643,51.74418],[-122.31651,51.74405],[-122.31658,51.74392],[-122.31666,51.74372],[-122.3167,51.74354],[-122.31672,51.74345],[-122.31675,51.7433],[-122.31677,51.74322],[-122.31678,51.74317],[-122.31684,51.74303],[-122.3169,51.74288],[-122.31703,51.74275],[-122.31717,51.74262],[-122.3174,51.74235],[-122.31762,51.74215],[-122.31789,51.74196],[-122.31806,51.74184],[-122.31825,51.74175],[-122.31843,51.7417],[-122.31861,51.74168],[-122.31885,51.74168],[-122.31906,51.74169],[-122.31919,51.74167],[-122.3193,51.74162],[-122.31949,51.7415],[-122.31978,51.74131],[-122.3199,51.74124],[-122.32024,51.74113],[-122.32045,51.74105],[-122.3208,51.74089],[-122.32115,51.74074],[-122.32134,51.74066],[-122.32153,51.74056],[-122.32186,51.74037],[-122.32194,51.74034],[-122.32201,51.7403],[-122.32233,51.74009],[-122.32262,51.73986],[-122.3228,51.7397],[-122.32286,51.73964],[-122.32296,51.73953],[-122.32318,51.73932],[-122.3234,51.73914],[-122.32346,51.73908],[-122.32361,51.73894],[-122.32389,51.73874],[-122.32418,51.73853],[-122.32431,51.73842],[-122.32441,51.73834],[-122.32461,51.73815],[-122.32477,51.73804],[-122.325,51.73786],[-122.32522,51.73766],[-122.32549,51.73743],[-122.32564,51.73733],[-122.32575,51.73726],[-122.32592,51.73713],[-122.3261,51.73697],[-122.32633,51.73679],[-122.32661,51.73659],[-122.32674,51.73647],[-122.32702,51.73631],[-122.32733,51.73612],[-122.32759,51.73595],[-122.32767,51.73589],[-122.32775,51.73588],[-122.32809,51.73572],[-122.32832,51.73555],[-122.32848,51.73545],[-122.32864,51.73533],[-122.32882,51.73523],[-122.32917,51.73514],[-122.32942,51.73508],[-122.32965,51.73501],[-122.32984,51.73496],[-122.32988,51.73495],[-122.33003,51.7349],[-122.33024,51.73484],[-122.33048,51.73479],[-122.33069,51.73476],[-122.33091,51.73474],[-122.3311,51.73473],[-122.33148,51.73474],[-122.33158,51.73475],[-122.33168,51.73476],[-122.33184,51.73481],[-122.33197,51.73489],[-122.33233,51.73516],[-122.33253,51.73524],[-122.33263,51.73525],[-122.33273,51.73522],[-122.33276,51.7352],[-122.33292,51.7351],[-122.3331,51.73496],[-122.33323,51.73483],[-122.33335,51.73469],[-122.33358,51.7345],[-122.33367,51.73437],[-122.33371,51.73424],[-122.3337,51.73409],[-122.3336,51.73394],[-122.33332,51.7338],[-122.33319,51.73369],[-122.33313,51.73357],[-122.33316,51.7334],[-122.33325,51.73324],[-122.33333,51.73312],[-122.33343,51.73301],[-122.3335,51.73292],[-122.33374,51.73271],[-122.3339,51.73256],[-122.33413,51.73237],[-122.33435,51.7322],[-122.33453,51.73203],[-122.33478,51.73182],[-122.33498,51.73163],[-122.33525,51.73142],[-122.33555,51.73123],[-122.33601,51.73095],[-122.33617,51.73084],[-122.33634,51.73075],[-122.33668,51.73059],[-122.33691,51.73039],[-122.33699,51.73026],[-122.33705,51.72999],[-122.33708,51.72989],[-122.33714,51.72978],[-122.33733,51.72958],[-122.33742,51.72947],[-122.33751,51.72936],[-122.33751,51.72923],[-122.33742,51.72911],[-122.33735,51.72902],[-122.33705,51.72886],[-122.33686,51.72879],[-122.33669,51.72871],[-122.33649,51.72861],[-122.33619,51.72845],[-122.33586,51.72824],[-122.33573,51.72809],[-122.33573,51.72797],[-122.33576,51.72786],[-122.33577,51.72762],[-122.33559,51.72749],[-122.33551,51.72744],[-122.33538,51.72732],[-122.33529,51.72719],[-122.33524,51.72692],[-122.33519,51.72676],[-122.3351,51.72662],[-122.33491,51.72647],[-122.33473,51.72632],[-122.33447,51.72613],[-122.33437,51.72606],[-122.33421,51.72595],[-122.334,51.72574],[-122.33376,51.72554],[-122.33351,51.72536],[-122.33334,51.72526],[-122.33315,51.72516],[-122.33275,51.72502],[-122.33268,51.72497],[-122.33262,51.72491],[-122.33261,51.72483],[-122.33268,51.7247],[-122.33268,51.72457],[-122.3326,51.72446],[-122.33248,51.72434],[-122.33218,51.72412],[-122.3321,51.72405],[-122.33207,51.72398],[-122.33209,51.72391],[-122.33228,51.72381],[-122.33249,51.72373],[-122.33284,51.72359],[-122.33296,51.72358],[-122.33315,51.72361],[-122.33331,51.72359],[-122.33345,51.72349],[-122.33357,51.72339],[-122.33383,51.72314],[-122.33404,51.72293],[-122.33414,51.72281],[-122.33433,51.72258],[-122.33442,51.72245],[-122.33464,51.72225],[-122.3347,51.7222],[-122.33491,51.72204],[-122.33503,51.72189],[-122.33513,51.72174],[-122.33522,51.72162],[-122.33542,51.72141],[-122.33558,51.72134],[-122.33595,51.72135],[-122.33612,51.72134],[-122.33613,51.72134],[-122.33631,51.72134],[-122.33671,51.72132],[-122.33697,51.72129],[-122.33721,51.72122],[-122.3374,51.72113],[-122.33761,51.72102],[-122.33773,51.72097],[-122.33779,51.72093],[-122.33776,51.72081],[-122.33774,51.7207],[-122.33768,51.72058],[-122.33765,51.72046],[-122.33771,51.72029],[-122.33779,51.72011],[-122.33785,51.71995],[-122.33792,51.7198],[-122.33804,51.7197],[-122.33829,51.71955],[-122.33845,51.71945],[-122.33857,51.71937],[-122.33862,51.71926],[-122.33867,51.71914],[-122.33896,51.71895],[-122.33924,51.71877],[-122.33947,51.71862],[-122.33962,51.71855],[-122.33982,51.71848],[-122.34003,51.71843],[-122.3401,51.7184],[-122.34023,51.71835],[-122.34039,51.71824],[-122.34051,51.71813],[-122.34072,51.71788],[-122.34085,51.71775],[-122.34104,51.71765],[-122.34124,51.71756],[-122.34155,51.71742],[-122.34181,51.71737],[-122.34208,51.71733],[-122.34226,51.71723],[-122.34245,51.71713],[-122.3428,51.71704],[-122.34294,51.71702],[-122.34316,51.71697],[-122.34351,51.71682],[-122.34367,51.71677],[-122.34387,51.7167],[-122.34419,51.71658],[-122.34441,51.71651],[-122.34473,51.71644],[-122.34483,51.71643],[-122.34508,51.71647],[-122.34519,51.7165],[-122.34532,51.7165],[-122.34548,51.71643],[-122.3456,51.71632],[-122.34569,51.7162],[-122.34579,51.71598],[-122.34582,51.7159],[-122.34583,51.71585],[-122.34564,51.71569],[-122.34544,51.71554],[-122.34531,51.71542],[-122.34533,51.71535],[-122.3454,51.71522],[-122.3455,51.71511],[-122.34568,51.71486],[-122.3458,51.71476],[-122.34594,51.71468],[-122.34612,51.71461],[-122.34631,51.71454],[-122.34666,51.71447],[-122.34712,51.71441],[-122.34731,51.7144],[-122.3475,51.71437],[-122.34782,51.71426],[-122.34801,51.71426],[-122.34821,51.71429],[-122.34837,51.71431],[-122.34871,51.71443],[-122.349,51.71463],[-122.34908,51.71469],[-122.34927,51.71475],[-122.34946,51.71479],[-122.34965,51.71477],[-122.34982,51.71471],[-122.34987,51.71466],[-122.34991,51.71453],[-122.34994,51.71438],[-122.35003,51.71426],[-122.35018,51.71415],[-122.35031,51.71412],[-122.35053,51.71413],[-122.35073,51.71417],[-122.35106,51.71426],[-122.35141,51.71434],[-122.35152,51.71434],[-122.3517,51.71431],[-122.35191,51.71422],[-122.35212,51.71417],[-122.35229,51.7142],[-122.35245,51.71426],[-122.35265,51.71435],[-122.35284,51.71445],[-122.35295,51.71448],[-122.35318,51.7145],[-122.3534,51.71444],[-122.35352,51.71446],[-122.35369,51.71465],[-122.35376,51.71474],[-122.35386,51.71481],[-122.35399,51.715],[-122.35401,51.71508],[-122.35426,51.7153],[-122.35447,51.71551],[-122.35464,51.71556],[-122.35486,51.71561],[-122.35505,51.71566],[-122.35524,51.71573],[-122.35557,51.71592],[-122.35582,51.71609],[-122.35616,51.71624],[-122.35641,51.71642],[-122.35663,51.71663],[-122.35673,51.71665],[-122.35684,51.71665],[-122.35693,51.71667],[-122.3572,51.71686],[-122.35729,51.71692],[-122.35745,51.71697],[-122.35768,51.71699],[-122.35791,51.71702],[-122.35813,51.71707],[-122.35833,51.71716],[-122.35859,51.71735],[-122.35866,51.71741],[-122.3587,51.71747],[-122.35871,51.71761],[-122.35868,51.71781],[-122.35861,51.71793],[-122.35849,51.71803],[-122.35842,51.71806],[-122.35833,51.71814],[-122.35827,51.71826],[-122.35821,51.71837],[-122.35809,51.7185],[-122.35796,51.71863],[-122.35774,51.71882],[-122.35752,51.719],[-122.3574,51.71907],[-122.35717,51.71912],[-122.35692,51.71913],[-122.35672,51.71914],[-122.35652,51.71916],[-122.35633,51.71921],[-122.35616,51.71927],[-122.35597,51.71932],[-122.35578,51.71937],[-122.3556,51.71942],[-122.3556,51.71944],[-122.3556,51.71947],[-122.35578,51.71955],[-122.35601,51.71962],[-122.35621,51.71963],[-122.35658,51.7197],[-122.35677,51.71975],[-122.35697,51.7198],[-122.35712,51.71993],[-122.35714,51.72007],[-122.35695,51.72027],[-122.35688,51.72042],[-122.3568,51.72058],[-122.35667,51.7207],[-122.35654,51.7208],[-122.35647,51.72093],[-122.35639,51.72105],[-122.35627,51.72115],[-122.35617,51.72128],[-122.35612,51.72146],[-122.35614,51.72164],[-122.35615,51.72176],[-122.35618,51.72188],[-122.3562,51.72202],[-122.35626,51.72213],[-122.35636,51.72225],[-122.35649,51.72236],[-122.35653,51.72242],[-122.3567,51.7226],[-122.35686,51.72278],[-122.35689,51.72281],[-122.357,51.72293],[-122.3571,51.72305],[-122.35719,51.72317],[-122.35744,51.72344],[-122.35746,51.72351],[-122.35737,51.72361],[-122.35725,51.72369],[-122.35708,51.72373],[-122.3569,51.72376],[-122.35677,51.72381],[-122.35677,51.72385],[-122.35677,51.72386],[-122.35692,51.72384],[-122.35738,51.72379],[-122.35757,51.72375],[-122.35774,51.72371],[-122.35792,51.7237],[-122.35809,51.72381],[-122.3582,51.72394],[-122.35824,51.72408],[-122.35824,51.72433],[-122.35822,51.72446],[-122.35825,51.72457],[-122.35825,51.72468],[-122.35811,51.72508],[-122.35805,51.72522],[-122.3581,51.72527],[-122.35811,51.72527],[-122.35817,51.72528],[-122.35832,51.72523],[-122.35858,51.72508],[-122.35872,51.72501],[-122.35888,51.72501],[-122.3591,51.72507],[-122.35944,51.72521],[-122.35959,51.72527],[-122.35975,51.72538],[-122.35985,51.72551],[-122.35984,51.72557],[-122.35982,51.72562],[-122.35983,51.72577],[-122.35987,51.7259],[-122.35991,51.72606],[-122.35998,51.72621],[-122.36018,51.72642],[-122.36047,51.7266],[-122.36067,51.72668],[-122.3608,51.72674],[-122.36084,51.72676],[-122.36102,51.72677],[-122.36148,51.72678],[-122.36172,51.72676],[-122.36193,51.72675],[-122.36223,51.72675],[-122.36235,51.72678],[-122.36252,51.72687],[-122.36265,51.72702],[-122.36278,51.72715],[-122.36289,51.72724],[-122.36301,51.72734],[-122.36323,51.72763],[-122.36346,51.72784],[-122.36362,51.72794],[-122.36371,51.72797],[-122.36398,51.72798],[-122.36424,51.72797],[-122.36442,51.72795],[-122.36468,51.72793],[-122.36505,51.72794],[-122.36507,51.72794],[-122.36555,51.72792],[-122.36565,51.72792],[-122.36598,51.72783],[-122.366,51.72783],[-122.36631,51.72784],[-122.3666,51.72803],[-122.36674,51.72814],[-122.36699,51.72836],[-122.36713,51.72853],[-122.36737,51.72872],[-122.3676,51.72891],[-122.36786,51.72908],[-122.3679,51.7293]]}},
{"type":"Feature","properties":{"spotId":"E-deer-atv-0141","kind":"walk","km":0.38,"climbM":88,"name":"760 m N of Fraser River","flags":["Route crosses private land (ParcelMap BC, updated 2026-09-22): get permission first or go around."]},"geometry":{"type":"LineString","coordinates":[[-122.3679,51.7293],[-122.37315,51.73028]]}},
{"type":"Feature","properties":{"spotId":"E-deer-atv-0144","kind":"ride","km":5.03,"climbM":68,"name":"390 m N of Alkali Creek","flags":["Route crosses private land (ParcelMap BC, updated 2026-09-22): get permission first or go around."]},"geometry":{"type":"LineString","coordinates":[[-122.31173,51.74849],[-122.31222,51.74844],[-122.31245,51.74827],[-122.31249,51.74824],[-122.31275,51.74803],[-122.31291,51.74793],[-122.31312,51.74785],[-122.31331,51.7478],[-122.3135,51.74776],[-122.31361,51.74778],[-122.31379,51.74782],[-122.31387,51.74781],[-122.31393,51.74779],[-122.31405,51.74774],[-122.31421,51.74765],[-122.31446,51.74746],[-122.31454,51.74741],[-122.3146,51.74737],[-122.31475,51.74725],[-122.31487,51.74711],[-122.31496,51.747],[-122.31506,51.74688],[-122.31527,51.74659],[-122.31547,51.74636],[-122.31558,51.74624],[-122.31568,51.7461],[-122.31575,51.74596],[-122.31581,51.74582],[-122.31586,51.74571],[-122.31589,51.7456],[-122.31594,51.74547],[-122.316,51.74534],[-122.31601,51.74522],[-122.31603,51.74511],[-122.31618,51.74481],[-122.31627,51.74459],[-122.31631,51.74445],[-122.31634,51.74439],[-122.31643,51.74418],[-122.31651,51.74405],[-122.31658,51.74392],[-122.31666,51.74372],[-122.3167,51.74354],[-122.31672,51.74345],[-122.31675,51.7433],[-122.31677,51.74322],[-122.31678,51.74317],[-122.31684,51.74303],[-122.3169,51.74288],[-122.31703,51.74275],[-122.31717,51.74262],[-122.3174,51.74235],[-122.31762,51.74215],[-122.31789,51.74196],[-122.31806,51.74184],[-122.31825,51.74175],[-122.31843,51.7417],[-122.31861,51.74168],[-122.31885,51.74168],[-122.31906,51.74169],[-122.31919,51.74167],[-122.3193,51.74162],[-122.31949,51.7415],[-122.31978,51.74131],[-122.3199,51.74124],[-122.32024,51.74113],[-122.32045,51.74105],[-122.3208,51.74089],[-122.32115,51.74074],[-122.32134,51.74066],[-122.32153,51.74056],[-122.32186,51.74037],[-122.32194,51.74034],[-122.32201,51.7403],[-122.32233,51.74009],[-122.32262,51.73986],[-122.3228,51.7397],[-122.32286,51.73964],[-122.32296,51.73953],[-122.32318,51.73932],[-122.3234,51.73914],[-122.32346,51.73908],[-122.32361,51.73894],[-122.32389,51.73874],[-122.32418,51.73853],[-122.32431,51.73842],[-122.32441,51.73834],[-122.32461,51.73815],[-122.32477,51.73804],[-122.325,51.73786],[-122.32522,51.73766],[-122.32549,51.73743],[-122.32564,51.73733],[-122.32575,51.73726],[-122.32592,51.73713],[-122.3261,51.73697],[-122.32633,51.73679],[-122.32661,51.73659],[-122.32674,51.73647],[-122.32702,51.73631],[-122.32733,51.73612],[-122.32759,51.73595],[-122.32767,51.73589],[-122.32775,51.73588],[-122.32809,51.73572],[-122.32832,51.73555],[-122.32848,51.73545],[-122.32864,51.73533],[-122.32882,51.73523],[-122.32917,51.73514],[-122.32942,51.73508],[-122.32965,51.73501],[-122.32984,51.73496],[-122.32988,51.73495],[-122.33003,51.7349],[-122.33024,51.73484],[-122.33048,51.73479],[-122.33069,51.73476],[-122.33091,51.73474],[-122.3311,51.73473],[-122.33148,51.73474],[-122.33158,51.73475],[-122.33168,51.73476],[-122.33184,51.73481],[-122.33197,51.73489],[-122.33233,51.73516],[-122.33253,51.73524],[-122.33263,51.73525],[-122.33273,51.73522],[-122.33276,51.7352],[-122.33292,51.7351],[-122.3331,51.73496],[-122.33323,51.73483],[-122.33335,51.73469],[-122.33358,51.7345],[-122.33367,51.73437],[-122.33371,51.73424],[-122.3337,51.73409],[-122.3336,51.73394],[-122.33332,51.7338],[-122.33319,51.73369],[-122.33313,51.73357],[-122.33316,51.7334],[-122.33325,51.73324],[-122.33333,51.73312],[-122.33343,51.73301],[-122.3335,51.73292],[-122.33374,51.73271],[-122.3339,51.73256],[-122.33413,51.73237],[-122.33435,51.7322],[-122.33453,51.73203],[-122.33478,51.73182],[-122.33498,51.73163],[-122.33525,51.73142],[-122.33555,51.73123],[-122.33601,51.73095],[-122.33617,51.73084],[-122.33634,51.73075],[-122.33668,51.73059],[-122.33691,51.73039],[-122.33699,51.73026],[-122.33705,51.72999],[-122.33708,51.72989],[-122.33714,51.72978],[-122.33733,51.72958],[-122.33742,51.72947],[-122.33751,51.72936],[-122.33751,51.72923],[-122.33769,51.72905],[-122.33773,51.72901],[-122.33788,51.72885],[-122.33801,51.72872],[-122.33818,51.72859],[-122.33833,51.72847],[-122.33861,51.72828],[-122.33887,51.7281],[-122.33922,51.72793],[-122.33946,51.72785],[-122.3398,51.72773],[-122.33999,51.72766],[-122.34018,51.72757],[-122.34036,51.72747],[-122.34062,51.72728],[-122.34087,51.72707],[-122.34113,51.72686],[-122.34127,51.72673],[-122.34137,51.72658],[-122.34171,51.72617],[-122.3418,51.72604],[-122.34205,51.72584],[-122.34216,51.72572],[-122.34228,51.7256],[-122.34252,51.72539],[-122.34263,51.72526],[-122.34285,51.72505],[-122.343,51.7249],[-122.34318,51.72471],[-122.34334,51.72454],[-122.34343,51.72444],[-122.34372,51.72419],[-122.34396,51.72399],[-122.34415,51.72378],[-122.34425,51.72364],[-122.34449,51.72343],[-122.34465,51.72327],[-122.34471,51.72321],[-122.34481,51.7231],[-122.3449,51.72299],[-122.34494,51.72288],[-122.34495,51.72264],[-122.34496,51.72247],[-122.34498,51.72231],[-122.34498,51.72203],[-122.345,51.7219],[-122.345,51.72178],[-122.34502,51.72167],[-122.34505,51.72148],[-122.34509,51.72142],[-122.34524,51.72139],[-122.34534,51.7213],[-122.34537,51.72108],[-122.34532,51.72095],[-122.34526,51.72082],[-122.34525,51.72076],[-122.34526,51.72064],[-122.34532,51.72054],[-122.34543,51.72042],[-122.34552,51.7203],[-122.34571,51.72009],[-122.34582,51.71993],[-122.3459,51.71976],[-122.34596,51.71951],[-122.34602,51.7192],[-122.34603,51.71907],[-122.34604,51.71892],[-122.34606,51.71879],[-122.34609,51.71866],[-122.34613,51.71854],[-122.34616,51.71848],[-122.34616,51.71842],[-122.34621,51.71833],[-122.34634,51.71822],[-122.34652,51.71813],[-122.34682,51.71802],[-122.34692,51.71799],[-122.34711,51.71788],[-122.34726,51.71775],[-122.34748,51.71754],[-122.34773,51.71734],[-122.34785,51.71725],[-122.34799,51.71717],[-122.34833,51.71703],[-122.34853,51.71697],[-122.34875,51.71691],[-122.3491,51.71685],[-122.34959,51.71678],[-122.34979,51.71676],[-122.35001,51.71674],[-122.35036,51.71669],[-122.35088,51.71666],[-122.35113,51.71666],[-122.35139,51.71669],[-122.35157,51.71673],[-122.35173,51.7168],[-122.3519,51.71692],[-122.35222,51.71714],[-122.35231,51.71721]]}},
{"type":"Feature","properties":{"spotId":"E-deer-atv-0144","kind":"walk","km":0.12,"climbM":0,"name":"390 m N of Alkali Creek","flags":["Route crosses private land (ParcelMap BC, updated 2026-09-22): get permission first or go around."]},"geometry":{"type":"LineString","coordinates":[[-122.35231,51.71721],[-122.35095,51.71789]]}},
{"type":"Feature","properties":{"spotId":"E-deer-atv-0151","kind":"ride","km":3.06,"climbM":7,"name":"780 m NE of Fraser River","flags":["Route crosses private land (ParcelMap BC, updated 2026-09-22): get permission first or go around."]},"geometry":{"type":"LineString","coordinates":[[-122.29231,51.66335],[-122.29237,51.66322],[-122.29235,51.66305],[-122.29235,51.66282],[-122.29242,51.66262],[-122.2925,51.66248],[-122.29263,51.66228],[-122.29271,51.66218],[-122.29282,51.66203],[-122.29294,51.66189],[-122.29306,51.66177],[-122.29323,51.66168],[-122.2933,51.66166],[-122.29334,51.66165],[-122.29369,51.6617],[-122.2939,51.66177],[-122.29411,51.66186],[-122.29428,51.66195],[-122.29462,51.66208],[-122.29475,51.66215],[-122.29494,51.66225],[-122.29508,51.66231],[-122.2951,51.66231],[-122.29511,51.66231],[-122.29518,51.6623],[-122.29548,51.66211],[-122.29578,51.66198],[-122.29594,51.66187],[-122.29599,51.66183],[-122.29622,51.66165],[-122.29641,51.66149],[-122.29653,51.66139],[-122.29659,51.66126],[-122.29663,51.66113],[-122.29666,51.66099],[-122.29669,51.66087],[-122.29671,51.66083],[-122.29674,51.66077],[-122.29687,51.66072],[-122.29697,51.66072],[-122.29717,51.66073],[-122.29738,51.66075],[-122.29759,51.66075],[-122.2978,51.66073],[-122.29814,51.66062],[-122.29822,51.6606],[-122.29846,51.6605],[-122.29873,51.6604],[-122.29893,51.66035],[-122.29915,51.6603],[-122.29923,51.6603],[-122.29945,51.66023],[-122.29952,51.66022],[-122.2997,51.66018],[-122.29987,51.66015],[-122.30003,51.66009],[-122.30024,51.66004],[-122.30042,51.65996],[-122.30057,51.65987],[-122.30067,51.65976],[-122.30076,51.65962],[-122.30095,51.65939],[-122.30106,51.65927],[-122.30126,51.65906],[-122.30131,51.65901],[-122.30138,51.65892],[-122.3015,51.6588],[-122.30173,51.65859],[-122.30181,51.65848],[-122.30195,51.6583],[-122.30204,51.65816],[-122.30209,51.65807],[-122.30212,51.65794],[-122.30209,51.65785],[-122.30182,51.65779],[-122.30164,51.65776],[-122.30131,51.65766],[-122.30113,51.65757],[-122.30104,51.65745],[-122.30106,51.6574],[-122.30106,51.65738],[-122.30116,51.65726],[-122.30129,51.65715],[-122.30163,51.65696],[-122.30196,51.65681],[-122.3023,51.6567],[-122.30249,51.65662],[-122.30266,51.65654],[-122.30298,51.65643],[-122.3033,51.6563],[-122.30347,51.65622],[-122.3038,51.65604],[-122.30396,51.65596],[-122.30409,51.65586],[-122.30418,51.65573],[-122.30453,51.65558],[-122.30479,51.65548],[-122.30506,51.65538],[-122.30534,51.65527],[-122.30567,51.65515],[-122.30582,51.65509],[-122.30608,51.65501],[-122.30607,51.65495],[-122.30611,51.6548],[-122.30633,51.65464],[-122.30667,51.65445],[-122.30686,51.65436],[-122.30718,51.65425],[-122.30737,51.65418],[-122.30754,51.65411],[-122.30774,51.65405],[-122.30793,51.65402],[-122.30813,51.654],[-122.30834,51.65399],[-122.30858,51.65399],[-122.30909,51.65399],[-122.30932,51.65398],[-122.30941,51.65396],[-122.30963,51.65381],[-122.30976,51.65376],[-122.30983,51.65372],[-122.3099,51.65369],[-122.31011,51.65366],[-122.31029,51.6537],[-122.31047,51.65377],[-122.31058,51.65387],[-122.31075,51.65409],[-122.31093,51.65428],[-122.31125,51.65443],[-122.31138,51.65452],[-122.31141,51.65458],[-122.31143,51.65465],[-122.31148,51.6547],[-122.31159,51.65475],[-122.31172,51.65476],[-122.31218,51.65476],[-122.31239,51.65475],[-122.31272,51.65474],[-122.31282,51.65474],[-122.31304,51.65479],[-122.31325,51.65486],[-122.31335,51.65491],[-122.31368,51.65501],[-122.31391,51.6551],[-122.31396,51.65515],[-122.31386,51.65518],[-122.31371,51.65516],[-122.31349,51.65515],[-122.31338,51.65518],[-122.31325,51.65528],[-122.31317,51.65541],[-122.31313,51.65553],[-122.31311,51.65567],[-122.3131,51.65574],[-122.31311,51.65579],[-122.31311,51.6559],[-122.31318,51.65602],[-122.31323,51.65608],[-122.31331,51.65614],[-122.31338,51.65618],[-122.31358,51.65624],[-122.3138,51.65628],[-122.31398,51.65633],[-122.31416,51.65637],[-122.31426,51.65637],[-122.31437,51.65638],[-122.31457,51.65638],[-122.31478,51.6564],[-122.31499,51.65643],[-122.31521,51.65643],[-122.31544,51.6564],[-122.31566,51.65636],[-122.31578,51.65633],[-122.31588,51.6563],[-122.31607,51.65627],[-122.31627,51.65625],[-122.31664,51.65624],[-122.31686,51.65623],[-122.31698,51.65618],[-122.31718,51.65617],[-122.31737,51.65617],[-122.31758,51.65618],[-122.31779,51.65622],[-122.3181,51.65641],[-122.31824,51.65648],[-122.31835,51.65652],[-122.31842,51.65653],[-122.31861,51.65652],[-122.31881,51.65648],[-122.31898,51.65648],[-122.31941,51.65658],[-122.31952,51.65659],[-122.3196,51.65661],[-122.31985,51.65662],[-122.31995,51.65663],[-122.32029,51.65674],[-122.32048,51.65678],[-122.32065,51.65683],[-122.32074,51.65685],[-122.32088,51.65693],[-122.32097,51.65697]]}},
{"type":"Feature","properties":{"spotId":"E-deer-atv-0151","kind":"walk","km":0.03,"climbM":0,"name":"780 m NE of Fraser River","flags":["Route crosses private land (ParcelMap BC, updated 2026-09-22): get permission first or go around."]},"geometry":{"type":"LineString","coordinates":[[-122.32097,51.65697],[-122.32126,51.65674]]}},
{"type":"Feature","properties":{"spotId":"E-deer-atv-0156","kind":"ride","km":2.49,"climbM":144,"name":"By Meason Creek","flags":["Route crosses private land (ParcelMap BC, updated 2026-09-22): get permission first or go around."]},"geometry":{"type":"LineString","coordinates":[[-122.30921,51.6926],[-122.30909,51.69269],[-122.30892,51.69284],[-122.30882,51.69295],[-122.30872,51.69308],[-122.30866,51.69321],[-122.30858,51.69334],[-122.30846,51.69347],[-122.30837,51.69351],[-122.30813,51.69356],[-122.30792,51.69354],[-122.30771,51.69353],[-122.30724,51.69346],[-122.3072,51.69345],[-122.30704,51.6934],[-122.30685,51.69336],[-122.30667,51.69332],[-122.30649,51.69328],[-122.30631,51.69323],[-122.30612,51.69318],[-122.30577,51.69313],[-122.30558,51.69311],[-122.30541,51.69309],[-122.30507,51.69298],[-122.30485,51.69292],[-122.30439,51.69284],[-122.30422,51.69279],[-122.30406,51.69271],[-122.3039,51.69261],[-122.30377,51.6925],[-122.3036,51.69229],[-122.30352,51.69216],[-122.30347,51.69209],[-122.30322,51.69176],[-122.30302,51.69156],[-122.30283,51.69135],[-122.30265,51.69114],[-122.30251,51.69097],[-122.30232,51.69077],[-122.30209,51.69058],[-122.30194,51.69044],[-122.30184,51.69033],[-122.30172,51.6902],[-122.30159,51.69008],[-122.30138,51.68986],[-122.30117,51.68966],[-122.30104,51.68951],[-122.30084,51.68931],[-122.3007,51.68918],[-122.30053,51.689],[-122.30037,51.68883],[-122.30024,51.68871],[-122.30008,51.68859],[-122.29984,51.68837],[-122.29964,51.68818],[-122.29943,51.68796],[-122.29931,51.68786],[-122.29917,51.68773],[-122.29901,51.68763],[-122.29899,51.68762],[-122.2988,51.68753],[-122.2986,51.68746],[-122.29827,51.68734],[-122.29817,51.6873],[-122.29796,51.68723],[-122.29766,51.68713],[-122.29742,51.68692],[-122.29708,51.6867],[-122.29689,51.6866],[-122.29672,51.68652],[-122.29643,51.68634],[-122.29609,51.68618],[-122.29574,51.68602],[-122.29537,51.68585],[-122.29517,51.6858],[-122.29498,51.68575],[-122.29488,51.68588],[-122.29479,51.68599],[-122.2947,51.68608],[-122.29462,51.68617],[-122.29458,51.68621],[-122.29455,51.68631],[-122.29451,51.6864],[-122.29448,51.68644],[-122.29448,51.68648],[-122.2944,51.68656],[-122.29433,51.68667],[-122.29427,51.68676],[-122.29421,51.68685],[-122.29417,51.68689],[-122.29412,51.68699],[-122.29405,51.68707],[-122.29397,51.68715],[-122.29388,51.68724],[-122.29377,51.68732],[-122.29365,51.68739],[-122.29351,51.68746],[-122.29336,51.68753],[-122.2932,51.68762],[-122.29305,51.68768],[-122.29294,51.68775],[-122.29289,51.68778],[-122.29278,51.68787],[-122.29266,51.68795],[-122.29254,51.68804],[-122.29244,51.68811],[-122.29232,51.6882],[-122.2922,51.68828],[-122.29212,51.68836],[-122.29197,51.68848],[-122.2919,51.68856],[-122.29188,51.68858],[-122.29184,51.68864],[-122.29173,51.68874],[-122.29162,51.68884],[-122.29153,51.68893],[-122.29144,51.68901],[-122.29141,51.68902],[-122.2914,51.68909],[-122.29128,51.68916],[-122.29116,51.68926],[-122.29107,51.68939],[-122.29094,51.68956],[-122.29084,51.68967],[-122.29074,51.68976],[-122.29062,51.68983],[-122.29047,51.68992],[-122.29036,51.68998],[-122.29022,51.69006],[-122.29015,51.69014],[-122.29005,51.69024],[-122.28999,51.69032],[-122.28992,51.69034],[-122.28989,51.69038],[-122.28983,51.69048],[-122.28975,51.69056],[-122.28967,51.69065],[-122.28959,51.69073],[-122.28946,51.69078],[-122.28932,51.69084],[-122.28921,51.69083],[-122.28905,51.69085],[-122.28885,51.69089],[-122.28871,51.69094],[-122.28855,51.69099],[-122.28842,51.69103],[-122.28823,51.69109],[-122.28809,51.69117],[-122.28796,51.69125],[-122.28785,51.69131],[-122.28776,51.69139],[-122.28764,51.69147],[-122.28755,51.69155],[-122.28744,51.69166],[-122.28732,51.69174],[-122.28723,51.69183],[-122.28713,51.69193],[-122.28704,51.69202],[-122.28695,51.69212],[-122.28688,51.69221],[-122.28676,51.69229],[-122.28664,51.69235],[-122.28654,51.69242],[-122.2864,51.69247],[-122.28626,51.69253],[-122.28619,51.69257],[-122.28609,51.6926],[-122.28605,51.69262],[-122.28594,51.69267],[-122.28584,51.69271]]}},
{"type":"Feature","properties":{"spotId":"E-deer-atv-0156","kind":"walk","km":0.28,"climbM":24,"name":"By Meason Creek","flags":["Route crosses private land (ParcelMap BC, updated 2026-09-22): get permission first or go around."]},"geometry":{"type":"LineString","coordinates":[[-122.28584,51.69271],[-122.28467,51.69509]]}},
{"type":"Feature","properties":{"spotId":"E-deer-atv-0157","kind":"ride","km":5.23,"climbM":25,"name":"340 m NE of Fraser River","flags":["Route crosses private land (ParcelMap BC, updated 2026-09-22): get permission first or go around."]},"geometry":{"type":"LineString","coordinates":[[-122.29231,51.66335],[-122.29237,51.66322],[-122.29235,51.66305],[-122.29235,51.66282],[-122.29242,51.66262],[-122.2925,51.66248],[-122.29263,51.66228],[-122.29271,51.66218],[-122.29282,51.66203],[-122.29294,51.66189],[-122.29306,51.66177],[-122.29323,51.66168],[-122.2933,51.66166],[-122.29334,51.66165],[-122.29369,51.6617],[-122.2939,51.66177],[-122.29411,51.66186],[-122.29428,51.66195],[-122.29462,51.66208],[-122.29475,51.66215],[-122.29494,51.66225],[-122.29508,51.66231],[-122.2951,51.66231],[-122.29511,51.66231],[-122.29518,51.6623],[-122.29548,51.66211],[-122.29578,51.66198],[-122.29594,51.66187],[-122.29599,51.66183],[-122.29622,51.66165],[-122.29641,51.66149],[-122.29653,51.66139],[-122.29659,51.66126],[-122.29663,51.66113],[-122.29666,51.66099],[-122.29669,51.66087],[-122.29671,51.66083],[-122.29674,51.66077],[-122.29687,51.66072],[-122.29697,51.66072],[-122.29717,51.66073],[-122.29738,51.66075],[-122.29759,51.66075],[-122.2978,51.66073],[-122.29814,51.66062],[-122.29822,51.6606],[-122.29846,51.6605],[-122.29873,51.6604],[-122.29893,51.66035],[-122.29915,51.6603],[-122.29923,51.6603],[-122.29945,51.66023],[-122.29952,51.66022],[-122.2997,51.66018],[-122.29987,51.66015],[-122.30003,51.66009],[-122.30024,51.66004],[-122.30042,51.65996],[-122.30057,51.65987],[-122.30067,51.65976],[-122.30076,51.65962],[-122.30095,51.65939],[-122.30106,51.65927],[-122.30126,51.65906],[-122.30131,51.65901],[-122.30138,51.65892],[-122.3015,51.6588],[-122.30173,51.65859],[-122.30181,51.65848],[-122.30195,51.6583],[-122.30204,51.65816],[-122.30209,51.65807],[-122.30212,51.65794],[-122.30209,51.65785],[-122.30182,51.65779],[-122.30164,51.65776],[-122.30131,51.65766],[-122.30113,51.65757],[-122.30104,51.65745],[-122.30106,51.6574],[-122.30106,51.65738],[-122.30116,51.65726],[-122.30129,51.65715],[-122.30163,51.65696],[-122.30196,51.65681],[-122.3023,51.6567],[-122.30249,51.65662],[-122.30266,51.65654],[-122.30298,51.65643],[-122.3033,51.6563],[-122.30347,51.65622],[-122.3038,51.65604],[-122.30396,51.65596],[-122.30409,51.65586],[-122.30418,51.65573],[-122.30453,51.65558],[-122.30479,51.65548],[-122.30506,51.65538],[-122.30534,51.65527],[-122.30567,51.65515],[-122.30582,51.65509],[-122.30608,51.65501],[-122.30607,51.65495],[-122.30611,51.6548],[-122.30633,51.65464],[-122.30667,51.65445],[-122.30686,51.65436],[-122.30718,51.65425],[-122.30737,51.65418],[-122.30754,51.65411],[-122.30774,51.65405],[-122.30793,51.65402],[-122.30813,51.654],[-122.30834,51.65399],[-122.30858,51.65399],[-122.30909,51.65399],[-122.30932,51.65398],[-122.30941,51.65396],[-122.30963,51.65381],[-122.30976,51.65376],[-122.30983,51.65372],[-122.3099,51.65369],[-122.31011,51.65366],[-122.31029,51.6537],[-122.31047,51.65377],[-122.31058,51.65387],[-122.31075,51.65409],[-122.31093,51.65428],[-122.31125,51.65443],[-122.31138,51.65452],[-122.31141,51.65458],[-122.31143,51.65465],[-122.31148,51.6547],[-122.31159,51.65475],[-122.31172,51.65476],[-122.31218,51.65476],[-122.31239,51.65475],[-122.31272,51.65474],[-122.31282,51.65474],[-122.31304,51.65479],[-122.31325,51.65486],[-122.31335,51.65491],[-122.31368,51.65501],[-122.31391,51.6551],[-122.31396,51.65515],[-122.31386,51.65518],[-122.31371,51.65516],[-122.31349,51.65515],[-122.31338,51.65518],[-122.31325,51.65528],[-122.31317,51.65541],[-122.31313,51.65553],[-122.31311,51.65567],[-122.3131,51.65574],[-122.31311,51.65579],[-122.31311,51.6559],[-122.31318,51.65602],[-122.31323,51.65608],[-122.31331,51.65614],[-122.31338,51.65618],[-122.31358,51.65624],[-122.3138,51.65628],[-122.31398,51.65633],[-122.31416,51.65637],[-122.31426,51.65637],[-122.31437,51.65638],[-122.31457,51.65638],[-122.31478,51.6564],[-122.31499,51.65643],[-122.31521,51.65643],[-122.31544,51.6564],[-122.31566,51.65636],[-122.31578,51.65633],[-122.31588,51.6563],[-122.31607,51.65627],[-122.31627,51.65625],[-122.31664,51.65624],[-122.31686,51.65623],[-122.31698,51.65618],[-122.31718,51.65617],[-122.31737,51.65617],[-122.31758,51.65618],[-122.31779,51.65622],[-122.3181,51.65641],[-122.31824,51.65648],[-122.31835,51.65652],[-122.31842,51.65653],[-122.31861,51.65652],[-122.31881,51.65648],[-122.31898,51.65648],[-122.31941,51.65658],[-122.31952,51.65659],[-122.3196,51.65661],[-122.31985,51.65662],[-122.31995,51.65663],[-122.32029,51.65674],[-122.32048,51.65678],[-122.32065,51.65683],[-122.32074,51.65685],[-122.32088,51.65693],[-122.32119,51.65708],[-122.32121,51.6572],[-122.32127,51.65727],[-122.32128,51.65727],[-122.32143,51.6573],[-122.3217,51.65733],[-122.32203,51.65744],[-122.32246,51.65757],[-122.32264,51.65755],[-122.32286,51.65753],[-122.32303,51.65756],[-122.32324,51.65758],[-122.32346,51.65757],[-122.32369,51.65757],[-122.32395,51.6576],[-122.32423,51.65763],[-122.32466,51.65767],[-122.32482,51.65767],[-122.32491,51.65768],[-122.32512,51.65769],[-122.32557,51.65769],[-122.3258,51.65767],[-122.32603,51.65763],[-122.32625,51.65757],[-122.32644,51.65752],[-122.32661,51.65747],[-122.32692,51.65745],[-122.32722,51.65743],[-122.32741,51.65739],[-122.32759,51.65736],[-122.3277,51.65734],[-122.32789,51.65733],[-122.32809,51.65734],[-122.32828,51.65735],[-122.32845,51.65736],[-122.32892,51.65736],[-122.32916,51.65737],[-122.32939,51.65741],[-122.32958,51.65748],[-122.32975,51.65757],[-122.32997,51.65763],[-122.3302,51.65767],[-122.33039,51.65767],[-122.33057,51.65766],[-122.33067,51.65767],[-122.33076,51.65772],[-122.33093,51.65787],[-122.331,51.65789],[-122.33126,51.65788],[-122.33152,51.65787],[-122.33176,51.65786],[-122.33199,51.65784],[-122.33219,51.65782],[-122.33238,51.65778],[-122.33258,51.65774],[-122.33277,51.6577],[-122.33287,51.65769],[-122.33309,51.65766],[-122.33331,51.65766],[-122.33341,51.65766],[-122.33375,51.65771],[-122.33413,51.65777],[-122.33424,51.65775],[-122.33436,51.65775],[-122.33443,51.65781],[-122.33444,51.65788],[-122.33446,51.65792],[-122.33446,51.65793],[-122.3345,51.65795],[-122.3346,51.65792],[-122.33474,51.65778],[-122.33484,51.65765],[-122.33496,51.65755],[-122.33498,51.65755],[-122.33503,51.65766],[-122.33505,51.65779],[-122.33505,51.65792],[-122.33503,51.65803],[-122.33503,51.65814],[-122.33506,51.65819],[-122.33513,51.65831],[-122.33519,51.65842],[-122.3352,51.65844],[-122.33524,51.65855],[-122.33524,51.6587],[-122.33525,51.65882],[-122.33521,51.65896],[-122.33514,51.65909],[-122.3349,51.6593],[-122.33487,51.65942],[-122.33485,51.65955],[-122.33476,51.65969],[-122.33469,51.65982],[-122.33468,51.65985],[-122.33462,51.66],[-122.33457,51.66015],[-122.33454,51.66027],[-122.33452,51.66038],[-122.33452,51.66043],[-122.33452,51.66054],[-122.3345,51.66069],[-122.33447,51.66083],[-122.3344,51.66095],[-122.33419,51.66124],[-122.33418,51.66125],[-122.33404,51.66152],[-122.33397,51.66165],[-122.3339,51.66178],[-122.3337,51.662],[-122.3336,51.66212],[-122.33348,51.66225],[-122.33344,51.66238],[-122.33341,51.66252],[-122.33335,51.66263],[-122.33327,51.66275],[-122.33321,51.66288],[-122.33318,51.66295],[-122.33317,51.663],[-122.33314,51.66312],[-122.33312,51.66324],[-122.33312,51.66337],[-122.33312,51.66342],[-122.33313,51.66351],[-122.33317,51.66365],[-122.33323,51.66379],[-122.33328,51.66402],[-122.33333,51.6641],[-122.33348,51.66422],[-122.3337,51.6644],[-122.3338,51.66452],[-122.3339,51.66464],[-122.33413,51.66486],[-122.3342,51.6649],[-122.33433,51.66492],[-122.3345,51.66495],[-122.33456,51.665],[-122.33463,51.66514],[-122.33468,51.6653],[-122.33474,51.66541],[-122.33479,51.66554],[-122.33481,51.66556],[-122.33488,51.66566],[-122.33496,51.6658],[-122.33503,51.66595],[-122.33509,51.66611],[-122.33517,51.66625],[-122.33525,51.66639],[-122.33527,51.66644],[-122.33539,51.66662],[-122.33549,51.66673]]}},
{"type":"Feature","properties":{"spotId":"E-deer-atv-0157","kind":"walk","km":0.2,"climbM":67,"name":"340 m NE of Fraser River","flags":["Route crosses private land (ParcelMap BC, updated 2026-09-22): get permission first or go around."]},"geometry":{"type":"LineString","coordinates":[[-122.33549,51.66673],[-122.33337,51.66791]]}},
{"type":"Feature","properties":{"spotId":"E-deer-atv-0158","kind":"ride","km":3.34,"climbM":253,"name":"240 m E of Fraser River","flags":["Route crosses private land (ParcelMap BC, updated 2026-09-22): get permission first or go around."]},"geometry":{"type":"LineString","coordinates":[[-122.35468,51.69648],[-122.35455,51.69653],[-122.35442,51.69658],[-122.35432,51.6966],[-122.35418,51.69659],[-122.35408,51.69657],[-122.35399,51.69652],[-122.35383,51.69644],[-122.35375,51.69631],[-122.35371,51.69619],[-122.35365,51.69595],[-122.35365,51.69584],[-122.35364,51.69571],[-122.3536,51.69557],[-122.35354,51.69542],[-122.35346,51.6953],[-122.35339,51.69516],[-122.35337,51.69504],[-122.35335,51.69485],[-122.35332,51.69477],[-122.35318,51.69466],[-122.35292,51.69452],[-122.35262,51.69434],[-122.35232,51.69415],[-122.35206,51.69395],[-122.35171,51.69376],[-122.35141,51.6936],[-122.35131,51.69354],[-122.35111,51.69347],[-122.35082,51.69336],[-122.35055,51.69327],[-122.35036,51.69324],[-122.35017,51.69323],[-122.35,51.69321],[-122.34978,51.69316],[-122.34958,51.6931],[-122.34924,51.69294],[-122.34904,51.69286],[-122.34878,51.69275],[-122.34859,51.69269],[-122.3484,51.69263],[-122.34823,51.69259],[-122.34785,51.69251],[-122.34768,51.69248],[-122.34748,51.69243],[-122.34729,51.69239],[-122.34711,51.69232],[-122.34685,51.69222],[-122.34676,51.69219],[-122.34659,51.69213],[-122.34646,51.69208],[-122.34624,51.69198],[-122.34605,51.69194],[-122.34598,51.69192],[-122.34581,51.69186],[-122.34562,51.69183],[-122.34542,51.69184],[-122.34475,51.69183],[-122.34455,51.69184],[-122.34436,51.69186],[-122.34415,51.69191],[-122.34393,51.69192],[-122.34374,51.69193],[-122.34351,51.69191],[-122.34331,51.69188],[-122.34318,51.69183],[-122.34288,51.69168],[-122.3427,51.69159],[-122.3426,51.69156],[-122.34243,51.69144],[-122.34222,51.69125],[-122.3421,51.69122],[-122.34167,51.69109],[-122.34142,51.69094],[-122.34124,51.69086],[-122.34107,51.69078],[-122.34095,51.69073],[-122.34073,51.69069],[-122.3405,51.69067],[-122.34037,51.69067],[-122.34013,51.69068],[-122.33989,51.6907],[-122.33981,51.6907],[-122.33971,51.69071],[-122.33952,51.69071],[-122.33927,51.69065],[-122.3391,51.69066],[-122.33891,51.69068],[-122.33872,51.6907],[-122.33855,51.69074],[-122.33836,51.69076],[-122.33819,51.69075],[-122.33785,51.69073],[-122.33762,51.69072],[-122.33742,51.69076],[-122.33732,51.6908],[-122.33706,51.69096],[-122.33694,51.6911],[-122.33683,51.69123],[-122.33675,51.69136],[-122.33666,51.69149],[-122.33663,51.69161],[-122.33658,51.69172],[-122.33648,51.69187],[-122.33632,51.69198],[-122.33622,51.692],[-122.33591,51.692],[-122.33559,51.69201],[-122.33543,51.69202],[-122.3352,51.69203],[-122.33497,51.69201],[-122.33463,51.69193],[-122.33441,51.69193],[-122.33419,51.69194],[-122.33399,51.69198],[-122.33378,51.69202],[-122.33347,51.6921],[-122.33345,51.69211],[-122.33325,51.69219],[-122.33306,51.69227],[-122.33283,51.69234],[-122.33259,51.6924],[-122.33227,51.69252],[-122.33216,51.69259],[-122.33189,51.69276],[-122.33169,51.69284],[-122.33137,51.69298],[-122.33106,51.69318],[-122.33099,51.6933],[-122.33096,51.69341],[-122.33093,51.69352],[-122.33093,51.69353],[-122.33092,51.69393],[-122.33092,51.69397],[-122.33093,51.69404],[-122.3309,51.69417],[-122.33087,51.6943],[-122.33081,51.69442],[-122.33069,51.69453],[-122.33058,51.69456],[-122.33039,51.69457],[-122.33022,51.69459],[-122.3301,51.69463],[-122.32978,51.69476],[-122.32958,51.69482],[-122.32949,51.69486],[-122.32939,51.69489],[-122.32911,51.69496],[-122.32889,51.695],[-122.32876,51.69506],[-122.32851,51.69526],[-122.32825,51.69541],[-122.32805,51.69549],[-122.32783,51.6955],[-122.32763,51.69552],[-122.32748,51.69558],[-122.32716,51.69573],[-122.3269,51.69589],[-122.32683,51.69594],[-122.32653,51.69614],[-122.32626,51.69631],[-122.32591,51.69649],[-122.32589,51.6965],[-122.32572,51.69657],[-122.32537,51.69666],[-122.32509,51.69672],[-122.32483,51.69678],[-122.32458,51.69694],[-122.32423,51.69703],[-122.32418,51.69705],[-122.32409,51.69715],[-122.32409,51.69726],[-122.32411,51.6974],[-122.32412,51.69753],[-122.32409,51.69762],[-122.32392,51.69779],[-122.32382,51.69791],[-122.32373,51.69802],[-122.32367,51.69815],[-122.32358,51.69829],[-122.32349,51.69843],[-122.32343,51.69847],[-122.32333,51.69852],[-122.32314,51.69854],[-122.32297,51.69856],[-122.32278,51.69857],[-122.32259,51.69857],[-122.32255,51.69857],[-122.32242,51.69856],[-122.32223,51.69855],[-122.32213,51.69857],[-122.32205,51.69862],[-122.3221,51.69873],[-122.32214,51.69885],[-122.3222,51.69894],[-122.32223,51.69905],[-122.3222,51.69916],[-122.32211,51.6993],[-122.32198,51.69943],[-122.32173,51.69962],[-122.32156,51.69968],[-122.32136,51.69969],[-122.32115,51.69971],[-122.32083,51.69984],[-122.32051,51.69995],[-122.32014,51.69995],[-122.31995,51.6999],[-122.31975,51.69988],[-122.31979,51.69973]]}},
{"type":"Feature","properties":{"spotId":"E-deer-atv-0158","kind":"walk","km":0.11,"climbM":22,"name":"240 m E of Fraser River","flags":["Route crosses private land (ParcelMap BC, updated 2026-09-22): get permission first or go around."]},"geometry":{"type":"LineString","coordinates":[[-122.35468,51.69648],[-122.35427,51.69554]]}},
{"type":"Feature","properties":{"spotId":"E-deer-drive-0010","kind":"walk","km":0.1,"climbM":4,"name":"2.7 km S of Word Creek","flags":[]},"geometry":{"type":"LineString","coordinates":[[-122.40918,51.63482],[-122.40791,51.63515]]}},
{"type":"Feature","properties":{"spotId":"E-deer-drive-0026","kind":"walk","km":0.22,"climbM":0,"name":"2.6 km NE of Fraser River","flags":[]},"geometry":{"type":"LineString","coordinates":[[-122.29133,51.66264],[-122.29376,51.66136]]}},
{"type":"Feature","properties":{"spotId":"E-deer-drive-0058","kind":"walk","km":0.06,"climbM":0,"name":"590 m SW of Fraser River","flags":[]},"geometry":{"type":"LineString","coordinates":[[-122.29621,51.52962],[-122.29572,51.53011]]}},
{"type":"Feature","properties":{"spotId":"E-deer-drive-0070","kind":"walk","km":0.1,"climbM":0,"name":"2.8 km N of Word Creek","flags":[]},"geometry":{"type":"LineString","coordinates":[[-122.49714,51.68308],[-122.49798,51.68235]]}},
{"type":"Feature","properties":{"spotId":"E-deer-drive-0126","kind":"walk","km":0.23,"climbM":1,"name":"180 m SE of McEwen Creek","flags":[]},"geometry":{"type":"LineString","coordinates":[[-122.40859,51.69565],[-122.40635,51.69719]]}},
{"type":"Feature","properties":{"spotId":"E-deer-drive-0133","kind":"walk","km":0.11,"climbM":28,"name":"390 m S of Dog Creek","flags":[]},"geometry":{"type":"LineString","coordinates":[[-122.28188,51.5763],[-122.28025,51.57633]]}},
{"type":"Feature","properties":{"spotId":"E-deer-drive-0135","kind":"walk","km":0.08,"climbM":17,"name":"260 m NE of Meason Creek","flags":[]},"geometry":{"type":"LineString","coordinates":[[-122.321,51.7029],[-122.32024,51.70343]]}},
{"type":"Feature","properties":{"spotId":"E-deer-drive-0136","kind":"walk","km":0.26,"climbM":28,"name":"1.0 km SW of Gaspard Creek","flags":[]},"geometry":{"type":"LineString","coordinates":[[-122.49273,51.55472],[-122.49156,51.55698]]}},
{"type":"Feature","properties":{"spotId":"E-deer-drive-0139","kind":"walk","km":0.05,"climbM":0,"name":"1.2 km SW of Chilcotin River","flags":[]},"geometry":{"type":"LineString","coordinates":[[-122.43376,51.74082],[-122.43323,51.74116]]}},
{"type":"Feature","properties":{"spotId":"E-deer-drive-0154","kind":"walk","km":0.17,"climbM":9,"name":"4.9 km NE of Blackwater Lake","flags":["Route enters a Motor Vehicle Closed Area: North Churn Creek. Closed Year Round. Exemption: Snowmobiles exempt December 1 to April 30. Synopsis map 1-40/23.","Route crosses protected area: Churn Creek Protected Area. Hunting only where that park allows it, in open season. Check its bcparks.ca page (synopsis page 9, 99%)."]},"geometry":{"type":"LineString","coordinates":[[-122.47589,51.52723],[-122.47503,51.52862]]}},
{"type":"Feature","properties":{"spotId":"E-deer-walk-0023","kind":"walk","km":0.42,"climbM":4,"name":"2.6 km S of Word Creek","flags":[]},"geometry":{"type":"LineString","coordinates":[[-122.40903,51.63459],[-122.40331,51.63581]]}},
{"type":"Feature","properties":{"spotId":"E-deer-walk-0033","kind":"walk","km":1.89,"climbM":314,"name":"2.5 km S of Alkali Lake","flags":["Route crosses private land (ParcelMap BC, updated 2026-09-22): get permission first or go around."]},"geometry":{"type":"LineString","coordinates":[[-122.31173,51.74905],[-122.28432,51.74901]]}},
{"type":"Feature","properties":{"spotId":"E-deer-walk-0042","kind":"walk","km":1.04,"climbM":80,"name":"3.1 km SW of Meason Creek","flags":[]},"geometry":{"type":"LineString","coordinates":[[-122.28523,51.65825],[-122.27163,51.66222]]}},
{"type":"Feature","properties":{"spotId":"E-deer-walk-0084","kind":"walk","km":1.09,"climbM":27,"name":"By Gaspard Creek","flags":["Route crosses private land (ParcelMap BC, updated 2026-09-22): get permission first or go around."]},"geometry":{"type":"LineString","coordinates":[[-122.32184,51.55809],[-122.31859,51.56769]]}},
{"type":"Feature","properties":{"spotId":"E-deer-walk-0107","kind":"walk","km":2.13,"climbM":271,"name":"370 m N of McEwen Creek","flags":[]},"geometry":{"type":"LineString","coordinates":[[-122.45639,51.72615],[-122.47913,51.71325]]}},
{"type":"Feature","properties":{"spotId":"E-deer-walk-0122","kind":"walk","km":1.71,"climbM":5,"name":"2.6 km W of Joes Creek","flags":[]},"geometry":{"type":"LineString","coordinates":[[-122.25738,51.70813],[-122.26709,51.72226]]}},
{"type":"Feature","properties":{"spotId":"E-deer-walk-0158","kind":"walk","km":0.41,"climbM":38,"name":"760 m N of McEwen Creek","flags":[]},"geometry":{"type":"LineString","coordinates":[[-122.44657,51.70378],[-122.44614,51.70742]]}},
{"type":"Feature","properties":{"spotId":"E-deer-walk-0167","kind":"walk","km":5.24,"climbM":289,"name":"3.4 km NE of Gaspard Creek","flags":[]},"geometry":{"type":"LineString","coordinates":[[-122.54114,51.6339],[-122.54094,51.63379],[-122.54086,51.6337],[-122.54071,51.63356],[-122.54048,51.63331],[-122.54028,51.63306],[-122.54021,51.63293],[-122.54017,51.63285],[-122.54014,51.63281],[-122.54009,51.6327],[-122.54004,51.63259],[-122.54,51.63246],[-122.53997,51.63234],[-122.53995,51.63219],[-122.53993,51.63204],[-122.53992,51.63191],[-122.53989,51.63179],[-122.53982,51.63171],[-122.53978,51.6316],[-122.53978,51.63158],[-122.53974,51.63144],[-122.53971,51.63138],[-122.53968,51.63132],[-122.53962,51.6312],[-122.53957,51.63097],[-122.53954,51.63084],[-122.53954,51.63083],[-122.5395,51.63043],[-122.53947,51.63029],[-122.53946,51.63016],[-122.53945,51.63],[-122.53944,51.62986],[-122.53942,51.62973],[-122.53941,51.62967],[-122.53938,51.6296],[-122.53932,51.62946],[-122.53931,51.62945],[-122.53922,51.62932],[-122.53912,51.62921],[-122.53898,51.62912],[-122.53882,51.62903],[-122.53865,51.62896],[-122.53851,51.6289],[-122.53831,51.62882],[-122.53805,51.62872],[-122.5379,51.62869],[-122.53771,51.62868],[-122.53754,51.62868],[-122.53732,51.62869],[-122.53709,51.62872],[-122.53686,51.62875],[-122.53661,51.6288],[-122.5364,51.62885],[-122.53618,51.62889],[-122.53562,51.62895],[-122.53544,51.62897],[-122.53524,51.62903],[-122.53505,51.62911],[-122.53473,51.62923],[-122.53451,51.62935],[-122.53444,51.62938],[-122.53433,51.62943],[-122.53418,51.62944],[-122.5342,51.62937],[-122.53389,51.6293],[-122.53368,51.62924],[-122.53346,51.62918],[-122.53326,51.62911],[-122.53306,51.62903],[-122.53286,51.62896],[-122.5327,51.62892],[-122.53261,51.62893],[-122.53254,51.62887],[-122.53221,51.6287],[-122.53212,51.62866],[-122.53189,51.62855],[-122.53155,51.62843],[-122.5312,51.62833],[-122.53106,51.62827],[-122.53089,51.62821],[-122.53068,51.62815],[-122.53048,51.62809],[-122.53014,51.628],[-122.52989,51.62792],[-122.52963,51.62783],[-122.5293,51.62774],[-122.52896,51.62766],[-122.52877,51.62761],[-122.52849,51.62751],[-122.52821,51.62742],[-122.52803,51.62739],[-122.52785,51.62734],[-122.52767,51.6273],[-122.52747,51.62725],[-122.52727,51.62721],[-122.52689,51.62714],[-122.52669,51.6271],[-122.52648,51.62707],[-122.5263,51.62703],[-122.52612,51.62699],[-122.52591,51.62697],[-122.5257,51.62694],[-122.52551,51.62692],[-122.52534,51.62689],[-122.52511,51.62686],[-122.52492,51.62684],[-122.52469,51.6268],[-122.52447,51.62676],[-122.52427,51.62672],[-122.52407,51.62668],[-122.52394,51.62667],[-122.52374,51.62661],[-122.52352,51.62656],[-122.5233,51.62649],[-122.5231,51.62641],[-122.5229,51.62635],[-122.52271,51.6263],[-122.52251,51.62624],[-122.52197,51.62607],[-122.52165,51.62596],[-122.52145,51.62588],[-122.52127,51.62581],[-122.52093,51.62575],[-122.52071,51.62571],[-122.52051,51.62568],[-122.52011,51.62566],[-122.51987,51.62566],[-122.51966,51.62567],[-122.51946,51.62567],[-122.51924,51.62568],[-122.51901,51.62568],[-122.51878,51.62569],[-122.51854,51.62571],[-122.5183,51.62574],[-122.51808,51.62576],[-122.51788,51.62576],[-122.51745,51.62582],[-122.51697,51.62581],[-122.51674,51.62582],[-122.51649,51.62584],[-122.51628,51.62585],[-122.51606,51.62586],[-122.51562,51.62588],[-122.51544,51.62588],[-122.51523,51.62589],[-122.51499,51.62589],[-122.51473,51.62588],[-122.51456,51.62588],[-122.51437,51.62589],[-122.51418,51.62592],[-122.51401,51.62594],[-122.5138,51.62594],[-122.51359,51.62594],[-122.51341,51.62593],[-122.51323,51.62593],[-122.513,51.62594],[-122.51278,51.62596],[-122.51259,51.62597],[-122.5124,51.62598],[-122.5122,51.62598],[-122.51198,51.62599],[-122.51191,51.62602],[-122.51172,51.62607],[-122.51169,51.62614],[-122.51155,51.62628],[-122.51136,51.62639],[-122.51082,51.62664],[-122.51072,51.62669],[-122.51043,51.62684],[-122.51009,51.62702],[-122.50991,51.62711],[-122.50972,51.62719],[-122.50937,51.62735],[-122.50918,51.6274],[-122.50899,51.62744],[-122.50879,51.62751],[-122.50859,51.62756],[-122.50821,51.6277],[-122.50802,51.62775],[-122.50785,51.62782],[-122.50763,51.62791],[-122.50743,51.628],[-122.50725,51.62807],[-122.50708,51.62813],[-122.50677,51.62825],[-122.50647,51.6283],[-122.50627,51.62832],[-122.50602,51.62838],[-122.50579,51.62843],[-122.5056,51.62846],[-122.5054,51.62849],[-122.50496,51.62852],[-122.50478,51.62854],[-122.50459,51.62855],[-122.50439,51.62858],[-122.50418,51.62859],[-122.50395,51.62864],[-122.50373,51.62869],[-122.50353,51.62871],[-122.50333,51.62872],[-122.50317,51.62871],[-122.50308,51.62871],[-122.50285,51.6287],[-122.50262,51.62868],[-122.50241,51.62865],[-122.502,51.62857],[-122.50181,51.62853],[-122.50161,51.62848],[-122.50127,51.62839],[-122.50108,51.62835],[-122.50047,51.62821],[-122.50024,51.62817],[-122.50003,51.62813],[-122.49982,51.62811],[-122.49962,51.62807],[-122.49944,51.62803],[-122.49926,51.628],[-122.49908,51.62796],[-122.4989,51.62792],[-122.49871,51.6279],[-122.49851,51.62787],[-122.49833,51.62786],[-122.49814,51.62784],[-122.4977,51.62777],[-122.49753,51.62773],[-122.4972,51.62764],[-122.49711,51.62758],[-122.4969,51.62745],[-122.49676,51.62733],[-122.49651,51.62712],[-122.49634,51.62703],[-122.49631,51.62702],[-122.49614,51.62697],[-122.49592,51.62692],[-122.49569,51.62688],[-122.49553,51.62682],[-122.49529,51.62665],[-122.49503,51.62641],[-122.49475,51.62622],[-122.49453,51.62609],[-122.49447,51.62605],[-122.4943,51.62601],[-122.49398,51.62588],[-122.49378,51.62582],[-122.49357,51.62579],[-122.49335,51.62578],[-122.49313,51.62578],[-122.49299,51.62572],[-122.49295,51.62567],[-122.49293,51.62566],[-122.49292,51.6256],[-122.49295,51.62537],[-122.49295,51.62532],[-122.49286,51.6252],[-122.49278,51.62515],[-122.49259,51.62513],[-122.49242,51.62512],[-122.49223,51.62511],[-122.49217,51.62511],[-122.49172,51.6251],[-122.49151,51.6251],[-122.49129,51.62505],[-122.49106,51.62501],[-122.4906,51.62499],[-122.49037,51.62499],[-122.49014,51.625],[-122.4897,51.625],[-122.4895,51.62494],[-122.4892,51.62492],[-122.489,51.6249],[-122.48875,51.62486],[-122.48859,51.62482],[-122.48839,51.6248],[-122.48819,51.62477],[-122.48799,51.62476],[-122.48778,51.62475],[-122.48758,51.62472],[-122.48737,51.6247],[-122.48715,51.62467],[-122.48695,51.62465],[-122.48688,51.62462],[-122.48682,51.62457],[-122.48476,51.61875]]}},
{"type":"Feature","properties":{"spotId":"E-deer-walk-0169","kind":"walk","km":0.34,"climbM":0,"name":"By McEwen Creek","flags":[]},"geometry":{"type":"LineString","coordinates":[[-122.45153,51.7047],[-122.45486,51.70248]]}},
{"type":"Feature","properties":{"spotId":"E-deer-walk-0203","kind":"walk","km":2.31,"climbM":9,"name":"700 m E of Fraser River","flags":["Route crosses private land (ParcelMap BC, updated 2026-09-22): get permission first or go around."]},"geometry":{"type":"LineString","coordinates":[[-122.30593,51.68472],[-122.33696,51.67701]]}},
{"type":"Feature","properties":{"spotId":"E-deer-walk-0204","kind":"walk","km":1.6,"climbM":46,"name":"140 m N of Meason Creek","flags":["Route crosses private land (ParcelMap BC, updated 2026-09-22): get permission first or go around."]},"geometry":{"type":"LineString","coordinates":[[-122.32282,51.70388],[-122.34391,51.6979]]}},
{"type":"Feature","properties":{"spotId":"E-deer-walk-0208","kind":"walk","km":1.67,"climbM":38,"name":"310 m NW of Gaspard Creek","flags":[]},"geometry":{"type":"LineString","coordinates":[[-122.46945,51.58391],[-122.47036,51.56891]]}},
{"type":"Feature","properties":{"spotId":"E-deer-walk-0209","kind":"walk","km":1.38,"climbM":13,"name":"570 m NW of Gaspard Creek","flags":["Route crosses private land (ParcelMap BC, updated 2026-09-22): get permission first or go around."]},"geometry":{"type":"LineString","coordinates":[[-122.43474,51.58168],[-122.43126,51.56949]]}},
{"type":"Feature","properties":{"spotId":"E-deer-walk-0210","kind":"walk","km":0.35,"climbM":0,"name":"720 m SE of Cam Creek","flags":[]},"geometry":{"type":"LineString","coordinates":[[-122.28103,51.59257],[-122.2861,51.5927]]}},
{"type":"Feature","properties":{"spotId":"E-deer-walk-0211","kind":"walk","km":2.81,"climbM":11,"name":"220 m E of Fraser River","flags":["Route crosses private land (ParcelMap BC, updated 2026-09-22): get permission first or go around."]},"geometry":{"type":"LineString","coordinates":[[-122.28398,51.65583],[-122.32079,51.64504]]}},
{"type":"Feature","properties":{"spotId":"E-grouse-drive-0109","kind":"roadside","km":4.56,"climbM":75,"name":"4.2 km NE of Blackwater Lake","flags":[]},"geometry":{"type":"LineString","coordinates":[[-122.4876,51.53052],[-122.48776,51.53059],[-122.48795,51.53068],[-122.48815,51.53077],[-122.48833,51.53085],[-122.48861,51.53102],[-122.48881,51.5311],[-122.48901,51.53119],[-122.4892,51.53127],[-122.48954,51.53142],[-122.49001,51.53164],[-122.49031,51.5318],[-122.49064,51.53197],[-122.4908,51.53204],[-122.49097,51.53211],[-122.49127,51.53226],[-122.49143,51.53233],[-122.49159,51.53239],[-122.49188,51.53254],[-122.49222,51.53269],[-122.49249,51.53285],[-122.49282,51.53302],[-122.49299,51.53311],[-122.49318,51.53318],[-122.49353,51.53333],[-122.49373,51.53343],[-122.49407,51.53362],[-122.49454,51.53384],[-122.49466,51.53388],[-122.49475,51.53391],[-122.49496,51.53395],[-122.49516,51.53397],[-122.49557,51.53397],[-122.49568,51.53396],[-122.49578,51.53396],[-122.49597,51.53392],[-122.49626,51.53386],[-122.49656,51.5338],[-122.49677,51.53375],[-122.49698,51.53373],[-122.49721,51.53371],[-122.49741,51.53368],[-122.4976,51.53366],[-122.4978,51.53364],[-122.49799,51.53363],[-122.49819,51.53362],[-122.4984,51.53358],[-122.49863,51.53354],[-122.49887,51.53348],[-122.49905,51.53346],[-122.49923,51.53343],[-122.49942,51.53341],[-122.49959,51.53339],[-122.49984,51.53334],[-122.50007,51.5333],[-122.50027,51.53327],[-122.50046,51.53325],[-122.50068,51.53322],[-122.50088,51.53319],[-122.5011,51.53318],[-122.50133,51.53317],[-122.50153,51.53314],[-122.50175,51.53311],[-122.50195,51.53308],[-122.50216,51.53306],[-122.50237,51.53304],[-122.50258,51.53301],[-122.5028,51.53298],[-122.503,51.53294],[-122.50325,51.5329],[-122.50348,51.53286],[-122.50349,51.53286],[-122.5037,51.53283],[-122.50391,51.53279],[-122.50411,51.53278],[-122.50432,51.53275],[-122.50452,51.53271],[-122.50485,51.53265],[-122.50507,51.53262],[-122.5053,51.53261],[-122.5055,51.53258],[-122.5057,51.53255],[-122.50605,51.5325],[-122.50627,51.53246],[-122.50658,51.53241],[-122.50668,51.5324],[-122.50677,51.53236],[-122.50697,51.53235],[-122.50718,51.53233],[-122.50761,51.53228],[-122.5078,51.53225],[-122.50797,51.53223],[-122.50821,51.53219],[-122.50834,51.53217],[-122.50845,51.53217],[-122.50866,51.53213],[-122.50889,51.53211],[-122.50927,51.53203],[-122.50946,51.53201],[-122.50964,51.53199],[-122.50988,51.53197],[-122.51031,51.53191],[-122.51051,51.5319],[-122.51071,51.53187],[-122.5109,51.53184],[-122.5113,51.53179],[-122.51152,51.53177],[-122.51172,51.53173],[-122.51201,51.5317],[-122.51216,51.53168],[-122.51256,51.53161],[-122.51278,51.53159],[-122.51301,51.53156],[-122.51327,51.53154],[-122.51351,51.53151],[-122.51374,51.53149],[-122.51397,51.53147],[-122.51441,51.53142],[-122.5146,51.53141],[-122.51487,51.53137],[-122.51503,51.53136],[-122.51524,51.53135],[-122.51542,51.53133],[-122.51568,51.53132],[-122.51572,51.53132],[-122.51582,51.53131],[-122.51604,51.53129],[-122.51637,51.53127],[-122.5168,51.53127],[-122.51711,51.53123],[-122.51729,51.53122],[-122.51814,51.53123],[-122.51833,51.53122],[-122.51852,51.53122],[-122.51875,51.53121],[-122.51894,51.53121],[-122.51898,51.53121],[-122.5192,51.53119],[-122.51928,51.5312],[-122.5194,51.53119],[-122.51961,51.53118],[-122.52005,51.53118],[-122.52026,51.53117],[-122.52047,51.53116],[-122.52067,51.53115],[-122.52086,51.53114],[-122.52106,51.53114],[-122.5213,51.53112],[-122.52149,51.53111],[-122.52155,51.53111],[-122.52198,51.5311],[-122.52234,51.53108],[-122.52236,51.53108],[-122.5226,51.53107],[-122.52285,51.53107],[-122.52306,51.53107],[-122.52328,51.53107],[-122.52349,51.53105],[-122.52371,51.53104],[-122.52411,51.53103],[-122.52458,51.53103],[-122.52501,51.53101],[-122.5251,51.53099],[-122.5255,51.53098],[-122.52572,51.53096],[-122.52593,51.53095],[-122.52612,51.53094],[-122.52632,51.53094],[-122.52654,51.53093],[-122.52675,51.53091],[-122.52698,51.5309],[-122.52717,51.53089],[-122.52735,51.5309],[-122.5276,51.53088],[-122.52775,51.53087],[-122.52781,51.53087],[-122.52805,51.53085],[-122.5282,51.53084],[-122.52843,51.53084],[-122.52861,51.53081],[-122.5288,51.53079],[-122.52918,51.53076],[-122.52941,51.53074],[-122.52965,51.53073],[-122.52984,51.53073],[-122.53004,51.53072],[-122.53065,51.53072],[-122.53085,51.53071],[-122.53104,51.5307],[-122.53123,51.53069],[-122.53141,51.53069],[-122.5316,51.53068],[-122.53177,51.53067],[-122.5319,51.53066],[-122.53196,51.53066],[-122.53238,51.53066],[-122.5326,51.53066],[-122.53281,51.53064],[-122.53319,51.5306],[-122.53336,51.5306],[-122.53345,51.5306],[-122.53355,51.5306],[-122.53375,51.53059],[-122.53395,51.53059],[-122.53417,51.53058],[-122.53437,51.53056],[-122.53457,51.53054],[-122.53477,51.5305],[-122.53495,51.53045],[-122.53496,51.53045],[-122.53514,51.5304],[-122.53535,51.53034],[-122.53555,51.53029],[-122.53579,51.53023],[-122.53602,51.53016],[-122.5362,51.53009],[-122.53641,51.53003],[-122.53678,51.52993],[-122.53699,51.52987],[-122.53713,51.52983],[-122.53748,51.52971],[-122.5378,51.52961],[-122.538,51.52956],[-122.53819,51.52951],[-122.53852,51.52939],[-122.53895,51.52925],[-122.53916,51.52918],[-122.53934,51.52912],[-122.53956,51.52906],[-122.53979,51.52899],[-122.54001,51.52893],[-122.54024,51.52888],[-122.54057,51.52873],[-122.54101,51.5286],[-122.54135,51.52851],[-122.54154,51.52844],[-122.54187,51.52833],[-122.54216,51.52822],[-122.5425,51.52809],[-122.54293,51.52794],[-122.54315,51.52788],[-122.54335,51.52782],[-122.54355,51.52775],[-122.54383,51.52763],[-122.54423,51.52753],[-122.54458,51.52738],[-122.54475,51.52733],[-122.5451,51.52718],[-122.54529,51.5271],[-122.54539,51.52707],[-122.54572,51.52698],[-122.54592,51.5269],[-122.54626,51.52675],[-122.54645,51.5267],[-122.54663,51.52666],[-122.54673,51.52661],[-122.54707,51.5265],[-122.54739,51.52638],[-122.54759,51.52632],[-122.54778,51.52625],[-122.54795,51.52619],[-122.54814,51.52613],[-122.54847,51.52601],[-122.54882,51.5259],[-122.54902,51.52585]]}},
{"type":"Feature","properties":{"spotId":"E-grouse-drive-0114","kind":"roadside","km":4.2,"climbM":42,"name":"By McEwen Creek","flags":[]},"geometry":{"type":"LineString","coordinates":[[-122.42703,51.69977],[-122.42705,51.69976],[-122.42726,51.69973],[-122.42748,51.69968],[-122.42763,51.69959],[-122.42761,51.69953],[-122.42761,51.69952],[-122.42756,51.69946],[-122.42747,51.69941],[-122.42724,51.69942],[-122.42682,51.69942],[-122.42663,51.69941],[-122.42643,51.6994],[-122.42623,51.69935],[-122.426,51.6993],[-122.42598,51.6993],[-122.42569,51.69926],[-122.42549,51.69924],[-122.42506,51.69922],[-122.42485,51.69923],[-122.42465,51.69923],[-122.42445,51.69922],[-122.42426,51.6992],[-122.42383,51.69918],[-122.4236,51.69916],[-122.42336,51.69913],[-122.42319,51.6991],[-122.42315,51.69909],[-122.423,51.69908],[-122.42282,51.69903],[-122.42264,51.69898],[-122.42224,51.69889],[-122.42186,51.69878],[-122.42166,51.69871],[-122.42148,51.69865],[-122.42113,51.69855],[-122.42096,51.69846],[-122.4207,51.69826],[-122.42057,51.69815],[-122.42046,51.69803],[-122.42015,51.69781],[-122.42,51.69776],[-122.41998,51.69775],[-122.41979,51.69769],[-122.41945,51.69761],[-122.41923,51.69756],[-122.41883,51.69747],[-122.41864,51.69744],[-122.41842,51.69742],[-122.41821,51.69739],[-122.41811,51.69735],[-122.4179,51.69732],[-122.4177,51.69729],[-122.41733,51.69725],[-122.4164,51.6971],[-122.41621,51.69706],[-122.41604,51.69702],[-122.41584,51.69695],[-122.41565,51.69689],[-122.41534,51.69675],[-122.41491,51.69647],[-122.41475,51.69641],[-122.41472,51.6964],[-122.4145,51.69637],[-122.41428,51.69637],[-122.41408,51.69638],[-122.41314,51.69637],[-122.41291,51.69636],[-122.41269,51.69634],[-122.41249,51.69627],[-122.41229,51.69622],[-122.4121,51.69619],[-122.4119,51.69616],[-122.41168,51.69613],[-122.41148,51.69612],[-122.41129,51.69611],[-122.41108,51.69612],[-122.41084,51.69611],[-122.41019,51.69605],[-122.40999,51.69603],[-122.40975,51.69601],[-122.40951,51.69598],[-122.40933,51.69594],[-122.40914,51.6959],[-122.40895,51.69583],[-122.40887,51.6958],[-122.40878,51.69575],[-122.40859,51.69565],[-122.40844,51.69554],[-122.40815,51.69532],[-122.40788,51.69514],[-122.40749,51.69482],[-122.40733,51.69473],[-122.40699,51.69458],[-122.4068,51.6945],[-122.40661,51.69441],[-122.40634,51.6942],[-122.40591,51.69387],[-122.40561,51.69367],[-122.4055,51.69354],[-122.40544,51.6934],[-122.40541,51.69323],[-122.40539,51.69311],[-122.40534,51.69298],[-122.40532,51.69286],[-122.40529,51.69272],[-122.40528,51.69258],[-122.40525,51.69231],[-122.40523,51.69205],[-122.40514,51.69184],[-122.4051,51.69172],[-122.40504,51.6916],[-122.40496,51.69133],[-122.40491,51.6911],[-122.40482,51.69087],[-122.40479,51.69074],[-122.40477,51.69062],[-122.40465,51.69037],[-122.40464,51.69031],[-122.4046,51.69024],[-122.40446,51.69006],[-122.40436,51.68996],[-122.40411,51.68974],[-122.40385,51.68957],[-122.40363,51.68935],[-122.40347,51.68924],[-122.40318,51.68903],[-122.40294,51.68885],[-122.40272,51.68867],[-122.40244,51.68848],[-122.40239,51.68845],[-122.40226,51.68836],[-122.40212,51.68824],[-122.40198,51.68812],[-122.40176,51.6879],[-122.40165,51.68777],[-122.40154,51.68764],[-122.40148,51.68758],[-122.40141,51.68751],[-122.40118,51.68724],[-122.40094,51.68706],[-122.40075,51.68685],[-122.40055,51.68666],[-122.40039,51.68646],[-122.40028,51.68627],[-122.40013,51.68606],[-122.4,51.68589],[-122.39998,51.68585],[-122.39988,51.68572],[-122.39977,51.68558],[-122.39967,51.68546],[-122.39958,51.68539],[-122.39954,51.68535],[-122.39943,51.6853],[-122.39894,51.68521],[-122.39886,51.6852],[-122.39873,51.68517],[-122.39855,51.68512],[-122.39836,51.68506],[-122.39822,51.68495],[-122.39812,51.68483],[-122.398,51.68455],[-122.39796,51.68441],[-122.39795,51.68429],[-122.39792,51.68417],[-122.3979,51.68403],[-122.39788,51.68389],[-122.39786,51.68374],[-122.3978,51.6836],[-122.39771,51.68348],[-122.39762,51.68337],[-122.39744,51.68315],[-122.39726,51.68295],[-122.39707,51.68275],[-122.39692,51.68255],[-122.39683,51.68243],[-122.39676,51.68231],[-122.39668,51.68218],[-122.39661,51.68206],[-122.39656,51.68194],[-122.39652,51.68183],[-122.39645,51.6817],[-122.39637,51.68155],[-122.39627,51.68143],[-122.39617,51.68129],[-122.3961,51.68117],[-122.39604,51.68106],[-122.39587,51.6808],[-122.39568,51.68061],[-122.39553,51.68041],[-122.39544,51.68027],[-122.39537,51.68014],[-122.39532,51.68001],[-122.39523,51.67987],[-122.39506,51.67961],[-122.39491,51.6794],[-122.39474,51.67914],[-122.39469,51.67903],[-122.39467,51.67891],[-122.39462,51.67878],[-122.39458,51.67867],[-122.39453,51.6785],[-122.3945,51.67835],[-122.3945,51.67821],[-122.39452,51.67805],[-122.39453,51.67792],[-122.39457,51.67767],[-122.39458,51.67753],[-122.3946,51.67742],[-122.39463,51.67729],[-122.39468,51.67713],[-122.39472,51.67697],[-122.39478,51.67682],[-122.39484,51.67667],[-122.3949,51.67654],[-122.395,51.6764],[-122.39519,51.67621],[-122.39528,51.67616],[-122.39548,51.67614],[-122.39566,51.67615],[-122.39592,51.67616],[-122.39615,51.67618],[-122.39648,51.67627],[-122.39671,51.67633],[-122.39694,51.67637],[-122.39719,51.6764],[-122.39742,51.67641],[-122.39761,51.67642],[-122.3979,51.67638],[-122.39797,51.67636],[-122.398,51.67635],[-122.39807,51.67631],[-122.39817,51.67617],[-122.39818,51.67614]]}}
]}
