{"type":"FeatureCollection","features":[
{"type":"Feature","properties":{"spotId":"E-camp-camp-0007","kind":"walk","km":0.02,"climbM":0,"name":"By Andrew Creek","flags":[]},"geometry":{"type":"LineString","coordinates":[[-122.32796,52.28308],[-122.32822,52.28307]]}},
{"type":"Feature","properties":{"spotId":"E-camp-camp-0057","kind":"walk","km":0.1,"climbM":1,"name":"2.4 km SW of Spring Lake","flags":[]},"geometry":{"type":"LineString","coordinates":[[-122.40689,52.27293],[-122.40691,52.27387]]}},
{"type":"Feature","properties":{"spotId":"E-deer-drive-0076","kind":"walk","km":0.13,"climbM":1,"name":"320 m W of Coyote Creek","flags":[]},"geometry":{"type":"LineString","coordinates":[[-122.34915,52.29512],[-122.34772,52.29589]]}},
{"type":"Feature","properties":{"spotId":"E-deer-drive-0087","kind":"walk","km":0.04,"climbM":0,"name":"1.0 km SE of Andrew Creek","flags":[]},"geometry":{"type":"LineString","coordinates":[[-122.32167,52.26906],[-122.32221,52.26906]]}},
{"type":"Feature","properties":{"spotId":"E-deer-walk-0009","kind":"walk","km":0.36,"climbM":93,"name":"By Buckskin Creek","flags":["Route crosses private land (ParcelMap BC, updated 2026-09-22): get permission first or go around."]},"geometry":{"type":"LineString","coordinates":[[-122.28236,52.26069],[-122.28766,52.2609]]}},
{"type":"Feature","properties":{"spotId":"E-deer-walk-0012","kind":"walk","km":0.48,"climbM":37,"name":"540 m W of Buckskin Creek","flags":[]},"geometry":{"type":"LineString","coordinates":[[-122.32779,52.25725],[-122.33482,52.25724]]}},
{"type":"Feature","properties":{"spotId":"E-deer-walk-0021","kind":"walk","km":0.78,"climbM":63,"name":"200 m SE of Hawks Creek","flags":[]},"geometry":{"type":"LineString","coordinates":[[-122.2478,52.30571],[-122.25327,52.29953]]}},
{"type":"Feature","properties":{"spotId":"E-deer-walk-0058","kind":"walk","km":0.89,"climbM":5,"name":"By Coyote Creek","flags":[]},"geometry":{"type":"LineString","coordinates":[[-122.34848,52.29342],[-122.34843,52.29342],[-122.34817,52.29344],[-122.34786,52.29347],[-122.3475,52.29351],[-122.34733,52.29351],[-122.34729,52.29352],[-122.34726,52.29351],[-122.347,52.29351],[-122.34679,52.29354],[-122.34657,52.29362],[-122.34636,52.29369],[-122.34628,52.29373],[-122.3461,52.29384],[-122.34592,52.29391],[-122.34589,52.29392],[-122.3457,52.29402],[-122.34542,52.29423],[-122.34536,52.29428],[-122.34525,52.29432],[-122.34517,52.29437],[-122.34508,52.2944],[-122.34494,52.29451],[-122.34475,52.2946],[-122.34459,52.29471],[-122.34438,52.29482],[-122.34432,52.29487],[-122.344,52.29508],[-122.34394,52.29511],[-122.34388,52.29515],[-122.34379,52.29521],[-122.34366,52.29535],[-122.3433,52.29553],[-122.3432,52.29559],[-122.34292,52.29577],[-122.34289,52.29579],[-122.34264,52.29588],[-122.34249,52.29588],[-122.34231,52.29589],[-122.3422,52.29589],[-122.34186,52.29586],[-122.34165,52.29582],[-122.3413,52.29582],[-122.34107,52.29582],[-122.34086,52.29583],[-122.34057,52.29589],[-122.34029,52.29592],[-122.33997,52.29594],[-122.33975,52.29594],[-122.3396,52.29595],[-122.33926,52.29598],[-122.3389,52.29597],[-122.33873,52.29599],[-122.33809,52.296],[-122.33779,52.2954]]}},
{"type":"Feature","properties":{"spotId":"E-deer-walk-0076","kind":"walk","km":0.33,"climbM":9,"name":"700 m E of Andrew Creek","flags":[]},"geometry":{"type":"LineString","coordinates":[[-122.32287,52.27934],[-122.31818,52.28006]]}},
{"type":"Feature","properties":{"spotId":"E-duck-drive-0023","kind":"walk","km":0.02,"climbM":0,"name":"Unnamed lake 1.0 km SW of Coyote Lake","flags":[]},"geometry":{"type":"LineString","coordinates":[[-122.35854,52.25972],[-122.35884,52.25975]]}},
{"type":"Feature","properties":{"spotId":"E-duck-drive-0045","kind":"walk","km":0.27,"climbM":2,"name":"Unnamed wetland 230 m N of Coyote Lake","flags":[]},"geometry":{"type":"LineString","coordinates":[[-122.35269,52.278],[-122.35243,52.27561]]}},
{"type":"Feature","properties":{"spotId":"E-duck-drive-0051","kind":"walk","km":0.01,"climbM":0,"name":"Unnamed wetland by Buckskin Creek","flags":[]},"geometry":{"type":"LineString","coordinates":[[-122.32709,52.25617],[-122.32712,52.25607]]}},
{"type":"Feature","properties":{"spotId":"E-duck-drive-0078","kind":"walk","km":0.03,"climbM":0,"name":"Unnamed lake 1.4 km E of Norton Lake","flags":[]},"geometry":{"type":"LineString","coordinates":[[-122.42335,52.27327],[-122.42376,52.27326]]}},
{"type":"Feature","properties":{"spotId":"E-duck-drive-0086","kind":"walk","km":0.02,"climbM":0,"name":"Unnamed wetland 1.7 km SW of Norton Lake","flags":[]},"geometry":{"type":"LineString","coordinates":[[-122.46222,52.26189],[-122.46233,52.26208]]}},
{"type":"Feature","properties":{"spotId":"E-duck-drive-0090","kind":"walk","km":0.02,"climbM":0,"name":"Unnamed wetland 720 m NW of Natsy Lake","flags":[]},"geometry":{"type":"LineString","coordinates":[[-122.49441,52.25081],[-122.49427,52.25061]]}},
{"type":"Feature","properties":{"spotId":"E-duck-walk-0020","kind":"walk","km":0.41,"climbM":0,"name":"Coyote Lake","flags":[]},"geometry":{"type":"LineString","coordinates":[[-122.35805,52.27168],[-122.35208,52.27163]]}},
{"type":"Feature","properties":{"spotId":"E-duck-walk-0026","kind":"walk","km":0.38,"climbM":0,"name":"Unnamed wetland 150 m NE of Coyote Creek","flags":[]},"geometry":{"type":"LineString","coordinates":[[-122.34821,52.29171],[-122.35384,52.29162]]}},
{"type":"Feature","properties":{"spotId":"E-grouse-drive-0015","kind":"roadside","km":4.73,"climbM":90,"name":"By Andrew Creek","flags":[]},"geometry":{"type":"LineString","coordinates":[[-122.32797,52.28226],[-122.32785,52.28205],[-122.32782,52.28199],[-122.32772,52.28187],[-122.32767,52.28179],[-122.32764,52.28169],[-122.3275,52.28147],[-122.32739,52.28129],[-122.32725,52.28115],[-122.32715,52.28107],[-122.32704,52.28098],[-122.32687,52.2809],[-122.32671,52.28082],[-122.32657,52.28076],[-122.32649,52.28075],[-122.32634,52.28069],[-122.3263,52.28067],[-122.32614,52.2806],[-122.32583,52.28049],[-122.3256,52.2804],[-122.32551,52.28037],[-122.32544,52.28034],[-122.32525,52.28031],[-122.3252,52.2803],[-122.32498,52.28023],[-122.32475,52.28014],[-122.32469,52.28012],[-122.32453,52.28008],[-122.3244,52.28002],[-122.32426,52.27999],[-122.32418,52.27995],[-122.32412,52.27992],[-122.32401,52.27987],[-122.32376,52.27979],[-122.32363,52.27974],[-122.32354,52.2797],[-122.32325,52.27961],[-122.32299,52.27948],[-122.32292,52.27941],[-122.32287,52.27934],[-122.32285,52.27913],[-122.32283,52.27908],[-122.32284,52.27879],[-122.3229,52.27839],[-122.3229,52.27833],[-122.32296,52.27813],[-122.32303,52.27789],[-122.32303,52.27772],[-122.323,52.27758],[-122.32293,52.27737],[-122.32286,52.27721],[-122.32279,52.27714],[-122.32257,52.27683],[-122.32236,52.27661],[-122.32227,52.27646],[-122.32195,52.27623],[-122.32166,52.27592],[-122.32154,52.27573],[-122.32136,52.27551],[-122.32132,52.27545],[-122.32121,52.2752],[-122.32111,52.27503],[-122.32083,52.27463],[-122.32081,52.27451],[-122.32081,52.27404],[-122.32089,52.27386],[-122.32092,52.27377],[-122.32097,52.27359],[-122.32097,52.27354],[-122.32103,52.27336],[-122.32109,52.27315],[-122.32115,52.27297],[-122.3212,52.27282],[-122.3212,52.27267],[-122.32123,52.27255],[-122.32126,52.27234],[-122.32127,52.27229],[-122.32131,52.27214],[-122.32136,52.27191],[-122.32139,52.27171],[-122.32139,52.27168],[-122.32139,52.27163],[-122.32142,52.27145],[-122.32146,52.27129],[-122.32149,52.2712],[-122.32149,52.271],[-122.32152,52.27083],[-122.32154,52.27077],[-122.32154,52.27055],[-122.32154,52.27037],[-122.32158,52.27024],[-122.32158,52.27003],[-122.3216,52.26986],[-122.32161,52.26968],[-122.32163,52.26961],[-122.32163,52.26942],[-122.32166,52.26923],[-122.32167,52.26901],[-122.32168,52.26882],[-122.32172,52.2687],[-122.32172,52.2685],[-122.32174,52.26838],[-122.32177,52.2682],[-122.32178,52.26807],[-122.32177,52.26789],[-122.3218,52.26782],[-122.32179,52.26762],[-122.32178,52.26757],[-122.32178,52.26749],[-122.32178,52.26736],[-122.32178,52.26731],[-122.32178,52.26715],[-122.32179,52.26697],[-122.32182,52.26676],[-122.32182,52.2667],[-122.32182,52.26652],[-122.32184,52.26633],[-122.32184,52.26631],[-122.32184,52.26614],[-122.32184,52.26602],[-122.32185,52.26589],[-122.32186,52.26569],[-122.32188,52.26548],[-122.32188,52.26534],[-122.32192,52.26516],[-122.32196,52.26494],[-122.32198,52.26482],[-122.32203,52.26464],[-122.32216,52.26441],[-122.32222,52.26432],[-122.32241,52.26418],[-122.32253,52.26409],[-122.32261,52.26401],[-122.32262,52.26399],[-122.32283,52.26384],[-122.32305,52.26368],[-122.32308,52.26365],[-122.32336,52.26348],[-122.32367,52.26329],[-122.32401,52.26311],[-122.3241,52.26306],[-122.32425,52.26297],[-122.32447,52.26287],[-122.32481,52.26266],[-122.32492,52.26259],[-122.32505,52.26242],[-122.32523,52.26227],[-122.3253,52.26213],[-122.32537,52.26192],[-122.32538,52.26184],[-122.32538,52.26174],[-122.3254,52.26155],[-122.3254,52.26154],[-122.3254,52.26146],[-122.32539,52.26131],[-122.32539,52.26116],[-122.32547,52.26103],[-122.32554,52.26096],[-122.32563,52.26091],[-122.32569,52.26084],[-122.32575,52.26077],[-122.32587,52.26063],[-122.32597,52.26048],[-122.32602,52.26037],[-122.32603,52.26032],[-122.32604,52.26015],[-122.32604,52.26012],[-122.32602,52.26002],[-122.326,52.2598],[-122.32606,52.25967],[-122.32621,52.25954],[-122.32636,52.25945],[-122.32647,52.25936],[-122.32675,52.25922],[-122.32701,52.25905],[-122.3272,52.25888],[-122.32741,52.2587],[-122.32763,52.25849],[-122.32775,52.25838],[-122.32782,52.25823],[-122.32783,52.25807],[-122.32783,52.2579],[-122.32783,52.25787],[-122.32782,52.25771],[-122.32779,52.25754],[-122.32779,52.25744],[-122.32779,52.25725],[-122.32778,52.25707],[-122.32775,52.25703],[-122.32776,52.25697],[-122.32776,52.25687],[-122.32772,52.25669],[-122.32767,52.25651],[-122.32762,52.2564],[-122.32756,52.25633],[-122.32733,52.2562],[-122.32703,52.25616],[-122.32687,52.25616],[-122.32667,52.25616],[-122.32652,52.25616],[-122.32632,52.25616],[-122.32621,52.25614],[-122.32614,52.25607],[-122.32615,52.2559],[-122.32615,52.25585],[-122.32615,52.25571],[-122.32615,52.2555],[-122.32614,52.25532],[-122.32608,52.25504],[-122.326,52.25484],[-122.32596,52.25472],[-122.32586,52.25425],[-122.32578,52.25407],[-122.32572,52.2539],[-122.32559,52.25368],[-122.32552,52.25354],[-122.32545,52.25337],[-122.32542,52.25329],[-122.32534,52.25314],[-122.32531,52.25302],[-122.32531,52.25291],[-122.32537,52.25271],[-122.3254,52.25256],[-122.32544,52.25237],[-122.3255,52.2522],[-122.32553,52.25199],[-122.32553,52.25175],[-122.32548,52.25162],[-122.32542,52.25155],[-122.32522,52.25134],[-122.32468,52.25096],[-122.32457,52.2509],[-122.32411,52.25076],[-122.32391,52.25067],[-122.32382,52.25059],[-122.32347,52.25037],[-122.32332,52.25015],[-122.32304,52.24992],[-122.32281,52.24974],[-122.32268,52.24968],[-122.32237,52.24958],[-122.32232,52.24953],[-122.32213,52.24944],[-122.32178,52.24934],[-122.32159,52.2493],[-122.32125,52.24919],[-122.32102,52.24908],[-122.3209,52.24903],[-122.32065,52.24895],[-122.32052,52.24889],[-122.32036,52.24875],[-122.32023,52.24869],[-122.32005,52.24857],[-122.31984,52.24848],[-122.3196,52.24826],[-122.31949,52.24818],[-122.31932,52.248],[-122.31919,52.24787],[-122.31893,52.24751],[-122.31882,52.24736],[-122.31869,52.24716],[-122.31837,52.24678],[-122.31832,52.24671],[-122.31801,52.24645],[-122.3179,52.24632],[-122.31762,52.24614],[-122.31748,52.24598],[-122.31735,52.24585]]}},
{"type":"Feature","properties":{"spotId":"E-grouse-drive-0059","kind":"roadside","km":6.11,"climbM":32,"name":"1.7 km E of Norton Lake","flags":[]},"geometry":{"type":"LineString","coordinates":[[-122.42088,52.27164],[-122.42127,52.2717],[-122.4222,52.27184],[-122.42246,52.27195],[-122.42255,52.27202],[-122.42276,52.2722],[-122.42317,52.2727],[-122.42334,52.27312],[-122.42343,52.27476],[-122.42368,52.27559],[-122.42365,52.27579],[-122.42281,52.27711],[-122.42187,52.27829],[-122.4209,52.2795],[-122.41757,52.28367],[-122.41734,52.28416],[-122.4169,52.28507],[-122.41684,52.2852],[-122.41682,52.28543],[-122.41685,52.28549],[-122.41694,52.28565],[-122.41719,52.28578],[-122.41934,52.28691],[-122.42019,52.28755],[-122.42218,52.28939],[-122.4223,52.2895],[-122.42234,52.28954],[-122.4227,52.29041],[-122.42258,52.29173],[-122.42239,52.29382],[-122.42241,52.29451],[-122.42242,52.29477],[-122.42244,52.2952],[-122.42245,52.2956],[-122.42248,52.2963],[-122.42248,52.29635],[-122.4226,52.29661],[-122.4228,52.29678],[-122.42285,52.29682],[-122.42336,52.29713],[-122.42348,52.29726],[-122.42354,52.29739],[-122.42331,52.29807],[-122.42324,52.29847],[-122.42278,52.29962],[-122.42271,52.3],[-122.42267,52.30019],[-122.42269,52.30037],[-122.42277,52.30048],[-122.42311,52.30096],[-122.42341,52.30154],[-122.42354,52.30179],[-122.42358,52.30187],[-122.42428,52.30243],[-122.42499,52.30287],[-122.42518,52.30311],[-122.42527,52.30332],[-122.4253,52.30444],[-122.42645,52.30605],[-122.42739,52.30736],[-122.42756,52.30751],[-122.42779,52.3077],[-122.42818,52.30792],[-122.42822,52.30795],[-122.42856,52.30807],[-122.42897,52.30818],[-122.42943,52.30837],[-122.43028,52.30886],[-122.43029,52.30886],[-122.43052,52.30893],[-122.43058,52.30894],[-122.43098,52.30898],[-122.43193,52.30898],[-122.43303,52.30904],[-122.43363,52.30907],[-122.43425,52.30893],[-122.43433,52.30891],[-122.43574,52.30836],[-122.43603,52.30824],[-122.43645,52.30815],[-122.43662,52.30815],[-122.4369,52.30815],[-122.43942,52.30813],[-122.43985,52.30823],[-122.44001,52.30827],[-122.44099,52.30865],[-122.44189,52.30925],[-122.44214,52.3095],[-122.44225,52.30968],[-122.44232,52.30981],[-122.44295,52.31085],[-122.44332,52.31116],[-122.44339,52.31131],[-122.44339,52.31158],[-122.44345,52.31173],[-122.44346,52.31175],[-122.44398,52.3124],[-122.44399,52.31267],[-122.4438,52.3129],[-122.44309,52.31334],[-122.44273,52.31356]]}},
{"type":"Feature","properties":{"spotId":"E-grouse-drive-0084","kind":"roadside","km":5.8,"climbM":99,"name":"590 m NW of Coyote Lake","flags":[]},"geometry":{"type":"LineString","coordinates":[[-122.35912,52.2761],[-122.3599,52.27571],[-122.35999,52.27568],[-122.36239,52.27489],[-122.36295,52.27477],[-122.36352,52.27465],[-122.36561,52.27445],[-122.3662,52.27439],[-122.36664,52.27435],[-122.36885,52.27389],[-122.37007,52.27364],[-122.37077,52.2735],[-122.37155,52.27341],[-122.37198,52.27337],[-122.37209,52.27336],[-122.37279,52.27332],[-122.37379,52.27327],[-122.37583,52.27323],[-122.376,52.27323],[-122.37748,52.27316],[-122.37763,52.27316],[-122.37896,52.27306],[-122.37986,52.27304],[-122.38112,52.27301],[-122.38258,52.27302],[-122.38526,52.27303],[-122.38601,52.27303],[-122.38823,52.27302],[-122.3887,52.27302],[-122.38948,52.27302],[-122.39006,52.27301],[-122.39197,52.273],[-122.39218,52.273],[-122.39267,52.273],[-122.39407,52.27296],[-122.39483,52.27292],[-122.3951,52.2729],[-122.3954,52.27289],[-122.39556,52.27288],[-122.39684,52.27286],[-122.39959,52.27289],[-122.39994,52.2729],[-122.4,52.2729],[-122.40037,52.2729],[-122.4023,52.27293],[-122.40429,52.27295],[-122.40676,52.27293],[-122.40792,52.27292],[-122.4082,52.27293],[-122.4109,52.27298],[-122.41302,52.27306],[-122.41314,52.27306],[-122.41416,52.27307],[-122.41498,52.27304],[-122.41579,52.27297],[-122.41697,52.27281],[-122.41868,52.27247],[-122.41918,52.27237],[-122.41981,52.27218],[-122.42088,52.27164],[-122.42183,52.271],[-122.42185,52.27099],[-122.42429,52.27012],[-122.42599,52.26952],[-122.42602,52.26951],[-122.43116,52.26843],[-122.43476,52.26768],[-122.43743,52.26714],[-122.43861,52.2669],[-122.43885,52.26685],[-122.44054,52.26651],[-122.44085,52.26645]]}},
{"type":"Feature","properties":{"spotId":"E-moose-walk-0038","kind":"walk","km":1.47,"climbM":1,"name":"3.3 km W of Coyote Lake","flags":[]},"geometry":{"type":"LineString","coordinates":[[-122.3968,52.27227],[-122.39711,52.25907]]}}
]}
