{"type":"FeatureCollection","features":[
{"type":"Feature","properties":{"spotId":"E-grouse-atv-0111","kind":"walk","km":5.51,"climbM":250,"name":"1.0 km E of Pony Valley Creek","flags":[]},"geometry":{"type":"LineString","coordinates":[[-122.29282,51.20588],[-122.37158,51.20907]]}},
{"type":"Feature","properties":{"spotId":"E-grouse-atv-0111","kind":"ride","km":3.11,"climbM":126,"name":"1.0 km E of Pony Valley Creek","flags":[]},"geometry":{"type":"LineString","coordinates":[[-122.37158,51.20907],[-122.37173,51.20911],[-122.37191,51.20915],[-122.37206,51.20919],[-122.37224,51.20921],[-122.37236,51.20926],[-122.37251,51.20931],[-122.37264,51.20936],[-122.37281,51.20942],[-122.37294,51.20949],[-122.37307,51.20954],[-122.37318,51.20959],[-122.37334,51.20964],[-122.37347,51.20971],[-122.37358,51.20977],[-122.37358,51.20982],[-122.37364,51.20986],[-122.37371,51.20998],[-122.37375,51.21003],[-122.3738,51.2101],[-122.37387,51.2102],[-122.37393,51.21029],[-122.374,51.21041],[-122.37404,51.21054],[-122.3741,51.21066],[-122.37412,51.21075],[-122.37417,51.21089],[-122.37419,51.21101],[-122.37421,51.2111],[-122.37426,51.21122],[-122.3743,51.21131],[-122.37433,51.21143],[-122.37437,51.21158],[-122.3744,51.2117],[-122.37443,51.21181],[-122.37444,51.21192],[-122.37449,51.21211],[-122.37456,51.2122],[-122.37459,51.2123],[-122.3746,51.21239],[-122.3747,51.21251],[-122.37479,51.21259],[-122.37486,51.21267],[-122.37493,51.21274],[-122.37507,51.21286],[-122.3752,51.21295],[-122.37532,51.21305],[-122.37548,51.21312],[-122.37562,51.2132],[-122.37579,51.21326],[-122.37595,51.21334],[-122.37622,51.21347],[-122.37635,51.21353],[-122.37649,51.21363],[-122.37665,51.2137],[-122.37677,51.2138],[-122.3769,51.21386],[-122.37712,51.21394],[-122.37732,51.21399],[-122.37744,51.21406],[-122.37747,51.21406],[-122.37763,51.21411],[-122.37777,51.21415],[-122.37787,51.21419],[-122.37807,51.21424],[-122.37823,51.21427],[-122.3784,51.21427],[-122.37856,51.21427],[-122.37859,51.21427],[-122.37863,51.21425],[-122.37869,51.21423],[-122.37883,51.21421],[-122.37899,51.21419],[-122.37912,51.2142],[-122.37919,51.2142],[-122.37933,51.21423],[-122.37956,51.2143],[-122.37972,51.21432],[-122.37995,51.21435],[-122.38009,51.21437],[-122.38032,51.21437],[-122.38042,51.2144],[-122.38057,51.2144],[-122.38075,51.21442],[-122.38095,51.21442],[-122.38113,51.21441],[-122.38128,51.21442],[-122.38146,51.21438],[-122.38161,51.21438],[-122.38176,51.21435],[-122.38191,51.21434],[-122.38212,51.21428],[-122.38222,51.21419],[-122.3823,51.21411],[-122.38236,51.21401],[-122.38243,51.21393],[-122.38253,51.2138],[-122.38263,51.21367],[-122.38273,51.21354],[-122.38285,51.21341],[-122.38292,51.2133],[-122.38298,51.21319],[-122.383,51.21308],[-122.38311,51.21295],[-122.38313,51.21292],[-122.38319,51.2128],[-122.38326,51.21268],[-122.38332,51.21259],[-122.38332,51.21249],[-122.38332,51.2124],[-122.38329,51.2123],[-122.38331,51.21218],[-122.38331,51.21208],[-122.38333,51.21206],[-122.38336,51.21199],[-122.38344,51.21189],[-122.38352,51.21186],[-122.38354,51.21183],[-122.38367,51.2117],[-122.38375,51.21162],[-122.38382,51.2115],[-122.38388,51.21141],[-122.38395,51.2113],[-122.38401,51.21117],[-122.38404,51.21104],[-122.38407,51.21091],[-122.38412,51.21082],[-122.3842,51.21068],[-122.38428,51.2106],[-122.38435,51.21049],[-122.38448,51.21038],[-122.38458,51.21025],[-122.38474,51.21014],[-122.3849,51.21004],[-122.38497,51.20996],[-122.38507,51.20988],[-122.3851,51.20981],[-122.3852,51.20973],[-122.38523,51.20969],[-122.38526,51.20966],[-122.38536,51.20954],[-122.38544,51.20944],[-122.38552,51.20936],[-122.3856,51.20928],[-122.3857,51.20915],[-122.38583,51.20908],[-122.3859,51.20896],[-122.38603,51.20887],[-122.38619,51.20876],[-122.38626,51.20869],[-122.38639,51.20862],[-122.38648,51.20854],[-122.38658,51.20845],[-122.38665,51.20837],[-122.38676,51.20829],[-122.38686,51.20819],[-122.38694,51.20811],[-122.38707,51.20805],[-122.38717,51.20796],[-122.38733,51.20784],[-122.38738,51.2078],[-122.38754,51.20769],[-122.38764,51.20761],[-122.38778,51.20754],[-122.38787,51.20746],[-122.38794,51.20736],[-122.38804,51.20724],[-122.38813,51.20715],[-122.38825,51.20702],[-122.38841,51.20694],[-122.38848,51.20686],[-122.38859,51.20678],[-122.38871,51.20671],[-122.3889,51.20658],[-122.38903,51.20652],[-122.3891,51.20651],[-122.38923,51.20643],[-122.38929,51.20641],[-122.38943,51.20638],[-122.38946,51.20637],[-122.38959,51.2063],[-122.38976,51.20622],[-122.38989,51.20618],[-122.39002,51.20612],[-122.39006,51.20612],[-122.39011,51.2061],[-122.39019,51.20605],[-122.39032,51.20601],[-122.39045,51.20595],[-122.39058,51.20589],[-122.39074,51.20582],[-122.39088,51.20578],[-122.39104,51.20578],[-122.39118,51.20581],[-122.39137,51.20583],[-122.39151,51.20583],[-122.39167,51.20586],[-122.39187,51.20589],[-122.392,51.20595],[-122.39214,51.20597],[-122.39227,51.20603],[-122.39243,51.20603],[-122.39257,51.20606],[-122.39273,51.20609],[-122.39277,51.20611],[-122.393,51.20616],[-122.39315,51.20621],[-122.39322,51.20622],[-122.39338,51.20626],[-122.39352,51.20628],[-122.3937,51.20631],[-122.39385,51.20633],[-122.39401,51.20634],[-122.39418,51.2064],[-122.39438,51.20644],[-122.39454,51.20646],[-122.39465,51.20651],[-122.39468,51.20651],[-122.39484,51.20653],[-122.39504,51.20657],[-122.39521,51.20659],[-122.39544,51.20665],[-122.39558,51.20671],[-122.39571,51.20676],[-122.39587,51.20679],[-122.39607,51.20682],[-122.39624,51.20686],[-122.39642,51.2069],[-122.39654,51.20694],[-122.39679,51.20701],[-122.39695,51.20702],[-122.39709,51.20703],[-122.39715,51.20701],[-122.39728,51.20696],[-122.3974,51.20692],[-122.3975,51.20684],[-122.39758,51.20676],[-122.39771,51.20665],[-122.39771,51.20663],[-122.39774,51.20657],[-122.39782,51.20649],[-122.39785,51.20646],[-122.39785,51.20641],[-122.39785,51.20628],[-122.39789,51.20618],[-122.39792,51.20608],[-122.39798,51.20595],[-122.39802,51.20592],[-122.39805,51.20589],[-122.39815,51.20578],[-122.39827,51.20569],[-122.39839,51.20559],[-122.39847,51.20549],[-122.3985,51.2054],[-122.39855,51.20531],[-122.39861,51.20522],[-122.39861,51.20516],[-122.39861,51.20514],[-122.39865,51.20503],[-122.39867,51.20497],[-122.39867,51.20495],[-122.39871,51.20483],[-122.39881,51.20472],[-122.39891,51.20464],[-122.3991,51.20455],[-122.39927,51.20447],[-122.3994,51.20441],[-122.39953,51.20437],[-122.39969,51.2043],[-122.39981,51.20426],[-122.39996,51.20421],[-122.4,51.20419]]}},
{"type":"Feature","properties":{"spotId":"E-grouse-atv-0117","kind":"walk","km":2.29,"climbM":128,"name":"200 m N of French Bar Creek","flags":["Route enters a Motor Vehicle Closed Area: Thompson, Cariboo and Okanagan Alpines. Closed Year Round. Exemption: Snowmobiles exempt year round (January 1 to December 31). Synopsis map 1-82/24."]},"geometry":{"type":"LineString","coordinates":[[-122.29907,51.24539],[-122.32489,51.23262]]}},
{"type":"Feature","properties":{"spotId":"E-grouse-atv-0117","kind":"ride","km":4.82,"climbM":216,"name":"200 m N of French Bar Creek","flags":["Route enters a Motor Vehicle Closed Area: Thompson, Cariboo and Okanagan Alpines. Closed Year Round. Exemption: Snowmobiles exempt year round (January 1 to December 31). Synopsis map 1-82/24."]},"geometry":{"type":"LineString","coordinates":[[-122.32489,51.23262],[-122.32504,51.23276],[-122.32507,51.2328],[-122.3252,51.23288],[-122.32531,51.23294],[-122.32547,51.23303],[-122.32559,51.23309],[-122.32574,51.23316],[-122.32587,51.23322],[-122.32595,51.23325],[-122.32599,51.23326],[-122.32611,51.23334],[-122.32624,51.23338],[-122.32638,51.23344],[-122.32649,51.23346],[-122.32652,51.23346],[-122.32669,51.23349],[-122.32685,51.23353],[-122.32701,51.23359],[-122.32715,51.23365],[-122.32735,51.23373],[-122.32742,51.23377],[-122.32753,51.2338],[-122.32758,51.23381],[-122.32773,51.23387],[-122.3279,51.23392],[-122.32805,51.23396],[-122.32819,51.23399],[-122.32837,51.23402],[-122.3285,51.23405],[-122.32857,51.23406],[-122.32875,51.23407],[-122.32889,51.23407],[-122.32903,51.23407],[-122.32905,51.23407],[-122.32923,51.2341],[-122.32943,51.23412],[-122.32958,51.23415],[-122.32972,51.23417],[-122.32986,51.23417],[-122.33001,51.23417],[-122.33016,51.23418],[-122.33029,51.23421],[-122.33042,51.23421],[-122.33061,51.23422],[-122.33078,51.23423],[-122.33095,51.23425],[-122.33111,51.23429],[-122.33113,51.2343],[-122.33125,51.23432],[-122.33142,51.23436],[-122.33159,51.23439],[-122.33169,51.2344],[-122.33173,51.2344],[-122.33186,51.23444],[-122.33206,51.23449],[-122.33221,51.23451],[-122.33238,51.23454],[-122.33258,51.23459],[-122.33278,51.2346],[-122.33296,51.23463],[-122.33311,51.23465],[-122.33318,51.23467],[-122.33329,51.23469],[-122.33345,51.23472],[-122.33349,51.23473],[-122.33359,51.23475],[-122.33376,51.23478],[-122.33395,51.23482],[-122.33412,51.23486],[-122.33416,51.23487],[-122.33425,51.23489],[-122.33428,51.23489],[-122.33446,51.2349],[-122.33453,51.23492],[-122.33461,51.23494],[-122.33465,51.23494],[-122.33471,51.23494],[-122.33486,51.23496],[-122.33502,51.23498],[-122.33522,51.235],[-122.33538,51.23502],[-122.33558,51.23504],[-122.33574,51.23505],[-122.33597,51.23503],[-122.33609,51.23503],[-122.33612,51.23503],[-122.33631,51.23501],[-122.33645,51.235],[-122.33661,51.235],[-122.33675,51.235],[-122.3368,51.235],[-122.33695,51.23496],[-122.3371,51.23494],[-122.33726,51.23493],[-122.3374,51.2349],[-122.33756,51.23489],[-122.33776,51.23486],[-122.33794,51.23485],[-122.33815,51.23483],[-122.33835,51.23481],[-122.33855,51.23479],[-122.33872,51.23479],[-122.33889,51.23478],[-122.33908,51.23475],[-122.33935,51.23473],[-122.33949,51.2347],[-122.33967,51.2347],[-122.33984,51.23468],[-122.34004,51.23467],[-122.34021,51.23466],[-122.3404,51.23464],[-122.34063,51.23462],[-122.34078,51.2346],[-122.34099,51.23459],[-122.34114,51.23457],[-122.34132,51.23456],[-122.34149,51.23455],[-122.34165,51.23451],[-122.3418,51.23451],[-122.34195,51.23449],[-122.34215,51.23446],[-122.34233,51.23444],[-122.34251,51.23444],[-122.34272,51.23441],[-122.34289,51.23438],[-122.34305,51.23437],[-122.34322,51.23436],[-122.34338,51.23434],[-122.34354,51.23433],[-122.3436,51.23433],[-122.34378,51.23436],[-122.34395,51.23438],[-122.34418,51.23441],[-122.34437,51.23442],[-122.34457,51.23445],[-122.34478,51.23448],[-122.34491,51.23451],[-122.3451,51.23453],[-122.34525,51.23457],[-122.34527,51.23457],[-122.34541,51.2346],[-122.34552,51.23466],[-122.34558,51.23467],[-122.34574,51.23469],[-122.34592,51.23475],[-122.34611,51.23482],[-122.34627,51.23486],[-122.34642,51.23493],[-122.34658,51.23496],[-122.34675,51.23504],[-122.34689,51.23506],[-122.34702,51.23512],[-122.34717,51.23515],[-122.34719,51.23516],[-122.34731,51.23519],[-122.34746,51.23523],[-122.34764,51.23525],[-122.34779,51.23528],[-122.34785,51.23527],[-122.34794,51.23524],[-122.34805,51.23517],[-122.34815,51.2351],[-122.34817,51.23507],[-122.3482,51.23504],[-122.34824,51.23495],[-122.34826,51.23484],[-122.34826,51.23474],[-122.3483,51.23463],[-122.34833,51.23452],[-122.34838,51.23442],[-122.34839,51.23431],[-122.34845,51.23423],[-122.3485,51.23411],[-122.34854,51.234],[-122.3486,51.23389],[-122.34862,51.23385],[-122.34863,51.23378],[-122.34869,51.2337],[-122.34873,51.2336],[-122.34879,51.23352],[-122.34885,51.23341],[-122.34888,51.23338],[-122.34892,51.23329],[-122.34897,51.23318],[-122.34901,51.23308],[-122.34907,51.23299],[-122.34915,51.23284],[-122.3492,51.23276],[-122.34922,51.23274],[-122.34926,51.23267],[-122.34932,51.23257],[-122.34939,51.23246],[-122.34947,51.23234],[-122.34957,51.23225],[-122.34964,51.23217],[-122.3497,51.23206],[-122.34979,51.23198],[-122.34985,51.23188],[-122.34989,51.23178],[-122.34995,51.23169],[-122.35001,51.23159],[-122.35007,51.23149],[-122.35008,51.23148],[-122.35018,51.23137],[-122.35029,51.23127],[-122.35033,51.23124],[-122.35043,51.23119],[-122.35059,51.23113],[-122.35075,51.23107],[-122.35077,51.23107],[-122.35093,51.23105],[-122.35108,51.23101],[-122.35126,51.23101],[-122.35132,51.231],[-122.35144,51.23098],[-122.35161,51.23096],[-122.35178,51.23095],[-122.35192,51.23096],[-122.35209,51.23096],[-122.35225,51.231],[-122.35244,51.231],[-122.35267,51.231],[-122.3527,51.23101],[-122.35278,51.23103],[-122.35297,51.23104],[-122.35311,51.23104],[-122.35328,51.23107],[-122.35347,51.23107],[-122.35355,51.23108],[-122.35367,51.23109],[-122.35388,51.23112],[-122.35401,51.23116],[-122.35411,51.23116],[-122.35417,51.23116],[-122.3543,51.23116],[-122.35434,51.23117],[-122.35454,51.23119],[-122.3547,51.23117],[-122.35487,51.23116],[-122.35506,51.23116],[-122.35511,51.23117],[-122.3553,51.23119],[-122.35547,51.23119],[-122.35566,51.23118],[-122.35584,51.23117],[-122.35586,51.23118],[-122.35603,51.23117],[-122.35619,51.23119],[-122.35636,51.2312],[-122.3565,51.23122],[-122.35666,51.23121],[-122.35685,51.2312],[-122.35699,51.2312],[-122.35719,51.23118],[-122.35733,51.23116],[-122.35749,51.23115],[-122.35763,51.23113],[-122.35779,51.23112],[-122.35798,51.23111],[-122.35816,51.23112],[-122.35834,51.23111],[-122.35852,51.23109],[-122.35872,51.23107],[-122.35892,51.23106],[-122.35911,51.23104],[-122.35931,51.23102],[-122.35948,51.23101],[-122.35966,51.23102],[-122.35986,51.23101],[-122.36001,51.231],[-122.36016,51.23098],[-122.36037,51.23097],[-122.36052,51.23097],[-122.3606,51.23097],[-122.36073,51.23097],[-122.36087,51.23098],[-122.36105,51.231],[-122.36122,51.23101],[-122.36145,51.23102],[-122.36163,51.23104],[-122.3618,51.23105],[-122.36195,51.23108],[-122.36199,51.23109],[-122.36212,51.23111],[-122.36228,51.23113],[-122.36242,51.23116],[-122.36259,51.23118],[-122.36276,51.23122],[-122.36292,51.23125],[-122.36306,51.2313],[-122.36313,51.23131],[-122.3633,51.23134],[-122.36348,51.23136],[-122.36366,51.23139],[-122.36385,51.2314],[-122.36403,51.23142],[-122.36425,51.23145],[-122.36443,51.23146],[-122.36462,51.23147],[-122.36478,51.2315],[-122.36492,51.23151],[-122.36508,51.23154],[-122.36526,51.23154],[-122.36531,51.23154],[-122.36546,51.2316],[-122.36563,51.23162],[-122.36568,51.23163],[-122.36579,51.23165],[-122.36596,51.23166],[-122.36611,51.23169],[-122.36633,51.23173],[-122.36648,51.23175],[-122.36658,51.23178],[-122.36662,51.23179],[-122.36675,51.23183],[-122.36688,51.23187],[-122.36705,51.23192],[-122.36716,51.23198],[-122.36729,51.23204],[-122.36742,51.23209],[-122.36758,51.23215],[-122.3677,51.23218],[-122.36783,51.23222],[-122.36793,51.23229],[-122.36803,51.23237],[-122.36814,51.23243],[-122.3682,51.23245],[-122.3684,51.23248],[-122.36844,51.23252],[-122.36859,51.23259],[-122.36867,51.23263],[-122.36873,51.23267],[-122.36884,51.23275],[-122.36898,51.23282],[-122.36913,51.23291],[-122.36927,51.23297],[-122.36942,51.23304],[-122.36945,51.23306],[-122.36954,51.23311],[-122.36968,51.23322],[-122.36985,51.23331],[-122.36996,51.2334],[-122.37008,51.23349],[-122.37022,51.23362],[-122.37028,51.23364],[-122.37033,51.23366],[-122.37043,51.23374],[-122.37055,51.23381],[-122.37066,51.23388],[-122.3708,51.23399],[-122.37097,51.23406],[-122.37114,51.23414],[-122.37131,51.23421],[-122.37144,51.23426],[-122.37161,51.23432],[-122.37181,51.23437],[-122.37196,51.23441],[-122.3721,51.23445],[-122.37224,51.23447],[-122.3724,51.2345],[-122.37254,51.23452],[-122.3727,51.23453],[-122.37278,51.23454],[-122.37287,51.23456],[-122.37304,51.23458],[-122.3732,51.2346],[-122.37337,51.23462],[-122.37354,51.23463],[-122.3737,51.23465],[-122.37389,51.23467],[-122.37403,51.23469],[-122.37421,51.23474],[-122.37441,51.23477],[-122.37456,51.2348],[-122.3747,51.23484],[-122.3748,51.23484],[-122.37497,51.23485],[-122.37519,51.23486],[-122.37536,51.23486],[-122.37553,51.23491],[-122.3757,51.23494],[-122.3759,51.23498],[-122.37604,51.23499],[-122.37624,51.235],[-122.37643,51.23502],[-122.3766,51.23504],[-122.37677,51.23506],[-122.37696,51.23509],[-122.37709,51.23513],[-122.37726,51.23517],[-122.37743,51.23518],[-122.37762,51.2352],[-122.37782,51.23523],[-122.37797,51.23525],[-122.37816,51.23527],[-122.37835,51.23529],[-122.37853,51.23532],[-122.37872,51.23534],[-122.3789,51.23535],[-122.37905,51.23537],[-122.37919,51.23539],[-122.37933,51.23541],[-122.37952,51.23545],[-122.37979,51.23549],[-122.37996,51.23549],[-122.38013,51.23549],[-122.38019,51.23551],[-122.38033,51.23552],[-122.38042,51.23553],[-122.38056,51.23554],[-122.38076,51.23556],[-122.38089,51.2356],[-122.38103,51.23564],[-122.38105,51.23564],[-122.38112,51.23567],[-122.38132,51.23574],[-122.38146,51.23579],[-122.38161,51.23583],[-122.38169,51.23588],[-122.38172,51.23588],[-122.38186,51.2359],[-122.38199,51.23594],[-122.38213,51.23599],[-122.38228,51.23603],[-122.38236,51.23605],[-122.38253,51.2361],[-122.38268,51.23614],[-122.38282,51.23619],[-122.38288,51.23619],[-122.38293,51.23621],[-122.38306,51.23625],[-122.3832,51.23629],[-122.38335,51.23634],[-122.38349,51.2364],[-122.38355,51.23641],[-122.38369,51.23645],[-122.38383,51.23649],[-122.38397,51.23654],[-122.38412,51.2366],[-122.38424,51.23665],[-122.38436,51.2367],[-122.38439,51.23671],[-122.38444,51.23672],[-122.38459,51.23676],[-122.3847,51.23676],[-122.38484,51.2368],[-122.38499,51.23683],[-122.38519,51.23689],[-122.38529,51.23694]]}},
{"type":"Feature","properties":{"spotId":"E-moose-atv-0073","kind":"ride","km":2.38,"climbM":32,"name":"880 m E of Schraeder Lake rec site","flags":[]},"geometry":{"type":"LineString","coordinates":[[-122.29922,51.21845],[-122.29931,51.21838],[-122.29933,51.21835],[-122.29942,51.21828],[-122.29954,51.21817],[-122.29965,51.21805],[-122.29979,51.21792],[-122.29987,51.21785],[-122.30006,51.21772],[-122.30016,51.21763],[-122.30026,51.21756],[-122.30035,51.21748],[-122.30047,51.21738],[-122.30063,51.21725],[-122.30076,51.21715],[-122.30086,51.21704],[-122.30103,51.21689],[-122.30118,51.21675],[-122.30128,51.21665],[-122.30134,51.21656],[-122.30141,51.21648],[-122.30151,51.21638],[-122.3017,51.21618],[-122.30185,51.21605],[-122.30196,51.21595],[-122.30205,51.21587],[-122.30217,51.21573],[-122.30228,51.21561],[-122.30236,51.21553],[-122.30256,51.21536],[-122.30263,51.21528],[-122.30273,51.21519],[-122.30286,51.21508],[-122.30294,51.21499],[-122.30302,51.21491],[-122.30314,51.21481],[-122.30334,51.21467],[-122.30344,51.21459],[-122.30353,51.2145],[-122.30368,51.21439],[-122.30375,51.21432],[-122.30384,51.21425],[-122.30386,51.21422],[-122.30397,51.21412],[-122.30404,51.21404],[-122.30414,51.21396],[-122.30424,51.21386],[-122.30432,51.21377],[-122.30443,51.21366],[-122.30458,51.21355],[-122.30471,51.21345],[-122.30481,51.21338],[-122.30494,51.21328],[-122.30501,51.2132],[-122.30514,51.21307],[-122.3053,51.21295],[-122.30542,51.21286],[-122.30552,51.21276],[-122.30561,51.21267],[-122.30564,51.21264],[-122.30569,51.21258],[-122.30581,51.21246],[-122.30588,51.21238],[-122.306,51.21225],[-122.30607,51.21216],[-122.30614,51.21208],[-122.30623,51.21197],[-122.30633,51.21187],[-122.30649,51.21173],[-122.30658,51.21164],[-122.30674,51.21152],[-122.30689,51.21139],[-122.30697,51.21132],[-122.30706,51.21123],[-122.3072,51.21112],[-122.30729,51.21105],[-122.30746,51.21094],[-122.30762,51.21083],[-122.30773,51.21072],[-122.3078,51.21063],[-122.30786,51.21055],[-122.30795,51.21041],[-122.30802,51.21026],[-122.30803,51.21016],[-122.30802,51.21006],[-122.30795,51.20996],[-122.30787,51.20987],[-122.30777,51.20979],[-122.30763,51.2097],[-122.30748,51.20961],[-122.30734,51.20953],[-122.30723,51.20947],[-122.30719,51.20945],[-122.30707,51.2094],[-122.30696,51.20932],[-122.30683,51.20924],[-122.30672,51.20918],[-122.30652,51.2091],[-122.30641,51.20903],[-122.30622,51.20895],[-122.30605,51.20887],[-122.30589,51.20881],[-122.30575,51.20879],[-122.30562,51.20873],[-122.30548,51.20866],[-122.30532,51.2086],[-122.30518,51.20857],[-122.30504,51.20854],[-122.30491,51.20849],[-122.30478,51.20843],[-122.30474,51.20843],[-122.30457,51.20845],[-122.3044,51.20844],[-122.30418,51.20845],[-122.30402,51.20844],[-122.30397,51.20844],[-122.30378,51.20843],[-122.30361,51.20843],[-122.30344,51.20844],[-122.30339,51.20844],[-122.30324,51.20846],[-122.30306,51.20846],[-122.30291,51.20846],[-122.30275,51.20845],[-122.30255,51.20845],[-122.30229,51.20846],[-122.30209,51.20845],[-122.30189,51.20845],[-122.30173,51.20845],[-122.30158,51.20845],[-122.30136,51.20846],[-122.30119,51.20847],[-122.301,51.20847],[-122.30085,51.20846],[-122.30064,51.20847],[-122.30039,51.20846],[-122.30022,51.20846],[-122.3,51.20848],[-122.29979,51.20848],[-122.2996,51.20849],[-122.29938,51.2085],[-122.29918,51.20849],[-122.29901,51.2085],[-122.29881,51.20848],[-122.29864,51.20847],[-122.29843,51.20843],[-122.29824,51.2084],[-122.29804,51.20837],[-122.29787,51.20835],[-122.2976,51.2083],[-122.29744,51.20827],[-122.29726,51.20823],[-122.29696,51.20817],[-122.29678,51.20814],[-122.29658,51.20811],[-122.29628,51.20807],[-122.29613,51.20805],[-122.29597,51.20804],[-122.29581,51.20802],[-122.29563,51.20798],[-122.29541,51.2079],[-122.29526,51.20782],[-122.29507,51.20771],[-122.29495,51.20763],[-122.29483,51.20757],[-122.29463,51.20744],[-122.29445,51.20733],[-122.29432,51.20727],[-122.29419,51.20717],[-122.29407,51.20707],[-122.29398,51.20699],[-122.29387,51.20689],[-122.29377,51.2068],[-122.29366,51.20672],[-122.29353,51.20659],[-122.29344,51.20652],[-122.29335,51.20643],[-122.29323,51.20634],[-122.29312,51.20625],[-122.29302,51.20614],[-122.29288,51.20605],[-122.29291,51.20597],[-122.29282,51.20588]]}},
{"type":"Feature","properties":{"spotId":"E-moose-atv-0073","kind":"walk","km":0.09,"climbM":0,"name":"880 m E of Schraeder Lake rec site","flags":[]},"geometry":{"type":"LineString","coordinates":[[-122.29922,51.21845],[-122.29816,51.21796]]}},
{"type":"Feature","properties":{"spotId":"E-moose-atv-0086","kind":"ride","km":4.73,"climbM":96,"name":"By French Bar Creek","flags":[]},"geometry":{"type":"LineString","coordinates":[[-122.32298,51.22954],[-122.32281,51.22957],[-122.32267,51.22958],[-122.32247,51.22962],[-122.32231,51.22965],[-122.32209,51.22966],[-122.32195,51.22967],[-122.32178,51.22969],[-122.32163,51.2297],[-122.32148,51.2297],[-122.32133,51.22973],[-122.32118,51.22975],[-122.321,51.22977],[-122.32084,51.22981],[-122.32074,51.2298],[-122.32057,51.22977],[-122.3204,51.22976],[-122.32026,51.22977],[-122.32009,51.22979],[-122.31994,51.22978],[-122.31979,51.22978],[-122.31964,51.22978],[-122.31944,51.22979],[-122.3193,51.22979],[-122.31913,51.2298],[-122.31893,51.22981],[-122.31878,51.22981],[-122.31862,51.22983],[-122.31842,51.22983],[-122.31828,51.22983],[-122.31811,51.22983],[-122.31804,51.22981],[-122.3179,51.22977],[-122.31775,51.22976],[-122.31758,51.22974],[-122.31749,51.22972],[-122.3173,51.22963],[-122.31707,51.22956],[-122.31692,51.22952],[-122.3168,51.22946],[-122.31667,51.22939],[-122.3165,51.22931],[-122.31636,51.22925],[-122.31623,51.2292],[-122.31611,51.22914],[-122.31594,51.22908],[-122.31577,51.229],[-122.31562,51.22894],[-122.31546,51.22889],[-122.3153,51.22883],[-122.31515,51.22877],[-122.315,51.22871],[-122.31488,51.22866],[-122.31473,51.22861],[-122.3146,51.22856],[-122.31448,51.2285],[-122.31432,51.22844],[-122.31416,51.22837],[-122.31404,51.22831],[-122.31388,51.22824],[-122.31374,51.22818],[-122.31361,51.22811],[-122.31351,51.22805],[-122.31338,51.22797],[-122.31324,51.22788],[-122.31313,51.22784],[-122.31296,51.22777],[-122.31273,51.22767],[-122.31257,51.2276],[-122.31237,51.22752],[-122.31224,51.22746],[-122.31203,51.22737],[-122.31189,51.22732],[-122.31176,51.22725],[-122.31162,51.22719],[-122.31139,51.22711],[-122.31132,51.22709],[-122.31126,51.22707],[-122.31109,51.22702],[-122.31086,51.22693],[-122.31068,51.22685],[-122.31055,51.2268],[-122.31039,51.22673],[-122.31022,51.22665],[-122.31009,51.2266],[-122.30991,51.22653],[-122.30972,51.22646],[-122.30954,51.22639],[-122.30938,51.22632],[-122.30924,51.22625],[-122.30907,51.22617],[-122.30883,51.22607],[-122.30856,51.22596],[-122.30831,51.22587],[-122.30819,51.2258],[-122.30802,51.22575],[-122.3078,51.22565],[-122.30753,51.22554],[-122.30735,51.22546],[-122.30716,51.22538],[-122.30695,51.2253],[-122.30681,51.22524],[-122.30665,51.22518],[-122.30648,51.22513],[-122.30636,51.22506],[-122.30621,51.22497],[-122.30605,51.22491],[-122.30592,51.22484],[-122.30578,51.22476],[-122.30567,51.22467],[-122.30556,51.22461],[-122.30546,51.22454],[-122.3053,51.22446],[-122.30519,51.22439],[-122.30502,51.2243],[-122.3049,51.22426],[-122.30473,51.22417],[-122.30462,51.22411],[-122.30446,51.22405],[-122.30439,51.22402],[-122.3043,51.22398],[-122.30413,51.22389],[-122.30399,51.22381],[-122.30385,51.22374],[-122.30369,51.22366],[-122.30357,51.22361],[-122.30339,51.22354],[-122.30324,51.22347],[-122.3031,51.22342],[-122.30291,51.22334],[-122.30274,51.22325],[-122.30256,51.22314],[-122.30237,51.22306],[-122.30223,51.22299],[-122.3021,51.22293],[-122.30197,51.22286],[-122.30179,51.22277],[-122.30165,51.22272],[-122.30146,51.22263],[-122.30133,51.22259],[-122.30113,51.22251],[-122.30099,51.22244],[-122.30082,51.22236],[-122.30049,51.22221],[-122.30032,51.22212],[-122.30012,51.22204],[-122.29994,51.22195],[-122.29987,51.22191],[-122.29981,51.22189],[-122.29963,51.2218],[-122.29944,51.22171],[-122.29924,51.22163],[-122.29904,51.22155],[-122.29894,51.22149],[-122.29884,51.22141],[-122.29876,51.22132],[-122.29868,51.22123],[-122.29859,51.22112],[-122.29852,51.22103],[-122.29845,51.22094],[-122.29838,51.22079],[-122.29833,51.22069],[-122.29821,51.22057],[-122.29819,51.22047],[-122.29816,51.22032],[-122.29816,51.22028],[-122.29815,51.22018],[-122.29815,51.22007],[-122.29819,51.21991],[-122.29823,51.21977],[-122.29827,51.21966],[-122.29828,51.2196],[-122.29832,51.21948],[-122.29837,51.21935],[-122.29843,51.21924],[-122.29851,51.21914],[-122.29859,51.21902],[-122.29871,51.2189],[-122.29883,51.2188],[-122.29896,51.21868],[-122.29912,51.21856],[-122.29922,51.21845],[-122.29931,51.21838],[-122.29933,51.21835],[-122.29942,51.21828],[-122.29954,51.21817],[-122.29965,51.21805],[-122.29979,51.21792],[-122.29987,51.21785],[-122.30006,51.21772],[-122.30016,51.21763],[-122.30026,51.21756],[-122.30035,51.21748],[-122.30047,51.21738],[-122.30063,51.21725],[-122.30076,51.21715],[-122.30086,51.21704],[-122.30103,51.21689],[-122.30118,51.21675],[-122.30128,51.21665],[-122.30134,51.21656],[-122.30141,51.21648],[-122.30151,51.21638],[-122.3017,51.21618],[-122.30185,51.21605],[-122.30196,51.21595],[-122.30205,51.21587],[-122.30217,51.21573],[-122.30228,51.21561],[-122.30236,51.21553],[-122.30256,51.21536],[-122.30263,51.21528],[-122.30273,51.21519],[-122.30286,51.21508],[-122.30294,51.21499],[-122.30302,51.21491],[-122.30314,51.21481],[-122.30334,51.21467],[-122.30344,51.21459],[-122.30353,51.2145],[-122.30368,51.21439],[-122.30375,51.21432],[-122.30384,51.21425],[-122.30386,51.21422],[-122.30397,51.21412],[-122.30404,51.21404],[-122.30414,51.21396],[-122.30424,51.21386],[-122.30432,51.21377],[-122.30443,51.21366],[-122.30458,51.21355],[-122.30471,51.21345],[-122.30481,51.21338],[-122.30494,51.21328],[-122.30501,51.2132],[-122.30514,51.21307],[-122.3053,51.21295],[-122.30542,51.21286],[-122.30552,51.21276],[-122.30561,51.21267],[-122.30564,51.21264],[-122.30569,51.21258],[-122.30581,51.21246],[-122.30588,51.21238],[-122.306,51.21225],[-122.30607,51.21216],[-122.30614,51.21208],[-122.30623,51.21197],[-122.30633,51.21187],[-122.30649,51.21173],[-122.30658,51.21164],[-122.30674,51.21152],[-122.30689,51.21139],[-122.30697,51.21132],[-122.30706,51.21123],[-122.3072,51.21112],[-122.30729,51.21105],[-122.30746,51.21094],[-122.30762,51.21083],[-122.30773,51.21072],[-122.3078,51.21063],[-122.30786,51.21055],[-122.30795,51.21041],[-122.30802,51.21026],[-122.30803,51.21016],[-122.30802,51.21006],[-122.30795,51.20996],[-122.30787,51.20987],[-122.30777,51.20979],[-122.30763,51.2097],[-122.30748,51.20961],[-122.30734,51.20953],[-122.30723,51.20947],[-122.30719,51.20945],[-122.30707,51.2094],[-122.30696,51.20932],[-122.30683,51.20924],[-122.30672,51.20918],[-122.30652,51.2091],[-122.30641,51.20903],[-122.30622,51.20895],[-122.30605,51.20887],[-122.30589,51.20881],[-122.30575,51.20879],[-122.30562,51.20873],[-122.30548,51.20866],[-122.30532,51.2086],[-122.30518,51.20857],[-122.30504,51.20854],[-122.30491,51.20849],[-122.30478,51.20843],[-122.30474,51.20843],[-122.30457,51.20845],[-122.3044,51.20844],[-122.30418,51.20845],[-122.30402,51.20844],[-122.30397,51.20844],[-122.30378,51.20843],[-122.30361,51.20843],[-122.30344,51.20844],[-122.30339,51.20844],[-122.30324,51.20846],[-122.30306,51.20846],[-122.30291,51.20846],[-122.30275,51.20845],[-122.30255,51.20845],[-122.30229,51.20846],[-122.30209,51.20845],[-122.30189,51.20845],[-122.30173,51.20845],[-122.30158,51.20845],[-122.30136,51.20846],[-122.30119,51.20847],[-122.301,51.20847],[-122.30085,51.20846],[-122.30064,51.20847],[-122.30039,51.20846],[-122.30022,51.20846],[-122.3,51.20848],[-122.29979,51.20848],[-122.2996,51.20849],[-122.29938,51.2085],[-122.29918,51.20849],[-122.29901,51.2085],[-122.29881,51.20848],[-122.29864,51.20847],[-122.29843,51.20843],[-122.29824,51.2084],[-122.29804,51.20837],[-122.29787,51.20835],[-122.2976,51.2083],[-122.29744,51.20827],[-122.29726,51.20823],[-122.29696,51.20817],[-122.29678,51.20814],[-122.29658,51.20811],[-122.29628,51.20807],[-122.29613,51.20805],[-122.29597,51.20804],[-122.29581,51.20802],[-122.29563,51.20798],[-122.29541,51.2079],[-122.29526,51.20782],[-122.29507,51.20771],[-122.29495,51.20763],[-122.29483,51.20757],[-122.29463,51.20744],[-122.29445,51.20733],[-122.29432,51.20727],[-122.29419,51.20717],[-122.29407,51.20707],[-122.29398,51.20699],[-122.29387,51.20689],[-122.29377,51.2068],[-122.29366,51.20672],[-122.29353,51.20659],[-122.29344,51.20652],[-122.29335,51.20643],[-122.29323,51.20634],[-122.29312,51.20625],[-122.29302,51.20614],[-122.29288,51.20605],[-122.29291,51.20597],[-122.29282,51.20588]]}},
{"type":"Feature","properties":{"spotId":"E-moose-atv-0086","kind":"walk","km":0.16,"climbM":0,"name":"By French Bar Creek","flags":[]},"geometry":{"type":"LineString","coordinates":[[-122.32298,51.22954],[-122.32351,51.23092]]}},
{"type":"Feature","properties":{"spotId":"E-moose-atv-0092","kind":"ride","km":5.32,"climbM":164,"name":"3.2 km SE of Schraeder Lake rec site","flags":[]},"geometry":{"type":"LineString","coordinates":[[-122.29248,51.20574],[-122.29241,51.20567],[-122.29231,51.2056],[-122.29221,51.20556],[-122.29217,51.2055],[-122.29219,51.20543],[-122.29223,51.20538],[-122.29229,51.20532],[-122.29235,51.20524],[-122.29242,51.20513],[-122.29249,51.205],[-122.29257,51.20489],[-122.29264,51.20479],[-122.29274,51.20468],[-122.29284,51.20458],[-122.29297,51.20449],[-122.29306,51.20438],[-122.29308,51.20436],[-122.29314,51.20428],[-122.29318,51.20418],[-122.29324,51.20409],[-122.29331,51.20397],[-122.29339,51.20387],[-122.29346,51.20377],[-122.29352,51.20369],[-122.29359,51.2036],[-122.29368,51.20352],[-122.29376,51.20342],[-122.29387,51.20331],[-122.29397,51.2032],[-122.29404,51.20313],[-122.29406,51.2031],[-122.29411,51.20301],[-122.2942,51.20291],[-122.29429,51.20282],[-122.29439,51.20274],[-122.29451,51.20265],[-122.29459,51.20257],[-122.29471,51.20246],[-122.29478,51.20239],[-122.29486,51.2023],[-122.29493,51.20221],[-122.29502,51.2021],[-122.29509,51.202],[-122.29512,51.20197],[-122.29519,51.20189],[-122.29526,51.20179],[-122.29528,51.20177],[-122.29538,51.20165],[-122.29545,51.20155],[-122.2955,51.20148],[-122.29554,51.20138],[-122.29562,51.20125],[-122.29566,51.20116],[-122.29573,51.20105],[-122.29583,51.20097],[-122.29594,51.20089],[-122.29602,51.20081],[-122.2961,51.20073],[-122.29617,51.20063],[-122.29623,51.20052],[-122.29627,51.20043],[-122.29632,51.20032],[-122.29636,51.20023],[-122.29638,51.20007],[-122.29636,51.20001],[-122.29628,51.19978],[-122.29618,51.19961],[-122.29611,51.1995],[-122.29603,51.19936],[-122.29592,51.19915],[-122.29581,51.19895],[-122.29574,51.19874],[-122.29573,51.19872],[-122.29563,51.19853],[-122.29549,51.19836],[-122.29536,51.19823],[-122.29526,51.19813],[-122.29506,51.19798],[-122.29482,51.19785],[-122.29465,51.19774],[-122.29446,51.19756],[-122.29423,51.19736],[-122.2942,51.19733],[-122.29414,51.19728],[-122.29405,51.19721],[-122.29397,51.19714],[-122.29378,51.19697],[-122.29372,51.19692],[-122.29361,51.19682],[-122.29345,51.19663],[-122.29328,51.19646],[-122.29311,51.19628],[-122.29299,51.1961],[-122.29283,51.19592],[-122.29275,51.19579],[-122.29271,51.19568],[-122.2927,51.19565],[-122.29266,51.19543],[-122.29254,51.19523],[-122.29242,51.19504],[-122.29231,51.19486],[-122.2922,51.19467],[-122.2921,51.19447],[-122.29199,51.19428],[-122.29185,51.1941],[-122.2918,51.19402],[-122.29171,51.19383],[-122.29158,51.19362],[-122.29144,51.19344],[-122.29132,51.19324],[-122.2912,51.19304],[-122.29109,51.19284],[-122.29098,51.19265],[-122.29084,51.19244],[-122.29076,51.19225],[-122.29063,51.19205],[-122.29054,51.19185],[-122.29042,51.19166],[-122.29041,51.19164],[-122.29031,51.19145],[-122.29026,51.19131],[-122.2902,51.1912],[-122.29008,51.19101],[-122.28999,51.19088],[-122.28996,51.19083],[-122.28985,51.19065],[-122.28973,51.19045],[-122.28963,51.19026],[-122.28959,51.19018],[-122.28952,51.19007],[-122.28939,51.18987],[-122.28929,51.18975],[-122.28924,51.18969],[-122.2892,51.1896],[-122.28906,51.18941],[-122.2889,51.18922],[-122.28873,51.189],[-122.28858,51.18881],[-122.28854,51.18875],[-122.28828,51.18853],[-122.28824,51.18849],[-122.28813,51.18828],[-122.2881,51.18838],[-122.28807,51.18846],[-122.28778,51.18865],[-122.28766,51.1887],[-122.28738,51.1888],[-122.28718,51.18886],[-122.28682,51.18897],[-122.28674,51.189],[-122.28663,51.18903],[-122.28636,51.18914],[-122.28604,51.18922],[-122.28575,51.18931],[-122.28545,51.18941],[-122.28515,51.18949],[-122.28506,51.18952],[-122.28475,51.18961],[-122.28452,51.18968],[-122.28421,51.18976],[-122.28393,51.18986],[-122.28362,51.18994],[-122.28331,51.19003],[-122.28298,51.19009],[-122.28283,51.19011],[-122.28266,51.19013],[-122.28233,51.19019],[-122.28216,51.19024],[-122.28181,51.19038],[-122.28157,51.19048],[-122.28121,51.19067],[-122.28112,51.19071],[-122.28083,51.19081],[-122.28065,51.19088],[-122.28035,51.19097],[-122.28006,51.19107],[-122.27976,51.19115],[-122.27945,51.19122],[-122.27915,51.1913],[-122.27885,51.19136],[-122.27854,51.19143],[-122.27818,51.19153],[-122.27793,51.19159],[-122.27763,51.19167],[-122.27733,51.19174],[-122.27703,51.19182],[-122.27674,51.19191],[-122.27647,51.19201],[-122.27618,51.1921],[-122.27596,51.19215],[-122.27568,51.19223],[-122.27557,51.19225],[-122.27527,51.19232],[-122.2751,51.19236],[-122.27499,51.19239],[-122.27483,51.19243],[-122.27468,51.19246],[-122.27435,51.19253],[-122.27412,51.19257],[-122.27382,51.19265],[-122.27352,51.19272],[-122.27322,51.19279],[-122.27313,51.19281],[-122.27283,51.19288],[-122.27253,51.19295],[-122.27223,51.19302],[-122.27191,51.19309],[-122.27158,51.19316],[-122.27125,51.19322],[-122.27101,51.19325],[-122.27071,51.19333],[-122.27039,51.19341],[-122.2701,51.19349],[-122.26976,51.19362],[-122.26963,51.19366],[-122.26935,51.19375],[-122.26925,51.19378],[-122.26894,51.19385],[-122.26862,51.19391],[-122.26838,51.19394],[-122.26829,51.19395],[-122.26796,51.19399],[-122.26766,51.19404],[-122.26735,51.19408],[-122.26703,51.19415],[-122.26673,51.19421],[-122.26641,51.19427],[-122.26625,51.19429],[-122.2661,51.19433],[-122.26579,51.19441],[-122.26569,51.19444],[-122.26551,51.1945],[-122.26523,51.19457],[-122.26498,51.19462],[-122.26466,51.19467],[-122.26434,51.19473],[-122.26426,51.19475],[-122.26413,51.19477],[-122.26384,51.19486],[-122.26365,51.1949],[-122.26337,51.19497],[-122.26307,51.19504],[-122.26294,51.19507],[-122.26268,51.19517],[-122.26242,51.19528],[-122.26211,51.19548],[-122.26196,51.19557],[-122.26165,51.19575],[-122.26138,51.19592],[-122.26128,51.19601],[-122.26116,51.1962],[-122.26113,51.19632],[-122.26114,51.1964],[-122.26125,51.19657],[-122.26142,51.19671],[-122.26161,51.19678],[-122.26188,51.19686],[-122.26216,51.19695],[-122.26246,51.19703],[-122.2628,51.19713],[-122.26286,51.19714],[-122.26315,51.19722],[-122.26344,51.1973],[-122.26353,51.19733],[-122.26381,51.19741],[-122.26413,51.19751],[-122.26443,51.19758],[-122.26474,51.19766],[-122.26503,51.19774],[-122.26533,51.19783],[-122.26562,51.19791],[-122.26595,51.19799],[-122.26624,51.19809],[-122.26655,51.19817],[-122.26684,51.19824],[-122.26714,51.19833],[-122.26731,51.19836],[-122.26762,51.19845],[-122.26792,51.19854],[-122.26823,51.19862],[-122.26846,51.19867],[-122.26876,51.19873],[-122.26896,51.19878],[-122.26927,51.19886],[-122.26959,51.19893],[-122.2699,51.199],[-122.27023,51.19906],[-122.27056,51.19914],[-122.27066,51.19916],[-122.27099,51.19923],[-122.27131,51.1993],[-122.2716,51.19937],[-122.2719,51.19945],[-122.272,51.19948],[-122.2722,51.19963],[-122.27228,51.19976],[-122.27231,51.19983],[-122.27232,51.19993],[-122.27229,51.2],[-122.27229,51.20004],[-122.27226,51.20015],[-122.2722,51.20024],[-122.27213,51.20034],[-122.27203,51.20044],[-122.27191,51.20052],[-122.27181,51.20058],[-122.27166,51.20064],[-122.27151,51.20069],[-122.27133,51.20073]]}},
{"type":"Feature","properties":{"spotId":"E-moose-atv-0092","kind":"walk","km":0.06,"climbM":7,"name":"3.2 km SE of Schraeder Lake rec site","flags":[]},"geometry":{"type":"LineString","coordinates":[[-122.27133,51.20073],[-122.27157,51.20124]]}},
{"type":"Feature","properties":{"spotId":"E-moose-backcountry-0011","kind":"backcountry","km":5.39,"climbM":225,"name":"By French Bar Creek","flags":[]},"geometry":{"type":"LineString","coordinates":[[-122.29907,51.24539],[-122.36905,51.22483]]}},
{"type":"Feature","properties":{"spotId":"E-moose-drive-0058","kind":"walk","km":0.26,"climbM":11,"name":"1.5 km SE of Schraeder Lake rec site","flags":[]},"geometry":{"type":"LineString","coordinates":[[-122.29282,51.20588],[-122.29389,51.2081]]}},
{"type":"Feature","properties":{"spotId":"E-moose-walk-0104","kind":"walk","km":1.44,"climbM":36,"name":"380 m SE of Schraeder Lake","flags":[]},"geometry":{"type":"LineString","coordinates":[[-122.29282,51.20588],[-122.31146,51.21152]]}}
]}
