{"type":"FeatureCollection","features":[
{"type":"Feature","properties":{"spotId":"E-camp-camp-0072","kind":"walk","km":0.18,"climbM":1,"name":"1.3 km S of Cargile Creek","flags":[]},"geometry":{"type":"LineString","coordinates":[[-122.53029,51.74898],[-122.53123,51.75046]]}},
{"type":"Feature","properties":{"spotId":"E-camp-camp-0076","kind":"walk","km":0.15,"climbM":9,"name":"2.1 km N of Hargreaves Creek","flags":[]},"geometry":{"type":"LineString","coordinates":[[-122.53386,51.89209],[-122.53596,51.89253]]}},
{"type":"Feature","properties":{"spotId":"E-deer-drive-0075","kind":"walk","km":0.17,"climbM":21,"name":"3.0 km SW of Poison Lake","flags":[]},"geometry":{"type":"LineString","coordinates":[[-122.6007,51.77669],[-122.59882,51.77764]]}},
{"type":"Feature","properties":{"spotId":"E-deer-drive-0097","kind":"walk","km":0.04,"climbM":5,"name":"200 m NE of Riske Creek","flags":[]},"geometry":{"type":"LineString","coordinates":[[-122.56427,51.98107],[-122.56392,51.98139]]}},
{"type":"Feature","properties":{"spotId":"E-deer-drive-0100","kind":"walk","km":0.22,"climbM":19,"name":"320 m N of Riske Creek","flags":["Route crosses private land (ParcelMap BC, updated 2026-09-22): get permission first or go around."]},"geometry":{"type":"LineString","coordinates":[[-122.51992,51.95989],[-122.51736,51.96113]]}},
{"type":"Feature","properties":{"spotId":"E-deer-drive-0109","kind":"walk","km":0.15,"climbM":28,"name":"1.0 km SW of Becher House","flags":[]},"geometry":{"type":"LineString","coordinates":[[-122.5295,51.94633],[-122.53166,51.94626]]}},
{"type":"Feature","properties":{"spotId":"E-deer-walk-0025","kind":"walk","km":1.87,"climbM":370,"name":"1.1 km SW of Chilcotin River","flags":["Route crosses private land (ParcelMap BC, updated 2026-09-22): get permission first or go around."]},"geometry":{"type":"LineString","coordinates":[[-122.57235,51.826],[-122.59948,51.82527]]}},
{"type":"Feature","properties":{"spotId":"E-deer-walk-0062","kind":"walk","km":2.47,"climbM":242,"name":"790 m NE of Chilcotin River","flags":["Route crosses private land (ParcelMap BC, updated 2026-09-22): get permission first or go around."]},"geometry":{"type":"LineString","coordinates":[[-122.57249,51.82984],[-122.58895,51.84957]]}},
{"type":"Feature","properties":{"spotId":"E-deer-walk-0072","kind":"walk","km":3.27,"climbM":72,"name":"4.3 km N of Farwell Canyon","flags":[]},"geometry":{"type":"LineString","coordinates":[[-122.53305,51.88876],[-122.57195,51.87187]]}},
{"type":"Feature","properties":{"spotId":"E-deer-walk-0087","kind":"walk","km":0.67,"climbM":2,"name":"By Chilcotin River","flags":["Route enters a Motor Vehicle Closed Area: Junction. Closed Year Round. Synopsis map 1-8/24.","Route crosses private land (ParcelMap BC, updated 2026-09-22): get permission first or go around."]},"geometry":{"type":"LineString","coordinates":[[-122.54872,51.82636],[-122.54454,51.82093]]}},
{"type":"Feature","properties":{"spotId":"E-deer-walk-0117","kind":"walk","km":0.37,"climbM":44,"name":"2.8 km SW of Poison Lake","flags":[]},"geometry":{"type":"LineString","coordinates":[[-122.60435,51.77938],[-122.59999,51.78127]]}},
{"type":"Feature","properties":{"spotId":"E-deer-walk-0137","kind":"walk","km":0.34,"climbM":39,"name":"160 m SW of Chilcotin River","flags":["Route enters a Motor Vehicle Closed Area: Junction. Closed Year Round. Synopsis map 1-8/24.","Route crosses private land (ParcelMap BC, updated 2026-09-22): get permission first or go around."]},"geometry":{"type":"LineString","coordinates":[[-122.55084,51.82693],[-122.55442,51.82482]]}},
{"type":"Feature","properties":{"spotId":"E-deer-walk-0163","kind":"walk","km":0.37,"climbM":58,"name":"600 m N of South Riske Creek","flags":["Route crosses private land (ParcelMap BC, updated 2026-09-22): get permission first or go around."]},"geometry":{"type":"LineString","coordinates":[[-122.58351,51.98565],[-122.58673,51.98836]]}},
{"type":"Feature","properties":{"spotId":"E-deer-walk-0174","kind":"walk","km":0.58,"climbM":62,"name":"1.4 km W of Becher House","flags":[]},"geometry":{"type":"LineString","coordinates":[[-122.52978,51.95022],[-122.53826,51.9498]]}},
{"type":"Feature","properties":{"spotId":"E-deer-walk-0185","kind":"walk","km":1.6,"climbM":62,"name":"710 m N of Separating Lake","flags":[]},"geometry":{"type":"LineString","coordinates":[[-122.52554,51.97734],[-122.50242,51.97953]]}},
{"type":"Feature","properties":{"spotId":"E-deer-walk-0202","kind":"walk","km":0.41,"climbM":33,"name":"1.4 km NW of Separating Lake","flags":[]},"geometry":{"type":"LineString","coordinates":[[-122.52554,51.97734],[-122.52087,51.97965]]}},
{"type":"Feature","properties":{"spotId":"E-deer-walk-0222","kind":"walk","km":0.33,"climbM":0,"name":"290 m E of Farwell Creek","flags":[]},"geometry":{"type":"LineString","coordinates":[[-122.57019,51.81121],[-122.57275,51.81369]]}},
{"type":"Feature","properties":{"spotId":"E-duck-drive-0085","kind":"walk","km":0.02,"climbM":0,"name":"Unnamed wetland 200 m NE of Riske Creek","flags":[]},"geometry":{"type":"LineString","coordinates":[[-122.56167,51.97976],[-122.56187,51.97964]]}},
{"type":"Feature","properties":{"spotId":"E-duck-drive-0149","kind":"walk","km":0.15,"climbM":0,"name":"Unnamed wetland by South Riske Creek","flags":["Route crosses private land (ParcelMap BC, updated 2026-09-22): get permission first or go around."]},"geometry":{"type":"LineString","coordinates":[[-122.59185,51.98214],[-122.59128,51.9808]]}},
{"type":"Feature","properties":{"spotId":"E-duck-drive-0156","kind":"walk","km":0.13,"climbM":0,"name":"Unnamed lake 1.1 km N of Hargreaves Creek","flags":["Route enters a Motor Vehicle Closed Area: Junction. Closed Year Round. Synopsis map 1-8/24."]},"geometry":{"type":"LineString","coordinates":[[-122.52781,51.88532],[-122.52816,51.88417]]}},
{"type":"Feature","properties":{"spotId":"E-duck-walk-0144","kind":"walk","km":0.45,"climbM":6,"name":"Unnamed lake 3.9 km S of Becher Lake","flags":[]},"geometry":{"type":"LineString","coordinates":[[-122.53277,51.89362],[-122.53837,51.89571]]}},
{"type":"Feature","properties":{"spotId":"E-duck-walk-0151","kind":"walk","km":0.5,"climbM":0,"name":"Unnamed lake 3.9 km S of Tl'esqox","flags":[]},"geometry":{"type":"LineString","coordinates":[[-122.5291,51.8981],[-122.52197,51.89738]]}},
{"type":"Feature","properties":{"spotId":"E-grouse-drive-0104","kind":"roadside","km":5.41,"climbM":56,"name":"600 m S of Farwell Creek","flags":["Route enters an ATV (all terrain vehicle) for Hunting Closed Area: Gaspard Creek and Churn Creek. Closed Year Round. Exemption: Snowmobiles exempt December 1 to May 1. Synopsis map 3-3/23.","Route crosses private land (ParcelMap BC, updated 2026-09-22): get permission first or go around."]},"geometry":{"type":"LineString","coordinates":[[-122.59342,51.80547],[-122.59327,51.80533],[-122.59311,51.80528],[-122.59288,51.80523],[-122.59268,51.80517],[-122.59248,51.80514],[-122.59227,51.80513],[-122.59207,51.80513],[-122.59185,51.80511],[-122.59165,51.80507],[-122.59148,51.80503],[-122.59129,51.80497],[-122.59107,51.80492],[-122.59087,51.80485],[-122.59072,51.80484],[-122.59051,51.80483],[-122.59046,51.80483],[-122.59029,51.80485],[-122.59007,51.80488],[-122.58985,51.80491],[-122.58966,51.80493],[-122.58955,51.80494],[-122.58948,51.80494],[-122.58927,51.80491],[-122.58907,51.80486],[-122.58885,51.80477],[-122.58874,51.80473],[-122.58865,51.8047],[-122.58822,51.80463],[-122.58784,51.80454],[-122.58762,51.80446],[-122.58742,51.8044],[-122.58723,51.80436],[-122.58704,51.80434],[-122.58684,51.8043],[-122.58662,51.80426],[-122.58622,51.80421],[-122.58606,51.80419],[-122.58581,51.80417],[-122.58561,51.80414],[-122.58541,51.80411],[-122.58519,51.8041],[-122.58497,51.8041],[-122.58476,51.80409],[-122.58455,51.80406],[-122.58403,51.80391],[-122.58394,51.80389],[-122.58373,51.80384],[-122.58329,51.80378],[-122.58312,51.80375],[-122.58293,51.80372],[-122.5827,51.80368],[-122.58247,51.80364],[-122.58228,51.80358],[-122.58211,51.80353],[-122.58177,51.80344],[-122.58154,51.80338],[-122.58131,51.80335],[-122.58108,51.80332],[-122.58086,51.8033],[-122.58064,51.80331],[-122.58012,51.80331],[-122.58003,51.8033],[-122.57993,51.80334],[-122.57958,51.80344],[-122.57939,51.80349],[-122.57922,51.80354],[-122.57899,51.80357],[-122.57833,51.8036],[-122.57813,51.80358],[-122.57793,51.80357],[-122.57771,51.80356],[-122.57749,51.80356],[-122.57697,51.80352],[-122.57677,51.8035],[-122.57655,51.80347],[-122.57635,51.80346],[-122.57615,51.80346],[-122.57594,51.80348],[-122.57587,51.80349],[-122.57574,51.80351],[-122.57557,51.80354],[-122.57538,51.80358],[-122.5752,51.80364],[-122.57501,51.80368],[-122.57478,51.80374],[-122.57455,51.80377],[-122.57432,51.8038],[-122.5741,51.80381],[-122.57389,51.80383],[-122.57381,51.80383],[-122.57369,51.80384],[-122.57308,51.80384],[-122.57284,51.80383],[-122.57221,51.80383],[-122.57202,51.80381],[-122.57182,51.80374],[-122.57165,51.80365],[-122.57127,51.80347],[-122.5711,51.80337],[-122.57091,51.80328],[-122.57071,51.80318],[-122.57031,51.803],[-122.5701,51.80292],[-122.5698,51.80275],[-122.56953,51.80261],[-122.56922,51.80241],[-122.56909,51.80229],[-122.56881,51.80208],[-122.5685,51.80186],[-122.56823,51.80164],[-122.56796,51.80143],[-122.56764,51.80125],[-122.56738,51.80111],[-122.56708,51.80098],[-122.56677,51.80087],[-122.56643,51.80074],[-122.56612,51.8006],[-122.56578,51.80047],[-122.5656,51.80042],[-122.56541,51.80037],[-122.56523,51.8003],[-122.56492,51.80021],[-122.56482,51.80021],[-122.56466,51.80012],[-122.56445,51.8],[-122.56426,51.7999],[-122.56393,51.79978],[-122.56374,51.79972],[-122.56355,51.79968],[-122.56333,51.79963],[-122.56312,51.79958],[-122.5629,51.79955],[-122.56268,51.79951],[-122.56246,51.79945],[-122.56226,51.79937],[-122.56194,51.79922],[-122.56174,51.79915],[-122.56153,51.79908],[-122.56119,51.79899],[-122.56096,51.79893],[-122.56074,51.79886],[-122.5604,51.79876],[-122.56008,51.79866],[-122.55986,51.79857],[-122.55965,51.7985],[-122.55943,51.79845],[-122.55921,51.7984],[-122.559,51.79835],[-122.55878,51.79831],[-122.55859,51.79826],[-122.55842,51.79822],[-122.55821,51.79816],[-122.55801,51.79812],[-122.55778,51.79806],[-122.55756,51.798],[-122.55737,51.79793],[-122.55703,51.7978],[-122.55677,51.79768],[-122.55668,51.79764],[-122.55636,51.79747],[-122.55608,51.79732],[-122.55577,51.79715],[-122.55548,51.79697],[-122.55527,51.7968],[-122.55521,51.79675],[-122.55508,51.79662],[-122.55497,51.79651],[-122.55471,51.79631],[-122.55443,51.79611],[-122.55435,51.79605],[-122.55413,51.79592],[-122.55381,51.79574],[-122.55348,51.79556],[-122.5533,51.79546],[-122.55298,51.79528],[-122.5527,51.79516],[-122.55252,51.79508],[-122.55233,51.79498],[-122.55214,51.79488],[-122.55195,51.79479],[-122.55169,51.79466],[-122.55139,51.7945],[-122.55113,51.79434],[-122.55079,51.79416],[-122.55048,51.79402],[-122.55021,51.79388],[-122.54988,51.79369],[-122.5497,51.79359],[-122.54969,51.79358],[-122.54949,51.79347],[-122.54923,51.7933],[-122.54894,51.79316],[-122.54862,51.79301],[-122.54858,51.79297],[-122.54842,51.79287],[-122.54828,51.79277],[-122.54809,51.79264],[-122.54782,51.79246],[-122.54753,51.79231],[-122.5472,51.7921],[-122.54707,51.79198],[-122.54694,51.79186],[-122.54663,51.79167],[-122.54632,51.79163],[-122.54608,51.79162],[-122.54603,51.79163],[-122.54585,51.79165],[-122.5456,51.79167],[-122.54544,51.79172],[-122.54521,51.7918],[-122.54504,51.79186],[-122.54485,51.79191],[-122.54464,51.79196],[-122.54446,51.79201],[-122.54411,51.79215],[-122.54377,51.79227],[-122.54352,51.79231],[-122.54326,51.79232],[-122.54308,51.79231],[-122.5429,51.79232],[-122.5427,51.79234],[-122.54249,51.79236],[-122.54228,51.79238],[-122.54205,51.7924],[-122.54184,51.79241],[-122.54164,51.79242],[-122.54157,51.79242],[-122.54141,51.79242],[-122.54119,51.79242],[-122.54107,51.79239],[-122.54079,51.7922],[-122.5405,51.79199],[-122.54044,51.79185],[-122.5404,51.79173],[-122.54034,51.79158],[-122.54031,51.79143],[-122.5403,51.7913],[-122.5403,51.79115],[-122.54028,51.791],[-122.54022,51.79086],[-122.54012,51.79071],[-122.54003,51.79057],[-122.53995,51.79046],[-122.53988,51.79034],[-122.53981,51.79022],[-122.53972,51.79004],[-122.53962,51.78987],[-122.53949,51.78966],[-122.53938,51.78955],[-122.53931,51.78949],[-122.53909,51.78933],[-122.53886,51.78915],[-122.53859,51.78899],[-122.53827,51.78883],[-122.53798,51.78873],[-122.53769,51.78863],[-122.53763,51.78862],[-122.53729,51.78849],[-122.53711,51.78841],[-122.5368,51.78823],[-122.53661,51.78801],[-122.53651,51.78787],[-122.53639,51.78775],[-122.53631,51.78763],[-122.53621,51.78752],[-122.53611,51.78739],[-122.53599,51.78726],[-122.53588,51.78716],[-122.53553,51.78703],[-122.53531,51.78698],[-122.53511,51.78694],[-122.5349,51.78691],[-122.53468,51.78688],[-122.53433,51.78682],[-122.53406,51.78677],[-122.53372,51.78665],[-122.53354,51.78656],[-122.53326,51.7864],[-122.53296,51.78626],[-122.53277,51.78623],[-122.5326,51.78618],[-122.53247,51.78597],[-122.53241,51.78588],[-122.53238,51.78583],[-122.53228,51.78568],[-122.53218,51.78554],[-122.532,51.78532],[-122.53197,51.78529],[-122.53185,51.78513],[-122.53177,51.78501],[-122.53165,51.7849],[-122.53155,51.78479],[-122.53144,51.78466],[-122.53132,51.78454],[-122.53098,51.78437],[-122.53075,51.78431],[-122.53068,51.78429]]}},
{"type":"Feature","properties":{"spotId":"E-grouse-drive-0117","kind":"roadside","km":7.49,"climbM":77,"name":"1.2 km N of Hargreaves Creek","flags":[]},"geometry":{"type":"LineString","coordinates":[[-122.52781,51.88532],[-122.52786,51.88534],[-122.5281,51.88548],[-122.52833,51.88561],[-122.5284,51.88567],[-122.52862,51.88581],[-122.52882,51.88597],[-122.52906,51.88612],[-122.52928,51.88626],[-122.52951,51.8864],[-122.52976,51.88655],[-122.52997,51.88671],[-122.53022,51.88684],[-122.53045,51.88697],[-122.53068,51.88712],[-122.53094,51.88727],[-122.53119,51.8874],[-122.53133,51.88751],[-122.53139,51.88756],[-122.53156,51.88765],[-122.53179,51.88779],[-122.53202,51.88795],[-122.53225,51.8881],[-122.53235,51.88816],[-122.53248,51.88826],[-122.53267,51.88844],[-122.53286,51.8886],[-122.53305,51.88876],[-122.5332,51.88893],[-122.53332,51.88912],[-122.53343,51.8893],[-122.53355,51.88949],[-122.53363,51.88968],[-122.53373,51.88988],[-122.5338,51.89008],[-122.53386,51.89027],[-122.53391,51.89047],[-122.53397,51.89066],[-122.53401,51.89087],[-122.53404,51.89108],[-122.53405,51.89128],[-122.53403,51.89148],[-122.53399,51.89168],[-122.53394,51.89187],[-122.53387,51.89207],[-122.53376,51.89226],[-122.53369,51.89245],[-122.53357,51.89265],[-122.53345,51.89284],[-122.53328,51.89301],[-122.53314,51.89318],[-122.533,51.89336],[-122.53284,51.89355],[-122.53266,51.89373],[-122.53248,51.89389],[-122.53234,51.89407],[-122.53217,51.89425],[-122.532,51.89442],[-122.53181,51.89459],[-122.53162,51.89477],[-122.53143,51.89494],[-122.53126,51.89511],[-122.53109,51.89527],[-122.53091,51.89545],[-122.53074,51.89563],[-122.53057,51.89581],[-122.5304,51.89597],[-122.53035,51.89603],[-122.53019,51.89621],[-122.53002,51.89639],[-122.52985,51.89656],[-122.52969,51.89675],[-122.52962,51.89687],[-122.5295,51.89706],[-122.52943,51.89719],[-122.52931,51.89738],[-122.52926,51.8975],[-122.52922,51.8977],[-122.52916,51.8979],[-122.5291,51.8981],[-122.52907,51.89828],[-122.52902,51.89849],[-122.52896,51.89868],[-122.52893,51.89881],[-122.52891,51.89888],[-122.5289,51.89897],[-122.52884,51.89917],[-122.52879,51.89939],[-122.52875,51.8996],[-122.52872,51.89979],[-122.52868,51.89993],[-122.52866,51.9],[-122.52856,51.90042],[-122.52838,51.90148],[-122.52823,51.90225],[-122.52803,51.90308],[-122.52783,51.90388],[-122.5276,51.90464],[-122.52747,51.90496],[-122.52731,51.90525],[-122.52707,51.90555],[-122.52682,51.90582],[-122.5264,51.9062],[-122.52587,51.90663],[-122.52531,51.90703],[-122.52496,51.90729],[-122.52477,51.90753],[-122.52471,51.90767],[-122.52462,51.90793],[-122.52459,51.90808],[-122.5246,51.90828],[-122.52466,51.90844],[-122.52473,51.90863],[-122.52484,51.9088],[-122.52497,51.90893],[-122.52543,51.90923],[-122.52591,51.90942],[-122.52661,51.90962],[-122.52706,51.90974],[-122.52964,51.91028],[-122.53176,51.91077],[-122.53228,51.91094],[-122.53264,51.91114],[-122.53285,51.91144],[-122.53285,51.91187],[-122.53278,51.91206],[-122.53266,51.91222],[-122.53248,51.91238],[-122.53242,51.91241],[-122.53192,51.91268],[-122.53067,51.91339],[-122.53023,51.91375],[-122.53001,51.91394],[-122.5287,51.91513],[-122.52814,51.9157],[-122.52777,51.91617],[-122.52579,51.9194],[-122.52495,51.92067],[-122.52415,51.92196],[-122.52304,51.92361],[-122.52255,51.92451],[-122.52237,51.92498],[-122.52225,51.92538],[-122.52222,51.92564],[-122.52227,51.92601],[-122.52268,51.92737],[-122.52317,51.92906],[-122.52362,51.93048],[-122.52416,51.93223],[-122.52462,51.93367],[-122.52505,51.93484],[-122.52574,51.93652],[-122.52605,51.93735],[-122.52696,51.93932],[-122.52763,51.9409],[-122.52814,51.94216],[-122.52844,51.94272],[-122.52902,51.94418],[-122.52911,51.94447]]}},
{"type":"Feature","properties":{"spotId":"E-moose-drive-0068","kind":"walk","km":0.14,"climbM":1,"name":"3.7 km S of Becher Lake","flags":[]},"geometry":{"type":"LineString","coordinates":[[-122.52875,51.8996],[-122.52666,51.89943]]}},
{"type":"Feature","properties":{"spotId":"E-moose-walk-0085","kind":"walk","km":2.09,"climbM":21,"name":"3.3 km SW of Becher Lake","flags":[]},"geometry":{"type":"LineString","coordinates":[[-122.604,51.90856],[-122.57378,51.90624]]}}
]}
