{"type":"FeatureCollection","features":[
{"type":"Feature","properties":{"spotId":"E-camp-camp-0016","kind":"walk","km":0.01,"climbM":0,"name":"By Borin Creek","flags":[]},"geometry":{"type":"LineString","coordinates":[[-122.55877,51.36234],[-122.55885,51.36225]]}},
{"type":"Feature","properties":{"spotId":"E-deer-backcountry-0012","kind":"backcountry","km":6.41,"climbM":152,"name":"210 m N of Churn Creek","flags":["Route enters a Motor Vehicle Closed Area: Thompson, Cariboo and Okanagan Alpines. Closed Year Round. Exemption: Snowmobiles exempt year round (January 1 to December 31). Synopsis map 1-82/24.","Route crosses protected area: Churn Creek Protected Area. Hunting only where that park allows it, in open season. Check its bcparks.ca page (synopsis page 9, 99%)."]},"geometry":{"type":"LineString","coordinates":[[-122.53374,51.38844],[-122.5235,51.44564]]}},
{"type":"Feature","properties":{"spotId":"E-deer-walk-0109","kind":"walk","km":4.24,"climbM":119,"name":"2.9 km S of Churn Creek","flags":["Route enters a Motor Vehicle Closed Area: Thompson, Cariboo and Okanagan Alpines. Closed Year Round. Exemption: Snowmobiles exempt year round (January 1 to December 31). Synopsis map 1-82/24."]},"geometry":{"type":"LineString","coordinates":[[-122.53374,51.38844],[-122.5339,51.38863],[-122.53408,51.38884],[-122.5343,51.38906],[-122.53441,51.38918],[-122.53447,51.3893],[-122.5345,51.38943],[-122.53451,51.38955],[-122.53459,51.3899],[-122.53459,51.39003],[-122.53455,51.39017],[-122.53444,51.3903],[-122.53433,51.39042],[-122.53421,51.39054],[-122.53411,51.39068],[-122.53393,51.39095],[-122.53386,51.39108],[-122.53369,51.39135],[-122.53364,51.39149],[-122.53364,51.39164],[-122.53369,51.39192],[-122.53368,51.39207],[-122.53365,51.3922],[-122.53352,51.39242],[-122.53328,51.39262],[-122.53298,51.39284],[-122.53288,51.39296],[-122.53282,51.39311],[-122.53279,51.39323],[-122.53279,51.39336],[-122.53277,51.39349],[-122.53279,51.3936],[-122.53287,51.39387],[-122.53288,51.394],[-122.53291,51.39413],[-122.53292,51.39415],[-122.53297,51.39424],[-122.53304,51.39436],[-122.53311,51.39449],[-122.53315,51.39463],[-122.53308,51.39476],[-122.5329,51.39503],[-122.53287,51.39509],[-122.53281,51.39516],[-122.53273,51.3953],[-122.5327,51.39537],[-122.53265,51.39545],[-122.53259,51.39558],[-122.53252,51.39571],[-122.53246,51.39583],[-122.53229,51.39605],[-122.53217,51.39618],[-122.5321,51.39627],[-122.53198,51.3964],[-122.53192,51.39652],[-122.53186,51.39669],[-122.53182,51.39689],[-122.53185,51.39696],[-122.53209,51.39717],[-122.53214,51.39726],[-122.53214,51.39764],[-122.53207,51.39777],[-122.53198,51.39791],[-122.53191,51.39803],[-122.53189,51.39816],[-122.53195,51.39843],[-122.53196,51.39856],[-122.53199,51.39871],[-122.53198,51.39883],[-122.53197,51.39897],[-122.53198,51.39908],[-122.53201,51.39919],[-122.53224,51.39946],[-122.53232,51.3996],[-122.53235,51.39972],[-122.50349,51.41853]]}},
{"type":"Feature","properties":{"spotId":"E-deer-walk-0126","kind":"walk","km":2.7,"climbM":60,"name":"190 m W of Fairless Creek","flags":[]},"geometry":{"type":"LineString","coordinates":[[-122.55954,51.36261],[-122.59551,51.35347]]}},
{"type":"Feature","properties":{"spotId":"E-deer-walk-0134","kind":"walk","km":2.22,"climbM":37,"name":"1.1 km N of Borin Creek","flags":[]},"geometry":{"type":"LineString","coordinates":[[-122.55954,51.36261],[-122.58681,51.37298]]}},
{"type":"Feature","properties":{"spotId":"E-duck-drive-0138","kind":"walk","km":0.16,"climbM":2,"name":"Unnamed wetland by Fairless Creek","flags":[]},"geometry":{"type":"LineString","coordinates":[[-122.55174,51.3421],[-122.55021,51.34106]]}},
{"type":"Feature","properties":{"spotId":"E-duck-drive-0154","kind":"walk","km":0.12,"climbM":0,"name":"Unnamed wetland 3.1 km NE of Flapjack Peak","flags":[]},"geometry":{"type":"LineString","coordinates":[[-122.58225,51.32805],[-122.5824,51.32911]]}},
{"type":"Feature","properties":{"spotId":"E-grouse-drive-0067","kind":"roadside","km":4.69,"climbM":149,"name":"By Borin Creek","flags":[]},"geometry":{"type":"LineString","coordinates":[[-122.55954,51.36261],[-122.55904,51.36244],[-122.55886,51.36238],[-122.55851,51.36226],[-122.55755,51.3619],[-122.55658,51.36162],[-122.55598,51.3615],[-122.55555,51.36142],[-122.55523,51.36134],[-122.55485,51.36123],[-122.55403,51.36083],[-122.55303,51.3605],[-122.55211,51.36013],[-122.55137,51.35973],[-122.55113,51.35959],[-122.55064,51.35929],[-122.54987,51.3588],[-122.54862,51.35795],[-122.548,51.3574],[-122.54788,51.35726],[-122.54765,51.35703],[-122.54754,51.35684],[-122.54734,51.35652],[-122.54721,51.35609],[-122.54728,51.35526],[-122.54738,51.35373],[-122.54745,51.3524],[-122.54745,51.35202],[-122.54746,51.35154],[-122.54746,51.35134],[-122.54747,51.35035],[-122.54754,51.34918],[-122.54755,51.34908],[-122.54759,51.34873],[-122.54765,51.34809],[-122.54761,51.34768],[-122.54733,51.34703],[-122.54715,51.34648],[-122.54724,51.3461],[-122.5477,51.34572],[-122.54845,51.34539],[-122.54917,51.34507],[-122.54964,51.34478],[-122.54991,51.34461],[-122.55037,51.3442],[-122.55091,51.34369],[-122.55103,51.34341],[-122.55103,51.34339],[-122.55099,51.34303],[-122.55097,51.34297],[-122.55099,51.34256],[-122.55115,51.34237],[-122.55159,51.34219],[-122.55177,51.34208],[-122.5518,51.34207],[-122.55199,51.34204],[-122.55232,51.34204],[-122.55262,51.34213],[-122.55301,51.34233],[-122.55352,51.34252],[-122.55429,51.34267],[-122.55497,51.34275],[-122.55567,51.34292],[-122.556,51.3429],[-122.55639,51.34287],[-122.55691,51.34278],[-122.55695,51.34277],[-122.55741,51.34257],[-122.55787,51.34226],[-122.55826,51.34202],[-122.55851,51.34188],[-122.55919,51.34133],[-122.56,51.34066],[-122.56078,51.33999],[-122.56091,51.3399],[-122.5615,51.33942],[-122.56202,51.33901],[-122.56331,51.33812],[-122.56437,51.33728],[-122.56492,51.3368],[-122.56515,51.33659],[-122.56547,51.33634],[-122.5661,51.33585],[-122.56696,51.33505],[-122.5678,51.33434],[-122.56885,51.33361],[-122.5695,51.33314],[-122.56983,51.33297],[-122.57004,51.33286]]}},
{"type":"Feature","properties":{"spotId":"E-grouse-drive-0074","kind":"roadside","km":4.29,"climbM":123,"name":"2.5 km N of Borin Creek","flags":[]},"geometry":{"type":"LineString","coordinates":[[-122.53374,51.38844],[-122.53372,51.38836],[-122.53373,51.38823],[-122.53376,51.38809],[-122.53385,51.38781],[-122.53391,51.38768],[-122.53392,51.38762],[-122.53395,51.38755],[-122.53398,51.38742],[-122.53401,51.38737],[-122.53403,51.38723],[-122.53403,51.38711],[-122.53403,51.3871],[-122.5341,51.38695],[-122.53416,51.38681],[-122.53416,51.3868],[-122.53419,51.38667],[-122.53419,51.38653],[-122.53418,51.38641],[-122.53415,51.3863],[-122.53408,51.38618],[-122.534,51.38606],[-122.5339,51.38593],[-122.53379,51.38578],[-122.53363,51.38557],[-122.53353,51.38544],[-122.53337,51.38527],[-122.53327,51.38515],[-122.53319,51.38503],[-122.53309,51.38491],[-122.53303,51.38477],[-122.53301,51.38464],[-122.53299,51.38449],[-122.53298,51.38434],[-122.53295,51.38407],[-122.53296,51.38333],[-122.53294,51.38305],[-122.53294,51.38292],[-122.53291,51.38267],[-122.53291,51.38242],[-122.53294,51.38229],[-122.53297,51.38215],[-122.53302,51.382],[-122.53301,51.38187],[-122.53292,51.38173],[-122.53272,51.38153],[-122.53267,51.38146],[-122.53238,51.3813],[-122.53209,51.38112],[-122.53189,51.38093],[-122.53182,51.38081],[-122.53177,51.38069],[-122.53171,51.38057],[-122.53166,51.38045],[-122.5316,51.38033],[-122.53153,51.38022],[-122.53147,51.3801],[-122.53142,51.37997],[-122.53137,51.37984],[-122.53137,51.37978],[-122.53139,51.37962],[-122.53141,51.37957],[-122.53149,51.37943],[-122.53158,51.37931],[-122.53167,51.37919],[-122.53176,51.37907],[-122.5319,51.37885],[-122.53199,51.37873],[-122.53227,51.37839],[-122.53241,51.37817],[-122.5325,51.37805],[-122.53257,51.37791],[-122.53264,51.37779],[-122.5327,51.37767],[-122.53272,51.37754],[-122.53277,51.37719],[-122.53278,51.37706],[-122.53281,51.37693],[-122.53286,51.37681],[-122.53291,51.37668],[-122.53294,51.37656],[-122.53297,51.37646],[-122.533,51.37632],[-122.53303,51.37619],[-122.53308,51.37605],[-122.53317,51.37562],[-122.53323,51.37535],[-122.53326,51.37508],[-122.53329,51.37493],[-122.53332,51.37482],[-122.53335,51.37453],[-122.53336,51.37437],[-122.53337,51.37422],[-122.5334,51.37408],[-122.53342,51.37399],[-122.53343,51.37386],[-122.53343,51.37368],[-122.53345,51.37361],[-122.53346,51.37347],[-122.53347,51.37335],[-122.53348,51.37322],[-122.53348,51.37308],[-122.5335,51.37292],[-122.53351,51.37279],[-122.53352,51.37265],[-122.53353,51.37253],[-122.53353,51.3724],[-122.53356,51.37211],[-122.53357,51.37173],[-122.53354,51.37154],[-122.53351,51.37148],[-122.5335,51.37142],[-122.53346,51.3713],[-122.53342,51.37117],[-122.53336,51.37103],[-122.53325,51.37076],[-122.53323,51.3707],[-122.53321,51.37064],[-122.53312,51.37051],[-122.53309,51.37047],[-122.53298,51.37035],[-122.53278,51.37015],[-122.53249,51.36995],[-122.53235,51.36988],[-122.53221,51.36977],[-122.53208,51.36965],[-122.53198,51.36954],[-122.53168,51.36921],[-122.53156,51.36911],[-122.53127,51.36895],[-122.53114,51.36885],[-122.53106,51.36874],[-122.53096,51.36862],[-122.53079,51.36841],[-122.53067,51.36812],[-122.53056,51.36785],[-122.53048,51.36774],[-122.53019,51.36754],[-122.53004,51.36743],[-122.52969,51.36724],[-122.52938,51.36713],[-122.52908,51.36699],[-122.52875,51.3669],[-122.52853,51.36686],[-122.5283,51.36683],[-122.52812,51.36681],[-122.52792,51.3668],[-122.5277,51.36679],[-122.52747,51.36681],[-122.52704,51.36688],[-122.52664,51.36695],[-122.52642,51.36697],[-122.5262,51.367],[-122.52586,51.36712],[-122.52567,51.36717],[-122.52548,51.36724],[-122.52532,51.36733],[-122.52514,51.36751],[-122.52505,51.36757],[-122.52498,51.36757],[-122.52486,51.36757],[-122.52419,51.36757],[-122.52397,51.36759],[-122.52376,51.36762],[-122.52327,51.36765],[-122.52307,51.36768],[-122.52288,51.3677],[-122.52245,51.36779],[-122.52222,51.36782],[-122.52197,51.36783],[-122.52157,51.36785],[-122.52135,51.36787],[-122.52115,51.36788],[-122.52095,51.36793],[-122.52076,51.36798],[-122.52058,51.368],[-122.52039,51.36802],[-122.52029,51.36806],[-122.52009,51.36809],[-122.51992,51.36814],[-122.51968,51.36825],[-122.51964,51.36825],[-122.51957,51.36825],[-122.51947,51.36823],[-122.51936,51.3681],[-122.51903,51.36798],[-122.51885,51.36795],[-122.51874,51.36795],[-122.51857,51.36804],[-122.51828,51.36811],[-122.51808,51.36818],[-122.51786,51.36822],[-122.51753,51.36825],[-122.51741,51.36825],[-122.51733,51.36824],[-122.5171,51.36823],[-122.51688,51.36823],[-122.51665,51.36825],[-122.51644,51.36828],[-122.51624,51.3683],[-122.51602,51.36833],[-122.51567,51.36842],[-122.51553,51.3684],[-122.51544,51.36839],[-122.51529,51.36837],[-122.51506,51.36831],[-122.51487,51.36824],[-122.51473,51.36823],[-122.51447,51.3682],[-122.51414,51.36815],[-122.51404,51.36815],[-122.51395,51.36812],[-122.51377,51.3681],[-122.5136,51.36808],[-122.51338,51.36806],[-122.51318,51.36804],[-122.51296,51.36802],[-122.51273,51.36802],[-122.51253,51.36803],[-122.51232,51.36804],[-122.51209,51.36803],[-122.51174,51.36804],[-122.5114,51.368],[-122.5112,51.36797],[-122.51098,51.36795],[-122.51077,51.36794],[-122.51032,51.36794],[-122.50992,51.36795],[-122.50969,51.36795],[-122.50947,51.36796],[-122.50926,51.36796],[-122.50904,51.36794],[-122.50861,51.36787],[-122.50843,51.36784],[-122.50841,51.36784],[-122.50821,51.3678],[-122.50804,51.36777],[-122.50785,51.36772],[-122.50751,51.36764],[-122.50732,51.36757],[-122.50715,51.36751],[-122.50692,51.36744],[-122.50669,51.36736],[-122.50654,51.36728],[-122.50641,51.36718],[-122.50631,51.36708],[-122.50615,51.367],[-122.50598,51.36696]]}},
{"type":"Feature","properties":{"spotId":"E-grouse-walk-0023","kind":"roadside","km":3.05,"climbM":233,"name":"250 m NE of Borin Creek","flags":["Route enters a Motor Vehicle Closed Area: Thompson, Cariboo and Okanagan Alpines. Closed Year Round. Exemption: Snowmobiles exempt year round (January 1 to December 31). Synopsis map 1-82/24."]},"geometry":{"type":"LineString","coordinates":[[-122.50598,51.36696],[-122.50596,51.36696],[-122.50566,51.36688],[-122.50556,51.36686],[-122.50538,51.36685],[-122.50518,51.36686],[-122.50497,51.36691],[-122.50469,51.36697],[-122.50461,51.36701],[-122.50441,51.36704],[-122.50411,51.36707],[-122.50391,51.36707],[-122.50371,51.3671],[-122.50352,51.36716],[-122.50329,51.36727],[-122.50319,51.3673],[-122.50309,51.3673],[-122.5029,51.36725],[-122.50273,51.3672],[-122.50253,51.36714],[-122.50231,51.36709],[-122.50194,51.36709],[-122.50157,51.36711],[-122.50127,51.36712],[-122.50108,51.36714],[-122.50085,51.36716],[-122.50063,51.36719],[-122.5005,51.36719],[-122.50042,51.36721],[-122.5002,51.36727],[-122.49999,51.36729],[-122.49978,51.36729],[-122.4997,51.3673],[-122.4995,51.36726],[-122.49928,51.3672],[-122.49894,51.36709],[-122.49892,51.36709],[-122.49884,51.36707],[-122.49844,51.36698],[-122.49822,51.36692],[-122.49802,51.36684],[-122.49782,51.36675],[-122.49764,51.36667],[-122.49746,51.3666],[-122.49728,51.36652],[-122.49711,51.36647],[-122.49691,51.36643],[-122.49673,51.36639],[-122.49655,51.36636],[-122.49633,51.36633],[-122.49612,51.36633],[-122.4959,51.36632],[-122.49527,51.36632],[-122.49495,51.36633],[-122.49472,51.36633],[-122.49451,51.36634],[-122.49431,51.36635],[-122.49409,51.36638],[-122.49389,51.36641],[-122.49372,51.36647],[-122.49353,51.36648],[-122.49333,51.36648],[-122.49295,51.36653],[-122.49293,51.36653],[-122.49278,51.36655],[-122.49238,51.36658],[-122.49215,51.36658],[-122.49185,51.36659],[-122.49152,51.3666],[-122.49142,51.36662],[-122.49106,51.36662],[-122.49084,51.3666],[-122.49063,51.36659],[-122.49043,51.3666],[-122.49002,51.36667],[-122.48974,51.36672],[-122.48946,51.36678],[-122.48917,51.36683],[-122.48877,51.36687],[-122.48856,51.36687],[-122.48835,51.36689],[-122.48811,51.36687],[-122.48788,51.36683],[-122.48778,51.36681],[-122.48748,51.36663],[-122.48705,51.36636],[-122.48692,51.36627],[-122.48675,51.3662],[-122.48657,51.36615],[-122.48644,51.36608],[-122.48625,51.36597],[-122.48612,51.36589],[-122.48607,51.36585],[-122.48591,51.36564],[-122.48587,51.36558],[-122.48583,51.36545],[-122.4858,51.36532],[-122.48567,51.36519],[-122.48559,51.36508],[-122.48535,51.36487],[-122.4851,51.36468],[-122.48488,51.36449],[-122.48463,51.36428],[-122.48438,51.36409],[-122.48414,51.36389],[-122.48388,51.36369],[-122.48374,51.36361],[-122.48334,51.36347],[-122.48302,51.36336],[-122.48268,51.36322],[-122.48249,51.36313],[-122.48229,51.36304],[-122.48198,51.36291],[-122.48165,51.36281],[-122.48139,51.36273],[-122.48119,51.36266],[-122.481,51.3626],[-122.48082,51.36254],[-122.48048,51.3624],[-122.48023,51.36227],[-122.48005,51.36222],[-122.47987,51.36217],[-122.4797,51.36208],[-122.47956,51.36198],[-122.47943,51.36186],[-122.47933,51.36174],[-122.47928,51.36168],[-122.47923,51.36162],[-122.47896,51.36141],[-122.47864,51.3612],[-122.47842,51.36098],[-122.47835,51.36094],[-122.47814,51.36086],[-122.47792,51.36078],[-122.47752,51.36067],[-122.47732,51.36061],[-122.47714,51.36052],[-122.47691,51.36035],[-122.47665,51.36018],[-122.47651,51.36007],[-122.47638,51.35995],[-122.47611,51.35977],[-122.476,51.35966],[-122.47588,51.35954],[-122.4758,51.35943],[-122.47573,51.35932],[-122.47567,51.35919],[-122.47559,51.35892],[-122.47558,51.35879],[-122.47555,51.35867],[-122.47552,51.35853],[-122.47549,51.35839],[-122.47547,51.35827],[-122.47545,51.35816],[-122.47547,51.35802],[-122.47547,51.35789],[-122.47542,51.35775],[-122.47532,51.35761],[-122.47522,51.3575],[-122.47513,51.35737],[-122.47511,51.35724],[-122.47508,51.35711],[-122.47504,51.35699],[-122.47501,51.35686],[-122.47494,51.35674],[-122.47488,51.35662],[-122.47474,51.35641],[-122.47469,51.35622],[-122.47467,51.35608],[-122.47465,51.35602],[-122.47465,51.35573],[-122.47466,51.35563],[-122.47468,51.35551],[-122.47474,51.35526],[-122.47477,51.35511],[-122.4748,51.35502],[-122.47466,51.35486]]}},
{"type":"Feature","properties":{"spotId":"E-grouse-walk-0024","kind":"walk","km":0.9,"climbM":68,"name":"740 m SE of Borin Creek","flags":["Route enters a Motor Vehicle Closed Area: Thompson, Cariboo and Okanagan Alpines. Closed Year Round. Exemption: Snowmobiles exempt year round (January 1 to December 31). Synopsis map 1-82/24."]},"geometry":{"type":"LineString","coordinates":[[-122.52747,51.36681],[-122.52566,51.35879]]}},
{"type":"Feature","properties":{"spotId":"E-grouse-walk-0024","kind":"roadside","km":3.33,"climbM":262,"name":"740 m SE of Borin Creek","flags":["Route enters a Motor Vehicle Closed Area: Thompson, Cariboo and Okanagan Alpines. Closed Year Round. Exemption: Snowmobiles exempt year round (January 1 to December 31). Synopsis map 1-82/24."]},"geometry":{"type":"LineString","coordinates":[[-122.52566,51.35879],[-122.52537,51.35867],[-122.52523,51.35856],[-122.52512,51.35841],[-122.52511,51.35825],[-122.52461,51.35821],[-122.52425,51.35812],[-122.52374,51.35798],[-122.52329,51.35786],[-122.52281,51.35774],[-122.52249,51.35766],[-122.52228,51.35759],[-122.52206,51.35752],[-122.5217,51.35737],[-122.52133,51.35717],[-122.52084,51.35689],[-122.52011,51.35665],[-122.51972,51.35651],[-122.51944,51.35638],[-122.5192,51.35622],[-122.51906,51.35609],[-122.51881,51.35585],[-122.51863,51.35571],[-122.51819,51.35554],[-122.51783,51.35544],[-122.51726,51.35523],[-122.51678,51.35503],[-122.51642,51.35484],[-122.51624,51.35472],[-122.51609,51.35461],[-122.51586,51.35446],[-122.51555,51.35435],[-122.51509,51.35415],[-122.51482,51.35405],[-122.51459,51.35397],[-122.51418,51.35389],[-122.51383,51.35386],[-122.51304,51.35362],[-122.51254,51.35343],[-122.5122,51.35326],[-122.51183,51.35301],[-122.51161,51.35282],[-122.5113,51.35255],[-122.51117,51.35239],[-122.51106,51.35225],[-122.51094,51.35213],[-122.51084,51.35203],[-122.51072,51.35196],[-122.51045,51.35186],[-122.51023,51.35181],[-122.51004,51.35176],[-122.50946,51.35176],[-122.50907,51.35175],[-122.50878,51.35175],[-122.50851,51.35175],[-122.50817,51.35173],[-122.50797,51.35171],[-122.50774,51.35165],[-122.50751,51.35152],[-122.50731,51.35131],[-122.50714,51.35107],[-122.50698,51.35082],[-122.50682,51.35059],[-122.50672,51.35035],[-122.50665,51.3501],[-122.50646,51.34984],[-122.5063,51.34965],[-122.50604,51.34935],[-122.50593,51.34918],[-122.50578,51.34883],[-122.50566,51.3485],[-122.50545,51.34816],[-122.50524,51.34804],[-122.50498,51.34797],[-122.50483,51.34796],[-122.50461,51.34802],[-122.50439,51.34818],[-122.50392,51.34854],[-122.50331,51.34904],[-122.50272,51.34931],[-122.50249,51.34943],[-122.50221,51.34965],[-122.50175,51.3502],[-122.50127,51.35071],[-122.50087,51.35097],[-122.50059,51.35106],[-122.50021,51.35112],[-122.49974,51.35105],[-122.49924,51.35085],[-122.4987,51.35056],[-122.49786,51.35025],[-122.49738,51.35001],[-122.49684,51.34966],[-122.49655,51.34919],[-122.4964,51.34896],[-122.49632,51.34846],[-122.49624,51.34809],[-122.49613,51.34782],[-122.49602,51.34747],[-122.49604,51.34709],[-122.49618,51.34666],[-122.49626,51.34642],[-122.49639,51.34605],[-122.49652,51.34567],[-122.49673,51.34497]]}},
{"type":"Feature","properties":{"spotId":"E-grouse-walk-0027","kind":"walk","km":1.12,"climbM":70,"name":"1.3 km SE of Flapjack Peak","flags":["Route enters a Motor Vehicle Closed Area: Thompson, Cariboo and Okanagan Alpines. Closed Year Round. Exemption: Snowmobiles exempt year round (January 1 to December 31). Synopsis map 1-82/24."]},"geometry":{"type":"LineString","coordinates":[[-122.61574,51.29818],[-122.60041,51.30131]]}},
{"type":"Feature","properties":{"spotId":"E-grouse-walk-0027","kind":"roadside","km":6.6,"climbM":312,"name":"1.3 km SE of Flapjack Peak","flags":["Route enters a Motor Vehicle Closed Area: Thompson, Cariboo and Okanagan Alpines. Closed Year Round. Exemption: Snowmobiles exempt year round (January 1 to December 31). Synopsis map 1-82/24."]},"geometry":{"type":"LineString","coordinates":[[-122.60041,51.30131],[-122.59965,51.30155],[-122.59898,51.30192],[-122.59834,51.30251],[-122.59793,51.30284],[-122.59755,51.30298],[-122.59712,51.30318],[-122.59675,51.30339],[-122.59636,51.30355],[-122.59585,51.30372],[-122.59547,51.30384],[-122.59508,51.30395],[-122.59463,51.30402],[-122.59422,51.30396],[-122.59374,51.30389],[-122.59342,51.30383],[-122.5932,51.30379],[-122.593,51.30364],[-122.59295,51.30346],[-122.59298,51.30325],[-122.59298,51.303],[-122.59295,51.30274],[-122.59278,51.30239],[-122.5926,51.30205],[-122.59239,51.30166],[-122.59208,51.30142],[-122.59186,51.30135],[-122.59122,51.30109],[-122.59088,51.3009],[-122.59034,51.30061],[-122.58978,51.30035],[-122.58937,51.30019],[-122.58897,51.30011],[-122.5884,51.30003],[-122.58798,51.29997],[-122.58751,51.29997],[-122.58712,51.29997],[-122.58639,51.30001],[-122.58598,51.30004],[-122.5856,51.30004],[-122.58492,51.29998],[-122.58421,51.29994],[-122.58365,51.29989],[-122.58306,51.29987],[-122.58243,51.29987],[-122.58196,51.29985],[-122.58145,51.2998],[-122.58105,51.29974],[-122.58043,51.29969],[-122.57972,51.29962],[-122.57892,51.29967],[-122.57751,51.29986],[-122.57652,51.29999],[-122.57606,51.30011],[-122.57476,51.30026],[-122.57396,51.30044],[-122.57352,51.30054],[-122.57271,51.30059],[-122.57223,51.30056],[-122.57196,51.3005],[-122.57184,51.30038],[-122.5717,51.30028],[-122.57167,51.30019],[-122.57168,51.30003],[-122.57169,51.29986],[-122.5717,51.29972],[-122.57169,51.2995],[-122.57167,51.29936],[-122.57165,51.29913],[-122.57165,51.29896],[-122.57164,51.29865],[-122.57164,51.2985],[-122.57163,51.29827],[-122.57158,51.29804],[-122.57151,51.29788],[-122.57143,51.29773],[-122.5714,51.2976],[-122.57135,51.29723],[-122.57133,51.29663],[-122.57154,51.29629],[-122.57176,51.29595],[-122.57204,51.29556],[-122.57219,51.29536],[-122.57225,51.29509],[-122.57222,51.29481],[-122.57212,51.29439],[-122.572,51.29401],[-122.57193,51.29378],[-122.57183,51.29361],[-122.57168,51.2936],[-122.57143,51.29349],[-122.57124,51.29339],[-122.57094,51.29318],[-122.57073,51.29303],[-122.57055,51.2929],[-122.57036,51.29266],[-122.57023,51.29242],[-122.57014,51.29225],[-122.56999,51.29199],[-122.56985,51.29175],[-122.56962,51.29138],[-122.56959,51.29133],[-122.56942,51.29128],[-122.56922,51.29132],[-122.56904,51.29133],[-122.56891,51.29131],[-122.56878,51.29126],[-122.56864,51.29119],[-122.56845,51.29112],[-122.56823,51.29106],[-122.56803,51.29103],[-122.56792,51.29101],[-122.56772,51.29099],[-122.56747,51.29097],[-122.56716,51.29104],[-122.56683,51.29126],[-122.56663,51.29138],[-122.56644,51.29148],[-122.56627,51.29167],[-122.56582,51.29198],[-122.56559,51.29209],[-122.56526,51.29222],[-122.56481,51.29232],[-122.56429,51.29237],[-122.56376,51.29236],[-122.56322,51.29235],[-122.5629,51.29233],[-122.56253,51.29231],[-122.56222,51.29231],[-122.56191,51.29234],[-122.56169,51.29236],[-122.56146,51.29235],[-122.5613,51.29233],[-122.56115,51.29233],[-122.56096,51.29238],[-122.5608,51.29248],[-122.56074,51.2926],[-122.56066,51.29294],[-122.56064,51.29313],[-122.56064,51.29332],[-122.56068,51.29345],[-122.56073,51.29352],[-122.56064,51.2938],[-122.56057,51.29409],[-122.56045,51.29431],[-122.56012,51.29479],[-122.55986,51.29509],[-122.5596,51.29534],[-122.55931,51.29557],[-122.55911,51.29571],[-122.55891,51.29582],[-122.55871,51.29594],[-122.55848,51.29609],[-122.55823,51.29628],[-122.55804,51.29644],[-122.55783,51.29666],[-122.55766,51.2968],[-122.55748,51.29692],[-122.55721,51.29707],[-122.55694,51.29719],[-122.55647,51.29734],[-122.5561,51.29741],[-122.55571,51.29745],[-122.55536,51.29746],[-122.55483,51.29737],[-122.55458,51.29728],[-122.55439,51.29718],[-122.55411,51.29695],[-122.55391,51.29671],[-122.55383,51.29661],[-122.55373,51.29648],[-122.5536,51.29627],[-122.55354,51.29614],[-122.55344,51.29585],[-122.55341,51.29574],[-122.55335,51.2956],[-122.55323,51.29551],[-122.55301,51.29543],[-122.55278,51.29541],[-122.55249,51.29547],[-122.55232,51.29558],[-122.55216,51.29577],[-122.55198,51.29593],[-122.55168,51.29612],[-122.55138,51.29626],[-122.5511,51.29636],[-122.55078,51.29644],[-122.55046,51.29648],[-122.55012,51.2965],[-122.5499,51.29648],[-122.54971,51.29644],[-122.54933,51.29634],[-122.54896,51.29619],[-122.54878,51.2961],[-122.54855,51.29597],[-122.54833,51.29589],[-122.54803,51.29588],[-122.54776,51.29593],[-122.54752,51.29606],[-122.54734,51.29616],[-122.54705,51.29622],[-122.54664,51.29617],[-122.54647,51.2961],[-122.5463,51.29597],[-122.54614,51.29575],[-122.54594,51.29552],[-122.54575,51.29533],[-122.54562,51.2952],[-122.54528,51.2949],[-122.54488,51.2946],[-122.54448,51.29434],[-122.54387,51.29399],[-122.54359,51.29382],[-122.54328,51.29369],[-122.54303,51.2936],[-122.54261,51.2935],[-122.54216,51.29343],[-122.54157,51.29335],[-122.54106,51.29329],[-122.54036,51.29322],[-122.53954,51.29317],[-122.53913,51.29314],[-122.53871,51.29306],[-122.53795,51.2929],[-122.53723,51.29273],[-122.53697,51.29266],[-122.5367,51.29257],[-122.53643,51.29241],[-122.53633,51.29235]]}},
{"type":"Feature","properties":{"spotId":"E-moose-drive-0054","kind":"walk","km":0.1,"climbM":0,"name":"1.7 km S of Fairless Creek","flags":[]},"geometry":{"type":"LineString","coordinates":[[-122.57237,51.33157],[-122.57118,51.33102]]}},
{"type":"Feature","properties":{"spotId":"E-moose-walk-0101","kind":"walk","km":4.06,"climbM":101,"name":"2.5 km E of Churn Creek","flags":["Route enters a Motor Vehicle Closed Area: Thompson, Cariboo and Okanagan Alpines. Closed Year Round. Exemption: Snowmobiles exempt year round (January 1 to December 31). Synopsis map 1-82/24."]},"geometry":{"type":"LineString","coordinates":[[-122.53374,51.38844],[-122.59129,51.39475]]}},
{"type":"Feature","properties":{"spotId":"E-moose-walk-0113","kind":"walk","km":3.04,"climbM":103,"name":"4.4 km S of Flapjack Peak","flags":[]},"geometry":{"type":"LineString","coordinates":[[-122.61952,51.2952],[-122.59899,51.27111]]}}
]}
