{"type":"FeatureCollection","features":[
{"type":"Feature","properties":{"spotId":"D-grouse-atv-0048","kind":"walk","km":0.32,"climbM":13,"name":"By Rendell Creek","flags":[]},"geometry":{"type":"LineString","coordinates":[[-118.69273,49.71257],[-118.69712,49.71204]]}},
{"type":"Feature","properties":{"spotId":"D-grouse-atv-0048","kind":"ride","km":6.67,"climbM":226,"name":"By Rendell Creek","flags":[]},"geometry":{"type":"LineString","coordinates":[[-118.69712,49.71204],[-118.69695,49.71215],[-118.69665,49.71219],[-118.69639,49.71219],[-118.69621,49.71224],[-118.69611,49.71227],[-118.69598,49.71229],[-118.69582,49.71233],[-118.69568,49.71235],[-118.69555,49.7124],[-118.69529,49.71249],[-118.69509,49.71259],[-118.6948,49.71271],[-118.6945,49.71284],[-118.69429,49.71297],[-118.69396,49.71316],[-118.69379,49.71333],[-118.69373,49.71352],[-118.69368,49.71374],[-118.69362,49.71391],[-118.69356,49.71408],[-118.69355,49.71435],[-118.69355,49.71455],[-118.69359,49.71467],[-118.6936,49.71478],[-118.6936,49.71481],[-118.69362,49.71486],[-118.69369,49.71494],[-118.69373,49.71502],[-118.69374,49.71514],[-118.69373,49.7154],[-118.69368,49.7156],[-118.69359,49.71576],[-118.69351,49.71587],[-118.69331,49.71616],[-118.69321,49.71636],[-118.69319,49.71643],[-118.69314,49.71657],[-118.69316,49.71674],[-118.69321,49.71694],[-118.69326,49.71712],[-118.69342,49.71736],[-118.69355,49.71769],[-118.69366,49.71804],[-118.6937,49.71829],[-118.69381,49.71849],[-118.69383,49.71875],[-118.69375,49.71904],[-118.69383,49.71946],[-118.69386,49.71964],[-118.69396,49.71988],[-118.69409,49.72],[-118.69424,49.72013],[-118.69433,49.72021],[-118.69436,49.72033],[-118.69435,49.72059],[-118.69426,49.72092],[-118.69421,49.72103],[-118.69402,49.72136],[-118.69383,49.7217],[-118.6935,49.72195],[-118.69313,49.72222],[-118.69277,49.72242],[-118.69224,49.72271],[-118.69196,49.72293],[-118.69182,49.72319],[-118.69172,49.72357],[-118.69163,49.72382],[-118.69159,49.72409],[-118.69163,49.72434],[-118.69163,49.72449],[-118.69162,49.72472],[-118.69158,49.72493],[-118.69152,49.7251],[-118.69135,49.72532],[-118.69123,49.7255],[-118.69109,49.72561],[-118.69093,49.72584],[-118.69083,49.72596],[-118.69073,49.72604],[-118.69063,49.72613],[-118.69054,49.7262],[-118.69044,49.72633],[-118.69031,49.72657],[-118.6902,49.72685],[-118.69001,49.72723],[-118.68982,49.72767],[-118.68976,49.72786],[-118.68979,49.72816],[-118.68982,49.72838],[-118.68988,49.7287],[-118.68989,49.72901],[-118.68999,49.72927],[-118.69005,49.72944],[-118.69007,49.72961],[-118.69006,49.72973],[-118.69008,49.72991],[-118.69015,49.73023],[-118.69016,49.73068],[-118.69024,49.73099],[-118.69032,49.73126],[-118.69038,49.73154],[-118.69044,49.73178],[-118.69056,49.73228],[-118.69065,49.73249],[-118.69066,49.73265],[-118.69062,49.73299],[-118.69067,49.73325],[-118.69059,49.73364],[-118.69051,49.73388],[-118.69037,49.7343],[-118.69015,49.73477],[-118.68998,49.73506],[-118.68985,49.73532],[-118.6895,49.73576],[-118.68919,49.7363],[-118.68874,49.73704],[-118.68825,49.73777],[-118.68759,49.73854],[-118.68727,49.73902],[-118.68708,49.73931],[-118.6868,49.73957],[-118.68623,49.74012],[-118.68564,49.74069],[-118.6851,49.74116],[-118.68493,49.74129],[-118.68487,49.74143],[-118.68482,49.74168],[-118.68472,49.74223],[-118.68453,49.7433],[-118.68449,49.74395],[-118.68444,49.74417],[-118.68439,49.74434],[-118.68434,49.74446],[-118.68421,49.7448],[-118.68409,49.74506],[-118.68396,49.74533],[-118.68394,49.74537],[-118.68382,49.7458],[-118.6837,49.74612],[-118.68365,49.74622],[-118.68349,49.74641],[-118.68338,49.74666],[-118.68325,49.74682],[-118.68309,49.74699],[-118.68306,49.74701],[-118.68292,49.74718],[-118.68288,49.74721],[-118.68283,49.74727],[-118.68279,49.74737],[-118.68278,49.74744],[-118.68277,49.74756],[-118.68274,49.74764],[-118.68273,49.74765],[-118.68268,49.74772],[-118.68247,49.7479],[-118.68221,49.74806],[-118.68213,49.74813],[-118.68209,49.74822],[-118.68201,49.74847],[-118.68185,49.74886],[-118.68172,49.74912],[-118.68158,49.7495],[-118.68143,49.7497],[-118.68127,49.74992],[-118.68091,49.7503],[-118.68052,49.75075],[-118.68022,49.75123],[-118.68008,49.7515],[-118.68,49.75181],[-118.67988,49.75234],[-118.67985,49.75269],[-118.67975,49.75324],[-118.67965,49.75371],[-118.67958,49.75407],[-118.6795,49.75445],[-118.6794,49.75486],[-118.6793,49.75531],[-118.67917,49.75564],[-118.67899,49.75587],[-118.67873,49.75609],[-118.67857,49.75626],[-118.67836,49.75643],[-118.67814,49.75668],[-118.6777,49.75703],[-118.67712,49.75755],[-118.67667,49.75797],[-118.67621,49.75842],[-118.6759,49.75865],[-118.67555,49.75897],[-118.67544,49.75907],[-118.67417,49.75974],[-118.67334,49.76025],[-118.67297,49.76052],[-118.67268,49.76087],[-118.67249,49.76114],[-118.67251,49.76165],[-118.67254,49.76208],[-118.67262,49.76263],[-118.67267,49.76331],[-118.67268,49.76364],[-118.67272,49.76387],[-118.67268,49.76397],[-118.67265,49.76401],[-118.67251,49.76418],[-118.67238,49.76439],[-118.6722,49.76458],[-118.67205,49.76475],[-118.67188,49.76501],[-118.67168,49.76521],[-118.67147,49.76551],[-118.67129,49.76585],[-118.67118,49.76608],[-118.67114,49.76615]]}},
{"type":"Feature","properties":{"spotId":"D-grouse-drive-0031","kind":"roadside","km":3.4,"climbM":179,"name":"By Goatskin Creek","flags":[]},"geometry":{"type":"LineString","coordinates":[[-118.67164,49.71303],[-118.67174,49.71324],[-118.67153,49.71432],[-118.67136,49.71464],[-118.6711,49.71515],[-118.67102,49.71532],[-118.67092,49.71553],[-118.67065,49.71581],[-118.67045,49.71603],[-118.67042,49.71606],[-118.67038,49.71611],[-118.67037,49.71612],[-118.66986,49.71637],[-118.66946,49.71664],[-118.66892,49.71723],[-118.6688,49.71735],[-118.66856,49.71775],[-118.6682,49.71799],[-118.66793,49.7183],[-118.66789,49.71833],[-118.66744,49.71867],[-118.66723,49.71885],[-118.6668,49.7193],[-118.66667,49.71951],[-118.66626,49.71975],[-118.66584,49.72008],[-118.66558,49.72022],[-118.66505,49.72055],[-118.66479,49.72095],[-118.66438,49.72117],[-118.66403,49.72142],[-118.66399,49.72155],[-118.66387,49.72195],[-118.6635,49.7222],[-118.66326,49.72243],[-118.66297,49.72295],[-118.66295,49.72307],[-118.66292,49.72337],[-118.66271,49.72355],[-118.66254,49.72381],[-118.66219,49.72407],[-118.66196,49.72458],[-118.66191,49.72469],[-118.66191,49.72474],[-118.66191,49.72485],[-118.66177,49.72521],[-118.66177,49.72544],[-118.6617,49.72568],[-118.66166,49.72572],[-118.66161,49.7258],[-118.66157,49.72582],[-118.66135,49.72617],[-118.661,49.72654],[-118.6606,49.72718],[-118.66042,49.7276],[-118.66029,49.72785],[-118.66023,49.72796],[-118.66008,49.72838],[-118.65974,49.72883],[-118.65952,49.72918],[-118.65935,49.72961],[-118.6591,49.72996],[-118.65866,49.73041],[-118.65859,49.73049],[-118.65823,49.73078],[-118.65773,49.73119],[-118.65719,49.73167],[-118.65695,49.73193],[-118.65661,49.73212],[-118.65649,49.73218],[-118.65624,49.73227],[-118.65603,49.73237],[-118.65601,49.73239],[-118.65591,49.73245],[-118.65587,49.73247],[-118.65582,49.73249],[-118.65551,49.73277],[-118.65525,49.7331],[-118.65491,49.73346],[-118.65487,49.73366],[-118.65469,49.73392],[-118.65445,49.73423],[-118.65435,49.73435],[-118.65425,49.7345],[-118.65396,49.73473],[-118.65353,49.73499],[-118.65323,49.73526],[-118.65314,49.73541],[-118.65301,49.73559],[-118.65293,49.73575],[-118.65279,49.73599],[-118.65273,49.73606],[-118.65248,49.73626],[-118.65232,49.73645],[-118.65224,49.73668],[-118.65205,49.73692],[-118.6517,49.73722],[-118.65154,49.73742],[-118.65122,49.73767],[-118.6511,49.73786],[-118.65109,49.73789],[-118.65084,49.73803],[-118.6506,49.73827],[-118.65036,49.7385],[-118.65016,49.73875],[-118.64995,49.73903],[-118.64977,49.73925]]}}
]}
