{"type":"FeatureCollection","features":[
{"type":"Feature","properties":{"spotId":"D-deer-atv-0074","kind":"ride","km":1.43,"climbM":5,"name":"2.7 km S of Yankee Flats","flags":[]},"geometry":{"type":"LineString","coordinates":[[-119.37568,50.49417],[-119.37573,50.4942],[-119.3761,50.49444],[-119.37633,50.49464],[-119.37648,50.49481],[-119.37658,50.49501],[-119.37653,50.49513],[-119.37643,50.49524],[-119.37611,50.49499],[-119.37578,50.49475],[-119.37547,50.49466],[-119.37506,50.49463],[-119.3748,50.49465],[-119.37454,50.49462],[-119.37414,50.4945],[-119.37387,50.49435],[-119.37356,50.49418],[-119.37313,50.49396],[-119.37262,50.49371],[-119.3721,50.49344],[-119.37199,50.49328],[-119.37203,50.49299],[-119.37202,50.49275],[-119.37178,50.49265],[-119.37139,50.49251],[-119.37116,50.49235],[-119.37102,50.49221],[-119.37072,50.492],[-119.37034,50.49174],[-119.37013,50.4916],[-119.37001,50.49151],[-119.36992,50.49138],[-119.36976,50.4912],[-119.36954,50.49106],[-119.36937,50.49102],[-119.36927,50.49126],[-119.36934,50.49156],[-119.36937,50.49183],[-119.36923,50.49208],[-119.36898,50.49222],[-119.36871,50.49239],[-119.36856,50.49254],[-119.36844,50.49267],[-119.36825,50.49268],[-119.36804,50.49263],[-119.36789,50.49247],[-119.36782,50.49225],[-119.36769,50.49202],[-119.36758,50.49186],[-119.36751,50.49168],[-119.36747,50.49147],[-119.36744,50.49134],[-119.36738,50.49121],[-119.36727,50.49102],[-119.36719,50.49085],[-119.36718,50.49073],[-119.36721,50.49061],[-119.36721,50.49047],[-119.36718,50.49034],[-119.36707,50.49019],[-119.36687,50.48994]]}},
{"type":"Feature","properties":{"spotId":"D-deer-atv-0074","kind":"walk","km":0.24,"climbM":50,"name":"2.7 km S of Yankee Flats","flags":[]},"geometry":{"type":"LineString","coordinates":[[-119.37568,50.49417],[-119.3781,50.49267]]}},
{"type":"Feature","properties":{"spotId":"D-deer-atv-0153","kind":"ride","km":5.49,"climbM":626,"name":"290 m NE of Gurney Creek","flags":["Route crosses reserve land: OKANAGAN 1. Get permission from the band office to hunt on or across it (synopsis page 9, 99%).","Route crosses private land (ParcelMap BC, updated 2026-09-26): get permission first or go around."]},"geometry":{"type":"LineString","coordinates":[[-119.3367,50.42167],[-119.33698,50.42154],[-119.33714,50.42139],[-119.33718,50.42125],[-119.33719,50.42119],[-119.33719,50.42111],[-119.33721,50.42098],[-119.3372,50.42081],[-119.33713,50.42053],[-119.33722,50.4203],[-119.33738,50.42022],[-119.33752,50.42016],[-119.33781,50.42012],[-119.33825,50.42011],[-119.33859,50.42008],[-119.33889,50.42002],[-119.33914,50.41996],[-119.33924,50.41994],[-119.33946,50.41977],[-119.33937,50.41952],[-119.33923,50.41925],[-119.33904,50.41904],[-119.33872,50.4188],[-119.33844,50.41858],[-119.33822,50.4184],[-119.33786,50.41828],[-119.33738,50.41827],[-119.33698,50.41829],[-119.33659,50.41811],[-119.33628,50.41783],[-119.33593,50.41762],[-119.33597,50.41758],[-119.33598,50.41755],[-119.33599,50.41752],[-119.33599,50.4174],[-119.33595,50.41727],[-119.33586,50.41713],[-119.33583,50.41709],[-119.33584,50.41705],[-119.33621,50.41704],[-119.33627,50.41705],[-119.33667,50.41716],[-119.33687,50.4172],[-119.33694,50.4172],[-119.33711,50.41727],[-119.33714,50.41728],[-119.33717,50.41732],[-119.3374,50.41736],[-119.33752,50.41738],[-119.33758,50.41738],[-119.33768,50.4174],[-119.33782,50.41747],[-119.33787,50.41748],[-119.33794,50.41748],[-119.33801,50.41746],[-119.33809,50.41741],[-119.33812,50.4173],[-119.33812,50.41726],[-119.33824,50.41713],[-119.3383,50.41709],[-119.33831,50.41705],[-119.33814,50.41695],[-119.33809,50.41694],[-119.33803,50.41691],[-119.33802,50.41685],[-119.33802,50.41683],[-119.338,50.41658],[-119.33794,50.41642],[-119.3379,50.41628],[-119.33788,50.41612],[-119.33787,50.41604],[-119.33783,50.41596],[-119.33781,50.41574],[-119.33785,50.41546],[-119.33789,50.41537],[-119.33798,50.41518],[-119.33808,50.41499],[-119.33811,50.41481],[-119.33812,50.41459],[-119.33813,50.41419],[-119.33826,50.41397],[-119.3383,50.41395],[-119.3384,50.41399],[-119.33855,50.41416],[-119.33878,50.41439],[-119.3389,50.41445],[-119.33898,50.41444],[-119.33909,50.41427],[-119.33918,50.41389],[-119.33922,50.41362],[-119.3392,50.41337],[-119.33914,50.41303],[-119.33912,50.41271],[-119.33917,50.41244],[-119.33915,50.41215],[-119.33878,50.41183],[-119.33855,50.41167],[-119.33835,50.41153],[-119.33824,50.41127],[-119.33827,50.41103],[-119.33838,50.41082],[-119.33853,50.41061],[-119.33863,50.4102],[-119.33871,50.40999],[-119.33878,50.40977],[-119.33913,50.40942],[-119.33946,50.40925],[-119.33949,50.40933],[-119.33977,50.40954],[-119.34007,50.4097],[-119.34029,50.40989],[-119.34044,50.4101],[-119.34051,50.41029],[-119.34055,50.41051],[-119.34052,50.41077],[-119.34062,50.411],[-119.3409,50.41114],[-119.34118,50.41125],[-119.34121,50.41137],[-119.34157,50.41145],[-119.34185,50.41151],[-119.34217,50.41161],[-119.3426,50.41184],[-119.34285,50.41199],[-119.3431,50.41208],[-119.34344,50.41205],[-119.34358,50.41204],[-119.34396,50.41194],[-119.34408,50.41169],[-119.34425,50.41128],[-119.34455,50.41097],[-119.34495,50.41078],[-119.34544,50.41064],[-119.34588,50.41045],[-119.34619,50.41035],[-119.34654,50.41039],[-119.34683,50.41057],[-119.34701,50.4108],[-119.34719,50.41099],[-119.34732,50.41115],[-119.34757,50.41105],[-119.34792,50.41068],[-119.3482,50.41037],[-119.3485,50.41013],[-119.34873,50.40996],[-119.34884,50.40989],[-119.34888,50.40989],[-119.34895,50.40991],[-119.34896,50.40991],[-119.34913,50.41005],[-119.3494,50.41044],[-119.34982,50.41065],[-119.35019,50.41085],[-119.35029,50.41107],[-119.35031,50.41129],[-119.35038,50.41175],[-119.35027,50.41218],[-119.35018,50.41249],[-119.35031,50.41284],[-119.3505,50.41298],[-119.35067,50.41309],[-119.35102,50.41306],[-119.35148,50.41293],[-119.35171,50.41287],[-119.35194,50.41279],[-119.35226,50.41251],[-119.35256,50.41224],[-119.35269,50.41217],[-119.35286,50.41213],[-119.35319,50.41219],[-119.35351,50.41238],[-119.35354,50.41241],[-119.3539,50.41268],[-119.35426,50.41285],[-119.35448,50.41291],[-119.35471,50.41303],[-119.35501,50.41338],[-119.35516,50.41374],[-119.35531,50.41393],[-119.35545,50.41406],[-119.35575,50.41409],[-119.35624,50.41407],[-119.35676,50.41411],[-119.35714,50.4142],[-119.35747,50.41433],[-119.35776,50.41449],[-119.35794,50.41473],[-119.35806,50.41505],[-119.35817,50.41536],[-119.35841,50.41563],[-119.35856,50.41574],[-119.35873,50.41582],[-119.35909,50.41577],[-119.35937,50.41558],[-119.35973,50.41544],[-119.36033,50.41541],[-119.36087,50.41527],[-119.36129,50.41521],[-119.3616,50.41529],[-119.36196,50.41543],[-119.36229,50.41558],[-119.3626,50.41576],[-119.36282,50.41599],[-119.36294,50.41617],[-119.36312,50.4164],[-119.36346,50.41667],[-119.36374,50.41687],[-119.36401,50.41702],[-119.36449,50.41719],[-119.36487,50.41736],[-119.36511,50.41749],[-119.36546,50.41757],[-119.36584,50.41755],[-119.36616,50.41752],[-119.36652,50.4176],[-119.36685,50.4177],[-119.36718,50.41782],[-119.3674,50.41808],[-119.36741,50.41848],[-119.36738,50.41881],[-119.36762,50.41907],[-119.36793,50.41931],[-119.3681,50.41943],[-119.36839,50.41954],[-119.369,50.41957],[-119.36948,50.41958],[-119.36986,50.4197],[-119.37018,50.41984],[-119.37029,50.41989]]}},
{"type":"Feature","properties":{"spotId":"D-deer-atv-0153","kind":"walk","km":0.22,"climbM":6,"name":"290 m NE of Gurney Creek","flags":["Route crosses reserve land: OKANAGAN 1. Get permission from the band office to hunt on or across it (synopsis page 9, 99%).","Route crosses private land (ParcelMap BC, updated 2026-09-26): get permission first or go around."]},"geometry":{"type":"LineString","coordinates":[[-119.37029,50.41989],[-119.37206,50.41831]]}},
{"type":"Feature","properties":{"spotId":"D-deer-backcountry-0001","kind":"backcountry","km":5.13,"climbM":531,"name":"700 m N of Newport Creek","flags":["Route crosses reserve land: OKANAGAN 1. Get permission from the band office to hunt on or across it (synopsis page 9, 99%).","Route crosses private land (ParcelMap BC, updated 2026-09-26): get permission first or go around."]},"geometry":{"type":"LineString","coordinates":[[-119.34174,50.38401],[-119.36924,50.34142]]}},
{"type":"Feature","properties":{"spotId":"D-deer-drive-0053","kind":"walk","km":0.24,"climbM":0,"name":"1.1 km SW of Salmon River","flags":[]},"geometry":{"type":"LineString","coordinates":[[-119.36428,50.4931],[-119.36095,50.49329]]}},
{"type":"Feature","properties":{"spotId":"D-deer-drive-0163","kind":"walk","km":0.14,"climbM":12,"name":"370 m S of McAchaney Creek","flags":[]},"geometry":{"type":"LineString","coordinates":[[-119.38256,50.46006],[-119.38271,50.46136]]}},
{"type":"Feature","properties":{"spotId":"D-deer-drive-0167","kind":"walk","km":0.04,"climbM":7,"name":"1.9 km NW of Glenemma","flags":[]},"geometry":{"type":"LineString","coordinates":[[-119.37389,50.47495],[-119.37358,50.47526]]}},
{"type":"Feature","properties":{"spotId":"D-deer-walk-0032","kind":"walk","km":2.98,"climbM":376,"name":"By Irish Creek","flags":["Route crosses private land (ParcelMap BC, updated 2026-09-26): get permission first or go around."]},"geometry":{"type":"LineString","coordinates":[[-119.34177,50.39902],[-119.38244,50.40539]]}},
{"type":"Feature","properties":{"spotId":"D-deer-walk-0082","kind":"walk","km":2.15,"climbM":195,"name":"910 m W of Irish Creek","flags":["Route crosses reserve land: OKANAGAN 1. Get permission from the band office to hunt on or across it (synopsis page 9, 99%).","Route crosses private land (ParcelMap BC, updated 2026-09-26): get permission first or go around."]},"geometry":{"type":"LineString","coordinates":[[-119.34174,50.38401],[-119.35829,50.36784]]}},
{"type":"Feature","properties":{"spotId":"D-deer-walk-0114","kind":"walk","km":0.92,"climbM":90,"name":"460 m W of Irish Creek","flags":["Route crosses private land (ParcelMap BC, updated 2026-09-26): get permission first or go around."]},"geometry":{"type":"LineString","coordinates":[[-119.34176,50.39207],[-119.35473,50.392]]}},
{"type":"Feature","properties":{"spotId":"D-deer-walk-0116","kind":"walk","km":4.17,"climbM":736,"name":"700 m NE of Bradley Creek","flags":[]},"geometry":{"type":"LineString","coordinates":[[-119.44647,50.31974],[-119.39053,50.33097]]}},
{"type":"Feature","properties":{"spotId":"D-deer-walk-0117","kind":"walk","km":3.28,"climbM":422,"name":"1.6 km W of Irish Creek","flags":["Route crosses reserve land: OKANAGAN 1. Get permission from the band office to hunt on or across it (synopsis page 9, 99%).","Route crosses private land (ParcelMap BC, updated 2026-09-26): get permission first or go around."]},"geometry":{"type":"LineString","coordinates":[[-119.34174,50.38401],[-119.36396,50.35817]]}},
{"type":"Feature","properties":{"spotId":"D-deer-walk-0181","kind":"walk","km":0.38,"climbM":58,"name":"1.1 km NE of McAchaney Creek","flags":[]},"geometry":{"type":"LineString","coordinates":[[-119.40083,50.47709],[-119.39972,50.48043]]}},
{"type":"Feature","properties":{"spotId":"D-deer-walk-0195","kind":"walk","km":0.5,"climbM":78,"name":"2.0 km NE of McAchaney Creek","flags":[]},"geometry":{"type":"LineString","coordinates":[[-119.38521,50.47973],[-119.38643,50.48415]]}},
{"type":"Feature","properties":{"spotId":"D-deer-walk-0206","kind":"walk","km":0.46,"climbM":18,"name":"1.3 km W of Glenemma","flags":["Route crosses private land (ParcelMap BC, updated 2026-09-26): get permission first or go around."]},"geometry":{"type":"LineString","coordinates":[[-119.36358,50.46545],[-119.36903,50.46776]]}},
{"type":"Feature","properties":{"spotId":"D-moose-walk-0071","kind":"walk","km":4.34,"climbM":756,"name":"1.0 km NE of Newport Creek","flags":["Route crosses private land (ParcelMap BC, updated 2026-09-26): get permission first or go around."]},"geometry":{"type":"LineString","coordinates":[[-119.34183,50.38407],[-119.39888,50.37028]]}},
{"type":"Feature","properties":{"spotId":"D-moose-walk-0095","kind":"walk","km":3.64,"climbM":476,"name":"2.6 km NW of Okanagan Lake","flags":["Route crosses reserve land: OKANAGAN 1. Get permission from the band office to hunt on or across it (synopsis page 9, 99%).","Route crosses private land (ParcelMap BC, updated 2026-09-26): get permission first or go around."]},"geometry":{"type":"LineString","coordinates":[[-119.34174,50.38401],[-119.36153,50.35382]]}},
{"type":"Feature","properties":{"spotId":"D-moose-walk-0103","kind":"walk","km":4.95,"climbM":838,"name":"300 m NE of Newport Creek","flags":["Route crosses private land (ParcelMap BC, updated 2026-09-26): get permission first or go around."]},"geometry":{"type":"LineString","coordinates":[[-119.45375,50.33265],[-119.39158,50.35269]]}},
{"type":"Feature","properties":{"spotId":"D-quail-walk-0024","kind":"walk","km":0.87,"climbM":76,"name":"340 m N of William Creek","flags":["Route crosses private land (ParcelMap BC, updated 2026-09-26): get permission first or go around."]},"geometry":{"type":"LineString","coordinates":[[-119.34182,50.38653],[-119.35412,50.38655]]}},
{"type":"Feature","properties":{"spotId":"D-quail-walk-0035","kind":"walk","km":2.31,"climbM":77,"name":"780 m W of Irish Creek","flags":["Route crosses reserve land: OKANAGAN 1. Get permission from the band office to hunt on or across it (synopsis page 9, 99%).","Route crosses private land (ParcelMap BC, updated 2026-09-26): get permission first or go around."]},"geometry":{"type":"LineString","coordinates":[[-119.34174,50.38401],[-119.35449,50.36491]]}}
]}
