{"type":"FeatureCollection","features":[
{"type":"Feature","properties":{"spotId":"D-grouse-atv-0018","kind":"walk","km":0.75,"climbM":1,"name":"By Pooley Creek","flags":[]},"geometry":{"type":"LineString","coordinates":[[-119.3398,49.74102],[-119.3385,49.74775]]}},
{"type":"Feature","properties":{"spotId":"D-grouse-atv-0018","kind":"ride","km":3.42,"climbM":39,"name":"By Pooley Creek","flags":[]},"geometry":{"type":"LineString","coordinates":[[-119.3385,49.74775],[-119.3384,49.74777],[-119.33831,49.7478],[-119.33824,49.74782],[-119.33815,49.7479],[-119.33811,49.74797],[-119.3381,49.74804],[-119.33807,49.74811],[-119.3381,49.74873],[-119.33801,49.7488],[-119.33798,49.74886],[-119.33798,49.749],[-119.33788,49.74904],[-119.33773,49.74907],[-119.33765,49.74914],[-119.33763,49.7492],[-119.33762,49.74929],[-119.33757,49.74943],[-119.33757,49.74951],[-119.33755,49.74956],[-119.33755,49.74958],[-119.33754,49.74974],[-119.3375,49.7498],[-119.33738,49.7499],[-119.33722,49.75008],[-119.3372,49.75016],[-119.3371,49.75021],[-119.33683,49.75028],[-119.33676,49.75032],[-119.33671,49.75038],[-119.33668,49.75054],[-119.33669,49.75084],[-119.33665,49.75096],[-119.33657,49.75116],[-119.33654,49.75122],[-119.3365,49.75145],[-119.33645,49.75152],[-119.33637,49.75159],[-119.33629,49.75169],[-119.33617,49.75189],[-119.33612,49.75198],[-119.33603,49.75215],[-119.336,49.75233],[-119.33599,49.75247],[-119.33599,49.75252],[-119.33596,49.7527],[-119.33594,49.75281],[-119.33592,49.75302],[-119.33591,49.75308],[-119.33591,49.75315],[-119.33592,49.75327],[-119.33591,49.75347],[-119.33589,49.75358],[-119.33588,49.75365],[-119.33563,49.7537],[-119.33548,49.75376],[-119.33539,49.75383],[-119.33532,49.7539],[-119.33523,49.75405],[-119.33522,49.7541],[-119.33518,49.75416],[-119.3351,49.75435],[-119.33506,49.75443],[-119.33492,49.75464],[-119.33484,49.75486],[-119.33479,49.75497],[-119.3347,49.75507],[-119.33449,49.75524],[-119.33434,49.7554],[-119.3342,49.7556],[-119.33409,49.75573],[-119.33397,49.75596],[-119.33385,49.75619],[-119.33383,49.75623],[-119.33373,49.75632],[-119.33367,49.75641],[-119.33358,49.75658],[-119.33354,49.75664],[-119.33342,49.75682],[-119.33332,49.75694],[-119.33325,49.75716],[-119.33312,49.75737],[-119.33297,49.75759],[-119.3329,49.7577],[-119.33283,49.75785],[-119.33278,49.75794],[-119.33265,49.75809],[-119.33251,49.75825],[-119.33243,49.75829],[-119.33216,49.75825],[-119.33198,49.75825],[-119.33166,49.75826],[-119.33135,49.75825],[-119.33103,49.75825],[-119.33074,49.75826],[-119.33055,49.75823],[-119.33037,49.75823],[-119.33027,49.75821],[-119.32995,49.75813],[-119.3295,49.75803],[-119.32917,49.75797],[-119.32905,49.75795],[-119.32875,49.75788],[-119.32836,49.75778],[-119.32808,49.75773],[-119.32786,49.75772],[-119.32766,49.75769],[-119.32734,49.75768],[-119.32724,49.75768],[-119.32708,49.7577],[-119.32694,49.75776],[-119.32667,49.75783],[-119.32647,49.75782],[-119.32615,49.75768],[-119.32585,49.75761],[-119.32563,49.75753],[-119.32543,49.75744],[-119.32533,49.7574],[-119.32516,49.75733],[-119.32482,49.75714],[-119.32455,49.757],[-119.32443,49.75693],[-119.32422,49.75684],[-119.32405,49.75683],[-119.32384,49.75686],[-119.32362,49.7569],[-119.32332,49.75698],[-119.32312,49.75703],[-119.32278,49.75704],[-119.32267,49.75705],[-119.32244,49.75706],[-119.32219,49.75707],[-119.32188,49.75708],[-119.32163,49.75704],[-119.3215,49.757],[-119.32139,49.75695],[-119.32123,49.75683],[-119.32113,49.75679],[-119.32078,49.7567],[-119.32044,49.75661],[-119.32033,49.75658],[-119.32022,49.75656],[-119.3201,49.75656],[-119.31981,49.7566],[-119.31967,49.75661],[-119.31942,49.75663],[-119.31922,49.75663],[-119.31911,49.75662],[-119.31876,49.75646],[-119.31867,49.75643],[-119.31847,49.75633],[-119.31822,49.7562],[-119.31808,49.75615],[-119.31781,49.75614],[-119.31749,49.75616],[-119.31724,49.75618],[-119.31698,49.7562],[-119.31673,49.75621],[-119.31638,49.75619],[-119.3162,49.75618],[-119.31589,49.75613],[-119.3157,49.75611],[-119.31544,49.75616],[-119.31534,49.75617],[-119.31516,49.75615],[-119.31494,49.75609],[-119.31473,49.75606],[-119.31443,49.75599],[-119.31426,49.75593],[-119.31418,49.75593],[-119.31405,49.75595],[-119.31397,49.75598],[-119.31388,49.756],[-119.3136,49.756],[-119.3135,49.756],[-119.31329,49.75605],[-119.31304,49.75615],[-119.31284,49.75615],[-119.31263,49.75612],[-119.31242,49.7561],[-119.31206,49.75611],[-119.3118,49.75617],[-119.31154,49.75627],[-119.31136,49.75633],[-119.31112,49.75639],[-119.31105,49.75639],[-119.31096,49.75639],[-119.31084,49.75634],[-119.31077,49.7563],[-119.31071,49.75626],[-119.31065,49.75614],[-119.31053,49.75601],[-119.31044,49.75596],[-119.31015,49.75587],[-119.31001,49.7558],[-119.30976,49.75563],[-119.30959,49.75551],[-119.3095,49.75548],[-119.30939,49.75546],[-119.30913,49.75545],[-119.30896,49.75545],[-119.30867,49.75542],[-119.30842,49.75541],[-119.30786,49.75542],[-119.3076,49.75542],[-119.30725,49.7554],[-119.30706,49.75539],[-119.30679,49.75537],[-119.30647,49.75535],[-119.3063,49.75533],[-119.30604,49.75533],[-119.30571,49.75536],[-119.30558,49.75536],[-119.30549,49.75533],[-119.30541,49.75528],[-119.30541,49.75527]]}},
{"type":"Feature","properties":{"spotId":"D-grouse-atv-0053","kind":"walk","km":1.94,"climbM":7,"name":"260 m NE of Ratnip Creek","flags":[]},"geometry":{"type":"LineString","coordinates":[[-119.45051,49.7151],[-119.47672,49.71919]]}},
{"type":"Feature","properties":{"spotId":"D-grouse-atv-0053","kind":"ride","km":4.05,"climbM":31,"name":"260 m NE of Ratnip Creek","flags":[]},"geometry":{"type":"LineString","coordinates":[[-119.47672,49.71919],[-119.47688,49.71922],[-119.47735,49.71885],[-119.47777,49.71872],[-119.47824,49.71852],[-119.47874,49.71789],[-119.4793,49.71718],[-119.47968,49.71673],[-119.47994,49.71649],[-119.48014,49.71596],[-119.48013,49.71576],[-119.48005,49.71536],[-119.48007,49.71499],[-119.48076,49.71417],[-119.48092,49.71399],[-119.48123,49.71371],[-119.48145,49.71358],[-119.48179,49.71346],[-119.48214,49.71323],[-119.48237,49.71285],[-119.48248,49.71248],[-119.48252,49.71228],[-119.48274,49.71203],[-119.48288,49.71196],[-119.48311,49.7118],[-119.48317,49.71162],[-119.48326,49.7114],[-119.48335,49.7113],[-119.48362,49.71119],[-119.4841,49.71115],[-119.48447,49.71116],[-119.48465,49.71112],[-119.48479,49.71105],[-119.48532,49.71093],[-119.48557,49.71087],[-119.48597,49.71077],[-119.4861,49.7107],[-119.4862,49.71062],[-119.48624,49.71054],[-119.48635,49.71024],[-119.4865,49.70994],[-119.48658,49.70988],[-119.4869,49.70982],[-119.48733,49.70984],[-119.48784,49.70991],[-119.48799,49.70991],[-119.48882,49.7097],[-119.48905,49.70956],[-119.48914,49.70946],[-119.48951,49.70931],[-119.48971,49.70922],[-119.48989,49.70912],[-119.49015,49.70892],[-119.49038,49.70885],[-119.49049,49.70881],[-119.49068,49.70866],[-119.49071,49.70859],[-119.49062,49.70841],[-119.49057,49.70832],[-119.49057,49.70826],[-119.4907,49.70817],[-119.49115,49.70806],[-119.4917,49.70793],[-119.49182,49.70777],[-119.4919,49.70753],[-119.49193,49.70748],[-119.49208,49.70739],[-119.49239,49.70732],[-119.49266,49.70728],[-119.49355,49.70706],[-119.49371,49.70705],[-119.49393,49.70705],[-119.49424,49.70707],[-119.49457,49.70705],[-119.49516,49.70696],[-119.49565,49.7068],[-119.49597,49.7067],[-119.49645,49.70666],[-119.49684,49.70664],[-119.49722,49.70666],[-119.49733,49.70668],[-119.49746,49.70675],[-119.49748,49.70684],[-119.49738,49.70691],[-119.49707,49.707],[-119.49677,49.70711],[-119.49661,49.70723],[-119.49647,49.70734],[-119.49639,49.70742],[-119.4963,49.70762],[-119.49625,49.7078],[-119.4961,49.70796],[-119.49582,49.70812],[-119.49558,49.70827],[-119.49524,49.70858],[-119.4951,49.7087],[-119.49483,49.70899],[-119.49469,49.70913],[-119.49456,49.70929],[-119.49451,49.70951],[-119.49448,49.70987],[-119.49448,49.71015],[-119.49443,49.71031],[-119.49407,49.71082],[-119.49389,49.71112],[-119.49376,49.71161],[-119.49377,49.71197],[-119.4938,49.71212],[-119.49378,49.71256],[-119.49373,49.71335],[-119.4937,49.71355],[-119.49361,49.71416],[-119.4936,49.71444],[-119.49367,49.71476],[-119.49377,49.71517],[-119.49373,49.71549],[-119.4937,49.71565],[-119.49367,49.71602],[-119.49368,49.71656],[-119.49377,49.71695],[-119.4939,49.71729],[-119.49382,49.71778],[-119.49364,49.71825],[-119.49343,49.71874],[-119.49339,49.71894],[-119.49329,49.71923],[-119.49316,49.71946],[-119.4931,49.71954],[-119.49297,49.71968],[-119.49285,49.71998],[-119.49279,49.72017],[-119.49274,49.7205],[-119.49265,49.72073],[-119.49251,49.72087],[-119.49202,49.72117]]}},
{"type":"Feature","properties":{"spotId":"D-grouse-walk-0012","kind":"walk","km":0.79,"climbM":14,"name":"520 m W of Pooley Creek","flags":["Route crosses provincial park: Myra - Bellevue Park. Hunting only where that park allows it, in open season. Check its bcparks.ca page (synopsis page 9, 99%)."]},"geometry":{"type":"LineString","coordinates":[[-119.34643,49.73987],[-119.34625,49.747]]}},
{"type":"Feature","properties":{"spotId":"D-grouse-walk-0012","kind":"roadside","km":3.79,"climbM":22,"name":"520 m W of Pooley Creek","flags":["Route crosses provincial park: Myra - Bellevue Park. Hunting only where that park allows it, in open season. Check its bcparks.ca page (synopsis page 9, 99%)."]},"geometry":{"type":"LineString","coordinates":[[-119.34625,49.747],[-119.34491,49.74691],[-119.34367,49.74687],[-119.342,49.74664],[-119.34059,49.74675],[-119.33982,49.74713],[-119.33979,49.74811],[-119.34008,49.7492],[-119.33957,49.7502],[-119.33926,49.75099],[-119.33863,49.75157],[-119.33813,49.75158],[-119.33754,49.75167],[-119.3375,49.75185],[-119.33751,49.75201],[-119.33755,49.75216],[-119.33761,49.75233],[-119.33763,49.75242],[-119.33766,49.75258],[-119.3376,49.7527],[-119.33748,49.7528],[-119.33734,49.75286],[-119.33712,49.75303],[-119.33704,49.75313],[-119.33699,49.75325],[-119.33698,49.75331],[-119.33697,49.75352],[-119.33707,49.75372],[-119.33712,49.75391],[-119.33713,49.75421],[-119.3371,49.75437],[-119.33705,49.7545],[-119.33696,49.7547],[-119.33692,49.75477],[-119.33679,49.75499],[-119.33671,49.75519],[-119.33661,49.75528],[-119.33653,49.7554],[-119.33643,49.75561],[-119.3364,49.75572],[-119.33631,49.7559],[-119.33624,49.7561],[-119.33617,49.75626],[-119.33614,49.75639],[-119.33611,49.7566],[-119.33609,49.75681],[-119.33607,49.75697],[-119.33606,49.75716],[-119.33603,49.75734],[-119.336,49.75751],[-119.33596,49.75769],[-119.33592,49.75786],[-119.33586,49.75806],[-119.3358,49.75826],[-119.33575,49.75843],[-119.33554,49.75877],[-119.33539,49.75899],[-119.3352,49.75921],[-119.33506,49.75943],[-119.33499,49.75958],[-119.33494,49.75976],[-119.33489,49.75994],[-119.33482,49.7601],[-119.33465,49.76032],[-119.33452,49.76049],[-119.33437,49.76066],[-119.33413,49.76087],[-119.33404,49.76093],[-119.33378,49.76114],[-119.33351,49.7613],[-119.33323,49.7615],[-119.33306,49.76159],[-119.33296,49.76162],[-119.33274,49.76166],[-119.33261,49.76167],[-119.33238,49.76169],[-119.33206,49.76172],[-119.33187,49.76175],[-119.33167,49.76175],[-119.33137,49.76177],[-119.33106,49.76178],[-119.33079,49.76175],[-119.33059,49.76169],[-119.3304,49.7616],[-119.3303,49.76155],[-119.32995,49.76135],[-119.32986,49.76131],[-119.32979,49.76129],[-119.32955,49.76121],[-119.3292,49.76106],[-119.3289,49.76093],[-119.32859,49.76076],[-119.32849,49.76071],[-119.32813,49.76055],[-119.32795,49.7605],[-119.32767,49.76043],[-119.32756,49.76042],[-119.32721,49.76041],[-119.327,49.76044],[-119.32667,49.76055],[-119.32636,49.7606],[-119.32601,49.7606],[-119.32587,49.7606],[-119.32559,49.7606],[-119.32527,49.76058],[-119.32504,49.76057],[-119.32495,49.76057],[-119.32466,49.76056],[-119.32441,49.76054],[-119.32428,49.76053],[-119.32403,49.76051],[-119.32379,49.76046],[-119.3235,49.76037],[-119.32333,49.76029],[-119.32305,49.76019],[-119.3228,49.76008],[-119.32272,49.76006],[-119.32256,49.76],[-119.3224,49.75998],[-119.32223,49.75998],[-119.32209,49.76],[-119.32201,49.76002],[-119.32172,49.76008],[-119.3215,49.76009],[-119.32142,49.76008],[-119.32111,49.76008],[-119.32082,49.76007],[-119.32057,49.76006],[-119.32014,49.76004],[-119.31983,49.76004],[-119.31971,49.76004],[-119.31954,49.76004],[-119.31921,49.76013],[-119.31913,49.76016],[-119.31884,49.7603],[-119.31864,49.76031],[-119.31844,49.76027],[-119.31831,49.76021],[-119.3182,49.76011],[-119.31798,49.75992],[-119.31786,49.75983],[-119.31773,49.75971],[-119.31767,49.75965],[-119.3175,49.75948],[-119.31745,49.75941],[-119.31738,49.75934],[-119.31714,49.75913],[-119.31694,49.75893],[-119.3167,49.75876],[-119.31659,49.75872],[-119.31632,49.75864],[-119.31602,49.75855],[-119.31565,49.75848],[-119.31538,49.75847],[-119.31512,49.75851],[-119.31489,49.75857],[-119.31476,49.75863],[-119.31454,49.75877]]}},
{"type":"Feature","properties":{"spotId":"D-grouse-walk-0027","kind":"walk","km":0.08,"climbM":1,"name":"By Dog House Cabin rec site","flags":[]},"geometry":{"type":"LineString","coordinates":[[-119.2761,49.7496],[-119.27708,49.74918]]}},
{"type":"Feature","properties":{"spotId":"D-grouse-walk-0027","kind":"roadside","km":6.42,"climbM":44,"name":"By Dog House Cabin rec site","flags":[]},"geometry":{"type":"LineString","coordinates":[[-119.27708,49.74918],[-119.27727,49.74918],[-119.27747,49.74918],[-119.27763,49.74922],[-119.2778,49.7493],[-119.27795,49.74945],[-119.27803,49.7496],[-119.27813,49.74977],[-119.27825,49.74996],[-119.27841,49.75015],[-119.27856,49.75033],[-119.27865,49.75045],[-119.27876,49.75058],[-119.27899,49.75076],[-119.27918,49.75084],[-119.27942,49.75093],[-119.27967,49.75104],[-119.27982,49.75115],[-119.28002,49.75132],[-119.28032,49.75157],[-119.28055,49.75175],[-119.28078,49.75196],[-119.28104,49.75216],[-119.28115,49.75229],[-119.28117,49.75238],[-119.28125,49.75252],[-119.28136,49.75269],[-119.28149,49.75286],[-119.28166,49.75305],[-119.28178,49.7532],[-119.28189,49.75334],[-119.28212,49.75349],[-119.2823,49.7536],[-119.28253,49.75369],[-119.2828,49.75379],[-119.28307,49.75382],[-119.28345,49.75387],[-119.28372,49.75394],[-119.284,49.75405],[-119.28431,49.75416],[-119.28456,49.75431],[-119.28476,49.75444],[-119.28495,49.75462],[-119.28508,49.75475],[-119.28528,49.75492],[-119.28548,49.75503],[-119.2857,49.75515],[-119.28591,49.75531],[-119.2861,49.75548],[-119.28628,49.75567],[-119.28653,49.75589],[-119.28668,49.75613],[-119.28673,49.75633],[-119.28685,49.75648],[-119.28694,49.75659],[-119.28709,49.75677],[-119.28728,49.75695],[-119.28745,49.75711],[-119.28761,49.75724],[-119.28778,49.75739],[-119.28794,49.75753],[-119.28816,49.75772],[-119.2884,49.75789],[-119.28857,49.75802],[-119.28883,49.7582],[-119.28897,49.75831],[-119.28906,49.75841],[-119.28914,49.75855],[-119.28924,49.75875],[-119.28938,49.7589],[-119.28958,49.75909],[-119.2898,49.75929],[-119.29005,49.75951],[-119.29029,49.75971],[-119.29055,49.75987],[-119.29075,49.75999],[-119.29112,49.76015],[-119.29144,49.76029],[-119.29188,49.76052],[-119.29219,49.76061],[-119.29252,49.76072],[-119.29281,49.76074],[-119.29324,49.76077],[-119.29351,49.76078],[-119.29387,49.7608],[-119.29424,49.76086],[-119.29461,49.7609],[-119.295,49.76094],[-119.29543,49.76099],[-119.29587,49.761],[-119.29609,49.76099],[-119.29629,49.76096],[-119.29662,49.76094],[-119.29704,49.76084],[-119.29724,49.76073],[-119.29736,49.76056],[-119.29748,49.76037],[-119.29762,49.76017],[-119.29782,49.76003],[-119.298,49.76001],[-119.29815,49.76005],[-119.29833,49.76014],[-119.29841,49.76024],[-119.29853,49.76041],[-119.29862,49.76053],[-119.2987,49.7607],[-119.29881,49.76083],[-119.29902,49.76097],[-119.29923,49.76107],[-119.29949,49.76112],[-119.29973,49.76114],[-119.30004,49.76115],[-119.30041,49.76115],[-119.30079,49.7611],[-119.30108,49.76108],[-119.30132,49.76102],[-119.30153,49.76091],[-119.30164,49.76082],[-119.30179,49.76063],[-119.30193,49.76054],[-119.30202,49.76046],[-119.30219,49.76031],[-119.30233,49.76016],[-119.30245,49.76001],[-119.30247,49.75987],[-119.30249,49.75974],[-119.30254,49.75959],[-119.30265,49.75945],[-119.30287,49.75928],[-119.30305,49.75915],[-119.30323,49.75899],[-119.3033,49.75892],[-119.30345,49.75874],[-119.30359,49.75856],[-119.3037,49.75841],[-119.30392,49.75823],[-119.3041,49.75805],[-119.30434,49.75786],[-119.30457,49.75774],[-119.30489,49.7577],[-119.30511,49.7577],[-119.30534,49.75775],[-119.30557,49.75779],[-119.30584,49.7578],[-119.30607,49.7578],[-119.30636,49.75773],[-119.30671,49.75767],[-119.30701,49.75764],[-119.30727,49.75766],[-119.30742,49.75773],[-119.30756,49.75785],[-119.30772,49.75799],[-119.3079,49.75808],[-119.30816,49.75824],[-119.30836,49.75834],[-119.30855,49.75843],[-119.30883,49.75854],[-119.30905,49.75857],[-119.30934,49.75861],[-119.30965,49.75864],[-119.31001,49.75868],[-119.31023,49.75871],[-119.31043,49.75878],[-119.31062,49.75885],[-119.31082,49.75894],[-119.31098,49.75902],[-119.31116,49.75913],[-119.31136,49.75921],[-119.31157,49.75929],[-119.31183,49.75932],[-119.31211,49.75936],[-119.31246,49.7594],[-119.31275,49.75942],[-119.31306,49.75943],[-119.3133,49.75944],[-119.31354,49.75939],[-119.31372,49.75931],[-119.31392,49.75919],[-119.31411,49.75903],[-119.31441,49.75884],[-119.3148,49.75865],[-119.31499,49.75856],[-119.31526,49.75851],[-119.31551,49.75851],[-119.31584,49.75854],[-119.31611,49.75859],[-119.31639,49.75868],[-119.31667,49.75879],[-119.31687,49.75886],[-119.31703,49.75895],[-119.31716,49.75905],[-119.31726,49.75914],[-119.31732,49.7592],[-119.31741,49.7593],[-119.31753,49.75943],[-119.31762,49.75952],[-119.31782,49.7597],[-119.31798,49.75986],[-119.31815,49.76004],[-119.31831,49.76021],[-119.31844,49.76027],[-119.31864,49.76031],[-119.31887,49.76033],[-119.31911,49.76027],[-119.31942,49.76015],[-119.31967,49.76008],[-119.31992,49.76007],[-119.32017,49.76007],[-119.32047,49.76008],[-119.32077,49.76009],[-119.32107,49.76009],[-119.32132,49.76011],[-119.32159,49.7601],[-119.32182,49.76012],[-119.32192,49.76008],[-119.32216,49.76003],[-119.3224,49.75998],[-119.32256,49.76],[-119.32268,49.76006],[-119.3228,49.76008],[-119.323,49.76016],[-119.32327,49.76025],[-119.32333,49.76029],[-119.32374,49.76044],[-119.32407,49.76051],[-119.32428,49.76053],[-119.32459,49.76054],[-119.32504,49.76057],[-119.32554,49.7606],[-119.32601,49.7606],[-119.32631,49.76059],[-119.32655,49.76058],[-119.3269,49.76051],[-119.32723,49.76044],[-119.32755,49.76042],[-119.32784,49.76044],[-119.32813,49.76055],[-119.32841,49.76069],[-119.32877,49.76088],[-119.32904,49.76101],[-119.32916,49.76107],[-119.32947,49.76121],[-119.32973,49.76132],[-119.33001,49.76144],[-119.33022,49.76152],[-119.33051,49.76163],[-119.33083,49.76173],[-119.33107,49.76178],[-119.33133,49.76178],[-119.33167,49.76178],[-119.332,49.76173],[-119.33233,49.76171],[-119.33267,49.76167],[-119.33296,49.76162],[-119.33322,49.76154],[-119.33342,49.76142],[-119.33364,49.76129],[-119.33382,49.76118],[-119.33401,49.76105],[-119.33418,49.76089],[-119.33438,49.76068],[-119.33453,49.76052],[-119.33469,49.76034],[-119.33482,49.76021],[-119.33492,49.76],[-119.33502,49.75984],[-119.33507,49.75965],[-119.33517,49.75942],[-119.3353,49.75925],[-119.33539,49.75907],[-119.33553,49.75889],[-119.33564,49.75873],[-119.33573,49.75852],[-119.33581,49.75832],[-119.33586,49.75817],[-119.33594,49.75794],[-119.33601,49.75769],[-119.33605,49.75749],[-119.33608,49.75732],[-119.3361,49.75712],[-119.33611,49.75696],[-119.33616,49.75674],[-119.33618,49.75663],[-119.33623,49.75646],[-119.33627,49.75626],[-119.33633,49.75602],[-119.33644,49.75578],[-119.33653,49.75561],[-119.33662,49.75542],[-119.33672,49.7553],[-119.33681,49.75515],[-119.33691,49.755],[-119.33701,49.75481],[-119.3371,49.75454],[-119.33718,49.75428],[-119.33719,49.7541],[-119.3372,49.75401],[-119.33717,49.75391],[-119.33714,49.75382],[-119.33711,49.75372],[-119.33706,49.75357],[-119.33703,49.75348],[-119.33704,49.75336],[-119.33706,49.75326],[-119.3371,49.75317],[-119.33715,49.7531],[-119.33723,49.75302],[-119.33734,49.75293],[-119.33745,49.75281],[-119.33758,49.75274],[-119.33766,49.75264],[-119.33768,49.75255],[-119.33767,49.75248],[-119.33762,49.75239],[-119.33764,49.75234],[-119.33774,49.75232],[-119.33782,49.75228],[-119.33782,49.75227]]}},
{"type":"Feature","properties":{"spotId":"D-grouse-walk-0087","kind":"walk","km":2.12,"climbM":128,"name":"1.3 km S of Canyon Lakes","flags":["Route enters a Motor Vehicle Closed Area: Thompson, Cariboo and Okanagan Alpines. Closed Year Round. Exemption: Snowmobiles exempt year round (January 1 to December 31). Synopsis map 1-82/24."]},"geometry":{"type":"LineString","coordinates":[[-119.26232,49.68852],[-119.29135,49.69132]]}},
{"type":"Feature","properties":{"spotId":"D-grouse-walk-0087","kind":"roadside","km":4.1,"climbM":93,"name":"1.3 km S of Canyon Lakes","flags":["Route enters a Motor Vehicle Closed Area: Thompson, Cariboo and Okanagan Alpines. Closed Year Round. Exemption: Snowmobiles exempt year round (January 1 to December 31). Synopsis map 1-82/24."]},"geometry":{"type":"LineString","coordinates":[[-119.29135,49.69132],[-119.29132,49.69138],[-119.29131,49.69149],[-119.29134,49.69162],[-119.29135,49.69171],[-119.29136,49.69187],[-119.29141,49.6921],[-119.29138,49.69231],[-119.29129,49.6925],[-119.29116,49.69268],[-119.29102,49.69282],[-119.29081,49.693],[-119.29062,49.69319],[-119.29045,49.69331],[-119.29031,49.69345],[-119.29028,49.69356],[-119.29019,49.69368],[-119.29013,49.69381],[-119.29007,49.69394],[-119.28998,49.69411],[-119.28994,49.69429],[-119.29002,49.69444],[-119.29012,49.69459],[-119.29026,49.69474],[-119.2904,49.69491],[-119.29055,49.69506],[-119.29069,49.69523],[-119.29074,49.69542],[-119.29072,49.69557],[-119.29067,49.69571],[-119.29056,49.69594],[-119.29054,49.69611],[-119.29045,49.69629],[-119.29035,49.69646],[-119.29024,49.69662],[-119.29017,49.69679],[-119.29015,49.69694],[-119.29008,49.69714],[-119.29005,49.69729],[-119.29003,49.69744],[-119.29005,49.69757],[-119.2901,49.6977],[-119.29016,49.69782],[-119.29024,49.69794],[-119.29039,49.69813],[-119.29052,49.69831],[-119.29065,49.6985],[-119.29076,49.69869],[-119.29079,49.69889],[-119.29077,49.69906],[-119.29071,49.69924],[-119.29058,49.69944],[-119.2904,49.69961],[-119.29025,49.69976],[-119.29012,49.69989],[-119.28993,49.69999],[-119.28964,49.70015],[-119.28939,49.7003],[-119.28912,49.70049],[-119.28886,49.70071],[-119.28859,49.70094],[-119.28841,49.70113],[-119.28826,49.70127],[-119.28811,49.70141],[-119.28789,49.70153],[-119.28763,49.70158],[-119.28718,49.70167],[-119.28677,49.70174],[-119.28631,49.70178],[-119.28589,49.70192],[-119.28558,49.70207],[-119.28534,49.70224],[-119.28511,49.70243],[-119.28488,49.7026],[-119.28469,49.70276],[-119.28458,49.70289],[-119.28441,49.70309],[-119.28431,49.70322],[-119.28417,49.70337],[-119.28402,49.70352],[-119.28389,49.70365],[-119.28369,49.70379],[-119.2835,49.70393],[-119.28329,49.70412],[-119.28307,49.70433],[-119.28285,49.70455],[-119.28267,49.70472],[-119.28253,49.7049],[-119.28245,49.70503],[-119.28234,49.70514],[-119.28218,49.70534],[-119.28199,49.70556],[-119.28181,49.70575],[-119.28164,49.70596],[-119.28147,49.70615],[-119.28134,49.70629],[-119.28119,49.70641],[-119.28098,49.70652],[-119.28075,49.70664],[-119.2806,49.70675],[-119.28038,49.70686],[-119.28012,49.70696],[-119.27981,49.70709],[-119.27944,49.70726],[-119.27916,49.70747],[-119.27896,49.70763],[-119.27876,49.70782],[-119.27861,49.70798],[-119.27845,49.70816],[-119.27833,49.70831],[-119.27824,49.70846],[-119.27812,49.70862],[-119.27805,49.70874],[-119.27792,49.70885],[-119.27774,49.70899],[-119.27752,49.70912],[-119.27732,49.70923],[-119.27709,49.70935],[-119.27692,49.70938],[-119.27674,49.7094],[-119.2765,49.70941],[-119.27636,49.70944],[-119.27624,49.70951],[-119.27612,49.70959],[-119.27607,49.70964],[-119.27611,49.70976],[-119.27633,49.7099],[-119.27653,49.71],[-119.27668,49.71005],[-119.27692,49.71008],[-119.2772,49.71011],[-119.27749,49.71013],[-119.27778,49.71018],[-119.27803,49.71026],[-119.27814,49.71034],[-119.27818,49.71044],[-119.27818,49.71059],[-119.27818,49.71069],[-119.27816,49.71086],[-119.27813,49.71103],[-119.27812,49.71121],[-119.2781,49.71143],[-119.27821,49.71164],[-119.27826,49.71178],[-119.27824,49.71194],[-119.27821,49.71206],[-119.27811,49.7122],[-119.278,49.71234],[-119.27782,49.71253],[-119.27765,49.71264],[-119.27749,49.71276],[-119.27728,49.71282],[-119.27708,49.71292],[-119.27689,49.71299],[-119.27673,49.71308],[-119.27664,49.71314],[-119.27657,49.71323],[-119.27647,49.71337],[-119.27631,49.71355],[-119.27618,49.7137],[-119.27605,49.71381],[-119.27592,49.71394],[-119.27593,49.7142],[-119.27591,49.71435],[-119.27588,49.71447],[-119.27587,49.71464],[-119.27588,49.71484],[-119.27582,49.71507],[-119.2758,49.71531],[-119.27582,49.71557],[-119.27586,49.71579],[-119.27597,49.71595],[-119.27613,49.71599],[-119.27638,49.71599],[-119.27665,49.71595],[-119.27682,49.71592],[-119.27712,49.71589],[-119.27726,49.71597],[-119.27733,49.7161],[-119.27731,49.71628],[-119.27723,49.71644],[-119.27719,49.71661],[-119.2771,49.7168],[-119.27701,49.71694],[-119.27696,49.71707],[-119.27694,49.71722],[-119.27684,49.71734],[-119.27671,49.71744],[-119.27652,49.71751],[-119.27633,49.71755],[-119.27615,49.71757],[-119.27594,49.71766],[-119.2758,49.71776],[-119.27568,49.71787],[-119.27557,49.718],[-119.27547,49.71816],[-119.27535,49.71831],[-119.27533,49.71846],[-119.27533,49.71857],[-119.27532,49.7187],[-119.2753,49.71889],[-119.27537,49.71909],[-119.27545,49.71924],[-119.27553,49.7194],[-119.27553,49.71961],[-119.27558,49.71989],[-119.27563,49.72016],[-119.27571,49.72044],[-119.27571,49.72049]]}},
{"type":"Feature","properties":{"spotId":"D-grouse-walk-0090","kind":"walk","km":1.73,"climbM":115,"name":"650 m N of Canyon Lakes Cabin rec site","flags":["Route enters a Motor Vehicle Closed Area: Thompson, Cariboo and Okanagan Alpines. Closed Year Round. Exemption: Snowmobiles exempt year round (January 1 to December 31). Synopsis map 1-82/24.","Route crosses provincial park: Myra - Bellevue Park. Hunting only where that park allows it, in open season. Check its bcparks.ca page (synopsis page 9, 99%)."]},"geometry":{"type":"LineString","coordinates":[[-119.24069,49.72135],[-119.26121,49.72936]]}},
{"type":"Feature","properties":{"spotId":"D-grouse-walk-0090","kind":"roadside","km":4.85,"climbM":196,"name":"650 m N of Canyon Lakes Cabin rec site","flags":["Route enters a Motor Vehicle Closed Area: Thompson, Cariboo and Okanagan Alpines. Closed Year Round. Exemption: Snowmobiles exempt year round (January 1 to December 31). Synopsis map 1-82/24.","Route crosses provincial park: Myra - Bellevue Park. Hunting only where that park allows it, in open season. Check its bcparks.ca page (synopsis page 9, 99%)."]},"geometry":{"type":"LineString","coordinates":[[-119.26121,49.72936],[-119.26118,49.72928],[-119.26122,49.72914],[-119.26136,49.72898],[-119.26152,49.72884],[-119.26174,49.72869],[-119.26191,49.72852],[-119.26201,49.72838],[-119.26205,49.72828],[-119.26204,49.72814],[-119.26204,49.72803],[-119.26205,49.7279],[-119.26212,49.72778],[-119.2622,49.72764],[-119.26227,49.72748],[-119.26228,49.72734],[-119.2622,49.72721],[-119.26212,49.72711],[-119.26205,49.72701],[-119.26204,49.7269],[-119.26209,49.72673],[-119.26212,49.72656],[-119.26215,49.72638],[-119.26207,49.72623],[-119.262,49.72615],[-119.26196,49.72607],[-119.26191,49.7259],[-119.26192,49.72577],[-119.26195,49.72561],[-119.26193,49.72548],[-119.26195,49.72532],[-119.26199,49.72519],[-119.26207,49.72504],[-119.26217,49.7249],[-119.26226,49.72479],[-119.26236,49.72467],[-119.26241,49.72453],[-119.26251,49.72438],[-119.26262,49.72423],[-119.26277,49.72412],[-119.26285,49.72395],[-119.26295,49.72381],[-119.26304,49.72369],[-119.26316,49.72362],[-119.26329,49.72357],[-119.26346,49.72353],[-119.26374,49.72362],[-119.26402,49.72371],[-119.26411,49.72373],[-119.26426,49.72375],[-119.26446,49.72377],[-119.26467,49.72383],[-119.26491,49.72389],[-119.26521,49.72396],[-119.26545,49.72401],[-119.26574,49.72404],[-119.26599,49.72406],[-119.26629,49.72405],[-119.26662,49.7241],[-119.267,49.72411],[-119.26731,49.7241],[-119.2676,49.72411],[-119.26786,49.72412],[-119.26825,49.72395],[-119.26857,49.72372],[-119.2687,49.72353],[-119.26877,49.72338],[-119.26891,49.72314],[-119.26906,49.7229],[-119.26915,49.72278],[-119.26927,49.72266],[-119.26933,49.72249],[-119.26947,49.72233],[-119.26954,49.72216],[-119.26963,49.72197],[-119.26972,49.72178],[-119.26983,49.72159],[-119.26994,49.72142],[-119.27002,49.72126],[-119.27007,49.72108],[-119.2701,49.72091],[-119.27014,49.72073],[-119.27018,49.72058],[-119.27022,49.72048],[-119.27027,49.72039],[-119.27037,49.7203],[-119.27053,49.72023],[-119.27075,49.72015],[-119.27087,49.72011],[-119.27102,49.72007],[-119.27109,49.71994],[-119.27111,49.71984],[-119.27123,49.71968],[-119.27134,49.71951],[-119.27142,49.71937],[-119.27153,49.71917],[-119.27158,49.71901],[-119.27168,49.71885],[-119.27176,49.71872],[-119.27185,49.71858],[-119.27189,49.71846],[-119.27193,49.7184],[-119.272,49.71832],[-119.27212,49.71817],[-119.2722,49.71808],[-119.27265,49.71808],[-119.27289,49.71809],[-119.27312,49.71809],[-119.27335,49.71809],[-119.27355,49.71809],[-119.27385,49.71807],[-119.27411,49.71807],[-119.27441,49.71809],[-119.2749,49.71807],[-119.27521,49.71809],[-119.27536,49.71809],[-119.27557,49.71808],[-119.27571,49.71807],[-119.2758,49.71802],[-119.27585,49.71796],[-119.27589,49.71788],[-119.27596,49.7178],[-119.27604,49.71772],[-119.27621,49.71765],[-119.27633,49.7176],[-119.27648,49.71755],[-119.27665,49.71749],[-119.2768,49.71743],[-119.27693,49.71734],[-119.27697,49.71721],[-119.27704,49.7171],[-119.27711,49.71692],[-119.27716,49.71681],[-119.27721,49.71667],[-119.27728,49.71651],[-119.27735,49.71639],[-119.27739,49.7163],[-119.27741,49.71618],[-119.27743,49.71609],[-119.27739,49.716],[-119.27733,49.71593],[-119.27719,49.71588],[-119.27691,49.71586],[-119.27672,49.71578],[-119.27656,49.71571],[-119.27645,49.7156],[-119.27638,49.7154],[-119.2762,49.71527],[-119.27605,49.71513],[-119.2759,49.71504],[-119.27589,49.71495],[-119.27586,49.7148],[-119.27588,49.71469],[-119.27586,49.71457],[-119.27587,49.71436],[-119.27585,49.71419],[-119.27589,49.71411],[-119.27595,49.71386],[-119.27609,49.71371],[-119.27623,49.71357],[-119.27631,49.7135],[-119.27643,49.71341],[-119.27647,49.7133],[-119.27662,49.71316],[-119.27677,49.71306],[-119.27696,49.71296],[-119.27721,49.71286],[-119.27744,49.71278],[-119.27762,49.71266],[-119.27779,49.71255],[-119.27793,49.71242],[-119.27806,49.71226],[-119.27819,49.71209],[-119.27824,49.71194],[-119.27826,49.71179],[-119.27822,49.71167],[-119.27814,49.71151],[-119.2781,49.71138],[-119.27811,49.71127],[-119.27812,49.71114],[-119.27813,49.71101],[-119.27816,49.71085],[-119.27818,49.7107],[-119.27822,49.71052],[-119.2782,49.71036],[-119.27812,49.71027],[-119.27795,49.71018],[-119.27765,49.71013],[-119.27739,49.71012],[-119.27717,49.71011],[-119.27684,49.71007],[-119.27662,49.71003],[-119.27645,49.70996],[-119.27626,49.7099],[-119.27615,49.70978],[-119.27609,49.7097],[-119.27608,49.70963],[-119.27616,49.70952],[-119.27626,49.70946],[-119.27648,49.70938],[-119.27673,49.7094],[-119.27693,49.70935],[-119.27722,49.70928],[-119.27743,49.70917],[-119.27773,49.70899],[-119.27787,49.70888],[-119.27793,49.70884],[-119.27803,49.70876],[-119.27815,49.70858],[-119.27824,49.70846],[-119.27834,49.70831],[-119.27844,49.70816],[-119.27863,49.70796],[-119.27876,49.70781],[-119.27891,49.70768],[-119.27913,49.7075],[-119.27929,49.70737],[-119.27948,49.70724],[-119.27968,49.70717],[-119.27986,49.70707],[-119.28004,49.707],[-119.28022,49.70692],[-119.28041,49.70684],[-119.28059,49.70675],[-119.28077,49.70663],[-119.28094,49.70655],[-119.28113,49.70644],[-119.28129,49.70633],[-119.28138,49.70624],[-119.28149,49.70612],[-119.28161,49.70599],[-119.28172,49.70585],[-119.28182,49.70574],[-119.28197,49.70558],[-119.28211,49.70542],[-119.28226,49.70524],[-119.28241,49.70506],[-119.2825,49.70494],[-119.28262,49.70478],[-119.28277,49.70463],[-119.28291,49.7045],[-119.28306,49.70434],[-119.28317,49.70419],[-119.28336,49.70406],[-119.28349,49.70393],[-119.2837,49.70378],[-119.28387,49.70366],[-119.284,49.70354],[-119.28413,49.70342],[-119.28424,49.70329],[-119.2844,49.70311],[-119.28456,49.70291],[-119.28468,49.70277],[-119.28485,49.70263],[-119.28501,49.70251],[-119.28516,49.70239],[-119.28532,49.70226],[-119.28549,49.70214],[-119.28563,49.70205],[-119.2858,49.70196],[-119.28599,49.70188],[-119.28623,49.70181],[-119.28646,49.70177],[-119.28668,49.70175],[-119.28693,49.70171],[-119.28719,49.70167],[-119.28745,49.70162],[-119.28767,49.70157],[-119.28789,49.70149],[-119.2881,49.70142],[-119.28824,49.70128],[-119.28838,49.70116],[-119.28853,49.701],[-119.28865,49.70088],[-119.28873,49.70076],[-119.28885,49.70078],[-119.28893,49.70085],[-119.28904,49.70096],[-119.2891,49.70103],[-119.28916,49.7011],[-119.28923,49.70123],[-119.28939,49.70134],[-119.28963,49.70146],[-119.28996,49.70162],[-119.29026,49.70175],[-119.29045,49.70184]]}},
{"type":"Feature","properties":{"spotId":"D-moose-atv-0078","kind":"ride","km":6.25,"climbM":156,"name":"640 m N of Ratnip Creek","flags":[]},"geometry":{"type":"MultiLineString","coordinates":[[[-119.44324,49.71948],[-119.44337,49.71929],[-119.44359,49.71903],[-119.44382,49.71882],[-119.44406,49.71856],[-119.44425,49.71836],[-119.44445,49.71811],[-119.44464,49.71785],[-119.44542,49.7172],[-119.44565,49.7171],[-119.44592,49.71697],[-119.4462,49.71685],[-119.44671,49.71665],[-119.44705,49.71655],[-119.44735,49.71648],[-119.44772,49.71642],[-119.44813,49.71633],[-119.44847,49.71618],[-119.44872,49.71598],[-119.44918,49.71569],[-119.44948,49.71554],[-119.44974,49.71546],[-119.45,49.71537],[-119.45046,49.7152],[-119.45057,49.71512],[-119.45091,49.71498],[-119.45129,49.7148],[-119.45177,49.71461],[-119.45217,49.71442],[-119.45254,49.7142],[-119.45298,49.71399],[-119.45333,49.71381],[-119.4538,49.71364],[-119.454,49.71356],[-119.45406,49.71359],[-119.45433,49.71368],[-119.45462,49.7138],[-119.45481,49.71388],[-119.45515,49.71396],[-119.45543,49.71402],[-119.45564,49.71407],[-119.45586,49.71412],[-119.4562,49.71415],[-119.45651,49.7141],[-119.45672,49.714],[-119.457,49.71387],[-119.4572,49.71375],[-119.45748,49.71366],[-119.45766,49.71361],[-119.45783,49.71359],[-119.45801,49.7136],[-119.45818,49.71359],[-119.45849,49.71356],[-119.45871,49.71353],[-119.45895,49.71349],[-119.45922,49.71341],[-119.45948,49.71331],[-119.45972,49.71325],[-119.46,49.71319],[-119.46026,49.71308],[-119.46041,49.71305],[-119.4607,49.71299],[-119.46089,49.71298],[-119.46117,49.71297],[-119.46131,49.71298],[-119.46152,49.71298],[-119.46175,49.71295],[-119.46223,49.71285],[-119.46268,49.71272],[-119.46317,49.71264],[-119.46355,49.71257],[-119.46396,49.71248],[-119.46426,49.71243],[-119.4646,49.71229],[-119.46487,49.71218],[-119.46512,49.71202],[-119.4654,49.71188],[-119.46569,49.71172],[-119.466,49.71152],[-119.46629,49.71132],[-119.46657,49.71119],[-119.46709,49.71094],[-119.46729,49.71078],[-119.46759,49.7105],[-119.46771,49.7103],[-119.46787,49.70989],[-119.46801,49.70971],[-119.46816,49.70951],[-119.46825,49.70921],[-119.46832,49.70897],[-119.46839,49.70872],[-119.46845,49.70852],[-119.46853,49.70824],[-119.4687,49.70794],[-119.46871,49.70755],[-119.46886,49.70725],[-119.46893,49.707],[-119.46903,49.70661],[-119.46923,49.7063],[-119.4693,49.70615],[-119.46934,49.70577],[-119.46948,49.70554],[-119.46973,49.70524],[-119.46993,49.70489],[-119.47015,49.70454],[-119.47032,49.70436],[-119.47047,49.70423],[-119.47055,49.70412],[-119.47059,49.70395],[-119.47065,49.70376],[-119.47074,49.70356],[-119.47083,49.70327],[-119.47088,49.70312],[-119.4709,49.70284],[-119.47087,49.70268],[-119.4708,49.70253],[-119.47064,49.70217],[-119.47064,49.70202],[-119.47076,49.70191],[-119.47089,49.70172],[-119.47089,49.70163],[-119.47089,49.70158],[-119.47108,49.70155],[-119.47127,49.70157],[-119.47151,49.70164],[-119.47181,49.70172],[-119.47209,49.70184],[-119.47221,49.70191],[-119.47249,49.70202],[-119.47259,49.70215],[-119.47263,49.70231],[-119.4727,49.70261],[-119.47273,49.70308],[-119.47281,49.70339],[-119.47283,49.70358],[-119.4728,49.70374],[-119.47277,49.70423],[-119.47287,49.70452],[-119.47296,49.70506],[-119.47303,49.70526],[-119.47315,49.70552],[-119.47323,49.70585],[-119.47333,49.70678],[-119.4734,49.70712],[-119.47345,49.70739],[-119.47351,49.70758],[-119.47358,49.70789],[-119.47377,49.70806],[-119.47386,49.70818],[-119.47424,49.70854],[-119.47445,49.70861],[-119.47469,49.70864],[-119.47482,49.70862],[-119.47525,49.70852],[-119.47546,49.70849],[-119.47561,49.7085],[-119.47587,49.70855],[-119.47645,49.70868],[-119.47704,49.70855]],[[-119.47704,49.70855],[-119.47751,49.70867],[-119.47793,49.70893],[-119.47824,49.70937],[-119.47855,49.70996],[-119.47871,49.7101],[-119.47885,49.71022],[-119.47898,49.71038],[-119.47902,49.71043],[-119.47928,49.71082],[-119.47926,49.71116],[-119.47911,49.71138],[-119.47892,49.71158],[-119.47825,49.71215],[-119.47773,49.71263],[-119.47771,49.71265],[-119.47691,49.71342],[-119.47688,49.71346],[-119.47674,49.71359],[-119.47645,49.7139],[-119.47634,49.71439],[-119.47628,49.71465],[-119.47625,49.71475],[-119.4762,49.71487],[-119.47611,49.71559],[-119.47608,49.71578],[-119.47606,49.71585],[-119.47606,49.71589],[-119.47606,49.71595],[-119.47603,49.71658],[-119.47561,49.7169],[-119.4753,49.71717],[-119.47491,49.71751],[-119.47451,49.71786],[-119.47427,49.7181],[-119.47418,49.71816],[-119.47375,49.71849],[-119.47333,49.71881],[-119.47228,49.71952],[-119.47172,49.71999],[-119.47145,49.72045],[-119.47144,49.72046],[-119.47113,49.72122],[-119.47093,49.72156],[-119.47074,49.72189],[-119.47053,49.72212],[-119.47048,49.72218],[-119.47012,49.7226],[-119.46947,49.72327],[-119.4693,49.72361]]]}},
{"type":"Feature","properties":{"spotId":"D-moose-atv-0078","kind":"walk","km":0.16,"climbM":21,"name":"640 m N of Ratnip Creek","flags":[]},"geometry":{"type":"LineString","coordinates":[[-119.4693,49.72361],[-119.46712,49.72339]]}}
]}
