{"type":"FeatureCollection","features":[
{"type":"Feature","properties":{"spotId":"D-deer-walk-0199","kind":"walk","km":3.05,"climbM":330,"name":"1.1 km SW of Bertram Creek","flags":[]},"geometry":{"type":"LineString","coordinates":[[-119.5169,49.75886],[-119.55672,49.7495]]}},
{"type":"Feature","properties":{"spotId":"D-duck-walk-0061","kind":"walk","km":0.4,"climbM":0,"name":"Unnamed wetland by Ratnip Creek","flags":[]},"geometry":{"type":"LineString","coordinates":[[-119.51762,49.71259],[-119.52319,49.71228]]}},
{"type":"Feature","properties":{"spotId":"D-moose-walk-0024","kind":"walk","km":1.01,"climbM":0,"name":"140 m NW of Ratnip Creek","flags":[]},"geometry":{"type":"LineString","coordinates":[[-119.51762,49.71259],[-119.53014,49.70847]]}},
{"type":"Feature","properties":{"spotId":"D-quail-drive-0010","kind":"walk","km":0.18,"climbM":31,"name":"330 m W of Okanagan Lake","flags":["Route crosses private land (ParcelMap BC, updated 2026-09-26): get permission first or go around."]},"geometry":{"type":"LineString","coordinates":[[-119.74458,49.70204],[-119.74707,49.70191]]}},
{"type":"Feature","properties":{"spotId":"D-quail-walk-0007","kind":"walk","km":3.83,"climbM":79,"name":"320 m SE of Okanagan Lake","flags":["Route enters a Motor Vehicle Closed Area: Garnet Valley. Closed Year Round. Synopsis map 1-77/23.","Route crosses provincial park: Okanagan Mountain Park. Hunting only where that park allows it, in open season. Check its bcparks.ca page (synopsis page 9, 99%).","Route touches city limits: The Corporation of the District of Peachland. Local firearm bylaw applies."]},"geometry":{"type":"LineString","coordinates":[[-119.76425,49.73997],[-119.71117,49.74047]]}}
]}
