{"type":"FeatureCollection","features":[
{"type":"Feature","properties":{"spotId":"D-camp-camp-0046","kind":"walk","km":0.14,"climbM":31,"name":"160 m NW of O'Hagan Creek","flags":[]},"geometry":{"type":"LineString","coordinates":[[-119.95462,49.70685],[-119.95638,49.70742]]}},
{"type":"Feature","properties":{"spotId":"D-deer-atv-0038","kind":"ride","km":3.74,"climbM":316,"name":"By Tsuh Creek","flags":["Route crosses private land (ParcelMap BC, updated 2026-09-26): get permission first or go around."]},"geometry":{"type":"LineString","coordinates":[[-119.99823,49.70285],[-119.99822,49.70287],[-119.998,49.70308],[-119.99791,49.70326],[-119.99789,49.70329],[-119.99778,49.70344],[-119.99765,49.70357],[-119.99752,49.70369],[-119.99749,49.7038],[-119.99749,49.70385],[-119.99751,49.70392],[-119.99752,49.70394],[-119.99755,49.70399],[-119.99756,49.70405],[-119.99761,49.70419],[-119.99777,49.70436],[-119.99789,49.70443],[-119.99806,49.70455],[-119.9982,49.70462],[-119.99844,49.70472],[-119.99872,49.70484],[-119.99892,49.70496],[-119.99923,49.70514],[-119.99935,49.70527],[-119.99947,49.70544],[-119.99953,49.7055],[-119.99977,49.70569],[-119.99988,49.70589],[-119.99998,49.706],[-119.99999,49.70601],[-120.00017,49.7061],[-120.00036,49.70629],[-120.00057,49.70645],[-120.0007,49.70658],[-120.00092,49.70675],[-120.0011,49.70695],[-120.00125,49.70714],[-120.00094,49.70709],[-120.00056,49.70709],[-120.0002,49.70713],[-120.00002,49.70714],[-119.99999,49.70714],[-119.99993,49.70714],[-119.9995,49.70719],[-119.99906,49.70723],[-119.99888,49.70723],[-119.99855,49.70713],[-119.99828,49.70697],[-119.99809,49.7069],[-119.99769,49.70689],[-119.99735,49.70681],[-119.99697,49.70664],[-119.9969,49.70662],[-119.99659,49.7065],[-119.99636,49.70645],[-119.99603,49.70634],[-119.99563,49.70636],[-119.99546,49.70644],[-119.99528,49.70664],[-119.99525,49.70685],[-119.99524,49.7069],[-119.99524,49.70716],[-119.99522,49.70739],[-119.9952,49.70744],[-119.99496,49.70767],[-119.99471,49.70788],[-119.99439,49.70801],[-119.99431,49.70804],[-119.99396,49.70822],[-119.99388,49.70825],[-119.99381,49.7083],[-119.99379,49.70836],[-119.99366,49.70861],[-119.9934,49.70882],[-119.99342,49.70909],[-119.99352,49.7092],[-119.99356,49.70924],[-119.99364,49.70929],[-119.99397,49.70949],[-119.9943,49.70966],[-119.99468,49.70974],[-119.99503,49.70992],[-119.99532,49.71011],[-119.99537,49.71017],[-119.99537,49.71023],[-119.99532,49.71029],[-119.99523,49.71034],[-119.99514,49.71035],[-119.99506,49.71032],[-119.9948,49.71017],[-119.99445,49.71009],[-119.99407,49.71007],[-119.99373,49.71012],[-119.9933,49.71019],[-119.99322,49.71024],[-119.99286,49.7103],[-119.99247,49.71035],[-119.99204,49.71042],[-119.99196,49.71044],[-119.99164,49.71053],[-119.99156,49.71055],[-119.99148,49.7106],[-119.99123,49.7108],[-119.99093,49.71094],[-119.99072,49.71114],[-119.99071,49.71137],[-119.99071,49.71158],[-119.99067,49.71181],[-119.99065,49.71203],[-119.99062,49.71215],[-119.99052,49.71225],[-119.99023,49.71241],[-119.98989,49.71252],[-119.98951,49.71258],[-119.98917,49.71275],[-119.98912,49.71278],[-119.9891,49.71285],[-119.98937,49.71299],[-119.98967,49.71301],[-119.9901,49.71299],[-119.99041,49.71294],[-119.99055,49.71286],[-119.99061,49.71281],[-119.9907,49.71277],[-119.99079,49.71286],[-119.99062,49.71304],[-119.99035,49.71324],[-119.99006,49.71343],[-119.98977,49.71359],[-119.98941,49.71374],[-119.98909,49.71385],[-119.98878,49.71399],[-119.98862,49.71408],[-119.98852,49.7141],[-119.98827,49.71417],[-119.9881,49.71424],[-119.98801,49.7143],[-119.9879,49.71433],[-119.98751,49.7143],[-119.98718,49.71423],[-119.98683,49.71413],[-119.98647,49.71409],[-119.98607,49.71412],[-119.98571,49.71413],[-119.98535,49.71419],[-119.98497,49.7143],[-119.98494,49.71453],[-119.98496,49.71459],[-119.98492,49.71464],[-119.98463,49.71466],[-119.98447,49.71473],[-119.98418,49.71487],[-119.98394,49.71505],[-119.98373,49.71525],[-119.98351,49.71543],[-119.98323,49.7156],[-119.98286,49.7157],[-119.98243,49.71574],[-119.98232,49.71575],[-119.98196,49.71579],[-119.98165,49.71595],[-119.98133,49.71607],[-119.98112,49.71611],[-119.98097,49.71614],[-119.98085,49.71617],[-119.98078,49.7162],[-119.98064,49.71641],[-119.98043,49.71663],[-119.98022,49.71681],[-119.98018,49.71683],[-119.97991,49.71698],[-119.97985,49.717],[-119.97957,49.71703],[-119.97956,49.71702],[-119.9795,49.71699],[-119.97951,49.71688],[-119.9795,49.71677],[-119.97969,49.71656],[-119.97978,49.71641],[-119.97981,49.71634],[-119.97991,49.71616],[-119.97999,49.71599],[-119.98019,49.7158],[-119.98037,49.71561],[-119.98049,49.71548],[-119.98059,49.71537],[-119.98067,49.71526],[-119.98073,49.71514],[-119.98079,49.71501],[-119.98083,49.71497],[-119.98086,49.71491],[-119.98108,49.71472],[-119.98128,49.71459],[-119.98155,49.71444],[-119.98165,49.71435]]}},
{"type":"Feature","properties":{"spotId":"D-deer-atv-0038","kind":"walk","km":0.07,"climbM":0,"name":"By Tsuh Creek","flags":["Route crosses private land (ParcelMap BC, updated 2026-09-26): get permission first or go around."]},"geometry":{"type":"LineString","coordinates":[[-119.98165,49.71435],[-119.98256,49.71446]]}},
{"type":"Feature","properties":{"spotId":"D-deer-atv-0065","kind":"ride","km":4.68,"climbM":87,"name":"1.7 km SW of Darke Lake","flags":[]},"geometry":{"type":"LineString","coordinates":[[-119.90463,49.69537],[-119.90461,49.69552],[-119.90451,49.69566],[-119.90459,49.69572],[-119.90465,49.69578],[-119.90492,49.69592],[-119.90512,49.696],[-119.9052,49.69605],[-119.90529,49.69607],[-119.90545,49.69607],[-119.90564,49.696],[-119.90592,49.69588],[-119.90626,49.69575],[-119.90636,49.69573],[-119.9066,49.69563],[-119.90691,49.69553],[-119.90709,49.69546],[-119.90726,49.69538],[-119.9075,49.69532],[-119.90764,49.69526],[-119.90777,49.69525],[-119.90778,49.69524],[-119.90811,49.69523],[-119.90843,49.69525],[-119.90862,49.69528],[-119.90874,49.69532],[-119.90882,49.69534],[-119.90892,49.69541],[-119.90897,49.69546],[-119.90909,49.69556],[-119.90924,49.69572],[-119.90935,49.69593],[-119.90935,49.69602],[-119.9094,49.69611],[-119.9094,49.69628],[-119.9094,49.69647],[-119.90939,49.69654],[-119.90931,49.69673],[-119.90924,49.69695],[-119.90917,49.69708],[-119.909,49.69726],[-119.90899,49.6973],[-119.90894,49.69736],[-119.90887,49.69739],[-119.90884,49.69741],[-119.90865,49.69749],[-119.90852,49.69757],[-119.90828,49.69776],[-119.90809,49.69799],[-119.90803,49.69806],[-119.90792,49.69829],[-119.90789,49.69838],[-119.90782,49.6986],[-119.90769,49.69881],[-119.90764,49.69888],[-119.90761,49.69901],[-119.90753,49.69911],[-119.90752,49.69917],[-119.90744,49.69927],[-119.90737,49.69947],[-119.90733,49.69957],[-119.90735,49.69981],[-119.90734,49.69988],[-119.90739,49.7],[-119.90739,49.70002],[-119.90736,49.70008],[-119.90735,49.70012],[-119.90728,49.70029],[-119.90725,49.70043],[-119.90725,49.70057],[-119.9073,49.70068],[-119.90736,49.70078],[-119.90743,49.70091],[-119.90746,49.70101],[-119.90754,49.70116],[-119.90756,49.70125],[-119.90755,49.70134],[-119.90752,49.70151],[-119.90748,49.70163],[-119.90743,49.70185],[-119.90738,49.70198],[-119.90739,49.70215],[-119.90744,49.70232],[-119.90747,49.70251],[-119.90745,49.70264],[-119.90745,49.70275],[-119.90745,49.70286],[-119.90744,49.70299],[-119.90746,49.70315],[-119.90746,49.70328],[-119.90747,49.70341],[-119.90738,49.70388],[-119.90736,49.70401],[-119.90733,49.70414],[-119.90731,49.7043],[-119.9073,49.7044],[-119.90729,49.7046],[-119.90722,49.70482],[-119.90717,49.70499],[-119.90703,49.70512],[-119.90688,49.70521],[-119.90679,49.70527],[-119.90661,49.70532],[-119.90658,49.70533],[-119.90639,49.70535],[-119.90617,49.70533],[-119.906,49.70528],[-119.90581,49.70519],[-119.9056,49.70513],[-119.90532,49.70506],[-119.90512,49.70497],[-119.9048,49.70484],[-119.90447,49.70486],[-119.90411,49.70485],[-119.90372,49.70486],[-119.90331,49.70488],[-119.90295,49.70495],[-119.90262,49.705],[-119.90231,49.70512],[-119.90195,49.70529],[-119.90164,49.70545],[-119.90136,49.70564],[-119.90115,49.70581],[-119.90091,49.706],[-119.90067,49.70617],[-119.90031,49.70621],[-119.90014,49.70616],[-119.89986,49.70594],[-119.89961,49.70573],[-119.89937,49.70551],[-119.8991,49.70528],[-119.89876,49.70495],[-119.89863,49.70508],[-119.89846,49.70528],[-119.89832,49.70549],[-119.89799,49.70596],[-119.89792,49.70601],[-119.89782,49.70605],[-119.89759,49.70621],[-119.89753,49.70629],[-119.89733,49.70652],[-119.89642,49.70735],[-119.89632,49.70746],[-119.89623,49.70755],[-119.89612,49.70766],[-119.89596,49.70774],[-119.89584,49.70781],[-119.89573,49.70786],[-119.89567,49.70791],[-119.89564,49.70796],[-119.89559,49.70802],[-119.89552,49.7081],[-119.89545,49.70819],[-119.89534,49.70832],[-119.89528,49.70847],[-119.89525,49.7086],[-119.89524,49.70871],[-119.89525,49.70884],[-119.89524,49.70892],[-119.89525,49.7091],[-119.89537,49.70919],[-119.89543,49.70927],[-119.8955,49.70938],[-119.89559,49.7095],[-119.89563,49.7096],[-119.89562,49.70968],[-119.89561,49.70975],[-119.89558,49.7098],[-119.8956,49.70989],[-119.89564,49.70997],[-119.89567,49.71006],[-119.89566,49.71019],[-119.89563,49.71031],[-119.89559,49.7104],[-119.89553,49.71049],[-119.89521,49.71049],[-119.8951,49.71047],[-119.89498,49.71045],[-119.8949,49.71047],[-119.89471,49.71049],[-119.8946,49.71051],[-119.89447,49.71051],[-119.89438,49.71051],[-119.89413,49.71049],[-119.89403,49.71049],[-119.89392,49.71046],[-119.89376,49.7104],[-119.89365,49.71037],[-119.89356,49.71033],[-119.89349,49.71028],[-119.89346,49.71023],[-119.89332,49.7102],[-119.89315,49.71019],[-119.89304,49.71022],[-119.89295,49.71024],[-119.89286,49.71025],[-119.89274,49.71025],[-119.89267,49.71027],[-119.89259,49.71029],[-119.8924,49.71031],[-119.89219,49.71034],[-119.89211,49.71036],[-119.89204,49.71038],[-119.89196,49.7104],[-119.89189,49.71051],[-119.89182,49.71061],[-119.89179,49.71067],[-119.89177,49.71074],[-119.89174,49.7108],[-119.89173,49.71085],[-119.89174,49.71091],[-119.89173,49.71098],[-119.89176,49.71107],[-119.89175,49.71113],[-119.89174,49.7112],[-119.89173,49.71128],[-119.89172,49.71136],[-119.89171,49.71141],[-119.89169,49.71149],[-119.89168,49.71155],[-119.89168,49.71159],[-119.89167,49.71165],[-119.89167,49.7117],[-119.89164,49.71176],[-119.8914,49.71196],[-119.89109,49.7116],[-119.89084,49.71138],[-119.89043,49.71128],[-119.89033,49.71126],[-119.89007,49.71109],[-119.88984,49.71092],[-119.8896,49.71072],[-119.8894,49.7105],[-119.88919,49.71026],[-119.88881,49.70992],[-119.88857,49.70973],[-119.88831,49.70952],[-119.88803,49.7093],[-119.88773,49.70908],[-119.88741,49.70887],[-119.88718,49.7087],[-119.88709,49.70864],[-119.88702,49.70861],[-119.88677,49.70849],[-119.88657,49.70828],[-119.88647,49.70816],[-119.88635,49.70799],[-119.88624,49.70785],[-119.88608,49.70769],[-119.88589,49.70757],[-119.88558,49.70738],[-119.88533,49.70713],[-119.88522,49.70694],[-119.88514,49.70681],[-119.88503,49.70665],[-119.88495,49.70657],[-119.88483,49.70648],[-119.88466,49.7064],[-119.88444,49.7063],[-119.88427,49.70621],[-119.88393,49.70604],[-119.88373,49.70593],[-119.88347,49.70575],[-119.88339,49.70565],[-119.88334,49.70549],[-119.88333,49.70534],[-119.88334,49.70518],[-119.88336,49.70503],[-119.88336,49.70484],[-119.88336,49.70468],[-119.8834,49.70453],[-119.88343,49.70438],[-119.88349,49.70425],[-119.88355,49.70415],[-119.88365,49.70406],[-119.88377,49.70398],[-119.88399,49.70379],[-119.88425,49.70355],[-119.88437,49.70343],[-119.88472,49.7032]]}},
{"type":"Feature","properties":{"spotId":"D-deer-atv-0065","kind":"walk","km":0.23,"climbM":84,"name":"1.7 km SW of Darke Lake","flags":[]},"geometry":{"type":"LineString","coordinates":[[-119.88472,49.7032],[-119.88723,49.70446]]}},
{"type":"Feature","properties":{"spotId":"D-deer-atv-0113","kind":"ride","km":4.36,"climbM":179,"name":"By Darke Creek","flags":[]},"geometry":{"type":"MultiLineString","coordinates":[[[-119.89732,49.70651],[-119.89698,49.70691],[-119.89689,49.70703],[-119.89685,49.70715],[-119.89692,49.70738],[-119.89711,49.70764],[-119.89728,49.70774],[-119.89735,49.708],[-119.89724,49.70835],[-119.89737,49.70875],[-119.8975,49.70905],[-119.89865,49.70933],[-119.90027,49.71013],[-119.90221,49.71065],[-119.90276,49.71088],[-119.90338,49.71151],[-119.90377,49.71235],[-119.9043,49.71284],[-119.90539,49.71357],[-119.90669,49.7145],[-119.90736,49.71477],[-119.90818,49.71504],[-119.90838,49.71561],[-119.90869,49.71652],[-119.90912,49.717],[-119.90965,49.71776],[-119.91027,49.71837],[-119.91053,49.71872],[-119.91048,49.71908],[-119.91039,49.71918],[-119.91025,49.71922]],[[-119.90463,49.69537],[-119.90461,49.69552],[-119.90451,49.69566],[-119.90459,49.69572],[-119.90465,49.69578],[-119.90492,49.69592],[-119.90512,49.696],[-119.9052,49.69605],[-119.90529,49.69607],[-119.90545,49.69607],[-119.90564,49.696],[-119.90592,49.69588],[-119.90626,49.69575],[-119.90636,49.69573],[-119.9066,49.69563],[-119.90691,49.69553],[-119.90709,49.69546],[-119.90726,49.69538],[-119.9075,49.69532],[-119.90764,49.69526],[-119.90777,49.69525],[-119.90778,49.69524],[-119.90811,49.69523],[-119.90843,49.69525],[-119.90862,49.69528],[-119.90874,49.69532],[-119.90882,49.69534],[-119.90892,49.69541],[-119.90897,49.69546],[-119.90909,49.69556],[-119.90924,49.69572],[-119.90935,49.69593],[-119.90935,49.69602],[-119.9094,49.69611],[-119.9094,49.69628],[-119.9094,49.69647],[-119.90939,49.69654],[-119.90931,49.69673],[-119.90924,49.69695],[-119.90917,49.69708],[-119.909,49.69726],[-119.90899,49.6973],[-119.90894,49.69736],[-119.90887,49.69739],[-119.90884,49.69741],[-119.90865,49.69749],[-119.90852,49.69757],[-119.90828,49.69776],[-119.90809,49.69799],[-119.90803,49.69806],[-119.90792,49.69829],[-119.90789,49.69838],[-119.90782,49.6986],[-119.90769,49.69881],[-119.90764,49.69888],[-119.90761,49.69901],[-119.90753,49.69911],[-119.90752,49.69917],[-119.90744,49.69927],[-119.90737,49.69947],[-119.90733,49.69957],[-119.90735,49.69981],[-119.90734,49.69988],[-119.90739,49.7],[-119.90739,49.70002],[-119.90736,49.70008],[-119.90735,49.70012],[-119.90728,49.70029],[-119.90725,49.70043],[-119.90725,49.70057],[-119.9073,49.70068],[-119.90736,49.70078],[-119.90743,49.70091],[-119.90746,49.70101],[-119.90754,49.70116],[-119.90756,49.70125],[-119.90755,49.70134],[-119.90752,49.70151],[-119.90748,49.70163],[-119.90743,49.70185],[-119.90738,49.70198],[-119.90739,49.70215],[-119.90744,49.70232],[-119.90747,49.70251],[-119.90745,49.70264],[-119.90745,49.70275],[-119.90745,49.70286],[-119.90744,49.70299],[-119.90746,49.70315],[-119.90746,49.70328],[-119.90747,49.70341],[-119.90738,49.70388],[-119.90736,49.70401],[-119.90733,49.70414],[-119.90731,49.7043],[-119.9073,49.7044],[-119.90729,49.7046],[-119.90722,49.70482],[-119.90717,49.70499],[-119.90703,49.70512],[-119.90688,49.70521],[-119.90679,49.70527],[-119.90661,49.70532],[-119.90658,49.70533],[-119.90639,49.70535],[-119.90617,49.70533],[-119.906,49.70528],[-119.90581,49.70519],[-119.9056,49.70513],[-119.90532,49.70506],[-119.90512,49.70497],[-119.9048,49.70484],[-119.90447,49.70486],[-119.90411,49.70485],[-119.90372,49.70486],[-119.90331,49.70488],[-119.90295,49.70495],[-119.90262,49.705],[-119.90231,49.70512],[-119.90195,49.70529],[-119.90164,49.70545],[-119.90136,49.70564],[-119.90115,49.70581],[-119.90091,49.706],[-119.90067,49.70617],[-119.90031,49.70621],[-119.90014,49.70616],[-119.89986,49.70594],[-119.89961,49.70573],[-119.89937,49.70551],[-119.8991,49.70528],[-119.89876,49.70495],[-119.89863,49.70508],[-119.89846,49.70528],[-119.89832,49.70549],[-119.89799,49.70596],[-119.89792,49.70601],[-119.89782,49.70605],[-119.89759,49.70621],[-119.89753,49.70629],[-119.89733,49.70652]]]}},
{"type":"Feature","properties":{"spotId":"D-deer-atv-0113","kind":"walk","km":0.09,"climbM":6,"name":"By Darke Creek","flags":[]},"geometry":{"type":"LineString","coordinates":[[-119.91025,49.71922],[-119.91032,49.72002]]}},
{"type":"Feature","properties":{"spotId":"D-deer-drive-0035","kind":"walk","km":0.03,"climbM":0,"name":"140 m N of O'Hagan Creek","flags":[]},"geometry":{"type":"LineString","coordinates":[[-119.96931,49.70167],[-119.96929,49.70141]]}},
{"type":"Feature","properties":{"spotId":"D-deer-walk-0003","kind":"walk","km":2.2,"climbM":161,"name":"630 m SW of Eneas Creek","flags":["Route touches city limits: The Corporation of the District of Summerland. Local firearm bylaw applies.","Route crosses private land (ParcelMap BC, updated 2026-09-26): get permission first or go around."]},"geometry":{"type":"LineString","coordinates":[[-119.7957,49.69384],[-119.80732,49.71217]]}},
{"type":"Feature","properties":{"spotId":"D-deer-walk-0010","kind":"walk","km":2.42,"climbM":535,"name":"2.2 km W of Okanagan Lake","flags":["Route crosses private land (ParcelMap BC, updated 2026-09-26): get permission first or go around."]},"geometry":{"type":"LineString","coordinates":[[-119.76504,49.73945],[-119.79783,49.73465]]}},
{"type":"Feature","properties":{"spotId":"D-deer-walk-0162","kind":"walk","km":1.11,"climbM":19,"name":"350 m NW of Kirton Creek","flags":[]},"geometry":{"type":"LineString","coordinates":[[-119.93465,49.70978],[-119.93925,49.70023]]}},
{"type":"Feature","properties":{"spotId":"D-grouse-atv-0103","kind":"ride","km":4.6,"climbM":126,"name":"170 m N of O'Hagan Creek","flags":[]},"geometry":{"type":"LineString","coordinates":[[-119.96966,49.70167],[-119.96988,49.70176],[-119.97019,49.70184],[-119.9707,49.70191],[-119.97106,49.70196],[-119.97147,49.70205],[-119.97182,49.70213],[-119.97216,49.70219],[-119.97255,49.70229],[-119.9729,49.70237],[-119.97328,49.70246],[-119.97364,49.70259],[-119.97396,49.70267],[-119.97439,49.70269],[-119.97484,49.70273],[-119.97523,49.70283],[-119.97553,49.70291],[-119.97584,49.70296],[-119.97595,49.70299],[-119.97606,49.70302],[-119.97632,49.70315],[-119.97645,49.70321],[-119.97656,49.70327],[-119.97683,49.70346],[-119.97697,49.70353],[-119.97723,49.70365],[-119.97747,49.70376],[-119.97781,49.70392],[-119.97799,49.70399],[-119.97831,49.70412],[-119.97856,49.7042],[-119.97882,49.70431],[-119.97888,49.70437],[-119.97891,49.70444],[-119.97901,49.70463],[-119.97917,49.70479],[-119.97932,49.70496],[-119.97937,49.70509],[-119.97939,49.70543],[-119.97945,49.70559],[-119.97949,49.70575],[-119.97951,49.70606],[-119.97951,49.70609],[-119.9795,49.70616],[-119.97951,49.70633],[-119.97958,49.70654],[-119.97966,49.70673],[-119.97977,49.70693],[-119.97987,49.70714],[-119.9799,49.70725],[-119.97988,49.70736],[-119.97979,49.70753],[-119.97985,49.70772],[-119.97982,49.70782],[-119.97975,49.70803],[-119.97964,49.70816],[-119.97951,49.70835],[-119.97937,49.70854],[-119.9792,49.70875],[-119.97914,49.70882],[-119.9791,49.7089],[-119.97909,49.70892],[-119.97891,49.70913],[-119.97886,49.70922],[-119.97879,49.70932],[-119.97875,49.70953],[-119.97874,49.70974],[-119.97878,49.70986],[-119.9789,49.71],[-119.97897,49.71012],[-119.97899,49.71022],[-119.97895,49.71046],[-119.97887,49.71058],[-119.97877,49.71075],[-119.97868,49.71087],[-119.97847,49.71106],[-119.97834,49.71117],[-119.97816,49.71128],[-119.97808,49.71132],[-119.97798,49.71137],[-119.97777,49.71143],[-119.9776,49.71153],[-119.97732,49.71176],[-119.97724,49.7118],[-119.9769,49.71192],[-119.9768,49.71195],[-119.97645,49.71207],[-119.97636,49.71212],[-119.97618,49.71218],[-119.97591,49.71235],[-119.9756,49.71251],[-119.97547,49.7126],[-119.97534,49.71272],[-119.97516,49.71293],[-119.97506,49.71317],[-119.97505,49.71318],[-119.97503,49.71336],[-119.97502,49.71346],[-119.97501,49.71364],[-119.97498,49.71386],[-119.97496,49.71401],[-119.97494,49.71414],[-119.97493,49.71428],[-119.97491,49.71439],[-119.97491,49.71453],[-119.97492,49.71466],[-119.9749,49.71482],[-119.97489,49.71497],[-119.97487,49.71511],[-119.97484,49.71525],[-119.97478,49.71545],[-119.97475,49.71558],[-119.97469,49.71571],[-119.97464,49.71584],[-119.97456,49.71607],[-119.97447,49.71621],[-119.97441,49.71633],[-119.97434,49.71644],[-119.97424,49.71658],[-119.9741,49.71678],[-119.97392,49.71697],[-119.97382,49.71711],[-119.97359,49.71733],[-119.97356,49.71751],[-119.97354,49.71765],[-119.97352,49.71776],[-119.97347,49.71796],[-119.9734,49.71805],[-119.97319,49.7182],[-119.97307,49.7183],[-119.97302,49.71835],[-119.97301,49.71838],[-119.973,49.71844],[-119.973,49.7185],[-119.97311,49.71864],[-119.97315,49.71872],[-119.97317,49.71898],[-119.97322,49.71917],[-119.97327,49.71927],[-119.97335,49.71939],[-119.97342,49.7195],[-119.97351,49.71962],[-119.97357,49.71973],[-119.97365,49.71985],[-119.97371,49.71995],[-119.97383,49.72011],[-119.97397,49.72032],[-119.97402,49.7204],[-119.97408,49.72048],[-119.9741,49.72059],[-119.97415,49.7208],[-119.9742,49.72094],[-119.9742,49.72095],[-119.97424,49.72111],[-119.97426,49.72121],[-119.97427,49.7213],[-119.97427,49.72132],[-119.97426,49.72148],[-119.97418,49.72168],[-119.97401,49.72186],[-119.97376,49.72207],[-119.97359,49.72222],[-119.97356,49.72228],[-119.97358,49.72236],[-119.9736,49.72242],[-119.97376,49.72252],[-119.97387,49.72254],[-119.97421,49.72259],[-119.97436,49.72261],[-119.97491,49.72265],[-119.97517,49.7227],[-119.97578,49.72297],[-119.97596,49.72307],[-119.9761,49.72319],[-119.97623,49.72329],[-119.97667,49.7236],[-119.9769,49.72378],[-119.9771,49.72386],[-119.97717,49.72389],[-119.97734,49.72389],[-119.9775,49.72398],[-119.97757,49.72407],[-119.97762,49.72421],[-119.97772,49.7244],[-119.97776,49.72448],[-119.9778,49.72458],[-119.97781,49.72473],[-119.97787,49.72479],[-119.978,49.72486],[-119.97828,49.72493],[-119.97829,49.72493],[-119.97853,49.72498],[-119.97882,49.72499],[-119.979,49.72499],[-119.97933,49.72494],[-119.97946,49.72492],[-119.97972,49.72485],[-119.97983,49.72482],[-119.97988,49.72479],[-119.98,49.72472],[-119.98008,49.72464],[-119.98011,49.72447],[-119.98015,49.72438],[-119.98018,49.72431],[-119.98031,49.72407],[-119.98048,49.72401],[-119.98072,49.72396],[-119.98082,49.72392],[-119.98087,49.7239],[-119.98099,49.72384],[-119.98115,49.72381],[-119.98116,49.72373],[-119.98123,49.72366],[-119.98132,49.72354],[-119.98143,49.72341],[-119.98164,49.72323],[-119.98189,49.72304],[-119.98212,49.72284],[-119.98224,49.72271],[-119.98243,49.72254],[-119.98254,49.72244],[-119.98272,49.72217],[-119.98279,49.72205],[-119.98288,49.72187],[-119.98294,49.72176],[-119.98303,49.72164],[-119.98303,49.72163],[-119.98313,49.72152],[-119.98325,49.72139],[-119.98342,49.72122],[-119.98345,49.72119],[-119.98348,49.72112],[-119.98356,49.721],[-119.98358,49.72095],[-119.98361,49.72092],[-119.98364,49.72089],[-119.9837,49.72078],[-119.98384,49.72058],[-119.98397,49.72038],[-119.98402,49.72028],[-119.98404,49.72008],[-119.98408,49.71992],[-119.9841,49.7198],[-119.98416,49.71962],[-119.98417,49.7196],[-119.98423,49.71941],[-119.98427,49.7193],[-119.98431,49.71905],[-119.98435,49.71893],[-119.98442,49.71877],[-119.98452,49.71856],[-119.98457,49.71849],[-119.98475,49.7183],[-119.98494,49.71821],[-119.98508,49.71817],[-119.98526,49.71812],[-119.98559,49.71805],[-119.98572,49.71802],[-119.98601,49.71798],[-119.98627,49.71793],[-119.98644,49.71792],[-119.98663,49.71792],[-119.98679,49.71794],[-119.98712,49.71797],[-119.9874,49.71803]]}},
{"type":"Feature","properties":{"spotId":"D-grouse-drive-0052","kind":"roadside","km":4.72,"climbM":258,"name":"By O'Hagan Creek","flags":[]},"geometry":{"type":"LineString","coordinates":[[-119.96896,49.70079],[-119.96907,49.70078],[-119.96927,49.70073],[-119.96952,49.70062],[-119.96963,49.70057],[-119.96987,49.70036],[-119.96994,49.70034],[-119.96996,49.70033],[-119.97027,49.70035],[-119.97055,49.70041],[-119.97066,49.70041],[-119.9708,49.70045],[-119.97101,49.7005],[-119.97118,49.70056],[-119.97137,49.70064],[-119.97164,49.70078],[-119.97173,49.70084],[-119.97207,49.70098],[-119.97227,49.70106],[-119.97247,49.70117],[-119.97263,49.70129],[-119.97288,49.70138],[-119.97308,49.70149],[-119.97316,49.70156],[-119.97322,49.70163],[-119.97315,49.70165],[-119.97289,49.70176],[-119.97259,49.70185],[-119.97216,49.70183],[-119.97194,49.70179],[-119.97174,49.70175],[-119.97157,49.70172],[-119.97145,49.70172],[-119.97114,49.7017],[-119.97093,49.70168],[-119.97043,49.7017],[-119.97027,49.70169],[-119.96999,49.70169],[-119.96974,49.70168],[-119.96966,49.70167],[-119.96945,49.70167],[-119.96906,49.70168],[-119.96873,49.70167],[-119.96855,49.70167],[-119.96841,49.70173],[-119.96828,49.7019],[-119.96818,49.70199],[-119.96808,49.70203],[-119.968,49.70203],[-119.96793,49.70199],[-119.9679,49.70199],[-119.96775,49.70187],[-119.96742,49.70185],[-119.96722,49.70181],[-119.96696,49.70181],[-119.96674,49.70189],[-119.96654,49.70192],[-119.96647,49.70192],[-119.96638,49.70192],[-119.96609,49.70191],[-119.96599,49.70187],[-119.9657,49.70192],[-119.96555,49.70191],[-119.96547,49.7019],[-119.96512,49.7019],[-119.96492,49.70185],[-119.96476,49.70184],[-119.96441,49.70182],[-119.96421,49.70182],[-119.96399,49.70186],[-119.96368,49.70201],[-119.96347,49.70211],[-119.9632,49.70219],[-119.96293,49.70231],[-119.96264,49.7024],[-119.96253,49.70242],[-119.96211,49.7024],[-119.96178,49.70239],[-119.96159,49.70239],[-119.96135,49.70239],[-119.96107,49.70238],[-119.96082,49.70237],[-119.96067,49.70237],[-119.96042,49.70242],[-119.96023,49.7025],[-119.96,49.70253],[-119.95981,49.70265],[-119.95965,49.70281],[-119.9595,49.70298],[-119.95938,49.70314],[-119.95933,49.70325],[-119.9593,49.70339],[-119.95928,49.70357],[-119.95924,49.70368],[-119.95917,49.70379],[-119.95907,49.70388],[-119.95896,49.70394],[-119.9588,49.70401],[-119.95851,49.70413],[-119.95821,49.7043],[-119.95801,49.70448],[-119.95771,49.70467],[-119.95746,49.7048],[-119.95718,49.70496],[-119.95677,49.70516],[-119.95665,49.70525],[-119.95645,49.70539],[-119.95616,49.70557],[-119.95592,49.70575],[-119.95564,49.70594],[-119.95555,49.70604],[-119.95535,49.7062],[-119.95506,49.70644],[-119.95497,49.70651],[-119.95476,49.70669],[-119.95469,49.70676],[-119.95455,49.70694],[-119.95447,49.70701],[-119.95426,49.70714],[-119.95417,49.70722],[-119.95383,49.70738],[-119.9534,49.70758],[-119.95304,49.70769],[-119.95291,49.70775],[-119.95279,49.70784],[-119.95262,49.70804],[-119.95194,49.70851],[-119.95181,49.70861],[-119.95162,49.70878],[-119.95138,49.70894],[-119.95116,49.70909],[-119.95103,49.70923],[-119.95101,49.70934],[-119.9511,49.70945],[-119.95123,49.70963],[-119.95127,49.70972],[-119.95132,49.70987],[-119.95132,49.70994],[-119.95132,49.71012],[-119.95129,49.71034],[-119.95129,49.71039],[-119.95131,49.71049],[-119.95129,49.71064],[-119.95128,49.71072],[-119.95117,49.71085],[-119.95106,49.71094],[-119.95086,49.71108],[-119.95082,49.7111],[-119.9507,49.71117],[-119.95039,49.7113],[-119.95009,49.71142],[-119.94968,49.71164],[-119.94949,49.71172],[-119.94931,49.71179],[-119.94912,49.71185],[-119.94892,49.71193],[-119.94862,49.71209],[-119.94846,49.71215],[-119.94827,49.7122],[-119.9481,49.71224],[-119.94777,49.71228],[-119.94757,49.71231],[-119.94715,49.71232],[-119.947,49.71239],[-119.94685,49.71242],[-119.94663,49.71243],[-119.94635,49.7124],[-119.94614,49.71233],[-119.94594,49.7123],[-119.9457,49.71228],[-119.94541,49.71228],[-119.94514,49.7123],[-119.94497,49.71234],[-119.94471,49.71242],[-119.94456,49.71244],[-119.94426,49.71246],[-119.94405,49.71246],[-119.94378,49.71242],[-119.94356,49.71237],[-119.94334,49.71233],[-119.94312,49.71228],[-119.94289,49.71224],[-119.9427,49.7122],[-119.94252,49.71217],[-119.94234,49.71213],[-119.94209,49.71208],[-119.94189,49.71204],[-119.94172,49.712],[-119.94159,49.71196],[-119.94136,49.71186],[-119.94112,49.71174],[-119.94075,49.71152],[-119.94072,49.71151],[-119.94047,49.71137],[-119.9402,49.7112],[-119.93997,49.71101],[-119.93968,49.7108],[-119.93941,49.71068],[-119.93935,49.71065],[-119.93912,49.71057],[-119.93883,49.71054],[-119.93849,49.71043],[-119.93825,49.71036],[-119.93818,49.71035],[-119.93803,49.71035],[-119.93781,49.71041],[-119.93768,49.71042],[-119.93753,49.71042],[-119.93724,49.71041],[-119.93703,49.71039],[-119.93679,49.71038],[-119.93659,49.71037],[-119.9364,49.71036],[-119.93625,49.71031],[-119.93577,49.71013],[-119.93557,49.71005],[-119.93535,49.70998],[-119.93511,49.7099],[-119.93485,49.70984],[-119.93465,49.70978],[-119.93447,49.70975],[-119.93429,49.70974],[-119.93407,49.70978],[-119.93386,49.70981],[-119.93365,49.70982],[-119.93347,49.70985],[-119.93318,49.71001],[-119.933,49.71024],[-119.93295,49.71031],[-119.93294,49.71041],[-119.93288,49.71063],[-119.93276,49.71084],[-119.93271,49.71103],[-119.93272,49.71118],[-119.93271,49.71127],[-119.93265,49.71145],[-119.93253,49.71163],[-119.93243,49.71169],[-119.9323,49.71172],[-119.93209,49.71172],[-119.93193,49.71169],[-119.93178,49.71165],[-119.93167,49.7116],[-119.93139,49.71143],[-119.93126,49.71138],[-119.93111,49.71134],[-119.93088,49.71127],[-119.9307,49.71122],[-119.9305,49.71116],[-119.93028,49.71111],[-119.93001,49.71108],[-119.92979,49.71104],[-119.92956,49.71099],[-119.92932,49.71094],[-119.92906,49.71089],[-119.92886,49.71088],[-119.92851,49.71086],[-119.9283,49.71084],[-119.92812,49.71082],[-119.92793,49.71078],[-119.92774,49.71073],[-119.92767,49.71072],[-119.92748,49.71068],[-119.92725,49.71065],[-119.927,49.71063],[-119.92676,49.71061],[-119.92621,49.71063],[-119.92615,49.71064]]}},
{"type":"Feature","properties":{"spotId":"D-grouse-walk-0047","kind":"walk","km":0.81,"climbM":81,"name":"350 m S of Peachland Creek","flags":[]},"geometry":{"type":"LineString","coordinates":[[-119.80909,49.75686],[-119.81,49.74955]]}},
{"type":"Feature","properties":{"spotId":"D-grouse-walk-0047","kind":"roadside","km":3.58,"climbM":46,"name":"350 m S of Peachland Creek","flags":[]},"geometry":{"type":"LineString","coordinates":[[-119.81,49.74955],[-119.80991,49.74948],[-119.8099,49.74941],[-119.80991,49.7492],[-119.80991,49.74903],[-119.80989,49.74895],[-119.80987,49.74877],[-119.80983,49.74868],[-119.80978,49.74848],[-119.80975,49.74839],[-119.80967,49.7482],[-119.80962,49.74809],[-119.80951,49.74795],[-119.80943,49.74789],[-119.80924,49.74773],[-119.80906,49.74757],[-119.80899,49.74748],[-119.80886,49.74728],[-119.80877,49.74712],[-119.80869,49.74694],[-119.80863,49.74678],[-119.8085,49.74651],[-119.80837,49.74626],[-119.80832,49.74612],[-119.80828,49.74599],[-119.80824,49.74587],[-119.80821,49.74575],[-119.80816,49.7456],[-119.80809,49.74523],[-119.80804,49.74508],[-119.80801,49.74498],[-119.808,49.74489],[-119.80802,49.74468],[-119.80805,49.74456],[-119.80807,49.74433],[-119.80807,49.74417],[-119.80808,49.74405],[-119.80809,49.74393],[-119.80807,49.74382],[-119.80807,49.7437],[-119.80808,49.7436],[-119.80811,49.74338],[-119.80812,49.74324],[-119.8081,49.74312],[-119.80803,49.74293],[-119.80789,49.74275],[-119.80789,49.74268],[-119.80794,49.74241],[-119.80798,49.74226],[-119.80801,49.74215],[-119.80804,49.74193],[-119.80805,49.74179],[-119.80805,49.74176],[-119.80803,49.74169],[-119.80773,49.74141],[-119.8076,49.74121],[-119.80756,49.74105],[-119.80753,49.74093],[-119.80749,49.74082],[-119.80747,49.74071],[-119.80745,49.74055],[-119.80744,49.74044],[-119.80742,49.74032],[-119.80743,49.7402],[-119.80743,49.74007],[-119.80741,49.7397],[-119.80742,49.73955],[-119.80743,49.73944],[-119.80737,49.73921],[-119.80735,49.73912],[-119.8073,49.73901],[-119.80714,49.7388],[-119.80697,49.7386],[-119.80687,49.73847],[-119.80683,49.73843],[-119.80672,49.73831],[-119.80656,49.73814],[-119.80635,49.73794],[-119.80619,49.73778],[-119.80606,49.73763],[-119.80601,49.73752],[-119.80588,49.73737],[-119.80578,49.73716],[-119.8057,49.73697],[-119.80565,49.73689],[-119.80558,49.73682],[-119.80549,49.73676],[-119.80532,49.73664],[-119.8051,49.73642],[-119.80504,49.73634],[-119.80499,49.73626],[-119.8049,49.73613],[-119.80483,49.73602],[-119.80475,49.73591],[-119.80467,49.73578],[-119.80457,49.73562],[-119.80449,49.73549],[-119.80443,49.73536],[-119.80436,49.73523],[-119.80419,49.73487],[-119.80413,49.73476],[-119.80399,49.73456],[-119.80389,49.73445],[-119.80374,49.73428],[-119.80364,49.73419],[-119.80351,49.73406],[-119.80327,49.73384],[-119.80315,49.73371],[-119.80302,49.73357],[-119.80293,49.73346],[-119.80282,49.73322],[-119.80277,49.73311],[-119.80272,49.73299],[-119.80264,49.73281],[-119.80255,49.73264],[-119.80247,49.73247],[-119.80229,49.73223],[-119.80226,49.73217],[-119.80218,49.73197],[-119.80213,49.7318],[-119.80209,49.73159],[-119.80197,49.73127],[-119.80188,49.7311],[-119.8017,49.7309],[-119.80162,49.73075],[-119.80156,49.73067],[-119.80144,49.73049],[-119.80136,49.73036],[-119.80125,49.73015],[-119.80117,49.72996],[-119.80112,49.7298],[-119.80107,49.72963],[-119.80103,49.72946],[-119.801,49.72928],[-119.80099,49.7292],[-119.80097,49.72903],[-119.80099,49.72888],[-119.801,49.72878],[-119.80105,49.72858],[-119.80107,49.72846],[-119.80109,49.72823],[-119.80108,49.72812],[-119.80104,49.72796],[-119.80103,49.72791],[-119.80106,49.72772],[-119.80114,49.72748],[-119.80121,49.72738],[-119.80133,49.72721],[-119.80141,49.72708],[-119.80152,49.72685],[-119.80159,49.72674],[-119.80167,49.72661],[-119.80181,49.72639],[-119.80185,49.72629],[-119.80198,49.72608],[-119.80205,49.72593],[-119.80207,49.7258],[-119.80209,49.7257],[-119.80207,49.7256],[-119.80194,49.7254],[-119.80187,49.72525],[-119.80186,49.72508],[-119.80188,49.72492],[-119.80191,49.72485],[-119.80201,49.72474],[-119.80203,49.72459],[-119.80205,49.72441],[-119.80213,49.72419],[-119.80218,49.72409],[-119.80231,49.72395],[-119.80246,49.72377],[-119.80257,49.72361],[-119.80264,49.72343],[-119.80265,49.72337],[-119.80268,49.72316],[-119.80265,49.72307],[-119.80261,49.72287],[-119.80257,49.72281],[-119.80242,49.72266],[-119.80223,49.72245],[-119.80188,49.72214],[-119.80176,49.72199],[-119.80159,49.72184],[-119.80154,49.72178],[-119.80152,49.72171],[-119.80153,49.7215],[-119.80158,49.72134],[-119.80163,49.72118],[-119.80173,49.72101],[-119.80184,49.72083],[-119.80191,49.72076],[-119.80209,49.72063],[-119.80219,49.72053],[-119.80229,49.72042],[-119.80247,49.72035],[-119.80256,49.72033],[-119.80292,49.72029],[-119.80332,49.72028],[-119.80368,49.7203],[-119.80406,49.72037]]}},
{"type":"Feature","properties":{"spotId":"D-moose-atv-0057","kind":"ride","km":1.92,"climbM":60,"name":"1.7 km SE of Munro Lake","flags":[]},"geometry":{"type":"LineString","coordinates":[[-119.90463,49.69537],[-119.90461,49.69552],[-119.90451,49.69566],[-119.90459,49.69572],[-119.90465,49.69578],[-119.90492,49.69592],[-119.90512,49.696],[-119.9052,49.69605],[-119.90529,49.69607],[-119.90545,49.69607],[-119.90564,49.696],[-119.90592,49.69588],[-119.90626,49.69575],[-119.90636,49.69573],[-119.9066,49.69563],[-119.90691,49.69553],[-119.90709,49.69546],[-119.90726,49.69538],[-119.9075,49.69532],[-119.90764,49.69526],[-119.90777,49.69525],[-119.90778,49.69524],[-119.90811,49.69523],[-119.90843,49.69525],[-119.90862,49.69528],[-119.90874,49.69532],[-119.90882,49.69534],[-119.90892,49.69541],[-119.90897,49.69546],[-119.90909,49.69556],[-119.90924,49.69572],[-119.90935,49.69593],[-119.90935,49.69602],[-119.9094,49.69611],[-119.9094,49.69628],[-119.9094,49.69647],[-119.90939,49.69654],[-119.90931,49.69673],[-119.90924,49.69695],[-119.90917,49.69708],[-119.909,49.69726],[-119.90899,49.6973],[-119.90894,49.69736],[-119.90887,49.69739],[-119.90884,49.69741],[-119.90865,49.69749],[-119.90852,49.69757],[-119.90828,49.69776],[-119.90809,49.69799],[-119.90803,49.69806],[-119.90792,49.69829],[-119.90789,49.69838],[-119.90782,49.6986],[-119.90769,49.69881],[-119.90764,49.69888],[-119.90761,49.69901],[-119.90753,49.69911],[-119.90752,49.69917],[-119.90744,49.69927],[-119.90737,49.69947],[-119.90733,49.69957],[-119.90735,49.69981],[-119.90734,49.69988],[-119.90739,49.7],[-119.90739,49.70002],[-119.90736,49.70008],[-119.90735,49.70012],[-119.90728,49.70029],[-119.90725,49.70043],[-119.90725,49.70057],[-119.9073,49.70068],[-119.90736,49.70078],[-119.90743,49.70091],[-119.90746,49.70101],[-119.90754,49.70116],[-119.90756,49.70125],[-119.90755,49.70134],[-119.90752,49.70151],[-119.90748,49.70163],[-119.90743,49.70185],[-119.90738,49.70198],[-119.90739,49.70215],[-119.90744,49.70232],[-119.90747,49.70251],[-119.90745,49.70264],[-119.90745,49.70275],[-119.90745,49.70286],[-119.90744,49.70299],[-119.90746,49.70315],[-119.90746,49.70328],[-119.90747,49.70341],[-119.90738,49.70388],[-119.90736,49.70401],[-119.90733,49.70414],[-119.90731,49.7043],[-119.9073,49.7044],[-119.90729,49.7046],[-119.90722,49.70482],[-119.90717,49.70499],[-119.90703,49.70512],[-119.90688,49.70521],[-119.90679,49.70527],[-119.90661,49.70532],[-119.90658,49.70533],[-119.90639,49.70535],[-119.90617,49.70533],[-119.906,49.70528],[-119.90581,49.70519],[-119.9056,49.70513],[-119.90532,49.70506],[-119.90512,49.70497],[-119.9048,49.70484],[-119.90447,49.70486],[-119.90411,49.70485],[-119.90372,49.70486],[-119.90331,49.70488],[-119.90295,49.70495],[-119.90262,49.705],[-119.90231,49.70512],[-119.90224,49.70515]]}},
{"type":"Feature","properties":{"spotId":"D-moose-atv-0057","kind":"walk","km":0.02,"climbM":0,"name":"1.7 km SE of Munro Lake","flags":[]},"geometry":{"type":"LineString","coordinates":[[-119.90224,49.70515],[-119.90241,49.70531]]}},
{"type":"Feature","properties":{"spotId":"D-moose-atv-0068","kind":"ride","km":2.71,"climbM":111,"name":"180 m SE of O'Hagan Creek","flags":[]},"geometry":{"type":"LineString","coordinates":[[-119.93621,49.71833],[-119.93639,49.71835],[-119.93662,49.71838],[-119.93681,49.7184],[-119.93696,49.7184],[-119.93706,49.71841],[-119.93727,49.71842],[-119.93743,49.71844],[-119.93775,49.71846],[-119.93793,49.71846],[-119.93827,49.71843],[-119.93845,49.71845],[-119.93867,49.71845],[-119.93899,49.71847],[-119.93917,49.71848],[-119.93941,49.71848],[-119.93957,49.71846],[-119.93975,49.71845],[-119.93996,49.71844],[-119.94024,49.71843],[-119.94044,49.71842],[-119.94066,49.71841],[-119.94084,49.7184],[-119.94108,49.71841],[-119.94123,49.71842],[-119.94139,49.71841],[-119.94152,49.71839],[-119.9418,49.71838],[-119.94198,49.71841],[-119.94218,49.71841],[-119.94219,49.71841],[-119.94222,49.71861],[-119.94226,49.71881],[-119.94228,49.71892],[-119.94236,49.71908],[-119.94245,49.71931],[-119.94251,49.71957],[-119.94255,49.71968],[-119.9426,49.71985],[-119.94265,49.71999],[-119.9427,49.72011],[-119.94273,49.72025],[-119.94279,49.72049],[-119.9428,49.72062],[-119.94284,49.72084],[-119.94285,49.72112],[-119.94288,49.72124],[-119.9429,49.72139],[-119.94291,49.72154],[-119.94289,49.72169],[-119.94288,49.7218],[-119.94287,49.72191],[-119.94287,49.72206],[-119.94288,49.72217],[-119.94293,49.7223],[-119.94295,49.72242],[-119.94297,49.7225],[-119.94298,49.72256],[-119.94296,49.7227],[-119.94293,49.72285],[-119.94287,49.72291],[-119.94283,49.72296],[-119.94261,49.72302],[-119.94242,49.72304],[-119.94218,49.72307],[-119.94203,49.72309],[-119.94177,49.72308],[-119.94158,49.72307],[-119.94139,49.72306],[-119.94114,49.72304],[-119.94084,49.723],[-119.94077,49.72299],[-119.94079,49.72306],[-119.94076,49.72319],[-119.94072,49.7234],[-119.94069,49.72359],[-119.94069,49.72362],[-119.94067,49.72375],[-119.94069,49.72391],[-119.94069,49.72405],[-119.94069,49.72426],[-119.94067,49.72439],[-119.94066,49.72453],[-119.94065,49.72499],[-119.94065,49.72512],[-119.94065,49.72531],[-119.94069,49.72603],[-119.94068,49.72624],[-119.94065,49.72648],[-119.94069,49.72683],[-119.94069,49.72715],[-119.9407,49.7272],[-119.94069,49.72735],[-119.94073,49.72802],[-119.94073,49.72819],[-119.94074,49.72845],[-119.94074,49.72858],[-119.94076,49.72868],[-119.94075,49.72884],[-119.94077,49.72916],[-119.94077,49.72932],[-119.94078,49.72952],[-119.94081,49.72973],[-119.94081,49.72979],[-119.94078,49.72979],[-119.94052,49.72979],[-119.94033,49.7298],[-119.94013,49.72981],[-119.93991,49.72983],[-119.93958,49.72983],[-119.93933,49.72983],[-119.93909,49.72983],[-119.93888,49.72982],[-119.93865,49.72983],[-119.93855,49.72986],[-119.93853,49.72989],[-119.93818,49.72985],[-119.93793,49.72983],[-119.93761,49.72981],[-119.93738,49.7298],[-119.93717,49.72978],[-119.93698,49.72976],[-119.93697,49.72977],[-119.93673,49.72975],[-119.93651,49.72975],[-119.9363,49.72975],[-119.93609,49.72979],[-119.93583,49.72983],[-119.93563,49.72987],[-119.93542,49.72989],[-119.93521,49.72991],[-119.93498,49.72995],[-119.9348,49.73],[-119.9345,49.73013],[-119.93428,49.73017],[-119.93405,49.73019],[-119.9338,49.7302],[-119.93355,49.73022],[-119.93325,49.73026],[-119.93297,49.73031],[-119.93271,49.73035],[-119.93251,49.73039],[-119.93227,49.73043],[-119.93196,49.73048],[-119.93179,49.7305],[-119.93163,49.73055],[-119.93137,49.73065],[-119.93133,49.73066],[-119.93126,49.73069],[-119.93101,49.73072],[-119.93086,49.73075],[-119.93067,49.7308],[-119.93038,49.73089],[-119.93008,49.73096],[-119.93002,49.73098],[-119.92991,49.73102],[-119.92983,49.73104],[-119.92954,49.73109],[-119.92944,49.73111],[-119.9294,49.73111]]}},
{"type":"Feature","properties":{"spotId":"D-moose-atv-0068","kind":"walk","km":0.25,"climbM":0,"name":"180 m SE of O'Hagan Creek","flags":[]},"geometry":{"type":"LineString","coordinates":[[-119.93621,49.71833],[-119.9368,49.71615]]}},
{"type":"Feature","properties":{"spotId":"D-moose-walk-0070","kind":"walk","km":0.66,"climbM":63,"name":"1.0 km S of Munro Lake","flags":[]},"geometry":{"type":"LineString","coordinates":[[-119.92598,49.71065],[-119.92482,49.70473]]}},
{"type":"Feature","properties":{"spotId":"D-moose-walk-0092","kind":"walk","km":1.58,"climbM":541,"name":"By Acland, Mount","flags":["Route crosses provincial park: Darke Lake Park. Hunting only where that park allows it, in open season. Check its bcparks.ca page (synopsis page 9, 99%).","Route crosses private land (ParcelMap BC, updated 2026-09-26): get permission first or go around."]},"geometry":{"type":"LineString","coordinates":[[-119.85327,49.70174],[-119.83286,49.70686]]}},
{"type":"Feature","properties":{"spotId":"D-quail-walk-0004","kind":"walk","km":1.71,"climbM":64,"name":"By Eneas Creek","flags":["Route touches city limits: The Corporation of the District of Summerland. Local firearm bylaw applies.","Route crosses private land (ParcelMap BC, updated 2026-09-26): get permission first or go around."]},"geometry":{"type":"LineString","coordinates":[[-119.7957,49.69384],[-119.79616,49.70923]]}},
{"type":"Feature","properties":{"spotId":"D-quail-walk-0005","kind":"walk","km":0.71,"climbM":60,"name":"190 m W of Okanagan Lake","flags":["Route touches city limits: The Corporation of the District of Peachland. Local firearm bylaw applies."]},"geometry":{"type":"LineString","coordinates":[[-119.76425,49.73997],[-119.76438,49.73991],[-119.76603,49.73919],[-119.76654,49.73892],[-119.76691,49.73862],[-119.76723,49.73823],[-119.76746,49.73779],[-119.76765,49.73677],[-119.76774,49.73621],[-119.76903,49.73477]]}},
{"type":"Feature","properties":{"spotId":"D-quail-walk-0008","kind":"walk","km":0.53,"climbM":198,"name":"270 m NW of Greata","flags":["Route crosses private land (ParcelMap BC, updated 2026-09-26): get permission first or go around."]},"geometry":{"type":"LineString","coordinates":[[-119.74896,49.7048],[-119.75409,49.70141]]}},
{"type":"Feature","properties":{"spotId":"D-quail-walk-0010","kind":"walk","km":0.34,"climbM":79,"name":"490 m W of Okanagan Lake","flags":[]},"geometry":{"type":"LineString","coordinates":[[-119.76217,49.72176],[-119.76672,49.7211]]}}
]}
