{"type":"FeatureCollection","features":[
{"type":"Feature","properties":{"spotId":"D-camp-camp-0097","kind":"walk","km":0.1,"climbM":4,"name":"1.7 km NE of Tepee Lakes","flags":[]},"geometry":{"type":"LineString","coordinates":[[-120.23787,49.80171],[-120.23654,49.80202]]}},
{"type":"Feature","properties":{"spotId":"D-duck-drive-0027","kind":"walk","km":0.04,"climbM":0,"name":"Crescent Lake","flags":[]},"geometry":{"type":"LineString","coordinates":[[-120.07304,49.81011],[-120.07306,49.80976]]}},
{"type":"Feature","properties":{"spotId":"D-duck-drive-0029","kind":"walk","km":0.02,"climbM":0,"name":"Unnamed wetland 890 m N of Quilchena Creek","flags":[]},"geometry":{"type":"LineString","coordinates":[[-120.20468,49.95371],[-120.20467,49.95392]]}},
{"type":"Feature","properties":{"spotId":"D-duck-drive-0035","kind":"walk","km":0.02,"climbM":0,"name":"Ellen Lake","flags":[]},"geometry":{"type":"LineString","coordinates":[[-120.02053,49.99333],[-120.02049,49.99319]]}},
{"type":"Feature","properties":{"spotId":"D-duck-drive-0036","kind":"walk","km":0.11,"climbM":0,"name":"Unnamed wetland by Trout Creek","flags":[]},"geometry":{"type":"LineString","coordinates":[[-120.04731,49.80021],[-120.04774,49.80117]]}},
{"type":"Feature","properties":{"spotId":"D-duck-drive-0043","kind":"walk","km":0.01,"climbM":0,"name":"Unnamed wetland by Trout Creek","flags":[]},"geometry":{"type":"LineString","coordinates":[[-120.08018,49.79457],[-120.08007,49.79446]]}},
{"type":"Feature","properties":{"spotId":"D-duck-drive-0044","kind":"walk","km":0.03,"climbM":0,"name":"Unnamed wetland 1.2 km E of Pennask Creek","flags":[]},"geometry":{"type":"LineString","coordinates":[[-120.11717,49.96328],[-120.11725,49.96306]]}},
{"type":"Feature","properties":{"spotId":"D-duck-drive-0071","kind":"walk","km":0.03,"climbM":0,"name":"Unnamed wetland 3.7 km S of Pinnacle Lake rec site","flags":[]},"geometry":{"type":"LineString","coordinates":[[-120.03715,49.94224],[-120.03756,49.94222]]}},
{"type":"Feature","properties":{"spotId":"D-duck-drive-0090","kind":"walk","km":0.02,"climbM":0,"name":"Unnamed wetland 2.6 km SW of Pinnacle Lake rec site","flags":[]},"geometry":{"type":"LineString","coordinates":[[-120.06386,49.95327],[-120.06408,49.95343]]}},
{"type":"Feature","properties":{"spotId":"D-duck-drive-0092","kind":"walk","km":0.03,"climbM":0,"name":"Unnamed wetland 160 m N of Trout Creek","flags":[]},"geometry":{"type":"LineString","coordinates":[[-120.11292,49.78618],[-120.11265,49.78592]]}},
{"type":"Feature","properties":{"spotId":"D-duck-drive-0100","kind":"walk","km":0.08,"climbM":0,"name":"Pinnacle Lake","flags":[]},"geometry":{"type":"LineString","coordinates":[[-120.04682,49.97492],[-120.04773,49.97533]]}},
{"type":"Feature","properties":{"spotId":"D-duck-drive-0144","kind":"walk","km":0.27,"climbM":1,"name":"Hatheume Lake","flags":[]},"geometry":{"type":"LineString","coordinates":[[-120.04291,49.98555],[-120.0391,49.98579]]}},
{"type":"Feature","properties":{"spotId":"D-duck-walk-0003","kind":"walk","km":0.41,"climbM":0,"name":"Unnamed wetland 870 m W of North Trout Creek","flags":[]},"geometry":{"type":"LineString","coordinates":[[-120.23121,49.81481],[-120.23401,49.8116]]}},
{"type":"Feature","properties":{"spotId":"D-duck-walk-0005","kind":"walk","km":0.42,"climbM":17,"name":"Brenda Lake","flags":[]},"geometry":{"type":"LineString","coordinates":[[-120.04855,49.88292],[-120.04349,49.88477]]}},
{"type":"Feature","properties":{"spotId":"D-duck-walk-0007","kind":"walk","km":0.35,"climbM":0,"name":"Unnamed wetland 610 m N of Walker Lake","flags":[]},"geometry":{"type":"LineString","coordinates":[[-120.18061,49.91963],[-120.1832,49.91695]]}},
{"type":"Feature","properties":{"spotId":"D-duck-walk-0012","kind":"walk","km":0.45,"climbM":5,"name":"Unnamed wetland 190 m NE of Peterson Lake","flags":["Route crosses private land (ParcelMap BC, updated 2026-09-26): get permission first or go around."]},"geometry":{"type":"LineString","coordinates":[[-120.0897,49.98439],[-120.08764,49.98817]]}},
{"type":"Feature","properties":{"spotId":"D-duck-walk-0014","kind":"walk","km":0.32,"climbM":5,"name":"Sunset Lake","flags":[]},"geometry":{"type":"LineString","coordinates":[[-120.14701,49.89536],[-120.15138,49.89603]]}},
{"type":"Feature","properties":{"spotId":"D-duck-walk-0016","kind":"walk","km":0.52,"climbM":13,"name":"Unnamed wetland by Simem Creek","flags":["Route crosses private land (ParcelMap BC, updated 2026-09-26): get permission first or go around."]},"geometry":{"type":"LineString","coordinates":[[-120.23839,49.74789],[-120.23348,49.75135]]}},
{"type":"Feature","properties":{"spotId":"D-duck-walk-0022","kind":"walk","km":0.3,"climbM":0,"name":"Unnamed wetland 1.4 km S of Pinnacle Lake rec site","flags":[]},"geometry":{"type":"LineString","coordinates":[[-120.05614,49.96566],[-120.05497,49.96305]]}},
{"type":"Feature","properties":{"spotId":"D-duck-walk-0024","kind":"walk","km":0.34,"climbM":9,"name":"Unnamed wetland 1.4 km E of Pennask Creek","flags":["Route crosses private land (ParcelMap BC, updated 2026-09-26): get permission first or go around."]},"geometry":{"type":"LineString","coordinates":[[-120.05015,49.93791],[-120.05209,49.93513]]}},
{"type":"Feature","properties":{"spotId":"D-duck-walk-0028","kind":"walk","km":0.37,"climbM":1,"name":"Pitin Lake","flags":[]},"geometry":{"type":"LineString","coordinates":[[-120.18722,49.8432],[-120.1823,49.84411]]}},
{"type":"Feature","properties":{"spotId":"D-duck-walk-0030","kind":"walk","km":0.36,"climbM":0,"name":"Unnamed wetland 900 m S of Another Lake","flags":["Route crosses the 400 m no hunting strip beside Hwy 97C (Okanagan Connector) between Aspen Grove and Peachland: no hunting or shooting there (synopsis page 10, 99%)."]},"geometry":{"type":"LineString","coordinates":[[-120.23895,49.88228],[-120.23815,49.87912]]}},
{"type":"Feature","properties":{"spotId":"D-duck-walk-0037","kind":"walk","km":0.39,"climbM":0,"name":"Unnamed wetland 860 m SE of Quilchena Creek","flags":[]},"geometry":{"type":"LineString","coordinates":[[-120.15815,49.95701],[-120.15668,49.9604]]}},
{"type":"Feature","properties":{"spotId":"D-duck-walk-0041","kind":"walk","km":0.71,"climbM":18,"name":"Unnamed wetland 1.0 km NE of Peterson Lake","flags":[]},"geometry":{"type":"LineString","coordinates":[[-120.06172,49.98969],[-120.07153,49.98883]]}},
{"type":"Feature","properties":{"spotId":"D-duck-walk-0048","kind":"walk","km":0.45,"climbM":0,"name":"Unnamed lake 890 m W of Pennask Creek","flags":[]},"geometry":{"type":"LineString","coordinates":[[-120.09039,49.93051],[-120.09041,49.93456]]}},
{"type":"Feature","properties":{"spotId":"D-duck-walk-0049","kind":"walk","km":0.37,"climbM":0,"name":"Unnamed wetland by Quilchena Creek","flags":[]},"geometry":{"type":"LineString","coordinates":[[-120.18699,49.99891],[-120.1875,49.99563]]}},
{"type":"Feature","properties":{"spotId":"D-duck-walk-0051","kind":"walk","km":0.36,"climbM":1,"name":"Unnamed wetland 2.7 km W of Pattinson Lake","flags":[]},"geometry":{"type":"LineString","coordinates":[[-120.2253,49.96835],[-120.22154,49.97051]]}},
{"type":"Feature","properties":{"spotId":"D-duck-walk-0055","kind":"walk","km":0.37,"climbM":0,"name":"Unnamed wetland 640 m N of Pennask Creek","flags":[]},"geometry":{"type":"LineString","coordinates":[[-120.08939,49.95693],[-120.09111,49.95383]]}},
{"type":"Feature","properties":{"spotId":"D-duck-walk-0064","kind":"walk","km":0.36,"climbM":0,"name":"Unnamed wetland 1.9 km NE of Reservoir Lake rec site","flags":[]},"geometry":{"type":"LineString","coordinates":[[-120.19278,49.93631],[-120.18881,49.93435]]}},
{"type":"Feature","properties":{"spotId":"D-duck-walk-0082","kind":"walk","km":0.45,"climbM":1,"name":"Unnamed wetland 680 m S of Reservoir Lake","flags":[]},"geometry":{"type":"LineString","coordinates":[[-120.19975,49.89837],[-120.20006,49.90243]]}},
{"type":"Feature","properties":{"spotId":"D-duck-walk-0095","kind":"walk","km":0.43,"climbM":20,"name":"Unnamed wetland 1.2 km NE of Simem Creek","flags":[]},"geometry":{"type":"LineString","coordinates":[[-120.22358,49.78423],[-120.21822,49.78248]]}},
{"type":"Feature","properties":{"spotId":"D-duck-walk-0098","kind":"walk","km":0.36,"climbM":10,"name":"Unnamed wetland 140 m N of Trout Creek","flags":[]},"geometry":{"type":"LineString","coordinates":[[-120.02342,49.80551],[-120.02486,49.80861]]}},
{"type":"Feature","properties":{"spotId":"D-duck-walk-0105","kind":"walk","km":0.39,"climbM":2,"name":"Unnamed wetland 1.2 km W of Pitin Lake","flags":[]},"geometry":{"type":"LineString","coordinates":[[-120.20389,49.8426],[-120.1986,49.84341]]}},
{"type":"Feature","properties":{"spotId":"D-duck-walk-0106","kind":"walk","km":0.44,"climbM":0,"name":"Unnamed lake 1.2 km W of Spring Creek","flags":[]},"geometry":{"type":"LineString","coordinates":[[-120.19016,49.76014],[-120.19445,49.76297]]}},
{"type":"Feature","properties":{"spotId":"D-duck-walk-0113","kind":"walk","km":0.39,"climbM":18,"name":"Unnamed lake 390 m SW of Pennask Creek","flags":[]},"geometry":{"type":"LineString","coordinates":[[-120.06706,49.86349],[-120.06993,49.86049]]}},
{"type":"Feature","properties":{"spotId":"D-grouse-atv-0059","kind":"ride","km":5.86,"climbM":91,"name":"210 m E of Simem Creek","flags":[]},"geometry":{"type":"LineString","coordinates":[[-120.22805,49.7716],[-120.22788,49.77148],[-120.22769,49.77134],[-120.22711,49.77108],[-120.22664,49.77086],[-120.22635,49.77064],[-120.22623,49.7704],[-120.22607,49.77007],[-120.22608,49.76904],[-120.22612,49.76875],[-120.22616,49.76849],[-120.2262,49.76819],[-120.22621,49.76814],[-120.22631,49.76784],[-120.22633,49.76759],[-120.22641,49.76733],[-120.22647,49.76719],[-120.22654,49.76696],[-120.22656,49.76674],[-120.22663,49.76641],[-120.22667,49.76614],[-120.22662,49.76595],[-120.22649,49.76571],[-120.22641,49.76551],[-120.22637,49.76531],[-120.22626,49.76521],[-120.22607,49.76511],[-120.22584,49.76507],[-120.22565,49.76497],[-120.22549,49.76482],[-120.2254,49.7647],[-120.22524,49.76458],[-120.22494,49.76439],[-120.22454,49.76425],[-120.22436,49.76415],[-120.22414,49.76407],[-120.22393,49.76404],[-120.22375,49.764],[-120.22361,49.76393],[-120.22348,49.76385],[-120.22287,49.76364],[-120.22268,49.76356],[-120.22251,49.76354],[-120.22236,49.76352],[-120.22224,49.76347],[-120.22186,49.76326],[-120.22167,49.76314],[-120.2215,49.76308],[-120.22131,49.76303],[-120.22111,49.7629],[-120.22091,49.76275],[-120.22078,49.76262],[-120.22061,49.76252],[-120.22042,49.76249],[-120.22007,49.7625],[-120.21971,49.76254],[-120.21939,49.76258],[-120.21923,49.76258],[-120.21902,49.76256],[-120.21888,49.76255],[-120.21874,49.76257],[-120.21831,49.76277],[-120.21786,49.76294],[-120.21755,49.76303],[-120.21716,49.76311],[-120.21672,49.76326],[-120.21649,49.76337],[-120.21621,49.76346],[-120.21607,49.76352],[-120.21588,49.76366],[-120.21558,49.76382],[-120.21535,49.76396],[-120.21503,49.76409],[-120.21467,49.7643],[-120.21419,49.76448],[-120.21386,49.76462],[-120.21328,49.76478],[-120.2129,49.76494],[-120.21255,49.76509],[-120.21241,49.7652],[-120.21227,49.76522],[-120.21213,49.76523],[-120.212,49.76527],[-120.21184,49.76527],[-120.21163,49.76522],[-120.21139,49.76517],[-120.21122,49.76515],[-120.21092,49.76517],[-120.21056,49.76515],[-120.21033,49.76515],[-120.21019,49.76515],[-120.20925,49.76496],[-120.2085,49.76486],[-120.20834,49.76484],[-120.20808,49.76471],[-120.20776,49.76462],[-120.20744,49.7645],[-120.20735,49.76446],[-120.207,49.76431],[-120.20673,49.76425],[-120.20647,49.76415],[-120.20607,49.76404],[-120.20588,49.76392],[-120.20571,49.76379],[-120.20567,49.76376],[-120.20549,49.7636],[-120.20527,49.76338],[-120.20515,49.76331],[-120.20502,49.76324],[-120.20491,49.76316],[-120.20478,49.76305],[-120.20476,49.76301],[-120.2047,49.76295],[-120.20469,49.7629],[-120.20468,49.76287],[-120.20467,49.76278],[-120.20472,49.76267],[-120.20473,49.76265],[-120.2048,49.76255],[-120.20489,49.76243],[-120.20512,49.76225],[-120.20549,49.76212],[-120.20586,49.76206],[-120.20631,49.76203],[-120.2066,49.76207],[-120.20694,49.76211],[-120.20732,49.76216],[-120.20797,49.76216],[-120.20817,49.7621],[-120.20835,49.76202],[-120.20879,49.76188],[-120.20914,49.76183],[-120.20946,49.76178],[-120.20971,49.76181],[-120.20988,49.76183],[-120.20992,49.76183],[-120.21009,49.76182],[-120.21011,49.76182],[-120.21017,49.76181],[-120.21033,49.76178],[-120.2106,49.76171],[-120.21089,49.76163],[-120.21104,49.76155],[-120.21107,49.76154],[-120.21126,49.76144],[-120.21158,49.76137],[-120.21176,49.76123],[-120.21181,49.76107],[-120.21183,49.76099],[-120.21186,49.76078],[-120.21185,49.76071],[-120.21185,49.76069],[-120.21185,49.76061],[-120.21192,49.76049],[-120.21202,49.7604],[-120.21233,49.76024],[-120.21253,49.76013],[-120.21277,49.75995],[-120.213,49.75974],[-120.21316,49.75957],[-120.21323,49.75951],[-120.21331,49.75943],[-120.2134,49.75931],[-120.2135,49.75912],[-120.21351,49.75891],[-120.21357,49.75876],[-120.21363,49.75868],[-120.21379,49.75855],[-120.21409,49.75833],[-120.21431,49.75817],[-120.21456,49.75797],[-120.21481,49.75777],[-120.21499,49.75764],[-120.21506,49.75759],[-120.21519,49.75756],[-120.2154,49.7575],[-120.21576,49.75743],[-120.21615,49.75739],[-120.21654,49.75727],[-120.21702,49.7571],[-120.21716,49.75705],[-120.21748,49.75697],[-120.21771,49.75689],[-120.21823,49.75678],[-120.21871,49.75669],[-120.2191,49.75662],[-120.21942,49.7565],[-120.21976,49.75635],[-120.22008,49.75623],[-120.22037,49.75609],[-120.22069,49.75594],[-120.22101,49.75576],[-120.22135,49.75555],[-120.22171,49.75528],[-120.22204,49.75509],[-120.22222,49.75492],[-120.2225,49.75474],[-120.22253,49.75474],[-120.22255,49.75473],[-120.22269,49.7547],[-120.22293,49.75461],[-120.22319,49.75457],[-120.22356,49.75452],[-120.2239,49.75444],[-120.22417,49.75433],[-120.22443,49.75422],[-120.22473,49.75401],[-120.22505,49.75389],[-120.22552,49.7537],[-120.22566,49.75359],[-120.2259,49.7534],[-120.22607,49.75324],[-120.22614,49.75315],[-120.22627,49.75303],[-120.22641,49.75286],[-120.22658,49.75267],[-120.22679,49.75247],[-120.22702,49.75228],[-120.22736,49.75208],[-120.22749,49.75198],[-120.2278,49.75183],[-120.22804,49.7517],[-120.22824,49.75157],[-120.22839,49.75148],[-120.2286,49.75134],[-120.22881,49.75121],[-120.22897,49.75111],[-120.22915,49.75102],[-120.22929,49.75096],[-120.22933,49.75094],[-120.22938,49.75092],[-120.22951,49.75087],[-120.22963,49.75083],[-120.22974,49.75077],[-120.22975,49.75077],[-120.22989,49.75068],[-120.23012,49.75055],[-120.23029,49.75044],[-120.23035,49.7504],[-120.23053,49.75023],[-120.23065,49.75],[-120.23073,49.74983],[-120.23085,49.74959],[-120.23086,49.74932],[-120.23091,49.74912],[-120.23095,49.74892],[-120.23089,49.74871],[-120.23092,49.74853],[-120.23093,49.74835],[-120.23096,49.74818],[-120.23099,49.74808],[-120.23108,49.74793],[-120.23121,49.74773],[-120.23135,49.74757],[-120.23137,49.74755],[-120.23141,49.74738],[-120.23145,49.74719],[-120.23154,49.74694],[-120.23153,49.74687],[-120.23151,49.74678],[-120.23151,49.74676],[-120.2315,49.74674],[-120.23144,49.74668],[-120.23134,49.7466],[-120.23135,49.74657],[-120.23147,49.74638],[-120.23177,49.74616],[-120.23201,49.74597],[-120.23207,49.74591],[-120.23239,49.74557],[-120.23268,49.74529],[-120.23281,49.74515],[-120.23288,49.74497],[-120.23291,49.74493],[-120.23292,49.74492],[-120.23304,49.74468],[-120.23312,49.74438],[-120.23326,49.7442]]}},
{"type":"Feature","properties":{"spotId":"D-grouse-drive-0005","kind":"roadside","km":3.07,"climbM":4,"name":"550 m SW of Crescent Lake","flags":[]},"geometry":{"type":"LineString","coordinates":[[-120.08764,49.80255],[-120.08775,49.80255],[-120.0879,49.80258],[-120.08807,49.80259],[-120.08829,49.80259],[-120.08862,49.80259],[-120.0888,49.8026],[-120.08896,49.8026],[-120.08915,49.8026],[-120.08954,49.80256],[-120.0897,49.80254],[-120.08992,49.8025],[-120.09012,49.8025],[-120.09031,49.80249],[-120.09046,49.80248],[-120.09065,49.80245],[-120.09082,49.80243],[-120.09112,49.80241],[-120.09134,49.80241],[-120.09163,49.80236],[-120.0918,49.8023],[-120.09198,49.80223],[-120.09225,49.80213],[-120.09244,49.80202],[-120.09251,49.80193],[-120.09256,49.80181],[-120.09257,49.80168],[-120.09256,49.80143],[-120.09257,49.80119],[-120.09267,49.80101],[-120.09287,49.80084],[-120.09312,49.80068],[-120.09339,49.80054],[-120.09396,49.80029],[-120.09426,49.80018],[-120.09458,49.80008],[-120.09472,49.80005],[-120.09488,49.79999],[-120.09501,49.79995],[-120.09532,49.79984],[-120.09559,49.7998],[-120.09592,49.79975],[-120.09597,49.79974],[-120.09623,49.7997],[-120.09653,49.79967],[-120.09676,49.79964],[-120.0971,49.79956],[-120.09737,49.79945],[-120.09742,49.79943],[-120.09753,49.79935],[-120.09754,49.79922],[-120.09759,49.79907],[-120.09761,49.7989],[-120.09767,49.79873],[-120.09771,49.79862],[-120.09785,49.79848],[-120.09796,49.79842],[-120.09828,49.79832],[-120.09861,49.79827],[-120.09895,49.79822],[-120.09923,49.79815],[-120.09946,49.7981],[-120.09979,49.79805],[-120.10013,49.79801],[-120.10041,49.79797],[-120.10059,49.79797],[-120.10077,49.79798],[-120.1011,49.79801],[-120.1014,49.79806],[-120.10162,49.79808],[-120.10179,49.79809],[-120.10243,49.7981],[-120.10276,49.7981],[-120.10308,49.79811],[-120.10337,49.7981],[-120.10367,49.79806],[-120.104,49.79804],[-120.10432,49.79803],[-120.10449,49.79803],[-120.10467,49.79803],[-120.10495,49.79805],[-120.10506,49.79806],[-120.10521,49.79807],[-120.10543,49.79807],[-120.10554,49.79807],[-120.10559,49.79807],[-120.10574,49.79801],[-120.106,49.79791],[-120.10623,49.79782],[-120.10653,49.79768],[-120.1067,49.79758],[-120.10682,49.79749],[-120.10708,49.79729],[-120.10737,49.79712],[-120.10756,49.79696],[-120.10776,49.79676],[-120.10807,49.79658],[-120.10834,49.79643],[-120.10852,49.79635],[-120.10878,49.79619],[-120.109,49.79605],[-120.10918,49.7959],[-120.10928,49.79576],[-120.10939,49.79561],[-120.10952,49.79544],[-120.1097,49.79527],[-120.10983,49.79519],[-120.11005,49.79504],[-120.11032,49.79487],[-120.11067,49.79468],[-120.11087,49.79458],[-120.11111,49.79442],[-120.11116,49.79438],[-120.11131,49.79422],[-120.11147,49.79402],[-120.11162,49.79382],[-120.11165,49.79374],[-120.11176,49.79357],[-120.11183,49.79339],[-120.11185,49.79323],[-120.11189,49.79302],[-120.11191,49.79272],[-120.1119,49.79264],[-120.11188,49.79251],[-120.11187,49.79236],[-120.11196,49.79216],[-120.11205,49.79204],[-120.1121,49.79186],[-120.11211,49.79173],[-120.11209,49.79154],[-120.11204,49.79139],[-120.11198,49.79122],[-120.11184,49.79103],[-120.11175,49.79093],[-120.11161,49.79073],[-120.11147,49.79057],[-120.11126,49.79035],[-120.11117,49.79024],[-120.11115,49.79023],[-120.111,49.79007],[-120.1109,49.78998],[-120.1107,49.78965],[-120.11065,49.78958],[-120.11049,49.78942],[-120.11028,49.78922],[-120.11002,49.78904],[-120.10977,49.78895],[-120.10945,49.78882],[-120.10917,49.78871],[-120.10888,49.78859],[-120.1087,49.78857],[-120.10844,49.78848],[-120.10823,49.78845],[-120.10799,49.78845],[-120.10787,49.78845],[-120.10758,49.78845],[-120.10731,49.78845],[-120.10719,49.78845],[-120.10708,49.78846],[-120.10676,49.78847],[-120.10658,49.78847],[-120.10638,49.78847],[-120.10621,49.78847],[-120.1062,49.78847]]}},
{"type":"Feature","properties":{"spotId":"D-grouse-drive-0019","kind":"roadside","km":5.83,"climbM":31,"name":"370 m NE of Pennask Creek","flags":[]},"geometry":{"type":"LineString","coordinates":[[-120.06848,49.94008],[-120.06814,49.94013],[-120.06663,49.94065],[-120.06608,49.94091],[-120.06579,49.9411],[-120.06548,49.94139],[-120.0651,49.9419],[-120.0649,49.94228],[-120.06477,49.94263],[-120.06457,49.94313],[-120.06425,49.94352],[-120.06382,49.94377],[-120.06329,49.94398],[-120.06203,49.94458],[-120.06178,49.94474],[-120.06108,49.94529],[-120.06064,49.94543],[-120.06037,49.94546],[-120.05991,49.94546],[-120.05962,49.94541],[-120.05935,49.94529],[-120.05866,49.94487],[-120.05811,49.94462],[-120.0576,49.94427],[-120.0559,49.94316],[-120.05461,49.94248],[-120.05434,49.94237],[-120.05416,49.94234],[-120.05352,49.94231],[-120.05308,49.94234],[-120.05285,49.94231],[-120.05253,49.9422],[-120.0523,49.94206],[-120.05192,49.94191],[-120.0514,49.94148],[-120.05117,49.94133],[-120.05046,49.94096],[-120.05009,49.9406],[-120.04972,49.94006],[-120.04918,49.93944],[-120.04822,49.93824],[-120.04796,49.93808],[-120.04765,49.93799],[-120.04752,49.93799],[-120.04733,49.93801],[-120.04695,49.93812],[-120.04667,49.93829],[-120.04584,49.93868],[-120.04405,49.93932],[-120.04358,49.93941],[-120.04314,49.9394],[-120.04276,49.93939],[-120.04256,49.93942],[-120.04226,49.93951],[-120.04212,49.93958],[-120.04197,49.9397],[-120.04165,49.94015],[-120.04157,49.94033],[-120.04159,49.9407],[-120.04166,49.941],[-120.04199,49.94146],[-120.04235,49.94224],[-120.04235,49.94241],[-120.04192,49.94285],[-120.04147,49.94342],[-120.04095,49.94458],[-120.04063,49.94494],[-120.04012,49.9454],[-120.03994,49.94561],[-120.0398,49.9459],[-120.03981,49.94642],[-120.03989,49.94694],[-120.03987,49.94739],[-120.03983,49.94765],[-120.03971,49.94791],[-120.03959,49.94835],[-120.03932,49.94883],[-120.03898,49.94921],[-120.03874,49.9494],[-120.03847,49.94959],[-120.03739,49.9501],[-120.03627,49.95046],[-120.03609,49.95057],[-120.0359,49.95084],[-120.03584,49.95159],[-120.03571,49.95174],[-120.03558,49.95182],[-120.03527,49.95194],[-120.03419,49.95222],[-120.03371,49.95244],[-120.03316,49.95291],[-120.03287,49.95309],[-120.0323,49.95335],[-120.03182,49.95368],[-120.03135,49.95418],[-120.03096,49.95471],[-120.03083,49.9548],[-120.03065,49.95501],[-120.03017,49.95573],[-120.02996,49.95627],[-120.02975,49.95661],[-120.0294,49.95763],[-120.02807,49.96014],[-120.02772,49.96064],[-120.0271,49.96128],[-120.02699,49.96156],[-120.02699,49.9619],[-120.02711,49.96234],[-120.0272,49.96249],[-120.02741,49.96257],[-120.02737,49.96297],[-120.0271,49.96348],[-120.027,49.96358],[-120.02586,49.96416],[-120.0257,49.96429]]}},
{"type":"Feature","properties":{"spotId":"D-grouse-drive-0034","kind":"roadside","km":3.47,"climbM":28,"name":"2.2 km SE of Pinnacle Lake rec site","flags":[]},"geometry":{"type":"LineString","coordinates":[[-120.02807,49.96014],[-120.02832,49.96018],[-120.02851,49.96022],[-120.02864,49.96022],[-120.02892,49.96018],[-120.02921,49.96016],[-120.02948,49.96013],[-120.02961,49.96014],[-120.02979,49.96014],[-120.02999,49.9602],[-120.0301,49.96026],[-120.03019,49.96036],[-120.03019,49.96047],[-120.03019,49.96066],[-120.03023,49.96085],[-120.03032,49.96104],[-120.03043,49.96125],[-120.03053,49.9614],[-120.03067,49.96158],[-120.03076,49.96173],[-120.03079,49.96175],[-120.03092,49.96183],[-120.03121,49.96195],[-120.03143,49.96203],[-120.03166,49.9621],[-120.03188,49.96215],[-120.03202,49.96216],[-120.0322,49.96218],[-120.03236,49.96224],[-120.0325,49.96231],[-120.03266,49.96248],[-120.03281,49.96263],[-120.03289,49.96271],[-120.03309,49.96291],[-120.03325,49.96306],[-120.03343,49.96325],[-120.03358,49.9634],[-120.03379,49.96372],[-120.03392,49.96391],[-120.03405,49.96409],[-120.03418,49.96425],[-120.0344,49.96443],[-120.03462,49.96464],[-120.03484,49.96485],[-120.03496,49.96497],[-120.03504,49.96515],[-120.03511,49.96529],[-120.03525,49.96544],[-120.03533,49.96554],[-120.03547,49.96576],[-120.03555,49.96591],[-120.0357,49.96608],[-120.03588,49.96629],[-120.03605,49.96651],[-120.03616,49.96668],[-120.03629,49.9669],[-120.03639,49.96707],[-120.03642,49.96722],[-120.03645,49.96738],[-120.03647,49.96756],[-120.03643,49.96777],[-120.03632,49.96795],[-120.03623,49.96812],[-120.03612,49.96828],[-120.03606,49.96842],[-120.03606,49.96857],[-120.03613,49.96874],[-120.0362,49.96886],[-120.03627,49.96897],[-120.03639,49.96908],[-120.03668,49.96922],[-120.03677,49.96925],[-120.0371,49.9694],[-120.03736,49.96947],[-120.03757,49.9695],[-120.03772,49.96954],[-120.03787,49.96956],[-120.03809,49.96957],[-120.03821,49.96964],[-120.03827,49.96977],[-120.03833,49.96998],[-120.03841,49.97036],[-120.03848,49.97057],[-120.03859,49.97077],[-120.03864,49.97089],[-120.03871,49.9711],[-120.03876,49.97125],[-120.03885,49.97147],[-120.03895,49.97166],[-120.03903,49.97177],[-120.03904,49.97185],[-120.03902,49.97196],[-120.039,49.97202],[-120.03893,49.97221],[-120.03884,49.97239],[-120.03873,49.97258],[-120.03866,49.97273],[-120.03864,49.97283],[-120.0387,49.97299],[-120.03876,49.97306],[-120.03885,49.97315],[-120.03897,49.9732],[-120.03929,49.97327],[-120.03958,49.9733],[-120.0398,49.97331],[-120.04038,49.97338],[-120.04069,49.97343],[-120.04078,49.97343],[-120.0411,49.97345],[-120.04141,49.97346],[-120.0417,49.97347],[-120.042,49.97344],[-120.04225,49.97341],[-120.04256,49.97338],[-120.04287,49.97337],[-120.04316,49.97336],[-120.04334,49.97336],[-120.04352,49.97337],[-120.04383,49.9734],[-120.04412,49.97343],[-120.04442,49.97348],[-120.04475,49.97352],[-120.04495,49.97355],[-120.04525,49.97361],[-120.04554,49.97364],[-120.04567,49.97365],[-120.04589,49.9737],[-120.04605,49.97375],[-120.04634,49.9738],[-120.04659,49.9738],[-120.0467,49.97383],[-120.04686,49.97392],[-120.04697,49.97397],[-120.0471,49.97412],[-120.04711,49.9742],[-120.04711,49.97428],[-120.04712,49.97436],[-120.04719,49.97445],[-120.04734,49.97451],[-120.04738,49.97458],[-120.04735,49.97462],[-120.04729,49.97466],[-120.04706,49.97475],[-120.04693,49.97482],[-120.0468,49.97494],[-120.04659,49.97513],[-120.0464,49.97534],[-120.04628,49.97551],[-120.04618,49.97567],[-120.04612,49.97583],[-120.04611,49.97599],[-120.04609,49.97601],[-120.04608,49.97619],[-120.04592,49.97639],[-120.04581,49.97653],[-120.04562,49.97662],[-120.04531,49.97669],[-120.0451,49.97672],[-120.04481,49.97677],[-120.04447,49.97684],[-120.04418,49.9769],[-120.04385,49.97694],[-120.04361,49.97698],[-120.04348,49.97701],[-120.04327,49.97709],[-120.04306,49.97724],[-120.04292,49.97742],[-120.04286,49.97763],[-120.04284,49.97773],[-120.04287,49.97792],[-120.04291,49.97811],[-120.043,49.97829],[-120.04307,49.97845],[-120.04311,49.97852],[-120.04311,49.97864],[-120.04313,49.97877],[-120.04329,49.97899],[-120.0434,49.97916],[-120.04353,49.97934],[-120.04374,49.97956],[-120.04391,49.97972],[-120.0441,49.9799],[-120.04431,49.9801],[-120.0444,49.98018],[-120.04453,49.98037],[-120.04465,49.98053],[-120.0446,49.98074],[-120.0446,49.98085],[-120.04453,49.98098],[-120.04444,49.98111]]}},
{"type":"Feature","properties":{"spotId":"D-grouse-drive-0040","kind":"roadside","km":4.68,"climbM":98,"name":"By Quilchena Creek","flags":[]},"geometry":{"type":"LineString","coordinates":[[-120.18775,49.94593],[-120.18801,49.94602],[-120.1883,49.94609],[-120.1886,49.94614],[-120.18879,49.94617],[-120.18894,49.9462],[-120.18913,49.94628],[-120.18936,49.94641],[-120.18959,49.94656],[-120.18981,49.9467],[-120.19006,49.94686],[-120.19028,49.94696],[-120.19047,49.94703],[-120.19079,49.94712],[-120.19109,49.94723],[-120.19135,49.94734],[-120.19163,49.94747],[-120.19186,49.94756],[-120.19207,49.94766],[-120.19212,49.94771],[-120.19243,49.94785],[-120.19275,49.94804],[-120.19301,49.9482],[-120.19329,49.94837],[-120.1936,49.94857],[-120.19372,49.94863],[-120.19382,49.94868],[-120.19397,49.94876],[-120.19429,49.94895],[-120.19456,49.94911],[-120.19482,49.94928],[-120.19537,49.94966],[-120.19562,49.9498],[-120.19583,49.94988],[-120.19588,49.94989],[-120.19602,49.94993],[-120.19624,49.94997],[-120.19643,49.94999],[-120.19659,49.95001],[-120.19678,49.95003],[-120.19693,49.95004],[-120.19713,49.95006],[-120.19731,49.95008],[-120.19747,49.9501],[-120.19757,49.95013],[-120.19778,49.95015],[-120.19807,49.95019],[-120.19826,49.95018],[-120.19842,49.95019],[-120.19851,49.95018],[-120.19879,49.95018],[-120.19911,49.95017],[-120.19964,49.95016],[-120.19988,49.9502],[-120.2,49.95024],[-120.20008,49.95026],[-120.20037,49.95039],[-120.20072,49.95056],[-120.20102,49.95067],[-120.20121,49.9508],[-120.20144,49.95101],[-120.20147,49.95105],[-120.20159,49.95117],[-120.20163,49.95121],[-120.20179,49.95138],[-120.20188,49.9515],[-120.20199,49.95162],[-120.20209,49.95173],[-120.20219,49.95186],[-120.20231,49.95198],[-120.20247,49.95215],[-120.20266,49.95232],[-120.20289,49.95255],[-120.203,49.95266],[-120.20306,49.95279],[-120.20315,49.95296],[-120.20319,49.95306],[-120.20324,49.95323],[-120.20329,49.95336],[-120.20331,49.95339],[-120.20337,49.95346],[-120.20367,49.95363],[-120.20382,49.95367],[-120.20385,49.95368],[-120.20432,49.95369],[-120.20447,49.95371],[-120.20464,49.95371],[-120.20497,49.95372],[-120.20514,49.95376],[-120.20548,49.9539],[-120.20566,49.95397],[-120.20587,49.95411],[-120.20608,49.95432],[-120.20618,49.95454],[-120.2062,49.95466],[-120.20621,49.95476],[-120.20621,49.95479],[-120.20623,49.95492],[-120.20626,49.95506],[-120.20629,49.95522],[-120.20629,49.95525],[-120.2063,49.95538],[-120.2063,49.95544],[-120.20628,49.95566],[-120.20629,49.95584],[-120.20629,49.95585],[-120.2063,49.95605],[-120.20631,49.95616],[-120.20637,49.95629],[-120.20649,49.9564],[-120.2068,49.95662],[-120.20706,49.95676],[-120.20733,49.95693],[-120.20766,49.95713],[-120.20796,49.95734],[-120.20822,49.95754],[-120.20853,49.95773],[-120.20871,49.9578],[-120.20887,49.95787],[-120.20916,49.95798],[-120.20942,49.95811],[-120.20967,49.95826],[-120.20991,49.95845],[-120.21018,49.95868],[-120.21049,49.95889],[-120.21066,49.95899],[-120.21107,49.95922],[-120.21164,49.95954],[-120.21199,49.95974],[-120.21214,49.95983],[-120.21219,49.95987],[-120.21241,49.95998],[-120.21259,49.96008],[-120.2128,49.96019],[-120.213,49.9603],[-120.21319,49.96041],[-120.21351,49.96067],[-120.21382,49.96087],[-120.21402,49.96097],[-120.21404,49.96097],[-120.21423,49.96107],[-120.21439,49.96113],[-120.21471,49.96129],[-120.21485,49.96138],[-120.21496,49.96147],[-120.21514,49.96166],[-120.21536,49.96188],[-120.21547,49.96194],[-120.21581,49.96209],[-120.21604,49.9622],[-120.21634,49.96233],[-120.2166,49.96244],[-120.21676,49.96251],[-120.21709,49.96269],[-120.21722,49.96279],[-120.21728,49.9629],[-120.21729,49.96299],[-120.21728,49.96322],[-120.21726,49.96362],[-120.21728,49.96374],[-120.21735,49.9639],[-120.21737,49.96391],[-120.21749,49.96414],[-120.21762,49.96436],[-120.21771,49.96449],[-120.21774,49.96463],[-120.21778,49.96479],[-120.21789,49.96491],[-120.21806,49.965],[-120.21822,49.96507],[-120.2184,49.96512],[-120.21856,49.96516],[-120.21866,49.96518],[-120.21892,49.96523],[-120.21903,49.96525],[-120.21936,49.96529],[-120.2195,49.96531],[-120.2197,49.96535],[-120.22003,49.9654],[-120.22036,49.96546],[-120.22058,49.96549],[-120.22075,49.96553],[-120.22105,49.96564],[-120.22115,49.96571],[-120.22126,49.96583],[-120.22138,49.96595],[-120.22144,49.96601],[-120.22174,49.96621],[-120.22206,49.96643],[-120.22229,49.96656],[-120.22261,49.96676],[-120.22294,49.96694],[-120.22323,49.96711],[-120.22342,49.96721],[-120.2236,49.96733],[-120.22389,49.96752],[-120.22415,49.96767],[-120.22437,49.96778],[-120.22483,49.96802],[-120.22515,49.96824],[-120.22547,49.96847],[-120.22566,49.96859],[-120.22593,49.96876],[-120.22621,49.96895],[-120.22641,49.96907],[-120.22663,49.96917],[-120.22685,49.96927],[-120.22707,49.96935],[-120.22739,49.96952],[-120.22749,49.96959],[-120.22767,49.9698],[-120.22776,49.96993],[-120.22783,49.97007],[-120.22791,49.9702],[-120.22795,49.97026],[-120.22799,49.97033],[-120.22806,49.97045],[-120.22819,49.97059],[-120.22823,49.97067],[-120.22821,49.97075],[-120.22809,49.97092],[-120.22798,49.97112],[-120.22798,49.97122],[-120.22797,49.97134],[-120.22801,49.97142],[-120.22831,49.97156],[-120.22854,49.97159],[-120.22872,49.97164],[-120.2289,49.9717],[-120.22921,49.97178],[-120.22966,49.97183],[-120.22985,49.97185],[-120.23005,49.97186],[-120.23037,49.97188],[-120.23056,49.9719],[-120.23075,49.97195],[-120.23097,49.97202],[-120.23119,49.9721],[-120.2314,49.97217],[-120.2315,49.97221],[-120.2316,49.97225],[-120.23179,49.97232],[-120.23197,49.9724],[-120.2321,49.97245]]}},
{"type":"Feature","properties":{"spotId":"D-grouse-drive-0041","kind":"roadside","km":5.02,"climbM":14,"name":"1.2 km SE of Macdonald Lake rec site","flags":[]},"geometry":{"type":"LineString","coordinates":[[-120.02046,49.87681],[-120.02046,49.87679],[-120.02056,49.87636],[-120.02091,49.87581],[-120.02088,49.87529],[-120.02069,49.875],[-120.02019,49.87467],[-120.01997,49.87445],[-120.01991,49.8743],[-120.0199,49.87397],[-120.01985,49.87384],[-120.01972,49.87377],[-120.01965,49.87377],[-120.01942,49.87385],[-120.0193,49.87396],[-120.01891,49.87462],[-120.01873,49.8747],[-120.01864,49.87472],[-120.01847,49.87469],[-120.01831,49.87458],[-120.01828,49.87449],[-120.01831,49.87412],[-120.01805,49.87356],[-120.01791,49.87337],[-120.01756,49.87312],[-120.01628,49.87244],[-120.01605,49.87236],[-120.01556,49.87233],[-120.01487,49.87219],[-120.01389,49.8719],[-120.01254,49.8713],[-120.01206,49.87104],[-120.01174,49.87084],[-120.0103,49.86977],[-120.01003,49.86934],[-120.00919,49.86874],[-120.00904,49.86843],[-120.00897,49.86803],[-120.00862,49.86766],[-120.00868,49.86729],[-120.00861,49.8672],[-120.00852,49.86717],[-120.00834,49.86717],[-120.00817,49.86724],[-120.00807,49.86735],[-120.00806,49.86768],[-120.00793,49.86818],[-120.00793,49.86877],[-120.00786,49.869],[-120.00748,49.86975],[-120.00739,49.86983],[-120.00731,49.86986],[-120.00705,49.86989],[-120.0045,49.86947],[-120.00315,49.86919],[-120.00187,49.86903],[-119.99987,49.86851],[-119.9991,49.86826],[-119.99817,49.86788],[-119.99678,49.86746],[-119.99606,49.86731],[-119.99556,49.86716],[-119.99539,49.86709],[-119.99514,49.86691],[-119.99454,49.86624],[-119.99439,49.86618],[-119.99424,49.86616],[-119.99404,49.86618],[-119.99361,49.86666],[-119.99338,49.86686],[-119.99311,49.86702],[-119.99306,49.86703],[-119.99283,49.86707],[-119.99237,49.86698],[-119.99156,49.86646],[-119.99098,49.86626],[-119.99064,49.86619],[-119.98995,49.86615],[-119.98762,49.86616],[-119.98683,49.86581],[-119.98623,49.86554],[-119.98616,49.86551],[-119.98463,49.86478],[-119.98283,49.86393],[-119.97876,49.86196],[-119.9781,49.86168],[-119.97716,49.86137],[-119.97433,49.8608],[-119.97365,49.86062],[-119.97307,49.86041],[-119.97162,49.85969]]}},
{"type":"Feature","properties":{"spotId":"D-grouse-drive-0042","kind":"roadside","km":5.77,"climbM":20,"name":"1.8 km SW of Crescent Creek","flags":[]},"geometry":{"type":"LineString","coordinates":[[-120.12828,49.80192],[-120.12798,49.80179],[-120.12676,49.80141],[-120.12349,49.80087],[-120.12173,49.80048],[-120.12162,49.80049],[-120.12136,49.80058],[-120.1208,49.8009],[-120.12047,49.80109],[-120.12,49.80125],[-120.11953,49.80134],[-120.11865,49.80131],[-120.1181,49.80125],[-120.11785,49.80126],[-120.11757,49.80133],[-120.11706,49.80141],[-120.11674,49.80139],[-120.11641,49.80135],[-120.11622,49.80129],[-120.11594,49.80115],[-120.11566,49.80094],[-120.11495,49.80063],[-120.1145,49.80048],[-120.11391,49.8004],[-120.11336,49.80038],[-120.11308,49.80044],[-120.11249,49.80074],[-120.11197,49.8011],[-120.11116,49.8014],[-120.10988,49.80175],[-120.10935,49.80183],[-120.10901,49.80192],[-120.10758,49.80239],[-120.10671,49.80274],[-120.10463,49.80339],[-120.10409,49.80352],[-120.1031,49.80365],[-120.102,49.80389],[-120.10029,49.80442],[-120.09916,49.80472],[-120.09781,49.80522],[-120.09689,49.80567],[-120.0962,49.80605],[-120.09554,49.80668],[-120.09546,49.80678],[-120.0953,49.80738],[-120.09534,49.80771],[-120.09528,49.80796],[-120.09515,49.80819],[-120.09471,49.80862],[-120.09443,49.80874],[-120.0925,49.80931],[-120.09208,49.80946],[-120.09206,49.80948],[-120.09158,49.80946],[-120.09058,49.80953],[-120.08966,49.80965],[-120.08933,49.80975],[-120.08903,49.8099],[-120.0879,49.81067],[-120.08745,49.81094],[-120.08693,49.81109],[-120.08585,49.8112],[-120.08512,49.81119],[-120.08457,49.81123],[-120.08387,49.8113],[-120.083,49.81148],[-120.08195,49.8118],[-120.08107,49.81242],[-120.08043,49.81264],[-120.07964,49.81282],[-120.07847,49.81288],[-120.07711,49.81274],[-120.07685,49.81271],[-120.07656,49.81263],[-120.0749,49.81211],[-120.07456,49.81203],[-120.07408,49.81192],[-120.0737,49.81189],[-120.07315,49.81177],[-120.07285,49.81174],[-120.07151,49.8116],[-120.07023,49.81156],[-120.06984,49.81159],[-120.06918,49.81177],[-120.06824,49.81194],[-120.06786,49.81193],[-120.06695,49.81181],[-120.06641,49.81163],[-120.0648,49.81137],[-120.06387,49.81127],[-120.06356,49.81115],[-120.06342,49.81107],[-120.06276,49.81029],[-120.06193,49.80955],[-120.06138,49.80925],[-120.06002,49.80868],[-120.05909,49.80838]]}},
{"type":"Feature","properties":{"spotId":"D-grouse-drive-0045","kind":"roadside","km":4.14,"climbM":10,"name":"1.7 km NE of Tepee Lakes","flags":[]},"geometry":{"type":"LineString","coordinates":[[-120.23926,49.80261],[-120.2391,49.80255],[-120.23903,49.80252],[-120.23879,49.80242],[-120.23869,49.80237],[-120.23857,49.80231],[-120.23832,49.80214],[-120.23807,49.80193],[-120.23791,49.80177],[-120.23781,49.80159],[-120.23761,49.80138],[-120.23722,49.80097],[-120.23708,49.80077],[-120.23689,49.80056],[-120.23668,49.80038],[-120.23665,49.80036],[-120.23648,49.80018],[-120.23631,49.8],[-120.23622,49.79996],[-120.23602,49.79981],[-120.23583,49.79967],[-120.23563,49.79953],[-120.23542,49.79941],[-120.23524,49.79931],[-120.23519,49.79928],[-120.23493,49.79913],[-120.2347,49.799],[-120.23447,49.79889],[-120.23416,49.79875],[-120.23393,49.79864],[-120.23363,49.79853],[-120.23338,49.79846],[-120.23337,49.79846],[-120.2331,49.79839],[-120.23281,49.79835],[-120.23251,49.79836],[-120.23223,49.79842],[-120.23198,49.79849],[-120.2317,49.79859],[-120.23139,49.79868],[-120.23103,49.79874],[-120.23076,49.79874],[-120.23047,49.79871],[-120.23018,49.79865],[-120.2299,49.7986],[-120.22963,49.79857],[-120.22934,49.79854],[-120.22905,49.79851],[-120.22874,49.79849],[-120.22841,49.79847],[-120.22809,49.79842],[-120.22782,49.79839],[-120.2275,49.79836],[-120.22721,49.79833],[-120.22693,49.79831],[-120.22665,49.79828],[-120.22636,49.79824],[-120.22602,49.79819],[-120.22541,49.7981],[-120.22512,49.79807],[-120.22485,49.79804],[-120.22454,49.798],[-120.22427,49.79795],[-120.22395,49.79791],[-120.22388,49.79789],[-120.22375,49.79785],[-120.22373,49.79784],[-120.22298,49.79745],[-120.22294,49.79743],[-120.22264,49.79746],[-120.22254,49.79752],[-120.22241,49.7976],[-120.22198,49.79793],[-120.22177,49.79811],[-120.22155,49.79828],[-120.22134,49.79843],[-120.22111,49.79856],[-120.22082,49.79864],[-120.22053,49.79871],[-120.22024,49.79872],[-120.21992,49.7987],[-120.21962,49.79864],[-120.21934,49.79855],[-120.21903,49.79844],[-120.21896,49.79843],[-120.21865,49.79831],[-120.21842,49.7982],[-120.21793,49.79797],[-120.21767,49.79785],[-120.21744,49.79773],[-120.21713,49.79765],[-120.21687,49.79758],[-120.21657,49.79749],[-120.21626,49.79746],[-120.21599,49.79747],[-120.21565,49.79754],[-120.21536,49.79756],[-120.21505,49.79751],[-120.21485,49.79748],[-120.21467,49.79744],[-120.21438,49.79735],[-120.21384,49.79714],[-120.21367,49.7971],[-120.21349,49.79706],[-120.21316,49.79699],[-120.21286,49.79692],[-120.21255,49.79684],[-120.21226,49.79672],[-120.21218,49.79667],[-120.21205,49.79659],[-120.2118,49.79649],[-120.21155,49.79636],[-120.21132,49.79623],[-120.21105,49.79608],[-120.2109,49.796],[-120.21063,49.79589],[-120.21037,49.79582],[-120.2101,49.79574],[-120.20984,49.79562],[-120.20966,49.79556],[-120.20939,49.79544],[-120.20909,49.79535],[-120.20883,49.79528],[-120.20868,49.79523],[-120.20842,49.79514],[-120.20813,49.79507],[-120.20779,49.79497],[-120.2076,49.7949],[-120.2073,49.79482],[-120.20703,49.79475],[-120.2067,49.79469],[-120.20659,49.79466],[-120.20631,49.79464],[-120.20602,49.7946],[-120.2057,49.7946],[-120.20566,49.79459],[-120.20535,49.79461],[-120.20523,49.79464],[-120.20493,49.79478],[-120.20475,49.79496],[-120.20472,49.79503],[-120.20463,49.7951],[-120.20436,49.79516],[-120.20408,49.7952],[-120.20375,49.79523],[-120.20343,49.79524],[-120.20315,49.79527],[-120.20285,49.79532],[-120.20279,49.79534],[-120.20247,49.79537],[-120.20242,49.79539],[-120.20214,49.79537],[-120.20185,49.79534],[-120.20147,49.79533],[-120.20119,49.79538],[-120.20101,49.79541],[-120.20078,49.79552],[-120.20058,49.79568],[-120.20043,49.79586],[-120.20032,49.79603],[-120.20022,49.79619],[-120.20017,49.79626],[-120.20001,49.79636],[-120.19969,49.79641],[-120.19939,49.79646],[-120.19911,49.79653],[-120.19901,49.79657],[-120.1988,49.79663],[-120.19863,49.79667],[-120.19845,49.7967],[-120.19835,49.79673],[-120.19802,49.79687],[-120.19795,49.79691],[-120.19789,49.79695],[-120.19779,49.79712],[-120.19777,49.79719],[-120.19765,49.79737],[-120.19752,49.79748],[-120.19731,49.79764],[-120.19722,49.7978],[-120.19717,49.79797],[-120.19705,49.79811],[-120.19693,49.79818],[-120.1968,49.79823],[-120.19669,49.79826],[-120.19646,49.79835],[-120.1963,49.79847],[-120.19601,49.79868],[-120.19534,49.79909],[-120.1951,49.7993],[-120.19491,49.79944],[-120.19462,49.79956],[-120.19432,49.79967],[-120.19405,49.79969],[-120.19392,49.79972],[-120.19366,49.79978],[-120.19338,49.7998],[-120.19307,49.7998],[-120.19275,49.79982],[-120.1925,49.79986],[-120.19226,49.79989],[-120.19204,49.79994],[-120.19196,49.8],[-120.19198,49.80015],[-120.19207,49.80025]]}},
{"type":"Feature","properties":{"spotId":"D-grouse-drive-0051","kind":"roadside","km":5.77,"climbM":89,"name":"By North Trout Creek","flags":[]},"geometry":{"type":"LineString","coordinates":[[-120.17908,49.80183],[-120.17885,49.80202],[-120.17859,49.80213],[-120.17812,49.80216],[-120.17762,49.80212],[-120.17732,49.80202],[-120.17672,49.802],[-120.17625,49.80211],[-120.17565,49.80234],[-120.17535,49.80241],[-120.17507,49.80241],[-120.17502,49.80241],[-120.17469,49.8024],[-120.17437,49.80236],[-120.17333,49.80205],[-120.17245,49.80188],[-120.17184,49.80179],[-120.17039,49.80197],[-120.16718,49.80193],[-120.16627,49.80208],[-120.16595,49.80207],[-120.16545,49.80199],[-120.16492,49.80191],[-120.16371,49.80183],[-120.16223,49.80201],[-120.16148,49.802],[-120.16087,49.80208],[-120.16026,49.80207],[-120.16013,49.80204],[-120.16005,49.80196],[-120.15973,49.80142],[-120.15967,49.80125],[-120.15957,49.8011],[-120.15949,49.80106],[-120.15848,49.80074],[-120.15747,49.8007],[-120.15636,49.8003],[-120.15545,49.8],[-120.15371,49.79916],[-120.15333,49.79888],[-120.15316,49.7988],[-120.15263,49.79838],[-120.15209,49.79812],[-120.15132,49.79765],[-120.15059,49.79729],[-120.15003,49.79694],[-120.14958,49.79653],[-120.14923,49.79614],[-120.14826,49.79531],[-120.14814,49.7951],[-120.14646,49.79384],[-120.14525,49.79269],[-120.14508,49.79268],[-120.1448,49.79259],[-120.14451,49.79247],[-120.14363,49.79217],[-120.1433,49.79203],[-120.14237,49.79177],[-120.14214,49.79173],[-120.14129,49.79174],[-120.14079,49.79191],[-120.14049,49.7921],[-120.14014,49.79217],[-120.13982,49.79218],[-120.13924,49.79233],[-120.13911,49.7924],[-120.13888,49.79273],[-120.13867,49.79343],[-120.13868,49.79361],[-120.13884,49.7943],[-120.1391,49.79511],[-120.13935,49.79567],[-120.13938,49.79607],[-120.13949,49.79652],[-120.1395,49.79705],[-120.13958,49.79731],[-120.14004,49.79758],[-120.14048,49.79775],[-120.14123,49.79815],[-120.14175,49.7985],[-120.14196,49.79869],[-120.14296,49.7994],[-120.14318,49.79958],[-120.14332,49.79979],[-120.14351,49.8],[-120.14378,49.80064],[-120.14325,49.80115],[-120.14311,49.80135],[-120.1419,49.8022],[-120.14142,49.80247],[-120.1412,49.80267],[-120.14085,49.8029],[-120.14061,49.803],[-120.1403,49.80304],[-120.13966,49.80305],[-120.13886,49.803],[-120.13809,49.80281],[-120.13783,49.80279],[-120.13633,49.80275],[-120.13399,49.80284],[-120.13296,49.80291],[-120.1309,49.80288],[-120.13074,49.80285],[-120.12998,49.80255],[-120.12908,49.80227],[-120.12828,49.80192]]}},
{"type":"Feature","properties":{"spotId":"D-grouse-drive-0058","kind":"roadside","km":6.59,"climbM":90,"name":"2.9 km SE of Pattinson Lake","flags":[]},"geometry":{"type":"LineString","coordinates":[[-120.15424,49.93502],[-120.15413,49.93516],[-120.15393,49.93528],[-120.15377,49.93542],[-120.15351,49.93575],[-120.15341,49.93597],[-120.15338,49.93628],[-120.15349,49.93703],[-120.15365,49.93791],[-120.1536,49.9382],[-120.15353,49.9385],[-120.15338,49.93873],[-120.15326,49.93885],[-120.15283,49.93906],[-120.15229,49.93918],[-120.15174,49.93927],[-120.15114,49.93932],[-120.15072,49.93931],[-120.15042,49.93924],[-120.15022,49.93913],[-120.15,49.93908],[-120.14975,49.93903],[-120.14943,49.93901],[-120.14922,49.93908],[-120.14867,49.93911],[-120.14811,49.93897],[-120.14722,49.9386],[-120.14674,49.93838],[-120.1454,49.93792],[-120.14449,49.93768],[-120.14404,49.93752],[-120.14377,49.93735],[-120.14303,49.93713],[-120.14252,49.9371],[-120.14198,49.93713],[-120.14165,49.9373],[-120.14064,49.93774],[-120.14019,49.93788],[-120.14009,49.93792],[-120.13994,49.93803],[-120.13979,49.93818],[-120.13966,49.93828],[-120.13931,49.93849],[-120.13893,49.93865],[-120.13877,49.93869],[-120.13829,49.93874],[-120.13791,49.93881],[-120.13721,49.93897],[-120.13662,49.93916],[-120.13612,49.93938],[-120.13584,49.93948],[-120.13558,49.93962],[-120.13541,49.93975],[-120.13531,49.93988],[-120.13532,49.94003],[-120.1354,49.94019],[-120.13552,49.94044],[-120.13563,49.94069],[-120.13569,49.94086],[-120.13569,49.94112],[-120.13557,49.94121],[-120.13544,49.94127],[-120.13523,49.94132],[-120.13495,49.94136],[-120.13434,49.94153],[-120.13411,49.94164],[-120.13399,49.94175],[-120.13393,49.94231],[-120.13368,49.94276],[-120.13354,49.94296],[-120.13349,49.94313],[-120.13348,49.94322],[-120.13359,49.94335],[-120.13382,49.94349],[-120.13413,49.94362],[-120.13446,49.94372],[-120.13496,49.9439],[-120.13536,49.94409],[-120.1356,49.94419],[-120.13585,49.94423],[-120.13603,49.94432],[-120.13614,49.94446],[-120.1363,49.9446],[-120.13646,49.94478],[-120.13689,49.94503],[-120.13726,49.94533],[-120.13769,49.94581],[-120.13784,49.94588],[-120.13852,49.94603],[-120.1389,49.94622],[-120.13906,49.94644],[-120.13925,49.94665],[-120.13961,49.94682],[-120.14029,49.9471],[-120.14086,49.9474],[-120.14128,49.94761],[-120.14182,49.9481],[-120.14306,49.94888],[-120.14314,49.94901],[-120.14314,49.94915],[-120.14309,49.94931],[-120.14298,49.94949],[-120.14275,49.94968],[-120.14253,49.9498],[-120.14221,49.94989],[-120.14186,49.94991],[-120.14139,49.95006],[-120.14107,49.95025],[-120.14077,49.95057],[-120.1405,49.95095],[-120.13886,49.95202],[-120.1383,49.95254],[-120.13853,49.95312],[-120.13915,49.95367],[-120.13942,49.95404],[-120.13969,49.95429],[-120.14004,49.9549],[-120.14063,49.95555],[-120.14087,49.95615],[-120.14095,49.95657],[-120.14088,49.95678],[-120.14073,49.95697],[-120.1406,49.95706],[-120.14021,49.95725],[-120.13907,49.95755],[-120.13888,49.95771],[-120.13885,49.95777],[-120.13886,49.95788],[-120.13897,49.95808],[-120.1401,49.95864],[-120.14148,49.95916],[-120.14155,49.95928],[-120.14153,49.95938],[-120.14143,49.95948],[-120.14116,49.95955],[-120.14089,49.9597],[-120.14065,49.9599],[-120.14056,49.96],[-120.14052,49.96024],[-120.14066,49.96072],[-120.14108,49.9611],[-120.14124,49.96122],[-120.14159,49.96126],[-120.14187,49.96125],[-120.14242,49.9611],[-120.14385,49.9608],[-120.14539,49.96062],[-120.14801,49.96099],[-120.14856,49.96143],[-120.14887,49.96193],[-120.14908,49.96222],[-120.14954,49.96266],[-120.14992,49.96295],[-120.15046,49.96319],[-120.15064,49.96343],[-120.15072,49.96365],[-120.15064,49.96404],[-120.15051,49.96437],[-120.15035,49.9647],[-120.15027,49.96537],[-120.15053,49.96596],[-120.15053,49.96609],[-120.1504,49.96627],[-120.15011,49.9665],[-120.14957,49.96681],[-120.14924,49.96708],[-120.14895,49.96735],[-120.14858,49.96753],[-120.14748,49.9679],[-120.14726,49.96798]]}},
{"type":"Feature","properties":{"spotId":"D-grouse-walk-0075","kind":"roadside","km":4.01,"climbM":106,"name":"270 m E of Pitin Creek","flags":["Route enters a Motor Vehicle Closed Area: Thompson, Cariboo and Okanagan Alpines. Closed Year Round. Exemption: Snowmobiles exempt year round (January 1 to December 31). Synopsis map 1-82/24."]},"geometry":{"type":"LineString","coordinates":[[-120.16291,49.83679],[-120.16284,49.83675],[-120.16274,49.83673],[-120.16264,49.8367],[-120.16256,49.83667],[-120.1625,49.83665],[-120.16244,49.83661],[-120.16238,49.83658],[-120.1623,49.83655],[-120.16219,49.83648],[-120.16212,49.83645],[-120.16209,49.83643],[-120.16207,49.83641],[-120.162,49.83638],[-120.16192,49.83634],[-120.16184,49.8363],[-120.16179,49.83625],[-120.16173,49.83622],[-120.16167,49.83617],[-120.16165,49.83616],[-120.16161,49.83613],[-120.16155,49.83609],[-120.16147,49.83603],[-120.16141,49.83599],[-120.16126,49.83595],[-120.16122,49.83595],[-120.16119,49.83593],[-120.16116,49.83591],[-120.16113,49.83589],[-120.16106,49.83587],[-120.16102,49.83587],[-120.16097,49.83587],[-120.16091,49.83586],[-120.16083,49.83585],[-120.1608,49.83583],[-120.16077,49.83582],[-120.16073,49.83581],[-120.16067,49.83582],[-120.16062,49.8358],[-120.16058,49.83579],[-120.16055,49.83577],[-120.16051,49.83576],[-120.16039,49.83571],[-120.16028,49.8357],[-120.16021,49.83567],[-120.16012,49.83564],[-120.16005,49.83562],[-120.16,49.83559],[-120.15995,49.83557],[-120.1599,49.83556],[-120.15984,49.83554],[-120.1598,49.83554],[-120.15974,49.83553],[-120.15969,49.83554],[-120.15964,49.83553],[-120.1596,49.83551],[-120.15957,49.8355],[-120.15951,49.83549],[-120.15944,49.83547],[-120.15937,49.83546],[-120.15929,49.83546],[-120.15922,49.83545],[-120.15917,49.83544],[-120.1591,49.83544],[-120.15904,49.83542],[-120.159,49.83542],[-120.15896,49.83542],[-120.15888,49.83542],[-120.15882,49.83541],[-120.15878,49.8354],[-120.15875,49.83538],[-120.15869,49.83536],[-120.15864,49.83537],[-120.15848,49.83535],[-120.15841,49.83533],[-120.15832,49.83533],[-120.15824,49.83533],[-120.15818,49.83533],[-120.15813,49.83534],[-120.15809,49.83536],[-120.15802,49.83537],[-120.15799,49.83537],[-120.15795,49.83537],[-120.15791,49.83537],[-120.15781,49.83541],[-120.15777,49.83541],[-120.15771,49.83541],[-120.15764,49.83542],[-120.15757,49.83543],[-120.15754,49.83545],[-120.15748,49.83549],[-120.15745,49.83551],[-120.15739,49.83553],[-120.15736,49.83556],[-120.15731,49.8356],[-120.15723,49.83563],[-120.15719,49.83566],[-120.15715,49.83567],[-120.15704,49.8357],[-120.15696,49.83572],[-120.1569,49.83574],[-120.15687,49.83574],[-120.1568,49.83574],[-120.15675,49.83573],[-120.1567,49.83574],[-120.15664,49.83573],[-120.15658,49.83573],[-120.15653,49.83574],[-120.15649,49.83574],[-120.15643,49.83574],[-120.15635,49.83575],[-120.1563,49.83575],[-120.15622,49.83575],[-120.15618,49.83575],[-120.15612,49.83574],[-120.15608,49.83575],[-120.15604,49.83578],[-120.15601,49.8358],[-120.15596,49.83581],[-120.15589,49.8358],[-120.15585,49.8358],[-120.15579,49.8358],[-120.15571,49.83582],[-120.15563,49.83583],[-120.15556,49.83585],[-120.15553,49.83585],[-120.15548,49.83585],[-120.15541,49.83586],[-120.15537,49.83586],[-120.15533,49.83586],[-120.15526,49.83584],[-120.15518,49.83585],[-120.15513,49.83585],[-120.15506,49.83586],[-120.15502,49.83587],[-120.15498,49.83587],[-120.15494,49.83588],[-120.15489,49.83588],[-120.15485,49.83589],[-120.15477,49.83589],[-120.15472,49.8359],[-120.15465,49.83591],[-120.1546,49.83591],[-120.15446,49.83594],[-120.15441,49.83595],[-120.15429,49.83597],[-120.15421,49.836],[-120.15416,49.83601],[-120.15412,49.83602],[-120.15397,49.83603],[-120.15387,49.83603],[-120.15381,49.83604],[-120.15375,49.83603],[-120.15369,49.83602],[-120.15363,49.836],[-120.15355,49.836],[-120.15349,49.83599],[-120.15343,49.83599],[-120.15336,49.83598],[-120.15329,49.83597],[-120.1532,49.83596],[-120.1531,49.83595],[-120.15296,49.83594],[-120.15288,49.83593],[-120.15279,49.83592],[-120.1527,49.83592],[-120.15267,49.83591],[-120.15246,49.83592],[-120.15232,49.83591],[-120.15217,49.83589],[-120.15192,49.83585],[-120.15157,49.83568],[-120.15137,49.8356],[-120.15116,49.83557],[-120.15099,49.83556],[-120.15086,49.83561],[-120.15072,49.83582],[-120.15062,49.83599],[-120.1504,49.83645],[-120.15034,49.8365],[-120.15017,49.83655],[-120.14937,49.83665],[-120.14876,49.83668],[-120.14857,49.83665],[-120.14846,49.83663],[-120.14825,49.83662],[-120.14806,49.83661],[-120.14788,49.8366],[-120.14766,49.83659],[-120.14746,49.83658],[-120.14721,49.83655],[-120.14698,49.83654],[-120.14676,49.83654],[-120.1466,49.83659],[-120.14643,49.83664],[-120.14628,49.83666],[-120.14613,49.8367],[-120.14594,49.83673],[-120.1458,49.83674],[-120.14565,49.83673],[-120.14551,49.83673],[-120.14536,49.8367],[-120.1452,49.83667],[-120.14504,49.83662],[-120.14488,49.83654],[-120.14471,49.83645],[-120.14448,49.83631],[-120.14424,49.83615],[-120.14404,49.83603],[-120.14388,49.83595],[-120.14368,49.83586],[-120.14346,49.83577],[-120.1433,49.83571],[-120.1431,49.83567],[-120.14282,49.83557],[-120.14259,49.83547],[-120.1424,49.83539],[-120.14226,49.83528],[-120.14206,49.83514],[-120.14186,49.83503],[-120.14166,49.83487],[-120.1415,49.83474],[-120.14134,49.8346],[-120.14128,49.83451],[-120.14125,49.83438],[-120.14126,49.83427],[-120.14124,49.83416],[-120.14116,49.83407],[-120.14108,49.83399],[-120.14093,49.83394],[-120.14074,49.83391],[-120.14058,49.8339],[-120.14035,49.83395],[-120.14017,49.834],[-120.13998,49.83403],[-120.13978,49.83406],[-120.13962,49.83408],[-120.13942,49.83408],[-120.13927,49.8341],[-120.13912,49.83413],[-120.13902,49.8342],[-120.13886,49.83429],[-120.13871,49.83435],[-120.13855,49.8344],[-120.13841,49.83443],[-120.13822,49.83446],[-120.13809,49.8345],[-120.13796,49.83454],[-120.13782,49.83461],[-120.13764,49.83464],[-120.13747,49.83465],[-120.13735,49.83465],[-120.13724,49.83461],[-120.13707,49.83457],[-120.13695,49.8345],[-120.13682,49.83449],[-120.1367,49.83449],[-120.13652,49.83449],[-120.13625,49.8345],[-120.13602,49.83452],[-120.13578,49.83454],[-120.13563,49.83456],[-120.13546,49.83459],[-120.13525,49.83462],[-120.13505,49.83464],[-120.13489,49.83466],[-120.13473,49.83468],[-120.13458,49.83472],[-120.13454,49.83466],[-120.1343,49.8345],[-120.1341,49.83439],[-120.13398,49.83433],[-120.13392,49.83433],[-120.1338,49.83425],[-120.13367,49.83415],[-120.13363,49.83407],[-120.13338,49.83408],[-120.13313,49.83397],[-120.13248,49.83344],[-120.13211,49.83338],[-120.13185,49.83327],[-120.13153,49.83323],[-120.13105,49.83324],[-120.13095,49.83323],[-120.13063,49.83296],[-120.13029,49.83278],[-120.1299,49.83263],[-120.12945,49.83251],[-120.12921,49.83245],[-120.12898,49.8323],[-120.12881,49.8322],[-120.12838,49.83211],[-120.12812,49.83206],[-120.12784,49.83193],[-120.12771,49.83188],[-120.12734,49.8318],[-120.12702,49.83171],[-120.1268,49.83164],[-120.12635,49.83149],[-120.12601,49.83139],[-120.12554,49.83122],[-120.12491,49.83102],[-120.12451,49.83089],[-120.12433,49.83085],[-120.12379,49.83079],[-120.12334,49.83074],[-120.12297,49.83069],[-120.12261,49.83065],[-120.12239,49.83061],[-120.12222,49.83055],[-120.12187,49.83054],[-120.12169,49.83054],[-120.12151,49.83058],[-120.12131,49.83068],[-120.12106,49.83082],[-120.12086,49.83094],[-120.12071,49.83102],[-120.12051,49.83108],[-120.12029,49.83111],[-120.12009,49.8311],[-120.11975,49.83109],[-120.11945,49.83107],[-120.11925,49.83107],[-120.11901,49.83098],[-120.11875,49.83091],[-120.11856,49.83086],[-120.11829,49.83086],[-120.11797,49.83086],[-120.11767,49.83086],[-120.11731,49.83086],[-120.117,49.83088],[-120.1167,49.83089],[-120.11641,49.83089],[-120.11616,49.83091],[-120.11591,49.83088],[-120.11568,49.83087],[-120.11549,49.83086],[-120.11523,49.83079],[-120.11491,49.83072],[-120.11459,49.83064],[-120.11449,49.83058],[-120.11445,49.83054]]}},
{"type":"Feature","properties":{"spotId":"D-grouse-walk-0084","kind":"roadside","km":3.17,"climbM":156,"name":"1.6 km N of Pennask Mountain","flags":["Route enters a Motor Vehicle Closed Area: Thompson, Cariboo and Okanagan Alpines. Closed Year Round. Exemption: Snowmobiles exempt year round (January 1 to December 31). Synopsis map 1-82/24."]},"geometry":{"type":"LineString","coordinates":[[-120.11353,49.89986],[-120.11351,49.8997],[-120.11353,49.89959],[-120.11358,49.8995],[-120.11368,49.89944],[-120.11402,49.89936],[-120.11428,49.89928],[-120.11454,49.89919],[-120.11458,49.89917],[-120.11479,49.89911],[-120.11492,49.8991],[-120.11521,49.89903],[-120.11552,49.89894],[-120.11564,49.8989],[-120.11586,49.89888],[-120.11599,49.89884],[-120.11624,49.89881],[-120.11636,49.89879],[-120.1165,49.89875],[-120.11673,49.89865],[-120.11683,49.89859],[-120.11691,49.89852],[-120.11697,49.89839],[-120.11703,49.89826],[-120.11706,49.89818],[-120.11711,49.8981],[-120.11724,49.89794],[-120.11745,49.89773],[-120.11751,49.8976],[-120.11758,49.89747],[-120.11764,49.89738],[-120.11782,49.89724],[-120.11803,49.89707],[-120.11829,49.89691],[-120.11855,49.89675],[-120.11876,49.89657],[-120.11892,49.89644],[-120.11914,49.89633],[-120.11935,49.89626],[-120.11942,49.89624],[-120.11945,49.89623],[-120.11967,49.89621],[-120.11996,49.89619],[-120.12027,49.89616],[-120.12059,49.89612],[-120.12076,49.89611],[-120.12146,49.89613],[-120.12164,49.89613],[-120.12184,49.89609],[-120.12202,49.89604],[-120.1223,49.89604],[-120.12252,49.89602],[-120.1228,49.89598],[-120.12304,49.89595],[-120.12321,49.89593],[-120.1236,49.89591],[-120.12386,49.89588],[-120.12413,49.89587],[-120.12431,49.89586],[-120.1245,49.89585],[-120.1247,49.89584],[-120.1249,49.89585],[-120.12524,49.89585],[-120.12543,49.89586],[-120.1257,49.89588],[-120.12602,49.89591],[-120.12629,49.89592],[-120.12641,49.89588],[-120.12653,49.89582],[-120.12673,49.89567],[-120.12693,49.89552],[-120.12714,49.89532],[-120.12733,49.89514],[-120.12753,49.89495],[-120.1278,49.89478],[-120.12783,49.89475],[-120.12805,49.89459],[-120.12833,49.89442],[-120.12861,49.89423],[-120.12884,49.8941],[-120.1291,49.89393],[-120.12933,49.89373],[-120.12957,49.89356],[-120.1299,49.89335],[-120.13016,49.89319],[-120.13041,49.89303],[-120.1307,49.89289],[-120.13089,49.89274],[-120.13102,49.89267],[-120.13136,49.89251],[-120.1315,49.89246],[-120.13181,49.89237],[-120.13201,49.89233],[-120.13219,49.89229],[-120.13239,49.89224],[-120.13272,49.89213],[-120.13301,49.89204],[-120.13326,49.89193],[-120.1334,49.89189],[-120.13367,49.89175],[-120.13389,49.89158],[-120.13401,49.89141],[-120.13407,49.89132],[-120.13413,49.89112],[-120.13414,49.89104],[-120.13418,49.89082],[-120.13419,49.89068],[-120.13418,49.8906],[-120.13421,49.89041],[-120.13425,49.89021],[-120.13424,49.89007],[-120.13425,49.88998],[-120.13429,49.88987],[-120.13436,49.88975],[-120.13438,49.88964],[-120.1344,49.88944],[-120.13444,49.88923],[-120.13448,49.88906],[-120.13453,49.8889],[-120.13461,49.88871],[-120.13465,49.88855],[-120.13469,49.88835],[-120.1347,49.88827],[-120.13478,49.88812],[-120.13481,49.88792],[-120.13487,49.88777],[-120.13493,49.88755],[-120.13493,49.88744],[-120.13495,49.88731],[-120.13496,49.88711],[-120.13496,49.88699],[-120.13498,49.88666],[-120.135,49.88645],[-120.13503,49.88626],[-120.13502,49.88612],[-120.13503,49.88594],[-120.13502,49.8858],[-120.13503,49.88568],[-120.13507,49.88555],[-120.13513,49.88534],[-120.13517,49.88524],[-120.13519,49.88504],[-120.13522,49.88482],[-120.13531,49.88461],[-120.13542,49.88445],[-120.13548,49.88433],[-120.13551,49.88416],[-120.13553,49.88402],[-120.13557,49.88383],[-120.13565,49.88363],[-120.13578,49.88345],[-120.13592,49.88327],[-120.13599,49.88316],[-120.13607,49.88305],[-120.13621,49.88284],[-120.13624,49.88274],[-120.13625,49.88254],[-120.13624,49.88216],[-120.13625,49.88201],[-120.13623,49.88192],[-120.13625,49.88185],[-120.13624,49.88172],[-120.13624,49.88151],[-120.13621,49.88135],[-120.13617,49.8812],[-120.13615,49.88106],[-120.13614,49.88089],[-120.13609,49.88071],[-120.13608,49.88061],[-120.13604,49.88046],[-120.13603,49.88026],[-120.13603,49.8801]]}},
{"type":"Feature","properties":{"spotId":"D-grouse-walk-0088","kind":"roadside","km":3.41,"climbM":97,"name":"1.4 km SW of Kathleen, Mount","flags":["Route enters a Motor Vehicle Closed Area: Thompson, Cariboo and Okanagan Alpines. Closed Year Round. Exemption: Snowmobiles exempt year round (January 1 to December 31). Synopsis map 1-82/24."]},"geometry":{"type":"LineString","coordinates":[[-120.06618,49.75474],[-120.06622,49.75474],[-120.06649,49.75477],[-120.06675,49.75488],[-120.06695,49.75498],[-120.06728,49.75517],[-120.06752,49.75529],[-120.06784,49.75549],[-120.06796,49.75552],[-120.0682,49.75554],[-120.06831,49.75554],[-120.06835,49.75554],[-120.06856,49.75554],[-120.0687,49.75545],[-120.069,49.7553],[-120.06918,49.75519],[-120.0694,49.75512],[-120.06953,49.75509],[-120.06986,49.75507],[-120.07014,49.75505],[-120.07048,49.75504],[-120.07071,49.75502],[-120.07094,49.75501],[-120.07117,49.755],[-120.07137,49.75499],[-120.0717,49.75498],[-120.07204,49.75494],[-120.07221,49.75491],[-120.07238,49.75489],[-120.07256,49.75487],[-120.07272,49.75487],[-120.0729,49.75487],[-120.07308,49.75487],[-120.0734,49.75486],[-120.07365,49.75486],[-120.07377,49.75485],[-120.07408,49.75476],[-120.07432,49.75471],[-120.07457,49.75466],[-120.07469,49.75465],[-120.07501,49.7547],[-120.07533,49.75479],[-120.07558,49.75486],[-120.07575,49.75489],[-120.07593,49.75494],[-120.07623,49.75505],[-120.07646,49.75515],[-120.07674,49.75525],[-120.07706,49.75533],[-120.07719,49.75536],[-120.07752,49.75545],[-120.07799,49.75553],[-120.07826,49.75563],[-120.07858,49.7558],[-120.07904,49.75612],[-120.07921,49.75625],[-120.07953,49.75616],[-120.07955,49.75616],[-120.07983,49.75614],[-120.08006,49.75622],[-120.08037,49.75634],[-120.0806,49.75641],[-120.08082,49.7565],[-120.08109,49.75664],[-120.08141,49.75681],[-120.08168,49.75697],[-120.08177,49.75703],[-120.08201,49.75717],[-120.08224,49.75728],[-120.08245,49.75738],[-120.08271,49.75759],[-120.08291,49.75775],[-120.0832,49.75797],[-120.08347,49.75816],[-120.08365,49.75831],[-120.08386,49.75842],[-120.08413,49.75851],[-120.08441,49.75861],[-120.08471,49.75874],[-120.08501,49.75886],[-120.08537,49.75906],[-120.08557,49.75922],[-120.08581,49.75942],[-120.0859,49.75952],[-120.08593,49.75964],[-120.08589,49.75984],[-120.08588,49.75991],[-120.08574,49.76008],[-120.08573,49.76011],[-120.0857,49.76014],[-120.0856,49.76028],[-120.0856,49.76042],[-120.08558,49.76054],[-120.08558,49.76075],[-120.08559,49.76095],[-120.08554,49.76113],[-120.0855,49.76126],[-120.08545,49.76145],[-120.08543,49.76153],[-120.08548,49.76171],[-120.08562,49.76188],[-120.08589,49.76201],[-120.08609,49.76218],[-120.08639,49.76239],[-120.08644,49.76241],[-120.08669,49.76252],[-120.08702,49.76254],[-120.08718,49.76255],[-120.08751,49.76253],[-120.08775,49.76252],[-120.08789,49.76252],[-120.08819,49.76252],[-120.08842,49.76251],[-120.08875,49.7625],[-120.08937,49.76251],[-120.08948,49.76254],[-120.08979,49.76256],[-120.09011,49.76253],[-120.09061,49.76254],[-120.0907,49.76258],[-120.0908,49.76265],[-120.09101,49.76275],[-120.09115,49.76283],[-120.09137,49.76301],[-120.09145,49.76311],[-120.0915,49.76325],[-120.09158,49.76345],[-120.09168,49.76367],[-120.0917,49.76377],[-120.09162,49.76398],[-120.09156,49.7641],[-120.09144,49.76425],[-120.09142,49.76433],[-120.09143,49.76452],[-120.09146,49.76456],[-120.09155,49.7646],[-120.09162,49.76461],[-120.09169,49.76459],[-120.09181,49.76449],[-120.09198,49.76439],[-120.09215,49.76432],[-120.09231,49.7642],[-120.09257,49.76409],[-120.09267,49.76402],[-120.09296,49.76386],[-120.09305,49.76378],[-120.09338,49.76359],[-120.09348,49.76354],[-120.09369,49.76351],[-120.09376,49.76352],[-120.09383,49.76354],[-120.09385,49.76354],[-120.09407,49.76369],[-120.09429,49.76389],[-120.09449,49.76405],[-120.09461,49.76411],[-120.09479,49.76419],[-120.09498,49.76422],[-120.09556,49.76423],[-120.09577,49.76417],[-120.09597,49.76417],[-120.09616,49.76415],[-120.09676,49.76391],[-120.09687,49.76387],[-120.09717,49.7638],[-120.09748,49.76371],[-120.09758,49.76371],[-120.09784,49.76379],[-120.09809,49.76382],[-120.09825,49.76381],[-120.09845,49.76384],[-120.09862,49.76387],[-120.09893,49.76386],[-120.09921,49.76382],[-120.09943,49.76382],[-120.0997,49.76383],[-120.09982,49.7639],[-120.09987,49.76395],[-120.10017,49.76409],[-120.10041,49.76416],[-120.10043,49.76416],[-120.10052,49.76415],[-120.10072,49.76407],[-120.10096,49.76403],[-120.1012,49.76395]]}},
{"type":"Feature","properties":{"spotId":"D-moose-atv-0010","kind":"ride","km":2.53,"climbM":41,"name":"390 m E of Peterson Lake","flags":[]},"geometry":{"type":"LineString","coordinates":[[-120.07805,49.98441],[-120.0781,49.9845],[-120.07831,49.98468],[-120.07841,49.98481],[-120.07864,49.98498],[-120.07886,49.98516],[-120.07909,49.98536],[-120.07927,49.98553],[-120.07953,49.98572],[-120.0797,49.98588],[-120.0799,49.98603],[-120.08016,49.9862],[-120.08042,49.9864],[-120.08068,49.9866],[-120.08092,49.98678],[-120.08117,49.98695],[-120.08148,49.9871],[-120.08156,49.98715],[-120.08183,49.98732],[-120.08213,49.9875],[-120.0824,49.98762],[-120.08286,49.98788],[-120.08314,49.98806],[-120.08341,49.98822],[-120.08363,49.98832],[-120.08385,49.98849],[-120.08412,49.98871],[-120.08435,49.98884],[-120.0846,49.98903],[-120.08476,49.98917],[-120.08535,49.98953],[-120.08543,49.98962],[-120.08541,49.98969],[-120.08542,49.98985],[-120.08513,49.98974],[-120.08486,49.98968],[-120.08462,49.98964],[-120.08444,49.98962],[-120.08409,49.98961],[-120.08386,49.98956],[-120.08356,49.9895],[-120.08326,49.98939],[-120.08301,49.98925],[-120.08275,49.98913],[-120.08263,49.9891],[-120.08237,49.98909],[-120.08213,49.9891],[-120.08192,49.98916],[-120.08173,49.98919],[-120.08156,49.98923],[-120.08129,49.98932],[-120.08099,49.98944],[-120.08092,49.98949],[-120.0808,49.98965],[-120.08075,49.98976],[-120.08067,49.98992],[-120.08055,49.99007],[-120.0803,49.99023],[-120.08016,49.99029],[-120.08009,49.99031],[-120.08,49.99031],[-120.07983,49.99025],[-120.07957,49.99011],[-120.0793,49.98998],[-120.07918,49.98993],[-120.07905,49.98991],[-120.07859,49.9899],[-120.07835,49.98993],[-120.07821,49.98997],[-120.07787,49.9901],[-120.07765,49.99023],[-120.07756,49.9903],[-120.0774,49.99038],[-120.0773,49.99042],[-120.07719,49.99053],[-120.07699,49.99072],[-120.07694,49.99083],[-120.07685,49.99092],[-120.07674,49.99102],[-120.07661,49.99113],[-120.07648,49.99117],[-120.07632,49.99122],[-120.07602,49.99128],[-120.07586,49.99141],[-120.07561,49.9916],[-120.07544,49.99167],[-120.07534,49.99172],[-120.07516,49.99176],[-120.07492,49.99185],[-120.07474,49.99181],[-120.07453,49.99176],[-120.07432,49.9918],[-120.07413,49.99185],[-120.07384,49.99187],[-120.07357,49.99189],[-120.07326,49.99198],[-120.073,49.99207],[-120.07273,49.99217],[-120.07249,49.99228],[-120.07221,49.99243],[-120.07191,49.99255],[-120.0716,49.99262],[-120.07145,49.99266],[-120.07116,49.99279],[-120.07099,49.99284],[-120.07082,49.99287],[-120.07062,49.99288],[-120.07044,49.9929],[-120.07036,49.99292],[-120.07012,49.99295],[-120.06989,49.99301],[-120.06958,49.99312],[-120.06943,49.99322],[-120.0694,49.99335],[-120.06935,49.99343],[-120.06926,49.9935],[-120.06908,49.99354],[-120.06888,49.99356],[-120.0687,49.99358],[-120.0685,49.99359],[-120.068,49.99363],[-120.06772,49.99367],[-120.06753,49.99369],[-120.06734,49.9937],[-120.0672,49.99373],[-120.06708,49.9938],[-120.06693,49.99401],[-120.06679,49.99421],[-120.06668,49.99442],[-120.06652,49.99478],[-120.06648,49.99487],[-120.06641,49.99498]]}},
{"type":"Feature","properties":{"spotId":"D-moose-atv-0010","kind":"walk","km":0.06,"climbM":0,"name":"390 m E of Peterson Lake","flags":[]},"geometry":{"type":"LineString","coordinates":[[-120.07805,49.98441],[-120.07782,49.98391]]}},
{"type":"Feature","properties":{"spotId":"D-moose-drive-0009","kind":"walk","km":0.11,"climbM":0,"name":"1.5 km E of Pinnacle Lake rec site","flags":[]},"geometry":{"type":"LineString","coordinates":[[-120.02979,49.97454],[-120.02827,49.97486]]}},
{"type":"Feature","properties":{"spotId":"D-moose-drive-0010","kind":"walk","km":0.04,"climbM":0,"name":"1.1 km E of Pennask Creek","flags":[]},"geometry":{"type":"LineString","coordinates":[[-120.11762,49.96334],[-120.11774,49.96298]]}},
{"type":"Feature","properties":{"spotId":"D-moose-drive-0042","kind":"walk","km":0.28,"climbM":0,"name":"1.5 km W of Culmination Point","flags":[]},"geometry":{"type":"LineString","coordinates":[[-120.23563,49.85582],[-120.23408,49.85817]]}},
{"type":"Feature","properties":{"spotId":"D-moose-drive-0062","kind":"walk","km":0.1,"climbM":1,"name":"By Trout Creek","flags":[]},"geometry":{"type":"LineString","coordinates":[[-120.08406,49.79271],[-120.08334,49.79189]]}},
{"type":"Feature","properties":{"spotId":"D-moose-walk-0002","kind":"walk","km":0.3,"climbM":1,"name":"470 m W of Pennask Creek","flags":[]},"geometry":{"type":"LineString","coordinates":[[-120.14726,49.96798],[-120.14531,49.97039]]}},
{"type":"Feature","properties":{"spotId":"D-moose-walk-0011","kind":"walk","km":0.97,"climbM":2,"name":"820 m SE of Steer Lake","flags":[]},"geometry":{"type":"LineString","coordinates":[[-120.14895,49.96735],[-120.15741,49.97418]]}},
{"type":"Feature","properties":{"spotId":"D-moose-walk-0012","kind":"walk","km":0.31,"climbM":2,"name":"1.0 km NE of Pennask Creek","flags":[]},"geometry":{"type":"LineString","coordinates":[[-120.11313,49.96066],[-120.1166,49.95896]]}},
{"type":"Feature","properties":{"spotId":"D-moose-walk-0062","kind":"walk","km":0.47,"climbM":3,"name":"1.1 km E of North Trout Creek","flags":[]},"geometry":{"type":"LineString","coordinates":[[-120.21212,49.8365],[-120.21082,49.83237]]}},
{"type":"Feature","properties":{"spotId":"D-moose-walk-0064","kind":"walk","km":0.55,"climbM":0,"name":"1.2 km W of North Trout Creek","flags":[]},"geometry":{"type":"LineString","coordinates":[[-120.23348,49.81578],[-120.23815,49.81183]]}},
{"type":"Feature","properties":{"spotId":"D-moose-walk-0083","kind":"walk","km":0.94,"climbM":50,"name":"3.2 km N of Macdonald Lake rec site","flags":["Route crosses the 400 m no hunting strip beside Hwy 97C (Okanagan Connector) between Aspen Grove and Peachland: no hunting or shooting there (synopsis page 10, 99%)."]},"geometry":{"type":"LineString","coordinates":[[-120.01954,49.91427],[-120.01999,49.91419],[-120.02001,49.91419],[-120.02029,49.91426],[-120.02039,49.91428],[-120.02072,49.91431],[-120.02086,49.91435],[-120.02084,49.91427],[-120.02057,49.91409],[-120.02037,49.91396],[-120.02033,49.9139],[-120.02018,49.91376],[-120.02014,49.91366],[-120.02003,49.91354],[-120.02,49.91345],[-120.02001,49.91337],[-120.02009,49.91325],[-120.02011,49.91317],[-120.02014,49.91312],[-120.02018,49.91294],[-120.02018,49.91288],[-120.02011,49.91272],[-120.0201,49.9127],[-120.02002,49.91261],[-120.01999,49.91256],[-120.01988,49.91245],[-120.01971,49.91225],[-120.01955,49.91207],[-120.01934,49.91186],[-120.01917,49.91169],[-120.01897,49.9115],[-120.01887,49.91138],[-120.01885,49.91128],[-120.01887,49.9112],[-120.01866,49.91115],[-120.0185,49.91109],[-120.0182,49.91098],[-120.01795,49.91087],[-120.01777,49.91075],[-120.01762,49.9106],[-120.01744,49.91046],[-120.01722,49.91039],[-120.01704,49.91028],[-120.01675,49.91007],[-120.01656,49.9099],[-120.01638,49.90978],[-120.01617,49.90957],[-120.01612,49.90945],[-120.0161,49.90932],[-120.01611,49.90917],[-120.01618,49.90895],[-120.0163,49.90878],[-120.01632,49.90862],[-120.01631,49.90854],[-120.01632,49.90839],[-120.01628,49.90817],[-120.01633,49.90805]]}}
]}
