{"type":"FeatureCollection","features":[
{"type":"Feature","properties":{"spotId":"D-deer-drive-0149","kind":"walk","km":0.09,"climbM":22,"name":"800 m W of Coldwater River","flags":[]},"geometry":{"type":"LineString","coordinates":[[-121.01868,49.74794],[-121.01952,49.74859]]}},
{"type":"Feature","properties":{"spotId":"D-deer-walk-0208","kind":"walk","km":0.33,"climbM":18,"name":"220 m NE of Coldwater River","flags":["Route crosses provincial park: Coldwater River Park. Hunting only where that park allows it, in open season. Check its bcparks.ca page (synopsis page 9, 99%)."]},"geometry":{"type":"LineString","coordinates":[[-121.00944,49.74336],[-121.00598,49.74527]]}},
{"type":"Feature","properties":{"spotId":"D-deer-walk-0209","kind":"walk","km":0.85,"climbM":119,"name":"560 m SE of Coldwater River","flags":["Route crosses provincial park: Coldwater River Park. Hunting only where that park allows it, in open season. Check its bcparks.ca page (synopsis page 9, 99%).","Route crosses private land (ParcelMap BC, updated 2026-09-26): get permission first or go around."]},"geometry":{"type":"LineString","coordinates":[[-121.0126,49.72819],[-121.00102,49.72701]]}},
{"type":"Feature","properties":{"spotId":"D-grouse-atv-0089","kind":"ride","km":3.1,"climbM":104,"name":"By Juliet Creek","flags":[]},"geometry":{"type":"LineString","coordinates":[[-121.06172,49.73633],[-121.06183,49.73628],[-121.06207,49.73619],[-121.06211,49.73619],[-121.06215,49.73617],[-121.06221,49.73617],[-121.06225,49.73616],[-121.0624,49.73613],[-121.06256,49.73608],[-121.06266,49.73607],[-121.06275,49.73605],[-121.06288,49.73604],[-121.06319,49.73604],[-121.06323,49.73603],[-121.06331,49.73603],[-121.06359,49.73603],[-121.06375,49.73605],[-121.06403,49.73608],[-121.06411,49.73609],[-121.06444,49.73617],[-121.06462,49.7362],[-121.06476,49.73624],[-121.06505,49.73633],[-121.06514,49.73636],[-121.06538,49.7364],[-121.06556,49.73641],[-121.06561,49.73645],[-121.06565,49.73647],[-121.06569,49.73652],[-121.06585,49.73663],[-121.06607,49.73678],[-121.06608,49.73679],[-121.06617,49.73682],[-121.06621,49.73682],[-121.06652,49.73693],[-121.06681,49.73694],[-121.06715,49.73695],[-121.06741,49.73706],[-121.06754,49.73713],[-121.06766,49.73718],[-121.06781,49.73725],[-121.06809,49.73735],[-121.06842,49.73748],[-121.06867,49.73762],[-121.06876,49.73764],[-121.06891,49.73772],[-121.06916,49.73787],[-121.0695,49.73789],[-121.06976,49.73785],[-121.06996,49.73783],[-121.07001,49.73782],[-121.07008,49.73782],[-121.07023,49.73781],[-121.07057,49.7378],[-121.07087,49.73778],[-121.07117,49.73775],[-121.07124,49.73773],[-121.07134,49.73771],[-121.0716,49.73765],[-121.07182,49.73765],[-121.07209,49.73764],[-121.07242,49.73764],[-121.07259,49.73766],[-121.07264,49.73768],[-121.07285,49.7377],[-121.07296,49.73769],[-121.07329,49.7377],[-121.07333,49.73769],[-121.07351,49.7377],[-121.07383,49.7377],[-121.07407,49.73775],[-121.07434,49.73786],[-121.0744,49.73787],[-121.0747,49.73791],[-121.07499,49.73794],[-121.07527,49.73796],[-121.07539,49.73798],[-121.07545,49.73798],[-121.07565,49.73803],[-121.07582,49.73805],[-121.07604,49.73806],[-121.07627,49.73812],[-121.07639,49.73812],[-121.07669,49.73814],[-121.07684,49.73816],[-121.07691,49.73816],[-121.07695,49.73816],[-121.07726,49.73818],[-121.07745,49.73819],[-121.07749,49.73819],[-121.07753,49.73819],[-121.07774,49.7382],[-121.07788,49.73823],[-121.07818,49.73827],[-121.07835,49.73829],[-121.07864,49.73829],[-121.07881,49.73832],[-121.07911,49.73835],[-121.07917,49.73835],[-121.07941,49.73841],[-121.07973,49.73849],[-121.08006,49.73855],[-121.0801,49.73856],[-121.08014,49.73856],[-121.08045,49.73863],[-121.08062,49.73866],[-121.08089,49.7387],[-121.08101,49.7387],[-121.08133,49.7387],[-121.08165,49.73873],[-121.08194,49.73873],[-121.08223,49.73873],[-121.08254,49.7387],[-121.08275,49.7387],[-121.08308,49.73868],[-121.08337,49.73867],[-121.08368,49.73863],[-121.08381,49.73859],[-121.08413,49.73853],[-121.08417,49.73852],[-121.08448,49.73851],[-121.08471,49.73851],[-121.08478,49.73851],[-121.08492,49.73851],[-121.08522,49.73851],[-121.08536,49.73851],[-121.08566,49.73848],[-121.08579,49.73848],[-121.08607,49.73846],[-121.08626,49.73841],[-121.0863,49.73841],[-121.08662,49.73835],[-121.08691,49.73827],[-121.08718,49.73821],[-121.08733,49.73821],[-121.08754,49.7382],[-121.08786,49.73812],[-121.08813,49.73801],[-121.08822,49.73799],[-121.08848,49.73789],[-121.08861,49.73788],[-121.08865,49.73788],[-121.08899,49.73781],[-121.08929,49.73774],[-121.08959,49.73768],[-121.08983,49.73761],[-121.08999,49.73757],[-121.09005,49.73754],[-121.09037,49.73747],[-121.09067,49.7374],[-121.09096,49.73734],[-121.09126,49.73728],[-121.09147,49.73723],[-121.09152,49.7372],[-121.09179,49.73714],[-121.09207,49.73714],[-121.09225,49.7371],[-121.0923,49.73708],[-121.09258,49.73701],[-121.09263,49.73698],[-121.09267,49.73698],[-121.09271,49.73695],[-121.09296,49.73686],[-121.09309,49.73683],[-121.09338,49.73682],[-121.09355,49.73681],[-121.0939,49.73679],[-121.09401,49.73678],[-121.0942,49.73674],[-121.09443,49.73671],[-121.09472,49.73664],[-121.09486,49.73662],[-121.09518,49.73658],[-121.09548,49.73651],[-121.09562,49.7365],[-121.09577,49.73646],[-121.09605,49.73634],[-121.09637,49.73626],[-121.0965,49.73621],[-121.09664,49.73619],[-121.09689,49.73613],[-121.09706,49.73611],[-121.09737,49.73607],[-121.09765,49.73599],[-121.09793,49.73585],[-121.0981,49.73579],[-121.09831,49.73574],[-121.09841,49.73571],[-121.09842,49.73571],[-121.09869,49.73568],[-121.09887,49.73564],[-121.09918,49.73556],[-121.09929,49.7355],[-121.09953,49.73539],[-121.0998,49.73528],[-121.09988,49.73527],[-121.10012,49.73526],[-121.10041,49.73527],[-121.10049,49.73526],[-121.10076,49.73518],[-121.10087,49.73517],[-121.10097,49.73516],[-121.10122,49.73513],[-121.10151,49.73512],[-121.10165,49.7351],[-121.10189,49.73508],[-121.10221,49.73499],[-121.10224,49.73498]]}},
{"type":"Feature","properties":{"spotId":"D-grouse-atv-0118","kind":"walk","km":3.41,"climbM":557,"name":"1.1 km NE of Juliet Creek Cabin rec site","flags":["Route enters a Motor Vehicle Closed Area: Thompson, Cariboo and Okanagan Alpines. Closed Year Round. Exemption: Snowmobiles exempt year round (January 1 to December 31). Synopsis map 1-82/24."]},"geometry":{"type":"LineString","coordinates":[[-121.0791,49.68927],[-121.11514,49.70912]]}},
{"type":"Feature","properties":{"spotId":"D-grouse-atv-0118","kind":"ride","km":4.3,"climbM":59,"name":"1.1 km NE of Juliet Creek Cabin rec site","flags":["Route enters a Motor Vehicle Closed Area: Thompson, Cariboo and Okanagan Alpines. Closed Year Round. Exemption: Snowmobiles exempt year round (January 1 to December 31). Synopsis map 1-82/24."]},"geometry":{"type":"LineString","coordinates":[[-121.11514,49.70912],[-121.11516,49.70915],[-121.11524,49.70935],[-121.11527,49.70957],[-121.11531,49.70975],[-121.11532,49.70985],[-121.11534,49.70997],[-121.11537,49.71015],[-121.11538,49.71028],[-121.11538,49.71031],[-121.11533,49.71052],[-121.1153,49.71065],[-121.11529,49.71084],[-121.1153,49.71104],[-121.11529,49.71122],[-121.1153,49.7113],[-121.11529,49.71133],[-121.11529,49.71148],[-121.11529,49.71152],[-121.1153,49.71159],[-121.1153,49.71179],[-121.11529,49.71187],[-121.11527,49.71197],[-121.11525,49.712],[-121.11517,49.7121],[-121.11508,49.71228],[-121.11504,49.71234],[-121.11493,49.71252],[-121.1148,49.71269],[-121.11471,49.71285],[-121.11468,49.71292],[-121.11468,49.71294],[-121.11464,49.71299],[-121.11464,49.71302],[-121.11452,49.71321],[-121.11453,49.71333],[-121.11454,49.71352],[-121.11457,49.71369],[-121.11458,49.71391],[-121.11459,49.71396],[-121.11457,49.71398],[-121.11455,49.71417],[-121.11452,49.71434],[-121.1145,49.71441],[-121.1145,49.71444],[-121.1145,49.71447],[-121.11449,49.71467],[-121.11447,49.71476],[-121.11444,49.71495],[-121.11444,49.71514],[-121.11444,49.7152],[-121.11444,49.71527],[-121.11432,49.71547],[-121.11432,49.71552],[-121.11431,49.71567],[-121.11421,49.71588],[-121.11419,49.71591],[-121.11413,49.7161],[-121.11405,49.71629],[-121.11405,49.7163],[-121.11404,49.71638],[-121.11396,49.71658],[-121.11386,49.71674],[-121.11383,49.7168],[-121.11378,49.71688],[-121.11365,49.71704],[-121.1135,49.7172],[-121.1135,49.71723],[-121.11334,49.71744],[-121.11318,49.71764],[-121.11301,49.71785],[-121.11297,49.718],[-121.11298,49.71809],[-121.11298,49.71827],[-121.113,49.71833],[-121.11308,49.71843],[-121.11314,49.71847],[-121.11315,49.71849],[-121.11331,49.71866],[-121.11332,49.71872],[-121.11331,49.7189],[-121.11327,49.71904],[-121.11322,49.7191],[-121.11318,49.71922],[-121.11316,49.71933],[-121.11314,49.71952],[-121.1131,49.71971],[-121.11308,49.71986],[-121.11309,49.72004],[-121.11309,49.72007],[-121.11311,49.72024],[-121.1132,49.72039],[-121.11321,49.72043],[-121.11328,49.72058],[-121.11329,49.72069],[-121.11331,49.72072],[-121.11335,49.72088],[-121.11334,49.72106],[-121.11334,49.72118],[-121.11332,49.72137],[-121.11332,49.72155],[-121.11333,49.72174],[-121.11332,49.72196],[-121.11334,49.72218],[-121.11335,49.72236],[-121.11336,49.72246],[-121.11335,49.72265],[-121.11334,49.72283],[-121.11335,49.7229],[-121.11334,49.72293],[-121.11335,49.72309],[-121.11333,49.72312],[-121.11334,49.72316],[-121.11334,49.72334],[-121.11329,49.72351],[-121.11311,49.7237],[-121.11304,49.72381],[-121.11295,49.72391],[-121.11289,49.72399],[-121.11276,49.72417],[-121.11273,49.7242],[-121.11265,49.7243],[-121.11257,49.72439],[-121.11246,49.72458],[-121.11235,49.72475],[-121.11226,49.72495],[-121.11223,49.72504],[-121.11221,49.72524],[-121.1122,49.72546],[-121.11222,49.72565],[-121.11223,49.72572],[-121.11227,49.7259],[-121.11227,49.72608],[-121.11228,49.7262],[-121.11222,49.72635],[-121.11216,49.72656],[-121.11214,49.72665],[-121.11213,49.72685],[-121.11214,49.72703],[-121.11218,49.7271],[-121.11218,49.72729],[-121.11217,49.72737],[-121.11208,49.7275],[-121.11195,49.72767],[-121.11177,49.72783],[-121.11163,49.72799],[-121.11143,49.72816],[-121.11124,49.72832],[-121.11096,49.7285],[-121.11084,49.72859],[-121.11063,49.72869],[-121.11056,49.72872],[-121.11031,49.72885],[-121.11026,49.72888],[-121.11021,49.7289],[-121.10988,49.72909],[-121.10979,49.72913],[-121.10957,49.72933],[-121.10951,49.72938],[-121.10949,49.72941],[-121.10935,49.72951],[-121.10916,49.72968],[-121.10908,49.72979],[-121.10904,49.72988],[-121.10891,49.73008],[-121.10877,49.73021],[-121.10873,49.73022],[-121.1084,49.73037],[-121.10816,49.73048],[-121.10789,49.73064],[-121.10776,49.73077],[-121.10772,49.73081],[-121.10756,49.73099],[-121.10743,49.73108],[-121.10739,49.73113],[-121.10726,49.73122],[-121.10696,49.7314],[-121.10672,49.73154],[-121.10663,49.73163],[-121.10657,49.73171],[-121.10644,49.73187],[-121.10628,49.73204],[-121.10611,49.73219],[-121.10607,49.73224],[-121.10585,49.73244],[-121.10569,49.7326],[-121.10568,49.73263],[-121.10554,49.73281],[-121.10537,49.73297],[-121.10529,49.73305],[-121.1051,49.73321],[-121.10493,49.73335],[-121.10478,49.73345],[-121.10467,49.73353],[-121.10463,49.73355],[-121.10429,49.73375],[-121.10421,49.73381],[-121.10392,49.73393],[-121.10388,49.73394],[-121.10378,49.73399],[-121.10376,49.73402],[-121.10353,49.73419],[-121.10333,49.73432],[-121.10309,49.73443],[-121.10278,49.73463],[-121.10265,49.73471],[-121.10241,49.73489],[-121.10224,49.73498],[-121.10249,49.73493],[-121.1028,49.73486],[-121.10312,49.73481],[-121.10318,49.73481],[-121.10339,49.73477],[-121.10347,49.73477],[-121.10379,49.73474],[-121.10408,49.73469],[-121.10439,49.73462],[-121.10447,49.73462],[-121.10452,49.73461],[-121.10461,49.73459],[-121.10492,49.73454],[-121.10496,49.73452],[-121.10506,49.73451],[-121.10538,49.73449],[-121.10544,49.73446],[-121.10575,49.73437],[-121.10607,49.73431],[-121.10635,49.73421],[-121.10657,49.73415],[-121.10673,49.7341],[-121.10684,49.73407],[-121.10703,49.73398],[-121.10731,49.73388],[-121.10753,49.73376],[-121.10775,49.73359],[-121.10806,49.73339],[-121.10822,49.73332],[-121.10836,49.73328],[-121.10867,49.73313],[-121.10897,49.73298],[-121.10922,49.73281],[-121.10953,49.73265],[-121.10958,49.73264],[-121.10972,49.73259],[-121.11003,49.73247],[-121.11014,49.73237],[-121.11035,49.73223],[-121.11045,49.73219],[-121.11071,49.73207],[-121.11074,49.73205],[-121.11098,49.73193],[-121.11109,49.73193],[-121.11143,49.73193],[-121.11175,49.73195],[-121.11182,49.73196],[-121.11193,49.73196],[-121.11221,49.73202],[-121.11247,49.73209],[-121.11276,49.73218],[-121.1128,49.73221],[-121.11285,49.73224],[-121.11288,49.73228],[-121.11292,49.73229],[-121.11293,49.7323],[-121.11309,49.73231],[-121.1131,49.73231],[-121.11333,49.73238],[-121.11354,49.73242],[-121.11386,49.73245],[-121.11401,49.73246],[-121.11433,49.73246],[-121.11465,49.73245],[-121.11469,49.73246],[-121.11495,49.73246],[-121.11522,49.73241],[-121.11527,49.7324],[-121.11537,49.73236],[-121.11549,49.73229]]}},
{"type":"Feature","properties":{"spotId":"D-grouse-drive-0091","kind":"roadside","km":3.67,"climbM":120,"name":"170 m N of Juliet Creek","flags":[]},"geometry":{"type":"LineString","coordinates":[[-121.01716,49.74],[-121.01768,49.73992],[-121.0178,49.73992],[-121.01871,49.73985],[-121.01906,49.73986],[-121.01938,49.73993],[-121.01974,49.74014],[-121.0201,49.7405],[-121.0207,49.74064],[-121.02221,49.74068],[-121.02293,49.7406],[-121.02372,49.74037],[-121.02424,49.7401],[-121.02431,49.74003],[-121.02439,49.73989],[-121.02453,49.73972],[-121.02462,49.73962],[-121.02477,49.73942],[-121.02486,49.73923],[-121.02507,49.73906],[-121.02514,49.73898],[-121.02529,49.73881],[-121.02549,49.73864],[-121.02572,49.7385],[-121.02592,49.73834],[-121.02615,49.73819],[-121.02634,49.73805],[-121.02642,49.73799],[-121.02663,49.73784],[-121.0268,49.7377],[-121.02696,49.73761],[-121.02707,49.73757],[-121.02719,49.73753],[-121.02749,49.73746],[-121.0278,49.73736],[-121.02806,49.73727],[-121.0281,49.73727],[-121.02822,49.73729],[-121.02853,49.7375],[-121.02869,49.7376],[-121.02891,49.73774],[-121.02914,49.73785],[-121.02937,49.73797],[-121.02961,49.73808],[-121.02982,49.7382],[-121.03007,49.73829],[-121.03034,49.73839],[-121.03049,49.73839],[-121.03059,49.7384],[-121.03086,49.7383],[-121.0311,49.73812],[-121.03114,49.7381],[-121.03128,49.73807],[-121.03162,49.7381],[-121.03193,49.73814],[-121.03221,49.73821],[-121.03229,49.73825],[-121.03248,49.73843],[-121.03279,49.73856],[-121.033,49.73855],[-121.03331,49.7385],[-121.03357,49.73849],[-121.03363,49.73847],[-121.03393,49.73842],[-121.03426,49.73833],[-121.03447,49.73815],[-121.03457,49.73809],[-121.03485,49.73798],[-121.03505,49.73792],[-121.03508,49.73791],[-121.03521,49.73781],[-121.03531,49.73776],[-121.03553,49.73764],[-121.03584,49.73749],[-121.03613,49.73732],[-121.0363,49.73726],[-121.03656,49.73716],[-121.03684,49.7371],[-121.03715,49.73703],[-121.03746,49.73693],[-121.03775,49.73694],[-121.03804,49.73695],[-121.03824,49.73692],[-121.03841,49.73688],[-121.03871,49.73681],[-121.03905,49.73682],[-121.03928,49.73694],[-121.03958,49.73713],[-121.03966,49.73717],[-121.03995,49.73718],[-121.04024,49.73717],[-121.04051,49.73711],[-121.04076,49.73705],[-121.04091,49.73704],[-121.04129,49.73705],[-121.04159,49.73709],[-121.0417,49.73713],[-121.04199,49.73725],[-121.04229,49.73737],[-121.04253,49.73752],[-121.0427,49.7377],[-121.04272,49.73773],[-121.04293,49.73786],[-121.04301,49.73789],[-121.04333,49.73792],[-121.04337,49.73791],[-121.04365,49.73788],[-121.04399,49.73786],[-121.04429,49.7379],[-121.04437,49.7379],[-121.04465,49.7379],[-121.04497,49.7379],[-121.04519,49.73788],[-121.04551,49.73788],[-121.04579,49.73788],[-121.0461,49.73785],[-121.04643,49.73783],[-121.04674,49.73783],[-121.04706,49.73783],[-121.04736,49.73787],[-121.04769,49.73794],[-121.04786,49.73796],[-121.04816,49.73799],[-121.04831,49.73804],[-121.04863,49.73806],[-121.04884,49.73805],[-121.04914,49.738],[-121.04946,49.738],[-121.04977,49.738],[-121.05002,49.73799],[-121.05032,49.73798],[-121.05055,49.73797],[-121.05088,49.73796],[-121.05117,49.73794],[-121.05133,49.73794],[-121.0516,49.73797],[-121.05188,49.73806],[-121.05217,49.73807],[-121.05245,49.73804],[-121.05277,49.738],[-121.05289,49.73799],[-121.05316,49.73794],[-121.05323,49.73793],[-121.05354,49.73787],[-121.05383,49.73787],[-121.0541,49.73794],[-121.05443,49.73796],[-121.05448,49.73795],[-121.05473,49.73781],[-121.05499,49.7377],[-121.05525,49.73766],[-121.05549,49.73754],[-121.05572,49.73737],[-121.05592,49.73736],[-121.05621,49.73737],[-121.05625,49.73737],[-121.05645,49.73744],[-121.05677,49.73746],[-121.05694,49.73743],[-121.05729,49.7374],[-121.05755,49.73741],[-121.05788,49.7375],[-121.05817,49.73752],[-121.05849,49.73752],[-121.05856,49.73752],[-121.05902,49.73744],[-121.05919,49.73742],[-121.05923,49.7374],[-121.05931,49.73738],[-121.05958,49.73733],[-121.05986,49.73728],[-121.06014,49.7372],[-121.06041,49.73712],[-121.06056,49.73708],[-121.06084,49.73699],[-121.06111,49.73691],[-121.06138,49.73683],[-121.06152,49.73679],[-121.06158,49.73671],[-121.06162,49.73664]]}},
{"type":"Feature","properties":{"spotId":"D-moose-atv-0080","kind":"ride","km":6.76,"climbM":366,"name":"530 m W of July Creek","flags":[]},"geometry":{"type":"LineString","coordinates":[[-121.06167,49.73648],[-121.0617,49.73636],[-121.06172,49.73633],[-121.06154,49.73619],[-121.06138,49.73602],[-121.06118,49.73589],[-121.061,49.73573],[-121.06098,49.7357],[-121.06091,49.73567],[-121.06073,49.73561],[-121.06066,49.73558],[-121.06036,49.73551],[-121.06015,49.73546],[-121.05982,49.7354],[-121.05951,49.73533],[-121.05945,49.73531],[-121.05914,49.73517],[-121.05902,49.73509],[-121.05879,49.73498],[-121.05851,49.73488],[-121.0582,49.73477],[-121.05807,49.73474],[-121.05774,49.73468],[-121.05747,49.73459],[-121.05715,49.73458],[-121.05696,49.73457],[-121.05667,49.73456],[-121.05638,49.73452],[-121.05624,49.73451],[-121.0559,49.73451],[-121.0556,49.73448],[-121.05532,49.73444],[-121.0551,49.73441],[-121.05481,49.73435],[-121.05465,49.73433],[-121.05435,49.73425],[-121.054,49.7342],[-121.05367,49.73418],[-121.05338,49.73412],[-121.05308,49.73405],[-121.05291,49.73403],[-121.05259,49.73399],[-121.05243,49.73395],[-121.05229,49.73394],[-121.05202,49.7339],[-121.0517,49.73388],[-121.05138,49.73387],[-121.05106,49.73382],[-121.05078,49.7338],[-121.05045,49.7338],[-121.05038,49.73381],[-121.05011,49.7337],[-121.05,49.73367],[-121.04977,49.73353],[-121.04969,49.73352],[-121.04937,49.73345],[-121.04923,49.73343],[-121.04895,49.73339],[-121.04869,49.73332],[-121.0484,49.73326],[-121.04814,49.73319],[-121.0479,49.73309],[-121.04764,49.73298],[-121.04735,49.73286],[-121.04727,49.73281],[-121.04715,49.73274],[-121.04711,49.73273],[-121.04679,49.73275],[-121.04658,49.73276],[-121.04654,49.73276],[-121.04627,49.73273],[-121.04595,49.73263],[-121.0457,49.73254],[-121.0454,49.73245],[-121.04511,49.73243],[-121.04491,49.73244],[-121.04462,49.73243],[-121.04448,49.73244],[-121.04416,49.73243],[-121.04405,49.73243],[-121.04375,49.73235],[-121.04353,49.73232],[-121.04331,49.7323],[-121.04296,49.73226],[-121.04262,49.73225],[-121.04244,49.73222],[-121.04223,49.73218],[-121.04194,49.73212],[-121.04165,49.73208],[-121.04138,49.73197],[-121.04108,49.7319],[-121.04094,49.73186],[-121.04059,49.73181],[-121.04055,49.73181],[-121.04023,49.73185],[-121.04004,49.73188],[-121.03973,49.73187],[-121.03941,49.73187],[-121.03912,49.73184],[-121.03905,49.73183],[-121.039,49.73182],[-121.03887,49.73178],[-121.03858,49.73175],[-121.0385,49.73174],[-121.03817,49.73163],[-121.03787,49.73159],[-121.03759,49.73159],[-121.03727,49.7316],[-121.037,49.73157],[-121.03684,49.73154],[-121.03661,49.73142],[-121.03631,49.73125],[-121.03627,49.73122],[-121.03623,49.73119],[-121.03619,49.73117],[-121.03611,49.73112],[-121.03595,49.73104],[-121.0357,49.73092],[-121.03546,49.73078],[-121.03523,49.73065],[-121.03505,49.73052],[-121.03503,49.7305],[-121.0347,49.73029],[-121.0345,49.7301],[-121.03436,49.72994],[-121.03421,49.72972],[-121.03419,49.72964],[-121.03417,49.72945],[-121.03416,49.72929],[-121.03416,49.72922],[-121.03416,49.72917],[-121.03416,49.72901],[-121.03416,49.72886],[-121.03417,49.72881],[-121.03421,49.72862],[-121.03428,49.72841],[-121.03428,49.72837],[-121.03437,49.72819],[-121.03439,49.72816],[-121.03452,49.72794],[-121.03452,49.72791],[-121.03452,49.72781],[-121.03443,49.7277],[-121.03427,49.72752],[-121.03409,49.72734],[-121.03393,49.72711],[-121.03392,49.72692],[-121.03388,49.72671],[-121.03385,49.72653],[-121.03385,49.72631],[-121.03384,49.72612],[-121.03385,49.72591],[-121.03387,49.72571],[-121.03388,49.7255],[-121.03399,49.7253],[-121.03405,49.72513],[-121.0341,49.72502],[-121.03409,49.7249],[-121.03409,49.72482],[-121.03411,49.72464],[-121.03416,49.72445],[-121.03419,49.72432],[-121.03421,49.72428],[-121.03424,49.72418],[-121.03433,49.72399],[-121.03438,49.72378],[-121.03447,49.72358],[-121.03452,49.72349],[-121.03461,49.72338],[-121.03462,49.72333],[-121.03476,49.72314],[-121.03491,49.72297],[-121.03505,49.72279],[-121.03508,49.72276],[-121.03511,49.72266],[-121.03518,49.72252],[-121.03524,49.72239],[-121.03531,49.72217],[-121.03541,49.72197],[-121.03555,49.72175],[-121.0357,49.7216],[-121.03588,49.72145],[-121.03591,49.72144],[-121.03602,49.72138],[-121.03622,49.72123],[-121.03643,49.72109],[-121.03653,49.72105],[-121.03662,49.72104],[-121.0367,49.72104],[-121.03674,49.72105],[-121.03679,49.72113],[-121.03679,49.72118],[-121.03678,49.72137],[-121.03679,49.72158],[-121.03679,49.72178],[-121.03681,49.72185],[-121.03682,49.72194],[-121.03692,49.72211],[-121.03695,49.72213],[-121.03694,49.72216],[-121.03695,49.72238],[-121.03696,49.72256],[-121.03702,49.72274],[-121.03704,49.72285],[-121.03705,49.72288],[-121.03727,49.72307],[-121.03732,49.72307],[-121.03748,49.72307],[-121.03751,49.72306],[-121.03765,49.7229],[-121.03778,49.72273],[-121.03783,49.72263],[-121.03792,49.72245],[-121.03798,49.72234],[-121.03805,49.72227],[-121.03836,49.72207],[-121.03859,49.72198],[-121.03891,49.7219],[-121.03909,49.72185],[-121.03935,49.72176],[-121.03963,49.72169],[-121.03995,49.72159],[-121.04025,49.72151],[-121.04047,49.72139],[-121.0406,49.72134],[-121.04064,49.72132],[-121.04097,49.72119],[-121.04129,49.72109],[-121.04143,49.72104],[-121.04147,49.72104],[-121.04165,49.72099],[-121.04184,49.72094],[-121.04217,49.72089],[-121.0423,49.72086],[-121.0425,49.72077],[-121.04254,49.72076],[-121.04257,49.72076],[-121.04268,49.72073],[-121.04297,49.72067],[-121.04312,49.72064],[-121.04344,49.72052],[-121.04355,49.72049],[-121.04377,49.72038],[-121.04393,49.72035],[-121.0441,49.72031],[-121.04418,49.72028],[-121.04422,49.72027],[-121.04431,49.72026],[-121.04449,49.72021],[-121.04459,49.72019],[-121.04483,49.72009],[-121.04488,49.72007],[-121.04492,49.72007],[-121.04509,49.72001],[-121.04535,49.71993],[-121.04557,49.71987],[-121.04568,49.71985],[-121.04595,49.71974],[-121.0462,49.71963],[-121.04623,49.71962],[-121.0463,49.7196],[-121.04658,49.71949],[-121.04661,49.71948],[-121.04685,49.71936],[-121.047,49.71928],[-121.04725,49.71915],[-121.04735,49.71914],[-121.04749,49.71909],[-121.0478,49.7189],[-121.04809,49.7187],[-121.04816,49.71864],[-121.04823,49.7186],[-121.0484,49.71847],[-121.04847,49.71841],[-121.0487,49.71825],[-121.0489,49.71814],[-121.049,49.71813],[-121.04911,49.71813],[-121.04933,49.71814],[-121.04947,49.71818],[-121.04974,49.71826],[-121.05003,49.71836],[-121.05027,49.71848],[-121.05037,49.7185],[-121.05072,49.7185],[-121.05104,49.71851],[-121.05129,49.71842],[-121.05156,49.71831],[-121.05183,49.71818],[-121.05212,49.718],[-121.05235,49.71789],[-121.05254,49.71777],[-121.05265,49.7177],[-121.05284,49.71755],[-121.05298,49.71746],[-121.05311,49.71718],[-121.05325,49.71702],[-121.05331,49.71684],[-121.05336,49.71667],[-121.05336,49.71661],[-121.05338,49.7164],[-121.0534,49.71618],[-121.05346,49.71607],[-121.0536,49.7159],[-121.05373,49.71573],[-121.05377,49.71566],[-121.05379,49.71546],[-121.05377,49.71529],[-121.05376,49.71524],[-121.05364,49.71512],[-121.05349,49.71509],[-121.05326,49.71504],[-121.05298,49.71501],[-121.05281,49.71502],[-121.05269,49.71503],[-121.05241,49.71505],[-121.05213,49.71508],[-121.05184,49.71509],[-121.05171,49.71508],[-121.05155,49.7151],[-121.05121,49.71509],[-121.05091,49.71511],[-121.05056,49.71514],[-121.0505,49.71515],[-121.05028,49.71518],[-121.04996,49.71519],[-121.04971,49.71518],[-121.04964,49.71518],[-121.04937,49.71516],[-121.04915,49.71514],[-121.04884,49.71506],[-121.04866,49.71503],[-121.04835,49.71498],[-121.04806,49.71494],[-121.04777,49.71488],[-121.04745,49.71489],[-121.04705,49.71488],[-121.04677,49.71484],[-121.04643,49.71481],[-121.04634,49.7148],[-121.04609,49.71476],[-121.04593,49.71473],[-121.04563,49.71469],[-121.04556,49.71467],[-121.04536,49.71462],[-121.04523,49.7146],[-121.04506,49.71457],[-121.04495,49.71456],[-121.04492,49.71455],[-121.04479,49.71454],[-121.04462,49.71459],[-121.04425,49.71474],[-121.04405,49.7148],[-121.04387,49.71486],[-121.0437,49.7149],[-121.04358,49.71491],[-121.04348,49.71491],[-121.04331,49.71491],[-121.04316,49.71496],[-121.04291,49.71502],[-121.0427,49.71507],[-121.04253,49.71506],[-121.04241,49.71502],[-121.04226,49.71497],[-121.04212,49.7149],[-121.042,49.71484],[-121.0419,49.71478],[-121.04181,49.71472],[-121.0417,49.71463],[-121.04168,49.71454],[-121.04164,49.71444],[-121.04159,49.71425],[-121.04157,49.71417],[-121.04153,49.71408],[-121.04148,49.71397],[-121.0414,49.7139],[-121.04129,49.71383],[-121.04118,49.71378],[-121.04111,49.71375],[-121.04084,49.71365],[-121.04072,49.71358],[-121.04061,49.71353],[-121.04047,49.71343],[-121.04037,49.71334],[-121.04029,49.71321],[-121.04024,49.71312],[-121.04013,49.71298],[-121.04002,49.71287],[-121.03995,49.71274],[-121.03992,49.71265],[-121.03989,49.71254],[-121.03985,49.71243],[-121.03981,49.71225],[-121.03976,49.7121],[-121.03973,49.71199],[-121.03972,49.71188],[-121.03975,49.71176],[-121.03978,49.71166],[-121.0398,49.71161],[-121.0398,49.71148],[-121.03978,49.71136],[-121.03974,49.71122],[-121.03971,49.71109],[-121.03969,49.7109],[-121.03968,49.71077],[-121.03967,49.71062],[-121.03968,49.71045],[-121.03969,49.71023],[-121.03969,49.71013],[-121.0397,49.71003],[-121.03969,49.70993],[-121.0397,49.70979],[-121.03975,49.70964],[-121.03981,49.70951],[-121.03986,49.70937],[-121.03991,49.70925],[-121.03992,49.70917],[-121.03993,49.70903],[-121.03992,49.70896],[-121.03985,49.70889]]}},
{"type":"Feature","properties":{"spotId":"D-moose-atv-0080","kind":"walk","km":0.31,"climbM":74,"name":"530 m W of July Creek","flags":[]},"geometry":{"type":"LineString","coordinates":[[-121.03985,49.70889],[-121.04346,49.70731]]}}
]}
