{"type":"FeatureCollection","features":[
{"type":"Feature","properties":{"spotId":"D-camp-camp-0048","kind":"walk","km":0.11,"climbM":0,"name":"By Spius Creek","flags":[]},"geometry":{"type":"LineString","coordinates":[[-121.04194,50.10542],[-121.04346,50.10571]]}},
{"type":"Feature","properties":{"spotId":"D-camp-camp-0086","kind":"walk","km":0.03,"climbM":0,"name":"2.0 km W of Midday Creek","flags":[]},"geometry":{"type":"LineString","coordinates":[[-121.0051,50.01853],[-121.00541,50.01838]]}},
{"type":"Feature","properties":{"spotId":"D-camp-camp-0103","kind":"walk","km":0.02,"climbM":0,"name":"1.9 km SE of Manning Creek","flags":[]},"geometry":{"type":"LineString","coordinates":[[-121.16657,50.18875],[-121.16636,50.18867]]}},
{"type":"Feature","properties":{"spotId":"D-deer-atv-0007","kind":"ride","km":5.19,"climbM":37,"name":"1.0 km NW of Canford","flags":["Route crosses private land (ParcelMap BC, updated 2026-09-26): get permission first or go around."]},"geometry":{"type":"LineString","coordinates":[[-121.00753,50.15723],[-121.00758,50.15737],[-121.00762,50.15747],[-121.00775,50.15763],[-121.00779,50.1577],[-121.00784,50.15786],[-121.00797,50.15806],[-121.00805,50.15816],[-121.00819,50.15828],[-121.00824,50.15839],[-121.00832,50.15849],[-121.00847,50.15857],[-121.00879,50.15866],[-121.0089,50.15868],[-121.00931,50.15868],[-121.00954,50.1587],[-121.00964,50.15873],[-121.00971,50.1588],[-121.00972,50.15892],[-121.00968,50.15913],[-121.00968,50.15918],[-121.0096,50.15935],[-121.00956,50.15942],[-121.00943,50.15962],[-121.00943,50.15972],[-121.00958,50.15993],[-121.00962,50.15998],[-121.00986,50.16021],[-121.00994,50.16029],[-121.01003,50.1604],[-121.01017,50.16051],[-121.01034,50.16071],[-121.0104,50.16077],[-121.01061,50.16091],[-121.01091,50.16114],[-121.01099,50.16119],[-121.01116,50.16133],[-121.01129,50.16142],[-121.01154,50.16158],[-121.0118,50.16168],[-121.01187,50.16174],[-121.01196,50.16189],[-121.01208,50.162],[-121.01241,50.1621],[-121.01261,50.16217],[-121.0128,50.16231],[-121.0128,50.16251],[-121.01277,50.16265],[-121.01271,50.1628],[-121.01266,50.16288],[-121.01264,50.16295],[-121.01265,50.16313],[-121.01273,50.16324],[-121.01278,50.16338],[-121.01279,50.16356],[-121.0128,50.16364],[-121.01274,50.16372],[-121.01271,50.16378],[-121.01246,50.16399],[-121.01244,50.1642],[-121.01243,50.16426],[-121.01247,50.16443],[-121.01248,50.16452],[-121.01257,50.16465],[-121.01265,50.16485],[-121.01269,50.16493],[-121.01283,50.16516],[-121.01287,50.16522],[-121.01301,50.16529],[-121.01312,50.16531],[-121.01332,50.1653],[-121.01349,50.16526],[-121.01381,50.16519],[-121.01397,50.16506],[-121.01403,50.16484],[-121.01408,50.16477],[-121.01422,50.1647],[-121.01439,50.16467],[-121.01456,50.16458],[-121.01467,50.16449],[-121.01477,50.16437],[-121.01482,50.16423],[-121.01496,50.16404],[-121.01504,50.16392],[-121.01527,50.16379],[-121.0154,50.16359],[-121.01546,50.16353],[-121.01558,50.16347],[-121.01582,50.16344],[-121.01597,50.16343],[-121.01614,50.16343],[-121.01642,50.16345],[-121.01653,50.16345],[-121.01666,50.16344],[-121.01674,50.16341],[-121.01681,50.16336],[-121.01686,50.1633],[-121.01689,50.16315],[-121.01688,50.16301],[-121.01688,50.16279],[-121.0169,50.16272],[-121.01692,50.16257],[-121.01695,50.16253],[-121.01702,50.16247],[-121.01732,50.16235],[-121.01743,50.16234],[-121.0176,50.16233],[-121.01768,50.16236],[-121.018,50.1625],[-121.01805,50.16256],[-121.01812,50.16266],[-121.01815,50.16283],[-121.01822,50.16294],[-121.0183,50.16298],[-121.01845,50.16299],[-121.01857,50.16297],[-121.01885,50.16289],[-121.01895,50.16285],[-121.01901,50.16281],[-121.01908,50.16274],[-121.01915,50.1627],[-121.01934,50.16261],[-121.01952,50.16256],[-121.01982,50.16242],[-121.01996,50.16235],[-121.02021,50.16223],[-121.02041,50.16216],[-121.02071,50.16214],[-121.02081,50.16214],[-121.02099,50.16214],[-121.02112,50.16217],[-121.02114,50.1621],[-121.02121,50.16205],[-121.02135,50.16194],[-121.02144,50.1619],[-121.02171,50.16175],[-121.02182,50.16174],[-121.02202,50.16176],[-121.02221,50.16183],[-121.02229,50.16187],[-121.02235,50.16195],[-121.02235,50.16212],[-121.02235,50.16219],[-121.0223,50.16227],[-121.02228,50.16248],[-121.02229,50.16259],[-121.02233,50.16274],[-121.02239,50.16285],[-121.02239,50.16292],[-121.02252,50.16312],[-121.02254,50.16324],[-121.02262,50.16334],[-121.02279,50.1635],[-121.02283,50.16354],[-121.02289,50.16358],[-121.02296,50.16368],[-121.02303,50.16375],[-121.02312,50.16382],[-121.02323,50.16386],[-121.02349,50.16405],[-121.02361,50.16414],[-121.02377,50.16431],[-121.02383,50.16437],[-121.02393,50.16455],[-121.02406,50.16475],[-121.0241,50.16482],[-121.02411,50.16502],[-121.02411,50.16511],[-121.02411,50.16525],[-121.02412,50.16547],[-121.02412,50.16556],[-121.02417,50.16569],[-121.02425,50.1658],[-121.0243,50.16586],[-121.02438,50.16589],[-121.02447,50.16589],[-121.02457,50.16578],[-121.02462,50.16565],[-121.0247,50.16554],[-121.02476,50.16549],[-121.02482,50.16542],[-121.02483,50.1652],[-121.02492,50.1651],[-121.02497,50.1649],[-121.02496,50.16468],[-121.02498,50.1644],[-121.02501,50.16422],[-121.02501,50.16401],[-121.025,50.1638],[-121.02502,50.16374],[-121.02503,50.16372],[-121.02506,50.16368],[-121.02522,50.16361],[-121.02536,50.16352],[-121.02551,50.16344],[-121.02555,50.16328],[-121.02557,50.1632],[-121.02558,50.16289],[-121.0256,50.16284],[-121.02568,50.16265],[-121.02568,50.16254],[-121.02564,50.16247],[-121.02556,50.16239],[-121.02538,50.1623],[-121.02525,50.16219],[-121.02524,50.16209],[-121.0252,50.16204],[-121.02522,50.16192],[-121.02535,50.1618],[-121.02543,50.16176],[-121.02548,50.16171],[-121.02552,50.16166],[-121.02553,50.16145],[-121.02541,50.16127],[-121.02537,50.16121],[-121.02538,50.16113],[-121.0255,50.16094],[-121.02553,50.16088],[-121.02551,50.16083],[-121.02542,50.16071],[-121.02534,50.1606],[-121.02534,50.16041],[-121.02533,50.16033],[-121.0252,50.1602],[-121.02503,50.16002],[-121.02486,50.15983],[-121.0248,50.15977],[-121.02461,50.1596],[-121.02455,50.15955],[-121.02442,50.15945],[-121.02422,50.15937],[-121.02415,50.15933],[-121.02406,50.1592],[-121.02396,50.15912],[-121.0239,50.159],[-121.02374,50.15878],[-121.0237,50.15872],[-121.02367,50.15865],[-121.02368,50.15851],[-121.02371,50.15847],[-121.02388,50.15841],[-121.02415,50.15823],[-121.0242,50.15815],[-121.02423,50.15801],[-121.02422,50.15794],[-121.02418,50.15787],[-121.02413,50.15779],[-121.02386,50.1576],[-121.02366,50.15752],[-121.02355,50.15748],[-121.02348,50.15743],[-121.02335,50.15732],[-121.02335,50.15719],[-121.02339,50.15707],[-121.02338,50.15696],[-121.02331,50.15683],[-121.02318,50.15668],[-121.02296,50.15655],[-121.02264,50.15654],[-121.02254,50.15649],[-121.02249,50.1564],[-121.02246,50.15622],[-121.0224,50.15615],[-121.02227,50.15606],[-121.0221,50.156],[-121.02186,50.15587],[-121.0218,50.15578],[-121.02173,50.15558],[-121.02164,50.15541],[-121.02156,50.15528],[-121.02151,50.15516],[-121.02151,50.15501],[-121.0214,50.1548],[-121.02135,50.15464],[-121.02131,50.15455],[-121.02122,50.15437],[-121.0211,50.15417],[-121.02099,50.15403],[-121.02096,50.15388],[-121.02092,50.15376],[-121.02086,50.15361],[-121.02078,50.15347],[-121.02063,50.15331],[-121.02051,50.15312],[-121.02033,50.1529],[-121.02021,50.15269],[-121.02001,50.15248],[-121.01989,50.1523],[-121.01978,50.15223],[-121.01952,50.15208],[-121.01939,50.15188],[-121.01928,50.15178],[-121.0192,50.15174],[-121.01916,50.1516],[-121.01904,50.15143],[-121.01892,50.15132],[-121.01875,50.15112],[-121.01861,50.15101],[-121.01851,50.15081],[-121.01843,50.1506],[-121.01831,50.15047],[-121.0182,50.15041],[-121.01798,50.15038],[-121.01784,50.15037],[-121.01765,50.1503],[-121.01755,50.15022],[-121.01747,50.15007],[-121.01742,50.14999],[-121.01731,50.14991],[-121.0173,50.14986],[-121.01714,50.14973],[-121.01701,50.14957],[-121.01673,50.14937],[-121.0165,50.14921],[-121.01637,50.14909],[-121.0162,50.14901],[-121.01602,50.14896],[-121.01585,50.14874],[-121.01581,50.14858],[-121.01582,50.14851],[-121.01582,50.14844],[-121.01585,50.14839],[-121.01585,50.14834],[-121.01584,50.14831],[-121.01605,50.14827],[-121.01625,50.14825],[-121.01637,50.14825],[-121.01656,50.14825],[-121.01677,50.14825],[-121.01685,50.14822],[-121.01711,50.14804],[-121.01721,50.14799],[-121.01726,50.14793],[-121.01727,50.14781],[-121.01724,50.14767],[-121.01722,50.14748],[-121.01724,50.14727],[-121.01724,50.1472],[-121.01729,50.14707],[-121.01731,50.14687],[-121.01731,50.14666],[-121.01732,50.14645],[-121.0173,50.1464],[-121.01724,50.14628],[-121.01713,50.14606]]}},
{"type":"Feature","properties":{"spotId":"D-deer-atv-0007","kind":"walk","km":0.33,"climbM":7,"name":"1.0 km NW of Canford","flags":["Route crosses private land (ParcelMap BC, updated 2026-09-26): get permission first or go around."]},"geometry":{"type":"LineString","coordinates":[[-121.00753,50.15723],[-121.01135,50.15563]]}},
{"type":"Feature","properties":{"spotId":"D-deer-atv-0050","kind":"ride","km":3.84,"climbM":54,"name":"490 m SE of Edgar Creek","flags":[]},"geometry":{"type":"LineString","coordinates":[[-121.12288,50.13242],[-121.12287,50.13242],[-121.12287,50.13265],[-121.12287,50.13291],[-121.12287,50.13314],[-121.12291,50.13328],[-121.12306,50.13351],[-121.12324,50.13372],[-121.12349,50.1339],[-121.12375,50.13411],[-121.124,50.13428],[-121.12429,50.13444],[-121.12457,50.13457],[-121.12487,50.13469],[-121.1252,50.13481],[-121.12556,50.13487],[-121.126,50.13489],[-121.12609,50.13489],[-121.12619,50.13487],[-121.12653,50.13474],[-121.1269,50.13461],[-121.12718,50.13457],[-121.12756,50.13457],[-121.12767,50.1346],[-121.12773,50.13462],[-121.12778,50.13466],[-121.12792,50.13482],[-121.128,50.13505],[-121.12808,50.13521],[-121.12827,50.1354],[-121.1283,50.13542],[-121.12865,50.13549],[-121.12878,50.13566],[-121.12887,50.13586],[-121.12889,50.13608],[-121.12887,50.13656],[-121.12888,50.13667],[-121.12891,50.13687],[-121.12906,50.13704],[-121.12936,50.13727],[-121.12955,50.1374],[-121.12978,50.13752],[-121.12991,50.13757],[-121.13005,50.13762],[-121.1301,50.13766],[-121.13019,50.13777],[-121.1305,50.1379],[-121.13066,50.13805],[-121.13073,50.13814],[-121.13082,50.13834],[-121.13083,50.13836],[-121.13096,50.13851],[-121.13116,50.13872],[-121.13137,50.13889],[-121.13149,50.13898],[-121.13164,50.13907],[-121.13192,50.13914],[-121.13221,50.13916],[-121.13239,50.13913],[-121.13247,50.13909],[-121.13265,50.13904],[-121.13285,50.139],[-121.13297,50.13898],[-121.13318,50.13895],[-121.13321,50.13901],[-121.13333,50.13922],[-121.13332,50.13945],[-121.13329,50.13951],[-121.13323,50.13958],[-121.13299,50.13963],[-121.13282,50.13969],[-121.13262,50.13982],[-121.13249,50.13995],[-121.13237,50.14005],[-121.13218,50.14023],[-121.13211,50.14028],[-121.13187,50.14039],[-121.13176,50.14044],[-121.13156,50.14049],[-121.13136,50.14058],[-121.1313,50.14063],[-121.13114,50.14081],[-121.13104,50.14093],[-121.13092,50.1411],[-121.13083,50.14121],[-121.13081,50.1414],[-121.13081,50.14145],[-121.13073,50.1416],[-121.13066,50.14172],[-121.13055,50.14182],[-121.13048,50.14193],[-121.13042,50.14213],[-121.1303,50.14232],[-121.13027,50.14237],[-121.13017,50.14257],[-121.13003,50.14273],[-121.13002,50.14303],[-121.13003,50.1431],[-121.13016,50.14329],[-121.13027,50.14346],[-121.13034,50.14366],[-121.13037,50.14373],[-121.13042,50.14394],[-121.13041,50.14399],[-121.13049,50.14416],[-121.13058,50.14435],[-121.13061,50.14442],[-121.13066,50.1446],[-121.13069,50.14473],[-121.1308,50.14493],[-121.13079,50.14506],[-121.1307,50.14517],[-121.1306,50.14534],[-121.13054,50.14546],[-121.13044,50.14558],[-121.13039,50.14573],[-121.13018,50.14574],[-121.12991,50.14574],[-121.12972,50.14573],[-121.12944,50.14569],[-121.12934,50.14567],[-121.1292,50.14563],[-121.1289,50.14552],[-121.1286,50.14538],[-121.12828,50.14523],[-121.12806,50.1451],[-121.12794,50.14501],[-121.12776,50.1449],[-121.12773,50.14489],[-121.12748,50.14485],[-121.12722,50.14488],[-121.12712,50.14488],[-121.12678,50.14503],[-121.1267,50.14523],[-121.12667,50.14528],[-121.12637,50.14548],[-121.12618,50.14563],[-121.12612,50.14568],[-121.12593,50.14576],[-121.12582,50.14587],[-121.12572,50.14595],[-121.12552,50.14607],[-121.12527,50.14619],[-121.12496,50.14641],[-121.12483,50.1465],[-121.12467,50.14656],[-121.12444,50.14669],[-121.12437,50.14673],[-121.12408,50.14694],[-121.12399,50.14706],[-121.12378,50.14724],[-121.12363,50.14736],[-121.12336,50.14751],[-121.12324,50.14766],[-121.1232,50.14773],[-121.12314,50.14778],[-121.12284,50.14793],[-121.12271,50.148],[-121.12243,50.14807],[-121.12234,50.1481],[-121.12223,50.14812],[-121.12185,50.14811],[-121.12156,50.14809],[-121.12139,50.14807],[-121.1212,50.14804],[-121.12093,50.148],[-121.12085,50.148],[-121.12061,50.14795],[-121.12052,50.14794],[-121.12021,50.14788],[-121.11988,50.14785],[-121.11957,50.14791],[-121.11947,50.14794],[-121.11921,50.1481],[-121.11905,50.14823],[-121.11889,50.14832],[-121.11859,50.14847],[-121.11852,50.14852],[-121.1183,50.1487],[-121.11807,50.14888],[-121.11794,50.14902],[-121.11788,50.1491],[-121.11775,50.14929],[-121.1177,50.14943],[-121.11763,50.14952],[-121.11755,50.1496],[-121.11744,50.14967],[-121.11738,50.14972],[-121.11716,50.14992],[-121.11697,50.15011],[-121.11666,50.15028],[-121.11642,50.15038],[-121.11633,50.15039],[-121.11622,50.15041],[-121.11611,50.15046],[-121.11603,50.15051],[-121.11591,50.15055],[-121.11582,50.15058],[-121.11559,50.15077],[-121.1154,50.15087],[-121.11533,50.15094],[-121.11517,50.15103],[-121.11504,50.15114],[-121.1148,50.15135],[-121.11469,50.15148],[-121.11459,50.15165],[-121.11446,50.1518],[-121.11428,50.15202],[-121.11422,50.15205],[-121.11408,50.15217],[-121.11398,50.15229],[-121.11392,50.15233],[-121.11373,50.15244],[-121.11366,50.15249],[-121.11333,50.15261],[-121.11298,50.15275],[-121.11268,50.15284]]}},
{"type":"Feature","properties":{"spotId":"D-deer-atv-0050","kind":"walk","km":0.08,"climbM":0,"name":"490 m SE of Edgar Creek","flags":[]},"geometry":{"type":"LineString","coordinates":[[-121.12288,50.13242],[-121.12179,50.13229]]}},
{"type":"Feature","properties":{"spotId":"D-deer-atv-0087","kind":"ride","km":1.05,"climbM":10,"name":"1.1 km N of Edgar Creek","flags":[]},"geometry":{"type":"LineString","coordinates":[[-121.11268,50.15284],[-121.11298,50.15283],[-121.1132,50.15275],[-121.11344,50.15271],[-121.11374,50.1526],[-121.11384,50.15256],[-121.11414,50.15236],[-121.1143,50.15229],[-121.11438,50.15223],[-121.11453,50.15218],[-121.11464,50.15217],[-121.11479,50.15217],[-121.11489,50.15218],[-121.11518,50.15225],[-121.11549,50.15231],[-121.11586,50.15244],[-121.11609,50.15256],[-121.11641,50.1527],[-121.11649,50.15274],[-121.11673,50.15283],[-121.11685,50.15288],[-121.11698,50.1529],[-121.11706,50.15289],[-121.11734,50.1528],[-121.1177,50.15273],[-121.11798,50.15276],[-121.1181,50.15278],[-121.11824,50.15282],[-121.11845,50.15291],[-121.11867,50.15295],[-121.11888,50.15295],[-121.11906,50.15294],[-121.11937,50.15287],[-121.11944,50.15286],[-121.11963,50.15283],[-121.11985,50.15281],[-121.12015,50.15274],[-121.12038,50.15274],[-121.12064,50.15273],[-121.12092,50.15274],[-121.121,50.15273],[-121.12135,50.15268],[-121.12169,50.1526],[-121.12178,50.15259],[-121.12199,50.15247],[-121.12212,50.15239],[-121.12246,50.15226],[-121.12273,50.15208],[-121.12292,50.15193],[-121.1231,50.15176],[-121.12323,50.15159],[-121.12329,50.15154],[-121.12344,50.15145],[-121.12352,50.15134],[-121.12358,50.15116],[-121.12366,50.15104],[-121.12396,50.15082],[-121.12409,50.15074],[-121.12434,50.15065],[-121.12453,50.15064],[-121.12468,50.15063],[-121.12485,50.15068],[-121.12492,50.15072],[-121.125,50.15078]]}},
{"type":"Feature","properties":{"spotId":"D-deer-atv-0087","kind":"walk","km":0.25,"climbM":85,"name":"1.1 km N of Edgar Creek","flags":[]},"geometry":{"type":"LineString","coordinates":[[-121.125,50.15078],[-121.12176,50.14986]]}},
{"type":"Feature","properties":{"spotId":"D-deer-atv-0089","kind":"ride","km":1.86,"climbM":1,"name":"By August Creek","flags":[]},"geometry":{"type":"LineString","coordinates":[[-121.06943,50.09458],[-121.06928,50.09479],[-121.06911,50.095],[-121.06892,50.09519],[-121.0688,50.09534],[-121.06856,50.09544],[-121.06832,50.09551],[-121.06809,50.09554],[-121.06784,50.09556],[-121.06767,50.09559],[-121.06743,50.09565],[-121.06729,50.09569],[-121.06705,50.09582],[-121.06691,50.09598],[-121.06678,50.0962],[-121.06651,50.09638],[-121.06639,50.09649],[-121.06629,50.09657],[-121.0662,50.09667],[-121.06611,50.09675],[-121.06601,50.09688],[-121.06594,50.09702],[-121.06589,50.09712],[-121.06587,50.09723],[-121.06579,50.09742],[-121.06576,50.09754],[-121.06574,50.09809],[-121.06565,50.09826],[-121.06556,50.09832],[-121.06546,50.09835],[-121.06531,50.09837],[-121.0652,50.09836],[-121.06503,50.09832],[-121.06492,50.09825],[-121.06484,50.09816],[-121.06479,50.09809],[-121.06472,50.09799],[-121.06465,50.09778],[-121.06463,50.09761],[-121.06462,50.0974],[-121.06463,50.0971],[-121.06462,50.09693],[-121.06466,50.09679],[-121.06469,50.09664],[-121.06474,50.09649],[-121.06476,50.09631],[-121.06478,50.09611],[-121.06478,50.09596],[-121.06472,50.09584],[-121.06465,50.09567],[-121.06453,50.09545],[-121.06445,50.09532],[-121.06431,50.09514],[-121.06417,50.09499],[-121.06411,50.09495],[-121.06391,50.0948],[-121.06382,50.09473],[-121.06369,50.09468],[-121.06347,50.09458],[-121.06335,50.09446],[-121.06329,50.09441],[-121.06316,50.09435],[-121.06302,50.09433],[-121.06287,50.09429],[-121.06275,50.09427],[-121.06247,50.09427],[-121.06234,50.0943],[-121.06208,50.0944],[-121.062,50.09454],[-121.06189,50.09465],[-121.06175,50.09482],[-121.06169,50.09488],[-121.06152,50.09504],[-121.06142,50.0951],[-121.06126,50.09524],[-121.06112,50.0953],[-121.06088,50.09548],[-121.06075,50.09557],[-121.06057,50.09573],[-121.06044,50.0959],[-121.06041,50.09597],[-121.06037,50.09603],[-121.06032,50.09614],[-121.06022,50.09627],[-121.06013,50.09639],[-121.05999,50.09655],[-121.05996,50.09665],[-121.05992,50.09687],[-121.05987,50.09707],[-121.05979,50.09727],[-121.05975,50.09734],[-121.05944,50.09752],[-121.05928,50.09758],[-121.05918,50.0976],[-121.05907,50.0976],[-121.05896,50.09758],[-121.05871,50.09752],[-121.05849,50.09746],[-121.05819,50.09745],[-121.05801,50.09746],[-121.05784,50.09753],[-121.05761,50.09769],[-121.0574,50.09783],[-121.05734,50.09789],[-121.05718,50.09807],[-121.05699,50.09826],[-121.05676,50.09861],[-121.05665,50.09872],[-121.05655,50.09886]]}},
{"type":"Feature","properties":{"spotId":"D-deer-atv-0089","kind":"walk","km":0.11,"climbM":31,"name":"By August Creek","flags":[]},"geometry":{"type":"LineString","coordinates":[[-121.06943,50.09458],[-121.07083,50.09488]]}},
{"type":"Feature","properties":{"spotId":"D-deer-drive-0027","kind":"walk","km":0.17,"climbM":0,"name":"390 m SE of Manning Creek","flags":[]},"geometry":{"type":"LineString","coordinates":[[-121.1818,50.19779],[-121.18063,50.1991]]}},
{"type":"Feature","properties":{"spotId":"D-deer-drive-0033","kind":"walk","km":0.02,"climbM":2,"name":"1.9 km E of Spius Creek","flags":[]},"geometry":{"type":"LineString","coordinates":[[-121.02309,50.02736],[-121.02322,50.02749]]}},
{"type":"Feature","properties":{"spotId":"D-deer-drive-0055","kind":"walk","km":0.26,"climbM":74,"name":"330 m NE of Nicola River","flags":[]},"geometry":{"type":"LineString","coordinates":[[-121.01893,50.1489],[-121.0155,50.14974]]}},
{"type":"Feature","properties":{"spotId":"D-deer-drive-0164","kind":"walk","km":0.18,"climbM":23,"name":"940 m N of Edgar Creek","flags":[]},"geometry":{"type":"LineString","coordinates":[[-121.10391,50.1527],[-121.10148,50.15247]]}},
{"type":"Feature","properties":{"spotId":"D-deer-walk-0022","kind":"walk","km":0.86,"climbM":6,"name":"1.6 km NW of Nuaitch Creek","flags":[]},"geometry":{"type":"LineString","coordinates":[[-121.16767,50.18726],[-121.15861,50.18211]]}},
{"type":"Feature","properties":{"spotId":"D-deer-walk-0027","kind":"walk","km":0.76,"climbM":166,"name":"2.2 km N of Nuaitch Creek","flags":[]},"geometry":{"type":"LineString","coordinates":[[-121.11784,50.18174],[-121.11469,50.18826]]}},
{"type":"Feature","properties":{"spotId":"D-deer-walk-0035","kind":"walk","km":0.44,"climbM":75,"name":"710 m SE of Manning Creek","flags":[]},"geometry":{"type":"LineString","coordinates":[[-121.16955,50.20332],[-121.17221,50.19974]]}},
{"type":"Feature","properties":{"spotId":"D-deer-walk-0038","kind":"walk","km":0.57,"climbM":161,"name":"810 m N of Nuaitch Creek","flags":[]},"geometry":{"type":"LineString","coordinates":[[-121.12781,50.18167],[-121.13081,50.17689]]}},
{"type":"Feature","properties":{"spotId":"D-deer-walk-0041","kind":"walk","km":1.13,"climbM":123,"name":"5.0 km W of Lily Lake rec site","flags":[]},"geometry":{"type":"LineString","coordinates":[[-121.01841,50.02675],[-121.00811,50.03451]]}},
{"type":"Feature","properties":{"spotId":"D-deer-walk-0084","kind":"walk","km":0.57,"climbM":228,"name":"750 m NE of Nicola River","flags":["Route crosses private land (ParcelMap BC, updated 2026-09-26): get permission first or go around."]},"geometry":{"type":"LineString","coordinates":[[-121.02679,50.15529],[-121.02083,50.15876]]}},
{"type":"Feature","properties":{"spotId":"D-deer-walk-0088","kind":"walk","km":0.63,"climbM":219,"name":"420 m N of Edgar Creek","flags":[]},"geometry":{"type":"LineString","coordinates":[[-121.10633,50.14353],[-121.11492,50.14496]]}},
{"type":"Feature","properties":{"spotId":"D-deer-walk-0090","kind":"walk","km":1.23,"climbM":455,"name":"610 m W of Petit Creek","flags":["Route crosses reserve land: NOOAITCH 10. Get permission from the band office to hunt on or across it (synopsis page 9, 99%)."]},"geometry":{"type":"LineString","coordinates":[[-121.05283,50.1729],[-121.03592,50.17476]]}},
{"type":"Feature","properties":{"spotId":"D-deer-walk-0122","kind":"walk","km":0.38,"climbM":68,"name":"290 m N of August Creek","flags":[]},"geometry":{"type":"LineString","coordinates":[[-121.05859,50.09452],[-121.06318,50.09624]]}},
{"type":"Feature","properties":{"spotId":"D-deer-walk-0132","kind":"walk","km":2.1,"climbM":260,"name":"160 m NW of Nuaitch Creek","flags":[]},"geometry":{"type":"LineString","coordinates":[[-121.12781,50.18167],[-121.15059,50.16971]]}},
{"type":"Feature","properties":{"spotId":"D-deer-walk-0133","kind":"walk","km":2.26,"climbM":116,"name":"2.9 km SE of Mimenuh Mountain","flags":[]},"geometry":{"type":"LineString","coordinates":[[-121.20207,50.17872],[-121.19287,50.15929]]}},
{"type":"Feature","properties":{"spotId":"D-deer-walk-0166","kind":"walk","km":2.72,"climbM":159,"name":"180 m W of Nuaitch Creek","flags":[]},"geometry":{"type":"LineString","coordinates":[[-121.18057,50.18099],[-121.16143,50.15984]]}},
{"type":"Feature","properties":{"spotId":"D-duck-drive-0013","kind":"walk","km":0.09,"climbM":0,"name":"Unnamed wetland 2.0 km W of Midday Creek","flags":[]},"geometry":{"type":"LineString","coordinates":[[-121.00402,50.01775],[-121.00488,50.01713]]}},
{"type":"Feature","properties":{"spotId":"D-duck-drive-0130","kind":"walk","km":0.03,"climbM":0,"name":"Unnamed wetland 3.7 km W of Prospect Valley","flags":[]},"geometry":{"type":"LineString","coordinates":[[-121.21907,50.04894],[-121.21908,50.04864]]}},
{"type":"Feature","properties":{"spotId":"D-duck-drive-0134","kind":"walk","km":0.01,"climbM":0,"name":"Unnamed lake 220 m S of Edgar Creek","flags":[]},"geometry":{"type":"LineString","coordinates":[[-121.09046,50.1425],[-121.09044,50.1424]]}},
{"type":"Feature","properties":{"spotId":"D-duck-drive-0162","kind":"walk","km":0.18,"climbM":5,"name":"Unnamed wetland 1.9 km SW of Prospect Creek","flags":[]},"geometry":{"type":"LineString","coordinates":[[-121.23892,50.0634],[-121.23867,50.06175]]}},
{"type":"Feature","properties":{"spotId":"D-duck-drive-0167","kind":"walk","km":0.09,"climbM":0,"name":"Unnamed wetland 550 m SE of Edgar Creek","flags":[]},"geometry":{"type":"LineString","coordinates":[[-121.07142,50.14452],[-121.07269,50.14447]]}},
{"type":"Feature","properties":{"spotId":"D-grouse-atv-0099","kind":"walk","km":3.38,"climbM":668,"name":"1.0 km W of August Creek","flags":[]},"geometry":{"type":"LineString","coordinates":[[-121.06489,50.08505],[-121.11024,50.09341]]}},
{"type":"Feature","properties":{"spotId":"D-grouse-atv-0099","kind":"ride","km":3.25,"climbM":146,"name":"1.0 km W of August Creek","flags":[]},"geometry":{"type":"LineString","coordinates":[[-121.11024,50.09341],[-121.11069,50.09337],[-121.11088,50.09341],[-121.1109,50.09356],[-121.11082,50.09369],[-121.11042,50.0942],[-121.10999,50.09491],[-121.10933,50.0956],[-121.10904,50.09611],[-121.10878,50.09697],[-121.10862,50.09765],[-121.10873,50.09799],[-121.10916,50.0983],[-121.10944,50.09865],[-121.10985,50.09892],[-121.11028,50.09965],[-121.11075,50.10021],[-121.11119,50.10049],[-121.11158,50.10046],[-121.11204,50.1002],[-121.1127,50.10012],[-121.11318,50.09972],[-121.11391,50.09926],[-121.11419,50.09885],[-121.11448,50.09873],[-121.1147,50.09875],[-121.11513,50.09928],[-121.11542,50.09955],[-121.11558,50.09981],[-121.11599,50.10013],[-121.11656,50.10038],[-121.11708,50.10068],[-121.11731,50.10091],[-121.11705,50.10133],[-121.11681,50.10182],[-121.11673,50.10223],[-121.11683,50.10251],[-121.11717,50.10271],[-121.11764,50.10285],[-121.11789,50.10324],[-121.11828,50.10349],[-121.11864,50.10392],[-121.11878,50.1042],[-121.11935,50.10462],[-121.12007,50.10469],[-121.12017,50.10474],[-121.12028,50.1051],[-121.12044,50.10526],[-121.12084,50.1053],[-121.12163,50.10538],[-121.12236,50.10538],[-121.12284,50.1055],[-121.12329,50.10574],[-121.12404,50.10607],[-121.12496,50.10649],[-121.12519,50.10651],[-121.1257,50.10635],[-121.12593,50.10622],[-121.12604,50.10611],[-121.12604,50.10589],[-121.12596,50.1054],[-121.12587,50.10514],[-121.1256,50.10473],[-121.12494,50.10418],[-121.12456,50.10395],[-121.1242,50.10351],[-121.12355,50.10334],[-121.12308,50.10304],[-121.1226,50.10257],[-121.12246,50.10195],[-121.1222,50.10158]]}},
{"type":"Feature","properties":{"spotId":"D-grouse-atv-0100","kind":"ride","km":6.55,"climbM":66,"name":"610 m SE of Manning Creek","flags":[]},"geometry":{"type":"LineString","coordinates":[[-121.17922,50.19726],[-121.17899,50.19715],[-121.17833,50.19697],[-121.17767,50.19682],[-121.17686,50.19672],[-121.17671,50.19665],[-121.17656,50.19624],[-121.1766,50.19516],[-121.17642,50.19505],[-121.17624,50.19494],[-121.17608,50.19485],[-121.17579,50.19449],[-121.17567,50.19446],[-121.17544,50.19446],[-121.17489,50.19451],[-121.17468,50.19448],[-121.17442,50.1943],[-121.17436,50.19407],[-121.17438,50.19378],[-121.1747,50.19326],[-121.17474,50.1917],[-121.17472,50.19146],[-121.17449,50.19103],[-121.17383,50.19003],[-121.17361,50.18952],[-121.17348,50.18912],[-121.17339,50.18818],[-121.17333,50.18794],[-121.17294,50.1873],[-121.17274,50.1869],[-121.17235,50.1864],[-121.17204,50.18593],[-121.1715,50.18492],[-121.17127,50.18464],[-121.17121,50.18411],[-121.1713,50.18357],[-121.17172,50.18307],[-121.17195,50.18267],[-121.17233,50.18217],[-121.17275,50.18181],[-121.17282,50.18145],[-121.17278,50.18101],[-121.17286,50.1802],[-121.17294,50.17993],[-121.17327,50.17959],[-121.17358,50.17923],[-121.17361,50.17912],[-121.17359,50.17899],[-121.17331,50.1785],[-121.17318,50.17804],[-121.17298,50.17781],[-121.17207,50.17734],[-121.17116,50.17702],[-121.17045,50.17689],[-121.1698,50.17685],[-121.16919,50.17687],[-121.16889,50.17693],[-121.16788,50.17734],[-121.16645,50.17775],[-121.16632,50.17785],[-121.16602,50.17795],[-121.16575,50.17809],[-121.16534,50.17834],[-121.16479,50.17858],[-121.16395,50.17879],[-121.16355,50.17885],[-121.16269,50.17914],[-121.16251,50.17929],[-121.16194,50.17957],[-121.16148,50.17989],[-121.16125,50.18017],[-121.16113,50.18038],[-121.16061,50.18076],[-121.1604,50.18151],[-121.16032,50.18167],[-121.16016,50.18185],[-121.15997,50.18192],[-121.15959,50.18193],[-121.15938,50.18197],[-121.1589,50.18214],[-121.15856,50.18213],[-121.15809,50.182],[-121.15777,50.18201],[-121.15751,50.18216],[-121.15703,50.18258],[-121.15665,50.18279],[-121.1556,50.18306],[-121.15501,50.18314],[-121.15423,50.18347],[-121.15379,50.18396],[-121.15359,50.18399],[-121.15323,50.18393],[-121.15305,50.18394],[-121.15276,50.18412],[-121.15251,50.18408],[-121.15213,50.18396],[-121.15103,50.18391],[-121.15033,50.18363],[-121.15002,50.18358],[-121.14968,50.18362],[-121.14924,50.18375],[-121.14884,50.18376],[-121.14853,50.18369],[-121.1483,50.18357],[-121.1481,50.18354],[-121.14691,50.18352],[-121.14601,50.18363],[-121.14534,50.18366],[-121.14507,50.18373],[-121.14458,50.18376],[-121.14418,50.18382],[-121.14403,50.1838],[-121.14383,50.18361],[-121.14376,50.18324],[-121.14411,50.18287],[-121.14445,50.18264],[-121.1445,50.18252],[-121.14447,50.18245],[-121.14432,50.18237],[-121.14393,50.18236],[-121.14322,50.18242],[-121.14269,50.18261],[-121.14233,50.1828],[-121.14159,50.18311],[-121.14142,50.18327],[-121.14113,50.18341],[-121.14091,50.18376],[-121.1407,50.18396],[-121.14051,50.18399],[-121.14014,50.184],[-121.13998,50.18388],[-121.13978,50.18357],[-121.13941,50.18312],[-121.1392,50.18301],[-121.1389,50.1829],[-121.13852,50.18284],[-121.13793,50.18263],[-121.13768,50.18241],[-121.13756,50.18236],[-121.13654,50.18222],[-121.13619,50.18213],[-121.13571,50.1821],[-121.13486,50.18182],[-121.13435,50.18176],[-121.13402,50.18188],[-121.1337,50.18207],[-121.13345,50.18214],[-121.13321,50.18216],[-121.13279,50.18214],[-121.13232,50.18203],[-121.13188,50.18201],[-121.13133,50.18186],[-121.13049,50.18193],[-121.1294,50.18189],[-121.12872,50.18172],[-121.12821,50.18166],[-121.12781,50.18167]]}},
{"type":"Feature","properties":{"spotId":"D-grouse-atv-0116","kind":"walk","km":3.37,"climbM":582,"name":"2.0 km S of Prospect Creek","flags":[]},"geometry":{"type":"LineString","coordinates":[[-121.09222,50.02389],[-121.13172,50.00753]]}},
{"type":"Feature","properties":{"spotId":"D-grouse-atv-0116","kind":"ride","km":3.2,"climbM":142,"name":"2.0 km S of Prospect Creek","flags":[]},"geometry":{"type":"LineString","coordinates":[[-121.13172,50.00753],[-121.13213,50.00787],[-121.13243,50.00816],[-121.13286,50.00833],[-121.13344,50.00835],[-121.13359,50.00839],[-121.13376,50.00849],[-121.134,50.00889],[-121.13452,50.00936],[-121.13492,50.00978],[-121.13527,50.01005],[-121.13568,50.01028],[-121.13592,50.01045],[-121.1366,50.01077],[-121.13776,50.01122],[-121.13817,50.01136],[-121.13849,50.01137],[-121.13826,50.01121],[-121.13775,50.01088],[-121.13747,50.01068],[-121.13735,50.0105],[-121.13699,50.01017],[-121.13681,50.00989],[-121.1365,50.00955],[-121.13627,50.00936],[-121.13606,50.00898],[-121.13597,50.00863],[-121.13604,50.00845],[-121.1361,50.00817],[-121.13639,50.00773],[-121.1365,50.00725],[-121.13641,50.00703],[-121.1361,50.00686],[-121.1353,50.00683],[-121.13507,50.00672],[-121.13489,50.00648],[-121.13482,50.00635],[-121.13479,50.00597],[-121.13467,50.00587],[-121.13449,50.00583],[-121.13415,50.00582],[-121.13374,50.00587],[-121.13342,50.00585],[-121.13323,50.00577],[-121.13324,50.00558],[-121.13361,50.00466],[-121.13374,50.00416],[-121.13386,50.00383],[-121.13403,50.00347],[-121.1343,50.00323],[-121.13452,50.00287],[-121.13487,50.00169],[-121.13495,50.00149],[-121.13529,50.00096],[-121.13528,50.00087],[-121.13516,50.00073],[-121.13472,50.00052],[-121.13454,50.00022],[-121.13462,50.00006],[-121.13473,49.99993],[-121.13528,49.99963],[-121.13573,49.99937],[-121.13621,49.99915],[-121.13662,49.9989],[-121.13698,49.99867],[-121.1372,49.99848],[-121.13759,49.99806],[-121.13809,49.99784],[-121.13845,49.99786],[-121.13855,49.99791],[-121.13874,49.99808],[-121.13919,49.99831],[-121.13947,49.99838],[-121.13964,49.99849],[-121.13989,49.99862],[-121.14007,49.99879],[-121.14034,49.99897],[-121.1408,49.99915],[-121.14097,49.99934],[-121.14106,50.0],[-121.14119,50.00045],[-121.14104,50.00068],[-121.14108,50.00082],[-121.14172,50.0009],[-121.14205,50.00101],[-121.14246,50.00128],[-121.14325,50.00158]]}},
{"type":"Feature","properties":{"spotId":"D-grouse-atv-0117","kind":"walk","km":0.47,"climbM":11,"name":"2.0 km NW of Nuaitch Creek","flags":[]},"geometry":{"type":"LineString","coordinates":[[-121.17832,50.18233],[-121.17327,50.17959]]}},
{"type":"Feature","properties":{"spotId":"D-grouse-atv-0117","kind":"ride","km":3.93,"climbM":274,"name":"2.0 km NW of Nuaitch Creek","flags":[]},"geometry":{"type":"LineString","coordinates":[[-121.17327,50.17959],[-121.17326,50.18],[-121.17329,50.18024],[-121.17327,50.18042],[-121.17332,50.18062],[-121.17336,50.18067],[-121.17353,50.18082],[-121.17367,50.18091],[-121.17395,50.18103],[-121.17406,50.18105],[-121.17435,50.18107],[-121.17449,50.18106],[-121.17459,50.18104],[-121.17491,50.18096],[-121.17501,50.18092],[-121.17511,50.1809],[-121.17552,50.18087],[-121.17569,50.1809],[-121.17588,50.18088],[-121.17601,50.18083],[-121.17631,50.18072],[-121.17642,50.18069],[-121.17668,50.1806],[-121.17685,50.18051],[-121.17701,50.18045],[-121.17729,50.18034],[-121.17739,50.18031],[-121.1775,50.18029],[-121.1776,50.18029],[-121.17788,50.18035],[-121.17799,50.18035],[-121.17824,50.18034],[-121.17837,50.18029],[-121.17851,50.18022],[-121.1786,50.18009],[-121.17872,50.17992],[-121.17876,50.17977],[-121.17887,50.17958],[-121.17906,50.17938],[-121.17914,50.17932],[-121.17924,50.17927],[-121.17935,50.17925],[-121.17943,50.17926],[-121.1796,50.17929],[-121.17982,50.17938],[-121.17996,50.17942],[-121.18006,50.17943],[-121.18032,50.17949],[-121.18064,50.17949],[-121.18078,50.1795],[-121.18102,50.17951],[-121.18116,50.17941],[-121.18107,50.17922],[-121.18102,50.17916],[-121.18097,50.17911],[-121.18073,50.17892],[-121.1806,50.17883],[-121.18045,50.17874],[-121.18031,50.1786],[-121.18007,50.17839],[-121.17998,50.17826],[-121.17993,50.1781],[-121.17992,50.17794],[-121.17991,50.17776],[-121.17989,50.17767],[-121.17985,50.17753],[-121.17985,50.17743],[-121.17996,50.17727],[-121.18024,50.17707],[-121.18035,50.17694],[-121.18053,50.17683],[-121.18069,50.17672],[-121.18086,50.17663],[-121.18111,50.17651],[-121.18131,50.17643],[-121.18149,50.17634],[-121.18179,50.17624],[-121.18193,50.17621],[-121.18204,50.17617],[-121.18217,50.17613],[-121.18244,50.17605],[-121.18272,50.17595],[-121.18285,50.1759],[-121.18297,50.17584],[-121.18321,50.17567],[-121.18343,50.17553],[-121.18356,50.17541],[-121.18367,50.1753],[-121.18372,50.17523],[-121.18378,50.17519],[-121.18399,50.17515],[-121.18424,50.17509],[-121.18438,50.17506],[-121.18461,50.17506],[-121.18496,50.17504],[-121.1851,50.17504],[-121.18525,50.17503],[-121.18555,50.17501],[-121.18569,50.17497],[-121.1859,50.17486],[-121.18597,50.17484],[-121.18609,50.17479],[-121.18617,50.17475],[-121.18625,50.17469],[-121.18632,50.17462],[-121.18646,50.17445],[-121.18651,50.17439],[-121.1867,50.17422],[-121.1868,50.17415],[-121.18697,50.17409],[-121.18713,50.17401],[-121.18721,50.17392],[-121.18726,50.17387],[-121.1873,50.1738],[-121.1875,50.17368],[-121.1876,50.17357],[-121.18775,50.17343],[-121.1879,50.17327],[-121.18811,50.17311],[-121.18834,50.17308],[-121.18856,50.17309],[-121.18884,50.17311],[-121.18905,50.17312],[-121.18926,50.17311],[-121.18937,50.1731],[-121.1897,50.17306],[-121.19006,50.17306],[-121.19048,50.17309],[-121.1907,50.1731],[-121.19095,50.17313],[-121.19146,50.17303],[-121.19166,50.17292],[-121.19189,50.17278],[-121.192,50.17276],[-121.19212,50.17277],[-121.19242,50.17285],[-121.19252,50.17288],[-121.19271,50.17295],[-121.19292,50.17304],[-121.19306,50.17307],[-121.19332,50.17306],[-121.19345,50.17308],[-121.19353,50.17313],[-121.19385,50.17331],[-121.19393,50.17339],[-121.19409,50.17354],[-121.19417,50.17368],[-121.19428,50.17373],[-121.19449,50.17378],[-121.19467,50.17385],[-121.19475,50.17389],[-121.19497,50.17397],[-121.19515,50.17399],[-121.19524,50.17399],[-121.19552,50.17398],[-121.19581,50.17396],[-121.19602,50.17397],[-121.19627,50.17395],[-121.19672,50.17396],[-121.19695,50.17395],[-121.19709,50.17396],[-121.19722,50.17406],[-121.19722,50.1742],[-121.19717,50.17425],[-121.19714,50.17435],[-121.19705,50.17451],[-121.19696,50.17462],[-121.19689,50.17475],[-121.19685,50.17487],[-121.19682,50.17492],[-121.19681,50.17506],[-121.19674,50.17521],[-121.19671,50.17532],[-121.1967,50.17538],[-121.1967,50.17553],[-121.1967,50.17561],[-121.19677,50.17567],[-121.19688,50.17565],[-121.1971,50.17549],[-121.19728,50.17536],[-121.19761,50.17521],[-121.1977,50.17515],[-121.19779,50.17506],[-121.19803,50.17497],[-121.19827,50.17489],[-121.19859,50.17479],[-121.19892,50.17472],[-121.19907,50.17468],[-121.19922,50.17462],[-121.19949,50.17442],[-121.19966,50.17435],[-121.20001,50.17415],[-121.20028,50.17403],[-121.20052,50.17397],[-121.20076,50.17393],[-121.20086,50.17388],[-121.20098,50.17384],[-121.20123,50.17374],[-121.20135,50.17372],[-121.20146,50.17373],[-121.20169,50.17391],[-121.20194,50.17413],[-121.202,50.17425],[-121.20199,50.17431],[-121.20191,50.17452],[-121.20198,50.17459],[-121.20217,50.17465],[-121.20238,50.17466],[-121.20258,50.17467],[-121.20277,50.17466],[-121.20286,50.17464],[-121.20307,50.17452],[-121.20336,50.17437],[-121.20351,50.17433],[-121.20388,50.17431],[-121.20405,50.17427],[-121.2042,50.1742],[-121.20437,50.17415],[-121.20457,50.17413],[-121.20485,50.1741],[-121.20495,50.1741],[-121.20526,50.17411],[-121.20545,50.17412],[-121.20585,50.17411],[-121.20601,50.17411],[-121.20625,50.17411],[-121.20635,50.17411],[-121.20667,50.17412],[-121.20688,50.17412],[-121.20707,50.17411],[-121.20722,50.17411],[-121.20746,50.17413],[-121.20764,50.17415],[-121.20782,50.17419],[-121.20815,50.17429],[-121.20835,50.17435],[-121.20864,50.17442],[-121.20891,50.17453],[-121.20923,50.17467],[-121.20951,50.17475],[-121.20981,50.17481],[-121.20998,50.17482],[-121.21018,50.17477],[-121.21036,50.17473],[-121.21047,50.17471],[-121.21059,50.17472]]}},
{"type":"Feature","properties":{"spotId":"D-grouse-drive-0088","kind":"roadside","km":4.06,"climbM":114,"name":"2.3 km E of Mimenuh Mountain","flags":[]},"geometry":{"type":"LineString","coordinates":[[-121.18634,50.18061],[-121.18601,50.18053],[-121.18563,50.18051],[-121.18528,50.18047],[-121.18457,50.18046],[-121.18423,50.18051],[-121.18388,50.18058],[-121.18336,50.18064],[-121.18298,50.18063],[-121.18271,50.18068],[-121.18266,50.18069],[-121.18232,50.18079],[-121.18218,50.18079],[-121.18202,50.18081],[-121.18167,50.18081],[-121.18129,50.18084],[-121.18094,50.18088],[-121.18057,50.18099],[-121.18013,50.18121],[-121.17989,50.18137],[-121.17968,50.18156],[-121.17961,50.18163],[-121.17946,50.18175],[-121.17918,50.18189],[-121.17889,50.18205],[-121.17859,50.18219],[-121.17832,50.18233],[-121.17828,50.18238],[-121.17809,50.18256],[-121.1777,50.18289],[-121.17749,50.18309],[-121.1773,50.18331],[-121.17721,50.18349],[-121.17718,50.18354],[-121.17712,50.18376],[-121.17714,50.18387],[-121.1772,50.1841],[-121.17727,50.18433],[-121.17739,50.18463],[-121.17743,50.18486],[-121.17741,50.18489],[-121.17728,50.18505],[-121.17724,50.1851],[-121.17699,50.18526],[-121.17672,50.18541],[-121.17645,50.18557],[-121.17615,50.18574],[-121.17586,50.18589],[-121.17556,50.18605],[-121.17549,50.18608],[-121.17548,50.18608],[-121.17514,50.18616],[-121.17474,50.18624],[-121.17439,50.18631],[-121.17428,50.18634],[-121.17394,50.18642],[-121.17358,50.18649],[-121.17323,50.18654],[-121.17285,50.18653],[-121.1727,50.1865],[-121.17235,50.1864],[-121.17233,50.1864],[-121.17202,50.18627],[-121.1717,50.18616],[-121.1714,50.18612],[-121.17105,50.18611],[-121.17063,50.18613],[-121.17025,50.18616],[-121.17023,50.18616],[-121.16987,50.18619],[-121.16946,50.18624],[-121.16912,50.18633],[-121.16856,50.1866],[-121.16849,50.18665],[-121.16842,50.18673],[-121.16829,50.18684],[-121.16806,50.18703],[-121.16776,50.1872],[-121.16767,50.18726],[-121.16753,50.18737],[-121.16728,50.18756],[-121.16713,50.18777],[-121.16695,50.18805],[-121.16673,50.18851],[-121.16659,50.18872],[-121.16646,50.18887],[-121.16641,50.18893],[-121.16631,50.18914],[-121.16622,50.18937],[-121.16622,50.1896],[-121.16631,50.18984],[-121.16643,50.18997],[-121.16665,50.19015],[-121.1669,50.19027],[-121.16695,50.19028],[-121.16715,50.19026],[-121.16752,50.19019],[-121.16769,50.19013],[-121.16784,50.19007],[-121.16813,50.18994],[-121.16844,50.18981],[-121.16877,50.18972],[-121.1692,50.18966],[-121.16957,50.18966],[-121.1698,50.1897],[-121.17015,50.18974],[-121.17022,50.18973],[-121.17059,50.18972],[-121.17082,50.18975],[-121.17117,50.18985],[-121.17154,50.18998],[-121.17186,50.1901],[-121.17219,50.19023],[-121.17252,50.19035],[-121.17284,50.19046],[-121.17309,50.19054],[-121.17318,50.19056],[-121.17348,50.1907],[-121.17385,50.19081],[-121.17416,50.19093],[-121.17449,50.19103],[-121.17482,50.19115],[-121.175,50.19119],[-121.17506,50.19116],[-121.1751,50.19113],[-121.17526,50.19105],[-121.17527,50.191],[-121.17535,50.19077],[-121.17549,50.19056],[-121.17552,50.19053],[-121.17566,50.19046],[-121.17573,50.19045],[-121.17608,50.19043],[-121.17644,50.19044],[-121.17684,50.19043],[-121.1772,50.19043],[-121.17759,50.19043],[-121.17797,50.19042],[-121.17836,50.19043],[-121.17871,50.19047],[-121.17905,50.19055],[-121.17939,50.1906],[-121.17974,50.19068],[-121.18009,50.19073],[-121.18026,50.19072],[-121.18048,50.19071],[-121.18085,50.1907],[-121.18121,50.1907],[-121.18127,50.1907],[-121.18163,50.19075],[-121.18198,50.19084],[-121.18231,50.19091],[-121.18266,50.19094],[-121.18302,50.19103],[-121.18309,50.19106],[-121.18314,50.19111],[-121.18316,50.19114],[-121.18315,50.1912],[-121.18311,50.1913],[-121.18299,50.19153],[-121.18298,50.19182],[-121.183,50.19205],[-121.18309,50.19227],[-121.18319,50.19249],[-121.18324,50.19253],[-121.18348,50.1927],[-121.18366,50.19291],[-121.1838,50.19312],[-121.184,50.19333],[-121.18422,50.19352],[-121.1843,50.19363],[-121.18431,50.19367],[-121.18438,50.19391],[-121.18448,50.19437],[-121.18454,50.1946],[-121.18454,50.19483],[-121.18462,50.19506],[-121.18468,50.1953],[-121.18474,50.19552],[-121.18483,50.19575],[-121.18496,50.19597],[-121.18508,50.19617],[-121.18527,50.19637]]}},
{"type":"Feature","properties":{"spotId":"D-grouse-drive-0093","kind":"roadside","km":5.89,"climbM":232,"name":"590 m NW of Spius Creek","flags":["Route crosses private land (ParcelMap BC, updated 2026-09-26): get permission first or go around."]},"geometry":{"type":"LineString","coordinates":[[-121.05655,50.09886],[-121.0566,50.09746],[-121.05665,50.09714],[-121.05687,50.09666],[-121.05809,50.09508],[-121.05886,50.09423],[-121.05948,50.09335],[-121.0602,50.0926],[-121.06037,50.09242],[-121.06083,50.09186],[-121.06097,50.09161],[-121.06103,50.09152],[-121.06113,50.09134],[-121.06126,50.09075],[-121.06147,50.09043],[-121.06187,50.09003],[-121.06191,50.08999],[-121.06195,50.08992],[-121.0621,50.08968],[-121.06222,50.08924],[-121.0623,50.08882],[-121.06242,50.08816],[-121.06259,50.08756],[-121.06271,50.08732],[-121.0628,50.08723],[-121.06318,50.08694],[-121.06347,50.08655],[-121.06385,50.08605],[-121.06455,50.08543],[-121.06489,50.08505],[-121.06505,50.08469],[-121.06526,50.08384],[-121.06527,50.08259],[-121.06558,50.08164],[-121.06561,50.0814],[-121.06557,50.0812],[-121.06542,50.08088],[-121.06542,50.08065],[-121.06552,50.08039],[-121.06558,50.08023],[-121.06645,50.07879],[-121.0667,50.07851],[-121.06859,50.07735],[-121.06882,50.07715],[-121.06903,50.07692],[-121.06958,50.07581],[-121.07042,50.07507],[-121.07044,50.07504],[-121.07053,50.07491],[-121.07055,50.07479],[-121.07043,50.07445],[-121.06995,50.07409],[-121.06759,50.07323],[-121.06642,50.07301],[-121.06607,50.07289],[-121.06585,50.07273],[-121.06529,50.07181],[-121.06524,50.07135],[-121.06517,50.07059],[-121.06526,50.07],[-121.06535,50.06948],[-121.06547,50.06913],[-121.06576,50.06887],[-121.06582,50.06881],[-121.06603,50.0687],[-121.0663,50.06864],[-121.06665,50.06849],[-121.06672,50.06845],[-121.06681,50.06844],[-121.06704,50.06844],[-121.06731,50.06844],[-121.06752,50.06847],[-121.06778,50.06854],[-121.06786,50.06856],[-121.06817,50.06861],[-121.06846,50.06865],[-121.06875,50.06864],[-121.06905,50.06864],[-121.06926,50.06861],[-121.0695,50.06854],[-121.06953,50.06853],[-121.06971,50.06841],[-121.06977,50.06837],[-121.07002,50.06817],[-121.07028,50.068],[-121.07059,50.06782],[-121.07068,50.06771],[-121.07071,50.06766],[-121.07073,50.0675],[-121.07071,50.06739],[-121.07059,50.06723],[-121.07052,50.06719],[-121.0703,50.06707],[-121.06997,50.06695],[-121.06988,50.06694],[-121.06958,50.06686],[-121.06935,50.06679],[-121.06904,50.06676],[-121.0689,50.06671],[-121.06867,50.06662],[-121.06839,50.06654],[-121.06826,50.06638],[-121.06809,50.06615],[-121.06801,50.06603],[-121.0679,50.06584],[-121.06789,50.06578],[-121.06788,50.06567],[-121.0679,50.06549],[-121.0679,50.06526],[-121.06789,50.06521],[-121.06781,50.06499],[-121.0678,50.06494],[-121.06778,50.06472],[-121.06774,50.06455],[-121.06772,50.06449],[-121.06768,50.06432],[-121.06767,50.06424],[-121.06768,50.06417],[-121.06767,50.06372],[-121.06764,50.06357],[-121.06759,50.06341],[-121.06759,50.06328],[-121.06755,50.06308],[-121.0675,50.06297],[-121.06741,50.06288],[-121.06732,50.06269],[-121.0673,50.06263],[-121.06718,50.06228],[-121.06717,50.06222],[-121.06711,50.062],[-121.0671,50.0618],[-121.06711,50.06165],[-121.06713,50.06144],[-121.06712,50.06127],[-121.06716,50.06114],[-121.06717,50.06107],[-121.06724,50.06088],[-121.06724,50.06077],[-121.06726,50.06062],[-121.06725,50.06054],[-121.06724,50.06032],[-121.06726,50.06026],[-121.06732,50.06009],[-121.06737,50.0599],[-121.06749,50.05978],[-121.06757,50.05973],[-121.06776,50.05968],[-121.06797,50.05965],[-121.06807,50.05965],[-121.06835,50.05965],[-121.06849,50.05963],[-121.06871,50.05959],[-121.06877,50.05955],[-121.06887,50.05943],[-121.06892,50.05925],[-121.06916,50.05915],[-121.06932,50.05903],[-121.06944,50.05887],[-121.06961,50.05873],[-121.06987,50.05854],[-121.06994,50.05851],[-121.07021,50.05844],[-121.07032,50.05842],[-121.07061,50.05837],[-121.07071,50.05833],[-121.07103,50.05825],[-121.07111,50.05822],[-121.07146,50.05809],[-121.07175,50.05799],[-121.07198,50.05793],[-121.07228,50.05784],[-121.07242,50.05777],[-121.07262,50.05766],[-121.07279,50.05754],[-121.07295,50.05746],[-121.07325,50.05729],[-121.07342,50.05721],[-121.07367,50.05712],[-121.07393,50.05702],[-121.07435,50.05689],[-121.07467,50.05673],[-121.07483,50.05663],[-121.0749,50.05659]]}},
{"type":"Feature","properties":{"spotId":"D-grouse-drive-0113","kind":"roadside","km":5.05,"climbM":161,"name":"820 m N of Roberts Creek","flags":[]},"geometry":{"type":"LineString","coordinates":[[-121.06466,50.1372],[-121.0647,50.13741],[-121.06482,50.13774],[-121.06492,50.1379],[-121.06502,50.13807],[-121.06505,50.13821],[-121.06514,50.13839],[-121.06516,50.13847],[-121.0652,50.13864],[-121.06523,50.13882],[-121.06528,50.13897],[-121.06527,50.13923],[-121.0652,50.1394],[-121.06512,50.1396],[-121.06508,50.13979],[-121.06505,50.14],[-121.06504,50.14024],[-121.06511,50.14037],[-121.06522,50.14046],[-121.06538,50.14055],[-121.06556,50.1406],[-121.06571,50.14066],[-121.06578,50.14073],[-121.0659,50.14088],[-121.06609,50.141],[-121.06628,50.14115],[-121.06639,50.14128],[-121.06646,50.14134],[-121.06672,50.14157],[-121.06688,50.14174],[-121.06694,50.14185],[-121.067,50.14192],[-121.06704,50.14221],[-121.06705,50.14227],[-121.06716,50.14239],[-121.0673,50.14246],[-121.06758,50.14258],[-121.06776,50.14261],[-121.06811,50.14269],[-121.06819,50.1427],[-121.06851,50.14274],[-121.06886,50.14277],[-121.06902,50.14279],[-121.06923,50.1428],[-121.06955,50.14281],[-121.06969,50.1428],[-121.06979,50.14278],[-121.06986,50.14272],[-121.06998,50.14255],[-121.07004,50.14251],[-121.07013,50.14249],[-121.07023,50.1425],[-121.07033,50.14255],[-121.07046,50.14267],[-121.07073,50.14299],[-121.07082,50.14309],[-121.07083,50.14316],[-121.07093,50.14331],[-121.07103,50.14347],[-121.07107,50.14353],[-121.0712,50.14375],[-121.0713,50.1439],[-121.07132,50.14396],[-121.07133,50.14404],[-121.07137,50.14412],[-121.07141,50.14426],[-121.07141,50.14448],[-121.07143,50.14468],[-121.07145,50.14485],[-121.07148,50.14494],[-121.07147,50.14502],[-121.0715,50.14511],[-121.07149,50.14542],[-121.0715,50.14548],[-121.0715,50.1457],[-121.07151,50.14591],[-121.0715,50.1461],[-121.07151,50.14616],[-121.0715,50.14655],[-121.07147,50.14677],[-121.07146,50.14699],[-121.07144,50.14716],[-121.07144,50.14734],[-121.07142,50.1475],[-121.07138,50.14771],[-121.07137,50.14787],[-121.07134,50.14793],[-121.07134,50.14802],[-121.07132,50.14822],[-121.0713,50.14866],[-121.07128,50.14876],[-121.07127,50.14905],[-121.07129,50.14917],[-121.0713,50.14935],[-121.07129,50.14947],[-121.07139,50.1496],[-121.07147,50.14964],[-121.0716,50.14966],[-121.07168,50.14966],[-121.07179,50.14964],[-121.07188,50.1496],[-121.07202,50.1495],[-121.07221,50.14934],[-121.07243,50.14917],[-121.07247,50.14913],[-121.07256,50.14899],[-121.07262,50.14882],[-121.07266,50.14867],[-121.07265,50.14859],[-121.07265,50.14846],[-121.07263,50.14834],[-121.07258,50.14811],[-121.07256,50.14798],[-121.07255,50.14776],[-121.07256,50.14754],[-121.07258,50.14741],[-121.07262,50.14724],[-121.0727,50.14702],[-121.0727,50.14694],[-121.07278,50.14674],[-121.07282,50.14659],[-121.07286,50.14649],[-121.07293,50.14638],[-121.073,50.14635],[-121.07313,50.14633],[-121.07342,50.14628],[-121.07379,50.14636],[-121.07388,50.14641],[-121.07406,50.14654],[-121.07415,50.14666],[-121.07437,50.14682],[-121.07448,50.14692],[-121.07471,50.14714],[-121.0748,50.14722],[-121.07491,50.1474],[-121.07495,50.14757],[-121.07502,50.14775],[-121.07505,50.1479],[-121.07508,50.14798],[-121.0752,50.14818],[-121.07529,50.14828],[-121.07547,50.14842],[-121.07555,50.14845],[-121.07593,50.14845],[-121.07625,50.14841],[-121.07638,50.1484],[-121.07667,50.14832],[-121.07677,50.14829],[-121.07703,50.14814],[-121.07733,50.148],[-121.07753,50.14791],[-121.07779,50.14776],[-121.0781,50.14761],[-121.07827,50.14754],[-121.07836,50.14746],[-121.07848,50.14727],[-121.0786,50.1471],[-121.07883,50.14694],[-121.0791,50.14673],[-121.07926,50.1466],[-121.0795,50.14639],[-121.07971,50.14619],[-121.07993,50.14605],[-121.08021,50.14599],[-121.08034,50.14596],[-121.08055,50.14595],[-121.08087,50.14595],[-121.08119,50.14599],[-121.08138,50.14614],[-121.0814,50.14637],[-121.08142,50.14652],[-121.08142,50.14667],[-121.08142,50.14686],[-121.08142,50.14692],[-121.08139,50.14703],[-121.0813,50.14723],[-121.08119,50.14734],[-121.08109,50.14742],[-121.08101,50.14749],[-121.08086,50.14763],[-121.08069,50.14779],[-121.08052,50.14797],[-121.08035,50.14815],[-121.08026,50.14822],[-121.08003,50.14841],[-121.07984,50.14862],[-121.07971,50.14882],[-121.0796,50.149],[-121.07954,50.14907],[-121.07946,50.14927],[-121.0794,50.14946],[-121.07935,50.14961],[-121.07933,50.14979],[-121.07933,50.14986],[-121.07939,50.14998],[-121.07947,50.15011],[-121.07953,50.15019],[-121.07969,50.15031],[-121.0799,50.15039],[-121.08009,50.15041],[-121.08027,50.15042],[-121.08036,50.15043],[-121.08045,50.15049],[-121.0806,50.15066],[-121.08067,50.15073],[-121.08072,50.15081],[-121.08082,50.15099],[-121.08085,50.15105],[-121.0809,50.1511],[-121.08094,50.15115],[-121.08097,50.15121],[-121.08102,50.15129],[-121.08114,50.1514],[-121.08124,50.15147],[-121.08133,50.1515],[-121.08156,50.15154],[-121.08179,50.15155],[-121.08192,50.15155],[-121.08203,50.15153],[-121.08234,50.1515],[-121.08251,50.15146],[-121.08264,50.1514],[-121.08275,50.15135],[-121.08306,50.15117],[-121.08313,50.15113],[-121.08321,50.15107],[-121.08353,50.15093],[-121.08366,50.15088],[-121.08393,50.15077],[-121.08408,50.1507],[-121.08428,50.15057],[-121.08451,50.1504],[-121.08462,50.15028],[-121.08475,50.15017],[-121.08483,50.15009],[-121.08492,50.15002],[-121.08508,50.14984],[-121.08516,50.14968],[-121.08522,50.14956],[-121.08525,50.14939],[-121.08532,50.14922],[-121.08552,50.14903],[-121.08558,50.14896],[-121.08569,50.14888],[-121.08597,50.14874],[-121.08627,50.14855],[-121.08654,50.14838],[-121.08673,50.14825],[-121.08682,50.14817],[-121.08696,50.14806],[-121.08718,50.14786],[-121.08745,50.14766],[-121.08771,50.14745],[-121.08777,50.1474],[-121.08781,50.14732],[-121.08783,50.14727],[-121.08788,50.14705],[-121.08794,50.14693],[-121.08796,50.14685],[-121.08801,50.14667],[-121.08807,50.14653],[-121.08816,50.14643],[-121.0882,50.14636],[-121.08844,50.14615],[-121.08857,50.14601],[-121.08861,50.14594],[-121.08864,50.14588],[-121.08861,50.14574],[-121.0886,50.14562],[-121.08841,50.1455],[-121.08814,50.14542],[-121.08796,50.14534],[-121.08775,50.14518],[-121.08764,50.14501],[-121.08761,50.14485],[-121.08758,50.14467],[-121.08756,50.14451],[-121.0875,50.14435],[-121.08746,50.14426],[-121.08744,50.1441],[-121.08742,50.1439],[-121.08741,50.14378],[-121.08735,50.14356],[-121.08733,50.14343],[-121.08732,50.14325],[-121.08737,50.1431],[-121.0875,50.14301],[-121.08758,50.14298],[-121.08771,50.14296],[-121.08798,50.14289],[-121.08816,50.14286],[-121.08826,50.14287],[-121.08853,50.14282],[-121.08867,50.14281],[-121.08875,50.14278],[-121.08907,50.14277],[-121.08919,50.14278]]}},
{"type":"Feature","properties":{"spotId":"D-grouse-walk-0058","kind":"walk","km":0.19,"climbM":55,"name":"240 m NE of Prospect Creek","flags":[]},"geometry":{"type":"LineString","coordinates":[[-121.23145,50.08217],[-121.22961,50.08347]]}},
{"type":"Feature","properties":{"spotId":"D-grouse-walk-0058","kind":"roadside","km":3.75,"climbM":157,"name":"240 m NE of Prospect Creek","flags":[]},"geometry":{"type":"LineString","coordinates":[[-121.22961,50.08347],[-121.22974,50.08359],[-121.22986,50.08375],[-121.23001,50.08396],[-121.23017,50.08419],[-121.23045,50.08441],[-121.23076,50.08461],[-121.23104,50.08477],[-121.23134,50.08493],[-121.23151,50.085],[-121.23176,50.08512],[-121.23198,50.08526],[-121.23226,50.08545],[-121.23257,50.08564],[-121.23289,50.0858],[-121.23313,50.08591],[-121.2333,50.08607],[-121.23349,50.08627],[-121.23366,50.08641],[-121.23388,50.08648],[-121.23421,50.08661],[-121.23457,50.08665],[-121.23479,50.08665],[-121.23495,50.08666],[-121.23508,50.08668],[-121.23525,50.08673],[-121.23544,50.08678],[-121.23563,50.08683],[-121.23595,50.0869],[-121.23625,50.08695],[-121.23645,50.08698],[-121.23665,50.08701],[-121.237,50.08703],[-121.23722,50.08704],[-121.23753,50.08702],[-121.23773,50.08701],[-121.23791,50.087],[-121.23811,50.08698],[-121.2383,50.08696],[-121.23863,50.08692],[-121.23888,50.0869],[-121.23913,50.0869],[-121.23942,50.0869],[-121.23958,50.0869],[-121.23975,50.08692],[-121.23994,50.08695],[-121.24012,50.08698],[-121.24038,50.08702],[-121.24066,50.0871],[-121.24096,50.0872],[-121.24123,50.08727],[-121.24131,50.08731],[-121.24163,50.0874],[-121.24174,50.08743],[-121.24201,50.08754],[-121.24231,50.08764],[-121.2426,50.08771],[-121.24273,50.08774],[-121.24304,50.0878],[-121.24311,50.08783],[-121.24343,50.08791],[-121.24374,50.08798],[-121.24405,50.08803],[-121.24432,50.08807],[-121.24462,50.08814],[-121.24475,50.08819],[-121.24486,50.08825],[-121.24501,50.08844],[-121.24516,50.08857],[-121.24547,50.08874],[-121.24576,50.08886],[-121.24603,50.08897],[-121.24621,50.08904],[-121.24634,50.0891],[-121.24644,50.08917],[-121.24653,50.08925],[-121.24658,50.08934],[-121.24664,50.08945],[-121.24669,50.08957],[-121.24674,50.08969],[-121.24679,50.08981],[-121.2468,50.08987],[-121.24686,50.08998],[-121.24689,50.09014],[-121.24688,50.09035],[-121.24687,50.09047],[-121.24687,50.09059],[-121.24685,50.09068],[-121.24682,50.0908],[-121.2468,50.09092],[-121.24677,50.09109],[-121.24675,50.09122],[-121.24677,50.09142],[-121.24681,50.09163],[-121.24685,50.0918],[-121.24692,50.09192],[-121.24702,50.09211],[-121.24713,50.09229],[-121.24724,50.09253],[-121.24733,50.0926],[-121.24748,50.09266],[-121.24797,50.09254],[-121.24809,50.0925],[-121.24839,50.09239],[-121.24868,50.09233],[-121.24887,50.09232],[-121.24901,50.09233],[-121.24936,50.0923],[-121.24957,50.09227],[-121.24977,50.09224],[-121.25004,50.09219],[-121.25012,50.09217],[-121.25022,50.09214],[-121.25034,50.09215],[-121.25048,50.09218],[-121.2508,50.09232],[-121.25115,50.09239],[-121.25137,50.09246],[-121.25149,50.09251],[-121.25177,50.0927],[-121.25209,50.09282],[-121.25235,50.09289],[-121.25252,50.09295],[-121.25283,50.09306],[-121.25305,50.09317],[-121.2533,50.09332],[-121.25358,50.09349],[-121.25386,50.09363],[-121.2541,50.09369],[-121.25437,50.09379],[-121.25467,50.09391],[-121.25495,50.09399],[-121.25512,50.09405],[-121.25531,50.0941],[-121.25551,50.09414],[-121.25569,50.09417],[-121.25582,50.09421],[-121.25604,50.09429],[-121.25629,50.09446],[-121.25653,50.09464],[-121.2568,50.09481],[-121.25707,50.095],[-121.25714,50.09508],[-121.25718,50.09517],[-121.25719,50.09526],[-121.25714,50.09543],[-121.25712,50.09548],[-121.25708,50.09562],[-121.25703,50.09574],[-121.25697,50.09596],[-121.25704,50.09611],[-121.25711,50.09624],[-121.25723,50.09646],[-121.25731,50.09657],[-121.25739,50.09669],[-121.25745,50.09679],[-121.25753,50.09699],[-121.25769,50.09719],[-121.25783,50.09728],[-121.258,50.0974],[-121.25818,50.09742],[-121.25836,50.09741],[-121.25868,50.09743],[-121.25889,50.09742],[-121.25918,50.09744],[-121.25947,50.09747],[-121.25954,50.09748],[-121.25966,50.09752],[-121.25994,50.0977],[-121.2601,50.09779],[-121.2602,50.09786],[-121.26024,50.09795],[-121.26028,50.09807],[-121.26033,50.09821],[-121.26039,50.09835],[-121.2605,50.0985],[-121.26059,50.09862],[-121.26072,50.09874],[-121.261,50.09895],[-121.26113,50.09917],[-121.26119,50.09928],[-121.26128,50.09943],[-121.26131,50.09951],[-121.2615,50.09974],[-121.26169,50.09995],[-121.26183,50.10007],[-121.26197,50.10023],[-121.26214,50.10044],[-121.2622,50.10052],[-121.26221,50.10064],[-121.26219,50.1008],[-121.26222,50.10103],[-121.26226,50.1012],[-121.26236,50.10141],[-121.26237,50.10151],[-121.26238,50.10171],[-121.2624,50.10191],[-121.26238,50.10202],[-121.26234,50.10214],[-121.2623,50.10231],[-121.26226,50.10246],[-121.26221,50.1026],[-121.26218,50.10273],[-121.26214,50.10285],[-121.26209,50.10308],[-121.26205,50.1032]]}},
{"type":"Feature","properties":{"spotId":"D-grouse-walk-0062","kind":"roadside","km":4.84,"climbM":209,"name":"550 m S of August Creek","flags":[]},"geometry":{"type":"LineString","coordinates":[[-121.06268,50.08788],[-121.06278,50.08761],[-121.06286,50.08746],[-121.06292,50.08735],[-121.06295,50.08732],[-121.06307,50.08723],[-121.06316,50.08715],[-121.06333,50.08703],[-121.06341,50.08693],[-121.06351,50.08683],[-121.06361,50.08668],[-121.06366,50.08661],[-121.06376,50.08648],[-121.06389,50.08628],[-121.06402,50.08614],[-121.06428,50.08593],[-121.06433,50.08587],[-121.06445,50.08575],[-121.06457,50.08565],[-121.06472,50.0855],[-121.06483,50.08536],[-121.0649,50.08529],[-121.06507,50.0851],[-121.06516,50.08494],[-121.06524,50.08476],[-121.06529,50.08453],[-121.06534,50.08434],[-121.06538,50.08413],[-121.06541,50.08402],[-121.06546,50.08387],[-121.06546,50.08377],[-121.06547,50.08368],[-121.06547,50.08351],[-121.06546,50.08335],[-121.06546,50.08316],[-121.06547,50.08297],[-121.06547,50.08283],[-121.06547,50.08266],[-121.06548,50.08254],[-121.06551,50.08244],[-121.06558,50.08228],[-121.0656,50.08215],[-121.06563,50.08194],[-121.06572,50.08174],[-121.06578,50.08152],[-121.06579,50.08129],[-121.06579,50.08119],[-121.06573,50.08103],[-121.06565,50.08091],[-121.06563,50.08087],[-121.06563,50.08069],[-121.06564,50.08064],[-121.0657,50.08046],[-121.06576,50.08032],[-121.06581,50.08024],[-121.0659,50.0801],[-121.06601,50.0799],[-121.06609,50.07974],[-121.06616,50.07965],[-121.06627,50.07943],[-121.06631,50.07938],[-121.06644,50.0792],[-121.06652,50.07906],[-121.06658,50.07896],[-121.06665,50.07886],[-121.06673,50.07879],[-121.06686,50.0786],[-121.06701,50.0785],[-121.06727,50.07831],[-121.06761,50.07811],[-121.0679,50.07794],[-121.06797,50.0779],[-121.06824,50.07772],[-121.06841,50.07763],[-121.06868,50.07748],[-121.06881,50.07738],[-121.06898,50.07716],[-121.06919,50.07701],[-121.06929,50.07686],[-121.06937,50.07672],[-121.06945,50.07655],[-121.0695,50.07639],[-121.06962,50.07612],[-121.06973,50.07592],[-121.06987,50.07574],[-121.07006,50.07559],[-121.07034,50.07539],[-121.07041,50.07532],[-121.07063,50.0751],[-121.07072,50.07493],[-121.07075,50.07475],[-121.07073,50.07465],[-121.07067,50.07454],[-121.0706,50.07438],[-121.07054,50.07431],[-121.07023,50.07409],[-121.06989,50.07391],[-121.06972,50.07384],[-121.0696,50.07379],[-121.06935,50.07373],[-121.0692,50.07367],[-121.06892,50.07353],[-121.06859,50.07342],[-121.06829,50.07333],[-121.0682,50.07328],[-121.06803,50.07323],[-121.06769,50.07312],[-121.06734,50.07303],[-121.06705,50.07299],[-121.06677,50.07293],[-121.06643,50.07289],[-121.06618,50.07281],[-121.06614,50.07278],[-121.06603,50.07268],[-121.06591,50.07254],[-121.06589,50.07243],[-121.06577,50.07219],[-121.06568,50.07205],[-121.06555,50.07187],[-121.06551,50.07177],[-121.0655,50.0716],[-121.06548,50.07152],[-121.06545,50.07141],[-121.06544,50.07135],[-121.06543,50.07122],[-121.06539,50.07108],[-121.06539,50.07094],[-121.06537,50.07073],[-121.06538,50.07055],[-121.06537,50.07038],[-121.06539,50.07025],[-121.06543,50.07007],[-121.06543,50.07],[-121.06545,50.0699],[-121.06546,50.06985],[-121.06554,50.06964],[-121.06554,50.06949],[-121.06555,50.06945],[-121.06563,50.06924],[-121.06562,50.06921],[-121.06565,50.06918],[-121.06579,50.06901],[-121.06594,50.06889],[-121.0661,50.06881],[-121.06636,50.06875],[-121.06675,50.06858],[-121.06678,50.06857],[-121.06681,50.06856],[-121.06702,50.06856],[-121.06727,50.06856],[-121.06744,50.06859],[-121.06769,50.06866],[-121.06779,50.06868],[-121.06811,50.06874],[-121.06843,50.06878],[-121.06874,50.06878],[-121.06907,50.06877],[-121.06933,50.06873],[-121.06965,50.06864],[-121.06987,50.06851],[-121.06993,50.06846],[-121.07017,50.06826],[-121.07042,50.0681],[-121.07076,50.0679],[-121.07087,50.06777],[-121.07091,50.06769],[-121.07094,50.0675],[-121.07091,50.06735],[-121.07076,50.06715],[-121.07066,50.06709],[-121.07042,50.06695],[-121.07004,50.06682],[-121.06995,50.06681],[-121.06967,50.06673],[-121.06941,50.06666],[-121.06911,50.06663],[-121.06901,50.06659],[-121.06877,50.0665],[-121.06854,50.06643],[-121.06845,50.06631],[-121.06828,50.06609],[-121.0682,50.06598],[-121.06811,50.06581],[-121.0681,50.06576],[-121.06809,50.06567],[-121.06811,50.06549],[-121.06811,50.06525],[-121.06809,50.06518],[-121.06802,50.06497],[-121.06801,50.06492],[-121.06799,50.06471],[-121.06795,50.06452],[-121.06793,50.06446],[-121.06789,50.0643],[-121.06788,50.06424],[-121.06789,50.06417],[-121.06788,50.06394],[-121.06788,50.06371],[-121.06785,50.06355],[-121.0678,50.0634],[-121.0678,50.06327],[-121.06776,50.06305],[-121.06769,50.06291],[-121.0676,50.06282],[-121.06752,50.06266],[-121.06751,50.0626],[-121.06745,50.06242],[-121.06739,50.06226],[-121.06738,50.0622],[-121.06732,50.06199],[-121.06731,50.06181],[-121.06732,50.06166],[-121.06734,50.06144],[-121.06733,50.06128],[-121.06736,50.06116],[-121.06738,50.06109],[-121.06744,50.0609],[-121.06745,50.06078],[-121.06747,50.06062],[-121.06746,50.06053],[-121.06745,50.06033],[-121.06747,50.06029],[-121.06753,50.06012],[-121.06757,50.05995],[-121.06765,50.05987],[-121.06769,50.05985],[-121.06783,50.0598],[-121.06798,50.05979],[-121.06807,50.05979],[-121.06837,50.05978],[-121.06853,50.05976],[-121.06883,50.05971],[-121.06894,50.05963],[-121.06907,50.05948],[-121.06911,50.05933],[-121.06931,50.05925],[-121.0695,50.0591],[-121.06962,50.05894],[-121.06977,50.05881],[-121.07001,50.05864],[-121.07005,50.05862],[-121.07027,50.05857],[-121.07037,50.05855],[-121.07069,50.0585],[-121.0708,50.05845],[-121.07111,50.05837],[-121.07121,50.05834],[-121.07156,50.05821],[-121.07184,50.05811],[-121.07206,50.05805],[-121.07238,50.05796],[-121.07247,50.05792],[-121.07255,50.05788],[-121.07277,50.05776],[-121.07293,50.05764],[-121.07308,50.05756],[-121.07338,50.0574],[-121.07353,50.05733],[-121.07378,50.05724],[-121.07403,50.05713],[-121.0741,50.05711],[-121.07446,50.057],[-121.07481,50.05683],[-121.07496,50.05673],[-121.07503,50.0567],[-121.07532,50.05653],[-121.07553,50.05638],[-121.07557,50.05633],[-121.07567,50.05626],[-121.07582,50.05618],[-121.07614,50.05606],[-121.07622,50.05599],[-121.07636,50.05586],[-121.0765,50.05578],[-121.07662,50.05566],[-121.07677,50.0555],[-121.07697,50.0553],[-121.07715,50.05515],[-121.07722,50.05508],[-121.07739,50.0549]]}},
{"type":"Feature","properties":{"spotId":"D-grouse-walk-0101","kind":"walk","km":0.49,"climbM":27,"name":"200 m W of Teepee Creek","flags":[]},"geometry":{"type":"LineString","coordinates":[[-121.16992,50.06537],[-121.17647,50.06424]]}},
{"type":"Feature","properties":{"spotId":"D-grouse-walk-0101","kind":"roadside","km":4.72,"climbM":68,"name":"200 m W of Teepee Creek","flags":[]},"geometry":{"type":"LineString","coordinates":[[-121.17647,50.06424],[-121.17639,50.06421],[-121.17617,50.06406],[-121.17598,50.0639],[-121.17584,50.06385],[-121.17564,50.06375],[-121.17551,50.06364],[-121.17545,50.06362],[-121.1753,50.06358],[-121.17517,50.06351],[-121.17507,50.06344],[-121.17479,50.06342],[-121.17474,50.06342],[-121.1747,50.06343],[-121.17466,50.06347],[-121.17463,50.06352],[-121.17449,50.06374],[-121.17437,50.06395],[-121.17426,50.06411],[-121.17413,50.06426],[-121.17399,50.06442],[-121.17395,50.0645],[-121.17385,50.06466],[-121.17377,50.06476],[-121.1735,50.06499],[-121.17338,50.06511],[-121.17321,50.06529],[-121.17315,50.06537],[-121.17299,50.06555],[-121.17277,50.0657],[-121.17231,50.06578],[-121.17204,50.06568],[-121.17193,50.06558],[-121.17191,50.06541],[-121.17195,50.06522],[-121.172,50.06516],[-121.17209,50.06498],[-121.17215,50.06482],[-121.1722,50.0647],[-121.17232,50.06449],[-121.17245,50.06429],[-121.17249,50.06413],[-121.17251,50.06398],[-121.17251,50.06392],[-121.17252,50.06375],[-121.17253,50.06353],[-121.17252,50.06349],[-121.17252,50.06348],[-121.1724,50.06342],[-121.17227,50.06339],[-121.17218,50.06339],[-121.17191,50.0634],[-121.17161,50.06342],[-121.17127,50.06342],[-121.17095,50.06342],[-121.17083,50.06344],[-121.1706,50.06347],[-121.17049,50.06349],[-121.17013,50.06357],[-121.16984,50.06357],[-121.16973,50.06355],[-121.16941,50.06352],[-121.16912,50.06346],[-121.16902,50.06345],[-121.16891,50.06344],[-121.16879,50.06337],[-121.16875,50.06334],[-121.16872,50.06324],[-121.16869,50.06319],[-121.16852,50.06303],[-121.16846,50.06292],[-121.16843,50.0628],[-121.16844,50.06265],[-121.16839,50.06255],[-121.16828,50.06235],[-121.16822,50.06228],[-121.16802,50.06207],[-121.16782,50.06183],[-121.16777,50.06162],[-121.16767,50.06143],[-121.1675,50.06125],[-121.16741,50.0611],[-121.16734,50.06104],[-121.16707,50.0608],[-121.16696,50.06064],[-121.16682,50.06047],[-121.16675,50.06038],[-121.16663,50.06023],[-121.16655,50.06012],[-121.16648,50.05995],[-121.16643,50.05978],[-121.1664,50.05974],[-121.16636,50.05971],[-121.16608,50.05959],[-121.1659,50.05947],[-121.16567,50.05936],[-121.16555,50.05931],[-121.16529,50.0592],[-121.16513,50.05913],[-121.16483,50.05892],[-121.1646,50.05867],[-121.16459,50.05853],[-121.16462,50.05833],[-121.16463,50.05819],[-121.16463,50.05807],[-121.16465,50.05794],[-121.16461,50.05788],[-121.16445,50.05776],[-121.16424,50.05755],[-121.16408,50.05741],[-121.16386,50.05726],[-121.16376,50.0572],[-121.16341,50.057],[-121.16329,50.0568],[-121.16311,50.05661],[-121.163,50.05646],[-121.16296,50.05632],[-121.1628,50.05617],[-121.16271,50.05613],[-121.16243,50.056],[-121.16235,50.05597],[-121.16204,50.05587],[-121.16197,50.05582],[-121.16163,50.05567],[-121.16142,50.05554],[-121.16113,50.05532],[-121.16096,50.0551],[-121.16091,50.05501],[-121.16078,50.05479],[-121.16065,50.05457],[-121.16053,50.05442],[-121.16048,50.05439],[-121.16019,50.05428],[-121.15988,50.05415],[-121.15973,50.05407],[-121.15948,50.05385],[-121.1594,50.05381],[-121.15914,50.05367],[-121.15894,50.05357],[-121.15854,50.05345],[-121.15839,50.05331],[-121.15823,50.05316],[-121.15781,50.05299],[-121.15754,50.05284],[-121.15744,50.05275],[-121.15729,50.05267],[-121.15715,50.0526],[-121.15685,50.05239],[-121.15671,50.05232],[-121.15662,50.0523],[-121.15655,50.0523],[-121.1563,50.05229],[-121.15621,50.05228],[-121.15593,50.05226],[-121.15583,50.05226],[-121.15564,50.05231],[-121.1554,50.05234],[-121.15517,50.05234],[-121.15489,50.05229],[-121.15448,50.05214],[-121.15452,50.05193],[-121.1546,50.05173],[-121.15464,50.05159],[-121.15465,50.05145],[-121.15468,50.05135],[-121.15471,50.05125],[-121.15473,50.05114],[-121.15476,50.05099],[-121.15475,50.0508],[-121.15475,50.05077],[-121.15462,50.05063],[-121.15447,50.05046],[-121.1543,50.05025],[-121.15415,50.05009],[-121.154,50.04988],[-121.15386,50.04968],[-121.15382,50.0496],[-121.15379,50.04955],[-121.15367,50.04935],[-121.15365,50.04926],[-121.15359,50.04911],[-121.15349,50.04897],[-121.15339,50.04891],[-121.15324,50.04886],[-121.153,50.04881],[-121.15271,50.04875],[-121.15263,50.04875],[-121.15255,50.04875],[-121.15236,50.04877],[-121.15225,50.04879],[-121.15181,50.04886],[-121.15147,50.04869],[-121.15143,50.0486],[-121.15138,50.04849],[-121.15138,50.04833],[-121.15138,50.04815],[-121.15135,50.04807],[-121.15126,50.04799],[-121.15101,50.04787],[-121.15093,50.04777],[-121.15081,50.04762],[-121.15077,50.04758],[-121.15063,50.04747],[-121.15037,50.04727],[-121.15013,50.04711],[-121.14998,50.04699],[-121.14993,50.04694],[-121.14968,50.04674],[-121.14959,50.04667],[-121.14932,50.04657],[-121.14913,50.04648],[-121.14907,50.04644],[-121.14887,50.0464],[-121.14858,50.04634],[-121.14833,50.04624],[-121.1482,50.04619],[-121.148,50.046],[-121.14789,50.04585],[-121.14785,50.04576],[-121.14787,50.04562],[-121.14792,50.04552],[-121.1481,50.04537],[-121.14826,50.04532],[-121.14843,50.04529],[-121.14877,50.04528],[-121.14894,50.0453],[-121.14923,50.04535],[-121.14937,50.04538],[-121.14972,50.0455],[-121.14998,50.04559],[-121.15016,50.04571],[-121.15026,50.04578],[-121.15046,50.04591],[-121.15068,50.04597],[-121.15099,50.04605],[-121.15111,50.04612],[-121.15132,50.04632],[-121.15156,50.04651],[-121.15178,50.04668],[-121.15184,50.04672],[-121.15195,50.04678],[-121.1522,50.04693],[-121.15254,50.04712],[-121.15275,50.04727],[-121.15296,50.04728],[-121.15324,50.04729],[-121.1533,50.04725],[-121.15332,50.04722],[-121.15333,50.0472],[-121.15332,50.04717],[-121.15331,50.04715],[-121.15319,50.04708],[-121.15289,50.04698],[-121.15258,50.04677],[-121.1523,50.04657],[-121.15215,50.04643],[-121.15204,50.04629],[-121.15196,50.04611],[-121.15196,50.04597],[-121.15199,50.0458],[-121.15203,50.04566],[-121.15203,50.04558],[-121.15205,50.04544],[-121.15205,50.04528],[-121.15196,50.04512],[-121.15185,50.04496],[-121.15168,50.0448],[-121.15151,50.04467],[-121.15142,50.04463],[-121.1511,50.04443],[-121.1509,50.04435],[-121.15076,50.04426],[-121.15053,50.04414],[-121.15023,50.04398]]}},
{"type":"Feature","properties":{"spotId":"D-grouse-walk-0103","kind":"walk","km":0.52,"climbM":6,"name":"550 m NE of Prospect Creek","flags":[]},"geometry":{"type":"LineString","coordinates":[[-121.09222,50.02389],[-121.09932,50.02278]]}},
{"type":"Feature","properties":{"spotId":"D-grouse-walk-0103","kind":"roadside","km":4.84,"climbM":105,"name":"550 m NE of Prospect Creek","flags":[]},"geometry":{"type":"LineString","coordinates":[[-121.09932,50.02278],[-121.09941,50.02278],[-121.09954,50.0228],[-121.09971,50.02284],[-121.09978,50.02286],[-121.10008,50.02301],[-121.10041,50.02314],[-121.10055,50.02323],[-121.10084,50.02334],[-121.10114,50.0235],[-121.10123,50.02355],[-121.10139,50.02361],[-121.10171,50.02364],[-121.10182,50.02365],[-121.10208,50.02365],[-121.10239,50.02366],[-121.10251,50.02366],[-121.10282,50.02364],[-121.10315,50.0236],[-121.10344,50.02352],[-121.10376,50.02345],[-121.10386,50.02343],[-121.10415,50.02336],[-121.10419,50.02335],[-121.10426,50.02336],[-121.10444,50.02342],[-121.10479,50.02343],[-121.10511,50.02346],[-121.10542,50.02347],[-121.10553,50.02347],[-121.10582,50.02347],[-121.10611,50.02348],[-121.10638,50.02349],[-121.10662,50.02348],[-121.10675,50.02347],[-121.1071,50.02336],[-121.1074,50.0233],[-121.10766,50.0233],[-121.10776,50.0233],[-121.10798,50.02336],[-121.10804,50.02339],[-121.10815,50.02345],[-121.10829,50.02361],[-121.10843,50.02371],[-121.10872,50.02387],[-121.10898,50.02397],[-121.10926,50.02399],[-121.10959,50.02404],[-121.10996,50.02404],[-121.11025,50.02402],[-121.11034,50.02402],[-121.11042,50.02403],[-121.11043,50.02404],[-121.11049,50.0241],[-121.11049,50.02411],[-121.11047,50.02417],[-121.1104,50.02427],[-121.11032,50.02449],[-121.11029,50.02472],[-121.11038,50.02488],[-121.11046,50.02496],[-121.11051,50.02499],[-121.1106,50.02511],[-121.11062,50.02518],[-121.11059,50.02537],[-121.11057,50.02557],[-121.11059,50.02567],[-121.11071,50.02579],[-121.11087,50.02584],[-121.11101,50.02586],[-121.11128,50.02585],[-121.11156,50.02577],[-121.11174,50.02566],[-121.11189,50.02548],[-121.11197,50.02545],[-121.11224,50.02545],[-121.11249,50.02545],[-121.11276,50.02541],[-121.11285,50.0254],[-121.11289,50.0254],[-121.11316,50.02543],[-121.11329,50.02546],[-121.1134,50.02552],[-121.11343,50.02554],[-121.11353,50.02571],[-121.1138,50.02588],[-121.11399,50.02591],[-121.11434,50.02592],[-121.11453,50.02594],[-121.11483,50.026],[-121.11509,50.02605],[-121.11535,50.0262],[-121.11553,50.02632],[-121.1158,50.02645],[-121.11612,50.02656],[-121.11619,50.02657],[-121.11628,50.02661],[-121.11636,50.02668],[-121.11653,50.02686],[-121.11675,50.02698],[-121.11688,50.02706],[-121.11701,50.0272],[-121.11718,50.02735],[-121.1175,50.02753],[-121.1177,50.02762],[-121.11783,50.02766],[-121.11809,50.0277],[-121.11832,50.02774],[-121.11856,50.02777],[-121.11884,50.0278],[-121.11917,50.02781],[-121.11947,50.02779],[-121.11962,50.02779],[-121.11988,50.02786],[-121.11993,50.02787],[-121.12007,50.02794],[-121.12038,50.02805],[-121.12047,50.02807],[-121.1208,50.02822],[-121.12093,50.02827],[-121.12123,50.02831],[-121.12143,50.02836],[-121.12161,50.02841],[-121.12195,50.02849],[-121.122,50.0285],[-121.12217,50.02858],[-121.12244,50.02876],[-121.12258,50.02887],[-121.12283,50.02896],[-121.12316,50.02904],[-121.12344,50.02906],[-121.12352,50.02908],[-121.1238,50.02912],[-121.12398,50.02916],[-121.12411,50.02923],[-121.12434,50.02943],[-121.12444,50.02951],[-121.12467,50.0296],[-121.12494,50.02968],[-121.12505,50.02971],[-121.1253,50.02981],[-121.12542,50.02985],[-121.12565,50.03002],[-121.12582,50.03009],[-121.12618,50.03017],[-121.12646,50.03019],[-121.1267,50.03021],[-121.1269,50.03023],[-121.12706,50.03029],[-121.12727,50.03034],[-121.12753,50.03042],[-121.12762,50.03043],[-121.1277,50.03045],[-121.12795,50.03056],[-121.12812,50.03061],[-121.12842,50.03066],[-121.12863,50.03069],[-121.1287,50.03071],[-121.12896,50.0308],[-121.129,50.03082],[-121.12908,50.03088],[-121.12918,50.03105],[-121.12924,50.03113],[-121.12941,50.03125],[-121.12957,50.0313],[-121.12996,50.03127],[-121.13011,50.03124],[-121.13019,50.03121],[-121.13048,50.03121],[-121.13078,50.03129],[-121.13107,50.03136],[-121.13122,50.03141],[-121.13145,50.03146],[-121.13163,50.03153],[-121.13193,50.03159],[-121.13208,50.03163],[-121.13235,50.03171],[-121.13247,50.03178],[-121.13258,50.0319],[-121.13291,50.03213],[-121.13297,50.03215],[-121.13321,50.03237],[-121.13352,50.03257],[-121.13369,50.0327],[-121.13391,50.03287],[-121.13412,50.03297],[-121.13434,50.03297],[-121.13467,50.03302],[-121.13491,50.03309],[-121.13499,50.03313],[-121.13532,50.03323],[-121.13537,50.03325],[-121.13563,50.03339],[-121.13568,50.03348],[-121.13575,50.03366],[-121.13584,50.03381],[-121.1361,50.03388],[-121.1364,50.03391],[-121.13651,50.03395],[-121.13652,50.03404],[-121.13655,50.03414],[-121.13661,50.03422],[-121.13671,50.03433],[-121.13694,50.03441],[-121.13709,50.03443],[-121.13722,50.03443],[-121.13726,50.03445],[-121.13729,50.03447],[-121.1374,50.03463],[-121.13759,50.03481],[-121.13786,50.03501],[-121.13794,50.0351],[-121.13804,50.03519],[-121.13825,50.03535],[-121.13843,50.03548],[-121.13855,50.03564],[-121.13865,50.03574],[-121.13897,50.03595],[-121.13914,50.03608],[-121.13933,50.03616],[-121.13943,50.03622],[-121.13964,50.03632],[-121.13988,50.03646],[-121.13999,50.03655],[-121.14021,50.03677],[-121.14052,50.03694],[-121.14072,50.03708],[-121.14078,50.03715],[-121.14084,50.03723],[-121.14086,50.03726],[-121.14107,50.03746],[-121.14117,50.03762],[-121.14127,50.03778],[-121.1414,50.03792],[-121.14144,50.03798],[-121.14147,50.03809],[-121.14147,50.03821],[-121.14152,50.03836],[-121.14168,50.03854],[-121.14181,50.0386],[-121.14186,50.03865],[-121.14197,50.03882],[-121.14207,50.03891],[-121.14233,50.03912],[-121.14255,50.03926],[-121.14278,50.03943],[-121.14305,50.0396],[-121.14326,50.03972],[-121.14333,50.03976],[-121.1434,50.03982],[-121.14352,50.03996],[-121.14366,50.04008],[-121.14373,50.04011],[-121.14382,50.04018],[-121.14395,50.04038],[-121.14402,50.04044],[-121.14419,50.0406],[-121.14454,50.04077],[-121.14469,50.04088],[-121.14496,50.04106],[-121.14522,50.04118],[-121.14542,50.04126],[-121.14549,50.04131],[-121.1456,50.04141],[-121.14589,50.04158],[-121.1462,50.04179],[-121.14647,50.04195],[-121.14674,50.04216],[-121.14679,50.04221],[-121.14689,50.04234],[-121.14708,50.04253],[-121.1473,50.04276],[-121.14747,50.04293],[-121.14771,50.04315],[-121.14806,50.04328],[-121.14839,50.04339],[-121.14846,50.04342],[-121.14881,50.04351],[-121.149,50.04355],[-121.14919,50.04362],[-121.14937,50.04369],[-121.14955,50.04376],[-121.14975,50.04384],[-121.14994,50.04387],[-121.15003,50.04393],[-121.15023,50.04398]]}},
{"type":"Feature","properties":{"spotId":"D-grouse-walk-0109","kind":"walk","km":0.57,"climbM":0,"name":"By Prospect Creek","flags":[]},"geometry":{"type":"LineString","coordinates":[[-121.15793,50.0442],[-121.15033,50.04258]]}},
{"type":"Feature","properties":{"spotId":"D-grouse-walk-0109","kind":"roadside","km":5.49,"climbM":498,"name":"By Prospect Creek","flags":[]},"geometry":{"type":"LineString","coordinates":[[-121.15033,50.04258],[-121.15049,50.04239],[-121.15047,50.04212],[-121.15043,50.04205],[-121.15035,50.04188],[-121.15032,50.04168],[-121.15024,50.04151],[-121.15026,50.04131],[-121.15024,50.04116],[-121.15022,50.04099],[-121.15021,50.04098],[-121.15019,50.04096],[-121.15004,50.04088],[-121.14977,50.04084],[-121.14961,50.0408],[-121.14936,50.04077],[-121.14912,50.04074],[-121.14893,50.04066],[-121.14882,50.04054],[-121.14876,50.04034],[-121.1488,50.04013],[-121.14884,50.04002],[-121.14884,50.04],[-121.14879,50.03986],[-121.14856,50.03979],[-121.14841,50.03969],[-121.14829,50.03963],[-121.14823,50.03958],[-121.14803,50.03942],[-121.14796,50.03935],[-121.14781,50.03914],[-121.14766,50.03903],[-121.14749,50.03894],[-121.14738,50.03884],[-121.14734,50.03871],[-121.14733,50.03856],[-121.1473,50.03849],[-121.14711,50.03826],[-121.1471,50.03819],[-121.14706,50.03815],[-121.14704,50.03797],[-121.14721,50.0378],[-121.14733,50.03775],[-121.14745,50.03771],[-121.14773,50.03761],[-121.14778,50.03758],[-121.14785,50.03754],[-121.14785,50.03753],[-121.14786,50.03745],[-121.14786,50.0374],[-121.14779,50.03726],[-121.14768,50.0371],[-121.14753,50.03693],[-121.14748,50.03679],[-121.14749,50.03671],[-121.14747,50.03656],[-121.14746,50.03639],[-121.14746,50.0363],[-121.14747,50.03614],[-121.14746,50.036],[-121.14746,50.03588],[-121.1475,50.03579],[-121.14752,50.03571],[-121.14766,50.03552],[-121.14771,50.03542],[-121.14779,50.03522],[-121.14788,50.03511],[-121.14805,50.0349],[-121.14817,50.03479],[-121.1483,50.03467],[-121.14838,50.03451],[-121.14841,50.03445],[-121.14849,50.03434],[-121.1488,50.03417],[-121.14898,50.03408],[-121.14906,50.03403],[-121.14941,50.03387],[-121.14954,50.03379],[-121.14977,50.03368],[-121.14992,50.03361],[-121.15016,50.03352],[-121.15028,50.03348],[-121.15036,50.03346],[-121.15056,50.03339],[-121.15074,50.03332],[-121.1508,50.03328],[-121.15098,50.03313],[-121.15106,50.03309],[-121.15115,50.03304],[-121.1515,50.03288],[-121.15165,50.03284],[-121.15196,50.03279],[-121.15202,50.03276],[-121.15211,50.0327],[-121.15231,50.03266],[-121.15252,50.03259],[-121.15266,50.03254],[-121.15287,50.03251],[-121.15306,50.03246],[-121.15323,50.03245],[-121.15344,50.03245],[-121.15359,50.03243],[-121.15366,50.03239],[-121.15365,50.03233],[-121.15362,50.03221],[-121.15361,50.0322],[-121.15336,50.03198],[-121.15328,50.03183],[-121.15315,50.03167],[-121.1531,50.03159],[-121.15307,50.03149],[-121.15306,50.03132],[-121.15308,50.03124],[-121.15312,50.03115],[-121.15324,50.031],[-121.15349,50.03082],[-121.15372,50.03065],[-121.1538,50.03057],[-121.15389,50.03051],[-121.15397,50.03042],[-121.15401,50.0303],[-121.15403,50.03023],[-121.15404,50.03016],[-121.15403,50.03],[-121.15403,50.02994],[-121.15401,50.02979],[-121.15398,50.0297],[-121.15396,50.02964],[-121.1539,50.02946],[-121.15388,50.02928],[-121.15383,50.02912],[-121.15379,50.02891],[-121.1538,50.02881],[-121.1538,50.02867],[-121.15381,50.02851],[-121.1538,50.0284],[-121.15378,50.02819],[-121.15377,50.02812],[-121.1537,50.02793],[-121.15356,50.02776],[-121.15341,50.02762],[-121.15312,50.02744],[-121.1528,50.02735],[-121.15259,50.02724],[-121.15259,50.02705],[-121.15265,50.02694],[-121.1529,50.02676],[-121.15315,50.02657],[-121.15324,50.02647],[-121.15336,50.02632],[-121.15336,50.02625],[-121.15332,50.02624],[-121.15318,50.02625],[-121.15302,50.02629],[-121.1529,50.02632],[-121.15269,50.02633],[-121.15246,50.02633],[-121.15224,50.02633],[-121.15196,50.02628],[-121.15165,50.0262],[-121.15134,50.02612],[-121.15119,50.02607],[-121.15093,50.02596],[-121.15064,50.02588],[-121.15042,50.02583],[-121.15029,50.02582],[-121.15017,50.0258],[-121.14992,50.02576],[-121.14966,50.02565],[-121.14954,50.02563],[-121.14945,50.02557],[-121.14932,50.02551],[-121.14921,50.02549],[-121.14893,50.0254],[-121.14877,50.02526],[-121.14865,50.02511],[-121.14861,50.02507],[-121.14851,50.02501],[-121.14825,50.02489],[-121.148,50.02465],[-121.14769,50.02447],[-121.1476,50.02441],[-121.14731,50.0242],[-121.14715,50.02408],[-121.14699,50.02391],[-121.14688,50.02378],[-121.1468,50.02369],[-121.1466,50.02352],[-121.14646,50.0233],[-121.14641,50.02322],[-121.14627,50.02304],[-121.1462,50.02298],[-121.14605,50.02279],[-121.14596,50.02269],[-121.1458,50.02252],[-121.14575,50.02249],[-121.14566,50.02244],[-121.1456,50.02242],[-121.14538,50.02234],[-121.14524,50.02225],[-121.14514,50.02213],[-121.14515,50.02196],[-121.14515,50.02188],[-121.14519,50.02169],[-121.14525,50.02161],[-121.14528,50.02155],[-121.14543,50.02136],[-121.14549,50.02127],[-121.14574,50.02115],[-121.14613,50.0211],[-121.14639,50.02111],[-121.14651,50.02114],[-121.14665,50.02116],[-121.14688,50.0212],[-121.14718,50.02125],[-121.14731,50.02129],[-121.14764,50.02137],[-121.14796,50.02144],[-121.14813,50.02149],[-121.14836,50.02153],[-121.14864,50.02155],[-121.14883,50.02159],[-121.14891,50.0216],[-121.1491,50.02161],[-121.14922,50.02161],[-121.14945,50.02161],[-121.14968,50.02161],[-121.14997,50.02161],[-121.15008,50.02159],[-121.15023,50.02158],[-121.15026,50.02157],[-121.15027,50.02157],[-121.15028,50.02155],[-121.15026,50.02148],[-121.15023,50.02143],[-121.15007,50.02124],[-121.15,50.02116],[-121.14997,50.02109],[-121.14994,50.02104],[-121.14989,50.02097],[-121.14984,50.02089],[-121.14979,50.02079],[-121.14978,50.02068],[-121.14972,50.02047],[-121.14971,50.02038],[-121.14969,50.02021],[-121.14969,50.02009],[-121.14968,50.01994],[-121.14969,50.0198],[-121.14969,50.01972],[-121.1497,50.01951],[-121.1497,50.01936],[-121.14971,50.01924],[-121.14974,50.01907],[-121.14973,50.019],[-121.14977,50.01881],[-121.14979,50.01861],[-121.14979,50.01855],[-121.14986,50.01832],[-121.14991,50.01817],[-121.14997,50.01801],[-121.15005,50.01783],[-121.1501,50.01774],[-121.15017,50.01766],[-121.15029,50.01749],[-121.15032,50.01743],[-121.15048,50.01722],[-121.15054,50.01713],[-121.15056,50.01708],[-121.15059,50.01697],[-121.15061,50.01692],[-121.15061,50.01675],[-121.15058,50.01655],[-121.15059,50.01642],[-121.15056,50.01628],[-121.15057,50.0162],[-121.15056,50.016],[-121.15058,50.01584],[-121.1506,50.01568],[-121.15062,50.01551],[-121.15065,50.01539],[-121.15068,50.01519],[-121.15074,50.01509],[-121.15078,50.01503],[-121.15091,50.01482],[-121.15099,50.01468],[-121.15104,50.01461],[-121.15109,50.01456],[-121.15121,50.01435],[-121.15129,50.01414],[-121.15135,50.01405],[-121.15143,50.014],[-121.15154,50.01386],[-121.15163,50.0137],[-121.15169,50.01358],[-121.15172,50.01343],[-121.15172,50.01336],[-121.15173,50.01326],[-121.15177,50.0132],[-121.15176,50.01303],[-121.1518,50.01281],[-121.1519,50.01259],[-121.152,50.01244],[-121.15203,50.01226],[-121.15205,50.0121],[-121.152,50.01203],[-121.15195,50.01181],[-121.1519,50.01164],[-121.15182,50.01156],[-121.15182,50.01145],[-121.15176,50.0113],[-121.1516,50.01113],[-121.15146,50.01097],[-121.15117,50.01081],[-121.15087,50.01065],[-121.15073,50.01057],[-121.15065,50.01056],[-121.15042,50.0105],[-121.15004,50.01037],[-121.14993,50.01018],[-121.14979,50.0101],[-121.14975,50.01004],[-121.1497,50.00999],[-121.14947,50.00993],[-121.14925,50.00982],[-121.149,50.00963],[-121.14894,50.00954],[-121.14888,50.00941],[-121.14882,50.0092],[-121.1488,50.00916],[-121.1487,50.00896],[-121.14864,50.00891],[-121.14854,50.00873],[-121.14843,50.00858],[-121.14828,50.00839],[-121.14812,50.00818],[-121.14806,50.00813],[-121.14788,50.00797],[-121.14769,50.00787],[-121.14753,50.00775],[-121.14744,50.00769],[-121.14739,50.00763],[-121.1471,50.00742],[-121.14694,50.00725],[-121.14689,50.00721],[-121.14663,50.00706],[-121.1465,50.00694],[-121.14625,50.00676],[-121.146,50.00655],[-121.14576,50.00637],[-121.14562,50.00625],[-121.14556,50.00618],[-121.14554,50.00615]]}},
{"type":"Feature","properties":{"spotId":"D-grouse-walk-0110","kind":"walk","km":0.3,"climbM":0,"name":"240 m SW of Prospect Creek","flags":[]},"geometry":{"type":"LineString","coordinates":[[-121.22366,50.06972],[-121.22006,50.07104]]}},
{"type":"Feature","properties":{"spotId":"D-grouse-walk-0110","kind":"roadside","km":7.47,"climbM":75,"name":"240 m SW of Prospect Creek","flags":[]},"geometry":{"type":"LineString","coordinates":[[-121.22006,50.07104],[-121.22001,50.07097],[-121.21994,50.07078],[-121.21984,50.07079],[-121.21966,50.07082],[-121.21947,50.07085],[-121.21914,50.07088],[-121.21896,50.07086],[-121.21871,50.07075],[-121.21842,50.07054],[-121.21816,50.07035],[-121.21787,50.07015],[-121.21766,50.07002],[-121.21737,50.06989],[-121.21709,50.06977],[-121.21684,50.06968],[-121.21652,50.06958],[-121.21636,50.06941],[-121.21632,50.06924],[-121.21631,50.06912],[-121.21627,50.06895],[-121.21624,50.06874],[-121.21623,50.06861],[-121.21623,50.06849],[-121.21622,50.06837],[-121.21622,50.06824],[-121.21621,50.06813],[-121.21621,50.06792],[-121.21623,50.06772],[-121.21627,50.06757],[-121.21639,50.06735],[-121.21653,50.06716],[-121.21673,50.06696],[-121.2169,50.06678],[-121.217,50.06667],[-121.21701,50.06665],[-121.21699,50.06661],[-121.21692,50.06654],[-121.21687,50.06652],[-121.21684,50.06652],[-121.21681,50.06652],[-121.21654,50.06662],[-121.21629,50.06673],[-121.2161,50.0668],[-121.21589,50.06685],[-121.2157,50.06688],[-121.2154,50.06697],[-121.21509,50.06709],[-121.21498,50.06714],[-121.21465,50.0672],[-121.21448,50.06721],[-121.21423,50.06719],[-121.214,50.06716],[-121.21381,50.06703],[-121.21366,50.0669],[-121.21361,50.06688],[-121.21343,50.06686],[-121.21332,50.06684],[-121.21321,50.06684],[-121.21312,50.06687],[-121.21284,50.06704],[-121.21256,50.0672],[-121.21235,50.0673],[-121.21216,50.06733],[-121.21192,50.06729],[-121.21179,50.06727],[-121.21165,50.06725],[-121.21143,50.06723],[-121.21113,50.06722],[-121.21088,50.06721],[-121.21068,50.0672],[-121.2105,50.06718],[-121.21032,50.06717],[-121.21001,50.06714],[-121.20969,50.06708],[-121.20948,50.06705],[-121.20925,50.06697],[-121.20901,50.06678],[-121.20874,50.06662],[-121.20841,50.06641],[-121.20814,50.06624],[-121.20792,50.06603],[-121.20776,50.06586],[-121.20758,50.0657],[-121.20746,50.06564],[-121.20735,50.06558],[-121.20731,50.06558],[-121.20717,50.06558],[-121.20703,50.0656],[-121.20686,50.06563],[-121.20665,50.06566],[-121.20644,50.06569],[-121.20619,50.0657],[-121.206,50.06568],[-121.20567,50.06552],[-121.20551,50.06538],[-121.20535,50.06517],[-121.20523,50.06498],[-121.20516,50.06485],[-121.20512,50.06473],[-121.20508,50.06465],[-121.20486,50.06445],[-121.20477,50.06432],[-121.20468,50.06421],[-121.2045,50.06402],[-121.20422,50.06383],[-121.20385,50.06364],[-121.20365,50.06355],[-121.20352,50.06351],[-121.20334,50.06344],[-121.20301,50.06331],[-121.20289,50.06326],[-121.20271,50.0632],[-121.20239,50.06309],[-121.20218,50.06303],[-121.20198,50.06297],[-121.20165,50.06288],[-121.20131,50.06278],[-121.20101,50.06268],[-121.2009,50.06264],[-121.20072,50.06257],[-121.20044,50.06246],[-121.20016,50.06232],[-121.19987,50.06219],[-121.19956,50.06203],[-121.19944,50.06198],[-121.19925,50.06184],[-121.19899,50.06171],[-121.19889,50.06161],[-121.19882,50.06159],[-121.1986,50.06154],[-121.19833,50.06151],[-121.19801,50.06149],[-121.19777,50.06149],[-121.19761,50.06144],[-121.19732,50.06128],[-121.19731,50.06128],[-121.19714,50.06127],[-121.19683,50.06128],[-121.19654,50.0613],[-121.1962,50.06129],[-121.1958,50.06121],[-121.19547,50.06106],[-121.19533,50.06095],[-121.19524,50.06079],[-121.19515,50.06068],[-121.19494,50.06048],[-121.19492,50.06046],[-121.19483,50.06043],[-121.19465,50.06038],[-121.19445,50.06039],[-121.19416,50.0604],[-121.19382,50.06036],[-121.19363,50.06033],[-121.19332,50.06028],[-121.19312,50.06024],[-121.1928,50.06019],[-121.19261,50.06016],[-121.19233,50.0601],[-121.19216,50.06007],[-121.19185,50.06003],[-121.19177,50.06002],[-121.19143,50.06],[-121.19119,50.05999],[-121.19092,50.06],[-121.19071,50.05999],[-121.19052,50.05999],[-121.19019,50.05999],[-121.18991,50.05999],[-121.18973,50.05999],[-121.18938,50.05987],[-121.18927,50.05983],[-121.18918,50.05982],[-121.18898,50.05981],[-121.18867,50.05982],[-121.18839,50.05981],[-121.18825,50.05981],[-121.18814,50.05977],[-121.18801,50.05974],[-121.18777,50.05968],[-121.18761,50.05965],[-121.18734,50.05954],[-121.18707,50.05943],[-121.18693,50.05937],[-121.18658,50.05913],[-121.18645,50.05895],[-121.18639,50.05884],[-121.18634,50.05865],[-121.18631,50.05853],[-121.18631,50.0584],[-121.18625,50.05827],[-121.18613,50.05813],[-121.18597,50.05791],[-121.18579,50.05771],[-121.18566,50.05751],[-121.1856,50.05743],[-121.18546,50.0573],[-121.18533,50.05708],[-121.18518,50.05691],[-121.18506,50.05674],[-121.18501,50.05667],[-121.18497,50.05663],[-121.1848,50.05656],[-121.1846,50.05635],[-121.18453,50.05631],[-121.18425,50.05621],[-121.18394,50.05613],[-121.18384,50.05611],[-121.18367,50.05608],[-121.18346,50.05606],[-121.18327,50.05606],[-121.18313,50.05607],[-121.18308,50.05607],[-121.18299,50.05611],[-121.18267,50.05619],[-121.18233,50.05627],[-121.1821,50.05635],[-121.18196,50.05638],[-121.18177,50.05643],[-121.18154,50.05648],[-121.18137,50.05657],[-121.18116,50.05661],[-121.18095,50.05663],[-121.18068,50.05663],[-121.18051,50.0566],[-121.18021,50.05651],[-121.18007,50.05646],[-121.17973,50.05623],[-121.17958,50.05613],[-121.17931,50.05591],[-121.17905,50.05569],[-121.17883,50.0555],[-121.17855,50.05539],[-121.17819,50.05526],[-121.17786,50.05508],[-121.1776,50.05494],[-121.17738,50.05476],[-121.17716,50.05465],[-121.17684,50.05444],[-121.17674,50.05436],[-121.17657,50.05421],[-121.17646,50.05414],[-121.17624,50.05394],[-121.17613,50.05386],[-121.17592,50.05366],[-121.1757,50.05349],[-121.17543,50.05337],[-121.17528,50.05331],[-121.17519,50.0533],[-121.17484,50.05321],[-121.17463,50.05315],[-121.17431,50.05311],[-121.1742,50.05309],[-121.17381,50.05297],[-121.17355,50.05279],[-121.17344,50.05273],[-121.17318,50.05254],[-121.1731,50.05247],[-121.17285,50.0523],[-121.17277,50.05218],[-121.17275,50.05208],[-121.1728,50.05194],[-121.17296,50.05183],[-121.1731,50.05174],[-121.17317,50.05166],[-121.17318,50.05161],[-121.17316,50.05158],[-121.17313,50.05158],[-121.17305,50.05162],[-121.17286,50.05166],[-121.17249,50.05166],[-121.17222,50.05163],[-121.1719,50.05156],[-121.17163,50.0515],[-121.17136,50.05143],[-121.17106,50.05135],[-121.17098,50.05133],[-121.1708,50.05129],[-121.17061,50.05125],[-121.17032,50.0512],[-121.17002,50.05113],[-121.1698,50.05109],[-121.16969,50.05103],[-121.16938,50.05086],[-121.16927,50.05081],[-121.16894,50.05065],[-121.16877,50.05057],[-121.16857,50.05048],[-121.16841,50.05044],[-121.16816,50.05037],[-121.16802,50.05033],[-121.16779,50.05023],[-121.1675,50.05011],[-121.16735,50.0499],[-121.16729,50.04976],[-121.16732,50.04955],[-121.16732,50.04951],[-121.16723,50.04951],[-121.16699,50.04959],[-121.16676,50.04965],[-121.16639,50.04972],[-121.16625,50.04974],[-121.16599,50.04974],[-121.16571,50.04969],[-121.16543,50.04961],[-121.16533,50.04956],[-121.16517,50.04953],[-121.16486,50.0495],[-121.16459,50.04947],[-121.16435,50.04939],[-121.16411,50.04927],[-121.16404,50.04925],[-121.16398,50.04923],[-121.16387,50.04922],[-121.16356,50.04918],[-121.16333,50.04914],[-121.16325,50.04914],[-121.16294,50.0491],[-121.16272,50.04906],[-121.16258,50.049],[-121.16247,50.04896],[-121.16234,50.04891],[-121.16222,50.04885],[-121.16211,50.0488],[-121.16181,50.04859],[-121.16168,50.04852],[-121.16136,50.04834],[-121.16121,50.04825],[-121.16098,50.04811],[-121.16073,50.04797],[-121.16042,50.0478],[-121.16034,50.04775],[-121.1601,50.04766],[-121.15985,50.04759],[-121.15954,50.04749],[-121.15944,50.04746],[-121.15905,50.04727],[-121.15886,50.04707],[-121.15878,50.04699],[-121.15868,50.04684],[-121.15856,50.04664],[-121.15843,50.04642],[-121.15832,50.04622],[-121.15829,50.04614],[-121.15818,50.04598],[-121.15814,50.04592],[-121.15794,50.04576],[-121.15783,50.04566],[-121.15773,50.04562],[-121.15751,50.04559],[-121.15732,50.04558],[-121.15711,50.04558],[-121.1568,50.04558],[-121.15668,50.04558],[-121.15638,50.04558],[-121.15604,50.04558],[-121.15582,50.04557],[-121.15565,50.04557],[-121.15553,50.04557],[-121.15539,50.04553],[-121.15522,50.04548],[-121.15509,50.04541],[-121.15498,50.04532],[-121.15492,50.04523],[-121.15476,50.045],[-121.15463,50.0448],[-121.15461,50.04471],[-121.15463,50.04449],[-121.1547,50.04432],[-121.15475,50.04416],[-121.15478,50.04405],[-121.15482,50.04397],[-121.15484,50.04383],[-121.15488,50.04375],[-121.15494,50.04356],[-121.15497,50.04348],[-121.15507,50.04327],[-121.15511,50.04319],[-121.15518,50.04309],[-121.15531,50.04288],[-121.15539,50.04279],[-121.15555,50.04267],[-121.15572,50.04259],[-121.15587,50.04246],[-121.15592,50.0424],[-121.15595,50.04226],[-121.15593,50.04217],[-121.15593,50.04216],[-121.15585,50.04212],[-121.15581,50.04211],[-121.15562,50.04216],[-121.15556,50.04221],[-121.1554,50.0423],[-121.15514,50.0424],[-121.15496,50.04245],[-121.15475,50.04255],[-121.15439,50.04264],[-121.15408,50.0427],[-121.15382,50.04274],[-121.15352,50.04283],[-121.15342,50.04285],[-121.15318,50.04295],[-121.15284,50.0431],[-121.15269,50.04316],[-121.15237,50.04314],[-121.15211,50.043],[-121.15207,50.04285],[-121.1521,50.04274],[-121.1522,50.04261],[-121.15241,50.04255],[-121.15252,50.04254],[-121.15266,50.04249],[-121.15283,50.04244],[-121.15299,50.0424],[-121.15308,50.04237],[-121.15318,50.04233],[-121.15319,50.04232],[-121.15322,50.04222],[-121.15322,50.04211],[-121.15321,50.0421],[-121.1532,50.04209],[-121.15315,50.04208],[-121.15294,50.04203],[-121.1527,50.042],[-121.15249,50.04199],[-121.15216,50.04199],[-121.15187,50.042],[-121.15182,50.04202],[-121.15149,50.04212],[-121.15141,50.04215],[-121.15123,50.04229],[-121.15094,50.04248],[-121.15033,50.04258]]}},
{"type":"Feature","properties":{"spotId":"D-moose-atv-0071","kind":"ride","km":4.13,"climbM":252,"name":"640 m W of Teepee Creek","flags":[]},"geometry":{"type":"MultiLineString","coordinates":[[[-121.17169,50.08385],[-121.1717,50.08408],[-121.17183,50.08418],[-121.17207,50.08418],[-121.17226,50.08413],[-121.17252,50.08403],[-121.17267,50.08393],[-121.17285,50.08374],[-121.17308,50.0836],[-121.17331,50.08349],[-121.17385,50.08331],[-121.17417,50.08317],[-121.17424,50.08312],[-121.17458,50.08276],[-121.17479,50.08248],[-121.17495,50.08246],[-121.17514,50.08252],[-121.17528,50.08266],[-121.17536,50.08282],[-121.17545,50.08304],[-121.1755,50.08338],[-121.1757,50.08359],[-121.17596,50.08363],[-121.17627,50.08362],[-121.17674,50.08357],[-121.17742,50.08347],[-121.17763,50.08354],[-121.17768,50.08369],[-121.17762,50.08408],[-121.17766,50.08432],[-121.17761,50.08446],[-121.17756,50.08452],[-121.1775,50.08458],[-121.17728,50.08501],[-121.17737,50.08516],[-121.17773,50.08532],[-121.17817,50.08531],[-121.17836,50.08529],[-121.1785,50.08526],[-121.17878,50.08517],[-121.17912,50.08516],[-121.17945,50.08517],[-121.18008,50.0852],[-121.18027,50.08524],[-121.18087,50.08528],[-121.18117,50.08523],[-121.18132,50.08527],[-121.18139,50.08537],[-121.1814,50.08571],[-121.18108,50.08629],[-121.1809,50.08643],[-121.18059,50.08645],[-121.18055,50.08651],[-121.18055,50.08657],[-121.18057,50.0867],[-121.1807,50.08693],[-121.18069,50.08698],[-121.18066,50.08702],[-121.18012,50.08756],[-121.1796,50.088],[-121.17918,50.08837],[-121.17881,50.08859],[-121.17824,50.08909],[-121.17811,50.08929],[-121.17822,50.08942],[-121.17847,50.08949],[-121.17895,50.08952],[-121.17918,50.08962],[-121.1795,50.08976],[-121.17969,50.09004],[-121.17986,50.09045],[-121.17988,50.09076],[-121.18015,50.09135],[-121.18035,50.09147],[-121.18101,50.09173],[-121.18223,50.0918],[-121.1826,50.09165],[-121.18285,50.09169],[-121.1832,50.09201],[-121.18332,50.09204],[-121.18364,50.09204],[-121.18414,50.09177],[-121.18441,50.0917],[-121.18569,50.09189],[-121.18577,50.09205],[-121.18561,50.09226],[-121.18518,50.09227],[-121.18496,50.09235],[-121.18459,50.09271],[-121.18449,50.09306],[-121.1838,50.09377],[-121.18358,50.09397],[-121.18317,50.09426],[-121.18281,50.09471],[-121.18268,50.09496],[-121.18269,50.09518],[-121.18286,50.09546],[-121.18306,50.09606],[-121.1832,50.09668],[-121.18324,50.09724],[-121.18323,50.09727],[-121.18306,50.09805],[-121.18299,50.09865],[-121.18284,50.09917],[-121.18284,50.0997],[-121.18287,50.09991],[-121.18303,50.1001],[-121.18318,50.10036],[-121.18343,50.10055],[-121.18347,50.10072]],[[-121.16618,50.08267],[-121.16629,50.08275],[-121.16662,50.08295],[-121.16667,50.08299],[-121.16674,50.08304],[-121.16689,50.08309],[-121.1672,50.08312],[-121.16772,50.08302],[-121.16798,50.08291],[-121.16819,50.08271],[-121.16832,50.08258],[-121.16842,50.08249],[-121.16851,50.08238],[-121.16864,50.08223],[-121.16872,50.08215],[-121.16883,50.08206],[-121.16893,50.082],[-121.16914,50.08194],[-121.16937,50.08195],[-121.16967,50.08199],[-121.16976,50.08201],[-121.16983,50.08205],[-121.16984,50.08207],[-121.16995,50.08219],[-121.1701,50.08229],[-121.17038,50.08241],[-121.1707,50.08257],[-121.17096,50.08271],[-121.17108,50.08277],[-121.1712,50.08279],[-121.17149,50.08279],[-121.17157,50.08281],[-121.17165,50.0829],[-121.17178,50.08309],[-121.17189,50.0833],[-121.17193,50.08336],[-121.17192,50.08361],[-121.17183,50.08373],[-121.17164,50.08387]]]}},
{"type":"Feature","properties":{"spotId":"D-moose-atv-0071","kind":"walk","km":0.2,"climbM":1,"name":"640 m W of Teepee Creek","flags":[]},"geometry":{"type":"LineString","coordinates":[[-121.18347,50.10072],[-121.18537,50.1021]]}},
{"type":"Feature","properties":{"spotId":"D-moose-drive-0072","kind":"walk","km":0.06,"climbM":0,"name":"2.3 km W of Midday Creek","flags":[]},"geometry":{"type":"LineString","coordinates":[[-121.00736,50.01973],[-121.00809,50.0194]]}}
]}
