{"type":"FeatureCollection","features":[
{"type":"Feature","properties":{"id":"D-camp-camp-0001","kind":"Rec site","name":"Davis Lake rec site","campsites":46,"water":"Water: Davis Lake 30 m W.","nearSpots":17,"closure":null,"spotIds":["D-deer-atv-0044","D-deer-atv-0051","D-deer-atv-0079","D-deer-walk-0057","D-duck-drive-0018","D-duck-drive-0031","D-duck-drive-0055","D-duck-walk-0115","D-duck-walk-0124","D-grouse-atv-0007","D-grouse-atv-0095","D-grouse-drive-0015","D-grouse-drive-0044","D-moose-atv-0037","D-moose-atv-0038","D-moose-drive-0046","D-moose-drive-0049"],"note":"Official rec site"},"geometry":{"type":"Point","coordinates":[-120.72909,49.86221]}},
{"type":"Feature","properties":{"id":"D-camp-camp-0002","kind":"Rec site","name":"Bear Lake rec site","campsites":2,"water":"Water: Bear Lake right here.","nearSpots":19,"closure":null,"spotIds":["D-duck-drive-0053","D-duck-drive-0057","D-duck-walk-0017","D-duck-walk-0019","D-duck-walk-0023","D-duck-walk-0039","D-duck-walk-0120","D-duck-walk-0125","D-duck-walk-0150","D-grouse-drive-0013","D-grouse-drive-0036","D-grouse-drive-0062","D-grouse-walk-0019","D-moose-atv-0001","D-moose-atv-0004","D-moose-drive-0002","D-moose-walk-0001","D-moose-walk-0004"],"note":"Official rec site"},"geometry":{"type":"Point","coordinates":[-119.17734,50.1525]}},
{"type":"Feature","properties":{"id":"D-camp-camp-0003","kind":"Rec site","name":"Kaiser Bill Lake rec site","campsites":2,"water":"Water: Kaiser Bill Lake 20 m SW.","nearSpots":23,"closure":null,"spotIds":["D-duck-drive-0053","D-duck-drive-0057","D-duck-walk-0017","D-duck-walk-0019","D-duck-walk-0023","D-duck-walk-0039","D-duck-walk-0120","D-duck-walk-0125","D-duck-walk-0150","D-grouse-atv-0020","D-grouse-drive-0013","D-grouse-drive-0036","D-grouse-drive-0062","D-grouse-walk-0019","D-moose-atv-0001","D-moose-atv-0004","D-moose-atv-0013","D-moose-drive-0002","D-moose-walk-0001","D-moose-walk-0004","D-moose-walk-0075"],"note":"Official rec site"},"geometry":{"type":"Point","coordinates":[-119.2003,50.15153]}},
{"type":"Feature","properties":{"id":"D-camp-camp-0004","kind":"Rec site","name":"Lundbom Lake rec site","campsites":102,"water":"Water: Lundbom Lake 40 m N.","nearSpots":30,"closure":null,"spotIds":["D-deer-atv-0010","D-deer-atv-0039","D-deer-atv-0058","D-deer-atv-0080","D-deer-atv-0136","D-deer-drive-0016","D-deer-drive-0078","D-deer-drive-0079","D-deer-drive-0090","D-deer-drive-0127","D-deer-walk-0005","D-deer-walk-0058","D-deer-walk-0070","D-deer-walk-0095","D-deer-walk-0097","D-deer-walk-0098","D-deer-walk-0105","D-deer-walk-0128","D-duck-drive-0024","D-duck-drive-0063","D-duck-drive-0094","D-duck-walk-0107","D-duck-walk-0149","D-grouse-atv-0113","D-grouse-drive-0104","D-grouse-drive-0111","D-grouse-walk-0072","D-moose-atv-0026","D-moose-walk-0043"],"note":"Official rec site"},"geometry":{"type":"Point","coordinates":[-120.62392,50.08202]}},
{"type":"Feature","properties":{"id":"D-camp-camp-0005","kind":"Rec site","name":"Kathy Lake rec site","campsites":3,"water":"Water: Kathy Lake right here.","nearSpots":14,"closure":null,"spotIds":["D-deer-atv-0132","D-deer-drive-0129","D-deer-walk-0101","D-duck-drive-0102","D-duck-drive-0111","D-duck-drive-0124","D-duck-drive-0140","D-duck-drive-0149","D-duck-drive-0150","D-grouse-drive-0092","D-moose-drive-0065","D-moose-drive-0069","D-moose-walk-0096","D-moose-walk-0098"],"note":"Official rec site"},"geometry":{"type":"Point","coordinates":[-118.69738,50.32504]}},
{"type":"Feature","properties":{"id":"D-camp-camp-0006","kind":"Rec site","name":"Doreen Lake rec site","campsites":10,"water":"Water: Doreen Lake 30 m N.","nearSpots":13,"closure":null,"spotIds":["D-duck-drive-0007","D-duck-drive-0008","D-duck-drive-0011","D-duck-drive-0033","D-duck-walk-0006","D-duck-walk-0017","D-duck-walk-0019","D-duck-walk-0023","D-duck-walk-0040","D-duck-walk-0065","D-duck-walk-0079","D-duck-walk-0097","D-grouse-drive-0008"],"note":"Official rec site"},"geometry":{"type":"Point","coordinates":[-119.14521,50.10431]}},
{"type":"Feature","properties":{"id":"D-camp-camp-0007","kind":"Rec site","name":"Loon Lake rec site","campsites":1,"water":"Water: Loon Lake 40 m SW.","nearSpots":12,"closure":null,"spotIds":["D-duck-drive-0007","D-duck-drive-0008","D-duck-drive-0011","D-duck-walk-0006","D-duck-walk-0017","D-duck-walk-0019","D-duck-walk-0023","D-duck-walk-0040","D-duck-walk-0065","D-duck-walk-0079","D-grouse-drive-0008","D-moose-walk-0004"],"note":"Official rec site"},"geometry":{"type":"Point","coordinates":[-119.13065,50.10586]}},
{"type":"Feature","properties":{"id":"D-camp-camp-0008","kind":"Rec site","name":"Oyama Lake rec site","campsites":5,"water":"Water: Oyama Lake 30 m SE.","nearSpots":19,"closure":null,"spotIds":["D-deer-atv-0059","D-deer-atv-0127","D-deer-drive-0030","D-deer-drive-0100","D-deer-drive-0157","D-deer-walk-0042","D-duck-drive-0054","D-duck-drive-0057","D-duck-drive-0121","D-duck-walk-0097","D-duck-walk-0125","D-duck-walk-0145","D-grouse-atv-0020","D-grouse-drive-0013","D-grouse-drive-0053","D-grouse-walk-0023","D-moose-atv-0013","D-moose-walk-0075"],"note":"Official rec site"},"geometry":{"type":"Point","coordinates":[-119.27877,50.11624]}},
{"type":"Feature","properties":{"id":"D-camp-camp-0009","kind":"Rec site","name":"Lodwick Lake South rec site","campsites":4,"water":"Water: Lodwick Lake 30 m E.","nearSpots":14,"closure":null,"spotIds":["D-deer-atv-0047","D-deer-atv-0068","D-deer-atv-0097","D-deer-walk-0080","D-deer-walk-0118","D-deer-walk-0119","D-duck-walk-0015","D-duck-walk-0111","D-duck-walk-0130","D-duck-walk-0138","D-grouse-atv-0015","D-moose-atv-0046","D-moose-atv-0047"],"note":"Official rec site"},"geometry":{"type":"Point","coordinates":[-120.71619,49.74673]}},
{"type":"Feature","properties":{"id":"D-camp-camp-0010","kind":"Rec site","name":"Kump Lake rec site","campsites":7,"water":"Water: Kump Lake 30 m NE.","nearSpots":25,"closure":null,"spotIds":["D-deer-atv-0040","D-deer-atv-0043","D-deer-atv-0054","D-deer-atv-0063","D-deer-drive-0066","D-deer-drive-0071","D-deer-drive-0073","D-deer-drive-0089","D-deer-walk-0055","D-deer-walk-0067","D-deer-walk-0109","D-deer-walk-0129","D-duck-drive-0050","D-duck-drive-0101","D-duck-drive-0129","D-duck-drive-0145","D-duck-walk-0054","D-duck-walk-0138","D-grouse-atv-0015","D-grouse-atv-0109","D-grouse-atv-0119","D-moose-atv-0046","D-moose-atv-0047","D-moose-drive-0053","D-moose-walk-0067"],"note":"Official rec site"},"geometry":{"type":"Point","coordinates":[-120.63457,49.73518]}},
{"type":"Feature","properties":{"id":"D-camp-camp-0011","kind":"Rec site","name":"Silver Lake rec site","campsites":6,"water":"Water: Silver Creek 30 m S.","nearSpots":27,"closure":null,"spotIds":["D-deer-atv-0037","D-deer-atv-0052","D-deer-atv-0057","D-deer-atv-0064","D-deer-atv-0075","D-deer-atv-0090","D-deer-atv-0096","D-deer-atv-0126","D-deer-atv-0138","D-deer-drive-0007","D-deer-drive-0039","D-deer-drive-0049","D-deer-drive-0060","D-deer-walk-0018","D-deer-walk-0130","D-duck-drive-0078","D-duck-drive-0163","D-duck-walk-0158","D-grouse-drive-0067","D-grouse-drive-0069","D-moose-atv-0054","D-moose-drive-0075","D-quail-atv-0008","D-quail-atv-0011","D-quail-walk-0019","D-quail-walk-0028","D-quail-walk-0043"],"note":"Official rec site"},"geometry":{"type":"Point","coordinates":[-119.835,49.8281]}},
{"type":"Feature","properties":{"id":"D-camp-camp-0012","kind":"Rec site","name":"Brenda Lake rec site","campsites":4,"water":"Water: Brenda Creek right here.","nearSpots":5,"closure":null,"spotIds":["D-duck-walk-0005","D-duck-walk-0067","D-duck-walk-0113","D-grouse-drive-0041","D-moose-walk-0083"],"note":"Official rec site"},"geometry":{"type":"Point","coordinates":[-120.04253,49.88333]}},
{"type":"Feature","properties":{"id":"D-camp-camp-0013","kind":"Rec site","name":"Windy Lake rec site","campsites":4,"water":"Water: Windy Lake 20 m N.","nearSpots":11,"closure":null,"spotIds":["D-deer-walk-0173","D-duck-drive-0070","D-duck-walk-0027","D-duck-walk-0042","D-duck-walk-0116","D-grouse-atv-0028","D-grouse-atv-0062","D-grouse-atv-0112","D-grouse-drive-0046","D-moose-drive-0008"],"note":"Official rec site"},"geometry":{"type":"Point","coordinates":[-119.92461,49.98868]}},
{"type":"Feature","properties":{"id":"D-camp-camp-0014","kind":"Rec site","name":"Crescent Lake rec site","campsites":5,"water":"Water: Crescent Lake 40 m SW.","nearSpots":9,"closure":null,"spotIds":["D-duck-drive-0014","D-duck-drive-0027","D-duck-drive-0036","D-duck-drive-0043","D-duck-drive-0092","D-duck-walk-0098","D-grouse-drive-0005","D-grouse-drive-0042","D-moose-drive-0062"],"note":"Official rec site"},"geometry":{"type":"Point","coordinates":[-120.07414,49.81024]}},
{"type":"Feature","properties":{"id":"D-camp-camp-0015","kind":"Rec site","name":"Headwaters Lake rec site","campsites":7,"water":"Water: Headwater Lakes 20 m E.","nearSpots":9,"closure":null,"spotIds":["D-duck-drive-0014","D-duck-drive-0027","D-duck-drive-0036","D-duck-walk-0072","D-duck-walk-0098","D-duck-walk-0146","D-grouse-drive-0021","D-moose-walk-0077","D-moose-walk-0080"],"note":"Official rec site"},"geometry":{"type":"Point","coordinates":[-120.01238,49.8164]}},
{"type":"Feature","properties":{"id":"D-camp-camp-0016","kind":"Rec site","name":"Pinnacle Lake rec site","campsites":5,"water":"Water: Pinnacle Lake right here.","nearSpots":25,"closure":null,"spotIds":["D-duck-drive-0035","D-duck-drive-0061","D-duck-drive-0071","D-duck-drive-0090","D-duck-drive-0095","D-duck-drive-0100","D-duck-drive-0144","D-duck-walk-0012","D-duck-walk-0021","D-duck-walk-0022","D-duck-walk-0024","D-duck-walk-0036","D-duck-walk-0041","D-duck-walk-0044","D-duck-walk-0055","D-duck-walk-0116","D-grouse-atv-0009","D-grouse-atv-0112","D-grouse-drive-0019","D-grouse-drive-0034","D-moose-atv-0008","D-moose-atv-0010","D-moose-drive-0008","D-moose-drive-0009","D-moose-walk-0010"],"note":"Official rec site"},"geometry":{"type":"Point","coordinates":[-120.04872,49.97474]}},
{"type":"Feature","properties":{"id":"D-camp-camp-0017","kind":"Rec site","name":"Murray Lake North rec site","campsites":9,"water":"Water: Murray Lake 30 m S.","nearSpots":13,"closure":null,"spotIds":["D-deer-atv-0017","D-deer-drive-0013","D-deer-drive-0025","D-deer-drive-0094","D-deer-walk-0025","D-deer-walk-0034","D-duck-drive-0077","D-duck-drive-0141","D-duck-drive-0146","D-duck-drive-0152","D-duck-drive-0160","D-grouse-drive-0027","D-grouse-walk-0011"],"note":"Official rec site"},"geometry":{"type":"Point","coordinates":[-121.00493,49.80186]}},
{"type":"Feature","properties":{"id":"D-camp-camp-0018","kind":"Rec site","name":"Flyfish Lake #1 rec site","campsites":3,"water":"Water: Flyfish Lakes 40 m S.","nearSpots":16,"closure":null,"spotIds":["D-duck-drive-0007","D-duck-drive-0008","D-duck-drive-0011","D-duck-drive-0033","D-duck-drive-0075","D-duck-walk-0006","D-duck-walk-0017","D-duck-walk-0019","D-duck-walk-0023","D-duck-walk-0040","D-duck-walk-0065","D-duck-walk-0077","D-duck-walk-0079","D-duck-walk-0097","D-grouse-drive-0008","D-moose-drive-0005"],"note":"Official rec site"},"geometry":{"type":"Point","coordinates":[-119.15013,50.09699]}},
{"type":"Feature","properties":{"id":"D-camp-camp-0019","kind":"Rec site","name":"Silver Lake rec site","campsites":2,"water":"Water: Silver Lake 20 m E.","nearSpots":6,"closure":"CLOSED - Due to proximity to out of control wildfire. No estimated date of re-opening at this time.","spotIds":["D-grouse-drive-0099","D-grouse-drive-0119","D-grouse-walk-0108","D-moose-atv-0058","D-moose-atv-0065","D-moose-walk-0088"],"note":"Official rec site"},"geometry":{"type":"Point","coordinates":[-121.16565,49.96213]}},
{"type":"Feature","properties":{"id":"D-camp-camp-0020","kind":"Rec site","name":"Reservoir Lake rec site","campsites":4,"water":"Water: Reservoir Lake 50 m S.","nearSpots":8,"closure":null,"spotIds":["D-duck-drive-0029","D-duck-walk-0007","D-duck-walk-0014","D-duck-walk-0064","D-duck-walk-0082","D-grouse-atv-0005","D-grouse-drive-0040","D-grouse-drive-0058"],"note":"Official rec site"},"geometry":{"type":"Point","coordinates":[-120.20588,49.9209]}},
{"type":"Feature","properties":{"id":"D-camp-camp-0021","kind":"Rec site","name":"Edwin Lakes rec site","campsites":2,"water":"Water: Edwin Lakes right here.","nearSpots":15,"closure":null,"spotIds":["D-deer-atv-0133","D-deer-drive-0112","D-deer-drive-0136","D-deer-drive-0146","D-deer-walk-0168","D-deer-walk-0169","D-deer-walk-0172","D-duck-drive-0062","D-duck-walk-0020","D-duck-walk-0093","D-grouse-drive-0033","D-moose-atv-0002","D-moose-drive-0001","D-moose-drive-0003","D-moose-walk-0003"],"note":"Official rec site"},"geometry":{"type":"Point","coordinates":[-119.04354,50.15484]}},
{"type":"Feature","properties":{"id":"D-camp-camp-0022","kind":"Rec site","name":"Bruer Creek rec site","campsites":1,"water":"Water: Bruer Creek 30 m W.","nearSpots":7,"closure":null,"spotIds":["D-duck-walk-0152","D-grouse-atv-0032","D-grouse-atv-0078","D-grouse-drive-0009","D-grouse-drive-0065","D-grouse-walk-0031","D-moose-atv-0073"],"note":"Official rec site"},"geometry":{"type":"Point","coordinates":[-118.67613,49.95792]}},
{"type":"Feature","properties":{"id":"D-camp-camp-0023","kind":"Rec site","name":"Specs Lakes rec site","campsites":10,"water":"Water: Grizzly Lake 110 m W.","nearSpots":7,"closure":null,"spotIds":["D-duck-walk-0006","D-duck-walk-0040","D-duck-walk-0060","D-grouse-atv-0006","D-grouse-drive-0077","D-moose-atv-0005","D-moose-walk-0006"],"note":"Official rec site"},"geometry":{"type":"Point","coordinates":[-119.07552,50.0834]}},
{"type":"Feature","properties":{"id":"D-camp-camp-0024","kind":"Rec site","name":"Sandy Bend rec site","campsites":1,"water":"Water: Kettle River 30 m SE.","nearSpots":8,"closure":null,"spotIds":["D-duck-drive-0103","D-duck-drive-0142","D-duck-walk-0141","D-grouse-atv-0042","D-grouse-atv-0080","D-grouse-atv-0088","D-grouse-drive-0030","D-grouse-drive-0048"],"note":"Official rec site"},"geometry":{"type":"Point","coordinates":[-118.71542,49.78684]}},
{"type":"Feature","properties":{"id":"D-camp-camp-0025","kind":"Rec site","name":"Brunette Lake rec site","campsites":0,"water":"Water: Brunette Lake 30 m E.","nearSpots":19,"closure":null,"spotIds":["D-duck-drive-0007","D-duck-drive-0008","D-duck-drive-0009","D-duck-drive-0011","D-duck-drive-0033","D-duck-drive-0075","D-duck-walk-0006","D-duck-walk-0017","D-duck-walk-0040","D-duck-walk-0065","D-duck-walk-0077","D-duck-walk-0079","D-duck-walk-0097","D-grouse-atv-0022","D-grouse-drive-0008","D-moose-drive-0005","D-moose-drive-0019","D-moose-walk-0006","D-moose-walk-0007"],"note":"Official rec site"},"geometry":{"type":"Point","coordinates":[-119.16234,50.07905]}},
{"type":"Feature","properties":{"id":"D-camp-camp-0026","kind":"Rec site","name":"Islaht Lake rec site","campsites":3,"water":"Water: Islaht Lake 20 m NW.","nearSpots":8,"closure":null,"spotIds":["D-duck-drive-0039","D-duck-drive-0048","D-duck-drive-0066","D-duck-drive-0070","D-duck-walk-0031","D-duck-walk-0042","D-duck-walk-0142","D-grouse-drive-0050"],"note":"Official rec site"},"geometry":{"type":"Point","coordinates":[-119.81032,49.98986]}},
{"type":"Feature","properties":{"id":"D-camp-camp-0027","kind":"Rec site","name":"Esperon Lake Cabin rec site","campsites":0,"water":"Water: Esperon Lake 20 m W.","nearSpots":10,"closure":null,"spotIds":["D-duck-drive-0021","D-duck-drive-0022","D-duck-drive-0073","D-duck-walk-0123","D-grouse-atv-0027","D-grouse-atv-0051","D-grouse-drive-0072","D-grouse-walk-0107","D-moose-atv-0055","D-moose-atv-0064"],"note":"Official rec site"},"geometry":{"type":"Point","coordinates":[-119.75299,50.07744]}},
{"type":"Feature","properties":{"id":"D-camp-camp-0028","kind":"Crown land candidate","name":"By Sowsap Creek","campsites":null,"water":"Water: Sowsap Creek 100 m NE.","nearSpots":17,"closure":null,"spotIds":["D-deer-atv-0134","D-deer-drive-0110","D-deer-drive-0117","D-deer-drive-0126","D-deer-drive-0134","D-deer-walk-0143","D-deer-walk-0153","D-deer-walk-0160","D-deer-walk-0171","D-deer-walk-0174","D-deer-walk-0207","D-grouse-drive-0001","D-grouse-drive-0107","D-moose-walk-0091","D-quail-drive-0011","D-quail-drive-0029"],"note":"Candidate, scout it first (estimate)"},"geometry":{"type":"Point","coordinates":[-118.8425,50.45753]}},
{"type":"Feature","properties":{"id":"D-camp-camp-0029","kind":"Crown land candidate","name":"By Harris Creek","campsites":null,"water":"Water: Harris Creek 110 m W.","nearSpots":19,"closure":null,"spotIds":["D-deer-atv-0116","D-deer-atv-0124","D-deer-atv-0129","D-deer-drive-0105","D-deer-drive-0112","D-deer-drive-0138","D-deer-drive-0154","D-deer-walk-0140","D-deer-walk-0164","D-deer-walk-0168","D-deer-walk-0172","D-grouse-atv-0091","D-grouse-drive-0074","D-moose-atv-0070","D-quail-drive-0019","D-quail-drive-0038","D-quail-drive-0043","D-quail-walk-0011","D-quail-walk-0040"],"note":"Candidate, scout it first (estimate)"},"geometry":{"type":"Point","coordinates":[-118.9638,50.19799]}},
{"type":"Feature","properties":{"id":"D-camp-camp-0030","kind":"Crown land candidate","name":"By Harris Creek","campsites":null,"water":"Water: Harris Creek 90 m NE.","nearSpots":20,"closure":null,"spotIds":["D-deer-atv-0114","D-deer-atv-0116","D-deer-atv-0124","D-deer-atv-0129","D-deer-drive-0105","D-deer-drive-0113","D-deer-drive-0116","D-deer-drive-0138","D-deer-drive-0154","D-deer-walk-0103","D-deer-walk-0131","D-deer-walk-0140","D-deer-walk-0164","D-grouse-atv-0085","D-grouse-atv-0091","D-grouse-drive-0074","D-moose-atv-0070","D-quail-drive-0019","D-quail-drive-0038","D-quail-drive-0043"],"note":"Candidate, scout it first (estimate)"},"geometry":{"type":"Point","coordinates":[-118.93174,50.17787]}},
{"type":"Feature","properties":{"id":"D-camp-camp-0031","kind":"Crown land candidate","name":"By Park Lakes","campsites":null,"water":"Water: Park Lakes 120 m S.","nearSpots":28,"closure":null,"spotIds":["D-duck-drive-0007","D-duck-drive-0008","D-duck-drive-0011","D-duck-drive-0033","D-duck-drive-0053","D-duck-drive-0057","D-duck-walk-0006","D-duck-walk-0017","D-duck-walk-0019","D-duck-walk-0023","D-duck-walk-0039","D-duck-walk-0079","D-duck-walk-0097","D-duck-walk-0120","D-duck-walk-0125","D-grouse-atv-0020","D-grouse-drive-0008","D-grouse-drive-0013","D-grouse-drive-0036","D-grouse-drive-0062","D-moose-atv-0001","D-moose-atv-0004","D-moose-atv-0013","D-moose-drive-0002","D-moose-walk-0001","D-moose-walk-0075"],"note":"Candidate, scout it first (estimate)"},"geometry":{"type":"Point","coordinates":[-119.20056,50.11174]}},
{"type":"Feature","properties":{"id":"D-camp-camp-0032","kind":"Crown land candidate","name":"200 m SW of DunWaters Creek","campsites":null,"water":"Water: DunWaters Creek 200 m NE.","nearSpots":14,"closure":null,"spotIds":["D-deer-atv-0123","D-deer-drive-0108","D-deer-drive-0115","D-deer-drive-0135","D-deer-drive-0142","D-deer-walk-0147","D-deer-walk-0150","D-deer-walk-0163","D-grouse-drive-0024","D-grouse-drive-0072","D-grouse-walk-0013","D-moose-drive-0014","D-moose-walk-0017"],"note":"Candidate, scout it first (estimate)"},"geometry":{"type":"Point","coordinates":[-119.68314,50.12522]}},
{"type":"Feature","properties":{"id":"D-camp-camp-0033","kind":"Crown land candidate","name":"By Wilson Creek","campsites":null,"water":"Water: Wilson Creek right here.","nearSpots":14,"closure":null,"spotIds":["D-deer-drive-0086","D-deer-drive-0142","D-deer-walk-0163","D-grouse-drive-0024","D-grouse-drive-0095","D-grouse-drive-0116","D-grouse-walk-0013","D-grouse-walk-0051","D-grouse-walk-0065","D-grouse-walk-0067","D-grouse-walk-0073","D-moose-drive-0021","D-moose-drive-0022","D-moose-walk-0025"],"note":"Candidate, scout it first (estimate)"},"geometry":{"type":"Point","coordinates":[-119.6083,50.11818]}},
{"type":"Feature","properties":{"id":"D-camp-camp-0034","kind":"Crown land candidate","name":"190 m N of Stuart Creek","campsites":null,"water":"Water: Stuart Creek 190 m S.","nearSpots":16,"closure":null,"spotIds":["D-deer-walk-0111","D-grouse-atv-0050","D-grouse-drive-0095","D-grouse-drive-0116","D-grouse-walk-0030","D-grouse-walk-0051","D-grouse-walk-0065","D-grouse-walk-0067","D-grouse-walk-0073","D-moose-drive-0021","D-moose-drive-0022","D-moose-walk-0018","D-moose-walk-0022","D-moose-walk-0025","D-quail-walk-0006","D-quail-walk-0018"],"note":"Candidate, scout it first (estimate)"},"geometry":{"type":"Point","coordinates":[-119.56564,50.09222]}},
{"type":"Feature","properties":{"id":"D-camp-camp-0035","kind":"Crown land candidate","name":"By Mellin Creek","campsites":null,"water":"Water: Mellin Creek 70 m NE.","nearSpots":18,"closure":null,"spotIds":["D-deer-atv-0060","D-deer-atv-0092","D-deer-atv-0130","D-deer-atv-0144","D-deer-drive-0171","D-deer-drive-0172","D-deer-drive-0174","D-deer-walk-0123","D-deer-walk-0159","D-deer-walk-0165","D-deer-walk-0190","D-deer-walk-0202","D-deer-walk-0203","D-duck-drive-0096","D-duck-walk-0053","D-grouse-atv-0035","D-grouse-drive-0029","D-moose-atv-0025"],"note":"Candidate, scout it first (estimate)"},"geometry":{"type":"Point","coordinates":[-120.09142,50.10553]}},
{"type":"Feature","properties":{"id":"D-camp-camp-0036","kind":"Crown land candidate","name":"130 m W of Teenamilsts Creek","campsites":null,"water":"Water: Teenamilsts Creek 130 m E.","nearSpots":18,"closure":null,"spotIds":["D-deer-atv-0039","D-deer-atv-0058","D-deer-atv-0080","D-deer-atv-0136","D-deer-atv-0139","D-deer-drive-0127","D-deer-walk-0058","D-deer-walk-0097","D-deer-walk-0105","D-deer-walk-0128","D-duck-drive-0063","D-duck-drive-0094","D-duck-walk-0107","D-grouse-drive-0104","D-grouse-walk-0072","D-moose-atv-0026","D-moose-walk-0043"],"note":"Candidate, scout it first (estimate)"},"geometry":{"type":"Point","coordinates":[-120.58293,50.1002]}},
{"type":"Feature","properties":{"id":"D-camp-camp-0037","kind":"Crown land candidate","name":"By Kanevale Creek","campsites":null,"water":"Water: Kanevale Creek right here.","nearSpots":18,"closure":null,"spotIds":["D-deer-atv-0022","D-deer-atv-0023","D-deer-atv-0025","D-deer-atv-0048","D-deer-atv-0081","D-deer-drive-0029","D-deer-drive-0059","D-deer-drive-0075","D-deer-walk-0066","D-deer-walk-0068","D-duck-drive-0042","D-duck-walk-0089","D-grouse-atv-0054","D-grouse-atv-0066","D-moose-atv-0056","D-moose-atv-0067","D-moose-walk-0054"],"note":"Candidate, scout it first (estimate)"},"geometry":{"type":"Point","coordinates":[-120.71589,49.9453]}},
{"type":"Feature","properties":{"id":"D-camp-camp-0038","kind":"Crown land candidate","name":"150 m NE of Greata Creek","campsites":null,"water":"Water: Greata Creek 150 m SW.","nearSpots":25,"closure":null,"spotIds":["D-deer-atv-0052","D-deer-atv-0057","D-deer-atv-0064","D-deer-atv-0075","D-deer-atv-0090","D-deer-atv-0126","D-deer-drive-0017","D-deer-drive-0039","D-deer-drive-0049","D-deer-drive-0058","D-deer-drive-0060","D-deer-walk-0018","D-deer-walk-0039","D-deer-walk-0040","D-deer-walk-0134","D-duck-drive-0078","D-duck-drive-0163","D-grouse-atv-0010","D-grouse-atv-0033","D-grouse-drive-0067","D-grouse-drive-0069","D-moose-atv-0054","D-moose-atv-0059","D-moose-drive-0075"],"note":"Candidate, scout it first (estimate)"},"geometry":{"type":"Point","coordinates":[-119.85402,49.79647]}},
{"type":"Feature","properties":{"id":"D-camp-camp-0039","kind":"Crown land candidate","name":"By Mark Creek","campsites":null,"water":"Water: Mark Creek right here.","nearSpots":18,"closure":null,"spotIds":["D-deer-atv-0056","D-deer-atv-0068","D-deer-atv-0094","D-deer-drive-0032","D-deer-drive-0054","D-deer-walk-0056","D-deer-walk-0080","D-deer-walk-0112","D-duck-drive-0147","D-duck-walk-0015","D-grouse-atv-0092","D-grouse-drive-0084","D-moose-atv-0048","D-moose-atv-0049","D-moose-drive-0078"],"note":"Candidate, scout it first (estimate)"},"geometry":{"type":"Point","coordinates":[-120.78413,49.71504]}},
{"type":"Feature","properties":{"id":"D-camp-camp-0040","kind":"Crown land candidate","name":"By Ireland Creek","campsites":null,"water":"Water: Ireland Creek right here.","nearSpots":12,"closure":null,"spotIds":["D-deer-drive-0123","D-deer-drive-0148","D-deer-walk-0157","D-duck-drive-0056","D-duck-walk-0004","D-grouse-atv-0055","D-grouse-drive-0098","D-moose-drive-0024","D-moose-drive-0025","D-quail-atv-0004","D-quail-drive-0041"],"note":"Candidate, scout it first (estimate)"},"geometry":{"type":"Point","coordinates":[-118.64834,50.41498]}},
{"type":"Feature","properties":{"id":"D-camp-camp-0041","kind":"Crown land candidate","name":"160 m N of Duo Via Lake","campsites":null,"water":"Water: Duo Via Lake 160 m S.","nearSpots":15,"closure":null,"spotIds":["D-deer-drive-0142","D-deer-walk-0150","D-grouse-drive-0024","D-grouse-drive-0072","D-grouse-drive-0095","D-grouse-drive-0116","D-grouse-walk-0013","D-grouse-walk-0051","D-grouse-walk-0065","D-moose-atv-0015","D-moose-drive-0014","D-moose-drive-0021","D-moose-walk-0017","D-moose-walk-0018"],"note":"Candidate, scout it first (estimate)"},"geometry":{"type":"Point","coordinates":[-119.65612,50.09748]}},
{"type":"Feature","properties":{"id":"D-camp-camp-0042","kind":"Crown land candidate","name":"By Edgar Creek","campsites":null,"water":"Water: Edgar Creek 60 m N.","nearSpots":11,"closure":null,"spotIds":["D-deer-atv-0050","D-deer-atv-0087","D-deer-drive-0012","D-deer-drive-0164","D-deer-walk-0038","D-deer-walk-0088","D-deer-walk-0132","D-deer-walk-0166","D-duck-drive-0134","D-duck-drive-0167","D-grouse-drive-0113"],"note":"Candidate, scout it first (estimate)"},"geometry":{"type":"Point","coordinates":[-121.10553,50.14093]}},
{"type":"Feature","properties":{"id":"D-camp-camp-0043","kind":"Crown land candidate","name":"120 m NE of Hardy Creek","campsites":null,"water":"Water: Hardy Creek 120 m SW.","nearSpots":13,"closure":null,"spotIds":["D-deer-atv-0131","D-deer-walk-0188","D-duck-drive-0137","D-duck-drive-0161","D-duck-walk-0104","D-duck-walk-0147","D-grouse-atv-0086","D-grouse-atv-0102","D-grouse-walk-0035","D-grouse-walk-0038","D-grouse-walk-0061","D-moose-drive-0056"],"note":"Candidate, scout it first (estimate)"},"geometry":{"type":"Point","coordinates":[-119.30075,49.79458]}},
{"type":"Feature","properties":{"id":"D-camp-camp-0044","kind":"Crown land candidate","name":"By Campin Creek","campsites":null,"water":"Water: Campin Creek 80 m NE.","nearSpots":10,"closure":null,"spotIds":["D-duck-drive-0123","D-duck-drive-0128","D-duck-drive-0139","D-duck-walk-0038","D-grouse-atv-0011","D-grouse-drive-0022","D-grouse-drive-0056","D-moose-drive-0047","D-moose-walk-0031","D-moose-walk-0065"],"note":"Candidate, scout it first (estimate)"},"geometry":{"type":"Point","coordinates":[-119.04629,49.75243]}},
{"type":"Feature","properties":{"id":"D-camp-camp-0045","kind":"Crown land candidate","name":"200 m W of Rendell Creek","campsites":null,"water":"Water: Rendell Creek 200 m E.","nearSpots":12,"closure":null,"spotIds":["D-duck-drive-0158","D-duck-walk-0110","D-duck-walk-0135","D-duck-walk-0141","D-grouse-atv-0042","D-grouse-atv-0110","D-grouse-drive-0086","D-moose-atv-0035","D-moose-drive-0040","D-moose-drive-0041","D-moose-walk-0055","D-moose-walk-0057"],"note":"Candidate, scout it first (estimate)"},"geometry":{"type":"Point","coordinates":[-118.6327,49.81834]}},
{"type":"Feature","properties":{"id":"D-camp-camp-0046","kind":"Crown land candidate","name":"160 m NW of O'Hagan Creek","campsites":null,"water":"Water: O'Hagan Creek 160 m SE.","nearSpots":13,"closure":null,"spotIds":["D-deer-atv-0038","D-deer-atv-0113","D-deer-drive-0035","D-deer-drive-0097","D-deer-walk-0096","D-deer-walk-0162","D-grouse-atv-0103","D-grouse-drive-0052","D-moose-atv-0057","D-moose-atv-0068","D-moose-atv-0076","D-moose-walk-0070","D-moose-walk-0099"],"note":"Candidate, scout it first (estimate)"},"geometry":{"type":"Point","coordinates":[-119.95638,49.70742]}},
{"type":"Feature","properties":{"id":"D-camp-camp-0047","kind":"Crown land candidate","name":"By West Bruer Creek","campsites":null,"water":"Water: West Bruer Creek 50 m W.","nearSpots":8,"closure":null,"spotIds":["D-duck-drive-0148","D-duck-drive-0164","D-duck-walk-0092","D-duck-walk-0152","D-moose-drive-0060","D-moose-drive-0070","D-moose-walk-0040","D-moose-walk-0042"],"note":"Candidate, scout it first (estimate)"},"geometry":{"type":"Point","coordinates":[-118.69107,50.0121]}},
{"type":"Feature","properties":{"id":"D-camp-camp-0048","kind":"Crown land candidate","name":"By Spius Creek","campsites":null,"water":"Water: Spius Creek 30 m W.","nearSpots":7,"closure":null,"spotIds":["D-deer-atv-0089","D-deer-walk-0122","D-duck-drive-0167","D-grouse-atv-0099","D-grouse-drive-0093","D-grouse-drive-0113","D-grouse-walk-0062"],"note":"Candidate, scout it first (estimate)"},"geometry":{"type":"Point","coordinates":[-121.04346,50.10571]}},
{"type":"Feature","properties":{"id":"D-camp-camp-0049","kind":"Crown land candidate","name":"By Kettle River","campsites":null,"water":"Water: Kettle River 90 m NW.","nearSpots":7,"closure":null,"spotIds":["D-duck-drive-0004","D-duck-drive-0103","D-duck-drive-0142","D-grouse-atv-0080","D-grouse-atv-0088","D-grouse-drive-0048","D-moose-drive-0061"],"note":"Candidate, scout it first (estimate)"},"geometry":{"type":"Point","coordinates":[-118.74096,49.75237]}},
{"type":"Feature","properties":{"id":"D-camp-camp-0050","kind":"Crown land candidate","name":"200 m NW of Oleen Creek","campsites":null,"water":"Water: Oleen Creek 200 m SE.","nearSpots":6,"closure":null,"spotIds":["D-grouse-atv-0098","D-grouse-drive-0014","D-grouse-drive-0096","D-quail-drive-0033","D-quail-walk-0014","D-quail-walk-0032"],"note":"Candidate, scout it first (estimate)"},"geometry":{"type":"Point","coordinates":[-118.97908,50.48976]}},
{"type":"Feature","properties":{"id":"D-camp-camp-0051","kind":"Crown land candidate","name":"190 m N of Vlem Creek","campsites":null,"water":"Water: Vlem Creek 190 m S.","nearSpots":7,"closure":null,"spotIds":["D-duck-walk-0002","D-grouse-drive-0014","D-grouse-drive-0096","D-quail-drive-0033","D-quail-walk-0014","D-quail-walk-0027","D-quail-walk-0032"],"note":"Candidate, scout it first (estimate)"},"geometry":{"type":"Point","coordinates":[-118.99643,50.45113]}},
{"type":"Feature","properties":{"id":"D-camp-camp-0052","kind":"Rec site","name":"Harmon Lake rec site","campsites":32,"water":"Water: unnamed lake 110 m NW.","nearSpots":17,"closure":null,"spotIds":["D-deer-atv-0022","D-deer-atv-0023","D-deer-atv-0025","D-deer-drive-0029","D-deer-drive-0059","D-deer-drive-0075","D-deer-walk-0059","D-deer-walk-0068","D-duck-drive-0042","D-duck-drive-0052","D-duck-walk-0089","D-moose-atv-0056","D-moose-atv-0067","D-moose-drive-0073","D-moose-walk-0049"],"note":"Official rec site"},"geometry":{"type":"Point","coordinates":[-120.69974,49.97339]}},
{"type":"Feature","properties":{"id":"D-camp-camp-0053","kind":"Rec site","name":"Link Lake rec site","campsites":10,"water":"Water: Link Lake 50 m SE.","nearSpots":10,"closure":null,"spotIds":["D-duck-drive-0028","D-duck-drive-0034","D-duck-drive-0116","D-duck-walk-0016","D-duck-walk-0102","D-grouse-atv-0064","D-grouse-atv-0074","D-grouse-drive-0087","D-moose-drive-0066","D-moose-drive-0074"],"note":"Official rec site"},"geometry":{"type":"Point","coordinates":[-120.23307,49.70737]}},
{"type":"Feature","properties":{"id":"D-camp-camp-0054","kind":"Rec site","name":"Jackpine Lake rec site","campsites":10,"water":"Water: Jackpine Lake 30 m W.","nearSpots":6,"closure":null,"spotIds":["D-deer-walk-0104","D-duck-drive-0039","D-duck-drive-0091","D-duck-walk-0127","D-grouse-atv-0105","D-grouse-drive-0061"],"note":"Official rec site"},"geometry":{"type":"Point","coordinates":[-119.8041,49.91884]}},
{"type":"Feature","properties":{"id":"D-camp-camp-0055","kind":"Rec site","name":"Lambly Lake rec site","campsites":22,"water":"Water: unnamed wetland right here.","nearSpots":9,"closure":null,"spotIds":["D-duck-drive-0126","D-grouse-drive-0061","D-grouse-drive-0078","D-moose-atv-0014","D-moose-drive-0013","D-moose-drive-0015","D-moose-drive-0063","D-moose-walk-0016","D-moose-walk-0020"],"note":"Official rec site"},"geometry":{"type":"Point","coordinates":[-119.71202,49.95545]}},
{"type":"Feature","properties":{"id":"D-camp-camp-0056","kind":"Rec site","name":"Hydraulic Lake rec site","campsites":30,"water":"Water: McCulloch Reservoir 70 m NW.","nearSpots":29,"closure":null,"spotIds":["D-duck-drive-0006","D-duck-drive-0010","D-duck-drive-0019","D-duck-drive-0025","D-duck-drive-0032","D-duck-drive-0038","D-duck-drive-0046","D-duck-drive-0064","D-duck-drive-0086","D-duck-walk-0008","D-duck-walk-0013","D-duck-walk-0050","D-duck-walk-0088","D-duck-walk-0119","D-duck-walk-0121","D-duck-walk-0153","D-grouse-walk-0001","D-grouse-walk-0029","D-grouse-walk-0037","D-grouse-walk-0049","D-grouse-walk-0060","D-grouse-walk-0066","D-grouse-walk-0100","D-moose-atv-0009","D-moose-atv-0019","D-moose-drive-0011","D-moose-drive-0029","D-moose-walk-0013","D-moose-walk-0014"],"note":"Official rec site"},"geometry":{"type":"Point","coordinates":[-119.1723,49.77674]}},
{"type":"Feature","properties":{"id":"D-camp-camp-0057","kind":"Rec site","name":"McCULLOCH RESERVOIR rec site","campsites":39,"water":"Water: McCulloch Reservoir right here.","nearSpots":26,"closure":null,"spotIds":["D-duck-drive-0006","D-duck-drive-0010","D-duck-drive-0019","D-duck-drive-0025","D-duck-drive-0032","D-duck-drive-0064","D-duck-walk-0008","D-duck-walk-0013","D-duck-walk-0050","D-duck-walk-0088","D-duck-walk-0096","D-duck-walk-0119","D-duck-walk-0121","D-duck-walk-0153","D-grouse-walk-0029","D-grouse-walk-0037","D-grouse-walk-0060","D-grouse-walk-0066","D-grouse-walk-0086","D-grouse-walk-0100","D-moose-atv-0009","D-moose-atv-0019","D-moose-drive-0011","D-moose-drive-0029","D-moose-walk-0013","D-moose-walk-0014"],"note":"Official rec site"},"geometry":{"type":"Point","coordinates":[-119.16884,49.76397]}},
{"type":"Feature","properties":{"id":"D-camp-camp-0058","kind":"Rec site","name":"Johnny Lake rec site","campsites":4,"water":"Water: Johnny Lake right here.","nearSpots":13,"closure":null,"spotIds":["D-deer-atv-0047","D-deer-atv-0056","D-deer-atv-0068","D-deer-drive-0054","D-deer-walk-0080","D-deer-walk-0112","D-duck-walk-0015","D-duck-walk-0111","D-duck-walk-0130","D-moose-atv-0046","D-moose-atv-0047","D-moose-atv-0048"],"note":"Official rec site"},"geometry":{"type":"Point","coordinates":[-120.73831,49.74658]}},
{"type":"Feature","properties":{"id":"D-camp-camp-0059","kind":"Rec site","name":"Thalia Lake South rec site","campsites":7,"water":"Water: Thalia Lake 20 m N.","nearSpots":13,"closure":null,"spotIds":["D-deer-atv-0047","D-deer-atv-0097","D-deer-walk-0080","D-deer-walk-0119","D-duck-drive-0015","D-duck-walk-0015","D-duck-walk-0059","D-duck-walk-0111","D-duck-walk-0130","D-grouse-atv-0015","D-moose-atv-0046","D-moose-atv-0047"],"note":"Official rec site"},"geometry":{"type":"Point","coordinates":[-120.72975,49.75931]}},
{"type":"Feature","properties":{"id":"D-camp-camp-0060","kind":"Rec site","name":"Lodwick Lake North rec site","campsites":5,"water":"Water: Lodwick Lake right here.","nearSpots":10,"closure":null,"spotIds":["D-deer-atv-0047","D-deer-atv-0097","D-deer-drive-0089","D-deer-walk-0119","D-duck-walk-0015","D-duck-walk-0111","D-duck-walk-0130","D-grouse-atv-0015","D-moose-atv-0046","D-moose-atv-0047"],"note":"Official rec site"},"geometry":{"type":"Point","coordinates":[-120.70819,49.75594]}},
{"type":"Feature","properties":{"id":"D-camp-camp-0061","kind":"Rec site","name":"Macdonald Lake rec site","campsites":3,"water":"Water: unnamed lake 30 m W.","nearSpots":6,"closure":null,"spotIds":["D-duck-walk-0005","D-duck-walk-0067","D-duck-walk-0094","D-duck-walk-0113","D-grouse-drive-0041","D-moose-walk-0083"],"note":"Official rec site"},"geometry":{"type":"Point","coordinates":[-120.02968,49.88623]}},
{"type":"Feature","properties":{"id":"D-camp-camp-0062","kind":"Rec site","name":"Peachland Lake rec site","campsites":8,"water":"Water: Peachland Lake 30 m NW.","nearSpots":12,"closure":null,"spotIds":["D-deer-atv-0076","D-deer-drive-0082","D-deer-drive-0088","D-deer-walk-0069","D-duck-drive-0014","D-duck-walk-0072","D-duck-walk-0094","D-duck-walk-0098","D-duck-walk-0146","D-grouse-drive-0021","D-moose-walk-0077","D-moose-walk-0080"],"note":"Official rec site"},"geometry":{"type":"Point","coordinates":[-119.97271,49.83516]}},
{"type":"Feature","properties":{"id":"D-camp-camp-0063","kind":"Rec site","name":"Island Lake rec site","campsites":34,"water":"Water: Island Lake 30 m E.","nearSpots":19,"closure":null,"spotIds":["D-duck-drive-0007","D-duck-drive-0008","D-duck-drive-0009","D-duck-drive-0011","D-duck-drive-0033","D-duck-walk-0006","D-duck-walk-0017","D-duck-walk-0023","D-duck-walk-0040","D-duck-walk-0065","D-duck-walk-0079","D-duck-walk-0097","D-grouse-atv-0020","D-grouse-drive-0008","D-moose-atv-0004","D-moose-atv-0013","D-moose-drive-0005","D-moose-drive-0019","D-moose-walk-0007"],"note":"Official rec site"},"geometry":{"type":"Point","coordinates":[-119.1795,50.09404]}},
{"type":"Feature","properties":{"id":"D-camp-camp-0064","kind":"Rec site","name":"Lily Lake rec site","campsites":3,"water":"Water: unnamed wetland 80 m SE.","nearSpots":26,"closure":"Notice: The Lily Lake Recreation Site has been closed due to wildfire activity in the area. No public access.","spotIds":["D-deer-atv-0020","D-deer-atv-0027","D-deer-atv-0028","D-deer-atv-0061","D-deer-atv-0078","D-deer-atv-0086","D-deer-atv-0091","D-deer-drive-0031","D-deer-drive-0036","D-deer-drive-0042","D-deer-drive-0048","D-deer-drive-0052","D-deer-drive-0057","D-deer-walk-0041","D-deer-walk-0053","D-deer-walk-0062","D-deer-walk-0086","D-deer-walk-0102","D-duck-drive-0013","D-duck-drive-0154","D-duck-walk-0018","D-duck-walk-0112","D-grouse-atv-0023","D-moose-atv-0074","D-moose-drive-0079","D-moose-walk-0100"],"note":"Official rec site"},"geometry":{"type":"Point","coordinates":[-120.93909,50.02972]}},
{"type":"Feature","properties":{"id":"D-camp-camp-0065","kind":"Rec site","name":"James Lake rec site","campsites":7,"water":"Water: unnamed lake right here.","nearSpots":26,"closure":null,"spotIds":["D-deer-atv-0117","D-deer-drive-0128","D-deer-drive-0150","D-deer-drive-0158","D-deer-walk-0120","D-deer-walk-0176","D-duck-drive-0081","D-duck-drive-0088","D-duck-drive-0104","D-duck-drive-0106","D-duck-drive-0108","D-duck-walk-0035","D-grouse-atv-0072","D-grouse-drive-0057","D-grouse-drive-0063","D-grouse-drive-0080","D-grouse-walk-0005","D-grouse-walk-0033","D-grouse-walk-0099","D-grouse-walk-0104","D-moose-atv-0016","D-moose-drive-0017","D-moose-drive-0020","D-moose-drive-0059","D-moose-walk-0021"],"note":"Official rec site"},"geometry":{"type":"Point","coordinates":[-119.24915,49.95328]}},
{"type":"Feature","properties":{"id":"D-camp-camp-0066","kind":"Rec site","name":"Island Lake rec site","campsites":8,"water":"Water: Island Lake 40 m W.","nearSpots":10,"closure":null,"spotIds":["D-duck-drive-0051","D-duck-drive-0059","D-duck-drive-0079","D-duck-walk-0066","D-duck-walk-0085","D-grouse-atv-0005","D-grouse-atv-0008","D-grouse-atv-0047","D-grouse-drive-0032","D-moose-atv-0031"],"note":"Official rec site"},"geometry":{"type":"Point","coordinates":[-120.2857,49.92495]}},
{"type":"Feature","properties":{"id":"D-camp-camp-0067","kind":"Rec site","name":"Elkhart Lake rec site","campsites":3,"water":"Water: Elkhart Lake 110 m E.","nearSpots":9,"closure":null,"spotIds":["D-duck-drive-0051","D-duck-drive-0059","D-duck-drive-0132","D-duck-walk-0066","D-grouse-atv-0005","D-grouse-atv-0008","D-grouse-atv-0014","D-grouse-drive-0032","D-moose-walk-0059"],"note":"Official rec site"},"geometry":{"type":"Point","coordinates":[-120.31316,49.89527]}},
{"type":"Feature","properties":{"id":"D-camp-camp-0068","kind":"Rec site","name":"Bob'S Lake rec site","campsites":2,"water":"Water: Bobs Lake 20 m S.","nearSpots":11,"closure":null,"spotIds":["D-duck-drive-0051","D-duck-drive-0059","D-duck-drive-0079","D-duck-drive-0132","D-duck-walk-0066","D-duck-walk-0085","D-grouse-atv-0005","D-grouse-atv-0008","D-grouse-atv-0047","D-grouse-drive-0032","D-moose-atv-0031"],"note":"Official rec site"},"geometry":{"type":"Point","coordinates":[-120.30336,49.91999]}},
{"type":"Feature","properties":{"id":"D-camp-camp-0069","kind":"Rec site","name":"Mohr Creek rec site","campsites":2,"water":"Water: Kettle River 40 m W.","nearSpots":4,"closure":"Site closed due to fallen trees and facility damage.","spotIds":["D-duck-drive-0153","D-duck-walk-0110","D-duck-walk-0141","D-moose-atv-0030"],"note":"Official rec site"},"geometry":{"type":"Point","coordinates":[-118.70279,49.848]}},
{"type":"Feature","properties":{"id":"D-camp-camp-0070","kind":"Rec site","name":"Damfino Creek rec site","campsites":3,"water":"Water: Damfino Creek 40 m SW.","nearSpots":5,"closure":null,"spotIds":["D-duck-drive-0004","D-duck-walk-0099","D-grouse-drive-0035","D-moose-drive-0061","D-moose-drive-0064"],"note":"Official rec site"},"geometry":{"type":"Point","coordinates":[-118.76952,49.70019]}},
{"type":"Feature","properties":{"id":"D-camp-camp-0071","kind":"Rec site","name":"Nevertouch Lake rec site","campsites":15,"water":"Water: Nevertouch Lake 40 m SW.","nearSpots":8,"closure":null,"spotIds":["D-duck-drive-0103","D-duck-drive-0142","D-grouse-atv-0080","D-grouse-atv-0088","D-grouse-drive-0030","D-grouse-drive-0048","D-grouse-walk-0059","D-moose-walk-0093"],"note":"Official rec site"},"geometry":{"type":"Point","coordinates":[-118.76901,49.78567]}},
{"type":"Feature","properties":{"id":"D-camp-camp-0072","kind":"Rec site","name":"Ruth Lake rec site","campsites":1,"water":"Water: unnamed wetland right here.","nearSpots":14,"closure":null,"spotIds":["D-duck-drive-0007","D-duck-drive-0008","D-duck-drive-0011","D-duck-drive-0033","D-duck-drive-0075","D-duck-walk-0006","D-duck-walk-0017","D-duck-walk-0040","D-duck-walk-0065","D-duck-walk-0077","D-duck-walk-0079","D-grouse-drive-0008","D-moose-drive-0005","D-moose-walk-0006"],"note":"Official rec site"},"geometry":{"type":"Point","coordinates":[-119.14058,50.08905]}},
{"type":"Feature","properties":{"id":"D-camp-camp-0073","kind":"Rec site","name":"Cabin Lake rec site","campsites":3,"water":"Water: Cabin Lake 20 m E.","nearSpots":2,"closure":null,"spotIds":["D-grouse-drive-0119","D-grouse-walk-0108"],"note":"Official rec site"},"geometry":{"type":"Point","coordinates":[-121.22105,49.97503]}},
{"type":"Feature","properties":{"id":"D-camp-camp-0074","kind":"Rec site","name":"Stuart Lake rec site","campsites":1,"water":"Water: unnamed wetland right here.","nearSpots":15,"closure":null,"spotIds":["D-deer-drive-0108","D-deer-walk-0139","D-duck-drive-0080","D-duck-drive-0109","D-duck-drive-0114","D-duck-walk-0143","D-grouse-atv-0017","D-grouse-atv-0024","D-grouse-atv-0051","D-grouse-drive-0004","D-moose-atv-0023","D-moose-atv-0055","D-moose-walk-0015","D-moose-walk-0028"],"note":"Official rec site"},"geometry":{"type":"Point","coordinates":[-119.7864,50.14695]}},
{"type":"Feature","properties":{"id":"D-camp-camp-0075","kind":"Rec site","name":"Nkwala rec site","campsites":8,"water":"Water: Nicola River 170 m SW.","nearSpots":9,"closure":null,"spotIds":["D-deer-atv-0007","D-deer-drive-0055","D-deer-drive-0164","D-deer-walk-0084","D-deer-walk-0090","D-duck-drive-0134","D-duck-drive-0167","D-grouse-drive-0113"],"note":"Official rec site"},"geometry":{"type":"Point","coordinates":[-121.04696,50.1595]}},
{"type":"Feature","properties":{"id":"D-camp-camp-0076","kind":"Rec site","name":"Loosemore Lake rec site","campsites":3,"water":"Water: unnamed wetland 30 m SW.","nearSpots":22,"closure":null,"spotIds":["D-deer-atv-0040","D-deer-atv-0043","D-deer-atv-0054","D-deer-drive-0071","D-deer-drive-0073","D-deer-drive-0089","D-deer-drive-0091","D-deer-walk-0055","D-deer-walk-0067","D-deer-walk-0109","D-deer-walk-0129","D-duck-drive-0050","D-duck-drive-0101","D-duck-drive-0129","D-duck-drive-0135","D-duck-walk-0010","D-duck-walk-0054","D-grouse-atv-0015","D-grouse-atv-0109","D-grouse-atv-0119","D-grouse-drive-0082","D-moose-atv-0046"],"note":"Official rec site"},"geometry":{"type":"Point","coordinates":[-120.61264,49.75077]}},
{"type":"Feature","properties":{"id":"D-camp-camp-0077","kind":"Rec site","name":"Little Spahomin Lake Trail rec site","campsites":0,"water":"Water: unnamed wetland 30 m NE.","nearSpots":19,"closure":null,"spotIds":["D-deer-atv-0033","D-deer-atv-0035","D-deer-drive-0056","D-deer-walk-0052","D-deer-walk-0071","D-deer-walk-0165","D-duck-drive-0096","D-duck-drive-0113","D-duck-drive-0118","D-duck-walk-0001","D-duck-walk-0053","D-grouse-atv-0003","D-grouse-atv-0030","D-grouse-drive-0003","D-moose-atv-0007","D-moose-drive-0012","D-moose-drive-0028","D-moose-walk-0009","D-moose-walk-0035"],"note":"Official rec site"},"geometry":{"type":"Point","coordinates":[-120.11321,50.05129]}},
{"type":"Feature","properties":{"id":"D-camp-camp-0078","kind":"Rec site","name":"High Lake rec site","campsites":1,"water":"Water: unnamed lake 30 m S.","nearSpots":26,"closure":null,"spotIds":["D-deer-drive-0157","D-deer-walk-0065","D-duck-drive-0053","D-duck-drive-0054","D-duck-drive-0057","D-duck-drive-0121","D-duck-walk-0023","D-duck-walk-0039","D-duck-walk-0120","D-duck-walk-0125","D-duck-walk-0145","D-duck-walk-0150","D-grouse-atv-0020","D-grouse-drive-0013","D-grouse-drive-0036","D-grouse-drive-0062","D-grouse-walk-0019","D-grouse-walk-0023","D-moose-atv-0001","D-moose-atv-0004","D-moose-atv-0013","D-moose-drive-0002","D-moose-walk-0001","D-moose-walk-0075"],"note":"Official rec site"},"geometry":{"type":"Point","coordinates":[-119.23512,50.14921]}},
{"type":"Feature","properties":{"id":"D-camp-camp-0079","kind":"Crown land candidate","name":"220 m N of Christian Creek","campsites":null,"water":"Water: unnamed wetland 180 m S.","nearSpots":14,"closure":null,"spotIds":["D-deer-atv-0119","D-deer-drive-0110","D-deer-drive-0117","D-deer-drive-0126","D-deer-drive-0134","D-deer-walk-0153","D-deer-walk-0160","D-deer-walk-0171","D-duck-drive-0012","D-grouse-atv-0002","D-grouse-drive-0001","D-grouse-drive-0066","D-quail-drive-0028","D-quail-drive-0029"],"note":"Candidate, scout it first (estimate)"},"geometry":{"type":"Point","coordinates":[-118.85058,50.41561]}},
{"type":"Feature","properties":{"id":"D-camp-camp-0080","kind":"Crown land candidate","name":"1.3 km SW of Holstein Creek","campsites":null,"water":"Water: unnamed wetland 190 m SE.","nearSpots":21,"closure":null,"spotIds":["D-deer-atv-0018","D-deer-atv-0125","D-deer-drive-0118","D-deer-drive-0147","D-deer-drive-0152","D-deer-walk-0036","D-deer-walk-0101","D-deer-walk-0149","D-duck-drive-0102","D-duck-drive-0111","D-duck-drive-0124","D-duck-drive-0140","D-duck-drive-0149","D-duck-drive-0150","D-grouse-atv-0073","D-grouse-drive-0092","D-moose-drive-0065","D-moose-drive-0069","D-moose-walk-0096","D-moose-walk-0098","D-quail-walk-0023"],"note":"Candidate, scout it first (estimate)"},"geometry":{"type":"Point","coordinates":[-118.65646,50.3044]}},
{"type":"Feature","properties":{"id":"D-camp-camp-0081","kind":"Crown land candidate","name":"2.1 km S of Allenberg Lakes rec site","campsites":null,"water":"Water: unnamed wetland 60 m W.","nearSpots":19,"closure":null,"spotIds":["D-duck-drive-0020","D-duck-drive-0093","D-duck-drive-0112","D-duck-drive-0119","D-duck-walk-0043","D-duck-walk-0058","D-duck-walk-0063","D-duck-walk-0101","D-grouse-atv-0060","D-grouse-drive-0068","D-grouse-walk-0015","D-grouse-walk-0024","D-grouse-walk-0034","D-moose-atv-0020","D-moose-atv-0021","D-moose-drive-0030","D-moose-walk-0029","D-moose-walk-0036"],"note":"Candidate, scout it first (estimate)"},"geometry":{"type":"Point","coordinates":[-118.77686,50.12533]}},
{"type":"Feature","properties":{"id":"D-camp-camp-0082","kind":"Crown land candidate","name":"2.6 km E of Ellen Lake","campsites":null,"water":"Water: unnamed wetland 130 m E.","nearSpots":16,"closure":null,"spotIds":["D-deer-walk-0173","D-duck-drive-0035","D-duck-drive-0061","D-duck-drive-0095","D-duck-drive-0144","D-duck-walk-0036","D-duck-walk-0044","D-duck-walk-0116","D-grouse-atv-0009","D-grouse-atv-0028","D-grouse-atv-0062","D-grouse-atv-0112","D-moose-drive-0008","D-moose-drive-0009","D-moose-walk-0010"],"note":"Candidate, scout it first (estimate)"},"geometry":{"type":"Point","coordinates":[-119.98189,50.00033]}},
{"type":"Feature","properties":{"id":"D-camp-camp-0083","kind":"Crown land candidate","name":"1.9 km SE of Ellen Lake","campsites":null,"water":"Water: unnamed wetland 40 m NW.","nearSpots":19,"closure":null,"spotIds":["D-deer-walk-0173","D-duck-drive-0035","D-duck-drive-0061","D-duck-drive-0071","D-duck-drive-0095","D-duck-drive-0100","D-duck-drive-0144","D-duck-walk-0022","D-duck-walk-0036","D-duck-walk-0044","D-duck-walk-0116","D-grouse-atv-0028","D-grouse-atv-0062","D-grouse-atv-0112","D-grouse-drive-0034","D-moose-drive-0008","D-moose-drive-0009","D-moose-walk-0010"],"note":"Candidate, scout it first (estimate)"},"geometry":{"type":"Point","coordinates":[-119.99239,49.97384]}},
{"type":"Feature","properties":{"id":"D-camp-camp-0084","kind":"Crown land candidate","name":"570 m W of McDougall Creek","campsites":null,"water":"Water: unnamed wetland 70 m E.","nearSpots":21,"closure":null,"spotIds":["D-deer-atv-0019","D-deer-atv-0160","D-deer-drive-0015","D-deer-drive-0081","D-duck-drive-0138","D-duck-walk-0074","D-duck-walk-0083","D-duck-walk-0139","D-grouse-atv-0036","D-grouse-drive-0006","D-grouse-drive-0078","D-grouse-drive-0097","D-grouse-drive-0109","D-moose-atv-0066","D-moose-drive-0015","D-moose-drive-0058","D-moose-drive-0063","D-moose-walk-0020","D-moose-walk-0072"],"note":"Candidate, scout it first (estimate)"},"geometry":{"type":"Point","coordinates":[-119.64579,49.95066]}},
{"type":"Feature","properties":{"id":"D-camp-camp-0085","kind":"Crown land candidate","name":"800 m E of Sidede Creek","campsites":null,"water":"Water: unnamed wetland 90 m W.","nearSpots":29,"closure":null,"spotIds":["D-deer-drive-0084","D-deer-drive-0128","D-deer-drive-0132","D-deer-drive-0150","D-deer-drive-0155","D-deer-drive-0158","D-deer-walk-0120","D-deer-walk-0156","D-deer-walk-0167","D-deer-walk-0176","D-deer-walk-0177","D-duck-drive-0081","D-duck-drive-0088","D-duck-drive-0104","D-duck-drive-0106","D-duck-drive-0108","D-duck-walk-0035","D-grouse-drive-0043","D-grouse-drive-0063","D-grouse-walk-0033","D-grouse-walk-0104","D-moose-atv-0016","D-moose-drive-0017","D-moose-drive-0020","D-moose-drive-0026","D-moose-drive-0059","D-moose-walk-0021"],"note":"Candidate, scout it first (estimate)"},"geometry":{"type":"Point","coordinates":[-119.26035,49.92668]}},
{"type":"Feature","properties":{"id":"D-camp-camp-0086","kind":"Crown land candidate","name":"2.0 km W of Midday Creek","campsites":null,"water":"Water: unnamed wetland 100 m S.","nearSpots":18,"closure":null,"spotIds":["D-deer-atv-0020","D-deer-atv-0067","D-deer-atv-0091","D-deer-drive-0031","D-deer-drive-0033","D-deer-drive-0042","D-deer-drive-0048","D-deer-drive-0052","D-deer-walk-0041","D-deer-walk-0053","D-deer-walk-0102","D-duck-drive-0013","D-duck-walk-0018","D-duck-walk-0112","D-grouse-atv-0071","D-moose-atv-0074","D-moose-drive-0072","D-moose-walk-0100"],"note":"Candidate, scout it first (estimate)"},"geometry":{"type":"Point","coordinates":[-121.00541,50.01838]}},
{"type":"Feature","properties":{"id":"D-camp-camp-0087","kind":"Crown land candidate","name":"By West Kettle River","campsites":null,"water":"Water: unnamed wetland right here.","nearSpots":17,"closure":null,"spotIds":["D-duck-drive-0115","D-duck-drive-0155","D-duck-walk-0122","D-duck-walk-0126","D-duck-walk-0134","D-duck-walk-0151","D-grouse-drive-0059","D-grouse-walk-0032","D-grouse-walk-0071","D-grouse-walk-0078","D-grouse-walk-0083","D-grouse-walk-0089","D-moose-atv-0032","D-moose-drive-0038","D-moose-drive-0039","D-moose-walk-0051","D-moose-walk-0052"],"note":"Candidate, scout it first (estimate)"},"geometry":{"type":"Point","coordinates":[-118.90192,49.8832]}},
{"type":"Feature","properties":{"id":"D-camp-camp-0088","kind":"Crown land candidate","name":"1.4 km NE of Grouse Creek","campsites":null,"water":"Water: unnamed wetland 150 m S.","nearSpots":18,"closure":null,"spotIds":["D-deer-atv-0011","D-deer-atv-0012","D-deer-drive-0014","D-deer-drive-0024","D-deer-drive-0028","D-deer-walk-0029","D-duck-drive-0019","D-duck-drive-0038","D-duck-drive-0046","D-duck-drive-0086","D-duck-walk-0088","D-grouse-drive-0016","D-grouse-walk-0001","D-grouse-walk-0045","D-grouse-walk-0049","D-moose-atv-0050","D-moose-atv-0075","D-moose-walk-0056"],"note":"Candidate, scout it first (estimate)"},"geometry":{"type":"Point","coordinates":[-119.17597,49.84556]}},
{"type":"Feature","properties":{"id":"D-camp-camp-0089","kind":"Crown land candidate","name":"1.7 km W of Wilson Lake","campsites":null,"water":"Water: unnamed lake 160 m SE.","nearSpots":14,"closure":null,"spotIds":["D-deer-atv-0075","D-deer-atv-0076","D-deer-atv-0096","D-deer-atv-0126","D-deer-drive-0049","D-deer-drive-0058","D-deer-drive-0082","D-deer-drive-0088","D-deer-walk-0130","D-duck-drive-0078","D-duck-drive-0163","D-grouse-atv-0033","D-grouse-atv-0093"],"note":"Candidate, scout it first (estimate)"},"geometry":{"type":"Point","coordinates":[-119.90133,49.83885]}},
{"type":"Feature","properties":{"id":"D-camp-camp-0090","kind":"Crown land candidate","name":"1.0 km NE of Kallis Creek","campsites":null,"water":"Water: unnamed wetland 90 m SW.","nearSpots":21,"closure":null,"spotIds":["D-duck-drive-0006","D-duck-drive-0010","D-duck-drive-0019","D-duck-drive-0032","D-duck-drive-0064","D-duck-drive-0086","D-duck-walk-0008","D-duck-walk-0013","D-duck-walk-0088","D-duck-walk-0153","D-grouse-drive-0022","D-grouse-walk-0001","D-grouse-walk-0029","D-grouse-walk-0060","D-grouse-walk-0066","D-grouse-walk-0095","D-moose-atv-0009","D-moose-atv-0019","D-moose-drive-0011","D-moose-drive-0029","D-moose-walk-0013"],"note":"Candidate, scout it first (estimate)"},"geometry":{"type":"Point","coordinates":[-119.12658,49.77469]}},
{"type":"Feature","properties":{"id":"D-camp-camp-0091","kind":"Crown land candidate","name":"660 m W of Coley Creek","campsites":null,"water":"Water: unnamed wetland 100 m E.","nearSpots":14,"closure":null,"spotIds":["D-deer-atv-0001","D-deer-atv-0004","D-deer-atv-0029","D-deer-atv-0051","D-deer-walk-0004","D-deer-walk-0011","D-deer-walk-0023","D-deer-walk-0024","D-deer-walk-0030","D-grouse-atv-0007","D-moose-drive-0048","D-moose-walk-0033","D-moose-walk-0060","D-moose-walk-0061"],"note":"Candidate, scout it first (estimate)"},"geometry":{"type":"Point","coordinates":[-120.81968,49.8556]}},
{"type":"Feature","properties":{"id":"D-camp-camp-0092","kind":"Crown land candidate","name":"1.2 km SE of Mystery Lake","campsites":null,"water":"Water: unnamed wetland 140 m NE.","nearSpots":21,"closure":null,"spotIds":["D-deer-atv-0040","D-deer-atv-0043","D-deer-atv-0054","D-deer-atv-0062","D-deer-drive-0062","D-deer-drive-0066","D-deer-drive-0071","D-deer-drive-0076","D-deer-drive-0080","D-deer-walk-0055","D-deer-walk-0067","D-deer-walk-0077","D-deer-walk-0099","D-duck-drive-0082","D-duck-drive-0110","D-duck-drive-0129","D-duck-drive-0135","D-grouse-atv-0109","D-grouse-atv-0119","D-grouse-drive-0081","D-moose-drive-0054"],"note":"Candidate, scout it first (estimate)"},"geometry":{"type":"Point","coordinates":[-120.55067,49.71443]}},
{"type":"Feature","properties":{"id":"D-camp-camp-0093","kind":"Crown land candidate","name":"1.9 km SW of Grizzly Hill","campsites":null,"water":"Water: unnamed wetland 180 m E.","nearSpots":13,"closure":null,"spotIds":["D-duck-drive-0068","D-duck-drive-0075","D-duck-walk-0065","D-duck-walk-0069","D-duck-walk-0077","D-duck-walk-0136","D-grouse-atv-0022","D-grouse-drive-0077","D-grouse-walk-0021","D-moose-atv-0005","D-moose-drive-0005","D-moose-drive-0006","D-moose-walk-0006"],"note":"Candidate, scout it first (estimate)"},"geometry":{"type":"Point","coordinates":[-119.12848,50.04042]}},
{"type":"Feature","properties":{"id":"D-camp-camp-0094","kind":"Crown land candidate","name":"140 m SW of Oluk Creek","campsites":null,"water":"Water: unnamed lake 110 m NE.","nearSpots":16,"closure":null,"spotIds":["D-deer-atv-0006","D-deer-atv-0041","D-deer-atv-0061","D-deer-atv-0078","D-deer-atv-0085","D-deer-atv-0086","D-deer-drive-0044","D-deer-drive-0057","D-deer-walk-0016","D-deer-walk-0047","D-deer-walk-0086","D-deer-walk-0148","D-duck-drive-0154","D-duck-walk-0018","D-grouse-atv-0023","D-moose-drive-0079"],"note":"Candidate, scout it first (estimate)"},"geometry":{"type":"Point","coordinates":[-120.8962,50.05661]}},
{"type":"Feature","properties":{"id":"D-camp-camp-0095","kind":"Crown land candidate","name":"4.1 km SE of Davis Lake rec site","campsites":null,"water":"Water: unnamed wetland 110 m NE.","nearSpots":13,"closure":null,"spotIds":["D-deer-atv-0044","D-deer-atv-0079","D-deer-drive-0077","D-deer-walk-0057","D-duck-drive-0055","D-grouse-atv-0095","D-grouse-drive-0011","D-grouse-drive-0015","D-moose-atv-0037","D-moose-atv-0038","D-moose-drive-0046","D-moose-drive-0049","D-moose-walk-0063"],"note":"Candidate, scout it first (estimate)"},"geometry":{"type":"Point","coordinates":[-120.67698,49.84784]}},
{"type":"Feature","properties":{"id":"D-camp-camp-0096","kind":"Crown land candidate","name":"610 m N of Siwash Lake","campsites":null,"water":"Water: unnamed wetland 110 m S.","nearSpots":11,"closure":null,"spotIds":["D-duck-drive-0059","D-duck-drive-0132","D-grouse-atv-0014","D-grouse-drive-0032","D-moose-drive-0042","D-moose-drive-0043","D-moose-drive-0044","D-moose-drive-0045","D-moose-walk-0032","D-moose-walk-0059"],"note":"Candidate, scout it first (estimate)"},"geometry":{"type":"Point","coordinates":[-120.2974,49.85032]}},
{"type":"Feature","properties":{"id":"D-camp-camp-0097","kind":"Crown land candidate","name":"1.7 km NE of Tepee Lakes","campsites":null,"water":"Water: unnamed wetland 20 m NE.","nearSpots":12,"closure":null,"spotIds":["D-duck-drive-0085","D-duck-walk-0003","D-duck-walk-0057","D-duck-walk-0078","D-duck-walk-0095","D-duck-walk-0140","D-grouse-atv-0059","D-grouse-atv-0070","D-grouse-drive-0045","D-grouse-drive-0051","D-moose-walk-0062","D-moose-walk-0064"],"note":"Candidate, scout it first (estimate)"},"geometry":{"type":"Point","coordinates":[-120.23654,49.80202]}},
{"type":"Feature","properties":{"id":"D-camp-camp-0098","kind":"Crown land candidate","name":"840 m W of Deafies Creek","campsites":null,"water":"Water: unnamed wetland 120 m NE.","nearSpots":14,"closure":null,"spotIds":["D-deer-atv-0105","D-deer-atv-0112","D-deer-drive-0130","D-deer-walk-0152","D-duck-drive-0136","D-duck-drive-0143","D-grouse-atv-0052","D-grouse-atv-0065","D-grouse-drive-0055","D-moose-atv-0069","D-moose-drive-0077","D-moose-walk-0087","D-quail-walk-0013","D-quail-walk-0021"],"note":"Candidate, scout it first (estimate)"},"geometry":{"type":"Point","coordinates":[-119.01876,50.30716]}},
{"type":"Feature","properties":{"id":"D-camp-camp-0099","kind":"Crown land candidate","name":"130 m N of Frank Ward Creek","campsites":null,"water":"Water: unnamed wetland 110 m S.","nearSpots":14,"closure":null,"spotIds":["D-deer-drive-0096","D-deer-drive-0102","D-duck-drive-0045","D-duck-drive-0089","D-duck-drive-0109","D-duck-drive-0122","D-duck-drive-0125","D-duck-walk-0076","D-duck-walk-0143","D-grouse-atv-0013","D-grouse-drive-0018","D-moose-drive-0018","D-moose-walk-0015"],"note":"Candidate, scout it first (estimate)"},"geometry":{"type":"Point","coordinates":[-119.89132,50.16405]}},
{"type":"Feature","properties":{"id":"D-camp-camp-0100","kind":"Crown land candidate","name":"1.2 km SW of Powers Creek","campsites":null,"water":"Water: unnamed wetland 70 m NE.","nearSpots":14,"closure":null,"spotIds":["D-deer-drive-0143","D-deer-walk-0113","D-duck-drive-0126","D-duck-drive-0131","D-duck-walk-0127","D-grouse-atv-0105","D-grouse-atv-0115","D-grouse-drive-0061","D-moose-atv-0014","D-moose-drive-0013","D-moose-drive-0015","D-moose-walk-0016","D-moose-walk-0020"],"note":"Candidate, scout it first (estimate)"},"geometry":{"type":"Point","coordinates":[-119.72465,49.91639]}},
{"type":"Feature","properties":{"id":"D-camp-camp-0101","kind":"Crown land candidate","name":"5.9 km N of Lake of the Woods","campsites":null,"water":"Water: unnamed lake 150 m S.","nearSpots":12,"closure":null,"spotIds":["D-deer-atv-0151","D-deer-atv-0156","D-deer-atv-0159","D-deer-drive-0169","D-deer-drive-0170","D-deer-walk-0180","D-deer-walk-0184","D-deer-walk-0189","D-deer-walk-0205","D-duck-drive-0151","D-grouse-atv-0094","D-grouse-drive-0120"],"note":"Candidate, scout it first (estimate)"},"geometry":{"type":"Point","coordinates":[-120.45131,50.08732]}},
{"type":"Feature","properties":{"id":"D-camp-camp-0102","kind":"Crown land candidate","name":"1.6 km NW of DeWolf Lake","campsites":null,"water":"Water: unnamed wetland 130 m SW.","nearSpots":15,"closure":null,"spotIds":["D-deer-atv-0100","D-duck-drive-0083","D-duck-drive-0097","D-duck-drive-0105","D-duck-walk-0068","D-duck-walk-0073","D-duck-walk-0117","D-grouse-atv-0037","D-grouse-atv-0049","D-grouse-drive-0010","D-moose-atv-0052","D-moose-atv-0061","D-moose-drive-0051","D-moose-drive-0052"],"note":"Candidate, scout it first (estimate)"},"geometry":{"type":"Point","coordinates":[-120.40918,49.71176]}},
{"type":"Feature","properties":{"id":"D-camp-camp-0103","kind":"Crown land candidate","name":"1.9 km SE of Manning Creek","campsites":null,"water":"Water: unnamed lake 90 m NW.","nearSpots":14,"closure":null,"spotIds":["D-deer-drive-0012","D-deer-drive-0027","D-deer-walk-0022","D-deer-walk-0027","D-deer-walk-0035","D-deer-walk-0038","D-deer-walk-0132","D-deer-walk-0133","D-deer-walk-0166","D-grouse-atv-0100","D-grouse-atv-0117","D-grouse-drive-0088"],"note":"Candidate, scout it first (estimate)"},"geometry":{"type":"Point","coordinates":[-121.16636,50.18867]}},
{"type":"Feature","properties":{"id":"D-camp-camp-0104","kind":"Crown land candidate","name":"1.5 km SE of Ribbleworth Creek","campsites":null,"water":"Water: unnamed wetland 150 m S.","nearSpots":12,"closure":null,"spotIds":["D-deer-atv-0059","D-deer-atv-0082","D-deer-atv-0127","D-deer-drive-0030","D-deer-drive-0045","D-deer-drive-0100","D-deer-drive-0157","D-deer-walk-0042","D-deer-walk-0151","D-duck-walk-0009","D-grouse-drive-0053","D-grouse-walk-0077"],"note":"Candidate, scout it first (estimate)"},"geometry":{"type":"Point","coordinates":[-119.31931,50.08743]}},
{"type":"Feature","properties":{"id":"D-camp-camp-0105","kind":"Crown land candidate","name":"1.0 km S of Quilchena Creek","campsites":null,"water":"Water: unnamed wetland 150 m E.","nearSpots":13,"closure":null,"spotIds":["D-duck-drive-0079","D-duck-drive-0165","D-duck-walk-0047","D-duck-walk-0084","D-grouse-atv-0031","D-grouse-atv-0041","D-grouse-atv-0047","D-grouse-drive-0002","D-moose-atv-0031","D-moose-drive-0036","D-moose-drive-0037","D-moose-drive-0067","D-moose-walk-0053"],"note":"Candidate, scout it first (estimate)"},"geometry":{"type":"Point","coordinates":[-120.32165,49.98058]}},
{"type":"Feature","properties":{"id":"D-camp-camp-0106","kind":"Crown land candidate","name":"4.0 km NW of Murray Lake North rec site","campsites":null,"water":"Water: unnamed wetland 40 m N.","nearSpots":9,"closure":null,"spotIds":["D-deer-atv-0017","D-deer-drive-0013","D-deer-drive-0025","D-deer-drive-0026","D-duck-drive-0141","D-duck-drive-0160","D-grouse-atv-0025","D-grouse-atv-0045","D-grouse-drive-0071"],"note":"Candidate, scout it first (estimate)"},"geometry":{"type":"Point","coordinates":[-121.03697,49.83143]}},
{"type":"Feature","properties":{"id":"D-camp-camp-0107","kind":"Crown land candidate","name":"2.2 km NW of Goatskin Creek","campsites":null,"water":"Water: unnamed wetland 40 m NW.","nearSpots":13,"closure":null,"spotIds":["D-duck-drive-0158","D-duck-walk-0129","D-grouse-atv-0042","D-grouse-drive-0086","D-grouse-drive-0089","D-moose-atv-0035","D-moose-atv-0036","D-moose-drive-0040","D-moose-drive-0041","D-moose-drive-0081","D-moose-walk-0055","D-moose-walk-0057"],"note":"Candidate, scout it first (estimate)"},"geometry":{"type":"Point","coordinates":[-118.6171,49.77659]}},
{"type":"Feature","properties":{"id":"D-camp-camp-0108","kind":"Crown land candidate","name":"850 m E of Baldie Creek","campsites":null,"water":"Water: unnamed lake 150 m E.","nearSpots":14,"closure":null,"spotIds":["D-deer-atv-0031","D-deer-atv-0045","D-deer-atv-0147","D-deer-drive-0037","D-deer-drive-0038","D-deer-drive-0067","D-deer-drive-0099","D-deer-drive-0160","D-deer-walk-0043","D-deer-walk-0045","D-deer-walk-0050","D-grouse-drive-0070","D-moose-drive-0082","D-moose-walk-0101"],"note":"Candidate, scout it first (estimate)"},"geometry":{"type":"Point","coordinates":[-120.94025,50.17671]}},
{"type":"Feature","properties":{"id":"D-camp-camp-0109","kind":"Crown land candidate","name":"1.2 km SE of Mission Creek","campsites":null,"water":"Water: unnamed wetland 100 m SW.","nearSpots":12,"closure":null,"spotIds":["D-duck-walk-0148","D-grouse-atv-0043","D-grouse-atv-0087","D-grouse-drive-0110","D-grouse-drive-0118","D-grouse-walk-0003","D-grouse-walk-0006","D-grouse-walk-0039","D-grouse-walk-0040","D-grouse-walk-0057","D-grouse-walk-0098","D-moose-drive-0076"],"note":"Candidate, scout it first (estimate)"},"geometry":{"type":"Point","coordinates":[-118.99297,49.97311]}},
{"type":"Feature","properties":{"id":"D-camp-camp-0110","kind":"Crown land candidate","name":"1.7 km S of Loon Lake","campsites":null,"water":"Water: unnamed lake 140 m W.","nearSpots":19,"closure":null,"spotIds":["D-deer-atv-0066","D-deer-atv-0072","D-deer-atv-0145","D-deer-drive-0068","D-deer-drive-0166","D-deer-walk-0124","D-deer-walk-0178","D-deer-walk-0187","D-duck-drive-0040","D-duck-drive-0049","D-duck-drive-0060","D-duck-drive-0067","D-duck-walk-0087","D-duck-walk-0100","D-duck-walk-0131","D-grouse-atv-0026","D-grouse-drive-0108","D-grouse-drive-0117","D-moose-drive-0050"],"note":"Candidate, scout it first (estimate)"},"geometry":{"type":"Point","coordinates":[-120.52459,49.87458]}},
{"type":"Feature","properties":{"id":"D-camp-camp-0111","kind":"Crown land candidate","name":"By Spius Creek","campsites":null,"water":"Water: Spius Creek 80 m S.","nearSpots":4,"closure":null,"spotIds":["D-grouse-drive-0099","D-grouse-walk-0108","D-moose-atv-0058","D-moose-walk-0088"],"note":"Candidate, scout it first (estimate)"},"geometry":{"type":"Point","coordinates":[-121.13729,49.93599]}},
{"type":"Feature","properties":{"id":"D-camp-camp-0112","kind":"Rec site","name":"Shea Lake rec site","campsites":10,"water":"Water: Shea Lake 20 m W.","nearSpots":24,"closure":null,"spotIds":["D-deer-atv-0044","D-deer-atv-0048","D-deer-atv-0051","D-deer-atv-0079","D-deer-atv-0081","D-deer-drive-0006","D-deer-drive-0029","D-deer-walk-0023","D-deer-walk-0057","D-deer-walk-0066","D-duck-drive-0018","D-duck-drive-0031","D-duck-drive-0055","D-duck-walk-0115","D-duck-walk-0124","D-grouse-atv-0054","D-grouse-atv-0066","D-grouse-atv-0095","D-grouse-drive-0044","D-moose-atv-0038","D-moose-drive-0046","D-moose-walk-0054"],"note":"Official rec site"},"geometry":{"type":"Point","coordinates":[-120.73448,49.89988]}},
{"type":"Feature","properties":{"id":"D-camp-camp-0113","kind":"Rec site","name":"Boss Lake rec site","campsites":43,"water":"Water: Boss Lake 50 m SW.","nearSpots":20,"closure":null,"spotIds":["D-deer-atv-0044","D-deer-atv-0051","D-deer-atv-0079","D-deer-drive-0006","D-deer-walk-0023","D-deer-walk-0057","D-deer-walk-0066","D-duck-drive-0018","D-duck-drive-0031","D-duck-drive-0055","D-duck-walk-0115","D-duck-walk-0124","D-grouse-atv-0007","D-grouse-atv-0095","D-grouse-drive-0015","D-grouse-drive-0044","D-moose-atv-0038","D-moose-drive-0046","D-moose-walk-0060"],"note":"Official rec site"},"geometry":{"type":"Point","coordinates":[-120.74133,49.87546]}},
{"type":"Feature","properties":{"id":"D-camp-camp-0114","kind":"Rec site","name":"Becker Lake rec site","campsites":7,"water":"Water: Becker Lake 20 m SW.","nearSpots":9,"closure":null,"spotIds":["D-deer-atv-0118","D-deer-drive-0064","D-deer-drive-0140","D-deer-drive-0153","D-deer-walk-0074","D-deer-walk-0075","D-deer-walk-0155","D-grouse-atv-0057","D-quail-atv-0005"],"note":"Official rec site"},"geometry":{"type":"Point","coordinates":[-119.15491,50.26194]}},
{"type":"Feature","properties":{"id":"D-camp-camp-0115","kind":"Rec site","name":"Bardolph Lake rec site","campsites":3,"water":"Water: Bardolph Lake 30 m S.","nearSpots":13,"closure":null,"spotIds":["D-deer-atv-0105","D-deer-atv-0107","D-deer-atv-0112","D-deer-atv-0118","D-deer-walk-0142","D-deer-walk-0158","D-grouse-atv-0052","D-grouse-atv-0057","D-grouse-atv-0065","D-grouse-drive-0112","D-moose-atv-0069","D-quail-atv-0005","D-quail-drive-0016"],"note":"Official rec site"},"geometry":{"type":"Point","coordinates":[-119.05705,50.26992]}},
{"type":"Feature","properties":{"id":"D-camp-camp-0116","kind":"Rec site","name":"King Edward Lake North rec site","campsites":3,"water":"Water: King Edward Lake right here.","nearSpots":24,"closure":null,"spotIds":["D-deer-walk-0065","D-duck-drive-0053","D-duck-drive-0054","D-duck-drive-0057","D-duck-walk-0023","D-duck-walk-0039","D-duck-walk-0120","D-duck-walk-0125","D-duck-walk-0145","D-duck-walk-0150","D-grouse-atv-0020","D-grouse-drive-0013","D-grouse-drive-0036","D-grouse-drive-0062","D-grouse-walk-0019","D-grouse-walk-0023","D-moose-atv-0001","D-moose-atv-0004","D-moose-atv-0013","D-moose-drive-0002","D-moose-walk-0001","D-moose-walk-0075"],"note":"Official rec site"},"geometry":{"type":"Point","coordinates":[-119.21821,50.15472]}},
{"type":"Feature","properties":{"id":"D-camp-camp-0117","kind":"Rec site","name":"Marquart Lake rec site","campsites":13,"water":"Water: Marquart Lake 40 m SW.","nearSpots":31,"closure":null,"spotIds":["D-deer-atv-0010","D-deer-atv-0039","D-deer-atv-0058","D-deer-atv-0080","D-deer-atv-0136","D-deer-drive-0016","D-deer-drive-0078","D-deer-drive-0079","D-deer-drive-0090","D-deer-drive-0127","D-deer-walk-0005","D-deer-walk-0058","D-deer-walk-0070","D-deer-walk-0095","D-deer-walk-0097","D-deer-walk-0098","D-deer-walk-0105","D-deer-walk-0128","D-duck-drive-0024","D-duck-drive-0063","D-duck-drive-0094","D-duck-walk-0107","D-duck-walk-0149","D-grouse-atv-0113","D-grouse-drive-0104","D-grouse-drive-0111","D-grouse-walk-0072","D-moose-atv-0026","D-moose-atv-0027","D-moose-walk-0043"],"note":"Official rec site"},"geometry":{"type":"Point","coordinates":[-120.64064,50.07978]}},
{"type":"Feature","properties":{"id":"D-camp-camp-0118","kind":"Rec site","name":"Nicklen Lake West rec site","campsites":6,"water":"Water: Nicklen Lake 60 m S.","nearSpots":17,"closure":null,"spotIds":["D-deer-drive-0136","D-deer-walk-0168","D-deer-walk-0169","D-duck-drive-0062","D-duck-drive-0076","D-duck-drive-0156","D-duck-walk-0020","D-duck-walk-0060","D-duck-walk-0093","D-grouse-atv-0001","D-grouse-drive-0026","D-grouse-drive-0033","D-moose-atv-0002","D-moose-atv-0003","D-moose-drive-0003","D-moose-drive-0004","D-moose-walk-0005"],"note":"Official rec site"},"geometry":{"type":"Point","coordinates":[-119.01064,50.13595]}},
{"type":"Feature","properties":{"id":"D-camp-camp-0119","kind":"Rec site","name":"Goat Mtn. Lake rec site","campsites":3,"water":"Water: Goat Mountain Lake right here.","nearSpots":19,"closure":null,"spotIds":["D-deer-atv-0129","D-deer-walk-0103","D-deer-walk-0131","D-duck-drive-0076","D-duck-drive-0156","D-duck-walk-0020","D-duck-walk-0093","D-grouse-atv-0001","D-grouse-atv-0085","D-grouse-drive-0026","D-grouse-drive-0037","D-grouse-drive-0039","D-grouse-walk-0010","D-moose-atv-0002","D-moose-atv-0003","D-moose-atv-0022","D-moose-drive-0003","D-moose-drive-0004","D-moose-walk-0005"],"note":"Official rec site"},"geometry":{"type":"Point","coordinates":[-118.95644,50.12598]}},
{"type":"Feature","properties":{"id":"D-camp-camp-0120","kind":"Rec site","name":"Aberdeen Lake rec site","campsites":2,"water":"Water: Aberdeen Lake 20 m NW.","nearSpots":8,"closure":null,"spotIds":["D-deer-drive-0136","D-duck-drive-0062","D-duck-walk-0020","D-duck-walk-0040","D-duck-walk-0060","D-grouse-drive-0033","D-moose-atv-0002","D-moose-atv-0003"],"note":"Official rec site"},"geometry":{"type":"Point","coordinates":[-119.05636,50.11207]}},
{"type":"Feature","properties":{"id":"D-camp-camp-0121","kind":"Rec site","name":"Haddo Lake rec site","campsites":8,"water":"Water: Haddo Lake 30 m SE.","nearSpots":5,"closure":null,"spotIds":["D-duck-walk-0006","D-duck-walk-0020","D-duck-walk-0040","D-duck-walk-0060","D-grouse-atv-0006"],"note":"Official rec site"},"geometry":{"type":"Point","coordinates":[-119.07852,50.10207]}},
{"type":"Feature","properties":{"id":"D-camp-camp-0122","kind":"Rec site","name":"Streak Lake rec site","campsites":4,"water":"Water: Streak Lake right here.","nearSpots":27,"closure":null,"spotIds":["D-deer-drive-0157","D-deer-walk-0065","D-duck-drive-0053","D-duck-drive-0054","D-duck-drive-0057","D-duck-drive-0121","D-duck-walk-0023","D-duck-walk-0039","D-duck-walk-0097","D-duck-walk-0120","D-duck-walk-0125","D-duck-walk-0145","D-duck-walk-0150","D-grouse-atv-0020","D-grouse-drive-0013","D-grouse-drive-0036","D-grouse-drive-0053","D-grouse-drive-0062","D-grouse-walk-0019","D-grouse-walk-0023","D-moose-atv-0004","D-moose-atv-0013","D-moose-drive-0002","D-moose-walk-0001","D-moose-walk-0075"],"note":"Official rec site"},"geometry":{"type":"Point","coordinates":[-119.23467,50.13271]}},
{"type":"Feature","properties":{"id":"D-camp-camp-0123","kind":"Rec site","name":"Damer Lake rec site","campsites":3,"water":"Water: Damer Lake 30 m S.","nearSpots":25,"closure":null,"spotIds":["D-deer-atv-0059","D-deer-atv-0127","D-deer-drive-0030","D-deer-drive-0157","D-deer-walk-0065","D-duck-drive-0053","D-duck-drive-0054","D-duck-drive-0057","D-duck-drive-0121","D-duck-walk-0120","D-duck-walk-0125","D-duck-walk-0145","D-duck-walk-0150","D-grouse-atv-0020","D-grouse-drive-0013","D-grouse-drive-0036","D-grouse-drive-0053","D-grouse-walk-0019","D-grouse-walk-0023","D-moose-atv-0004","D-moose-atv-0013","D-moose-walk-0001","D-moose-walk-0075"],"note":"Official rec site"},"geometry":{"type":"Point","coordinates":[-119.26762,50.14348]}},
{"type":"Feature","properties":{"id":"D-camp-camp-0124","kind":"Rec site","name":"Stoney Lake rec site","campsites":3,"water":"Water: Stony Lake right here.","nearSpots":17,"closure":null,"spotIds":["D-deer-atv-0047","D-deer-atv-0068","D-deer-atv-0097","D-deer-drive-0089","D-deer-walk-0118","D-deer-walk-0119","D-deer-walk-0129","D-duck-drive-0050","D-duck-drive-0145","D-duck-walk-0015","D-duck-walk-0111","D-duck-walk-0130","D-duck-walk-0138","D-grouse-atv-0015","D-moose-atv-0046","D-moose-atv-0047","D-moose-drive-0053"],"note":"Official rec site"},"geometry":{"type":"Point","coordinates":[-120.70624,49.74314]}},
{"type":"Feature","properties":{"id":"D-camp-camp-0125","kind":"Rec site","name":"MOORE (BULLMAN) LAKE Moore (Bullman) Lake rec site","campsites":4,"water":"Water: Moore Lake 90 m N.","nearSpots":15,"closure":null,"spotIds":["D-duck-drive-0016","D-duck-walk-0026","D-duck-walk-0070","D-duck-walk-0133","D-duck-walk-0156","D-grouse-atv-0022","D-grouse-drive-0057","D-grouse-walk-0005","D-grouse-walk-0105","D-moose-atv-0006","D-moose-atv-0011","D-moose-atv-0017","D-moose-drive-0019","D-moose-walk-0007","D-moose-walk-0019"],"note":"Official rec site"},"geometry":{"type":"Point","coordinates":[-119.22755,50.01875]}},
{"type":"Feature","properties":{"id":"D-camp-camp-0126","kind":"Rec site","name":"Ideal Lake rec site","campsites":7,"water":"Water: Ideal Lake 70 m N.","nearSpots":7,"closure":null,"spotIds":["D-duck-walk-0069","D-duck-walk-0136","D-grouse-drive-0077","D-grouse-walk-0021","D-moose-atv-0005","D-moose-drive-0006","D-moose-walk-0006"],"note":"Official rec site"},"geometry":{"type":"Point","coordinates":[-119.09135,50.012]}},
{"type":"Feature","properties":{"id":"D-camp-camp-0127","kind":"Rec site","name":"Browne Lake rec site","campsites":5,"water":"Water: Browne Lake 20 m W.","nearSpots":19,"closure":null,"spotIds":["D-duck-drive-0019","D-duck-drive-0038","D-duck-drive-0046","D-duck-drive-0064","D-duck-drive-0086","D-duck-walk-0008","D-duck-walk-0088","D-duck-walk-0121","D-grouse-drive-0016","D-grouse-walk-0001","D-grouse-walk-0045","D-grouse-walk-0049","D-grouse-walk-0061","D-grouse-walk-0066","D-grouse-walk-0085","D-moose-atv-0050","D-moose-atv-0075","D-moose-drive-0029","D-moose-walk-0056"],"note":"Official rec site"},"geometry":{"type":"Point","coordinates":[-119.18318,49.81815]}},
{"type":"Feature","properties":{"id":"D-camp-camp-0128","kind":"Rec site","name":"Gwen Lake rec site","campsites":2,"water":"Water: Gwen Lake 60 m NE.","nearSpots":15,"closure":null,"spotIds":["D-deer-atv-0024","D-deer-atv-0025","D-deer-drive-0041","D-deer-walk-0048","D-deer-walk-0059","D-deer-walk-0107","D-duck-drive-0017","D-duck-drive-0023","D-duck-walk-0108","D-moose-drive-0034","D-moose-drive-0035","D-moose-walk-0030","D-moose-walk-0049"],"note":"Official rec site"},"geometry":{"type":"Point","coordinates":[-120.76133,50.00397]}},
{"type":"Feature","properties":{"id":"D-camp-camp-0129","kind":"Rec site","name":"Bluey Lake rec site","campsites":10,"water":"Water: Bluey Lake 50 m SE.","nearSpots":17,"closure":null,"spotIds":["D-deer-atv-0066","D-deer-atv-0072","D-deer-atv-0137","D-deer-atv-0145","D-deer-atv-0152","D-deer-drive-0068","D-deer-drive-0166","D-deer-walk-0124","D-deer-walk-0178","D-deer-walk-0187","D-duck-drive-0040","D-duck-drive-0049","D-duck-walk-0087","D-duck-walk-0131","D-grouse-atv-0104","D-grouse-drive-0108","D-grouse-drive-0117"],"note":"Official rec site"},"geometry":{"type":"Point","coordinates":[-120.56775,49.87148]}},
{"type":"Feature","properties":{"id":"D-camp-camp-0130","kind":"Rec site","name":"Boot Lake rec site","campsites":4,"water":"Water: Boot Lake 60 m N.","nearSpots":11,"closure":null,"spotIds":["D-duck-drive-0051","D-duck-drive-0079","D-duck-walk-0066","D-duck-walk-0085","D-grouse-atv-0008","D-grouse-atv-0041","D-grouse-atv-0047","D-grouse-drive-0049","D-moose-atv-0031","D-moose-drive-0055","D-moose-walk-0053"],"note":"Official rec site"},"geometry":{"type":"Point","coordinates":[-120.33371,49.93502]}},
{"type":"Feature","properties":{"id":"D-camp-camp-0131","kind":"Rec site","name":"Murray Lake South rec site","campsites":3,"water":"Water: Murray Lake 20 m NW.","nearSpots":12,"closure":null,"spotIds":["D-deer-drive-0013","D-deer-drive-0025","D-deer-drive-0094","D-deer-drive-0149","D-deer-walk-0025","D-deer-walk-0208","D-duck-drive-0077","D-duck-drive-0146","D-duck-drive-0152","D-duck-drive-0160","D-grouse-drive-0027","D-grouse-drive-0091"],"note":"Official rec site"},"geometry":{"type":"Point","coordinates":[-121.00698,49.78324]}},
{"type":"Feature","properties":{"id":"D-camp-camp-0132","kind":"Rec site","name":"Haggkvist Lake rec site","campsites":1,"water":"Water: unnamed lake right here.","nearSpots":9,"closure":null,"spotIds":["D-deer-atv-0115","D-deer-drive-0122","D-deer-drive-0123","D-deer-walk-0157","D-duck-drive-0056","D-duck-drive-0149","D-duck-walk-0004","D-grouse-atv-0055"],"note":"Official rec site"},"geometry":{"type":"Point","coordinates":[-118.64321,50.38365]}},
{"type":"Feature","properties":{"id":"D-camp-camp-0133","kind":"Rec site","name":"Holstein Lake rec site","campsites":2,"water":"Water: Holstein Lake 30 m S.","nearSpots":12,"closure":null,"spotIds":["D-deer-drive-0129","D-duck-drive-0102","D-duck-drive-0111","D-duck-drive-0124","D-duck-drive-0140","D-duck-drive-0149","D-duck-drive-0150","D-grouse-drive-0092","D-moose-drive-0065","D-moose-drive-0069","D-moose-walk-0096","D-moose-walk-0098"],"note":"Official rec site"},"geometry":{"type":"Point","coordinates":[-118.68078,50.32768]}},
{"type":"Feature","properties":{"id":"D-camp-camp-0134","kind":"Rec site","name":"Vinson Lake rec site","campsites":0,"water":"Water: Vinson Lake 100 m NW.","nearSpots":12,"closure":null,"spotIds":["D-duck-drive-0030","D-duck-drive-0041","D-duck-drive-0069","D-duck-drive-0074","D-duck-walk-0034","D-duck-walk-0045","D-duck-walk-0144","D-grouse-atv-0040","D-grouse-drive-0012","D-grouse-drive-0025","D-grouse-drive-0038","D-moose-atv-0040"],"note":"Official rec site"},"geometry":{"type":"Point","coordinates":[-120.43156,49.80302]}},
{"type":"Feature","properties":{"id":"D-camp-camp-0135","kind":"Rec site","name":"Sigalet Lake rec site","campsites":2,"water":"Water: unnamed lake right here.","nearSpots":7,"closure":null,"spotIds":["D-deer-atv-0115","D-deer-drive-0122","D-duck-drive-0056","D-duck-drive-0149","D-duck-walk-0004","D-grouse-atv-0055","D-moose-walk-0096"],"note":"Official rec site"},"geometry":{"type":"Point","coordinates":[-118.63962,50.37216]}},
{"type":"Feature","properties":{"id":"D-camp-camp-0136","kind":"Rec site","name":"Winnifred Creek rec site","campsites":1,"water":"Water: Winnifred Creek 20 m S.","nearSpots":5,"closure":null,"spotIds":["D-duck-drive-0153","D-grouse-atv-0032","D-grouse-atv-0078","D-moose-atv-0073","D-moose-walk-0050"],"note":"Official rec site"},"geometry":{"type":"Point","coordinates":[-118.69462,49.90725]}},
{"type":"Feature","properties":{"id":"D-camp-camp-0137","kind":"Rec site","name":"Sandberg Lake rec site","campsites":1,"water":"Water: Sandberg Lake 20 m SE.","nearSpots":15,"closure":null,"spotIds":["D-deer-drive-0108","D-deer-walk-0139","D-duck-drive-0080","D-duck-drive-0109","D-duck-drive-0114","D-duck-walk-0143","D-duck-walk-0155","D-grouse-atv-0017","D-grouse-atv-0024","D-grouse-drive-0004","D-moose-atv-0055","D-moose-walk-0015","D-moose-walk-0028"],"note":"Official rec site"},"geometry":{"type":"Point","coordinates":[-119.7959,50.16096]}},
{"type":"Feature","properties":{"id":"D-camp-camp-0138","kind":"Rec site","name":"Andy's Lake rec site","campsites":2,"water":"Water: Andys Lake 40 m NE.","nearSpots":14,"closure":null,"spotIds":["D-duck-drive-0099","D-duck-drive-0157","D-duck-walk-0011","D-duck-walk-0080","D-grouse-walk-0014","D-grouse-walk-0016","D-grouse-walk-0018","D-grouse-walk-0022","D-grouse-walk-0054","D-grouse-walk-0070","D-grouse-walk-0080","D-moose-walk-0073","D-moose-walk-0074","D-moose-walk-0078"],"note":"Official rec site"},"geometry":{"type":"Point","coordinates":[-120.9252,49.74193]}},
{"type":"Feature","properties":{"id":"D-camp-camp-0139","kind":"Rec site","name":"Bisson Lake rec site","campsites":4,"water":"Water: Bisson Lake 90 m NE.","nearSpots":7,"closure":null,"spotIds":["D-duck-drive-0005","D-duck-drive-0037","D-duck-drive-0159","D-duck-drive-0164","D-duck-walk-0092","D-grouse-atv-0019","D-moose-drive-0060"],"note":"Official rec site"},"geometry":{"type":"Point","coordinates":[-118.6157,50.04667]}},
{"type":"Feature","properties":{"id":"D-camp-camp-0140","kind":"Rec site","name":"Cameo Lake rec site","campsites":4,"water":"Water: Cameron Lake 90 m E.","nearSpots":8,"closure":null,"spotIds":["D-duck-drive-0039","D-duck-drive-0048","D-duck-drive-0066","D-duck-drive-0070","D-duck-walk-0031","D-duck-walk-0042","D-duck-walk-0142","D-grouse-drive-0046"],"note":"Official rec site"},"geometry":{"type":"Point","coordinates":[-119.86142,49.97499]}},
{"type":"Feature","properties":{"id":"D-camp-camp-0141","kind":"Rec site","name":"Osprey Lake North rec site","campsites":11,"water":"Water: Osprey Lake 70 m S.","nearSpots":11,"closure":null,"spotIds":["D-duck-drive-0028","D-duck-drive-0034","D-duck-drive-0087","D-duck-drive-0116","D-duck-walk-0016","D-duck-walk-0102","D-grouse-atv-0064","D-grouse-atv-0074","D-grouse-drive-0087","D-moose-drive-0066","D-moose-drive-0074"],"note":"Official rec site"},"geometry":{"type":"Point","coordinates":[-120.20431,49.71539]}},
{"type":"Feature","properties":{"id":"D-camp-camp-0142","kind":"Rec site","name":"Okanagan Boulderfields rec site","campsites":10,"water":null,"nearSpots":11,"closure":null,"spotIds":["D-deer-drive-0085","D-deer-walk-0085","D-deer-walk-0126","D-deer-walk-0175","D-deer-walk-0192","D-grouse-drive-0101","D-grouse-drive-0102","D-grouse-walk-0068","D-grouse-walk-0074","D-moose-atv-0078","D-quail-drive-0045"],"note":"Official rec site"},"geometry":{"type":"Point","coordinates":[-119.43373,49.75956]}},
{"type":"Feature","properties":{"id":"D-camp-camp-0143","kind":"Rec site","name":"Bear Creek rec site","campsites":46,"water":null,"nearSpots":25,"closure":null,"spotIds":["D-deer-atv-0003","D-deer-atv-0016","D-deer-atv-0160","D-deer-drive-0002","D-deer-drive-0004","D-deer-drive-0018","D-deer-drive-0087","D-deer-drive-0095","D-deer-walk-0001","D-deer-walk-0007","D-deer-walk-0008","D-deer-walk-0012","D-duck-drive-0138","D-duck-walk-0074","D-duck-walk-0139","D-grouse-atv-0004","D-grouse-atv-0044","D-grouse-drive-0097","D-moose-drive-0058","D-moose-walk-0072","D-quail-drive-0003","D-quail-drive-0008","D-quail-walk-0012"],"note":"Official rec site"},"geometry":{"type":"Point","coordinates":[-119.56451,49.98664]}},
{"type":"Feature","properties":{"id":"D-camp-camp-0144","kind":"Rec site","name":"Nicklen Lake East rec site","campsites":6,"water":"Water: Nicklen Lake 20 m SW.","nearSpots":16,"closure":null,"spotIds":["D-deer-walk-0168","D-deer-walk-0169","D-duck-drive-0062","D-duck-drive-0076","D-duck-drive-0156","D-duck-walk-0020","D-duck-walk-0093","D-grouse-atv-0001","D-grouse-drive-0026","D-grouse-drive-0033","D-grouse-drive-0039","D-moose-atv-0002","D-moose-atv-0003","D-moose-drive-0003","D-moose-drive-0004","D-moose-walk-0005"],"note":"Official rec site"},"geometry":{"type":"Point","coordinates":[-118.99617,50.1346]}},
{"type":"Feature","properties":{"id":"D-camp-camp-0145","kind":"Rec site","name":"Robertson Lake rec site","campsites":2,"water":"Water: unnamed wetland 20 m SW.","nearSpots":16,"closure":null,"spotIds":["D-deer-atv-0040","D-deer-atv-0097","D-deer-drive-0071","D-deer-drive-0073","D-deer-drive-0089","D-deer-walk-0129","D-duck-drive-0050","D-duck-drive-0145","D-duck-walk-0015","D-duck-walk-0138","D-grouse-atv-0015","D-grouse-atv-0119","D-moose-atv-0046","D-moose-atv-0047","D-moose-drive-0053","D-moose-walk-0067"],"note":"Official rec site"},"geometry":{"type":"Point","coordinates":[-120.66896,49.74325]}},
{"type":"Feature","properties":{"id":"D-camp-camp-0146","kind":"Rec site","name":"Prosser Lake rec site","campsites":3,"water":"Water: Prosser Lake 20 m S.","nearSpots":19,"closure":null,"spotIds":["D-deer-atv-0040","D-deer-atv-0043","D-deer-atv-0054","D-deer-drive-0071","D-deer-drive-0073","D-deer-drive-0089","D-deer-drive-0091","D-deer-walk-0055","D-deer-walk-0109","D-deer-walk-0129","D-duck-drive-0050","D-duck-drive-0101","D-duck-drive-0129","D-duck-walk-0054","D-grouse-atv-0015","D-grouse-atv-0119","D-grouse-drive-0082","D-moose-atv-0046","D-moose-walk-0067"],"note":"Official rec site"},"geometry":{"type":"Point","coordinates":[-120.625,49.75204]}},
{"type":"Feature","properties":{"id":"D-camp-camp-0147","kind":"Rec site","name":"Swalwell Lake rec site","campsites":14,"water":"Water: Swalwell Lake 60 m SE.","nearSpots":16,"closure":null,"spotIds":["D-deer-walk-0044","D-duck-drive-0009","D-duck-drive-0016","D-duck-drive-0033","D-duck-walk-0009","D-duck-walk-0070","D-duck-walk-0079","D-grouse-atv-0022","D-grouse-walk-0091","D-moose-atv-0006","D-moose-atv-0011","D-moose-drive-0005","D-moose-drive-0016","D-moose-drive-0019","D-moose-walk-0007","D-moose-walk-0019"],"note":"Official rec site"},"geometry":{"type":"Point","coordinates":[-119.23545,50.05678]}},
{"type":"Feature","properties":{"id":"D-camp-camp-0148","kind":"Rec site","name":"Postill Lake rec site","campsites":5,"water":"Water: Postill Lake 30 m SW.","nearSpots":13,"closure":null,"spotIds":["D-duck-drive-0016","D-duck-drive-0104","D-duck-drive-0106","D-duck-walk-0026","D-duck-walk-0035","D-duck-walk-0133","D-duck-walk-0156","D-grouse-atv-0072","D-grouse-drive-0057","D-grouse-walk-0005","D-grouse-walk-0021","D-moose-atv-0006","D-moose-atv-0017"],"note":"Official rec site"},"geometry":{"type":"Point","coordinates":[-119.21261,49.99317]}},
{"type":"Feature","properties":{"id":"D-camp-camp-0149","kind":"Rec site","name":"Hatheume Lake South rec site","campsites":12,"water":"Water: Hatheume Lake 30 m NE.","nearSpots":22,"closure":null,"spotIds":["D-duck-drive-0035","D-duck-drive-0061","D-duck-drive-0071","D-duck-drive-0090","D-duck-drive-0095","D-duck-drive-0100","D-duck-drive-0144","D-duck-walk-0012","D-duck-walk-0021","D-duck-walk-0022","D-duck-walk-0036","D-duck-walk-0041","D-duck-walk-0044","D-duck-walk-0116","D-grouse-atv-0009","D-grouse-atv-0112","D-grouse-drive-0034","D-moose-atv-0008","D-moose-atv-0010","D-moose-drive-0008","D-moose-drive-0009","D-moose-walk-0010"],"note":"Official rec site"},"geometry":{"type":"Point","coordinates":[-120.04314,49.9868]}},
{"type":"Feature","properties":{"id":"D-camp-camp-0150","kind":"Rec site","name":"Whitehead Lake rec site","campsites":1,"water":null,"nearSpots":9,"closure":"The Recreation Site/Trail is closed due to an active wildfire in the area. For further information visit www.bcwildfire.ca","spotIds":["D-duck-walk-0003","D-duck-walk-0095","D-duck-walk-0106","D-grouse-atv-0059","D-grouse-drive-0042","D-grouse-drive-0045","D-grouse-drive-0051","D-moose-walk-0062","D-moose-walk-0064"],"note":"Official rec site"},"geometry":{"type":"Point","coordinates":[-120.1863,49.79103]}},
{"type":"Feature","properties":{"id":"D-camp-camp-0151","kind":"Rec site","name":"Missezula Lake North rec site","campsites":10,"water":"Water: Missezula Lake 30 m S.","nearSpots":8,"closure":null,"spotIds":["D-deer-atv-0066","D-deer-atv-0145","D-deer-atv-0152","D-deer-drive-0103","D-deer-walk-0124","D-duck-walk-0010","D-grouse-atv-0082","D-moose-drive-0050"],"note":"Official rec site"},"geometry":{"type":"Point","coordinates":[-120.5452,49.81313]}},
{"type":"Feature","properties":{"id":"D-camp-camp-0152","kind":"Rec site","name":"Goose Lake South rec site","campsites":9,"water":"Water: Goose Lake 20 m W.","nearSpots":16,"closure":null,"spotIds":["D-deer-atv-0047","D-deer-atv-0056","D-deer-atv-0068","D-deer-drive-0054","D-deer-walk-0056","D-deer-walk-0080","D-deer-walk-0112","D-deer-walk-0118","D-duck-walk-0015","D-duck-walk-0111","D-duck-walk-0130","D-grouse-atv-0015","D-moose-atv-0046","D-moose-atv-0047"],"note":"Official rec site"},"geometry":{"type":"Point","coordinates":[-120.72895,49.74261]}},
{"type":"Feature","properties":{"id":"D-camp-camp-0153","kind":"Rec site","name":"Hook Lake North rec site","campsites":4,"water":"Water: unnamed wetland 20 m E.","nearSpots":11,"closure":null,"spotIds":["D-deer-drive-0091","D-deer-drive-0159","D-deer-walk-0093","D-deer-walk-0109","D-duck-drive-0101","D-duck-drive-0129","D-duck-walk-0010","D-duck-walk-0046","D-duck-walk-0054","D-grouse-atv-0082","D-grouse-drive-0082"],"note":"Official rec site"},"geometry":{"type":"Point","coordinates":[-120.57746,49.78959]}},
{"type":"Feature","properties":{"id":"D-camp-camp-0154","kind":"Rec site","name":"Lightning Lake rec site","campsites":4,"water":"Water: Lightning Lake 30 m SW.","nearSpots":3,"closure":null,"spotIds":["D-grouse-drive-0119","D-grouse-walk-0108","D-moose-atv-0058"],"note":"Official rec site"},"geometry":{"type":"Point","coordinates":[-121.19133,49.96743]}},
{"type":"Feature","properties":{"id":"D-camp-camp-0155","kind":"Rec site","name":"Cascade Beach rec site","campsites":2,"water":"Water: Mabel Lake 30 m W.","nearSpots":13,"closure":null,"spotIds":["D-deer-drive-0092","D-deer-drive-0133","D-deer-drive-0144","D-deer-drive-0151","D-deer-walk-0170","D-grouse-atv-0090","D-grouse-drive-0090","D-moose-drive-0023","D-moose-walk-0026","D-moose-walk-0027","D-quail-drive-0040","D-quail-drive-0042"],"note":"Official rec site"},"geometry":{"type":"Point","coordinates":[-118.71831,50.49502]}},
{"type":"Feature","properties":{"id":"D-camp-camp-0156","kind":"Rec site","name":"Gillis Lake West rec site","campsites":5,"water":"Water: Gillis Lake 40 m SE.","nearSpots":4,"closure":null,"spotIds":["D-deer-atv-0005","D-deer-walk-0110","D-grouse-atv-0058","D-grouse-drive-0114"],"note":"Official rec site"},"geometry":{"type":"Point","coordinates":[-120.96435,49.9239]}},
{"type":"Feature","properties":{"id":"D-camp-camp-0157","kind":"Rec site","name":"Kettle River Xing rec site","campsites":2,"water":"Water: Kettle River 20 m NE.","nearSpots":8,"closure":null,"spotIds":["D-duck-drive-0103","D-duck-drive-0142","D-duck-walk-0141","D-grouse-atv-0042","D-grouse-atv-0080","D-grouse-atv-0088","D-grouse-drive-0030","D-grouse-drive-0048"],"note":"Official rec site"},"geometry":{"type":"Point","coordinates":[-118.71397,49.79609]}},
{"type":"Feature","properties":{"id":"D-camp-camp-0158","kind":"Rec site","name":"Aileen Lake rec site","campsites":2,"water":"Water: unnamed lake 90 m SE.","nearSpots":11,"closure":null,"spotIds":["D-duck-drive-0007","D-duck-drive-0008","D-duck-drive-0011","D-duck-walk-0006","D-duck-walk-0017","D-duck-walk-0019","D-duck-walk-0040","D-duck-walk-0065","D-duck-walk-0077","D-duck-walk-0079","D-grouse-drive-0008"],"note":"Official rec site"},"geometry":{"type":"Point","coordinates":[-119.12223,50.09744]}},
{"type":"Feature","properties":{"id":"D-camp-camp-0159","kind":"Rec site","name":"Buck Lake rec site","campsites":10,"water":"Water: unnamed lake 30 m S.","nearSpots":11,"closure":null,"spotIds":["D-deer-drive-0103","D-duck-drive-0030","D-duck-drive-0069","D-duck-drive-0074","D-duck-walk-0034","D-duck-walk-0045","D-duck-walk-0144","D-grouse-atv-0026","D-grouse-atv-0040","D-grouse-drive-0012","D-moose-atv-0040"],"note":"Official rec site"},"geometry":{"type":"Point","coordinates":[-120.44071,49.82717]}},
{"type":"Feature","properties":{"id":"D-camp-camp-0160","kind":"Rec site","name":"Ponds rec site","campsites":3,"water":"Water: unnamed lake 40 m SE.","nearSpots":10,"closure":null,"spotIds":["D-deer-atv-0105","D-deer-atv-0107","D-deer-atv-0118","D-deer-drive-0140","D-deer-drive-0153","D-deer-walk-0074","D-grouse-atv-0057","D-grouse-drive-0112","D-quail-atv-0005","D-quail-drive-0016"],"note":"Official rec site"},"geometry":{"type":"Point","coordinates":[-119.13004,50.25541]}},
{"type":"Feature","properties":{"id":"D-camp-camp-0161","kind":"Rec site","name":"Promontory Lookout rec site","campsites":2,"water":null,"nearSpots":11,"closure":"Notice: The Promontory Lookout has been closed due to wildfire activity in the area. No public access.","spotIds":["D-deer-atv-0045","D-deer-atv-0147","D-deer-drive-0037","D-deer-drive-0038","D-deer-drive-0067","D-deer-drive-0099","D-deer-walk-0043","D-deer-walk-0045","D-grouse-drive-0070","D-moose-drive-0082","D-moose-walk-0101"],"note":"Official rec site"},"geometry":{"type":"Point","coordinates":[-120.97227,50.19459]}},
{"type":"Feature","properties":{"id":"D-camp-camp-0162","kind":"Rec site","name":"Thirsk Lake rec site","campsites":6,"water":null,"nearSpots":4,"closure":null,"spotIds":["D-deer-drive-0173","D-duck-drive-0087","D-grouse-walk-0088","D-moose-atv-0079"],"note":"Official rec site"},"geometry":{"type":"Point","coordinates":[-120.09431,49.71486]}},
{"type":"Feature","properties":{"id":"D-deer-backcountry-0001-camp","kind":"Backcountry camp","name":"Camp for 700 m N of Newport Creek","campsites":null,"water":"Newport Creek 210 m NE","elev":985,"spotIds":["D-deer-backcountry-0001"],"note":"Flat ground near water from the data (estimate). Scout it first."},"geometry":{"type":"Point","coordinates":[-119.38362,50.33958]}},
{"type":"Feature","properties":{"id":"D-deer-backcountry-0002-camp","kind":"Backcountry camp","name":"Camp for 410 m N of Spahomin Lake","campsites":null,"water":"unnamed lake 220 m S","elev":1244,"spotIds":["D-deer-backcountry-0002"],"note":"Flat ground near water from the data (estimate). Scout it first."},"geometry":{"type":"Point","coordinates":[-120.19019,50.09005]}},
{"type":"Feature","properties":{"id":"D-moose-backcountry-0001-camp","kind":"Backcountry camp","name":"Camp for 2.1 km S of Ferry Creek","campsites":null,"water":"unnamed wetland 160 m S","elev":1779,"spotIds":["D-moose-backcountry-0001"],"note":"Flat ground near water from the data (estimate). Scout it first."},"geometry":{"type":"Point","coordinates":[-118.74432,50.05631]}},
{"type":"Feature","properties":{"id":"D-moose-backcountry-0002-camp","kind":"Backcountry camp","name":"Camp for 2.8 km NE of Mission Lake","campsites":null,"water":"unnamed wetland 60 m N","elev":1925,"spotIds":["D-moose-backcountry-0002"],"note":"Flat ground near water from the data (estimate). Scout it first."},"geometry":{"type":"Point","coordinates":[-118.78819,50.02758]}},
{"type":"Feature","properties":{"id":"D-moose-backcountry-0003-camp","kind":"Backcountry camp","name":"Camp for 510 m W of Loch Katrine Creek","campsites":null,"water":"unnamed wetland 120 m SW","elev":1774,"spotIds":["D-moose-backcountry-0003"],"note":"Flat ground near water from the data (estimate). Scout it first."},"geometry":{"type":"Point","coordinates":[-118.88087,49.99117]}},
{"type":"Feature","properties":{"id":"D-moose-backcountry-0004-camp","kind":"Backcountry camp","name":"Camp for 1.3 km W of Harris Lake","campsites":null,"water":"unnamed wetland 30 m W","elev":1751,"spotIds":["D-moose-backcountry-0004"],"note":"Flat ground near water from the data (estimate). Scout it first."},"geometry":{"type":"Point","coordinates":[-118.88046,50.08331]}},
{"type":"Feature","properties":{"id":"D-moose-backcountry-0005-camp","kind":"Backcountry camp","name":"Camp for By Maka Creek","campsites":null,"water":"unnamed wetland 30 m NW","elev":1153,"spotIds":["D-moose-backcountry-0005"],"note":"Flat ground near water from the data (estimate). Scout it first."},"geometry":{"type":"Point","coordinates":[-121.12479,49.80473]}}
]}
