{"type":"FeatureCollection","features":[
{"type":"Feature","properties":{"name":"Yellow Lake","ha":33,"band":"fall and spring passage","months":[3,4,8,9,10,11],"monthsKey":",3,4,8,9,10,11,","monthsText":"Mar, Apr, Aug, Sept, Oct, Nov","elevM":748,"cert":55,"label":"general pattern"},"geometry":{"type":"Polygon","coordinates":[[[-119.74142,49.34038],[-119.7412,49.33893],[-119.74177,49.33747],[-119.74498,49.33713],[-119.74672,49.33746],[-119.74769,49.33627],[-119.74874,49.33586],[-119.75068,49.33542],[-119.75332,49.33529],[-119.75515,49.33452],[-119.75903,49.33468],[-119.76055,49.33432],[-119.76307,49.33429],[-119.7664,49.33456],[-119.76508,49.33554],[-119.76051,49.33636],[-119.7552,49.33612],[-119.75243,49.33662],[-119.7509,49.33706],[-119.74908,49.3383],[-119.74744,49.33875],[-119.74498,49.33822],[-119.74305,49.33828],[-119.74241,49.33894],[-119.74231,49.34089],[-119.74171,49.34118],[-119.74067,49.3406],[-119.74142,49.34038]]]}},
{"type":"Feature","properties":{"name":"Twin Lakes","ha":30,"band":"fall and spring passage","months":[3,4,8,9,10,11],"monthsKey":",3,4,8,9,10,11,","monthsText":"Mar, Apr, Aug, Sept, Oct, Nov","elevM":793,"cert":55,"label":"general pattern"},"geometry":{"type":"Polygon","coordinates":[[[-119.73366,49.31362],[-119.73468,49.3132],[-119.73532,49.3121],[-119.73671,49.31179],[-119.73802,49.31071],[-119.74113,49.31038],[-119.74193,49.31001],[-119.74242,49.30914],[-119.74383,49.30807],[-119.74471,49.30771],[-119.74537,49.30795],[-119.74601,49.31063],[-119.74438,49.31127],[-119.744,49.31194],[-119.74243,49.31274],[-119.74069,49.31282],[-119.73823,49.3145],[-119.73667,49.31452],[-119.73499,49.31524],[-119.73426,49.31513],[-119.73367,49.31459],[-119.73366,49.31362]]]}},
{"type":"Feature","properties":{"name":"Twin Lakes","ha":29,"band":"fall and spring passage","months":[3,4,8,9,10,11],"monthsKey":",3,4,8,9,10,11,","monthsText":"Mar, Apr, Aug, Sept, Oct, Nov","elevM":797,"cert":55,"label":"general pattern"},"geometry":{"type":"Polygon","coordinates":[[[-119.72862,49.32199],[-119.72494,49.32167],[-119.72496,49.32292],[-119.72296,49.32396],[-119.72414,49.32516],[-119.72392,49.32613],[-119.72439,49.32671],[-119.72277,49.32729],[-119.72164,49.32722],[-119.72075,49.32681],[-119.72073,49.32606],[-119.72222,49.32504],[-119.72166,49.3222],[-119.72366,49.32118],[-119.72291,49.32079],[-119.72364,49.31955],[-119.72761,49.31746],[-119.7298,49.31883],[-119.72987,49.32119],[-119.72862,49.32199]]]}},
{"type":"Feature","properties":{"name":"Skaha Lake","ha":1961,"band":"fall and spring passage","months":[3,4,8,9,10,11],"monthsKey":",3,4,8,9,10,11,","monthsText":"Mar, Apr, Aug, Sept, Oct, Nov","elevM":339,"cert":55,"label":"general pattern"},"geometry":{"type":"Polygon","coordinates":[[[-119.57769,49.4339],[-119.57818,49.43302],[-119.57766,49.43181],[-119.5792,49.43056],[-119.57886,49.42905],[-119.57802,49.42788],[-119.5756,49.42689],[-119.57406,49.42414],[-119.5741,49.42135],[-119.57323,49.41739],[-119.57396,49.41531],[-119.57381,49.41253],[-119.57289,49.41141],[-119.57008,49.41054],[-119.56863,49.40959],[-119.56775,49.40647],[-119.56781,49.40532],[-119.5655,49.40279],[-119.56596,49.40122],[-119.56528,49.39873],[-119.56536,49.39641],[-119.56425,49.39496],[-119.56408,49.39368],[-119.56321,49.3929],[-119.5627,49.39164],[-119.56197,49.38782],[-119.56207,49.38633],[-119.56143,49.38549],[-119.56195,49.38479],[-119.56132,49.38286],[-119.56243,49.38159],[-119.5657,49.38024],[-119.56593,49.37946],[-119.56529,49.37858],[-119.56659,49.37718],[-119.56824,49.37645],[-119.56929,49.37535],[-119.56909,49.37332],[-119.57148,49.37102],[-119.5724,49.36828],[-119.57307,49.36764],[-119.57218,49.36774],[-119.57085,49.36743],[-119.57136,49.36672],[-119.57068,49.36661],[-119.57065,49.36575],[-119.56991,49.3657],[-119.5706,49.36478],[-119.57049,49.36424],[-119.56994,49.36323],[-119.56864,49.36234],[-119.5673,49.35859],[-119.56787,49.35401],[-119.56953,49.35156],[-119.56958,49.34971],[-119.57065,49.34816],[-119.57153,49.34794],[-119.57253,49.34806],[-119.57435,49.34773],[-119.57538,49.34789],[-119.57553,49.34859],[-119.57567,49.34755],[-119.57682,49.34718],[-119.5779,49.34725],[-119.57905,49.34797],[-119.57946,49.34775],[-119.5803,49.34796],[-119.57925,49.34571],[-119.57927,49.34491],[-119.57977,49.34443],[-119.58036,49.34462],[-119.58007,49.34558],[-119.58038,49.34639],[-119.58214,49.3486],[-119.58131,49.34941],[-119.58084,49.34924],[-119.58225,49.35211],[-119.58177,49.35288],[-119.57961,49.3538],[-119.58016,49.35475],[-119.58023,49.35656],[-119.57962,49.35796],[-119.57868,49.35836],[-119.57952,49.35886],[-119.57959,49.35966],[-119.58035,49.3604],[-119.58146,49.36294],[-119.5811,49.36508],[-119.5825,49.36942],[-119.58048,49.37118],[-119.57994,49.3734],[-119.57893,49.37431],[-119.57773,49.37631],[-119.57768,49.37687],[-119.57826,49.3771],[-119.57873,49.37795],[-119.57882,49.37911],[-119.57761,49.37966],[-119.57534,49.37994],[-119.57788,49.38118],[-119.58012,49.38325],[-119.57998,49.38409],[-119.58038,49.38475],[-119.5823,49.38555],[-119.58293,49.38742],[-119.58455,49.38873],[-119.58441,49.38925],[-119.58542,49.39098],[-119.59027,49.39303],[-119.59163,49.39425],[-119.59261,49.39574],[-119.5916,49.39684],[-119.5912,49.39528],[-119.59049,49.39515],[-119.59088,49.39594],[-119.59073,49.39711],[-119.59163,49.39758],[-119.59333,49.39758],[-119.5935,49.39812],[-119.59406,49.39777],[-119.59536,49.39861],[-119.59684,49.40017],[-119.59673,49.40077],[-119.59826,49.40302],[-119.59819,49.40385],[-119.59721,49.40379],[-119.59758,49.40408],[-119.59717,49.40447],[-119.59819,49.40439],[-119.59828,49.40581],[-119.60034,49.4082],[-119.60066,49.40988],[-119.60021,49.41074],[-119.59781,49.41237],[-119.59777,49.4127],[-119.60033,49.41436],[-119.60159,49.41715],[-119.60284,49.41775],[-119.60445,49.41945],[-119.60492,49.42185],[-119.60665,49.42507],[-119.60672,49.42676],[-119.60763,49.42838],[-119.60953,49.43007],[-119.60944,49.43167],[-119.6128,49.4341],[-119.61283,49.43548],[-119.61443,49.4392],[-119.61426,49.4402],[-119.61286,49.44158],[-119.61284,49.44471],[-119.60949,49.44687],[-119.60851,49.44852],[-119.60858,49.45013],[-119.60774,49.45037],[-119.60779,49.4508],[-119.60609,49.45132],[-119.59863,49.45243],[-119.59725,49.45238],[-119.59767,49.45168],[-119.59729,49.45178],[-119.59695,49.45223],[-119.58878,49.45292],[-119.58414,49.45302],[-119.58194,49.45259],[-119.58122,49.45199],[-119.58106,49.45105],[-119.58223,49.45097],[-119.58238,49.45146],[-119.5824,49.45088],[-119.58086,49.45084],[-119.58086,49.45058],[-119.58243,49.44672],[-119.58211,49.44527],[-119.58069,49.44456],[-119.58078,49.44331],[-119.58032,49.44297],[-119.58096,49.44257],[-119.58101,49.44161],[-119.57875,49.43945],[-119.57852,49.43803],[-119.57899,49.43639],[-119.57769,49.4339]],[[-119.57229,49.35383],[-119.57258,49.35394],[-119.57265,49.3539],[-119.57238,49.35366],[-119.57229,49.35383]],[[-119.57226,49.34884],[-119.5724,49.34899],[-119.57286,49.34865],[-119.57258,49.34837],[-119.57226,49.34884]],[[-119.57884,49.36135],[-119.57953,49.36062],[-119.57835,49.36072],[-119.57884,49.36135]]]}},
{"type":"Feature","properties":{"name":"Skaha Lake","ha":1961,"band":"winter open water","months":[1,2,12],"monthsKey":",1,2,12,","monthsText":"Jan, Feb, Dec","elevM":339,"cert":55,"label":"general pattern"},"geometry":{"type":"Polygon","coordinates":[[[-119.57769,49.4339],[-119.57818,49.43302],[-119.57766,49.43181],[-119.5792,49.43056],[-119.57886,49.42905],[-119.57802,49.42788],[-119.5756,49.42689],[-119.57406,49.42414],[-119.5741,49.42135],[-119.57323,49.41739],[-119.57396,49.41531],[-119.57381,49.41253],[-119.57289,49.41141],[-119.57008,49.41054],[-119.56863,49.40959],[-119.56775,49.40647],[-119.56781,49.40532],[-119.5655,49.40279],[-119.56596,49.40122],[-119.56528,49.39873],[-119.56536,49.39641],[-119.56425,49.39496],[-119.56408,49.39368],[-119.56321,49.3929],[-119.5627,49.39164],[-119.56197,49.38782],[-119.56207,49.38633],[-119.56143,49.38549],[-119.56195,49.38479],[-119.56132,49.38286],[-119.56243,49.38159],[-119.5657,49.38024],[-119.56593,49.37946],[-119.56529,49.37858],[-119.56659,49.37718],[-119.56824,49.37645],[-119.56929,49.37535],[-119.56909,49.37332],[-119.57148,49.37102],[-119.5724,49.36828],[-119.57307,49.36764],[-119.57218,49.36774],[-119.57085,49.36743],[-119.57136,49.36672],[-119.57068,49.36661],[-119.57065,49.36575],[-119.56991,49.3657],[-119.5706,49.36478],[-119.57049,49.36424],[-119.56994,49.36323],[-119.56864,49.36234],[-119.5673,49.35859],[-119.56787,49.35401],[-119.56953,49.35156],[-119.56958,49.34971],[-119.57065,49.34816],[-119.57153,49.34794],[-119.57253,49.34806],[-119.57435,49.34773],[-119.57538,49.34789],[-119.57553,49.34859],[-119.57567,49.34755],[-119.57682,49.34718],[-119.5779,49.34725],[-119.57905,49.34797],[-119.57946,49.34775],[-119.5803,49.34796],[-119.57925,49.34571],[-119.57927,49.34491],[-119.57977,49.34443],[-119.58036,49.34462],[-119.58007,49.34558],[-119.58038,49.34639],[-119.58214,49.3486],[-119.58131,49.34941],[-119.58084,49.34924],[-119.58225,49.35211],[-119.58177,49.35288],[-119.57961,49.3538],[-119.58016,49.35475],[-119.58023,49.35656],[-119.57962,49.35796],[-119.57868,49.35836],[-119.57952,49.35886],[-119.57959,49.35966],[-119.58035,49.3604],[-119.58146,49.36294],[-119.5811,49.36508],[-119.5825,49.36942],[-119.58048,49.37118],[-119.57994,49.3734],[-119.57893,49.37431],[-119.57773,49.37631],[-119.57768,49.37687],[-119.57826,49.3771],[-119.57873,49.37795],[-119.57882,49.37911],[-119.57761,49.37966],[-119.57534,49.37994],[-119.57788,49.38118],[-119.58012,49.38325],[-119.57998,49.38409],[-119.58038,49.38475],[-119.5823,49.38555],[-119.58293,49.38742],[-119.58455,49.38873],[-119.58441,49.38925],[-119.58542,49.39098],[-119.59027,49.39303],[-119.59163,49.39425],[-119.59261,49.39574],[-119.5916,49.39684],[-119.5912,49.39528],[-119.59049,49.39515],[-119.59088,49.39594],[-119.59073,49.39711],[-119.59163,49.39758],[-119.59333,49.39758],[-119.5935,49.39812],[-119.59406,49.39777],[-119.59536,49.39861],[-119.59684,49.40017],[-119.59673,49.40077],[-119.59826,49.40302],[-119.59819,49.40385],[-119.59721,49.40379],[-119.59758,49.40408],[-119.59717,49.40447],[-119.59819,49.40439],[-119.59828,49.40581],[-119.60034,49.4082],[-119.60066,49.40988],[-119.60021,49.41074],[-119.59781,49.41237],[-119.59777,49.4127],[-119.60033,49.41436],[-119.60159,49.41715],[-119.60284,49.41775],[-119.60445,49.41945],[-119.60492,49.42185],[-119.60665,49.42507],[-119.60672,49.42676],[-119.60763,49.42838],[-119.60953,49.43007],[-119.60944,49.43167],[-119.6128,49.4341],[-119.61283,49.43548],[-119.61443,49.4392],[-119.61426,49.4402],[-119.61286,49.44158],[-119.61284,49.44471],[-119.60949,49.44687],[-119.60851,49.44852],[-119.60858,49.45013],[-119.60774,49.45037],[-119.60779,49.4508],[-119.60609,49.45132],[-119.59863,49.45243],[-119.59725,49.45238],[-119.59767,49.45168],[-119.59729,49.45178],[-119.59695,49.45223],[-119.58878,49.45292],[-119.58414,49.45302],[-119.58194,49.45259],[-119.58122,49.45199],[-119.58106,49.45105],[-119.58223,49.45097],[-119.58238,49.45146],[-119.5824,49.45088],[-119.58086,49.45084],[-119.58086,49.45058],[-119.58243,49.44672],[-119.58211,49.44527],[-119.58069,49.44456],[-119.58078,49.44331],[-119.58032,49.44297],[-119.58096,49.44257],[-119.58101,49.44161],[-119.57875,49.43945],[-119.57852,49.43803],[-119.57899,49.43639],[-119.57769,49.4339]],[[-119.57229,49.35383],[-119.57258,49.35394],[-119.57265,49.3539],[-119.57238,49.35366],[-119.57229,49.35383]],[[-119.57226,49.34884],[-119.5724,49.34899],[-119.57286,49.34865],[-119.57258,49.34837],[-119.57226,49.34884]],[[-119.57884,49.36135],[-119.57953,49.36062],[-119.57835,49.36072],[-119.57884,49.36135]]]}},
{"type":"Feature","properties":{"name":"Garnet Lake","ha":34,"band":"fall and spring passage","months":[3,4,8,9,10,11],"monthsKey":",3,4,8,9,10,11,","monthsText":"Mar, Apr, Aug, Sept, Oct, Nov","elevM":627,"cert":55,"label":"general pattern"},"geometry":{"type":"Polygon","coordinates":[[[-119.7928,49.70623],[-119.79314,49.70429],[-119.79198,49.70132],[-119.79178,49.69904],[-119.79083,49.69721],[-119.78926,49.69604],[-119.78562,49.69146],[-119.78407,49.69154],[-119.78414,49.69107],[-119.78497,49.69082],[-119.78446,49.69032],[-119.78392,49.69056],[-119.7837,49.68869],[-119.78406,49.68745],[-119.78371,49.68688],[-119.78308,49.68638],[-119.77934,49.68564],[-119.777,49.68667],[-119.77661,49.68716],[-119.77526,49.6873],[-119.77477,49.68675],[-119.77545,49.68635],[-119.7747,49.68647],[-119.77457,49.68548],[-119.77546,49.68546],[-119.7758,49.68595],[-119.77743,49.68568],[-119.7788,49.68488],[-119.78038,49.68491],[-119.78318,49.6857],[-119.7855,49.68792],[-119.78892,49.68925],[-119.78882,49.68954],[-119.78798,49.68963],[-119.7881,49.69236],[-119.79023,49.69565],[-119.79225,49.69654],[-119.79197,49.69725],[-119.7926,49.69882],[-119.79281,49.70119],[-119.79412,49.70448],[-119.79415,49.70526],[-119.79352,49.70632],[-119.7928,49.70623]]]}},
{"type":"Feature","properties":{"name":"Darke Lake","ha":23,"band":"fall and spring passage","months":[3,4,8,9,10,11],"monthsKey":",3,4,8,9,10,11,","monthsText":"Mar, Apr, Aug, Sept, Oct, Nov","elevM":885,"cert":55,"label":"general pattern"},"geometry":{"type":"Polygon","coordinates":[[[-119.8651,49.72082],[-119.8645,49.7212],[-119.8623,49.72133],[-119.86163,49.72261],[-119.86168,49.72379],[-119.86037,49.7239],[-119.8601,49.72254],[-119.86075,49.72122],[-119.86274,49.72001],[-119.86382,49.71837],[-119.86339,49.7156],[-119.86411,49.71367],[-119.86349,49.7119],[-119.86468,49.71083],[-119.86577,49.7114],[-119.86538,49.71377],[-119.86577,49.71473],[-119.86679,49.71553],[-119.86543,49.71893],[-119.8651,49.72082]]]}},
{"type":"Feature","properties":{"name":"Osoyoos Lake","ha":1500,"band":"fall and spring passage","months":[3,4,8,9,10,11],"monthsKey":",3,4,8,9,10,11,","monthsText":"Mar, Apr, Aug, Sept, Oct, Nov","elevM":276,"cert":55,"label":"general pattern"},"geometry":{"type":"Polygon","coordinates":[[[-119.48283,49.06891],[-119.47862,49.06785],[-119.47652,49.06617],[-119.47643,49.06316],[-119.47572,49.06289],[-119.47568,49.06193],[-119.47506,49.06137],[-119.47079,49.061],[-119.46725,49.05978],[-119.46558,49.05755],[-119.46701,49.05389],[-119.46657,49.05288],[-119.46484,49.05322],[-119.46257,49.05312],[-119.46365,49.05375],[-119.4647,49.0534],[-119.46617,49.0539],[-119.46555,49.05413],[-119.46592,49.05449],[-119.46402,49.05461],[-119.46139,49.0535],[-119.46123,49.05236],[-119.46205,49.05287],[-119.46159,49.05084],[-119.45667,49.0512],[-119.45551,49.05097],[-119.45391,49.04913],[-119.45274,49.0485],[-119.4483,49.04725],[-119.44635,49.04475],[-119.44501,49.0441],[-119.4447,49.04334],[-119.44385,49.04271],[-119.44423,49.03821],[-119.44508,49.03674],[-119.44904,49.03302],[-119.44843,49.03203],[-119.4488,49.03138],[-119.45057,49.03036],[-119.4539,49.02925],[-119.45949,49.02822],[-119.45877,49.02787],[-119.45478,49.02822],[-119.4532,49.02804],[-119.45238,49.02751],[-119.44987,49.02706],[-119.44907,49.02606],[-119.44799,49.0255],[-119.44444,49.0245],[-119.44423,49.02499],[-119.44767,49.02625],[-119.44799,49.02668],[-119.44802,49.02791],[-119.4473,49.02786],[-119.44777,49.02663],[-119.44683,49.02609],[-119.4464,49.02721],[-119.44557,49.02754],[-119.44463,49.02713],[-119.44335,49.02562],[-119.44381,49.02406],[-119.43954,49.02374],[-119.43832,49.02332],[-119.43695,49.02224],[-119.43577,49.02023],[-119.43779,49.01738],[-119.43668,49.01675],[-119.43713,49.01525],[-119.43636,49.01452],[-119.43634,49.01387],[-119.4381,49.01098],[-119.43824,49.00997],[-119.44028,49.00831],[-119.43886,49.0076],[-119.43908,49.00605],[-119.43784,49.00533],[-119.43772,49.00438],[-119.43482,49.00383],[-119.4337,49.00331],[-119.43072,49.00093],[-119.43064,49.00007],[-119.45805,49.00007],[-119.45743,49.00059],[-119.45836,49.00149],[-119.45888,49.00593],[-119.45785,49.00694],[-119.45823,49.0081],[-119.45277,49.01094],[-119.4522,49.01167],[-119.45233,49.0122],[-119.45442,49.01302],[-119.4549,49.01397],[-119.45447,49.01405],[-119.45428,49.01475],[-119.45221,49.01593],[-119.44738,49.01757],[-119.44228,49.01873],[-119.44179,49.01925],[-119.44299,49.01959],[-119.4443,49.01949],[-119.44862,49.01746],[-119.45468,49.01546],[-119.45677,49.01512],[-119.45765,49.01538],[-119.45921,49.01498],[-119.46119,49.01555],[-119.46202,49.01627],[-119.462,49.01701],[-119.46264,49.01801],[-119.46242,49.01887],[-119.46422,49.02043],[-119.46473,49.0222],[-119.46551,49.02292],[-119.46767,49.02332],[-119.46901,49.02407],[-119.46937,49.02499],[-119.46824,49.02639],[-119.46651,49.02649],[-119.46421,49.0277],[-119.46109,49.02871],[-119.46009,49.02842],[-119.45991,49.02861],[-119.4614,49.03022],[-119.46192,49.03249],[-119.46182,49.03303],[-119.4606,49.03374],[-119.46278,49.03535],[-119.46364,49.0375],[-119.46402,49.0377],[-119.46416,49.03711],[-119.46485,49.03813],[-119.4641,49.03794],[-119.46403,49.03822],[-119.46633,49.0407],[-119.46473,49.0421],[-119.46663,49.04331],[-119.46963,49.04438],[-119.47733,49.04444],[-119.47899,49.04581],[-119.48337,49.0479],[-119.48564,49.05019],[-119.48919,49.05093],[-119.49467,49.0532],[-119.49582,49.05473],[-119.4948,49.05688],[-119.49709,49.0574],[-119.50209,49.05929],[-119.50372,49.06037],[-119.50626,49.06126],[-119.50741,49.06228],[-119.50679,49.0636],[-119.51099,49.0639],[-119.51457,49.06461],[-119.51775,49.06573],[-119.51862,49.06693],[-119.52285,49.06801],[-119.52388,49.06858],[-119.52396,49.07006],[-119.52698,49.07309],[-119.52585,49.07443],[-119.52464,49.075],[-119.5252,49.07566],[-119.525,49.0759],[-119.52453,49.07537],[-119.52319,49.07604],[-119.52191,49.07562],[-119.52073,49.07589],[-119.51854,49.0757],[-119.51756,49.07599],[-119.51617,49.07534],[-119.51526,49.07545],[-119.51493,49.07509],[-119.51367,49.07483],[-119.51246,49.07505],[-119.51196,49.07471],[-119.5123,49.07566],[-119.51317,49.07617],[-119.51255,49.07718],[-119.51148,49.07728],[-119.50959,49.07626],[-119.50921,49.07489],[-119.50957,49.07407],[-119.50869,49.07239],[-119.50799,49.07224],[-119.50825,49.07097],[-119.5075,49.07049],[-119.5065,49.0706],[-119.50558,49.07028],[-119.50346,49.07119],[-119.5006,49.07172],[-119.49689,49.0709],[-119.49394,49.0711],[-119.49311,49.07047],[-119.4931,49.0697],[-119.49399,49.06895],[-119.49341,49.06824],[-119.4947,49.06847],[-119.49468,49.06895],[-119.49586,49.06822],[-119.49702,49.06811],[-119.49511,49.06753],[-119.48987,49.06781],[-119.48556,49.06896],[-119.48283,49.06891]],[[-119.46081,49.02799],[-119.46128,49.02788],[-119.46088,49.02779],[-119.46081,49.02799]],[[-119.45812,49.02948],[-119.45822,49.02928],[-119.45778,49.02882],[-119.45812,49.02948]]]}},
{"type":"Feature","properties":{"name":"Osoyoos Lake","ha":1500,"band":"winter open water","months":[1,2,12],"monthsKey":",1,2,12,","monthsText":"Jan, Feb, Dec","elevM":276,"cert":55,"label":"general pattern"},"geometry":{"type":"Polygon","coordinates":[[[-119.48283,49.06891],[-119.47862,49.06785],[-119.47652,49.06617],[-119.47643,49.06316],[-119.47572,49.06289],[-119.47568,49.06193],[-119.47506,49.06137],[-119.47079,49.061],[-119.46725,49.05978],[-119.46558,49.05755],[-119.46701,49.05389],[-119.46657,49.05288],[-119.46484,49.05322],[-119.46257,49.05312],[-119.46365,49.05375],[-119.4647,49.0534],[-119.46617,49.0539],[-119.46555,49.05413],[-119.46592,49.05449],[-119.46402,49.05461],[-119.46139,49.0535],[-119.46123,49.05236],[-119.46205,49.05287],[-119.46159,49.05084],[-119.45667,49.0512],[-119.45551,49.05097],[-119.45391,49.04913],[-119.45274,49.0485],[-119.4483,49.04725],[-119.44635,49.04475],[-119.44501,49.0441],[-119.4447,49.04334],[-119.44385,49.04271],[-119.44423,49.03821],[-119.44508,49.03674],[-119.44904,49.03302],[-119.44843,49.03203],[-119.4488,49.03138],[-119.45057,49.03036],[-119.4539,49.02925],[-119.45949,49.02822],[-119.45877,49.02787],[-119.45478,49.02822],[-119.4532,49.02804],[-119.45238,49.02751],[-119.44987,49.02706],[-119.44907,49.02606],[-119.44799,49.0255],[-119.44444,49.0245],[-119.44423,49.02499],[-119.44767,49.02625],[-119.44799,49.02668],[-119.44802,49.02791],[-119.4473,49.02786],[-119.44777,49.02663],[-119.44683,49.02609],[-119.4464,49.02721],[-119.44557,49.02754],[-119.44463,49.02713],[-119.44335,49.02562],[-119.44381,49.02406],[-119.43954,49.02374],[-119.43832,49.02332],[-119.43695,49.02224],[-119.43577,49.02023],[-119.43779,49.01738],[-119.43668,49.01675],[-119.43713,49.01525],[-119.43636,49.01452],[-119.43634,49.01387],[-119.4381,49.01098],[-119.43824,49.00997],[-119.44028,49.00831],[-119.43886,49.0076],[-119.43908,49.00605],[-119.43784,49.00533],[-119.43772,49.00438],[-119.43482,49.00383],[-119.4337,49.00331],[-119.43072,49.00093],[-119.43064,49.00007],[-119.45805,49.00007],[-119.45743,49.00059],[-119.45836,49.00149],[-119.45888,49.00593],[-119.45785,49.00694],[-119.45823,49.0081],[-119.45277,49.01094],[-119.4522,49.01167],[-119.45233,49.0122],[-119.45442,49.01302],[-119.4549,49.01397],[-119.45447,49.01405],[-119.45428,49.01475],[-119.45221,49.01593],[-119.44738,49.01757],[-119.44228,49.01873],[-119.44179,49.01925],[-119.44299,49.01959],[-119.4443,49.01949],[-119.44862,49.01746],[-119.45468,49.01546],[-119.45677,49.01512],[-119.45765,49.01538],[-119.45921,49.01498],[-119.46119,49.01555],[-119.46202,49.01627],[-119.462,49.01701],[-119.46264,49.01801],[-119.46242,49.01887],[-119.46422,49.02043],[-119.46473,49.0222],[-119.46551,49.02292],[-119.46767,49.02332],[-119.46901,49.02407],[-119.46937,49.02499],[-119.46824,49.02639],[-119.46651,49.02649],[-119.46421,49.0277],[-119.46109,49.02871],[-119.46009,49.02842],[-119.45991,49.02861],[-119.4614,49.03022],[-119.46192,49.03249],[-119.46182,49.03303],[-119.4606,49.03374],[-119.46278,49.03535],[-119.46364,49.0375],[-119.46402,49.0377],[-119.46416,49.03711],[-119.46485,49.03813],[-119.4641,49.03794],[-119.46403,49.03822],[-119.46633,49.0407],[-119.46473,49.0421],[-119.46663,49.04331],[-119.46963,49.04438],[-119.47733,49.04444],[-119.47899,49.04581],[-119.48337,49.0479],[-119.48564,49.05019],[-119.48919,49.05093],[-119.49467,49.0532],[-119.49582,49.05473],[-119.4948,49.05688],[-119.49709,49.0574],[-119.50209,49.05929],[-119.50372,49.06037],[-119.50626,49.06126],[-119.50741,49.06228],[-119.50679,49.0636],[-119.51099,49.0639],[-119.51457,49.06461],[-119.51775,49.06573],[-119.51862,49.06693],[-119.52285,49.06801],[-119.52388,49.06858],[-119.52396,49.07006],[-119.52698,49.07309],[-119.52585,49.07443],[-119.52464,49.075],[-119.5252,49.07566],[-119.525,49.0759],[-119.52453,49.07537],[-119.52319,49.07604],[-119.52191,49.07562],[-119.52073,49.07589],[-119.51854,49.0757],[-119.51756,49.07599],[-119.51617,49.07534],[-119.51526,49.07545],[-119.51493,49.07509],[-119.51367,49.07483],[-119.51246,49.07505],[-119.51196,49.07471],[-119.5123,49.07566],[-119.51317,49.07617],[-119.51255,49.07718],[-119.51148,49.07728],[-119.50959,49.07626],[-119.50921,49.07489],[-119.50957,49.07407],[-119.50869,49.07239],[-119.50799,49.07224],[-119.50825,49.07097],[-119.5075,49.07049],[-119.5065,49.0706],[-119.50558,49.07028],[-119.50346,49.07119],[-119.5006,49.07172],[-119.49689,49.0709],[-119.49394,49.0711],[-119.49311,49.07047],[-119.4931,49.0697],[-119.49399,49.06895],[-119.49341,49.06824],[-119.4947,49.06847],[-119.49468,49.06895],[-119.49586,49.06822],[-119.49702,49.06811],[-119.49511,49.06753],[-119.48987,49.06781],[-119.48556,49.06896],[-119.48283,49.06891]],[[-119.46081,49.02799],[-119.46128,49.02788],[-119.46088,49.02779],[-119.46081,49.02799]],[[-119.45812,49.02948],[-119.45822,49.02928],[-119.45778,49.02882],[-119.45812,49.02948]]]}},
{"type":"Feature","properties":{"name":"Vaseux Lake","ha":279,"band":"fall and spring passage","months":[3,4,8,9,10,11],"monthsKey":",3,4,8,9,10,11,","monthsText":"Mar, Apr, Aug, Sept, Oct, Nov","elevM":326,"cert":55,"label":"general pattern"},"geometry":{"type":"Polygon","coordinates":[[[-119.54622,49.30575],[-119.54578,49.30601],[-119.54621,49.30667],[-119.5444,49.30691],[-119.54396,49.30743],[-119.54304,49.30743],[-119.54256,49.30665],[-119.542,49.30673],[-119.54105,49.30581],[-119.54057,49.30424],[-119.53919,49.30425],[-119.5395,49.30381],[-119.53923,49.30358],[-119.53852,49.3034],[-119.53799,49.30369],[-119.53837,49.30521],[-119.53689,49.30413],[-119.53671,49.30371],[-119.53701,49.303],[-119.5366,49.30249],[-119.53327,49.30278],[-119.53202,49.30204],[-119.53104,49.29935],[-119.53126,49.29852],[-119.53092,49.29782],[-119.53007,49.29749],[-119.52946,49.29667],[-119.52945,49.29556],[-119.52837,49.29286],[-119.52582,49.29036],[-119.52481,49.28997],[-119.52485,49.28836],[-119.5234,49.28713],[-119.52352,49.28649],[-119.52292,49.2854],[-119.52425,49.28333],[-119.52428,49.28247],[-119.52345,49.2823],[-119.523,49.28162],[-119.52162,49.28126],[-119.51991,49.28031],[-119.51906,49.27686],[-119.51954,49.27444],[-119.52484,49.27372],[-119.52655,49.27258],[-119.52874,49.27234],[-119.52921,49.27193],[-119.52877,49.27166],[-119.5291,49.27131],[-119.52885,49.27051],[-119.52999,49.26865],[-119.53057,49.26867],[-119.53172,49.27041],[-119.53331,49.26979],[-119.53388,49.26986],[-119.53446,49.27048],[-119.53452,49.272],[-119.53338,49.27256],[-119.5324,49.27209],[-119.53155,49.27112],[-119.52978,49.2725],[-119.52913,49.27265],[-119.53041,49.27481],[-119.53045,49.27612],[-119.53093,49.27749],[-119.5316,49.27808],[-119.53169,49.27917],[-119.53114,49.28144],[-119.52953,49.28182],[-119.52856,49.28166],[-119.52962,49.28262],[-119.5306,49.28272],[-119.53285,49.28389],[-119.53495,49.28577],[-119.53599,49.28888],[-119.53575,49.29018],[-119.53652,49.29156],[-119.53732,49.29174],[-119.54013,49.29542],[-119.5405,49.29724],[-119.54154,49.29747],[-119.54233,49.30027],[-119.54323,49.30163],[-119.5461,49.30405],[-119.54722,49.30591],[-119.54622,49.30575]],[[-119.52945,49.27145],[-119.52951,49.2714],[-119.52932,49.2713],[-119.52945,49.27145]],[[-119.54423,49.30536],[-119.54365,49.30684],[-119.54493,49.30647],[-119.54453,49.30532],[-119.54423,49.30536]],[[-119.53689,49.3036],[-119.53768,49.30459],[-119.53815,49.30273],[-119.53719,49.30273],[-119.53689,49.3036]],[[-119.52656,49.27867],[-119.52755,49.27917],[-119.52746,49.27827],[-119.52546,49.27588],[-119.52656,49.27867]]]}},
{"type":"Feature","properties":{"name":"Vaseux Lake","ha":279,"band":"winter open water","months":[1,2,12],"monthsKey":",1,2,12,","monthsText":"Jan, Feb, Dec","elevM":326,"cert":55,"label":"general pattern"},"geometry":{"type":"Polygon","coordinates":[[[-119.54622,49.30575],[-119.54578,49.30601],[-119.54621,49.30667],[-119.5444,49.30691],[-119.54396,49.30743],[-119.54304,49.30743],[-119.54256,49.30665],[-119.542,49.30673],[-119.54105,49.30581],[-119.54057,49.30424],[-119.53919,49.30425],[-119.5395,49.30381],[-119.53923,49.30358],[-119.53852,49.3034],[-119.53799,49.30369],[-119.53837,49.30521],[-119.53689,49.30413],[-119.53671,49.30371],[-119.53701,49.303],[-119.5366,49.30249],[-119.53327,49.30278],[-119.53202,49.30204],[-119.53104,49.29935],[-119.53126,49.29852],[-119.53092,49.29782],[-119.53007,49.29749],[-119.52946,49.29667],[-119.52945,49.29556],[-119.52837,49.29286],[-119.52582,49.29036],[-119.52481,49.28997],[-119.52485,49.28836],[-119.5234,49.28713],[-119.52352,49.28649],[-119.52292,49.2854],[-119.52425,49.28333],[-119.52428,49.28247],[-119.52345,49.2823],[-119.523,49.28162],[-119.52162,49.28126],[-119.51991,49.28031],[-119.51906,49.27686],[-119.51954,49.27444],[-119.52484,49.27372],[-119.52655,49.27258],[-119.52874,49.27234],[-119.52921,49.27193],[-119.52877,49.27166],[-119.5291,49.27131],[-119.52885,49.27051],[-119.52999,49.26865],[-119.53057,49.26867],[-119.53172,49.27041],[-119.53331,49.26979],[-119.53388,49.26986],[-119.53446,49.27048],[-119.53452,49.272],[-119.53338,49.27256],[-119.5324,49.27209],[-119.53155,49.27112],[-119.52978,49.2725],[-119.52913,49.27265],[-119.53041,49.27481],[-119.53045,49.27612],[-119.53093,49.27749],[-119.5316,49.27808],[-119.53169,49.27917],[-119.53114,49.28144],[-119.52953,49.28182],[-119.52856,49.28166],[-119.52962,49.28262],[-119.5306,49.28272],[-119.53285,49.28389],[-119.53495,49.28577],[-119.53599,49.28888],[-119.53575,49.29018],[-119.53652,49.29156],[-119.53732,49.29174],[-119.54013,49.29542],[-119.5405,49.29724],[-119.54154,49.29747],[-119.54233,49.30027],[-119.54323,49.30163],[-119.5461,49.30405],[-119.54722,49.30591],[-119.54622,49.30575]],[[-119.52945,49.27145],[-119.52951,49.2714],[-119.52932,49.2713],[-119.52945,49.27145]],[[-119.54423,49.30536],[-119.54365,49.30684],[-119.54493,49.30647],[-119.54453,49.30532],[-119.54423,49.30536]],[[-119.53689,49.3036],[-119.53768,49.30459],[-119.53815,49.30273],[-119.53719,49.30273],[-119.53689,49.3036]],[[-119.52656,49.27867],[-119.52755,49.27917],[-119.52746,49.27827],[-119.52546,49.27588],[-119.52656,49.27867]]]}},
{"type":"Feature","properties":{"name":"Tugulnuit Lake","ha":47,"band":"fall and spring passage","months":[3,4,8,9,10,11],"monthsKey":",3,4,8,9,10,11,","monthsText":"Mar, Apr, Aug, Sept, Oct, Nov","elevM":298,"cert":55,"label":"general pattern"},"geometry":{"type":"Polygon","coordinates":[[[-119.53596,49.19408],[-119.53903,49.19377],[-119.54167,49.19373],[-119.54346,49.19415],[-119.54261,49.19752],[-119.54328,49.19916],[-119.54506,49.20041],[-119.54526,49.20178],[-119.54462,49.20258],[-119.54388,49.20256],[-119.54139,49.20358],[-119.53983,49.20351],[-119.53881,49.2021],[-119.53864,49.19952],[-119.53498,49.19457],[-119.53596,49.19408]]]}},
{"type":"Feature","properties":{"name":"Unnamed wetland","ha":46,"band":"fall and spring passage","months":[3,4,8,9,10,11],"monthsKey":",3,4,8,9,10,11,","monthsText":"Mar, Apr, Aug, Sept, Oct, Nov","elevM":648,"cert":55,"label":"general pattern"},"geometry":{"type":"Polygon","coordinates":[[[-119.74179,49.48812],[-119.7412,49.4876],[-119.74139,49.48698],[-119.74027,49.48545],[-119.74068,49.48507],[-119.74394,49.48853],[-119.74351,49.48939],[-119.74384,49.49013],[-119.74345,49.48988],[-119.74216,49.48996],[-119.74264,49.49058],[-119.74208,49.49074],[-119.74225,49.49161],[-119.74302,49.49179],[-119.74395,49.4913],[-119.74323,49.49077],[-119.74415,49.49045],[-119.74532,49.49212],[-119.74521,49.49368],[-119.74293,49.49452],[-119.74207,49.49624],[-119.7423,49.49837],[-119.74287,49.49878],[-119.74315,49.49978],[-119.74462,49.50111],[-119.74473,49.50185],[-119.74443,49.50247],[-119.74364,49.50259],[-119.74314,49.50165],[-119.74272,49.50153],[-119.74232,49.50179],[-119.74064,49.50114],[-119.74005,49.49985],[-119.73917,49.50094],[-119.74,49.50264],[-119.73981,49.5033],[-119.73918,49.50363],[-119.73836,49.5036],[-119.73778,49.50325],[-119.738,49.50256],[-119.73746,49.50172],[-119.73753,49.4988],[-119.73789,49.49758],[-119.73927,49.49662],[-119.73958,49.49526],[-119.74047,49.49415],[-119.74065,49.49284],[-119.7411,49.49251],[-119.74118,49.48918],[-119.74179,49.48812]],[[-119.74241,49.49422],[-119.74267,49.49448],[-119.74273,49.49422],[-119.74241,49.49422]],[[-119.74006,49.49734],[-119.73965,49.49738],[-119.74003,49.49752],[-119.74006,49.49734]],[[-119.74268,49.49278],[-119.74217,49.49277],[-119.74265,49.49283],[-119.74268,49.49278]],[[-119.74224,49.50024],[-119.74167,49.50027],[-119.74197,49.50039],[-119.74224,49.50024]],[[-119.73853,49.49802],[-119.73863,49.4982],[-119.73928,49.49845],[-119.7394,49.49825],[-119.73853,49.49802]],[[-119.74127,49.49875],[-119.74207,49.49841],[-119.74128,49.49861],[-119.74127,49.49875]],[[-119.74421,49.49305],[-119.74419,49.49362],[-119.74449,49.49342],[-119.74451,49.493],[-119.74421,49.49305]],[[-119.74361,49.50041],[-119.7431,49.50078],[-119.74321,49.5008],[-119.74371,49.50067],[-119.74361,49.50041]],[[-119.74426,49.50115],[-119.74406,49.50076],[-119.74384,49.50107],[-119.74341,49.5012],[-119.74426,49.50115]]]}},
{"type":"Feature","properties":{"name":"Unnamed wetland","ha":34,"band":"fall and spring passage","months":[3,4,8,9,10,11],"monthsKey":",3,4,8,9,10,11,","monthsText":"Mar, Apr, Aug, Sept, Oct, Nov","elevM":280,"cert":55,"label":"general pattern"},"geometry":{"type":"Polygon","coordinates":[[[-119.52044,49.07997],[-119.52164,49.08026],[-119.52152,49.08069],[-119.5211,49.08092],[-119.52066,49.08019],[-119.51977,49.07987],[-119.51882,49.08016],[-119.51739,49.07991],[-119.51944,49.08052],[-119.52006,49.08127],[-119.52158,49.08211],[-119.52342,49.08157],[-119.52325,49.08203],[-119.52362,49.08228],[-119.52442,49.08175],[-119.52717,49.08387],[-119.52694,49.08471],[-119.52792,49.08529],[-119.52789,49.08579],[-119.52718,49.08588],[-119.52681,49.08629],[-119.52773,49.08663],[-119.52816,49.08762],[-119.52782,49.08826],[-119.52671,49.08819],[-119.52574,49.08709],[-119.52369,49.08619],[-119.52247,49.08509],[-119.51917,49.08314],[-119.51815,49.08177],[-119.51886,49.08052],[-119.51559,49.07987],[-119.51527,49.07941],[-119.51545,49.07789],[-119.51412,49.07779],[-119.51373,49.07707],[-119.51259,49.07715],[-119.51316,49.07599],[-119.5123,49.07566],[-119.51187,49.07475],[-119.51406,49.07619],[-119.51579,49.0779],[-119.51969,49.07929],[-119.52044,49.07997]],[[-119.51331,49.07679],[-119.51396,49.07681],[-119.5133,49.07663],[-119.51331,49.07679]],[[-119.51614,49.07884],[-119.51641,49.07851],[-119.51596,49.0784],[-119.51614,49.07884]],[[-119.51597,49.07898],[-119.51622,49.07955],[-119.51658,49.07892],[-119.51597,49.07898]],[[-119.5191,49.08104],[-119.5188,49.08164],[-119.51918,49.08231],[-119.51983,49.08253],[-119.51994,49.08168],[-119.51929,49.08151],[-119.5191,49.08104]]]}},
{"type":"Feature","properties":{"name":"Unnamed wetland","ha":32,"band":"fall and spring passage","months":[3,4,8,9,10,11],"monthsKey":",3,4,8,9,10,11,","monthsText":"Mar, Apr, Aug, Sept, Oct, Nov","elevM":324,"cert":55,"label":"general pattern"},"geometry":{"type":"Polygon","coordinates":[[[-119.56116,49.3159],[-119.55978,49.31582],[-119.56094,49.31685],[-119.55926,49.31639],[-119.55861,49.31687],[-119.55899,49.3172],[-119.5588,49.31757],[-119.55777,49.31739],[-119.55167,49.31346],[-119.54578,49.30608],[-119.54622,49.30575],[-119.54722,49.30591],[-119.54628,49.30424],[-119.5496,49.30733],[-119.55041,49.30859],[-119.55174,49.30926],[-119.55284,49.31164],[-119.55415,49.3117],[-119.55528,49.31312],[-119.55712,49.31444],[-119.56116,49.3159]],[[-119.55157,49.31319],[-119.55185,49.31328],[-119.5518,49.31308],[-119.55157,49.31319]],[[-119.5533,49.31378],[-119.55431,49.31409],[-119.55383,49.31285],[-119.55319,49.31256],[-119.5533,49.31378]]]}},
{"type":"Feature","properties":{"name":"Unnamed wetland","ha":21,"band":"fall and spring passage","months":[3,4,8,9,10,11],"monthsKey":",3,4,8,9,10,11,","monthsText":"Mar, Apr, Aug, Sept, Oct, Nov","elevM":282,"cert":55,"label":"general pattern"},"geometry":{"type":"Polygon","coordinates":[[[-119.54125,49.09468],[-119.53909,49.0956],[-119.53473,49.09531],[-119.5327,49.09389],[-119.53177,49.09241],[-119.53169,49.09125],[-119.53235,49.09087],[-119.53294,49.0909],[-119.53427,49.09251],[-119.53515,49.09123],[-119.53582,49.09153],[-119.53621,49.09231],[-119.53756,49.09217],[-119.53788,49.09283],[-119.53902,49.09285],[-119.54125,49.09468]]]}},
{"type":"Feature","properties":{"name":"Similkameen River","ha":1053,"band":"winter open water","months":[1,2,12],"monthsKey":",1,2,12,","monthsText":"Jan, Feb, Dec","elevM":446,"cert":55,"label":"general pattern"},"geometry":{"type":"Polygon","coordinates":[[[-119.781,49.18216],[-119.78317,49.18399],[-119.78537,49.18527],[-119.78484,49.18656],[-119.7853,49.18804],[-119.78507,49.19052],[-119.78313,49.19217],[-119.78182,49.19434],[-119.78244,49.19564],[-119.78394,49.19643],[-119.78533,49.19654],[-119.79002,49.19589],[-119.7968,49.19368],[-119.79708,49.194],[-119.80203,49.19493],[-119.80467,49.19763],[-119.80764,49.19935],[-119.81109,49.20042],[-119.8147,49.20038],[-119.81601,49.20084],[-119.81855,49.20027],[-119.81875,49.1995],[-119.82072,49.19811],[-119.8234,49.19713],[-119.82838,49.19756],[-119.83108,49.19858],[-119.83148,49.19923],[-119.83473,49.20022],[-119.83848,49.2005],[-119.84286,49.20013],[-119.84618,49.19923],[-119.84865,49.19814],[-119.85266,49.1982],[-119.85379,49.19901],[-119.85633,49.19979],[-119.85848,49.20097],[-119.86026,49.2012],[-119.86536,49.20321],[-119.86883,49.20389],[-119.87095,49.20346],[-119.87495,49.2012],[-119.88241,49.20042],[-119.88291,49.20083],[-119.88615,49.20191],[-119.88871,49.20341],[-119.88944,49.20393],[-119.88975,49.20471],[-119.89212,49.2063],[-119.89557,49.20939],[-119.89895,49.21133],[-119.90133,49.21226],[-119.90659,49.21223],[-119.91517,49.21084],[-119.91775,49.21088],[-119.92403,49.21293],[-119.92975,49.21708],[-119.93303,49.21872],[-119.93505,49.21934],[-119.94359,49.21948],[-119.94764,49.21897],[-119.95242,49.21723],[-119.95434,49.21827],[-119.95502,49.21844],[-119.95502,49.21802],[-119.95721,49.21898],[-119.96349,49.22416],[-119.96602,49.22554],[-119.97189,49.22485],[-119.97765,49.22526],[-119.97922,49.22667],[-119.9794,49.22756],[-119.98163,49.23089],[-119.98369,49.23135],[-119.98746,49.23134],[-119.98907,49.23185],[-119.9896,49.23155],[-119.98956,49.23194],[-119.99139,49.23275],[-119.99223,49.23373],[-119.99496,49.23545],[-119.99596,49.2365],[-120.00048,49.23738],[-120.00257,49.23837],[-120.00347,49.23963],[-120.00516,49.24571],[-120.01027,49.24854],[-120.01427,49.24907],[-120.01558,49.25037],[-120.01607,49.25235],[-120.01762,49.25446],[-120.01693,49.25592],[-120.01689,49.25789],[-120.01765,49.25923],[-120.0258,49.26357],[-120.02627,49.26399],[-120.02647,49.26552],[-120.02947,49.26631],[-120.03021,49.2668],[-120.03052,49.26915],[-120.03161,49.27081],[-120.03362,49.27253],[-120.03323,49.27308],[-120.03338,49.27429],[-120.03392,49.27517],[-120.03486,49.27567],[-120.03445,49.27678],[-120.03513,49.27812],[-120.0348,49.28174],[-120.03652,49.2828],[-120.03665,49.28322],[-120.03499,49.28573],[-120.03475,49.28738],[-120.0336,49.28872],[-120.03471,49.29172],[-120.03444,49.29524],[-120.03243,49.29959],[-120.03113,49.30094],[-120.03175,49.30191],[-120.03114,49.30354],[-120.03193,49.30411],[-120.03272,49.30544],[-120.03477,49.30993],[-120.03754,49.31295],[-120.03781,49.31381],[-120.04128,49.31617],[-120.0433,49.3182],[-120.04367,49.31972],[-120.04327,49.32338],[-120.04539,49.32454],[-120.05343,49.32662],[-120.05776,49.32847],[-120.05775,49.33003],[-120.05661,49.33253],[-120.05708,49.33323],[-120.06076,49.3343],[-120.06534,49.33487],[-120.06709,49.33573],[-120.06846,49.33762],[-120.06839,49.33884],[-120.06731,49.34133],[-120.06725,49.34236],[-120.06797,49.34315],[-120.07314,49.34463],[-120.07668,49.34448],[-120.07787,49.34478],[-120.07959,49.34598],[-120.08074,49.34942],[-120.08208,49.34987],[-120.08378,49.34995],[-120.08594,49.34922],[-120.08918,49.34953],[-120.09027,49.35031],[-120.09013,49.35197],[-120.09172,49.35294],[-120.09297,49.353],[-120.09889,49.35177],[-120.1026,49.35184],[-120.1039,49.35293],[-120.1038,49.35465],[-120.10308,49.35607],[-120.10081,49.35854],[-120.101,49.35937],[-120.10231,49.35935],[-120.10439,49.35871],[-120.1073,49.35898],[-120.11222,49.35819],[-120.11432,49.35824],[-120.11645,49.35879],[-120.11857,49.36012],[-120.11902,49.36077],[-120.11934,49.36183],[-120.11871,49.36358],[-120.1196,49.36514],[-120.12197,49.36553],[-120.12714,49.365],[-120.1311,49.36601],[-120.13231,49.36664],[-120.13464,49.36881],[-120.13957,49.37169],[-120.14254,49.37271],[-120.14446,49.37192],[-120.14625,49.37213],[-120.14795,49.37486],[-120.14918,49.37599],[-120.15305,49.37735],[-120.15697,49.37945],[-120.16021,49.38054],[-120.16694,49.38202],[-120.17076,49.38223],[-120.17266,49.38273],[-120.1793,49.38162],[-120.18308,49.38166],[-120.18989,49.38247],[-120.19538,49.38378],[-120.19898,49.38498],[-120.20585,49.38996],[-120.20586,49.39219],[-120.20637,49.39287],[-120.20749,49.39369],[-120.21187,49.39547],[-120.21301,49.39659],[-120.21407,49.39705],[-120.21949,49.39842],[-120.22899,49.39965],[-120.23196,49.40098],[-120.23796,49.40191],[-120.24093,49.40212],[-120.24264,49.40188],[-120.24555,49.4025],[-120.24782,49.40186],[-120.25312,49.40202],[-120.25749,49.40286],[-120.26134,49.40499],[-120.26395,49.40757],[-120.26449,49.40915],[-120.26411,49.40991],[-120.26108,49.41282],[-120.25998,49.41627],[-120.2579,49.41739],[-120.25716,49.41842],[-120.25692,49.41947],[-120.25725,49.42138],[-120.25767,49.42179],[-120.26068,49.42305],[-120.26554,49.42359],[-120.26855,49.4249],[-120.26992,49.42632],[-120.27046,49.42939],[-120.27165,49.43111],[-120.27633,49.43419],[-120.28066,49.43523],[-120.28315,49.43459],[-120.29482,49.4347],[-120.29572,49.43495],[-120.29728,49.43866],[-120.29872,49.43996],[-120.30095,49.44014],[-120.3025,49.43893],[-120.30427,49.43841],[-120.30891,49.43935],[-120.31487,49.44348],[-120.31555,49.44376],[-120.31369,49.44179],[-120.31647,49.44386],[-120.32246,49.44717],[-120.32415,49.4486],[-120.32713,49.44991],[-120.32769,49.45074],[-120.3288,49.45112],[-120.3307,49.4535],[-120.334,49.45541],[-120.33635,49.45558],[-120.33639,49.45515],[-120.33499,49.4548],[-120.33631,49.4549],[-120.33796,49.45557],[-120.34088,49.45614],[-120.34902,49.4599],[-120.35173,49.45987],[-120.35968,49.46218],[-120.36292,49.4623],[-120.36396,49.46214],[-120.36568,49.46129],[-120.36741,49.4593],[-120.36723,49.45858],[-120.3733,49.4553],[-120.37833,49.45428],[-120.38522,49.45374],[-120.38978,49.45443],[-120.39982,49.45814],[-120.40516,49.45932],[-120.41556,49.45963],[-120.42069,49.4595],[-120.42412,49.45905],[-120.42698,49.45922],[-120.43054,49.46118],[-120.43521,49.46166],[-120.43803,49.46233],[-120.44052,49.46329],[-120.44252,49.46495],[-120.44611,49.46648],[-120.44762,49.46572],[-120.44942,49.46338],[-120.45227,49.46185],[-120.4531,49.46093],[-120.45491,49.46062],[-120.46061,49.46078],[-120.46702,49.46201],[-120.47202,49.46192],[-120.47714,49.46271],[-120.47915,49.46241],[-120.48514,49.46018],[-120.48931,49.45982],[-120.49025,49.4602],[-120.4929,49.46277],[-120.49408,49.46348],[-120.4988,49.46504],[-120.50017,49.46496],[-120.50224,49.46334],[-120.50297,49.46228],[-120.5037,49.45827],[-120.50462,49.45594],[-120.50628,49.45473],[-120.50744,49.45331],[-120.50912,49.452],[-120.51021,49.45157],[-120.51293,49.45123],[-120.51778,49.44992],[-120.51881,49.44919],[-120.52007,49.44747],[-120.52526,49.44427],[-120.52556,49.44298],[-120.52344,49.44165],[-120.523,49.43928],[-120.52386,49.43823],[-120.52771,49.4367],[-120.52847,49.43554],[-120.52824,49.42915],[-120.52884,49.4274],[-120.52991,49.42617],[-120.53434,49.4243],[-120.53784,49.42396],[-120.53892,49.42245],[-120.53856,49.42142],[-120.54093,49.41995],[-120.5421,49.41588],[-120.54633,49.41234],[-120.54678,49.41146],[-120.54685,49.40996],[-120.54635,49.40923],[-120.54481,49.40822],[-120.54312,49.40766],[-120.5414,49.40642],[-120.54086,49.40576],[-120.54082,49.40429],[-120.54362,49.40255],[-120.54429,49.40051],[-120.5465,49.39986],[-120.54722,49.39876],[-120.54676,49.39682],[-120.54776,49.39054],[-120.5464,49.38464],[-120.54529,49.38327],[-120.54112,49.38144],[-120.54083,49.38094],[-120.54144,49.38022],[-120.54448,49.3793],[-120.54764,49.37745],[-120.54908,49.37711],[-120.55054,49.37737],[-120.55495,49.37709],[-120.55663,49.3765],[-120.55825,49.37395],[-120.55863,49.37118],[-120.55774,49.36999],[-120.55597,49.36949],[-120.55388,49.36957],[-120.55306,49.37028],[-120.5521,49.37008],[-120.55103,49.36956],[-120.54978,49.36808],[-120.54993,49.36686],[-120.55238,49.3629],[-120.55318,49.35897],[-120.55386,49.3579],[-120.55337,49.35736],[-120.54956,49.35661],[-120.54696,49.35498],[-120.54582,49.35016],[-120.54842,49.34804],[-120.54857,49.34674],[-120.54705,49.34531],[-120.5465,49.34394],[-120.54462,49.34173],[-120.54559,49.33962],[-120.54591,49.33727],[-120.54892,49.33567],[-120.54909,49.33432],[-120.54819,49.33266],[-120.54523,49.33023],[-120.54464,49.32904],[-120.54353,49.32808],[-120.54397,49.32725],[-120.5459,49.32611],[-120.546,49.32548],[-120.54355,49.32352],[-120.54191,49.32278],[-120.54147,49.32194],[-120.54175,49.31961],[-120.54135,49.31918],[-120.53904,49.31832],[-120.53804,49.31679],[-120.53866,49.31555],[-120.54113,49.31391],[-120.54119,49.31263],[-120.5439,49.31069],[-120.54434,49.30957],[-120.54594,49.30865],[-120.54783,49.30807],[-120.54835,49.30758],[-120.54824,49.30642],[-120.5467,49.30557],[-120.54519,49.30532],[-120.5443,49.30411],[-120.54591,49.30332],[-120.54887,49.3026],[-120.55159,49.30079],[-120.55179,49.30034],[-120.55023,49.29787],[-120.54882,49.29226],[-120.54896,49.29103],[-120.54997,49.28983],[-120.54991,49.28832],[-120.54944,49.28747],[-120.54742,49.28608],[-120.547,49.28494],[-120.54699,49.28393],[-120.54818,49.2827],[-120.54798,49.28173],[-120.54657,49.28073],[-120.53819,49.2788],[-120.53557,49.27781],[-120.53355,49.27613],[-120.53211,49.27376],[-120.53061,49.27272],[-120.53092,49.26927],[-120.53146,49.26871],[-120.53398,49.26768],[-120.53534,49.26587],[-120.5338,49.26114],[-120.53229,49.2588],[-120.53232,49.25712],[-120.53389,49.25404],[-120.53381,49.25326],[-120.53298,49.25193],[-120.53046,49.24981],[-120.53038,49.24872],[-120.53092,49.24828],[-120.53241,49.24795],[-120.53534,49.24605],[-120.53562,49.23863],[-120.53607,49.23771],[-120.53577,49.23668],[-120.53287,49.23328],[-120.5325,49.23238],[-120.53254,49.23163],[-120.5345,49.22938],[-120.53452,49.22859],[-120.52989,49.22666],[-120.52945,49.22579],[-120.53123,49.22317],[-120.53092,49.22186],[-120.53271,49.22023],[-120.531,49.21844],[-120.5327,49.21728],[-120.53477,49.21406],[-120.53484,49.21265],[-120.53551,49.21134],[-120.53669,49.21079],[-120.53727,49.20989],[-120.5381,49.20981],[-120.53903,49.21013],[-120.54046,49.2117],[-120.54107,49.21185],[-120.54178,49.2106],[-120.54111,49.20954],[-120.54113,49.20871],[-120.54188,49.20749],[-120.5456,49.20608],[-120.54815,49.20615],[-120.54972,49.20579],[-120.55054,49.20514],[-120.55123,49.20276],[-120.55192,49.2024],[-120.55354,49.20256],[-120.55482,49.20049],[-120.55458,49.20168],[-120.55368,49.20279],[-120.55178,49.20284],[-120.55135,49.20321],[-120.55124,49.20482],[-120.55057,49.20564],[-120.54841,49.20645],[-120.54563,49.20632],[-120.54296,49.20754],[-120.54207,49.20846],[-120.54244,49.21121],[-120.54173,49.21201],[-120.54097,49.21231],[-120.54004,49.21214],[-120.53805,49.21027],[-120.53753,49.21033],[-120.53558,49.21213],[-120.53545,49.21394],[-120.53315,49.2173],[-120.53144,49.21843],[-120.5321,49.21924],[-120.53326,49.21988],[-120.53336,49.2204],[-120.53142,49.22203],[-120.53167,49.22312],[-120.53025,49.22518],[-120.53008,49.22614],[-120.53087,49.22668],[-120.53498,49.22803],[-120.5351,49.22947],[-120.53319,49.23167],[-120.53308,49.23231],[-120.53401,49.23386],[-120.53624,49.23584],[-120.53678,49.23723],[-120.53618,49.23858],[-120.53644,49.23992],[-120.53594,49.24238],[-120.53595,49.2457],[-120.53516,49.24662],[-120.53268,49.24823],[-120.53082,49.24894],[-120.53189,49.25045],[-120.53397,49.25213],[-120.5345,49.25326],[-120.53447,49.25424],[-120.53312,49.25659],[-120.53301,49.25877],[-120.53404,49.26027],[-120.53602,49.26565],[-120.53351,49.2684],[-120.53217,49.26868],[-120.53155,49.26913],[-120.53114,49.27156],[-120.53134,49.27268],[-120.53297,49.27392],[-120.53405,49.27595],[-120.53643,49.27768],[-120.53801,49.27839],[-120.54653,49.28026],[-120.54759,49.28073],[-120.5488,49.28185],[-120.54871,49.28261],[-120.54741,49.28392],[-120.54739,49.28487],[-120.54782,49.28604],[-120.55035,49.28804],[-120.55041,49.28987],[-120.54936,49.29136],[-120.54928,49.29238],[-120.55076,49.29781],[-120.55222,49.29991],[-120.55224,49.30069],[-120.54901,49.3028],[-120.54502,49.30403],[-120.54546,49.30501],[-120.54678,49.30533],[-120.54873,49.30634],[-120.54894,49.3078],[-120.54555,49.30929],[-120.54233,49.31215],[-120.54173,49.31397],[-120.53936,49.31535],[-120.53865,49.31707],[-120.5394,49.31789],[-120.54133,49.31867],[-120.54235,49.31954],[-120.54218,49.32261],[-120.54392,49.32313],[-120.54437,49.32395],[-120.54644,49.32533],[-120.54632,49.32619],[-120.54425,49.32744],[-120.54404,49.32792],[-120.5453,49.32901],[-120.54693,49.33123],[-120.54827,49.33209],[-120.54963,49.33448],[-120.5494,49.33596],[-120.54631,49.33749],[-120.54627,49.33952],[-120.54518,49.34124],[-120.54601,49.34305],[-120.54905,49.3469],[-120.54869,49.34833],[-120.54665,49.3497],[-120.54621,49.35054],[-120.54724,49.35489],[-120.55031,49.35671],[-120.55327,49.3571],[-120.55422,49.35803],[-120.55336,49.35936],[-120.55351,49.36091],[-120.55272,49.3635],[-120.55085,49.36637],[-120.55035,49.36797],[-120.55228,49.36956],[-120.55577,49.36855],[-120.55677,49.36864],[-120.55815,49.36929],[-120.55945,49.37086],[-120.55973,49.37319],[-120.55867,49.37465],[-120.55859,49.37545],[-120.55687,49.37725],[-120.55156,49.37816],[-120.54869,49.37779],[-120.5456,49.37949],[-120.54264,49.38019],[-120.54169,49.38083],[-120.54263,49.38154],[-120.54483,49.38226],[-120.5469,49.38412],[-120.54846,49.38954],[-120.5486,49.39168],[-120.54743,49.3992],[-120.5468,49.39999],[-120.54443,49.40131],[-120.54365,49.40338],[-120.5419,49.40394],[-120.54128,49.40484],[-120.543,49.40653],[-120.54722,49.40917],[-120.54782,49.41105],[-120.54585,49.41375],[-120.5422,49.41638],[-120.54181,49.41974],[-120.54105,49.42059],[-120.53994,49.42116],[-120.53866,49.4238],[-120.53785,49.42426],[-120.53517,49.42438],[-120.53122,49.42593],[-120.52954,49.42707],[-120.52909,49.4282],[-120.52893,49.43575],[-120.52753,49.43727],[-120.52468,49.43847],[-120.5236,49.43936],[-120.52374,49.44088],[-120.52649,49.44339],[-120.52566,49.44537],[-120.52429,49.44624],[-120.5228,49.44645],[-120.52179,49.44704],[-120.51811,49.45027],[-120.51024,49.45199],[-120.50891,49.45272],[-120.50663,49.45519],[-120.50615,49.45651],[-120.50437,49.45801],[-120.50415,49.46079],[-120.50328,49.46305],[-120.50358,49.46363],[-120.50113,49.46515],[-120.49899,49.46556],[-120.49701,49.46547],[-120.49337,49.46408],[-120.48936,49.46063],[-120.48757,49.46027],[-120.48206,49.46168],[-120.47841,49.46314],[-120.47501,49.46304],[-120.47149,49.46222],[-120.46854,49.46248],[-120.46578,49.46233],[-120.46046,49.46126],[-120.45552,49.46119],[-120.45207,49.46254],[-120.44931,49.46458],[-120.44771,49.46625],[-120.44656,49.46678],[-120.44576,49.46677],[-120.44274,49.46564],[-120.43918,49.46301],[-120.43554,49.46212],[-120.43052,49.46171],[-120.42621,49.4595],[-120.41576,49.46026],[-120.40576,49.45998],[-120.39991,49.45889],[-120.39847,49.45795],[-120.39417,49.45684],[-120.39051,49.45527],[-120.38482,49.45403],[-120.38213,49.45427],[-120.37289,49.45613],[-120.36985,49.45796],[-120.36827,49.45931],[-120.36795,49.46009],[-120.36552,49.46198],[-120.36146,49.46296],[-120.35595,49.46229],[-120.35479,49.46124],[-120.35191,49.46056],[-120.35079,49.46049],[-120.35001,49.46105],[-120.34625,49.45939],[-120.34032,49.45734],[-120.34011,49.45676],[-120.33745,49.45623],[-120.33402,49.4561],[-120.329,49.45271],[-120.32693,49.45055],[-120.32405,49.44941],[-120.32115,49.44711],[-120.31345,49.44363],[-120.31093,49.44153],[-120.31121,49.44145],[-120.31077,49.441],[-120.30935,49.44033],[-120.30705,49.43954],[-120.30444,49.43916],[-120.30379,49.4393],[-120.30278,49.44022],[-120.30059,49.44064],[-120.29698,49.44006],[-120.29565,49.4391],[-120.29571,49.43627],[-120.29509,49.43554],[-120.29394,49.43512],[-120.2917,49.43539],[-120.28849,49.43507],[-120.28262,49.43534],[-120.28049,49.43659],[-120.27945,49.4367],[-120.27138,49.4318],[-120.27003,49.43025],[-120.26887,49.42602],[-120.26838,49.42545],[-120.26503,49.42409],[-120.26164,49.42374],[-120.25962,49.42317],[-120.25776,49.42238],[-120.25707,49.42168],[-120.25645,49.41915],[-120.25683,49.41807],[-120.25967,49.41568],[-120.26055,49.41254],[-120.26365,49.40984],[-120.26403,49.40913],[-120.26362,49.40778],[-120.26163,49.40623],[-120.26073,49.40506],[-120.25755,49.40326],[-120.25315,49.40224],[-120.24756,49.40219],[-120.24508,49.40289],[-120.24235,49.40211],[-120.239,49.40232],[-120.23259,49.40139],[-120.22886,49.39986],[-120.22646,49.39989],[-120.22411,49.39928],[-120.21923,49.39874],[-120.21389,49.39756],[-120.21258,49.39694],[-120.21106,49.39556],[-120.20628,49.39341],[-120.20515,49.39208],[-120.20506,49.3906],[-120.20448,49.38959],[-120.20234,49.38853],[-120.1997,49.38601],[-120.1978,49.38488],[-120.19464,49.38398],[-120.19114,49.3834],[-120.18949,49.3827],[-120.18315,49.38193],[-120.17933,49.38182],[-120.17327,49.38314],[-120.17065,49.38254],[-120.16632,49.38221],[-120.16028,49.38097],[-120.15715,49.37995],[-120.15261,49.37749],[-120.15036,49.37699],[-120.14887,49.3763],[-120.14708,49.37487],[-120.14666,49.37345],[-120.14564,49.37249],[-120.14494,49.37245],[-120.14272,49.3732],[-120.13876,49.37181],[-120.13462,49.36929],[-120.13072,49.36636],[-120.12789,49.36548],[-120.12265,49.36599],[-120.11921,49.36538],[-120.11814,49.36443],[-120.11783,49.36356],[-120.11888,49.36166],[-120.11861,49.36086],[-120.11645,49.35925],[-120.11295,49.35878],[-120.1078,49.35964],[-120.10629,49.35959],[-120.10499,49.35916],[-120.10226,49.35993],[-120.10045,49.35989],[-120.10002,49.35875],[-120.1029,49.35436],[-120.10289,49.35294],[-120.10115,49.35249],[-120.09881,49.3524],[-120.09198,49.35349],[-120.0895,49.35231],[-120.08935,49.35051],[-120.08879,49.34995],[-120.08629,49.34976],[-120.08446,49.35028],[-120.08297,49.35035],[-120.0812,49.35018],[-120.07965,49.34944],[-120.07811,49.34567],[-120.07752,49.34511],[-120.0761,49.34495],[-120.07341,49.34517],[-120.06675,49.34351],[-120.066,49.34207],[-120.06699,49.34063],[-120.06706,49.33916],[-120.0677,49.3389],[-120.06778,49.33851],[-120.06696,49.33704],[-120.06463,49.33542],[-120.06069,49.33518],[-120.05959,49.33536],[-120.05669,49.33421],[-120.05581,49.33265],[-120.05592,49.33138],[-120.05719,49.32909],[-120.05677,49.32851],[-120.05412,49.32794],[-120.05309,49.32698],[-120.05014,49.32657],[-120.04962,49.32674],[-120.04421,49.32468],[-120.04318,49.32399],[-120.04249,49.32298],[-120.04273,49.31877],[-120.04221,49.3178],[-120.03837,49.31515],[-120.03462,49.31135],[-120.03127,49.30533],[-120.02902,49.30279],[-120.02879,49.30071],[-120.02962,49.29945],[-120.03283,49.29666],[-120.03365,49.29311],[-120.03326,49.29072],[-120.03216,49.28972],[-120.03065,49.28898],[-120.03047,49.2884],[-120.0317,49.28688],[-120.0354,49.28369],[-120.0337,49.28146],[-120.03328,49.27577],[-120.03238,49.27263],[-120.02933,49.27007],[-120.02952,49.26916],[-120.0289,49.26846],[-120.02753,49.26746],[-120.02601,49.26721],[-120.02508,49.26638],[-120.02359,49.26303],[-120.01887,49.26139],[-120.01653,49.26007],[-120.01568,49.25854],[-120.01626,49.25504],[-120.015,49.25351],[-120.01393,49.25047],[-120.01289,49.24985],[-120.01012,49.24912],[-120.00433,49.24603],[-120.002,49.23908],[-120.00049,49.23842],[-119.99521,49.23703],[-119.99498,49.23616],[-119.99142,49.23443],[-119.99025,49.23339],[-119.9877,49.23302],[-119.98726,49.23346],[-119.98687,49.23338],[-119.98697,49.23299],[-119.98629,49.23222],[-119.98399,49.23255],[-119.98276,49.23219],[-119.98061,49.23088],[-119.97802,49.22797],[-119.97803,49.22669],[-119.97743,49.22604],[-119.97574,49.2263],[-119.97356,49.22565],[-119.97059,49.22567],[-119.96781,49.2269],[-119.96311,49.22514],[-119.9572,49.21995],[-119.95273,49.21821],[-119.9509,49.21826],[-119.94811,49.21956],[-119.9448,49.21997],[-119.9423,49.21974],[-119.93515,49.21997],[-119.93056,49.21828],[-119.92859,49.2172],[-119.92299,49.21307],[-119.91761,49.21151],[-119.91529,49.21152],[-119.9076,49.21291],[-119.90334,49.21316],[-119.90195,49.2129],[-119.8987,49.21187],[-119.89442,49.20996],[-119.89304,49.20903],[-119.89402,49.20949],[-119.89302,49.20835],[-119.89168,49.20797],[-119.89072,49.20651],[-119.88777,49.20396],[-119.88345,49.20196],[-119.88106,49.2019],[-119.87989,49.20147],[-119.87883,49.20174],[-119.87897,49.20205],[-119.87751,49.20197],[-119.87715,49.20169],[-119.87629,49.20179],[-119.87104,49.20454],[-119.86923,49.20442],[-119.8648,49.20379],[-119.86044,49.20272],[-119.85747,49.20167],[-119.85277,49.19924],[-119.85024,49.19887],[-119.84752,49.19937],[-119.84183,49.20123],[-119.83995,49.20141],[-119.83736,49.20101],[-119.83497,49.201],[-119.82733,49.19911],[-119.82541,49.19925],[-119.82283,49.19901],[-119.82093,49.1996],[-119.81761,49.20137],[-119.81438,49.20207],[-119.81291,49.20182],[-119.80609,49.19939],[-119.80587,49.19899],[-119.80215,49.19683],[-119.80133,49.19566],[-119.80043,49.19524],[-119.79928,49.19535],[-119.79711,49.19474],[-119.79536,49.19484],[-119.79202,49.19621],[-119.78529,49.19739],[-119.78313,49.19683],[-119.78135,49.19598],[-119.7797,49.19393],[-119.77969,49.19304],[-119.7811,49.19199],[-119.78243,49.19168],[-119.78452,49.1896],[-119.78395,49.18849],[-119.78349,49.18907],[-119.78202,49.18976],[-119.78077,49.18961],[-119.78313,49.18902],[-119.78361,49.18833],[-119.78248,49.18487],[-119.77931,49.18234],[-119.77651,49.17886],[-119.77579,49.17879],[-119.77631,49.17675],[-119.77209,49.17318],[-119.77271,49.17241],[-119.77192,49.17189],[-119.77063,49.17191],[-119.76853,49.17052],[-119.76641,49.16988],[-119.76507,49.16864],[-119.76456,49.16726],[-119.76573,49.16626],[-119.76584,49.16553],[-119.7666,49.16512],[-119.76679,49.16287],[-119.76517,49.16204],[-119.76343,49.16171],[-119.76297,49.16062],[-119.76084,49.15906],[-119.75804,49.15897],[-119.75469,49.15628],[-119.75401,49.1553],[-119.75393,49.15421],[-119.75469,49.15331],[-119.75828,49.15102],[-119.76095,49.15033],[-119.76137,49.14951],[-119.76062,49.14839],[-119.75517,49.14439],[-119.75652,49.14007],[-119.75598,49.13974],[-119.75589,49.13834],[-119.75506,49.13792],[-119.75528,49.13693],[-119.75384,49.13539],[-119.75439,49.13245],[-119.75208,49.13021],[-119.75086,49.12753],[-119.7509,49.12621],[-119.74964,49.12573],[-119.74714,49.12581],[-119.74576,49.12517],[-119.74569,49.1239],[-119.74502,49.12271],[-119.74565,49.12095],[-119.74321,49.11818],[-119.74365,49.11487],[-119.74322,49.11392],[-119.74157,49.11272],[-119.7422,49.11112],[-119.74099,49.10931],[-119.73942,49.1085],[-119.73902,49.10771],[-119.73714,49.10712],[-119.73507,49.10702],[-119.73203,49.10565],[-119.72938,49.10404],[-119.72855,49.10293],[-119.72875,49.10171],[-119.73018,49.1008],[-119.73418,49.1011],[-119.73896,49.10064],[-119.73841,49.09878],[-119.73854,49.09676],[-119.73798,49.09546],[-119.73684,49.09443],[-119.73285,49.09293],[-119.72636,49.08673],[-119.72378,49.08635],[-119.72227,49.0866],[-119.7197,49.08614],[-119.71913,49.08527],[-119.71762,49.08449],[-119.71623,49.08393],[-119.71474,49.08392],[-119.71311,49.08237],[-119.71022,49.08084],[-119.71015,49.07996],[-119.70894,49.07908],[-119.71206,49.07589],[-119.71462,49.07409],[-119.71572,49.07214],[-119.71495,49.07038],[-119.71421,49.06978],[-119.71219,49.06916],[-119.70902,49.06911],[-119.70738,49.06872],[-119.70647,49.06643],[-119.70658,49.06549],[-119.70895,49.0618],[-119.70982,49.06104],[-119.7131,49.05903],[-119.71665,49.05754],[-119.71714,49.05659],[-119.71585,49.05529],[-119.71489,49.05326],[-119.7125,49.05171],[-119.70857,49.0504],[-119.70697,49.04796],[-119.7069,49.04667],[-119.70759,49.04452],[-119.71009,49.04117],[-119.70964,49.04043],[-119.7083,49.04021],[-119.70643,49.03885],[-119.70645,49.0376],[-119.70702,49.03635],[-119.70933,49.03379],[-119.7097,49.03228],[-119.70947,49.03158],[-119.70846,49.03088],[-119.70646,49.03074],[-119.70008,49.03215],[-119.69788,49.03153],[-119.69973,49.02495],[-119.69909,49.02309],[-119.69671,49.02032],[-119.69653,49.01931],[-119.6972,49.01773],[-119.69821,49.01657],[-119.69986,49.01551],[-119.70172,49.015],[-119.70348,49.01487],[-119.70543,49.01517],[-119.70686,49.01476],[-119.70519,49.01234],[-119.70357,49.01115],[-119.70165,49.01064],[-119.7006,49.01001],[-119.69995,49.00703],[-119.70091,49.00462],[-119.70084,49.00355],[-119.70162,49.00325],[-119.70222,49.0023],[-119.7009,49.00169],[-119.70196,49.00095],[-119.70125,49.0],[-119.70297,49.0],[-119.70355,49.00192],[-119.70296,49.00392],[-119.70166,49.00508],[-119.70226,49.00628],[-119.70126,49.00687],[-119.70108,49.00805],[-119.70199,49.00933],[-119.70376,49.01033],[-119.70574,49.01097],[-119.70792,49.01376],[-119.70817,49.01465],[-119.7079,49.01553],[-119.70726,49.0158],[-119.70403,49.01603],[-119.70265,49.01579],[-119.70033,49.01613],[-119.69767,49.01847],[-119.69772,49.01942],[-119.69987,49.02183],[-119.70074,49.02421],[-119.70083,49.02714],[-119.69917,49.03065],[-119.70313,49.03093],[-119.70544,49.03014],[-119.70596,49.02942],[-119.70709,49.02927],[-119.71008,49.02992],[-119.71127,49.03071],[-119.71146,49.03197],[-119.71066,49.0336],[-119.70998,49.03467],[-119.70743,49.03683],[-119.70775,49.03773],[-119.71114,49.04012],[-119.7116,49.04103],[-119.7115,49.04213],[-119.71087,49.04225],[-119.71014,49.04378],[-119.70895,49.04481],[-119.70884,49.04609],[-119.70823,49.04696],[-119.70822,49.04835],[-119.70871,49.04927],[-119.71225,49.04989],[-119.71272,49.05075],[-119.7143,49.05142],[-119.71551,49.0528],[-119.71702,49.05366],[-119.71704,49.05416],[-119.71856,49.05594],[-119.71685,49.05827],[-119.71015,49.06194],[-119.70898,49.06332],[-119.7078,49.06604],[-119.70761,49.06741],[-119.70823,49.06786],[-119.71257,49.06837],[-119.7147,49.06899],[-119.71619,49.07044],[-119.71671,49.07247],[-119.71658,49.07333],[-119.71529,49.07486],[-119.71001,49.07901],[-119.71285,49.08091],[-119.71213,49.08088],[-119.7129,49.08153],[-119.71438,49.08196],[-119.71522,49.0828],[-119.71691,49.08364],[-119.71985,49.08421],[-119.71978,49.08517],[-119.72095,49.08544],[-119.72456,49.08528],[-119.72774,49.08641],[-119.73099,49.08912],[-119.73093,49.08965],[-119.73284,49.09153],[-119.73821,49.09446],[-119.73937,49.0959],[-119.73979,49.10004],[-119.74054,49.10096],[-119.73939,49.10206],[-119.73256,49.10185],[-119.73097,49.10196],[-119.73033,49.1026],[-119.73109,49.10273],[-119.73126,49.1036],[-119.73235,49.10439],[-119.73646,49.10571],[-119.74037,49.10745],[-119.74352,49.11044],[-119.74465,49.11101],[-119.74388,49.11094],[-119.74456,49.11265],[-119.74534,49.11336],[-119.74496,49.1135],[-119.74553,49.11438],[-119.74538,49.11578],[-119.7464,49.11743],[-119.74644,49.11871],[-119.74753,49.12004],[-119.74773,49.12335],[-119.7509,49.12437],[-119.75361,49.12434],[-119.75564,49.12553],[-119.7536,49.12773],[-119.75602,49.13028],[-119.75624,49.13321],[-119.75786,49.13408],[-119.75767,49.13455],[-119.75584,49.13511],[-119.75562,49.13594],[-119.75658,49.13718],[-119.75809,49.13782],[-119.75847,49.1393],[-119.75817,49.14037],[-119.75886,49.14132],[-119.7581,49.14325],[-119.75831,49.14391],[-119.75682,49.14477],[-119.76122,49.14691],[-119.76206,49.14691],[-119.76184,49.1476],[-119.7628,49.1509],[-119.76252,49.15172],[-119.75821,49.1526],[-119.75662,49.15394],[-119.75655,49.1542],[-119.75775,49.15476],[-119.75717,49.15672],[-119.75839,49.15718],[-119.76166,49.15719],[-119.76443,49.15987],[-119.76521,49.16154],[-119.76634,49.16226],[-119.76782,49.16269],[-119.76851,49.16452],[-119.76786,49.16671],[-119.76719,49.16744],[-119.7673,49.16802],[-119.76984,49.17032],[-119.77169,49.17079],[-119.77433,49.17215],[-119.7744,49.17315],[-119.77702,49.17654],[-119.77776,49.17892],[-119.7794,49.1801],[-119.781,49.18216]],[[-120.0584,49.33466],[-120.05839,49.33453],[-120.05788,49.3345],[-120.0584,49.33466]],[[-119.82502,49.198],[-119.8255,49.19794],[-119.82548,49.19784],[-119.82479,49.19768],[-119.82502,49.198]],[[-119.82382,49.19809],[-119.82372,49.19821],[-119.82459,49.19833],[-119.82444,49.19805],[-119.82382,49.19809]]]}},
{"type":"Feature","properties":{"name":"Okanagan River","ha":66,"band":"winter open water","months":[1,2,12],"monthsKey":",1,2,12,","monthsText":"Jan, Feb, Dec","elevM":296,"cert":55,"label":"general pattern"},"geometry":{"type":"Polygon","coordinates":[[[-119.54588,49.18228],[-119.5481,49.18489],[-119.55247,49.19666],[-119.55284,49.1995],[-119.55219,49.20141],[-119.55088,49.20314],[-119.54638,49.20618],[-119.54493,49.20846],[-119.54483,49.21035],[-119.54546,49.21304],[-119.54649,49.21447],[-119.54604,49.2163],[-119.54669,49.21756],[-119.54647,49.21911],[-119.54423,49.2237],[-119.54441,49.22527],[-119.54535,49.22595],[-119.54533,49.22668],[-119.54315,49.22744],[-119.54244,49.22812],[-119.54167,49.23001],[-119.54003,49.23087],[-119.53999,49.23225],[-119.53947,49.23306],[-119.53716,49.23462],[-119.53431,49.2352],[-119.5311,49.23707],[-119.53119,49.23782],[-119.53001,49.23984],[-119.5308,49.24457],[-119.53004,49.24564],[-119.53,49.24731],[-119.53049,49.24798],[-119.52834,49.24981],[-119.52731,49.25377],[-119.52869,49.2566],[-119.52964,49.26061],[-119.53172,49.26342],[-119.53089,49.26553],[-119.53114,49.26696],[-119.53053,49.26865],[-119.52993,49.26869],[-119.52989,49.2685],[-119.53061,49.26672],[-119.53036,49.26534],[-119.53118,49.26355],[-119.52895,49.2604],[-119.52808,49.25593],[-119.52727,49.25459],[-119.52708,49.25345],[-119.52731,49.25157],[-119.52833,49.24922],[-119.52957,49.2487],[-119.53014,49.2481],[-119.52974,49.24734],[-119.52982,49.24534],[-119.53062,49.24445],[-119.53014,49.24354],[-119.53036,49.24275],[-119.52978,49.2411],[-119.52962,49.23938],[-119.53051,49.23809],[-119.53039,49.23718],[-119.5316,49.23672],[-119.53429,49.23494],[-119.53626,49.23455],[-119.53702,49.2336],[-119.53903,49.23309],[-119.53976,49.23085],[-119.54157,49.22983],[-119.54248,49.22783],[-119.54299,49.22739],[-119.54489,49.22663],[-119.54412,49.22523],[-119.544,49.22375],[-119.54641,49.21789],[-119.54578,49.21619],[-119.54626,49.21443],[-119.54488,49.21293],[-119.54518,49.2127],[-119.54447,49.21042],[-119.54458,49.20829],[-119.54628,49.20595],[-119.54896,49.20428],[-119.551,49.20253],[-119.55222,49.20056],[-119.55254,49.19905],[-119.55222,49.19688],[-119.5478,49.18481],[-119.54617,49.18288],[-119.54252,49.18023],[-119.54089,49.17785],[-119.5388,49.1721],[-119.53935,49.16817],[-119.54732,49.15918],[-119.56871,49.14426],[-119.57288,49.14094],[-119.57467,49.13797],[-119.5766,49.12939],[-119.57543,49.12747],[-119.57201,49.12534],[-119.57084,49.12389],[-119.56959,49.11885],[-119.5676,49.1159],[-119.5507,49.10113],[-119.52142,49.07892],[-119.51888,49.07712],[-119.51829,49.07718],[-119.51825,49.07665],[-119.51748,49.07597],[-119.51806,49.07593],[-119.52065,49.07777],[-119.522,49.07797],[-119.52197,49.07823],[-119.52137,49.07832],[-119.52158,49.07863],[-119.54955,49.09986],[-119.56796,49.11586],[-119.56963,49.11802],[-119.57109,49.12377],[-119.57296,49.12565],[-119.57579,49.12735],[-119.57695,49.12932],[-119.57483,49.13851],[-119.57306,49.14124],[-119.57155,49.14262],[-119.54749,49.1594],[-119.54025,49.16733],[-119.53944,49.16894],[-119.53905,49.17105],[-119.53937,49.17304],[-119.54219,49.1795],[-119.54588,49.18228]]]}},
{"type":"Feature","properties":{"name":"Okanagan River","ha":21,"band":"winter open water","months":[1,2,12],"monthsKey":",1,2,12,","monthsText":"Jan, Feb, Dec","elevM":333,"cert":55,"label":"general pattern"},"geometry":{"type":"Polygon","coordinates":[[[-119.55122,49.31397],[-119.54556,49.30687],[-119.54632,49.30662],[-119.54956,49.31133],[-119.55209,49.31406],[-119.56071,49.31945],[-119.56821,49.32329],[-119.57417,49.32917],[-119.5771,49.33152],[-119.57808,49.3328],[-119.57947,49.33734],[-119.58073,49.33913],[-119.57999,49.34095],[-119.58041,49.34211],[-119.58023,49.34458],[-119.5799,49.34447],[-119.58014,49.34262],[-119.57953,49.34095],[-119.58032,49.33942],[-119.57894,49.33736],[-119.5772,49.33237],[-119.57334,49.32905],[-119.56821,49.32381],[-119.55938,49.31925],[-119.55122,49.31397]]]}}
]}
