{"type":"FeatureCollection","features":[
{"type":"Feature","properties":{"spotId":"F-moose-backcountry-0010","kind":"backcountry","km":7.44,"climbM":505,"name":"1.8 km S of Gass, Mount","flags":["Route touches city limits: District of Elkford. Local firearm bylaw applies.","Route crosses private land (ParcelMap BC, updated 2026-09-26): get permission first or go around."]},"geometry":{"type":"LineString","coordinates":[[-114.80479,50.06036],[-114.80396,50.06059],[-114.80388,50.06061],[-114.80383,50.06063],[-114.80379,50.06065],[-114.80376,50.06065],[-114.80372,50.06066],[-114.80367,50.06067],[-114.80359,50.06069],[-114.80351,50.06069],[-114.80343,50.06071],[-114.80334,50.06073],[-114.8032,50.06076],[-114.80306,50.06079],[-114.80293,50.06083],[-114.80282,50.06087],[-114.8027,50.0609],[-114.80259,50.06094],[-114.80246,50.06097],[-114.80232,50.06101],[-114.80219,50.06105],[-114.80208,50.06109],[-114.802,50.06112],[-114.80191,50.06115],[-114.80181,50.06119],[-114.8017,50.06124],[-114.80158,50.06129],[-114.80145,50.06134],[-114.80131,50.06139],[-114.80117,50.06145],[-114.80103,50.06151],[-114.80089,50.06156],[-114.80069,50.06162],[-114.8005,50.06168],[-114.80032,50.06174],[-114.80015,50.06179],[-114.80001,50.06184],[-114.79985,50.0619],[-114.79965,50.06199],[-114.79946,50.06208],[-114.79926,50.06218],[-114.79911,50.06228],[-114.79895,50.06237],[-114.79879,50.06247],[-114.79863,50.06258],[-114.79849,50.0627],[-114.79831,50.06282],[-114.79815,50.06293],[-114.79801,50.06305],[-114.79786,50.06315],[-114.79775,50.06326],[-114.79765,50.06333],[-114.79756,50.0634],[-114.79746,50.06348],[-114.79734,50.06357],[-114.79723,50.06367],[-114.79712,50.06377],[-114.79699,50.06389],[-114.79689,50.06401],[-114.79677,50.06415],[-114.79665,50.06428],[-114.79655,50.06442],[-114.79643,50.06456],[-114.7963,50.0647],[-114.79618,50.06484],[-114.79608,50.06496],[-114.79597,50.06506],[-114.79586,50.06516],[-114.79574,50.0653],[-114.79559,50.06544],[-114.79546,50.06558],[-114.79534,50.06571],[-114.79521,50.06585],[-114.79509,50.06599],[-114.79497,50.06615],[-114.79484,50.06631],[-114.79471,50.06649],[-114.79462,50.06662],[-114.79451,50.06677],[-114.79442,50.06689],[-114.79433,50.06699],[-114.79425,50.06706],[-114.79419,50.06708],[-114.79413,50.06713],[-114.79406,50.06718],[-114.79399,50.06724],[-114.79392,50.06729],[-114.79376,50.06743],[-114.7936,50.06755],[-114.79346,50.06768],[-114.79331,50.0678],[-114.79313,50.06792],[-114.793,50.06801],[-114.79289,50.06811],[-114.79276,50.0682],[-114.79265,50.06828],[-114.79257,50.06834],[-114.79249,50.06841],[-114.79239,50.06849],[-114.79229,50.06858],[-114.79216,50.06867],[-114.79205,50.06875],[-114.79194,50.06882],[-114.79183,50.06888],[-114.79172,50.06895],[-114.7916,50.06901],[-114.79149,50.06908],[-114.79134,50.06918],[-114.7912,50.06927],[-114.79107,50.06936],[-114.79097,50.06945],[-114.79088,50.06953],[-114.7908,50.06961],[-114.7907,50.0697],[-114.7906,50.0698],[-114.79048,50.0699],[-114.79038,50.06999],[-114.79028,50.07008],[-114.79018,50.07017],[-114.79006,50.07027],[-114.78996,50.07037],[-114.78984,50.07047],[-114.78973,50.07056],[-114.78961,50.07066],[-114.78949,50.07075],[-114.78941,50.07082],[-114.78932,50.07089],[-114.78923,50.07096],[-114.78913,50.07104],[-114.78903,50.07114],[-114.78893,50.07124],[-114.78884,50.07134],[-114.78876,50.07142],[-114.78869,50.07152],[-114.78863,50.07162],[-114.78855,50.07173],[-114.78848,50.07184],[-114.78837,50.072],[-114.78826,50.07216],[-114.78812,50.0723],[-114.78801,50.07243],[-114.78792,50.07251],[-114.78783,50.07257],[-114.78772,50.07265],[-114.7876,50.07277],[-114.78748,50.07288],[-114.78738,50.073],[-114.7873,50.07311],[-114.78721,50.07322],[-114.78714,50.07333],[-114.78708,50.07343],[-114.787,50.07354],[-114.787,50.07359],[-114.78699,50.07362],[-114.78698,50.07366],[-114.78697,50.07369],[-114.78695,50.07372],[-114.78694,50.07375],[-114.78691,50.07379],[-114.78688,50.07383],[-114.78686,50.07387],[-114.78683,50.07392],[-114.78682,50.07394],[-114.7868,50.07398],[-114.78679,50.074],[-114.78677,50.07404],[-114.78676,50.07407],[-114.78673,50.07413],[-114.78668,50.07419],[-114.78665,50.07424],[-114.78662,50.0743],[-114.7866,50.07433],[-114.78657,50.07437],[-114.78655,50.0744],[-114.78652,50.07443],[-114.78649,50.07448],[-114.78646,50.0745],[-114.78644,50.07453],[-114.78641,50.07455],[-114.7864,50.07456],[-114.78637,50.07459],[-114.78634,50.07461],[-114.78631,50.07465],[-114.78629,50.0747],[-114.78626,50.07474],[-114.78625,50.07478],[-114.78622,50.07481],[-114.78619,50.07487],[-114.78614,50.07494],[-114.7861,50.07501],[-114.78605,50.07509],[-114.78601,50.07517],[-114.78599,50.07521],[-114.78596,50.07526],[-114.78594,50.0753],[-114.78591,50.07534],[-114.78589,50.07536],[-114.78584,50.07541],[-114.78577,50.07546],[-114.78571,50.07551],[-114.78562,50.07557],[-114.78557,50.07562],[-114.78546,50.07571],[-114.78544,50.07574],[-114.78538,50.07581],[-114.78529,50.07591],[-114.78521,50.07603],[-114.78514,50.07615],[-114.78509,50.07623],[-114.78505,50.07631],[-114.785,50.07639],[-114.78497,50.07645],[-114.78494,50.07651],[-114.78494,50.07654],[-114.78491,50.07658],[-114.78489,50.07662],[-114.78488,50.07667],[-114.78485,50.0767],[-114.78483,50.07674],[-114.78481,50.07677],[-114.78478,50.07682],[-114.78477,50.07685],[-114.78474,50.07689],[-114.78472,50.07692],[-114.78469,50.07694],[-114.78468,50.07697],[-114.78466,50.077],[-114.78465,50.07701],[-114.78463,50.07704],[-114.7846,50.07707],[-114.78459,50.07711],[-114.78457,50.07715],[-114.78454,50.07717],[-114.78453,50.07721],[-114.78451,50.07724],[-114.78448,50.07726],[-114.78447,50.07729],[-114.78444,50.07732],[-114.78441,50.07736],[-114.78438,50.07739],[-114.78436,50.07743],[-114.78434,50.07747],[-114.78432,50.07749],[-114.78429,50.07754],[-114.78425,50.07758],[-114.78422,50.07763],[-114.78417,50.07768],[-114.78414,50.07772],[-114.7841,50.07777],[-114.78407,50.07781],[-114.78402,50.07786],[-114.78398,50.0779],[-114.78392,50.07794],[-114.78388,50.07798],[-114.78385,50.07801],[-114.78381,50.07804],[-114.78378,50.07807],[-114.78373,50.07809],[-114.78368,50.07813],[-114.7836,50.07817],[-114.78353,50.07822],[-114.78346,50.07827],[-114.78339,50.07832],[-114.78333,50.07835],[-114.78329,50.07839],[-114.78323,50.07842],[-114.78317,50.07847],[-114.78313,50.0785],[-114.78308,50.07854],[-114.78305,50.07857],[-114.78302,50.07861],[-114.78299,50.07865],[-114.78298,50.07867],[-114.78295,50.07872],[-114.78293,50.07876],[-114.78289,50.07881],[-114.78287,50.07886],[-114.78283,50.0789],[-114.7828,50.07893],[-114.78277,50.07896],[-114.78273,50.07899],[-114.7827,50.07903],[-114.78265,50.07906],[-114.7826,50.07911],[-114.78254,50.07915],[-114.78249,50.07919],[-114.78245,50.07923],[-114.78239,50.07925],[-114.78235,50.07929],[-114.78231,50.07932],[-114.78225,50.07937],[-114.78219,50.07941],[-114.78216,50.07945],[-114.78213,50.07948],[-114.7821,50.07953],[-114.78206,50.07956],[-114.78203,50.0796],[-114.78198,50.07964],[-114.78193,50.07969],[-114.78185,50.07972],[-114.7818,50.07976],[-114.78173,50.07978],[-114.78168,50.07981],[-114.78161,50.07984],[-114.78155,50.07989],[-114.78148,50.07994],[-114.78141,50.07998],[-114.78135,50.08004],[-114.78125,50.08011],[-114.78113,50.08017],[-114.78102,50.08024],[-114.7809,50.08031],[-114.78078,50.08039],[-114.78073,50.08042],[-114.78069,50.08045],[-114.78065,50.08049],[-114.78062,50.08052],[-114.78057,50.08055],[-114.78048,50.08063],[-114.78047,50.08065],[-114.78035,50.08076],[-114.78025,50.08088],[-114.78016,50.08098],[-114.7801,50.08107],[-114.78007,50.08109],[-114.78006,50.08112],[-114.78004,50.08114],[-114.78001,50.08118],[-114.77998,50.08121],[-114.77995,50.08126],[-114.77992,50.0813],[-114.77988,50.08135],[-114.77985,50.08137],[-114.77982,50.0814],[-114.77978,50.08142],[-114.77975,50.08144],[-114.77971,50.08147],[-114.77965,50.0815],[-114.77962,50.08152],[-114.77956,50.08156],[-114.77952,50.08159],[-114.77947,50.08162],[-114.77943,50.08165],[-114.77939,50.08169],[-114.77932,50.08173],[-114.77926,50.08177],[-114.77919,50.08181],[-114.77913,50.08185],[-114.77909,50.08187],[-114.77906,50.0819],[-114.77901,50.08193],[-114.77897,50.08197],[-114.77893,50.08201],[-114.77888,50.08205],[-114.77885,50.08207],[-114.77881,50.0821],[-114.77878,50.08214],[-114.77875,50.08216],[-114.77872,50.08219],[-114.77868,50.08224],[-114.77862,50.08229],[-114.77857,50.08236],[-114.7785,50.08241],[-114.77842,50.08246],[-114.77834,50.08251],[-114.77829,50.08255],[-114.77821,50.08258],[-114.77814,50.08262],[-114.77804,50.08266],[-114.77769,50.0828],[-114.77739,50.08292],[-114.77712,50.08302],[-114.77686,50.08311],[-114.77661,50.0832],[-114.77638,50.0833],[-114.77615,50.08341],[-114.77589,50.08352],[-114.77565,50.08366],[-114.7754,50.08382],[-114.77527,50.08389],[-114.77526,50.0839],[-114.77514,50.08397],[-114.77503,50.08405],[-114.77491,50.08414],[-114.7748,50.08423],[-114.77474,50.08429],[-114.77468,50.08434],[-114.77462,50.08439],[-114.77456,50.08444],[-114.77452,50.08449],[-114.77442,50.08457],[-114.77439,50.0846],[-114.77433,50.08465],[-114.77424,50.08474],[-114.77415,50.08484],[-114.77406,50.08497],[-114.77394,50.08518],[-114.77385,50.08537],[-114.7738,50.08554],[-114.77374,50.08572],[-114.77366,50.0859],[-114.77358,50.08602],[-114.77351,50.08613],[-114.77343,50.08623],[-114.77334,50.08634],[-114.77327,50.08645],[-114.7731,50.08665],[-114.77294,50.08686],[-114.77278,50.08708],[-114.7726,50.08732],[-114.7724,50.08757],[-114.77224,50.08779],[-114.77211,50.08798],[-114.77197,50.08816],[-114.77184,50.08834],[-114.77168,50.08853],[-114.77153,50.08871],[-114.77137,50.08887],[-114.77122,50.08902],[-114.77109,50.08918],[-114.77097,50.08933],[-114.77092,50.08941],[-114.77089,50.08948],[-114.77083,50.08955],[-114.77079,50.08963],[-114.77071,50.08971],[-114.77065,50.08979],[-114.77059,50.08985],[-114.77055,50.0899],[-114.77048,50.08996],[-114.7704,50.09003],[-114.77023,50.09018],[-114.77007,50.09032],[-114.76992,50.09044],[-114.76979,50.09055],[-114.76965,50.09067],[-114.76954,50.09076],[-114.76953,50.09077],[-114.76944,50.09084],[-114.76933,50.09093],[-114.7692,50.09102],[-114.76905,50.0911],[-114.76897,50.09114],[-114.7689,50.09118],[-114.76881,50.09121],[-114.76873,50.09124],[-114.76867,50.09126],[-114.76863,50.09128],[-114.76851,50.09131],[-114.76848,50.09132],[-114.7684,50.09135],[-114.76831,50.09138],[-114.76821,50.0914],[-114.76813,50.09143],[-114.768,50.09148],[-114.76789,50.09153],[-114.76777,50.0916],[-114.76766,50.09168],[-114.76755,50.09177],[-114.76745,50.09187],[-114.76736,50.09196],[-114.7673,50.09204],[-114.76723,50.09214],[-114.76714,50.09226],[-114.76692,50.09252],[-114.76673,50.09275],[-114.76655,50.09296],[-114.76637,50.09316],[-114.76618,50.09336],[-114.76609,50.09345],[-114.76599,50.09354],[-114.76592,50.09363],[-114.76583,50.09372],[-114.76577,50.09382],[-114.76574,50.09388],[-114.76572,50.09393],[-114.7657,50.09398],[-114.76567,50.09405],[-114.76564,50.09412],[-114.76561,50.09419],[-114.76555,50.09431],[-114.76549,50.09446],[-114.76541,50.09461],[-114.76535,50.09474],[-114.76527,50.09487],[-114.76524,50.09494],[-114.76519,50.09501],[-114.76515,50.09508],[-114.76509,50.09515],[-114.76503,50.09522],[-114.76499,50.09526],[-114.76496,50.0953],[-114.76491,50.09534],[-114.76486,50.09538],[-114.76478,50.09543],[-114.76471,50.09548],[-114.76464,50.09551],[-114.76457,50.09554],[-114.76451,50.09558],[-114.76444,50.09562],[-114.76435,50.09567],[-114.76429,50.09571],[-114.76424,50.09576],[-114.76421,50.09581],[-114.76422,50.09586],[-114.76409,50.09595],[-114.76386,50.0961],[-114.76361,50.09626],[-114.76335,50.09645],[-114.76305,50.09664],[-114.7628,50.09682],[-114.7626,50.09697],[-114.7624,50.09712],[-114.76218,50.09726],[-114.76192,50.09741],[-114.76169,50.09752],[-114.76148,50.09762],[-114.76128,50.09771],[-114.76108,50.0978],[-114.76091,50.09789],[-114.76073,50.098],[-114.76059,50.09811],[-114.76043,50.09824],[-114.76027,50.09838],[-114.76011,50.09853],[-114.76002,50.09861],[-114.75993,50.09869],[-114.75986,50.09876],[-114.75974,50.09883],[-114.75962,50.0989],[-114.75946,50.09895],[-114.75939,50.09898],[-114.75916,50.09905],[-114.75895,50.09909],[-114.75874,50.09913],[-114.75853,50.09916],[-114.75837,50.09919],[-114.7582,50.09924],[-114.75802,50.09928],[-114.75783,50.09933],[-114.75761,50.09937],[-114.75734,50.09942],[-114.75711,50.09946],[-114.7569,50.09949],[-114.75669,50.09952],[-114.75645,50.09957],[-114.75625,50.09963],[-114.75605,50.09968],[-114.75587,50.09973],[-114.7557,50.09979],[-114.75552,50.09984],[-114.75535,50.09988],[-114.75518,50.09993],[-114.75501,50.09998],[-114.75495,50.1],[-114.75482,50.10004],[-114.75465,50.10011],[-114.75456,50.10015],[-114.75449,50.10018],[-114.75442,50.10021],[-114.75435,50.10025],[-114.75426,50.10028],[-114.75415,50.10033],[-114.75405,50.10036],[-114.75395,50.10039],[-114.75385,50.10042],[-114.75375,50.10044],[-114.75364,50.10044],[-114.75354,50.10045],[-114.75343,50.10045],[-114.75332,50.10045],[-114.75319,50.10043],[-114.75313,50.10043],[-114.75306,50.10043],[-114.753,50.10043],[-114.75294,50.10043],[-114.75287,50.10044],[-114.7527,50.10047],[-114.75255,50.10051],[-114.75242,50.10054],[-114.75231,50.10059],[-114.75219,50.10062],[-114.75192,50.10071],[-114.75165,50.10079],[-114.75136,50.10088],[-114.75103,50.10096],[-114.75068,50.10106],[-114.75046,50.10112],[-114.75041,50.10114],[-114.75017,50.1012],[-114.74994,50.10127],[-114.74971,50.10133],[-114.74946,50.10138],[-114.74932,50.1014],[-114.74916,50.10143],[-114.74902,50.10144],[-114.74888,50.10147],[-114.74875,50.10148],[-114.74839,50.10155],[-114.74828,50.10154],[-114.74818,50.10154],[-114.74805,50.10155],[-114.74791,50.10156],[-114.74776,50.10159],[-114.7476,50.10162],[-114.74747,50.10165],[-114.74736,50.10168],[-114.74726,50.10171],[-114.74715,50.10175],[-114.74706,50.10177],[-114.74698,50.1018],[-114.74689,50.10181],[-114.74679,50.10184],[-114.74671,50.10186],[-114.74661,50.10186],[-114.7465,50.10187],[-114.74639,50.10189],[-114.74627,50.10189],[-114.74615,50.10193],[-114.74603,50.10195],[-114.74595,50.10198],[-114.74586,50.10201],[-114.74578,50.10204],[-114.74569,50.10207],[-114.74562,50.10209],[-114.74555,50.10211],[-114.74548,50.10213],[-114.74541,50.10214],[-114.74534,50.10216],[-114.74528,50.10218],[-114.7452,50.10219],[-114.74513,50.10222],[-114.74504,50.10224],[-114.74494,50.10226],[-114.74481,50.1023],[-114.7447,50.10233],[-114.7446,50.10235],[-114.74452,50.10237],[-114.7444,50.1024],[-114.74429,50.10241],[-114.74418,50.10242],[-114.74407,50.10243],[-114.74395,50.10244],[-114.74384,50.10244],[-114.74374,50.10245],[-114.74363,50.10244],[-114.74351,50.10244],[-114.74341,50.10244],[-114.74338,50.10244],[-114.74335,50.10245],[-114.74319,50.10244],[-114.74307,50.10244],[-114.74295,50.10244],[-114.74291,50.10245],[-114.74286,50.10245],[-114.74281,50.10245],[-114.74276,50.10246],[-114.74272,50.10246],[-114.74268,50.10248],[-114.74264,50.1025],[-114.74259,50.10251],[-114.74258,50.10255],[-114.74256,50.10258],[-114.74255,50.10261],[-114.74255,50.10264],[-114.74256,50.10268],[-114.74257,50.10271],[-114.74258,50.10274],[-114.74262,50.10278],[-114.74266,50.10283],[-114.74276,50.1029],[-114.74281,50.10293],[-114.74285,50.10296],[-114.74292,50.10299],[-114.74296,50.10301],[-114.74302,50.10305],[-114.74306,50.1031],[-114.74308,50.10313],[-114.7431,50.10315],[-114.74311,50.10317],[-114.74312,50.1032],[-114.74312,50.10322],[-114.74312,50.10325],[-114.7431,50.10328],[-114.7431,50.10331],[-114.74307,50.10332],[-114.74306,50.10334],[-114.74303,50.10336],[-114.74299,50.10338],[-114.74296,50.10338],[-114.7429,50.10339],[-114.74285,50.1034],[-114.74276,50.10342],[-114.74269,50.10342],[-114.74262,50.10343],[-114.74257,50.10344],[-114.74251,50.10345],[-114.74245,50.10346],[-114.74238,50.10348],[-114.74231,50.10351],[-114.74221,50.10352],[-114.7421,50.10355],[-114.74196,50.10357],[-114.74184,50.1036],[-114.74175,50.10361],[-114.74165,50.10363],[-114.74154,50.10363],[-114.74146,50.10364],[-114.74141,50.10365],[-114.74135,50.10365],[-114.7413,50.10365],[-114.74126,50.10364],[-114.7412,50.10362],[-114.74116,50.10358],[-114.74113,50.10355],[-114.74108,50.10349],[-114.74103,50.10344],[-114.74096,50.10338],[-114.74089,50.10334],[-114.74084,50.1033],[-114.74077,50.10328],[-114.7407,50.10324],[-114.74063,50.10321],[-114.74058,50.10318],[-114.74051,50.10315],[-114.74045,50.10313],[-114.74039,50.1031],[-114.7403,50.10307],[-114.74026,50.10306],[-114.74022,50.10305],[-114.74012,50.10303],[-114.74003,50.10302],[-114.7399,50.10302],[-114.73979,50.10302],[-114.73969,50.10301],[-114.73961,50.10302],[-114.73952,50.10303],[-114.73944,50.10304],[-114.73935,50.10304],[-114.73925,50.10306],[-114.73724,50.1044]]}},
{"type":"Feature","properties":{"spotId":"F-moose-backcountry-0019","kind":"backcountry","km":5.7,"climbM":1029,"name":"2.9 km SW of Lyall, Mount","flags":["Route crosses private land (ParcelMap BC, updated 2026-09-26): get permission first or go around."]},"geometry":{"type":"LineString","coordinates":[[-114.80137,50.07438],[-114.72287,50.06559]]}},
{"type":"Feature","properties":{"spotId":"F-moose-backcountry-0021","kind":"backcountry","km":7.53,"climbM":356,"name":"590 m NE of Ewin Creek","flags":["Route touches city limits: District of Elkford. Local firearm bylaw applies.","Route crosses private land (ParcelMap BC, updated 2026-09-26): get permission first or go around."]},"geometry":{"type":"LineString","coordinates":[[-114.80479,50.06036],[-114.80396,50.06059],[-114.80395,50.06057],[-114.80391,50.06051],[-114.80388,50.06045],[-114.80385,50.06039],[-114.80382,50.06034],[-114.80379,50.06029],[-114.80375,50.06024],[-114.80372,50.06016],[-114.80364,50.06002],[-114.80356,50.05989],[-114.80353,50.05985],[-114.8035,50.05978],[-114.80344,50.05969],[-114.80338,50.05959],[-114.80329,50.05949],[-114.80315,50.05937],[-114.80302,50.05925],[-114.8029,50.05913],[-114.80282,50.05905],[-114.80275,50.05898],[-114.80268,50.05892],[-114.80263,50.05884],[-114.80259,50.05876],[-114.80254,50.05866],[-114.80253,50.0586],[-114.8025,50.05854],[-114.80248,50.05844],[-114.80247,50.05834],[-114.80246,50.05825],[-114.80247,50.05818],[-114.80244,50.05808],[-114.80242,50.05798],[-114.8024,50.05787],[-114.80237,50.05776],[-114.80235,50.05769],[-114.80235,50.05765],[-114.80202,50.05788],[-114.80189,50.05793],[-114.80175,50.05797],[-114.80165,50.05801],[-114.80158,50.05803],[-114.80149,50.05806],[-114.80142,50.05807],[-114.80132,50.05809],[-114.80121,50.05811],[-114.8011,50.05811],[-114.80099,50.05811],[-114.80088,50.05812],[-114.80078,50.05813],[-114.80065,50.05815],[-114.80061,50.05816],[-114.80052,50.05817],[-114.8004,50.05821],[-114.80024,50.05822],[-114.80009,50.05825],[-114.8,50.05824],[-114.79993,50.05824],[-114.79981,50.05823],[-114.7997,50.05822],[-114.79959,50.05821],[-114.79946,50.05822],[-114.79933,50.05822],[-114.79921,50.05824],[-114.79908,50.05826],[-114.79898,50.0583],[-114.7989,50.05834],[-114.79884,50.05839],[-114.79878,50.05845],[-114.79876,50.05849],[-114.79873,50.05853],[-114.79867,50.05858],[-114.79857,50.05863],[-114.79848,50.05867],[-114.79836,50.05869],[-114.79826,50.0587],[-114.79815,50.0587],[-114.79805,50.05872],[-114.79795,50.05874],[-114.79786,50.05875],[-114.79777,50.05878],[-114.79769,50.0588],[-114.7976,50.05883],[-114.79749,50.05887],[-114.79737,50.0589],[-114.79725,50.05895],[-114.7971,50.05899],[-114.79694,50.05902],[-114.79677,50.05907],[-114.79661,50.05911],[-114.79647,50.05914],[-114.79633,50.05916],[-114.79619,50.05918],[-114.79606,50.05919],[-114.79592,50.05918],[-114.7958,50.05917],[-114.79567,50.05917],[-114.79555,50.05916],[-114.79541,50.05915],[-114.79527,50.05913],[-114.79513,50.05913],[-114.79497,50.05913],[-114.79478,50.05913],[-114.79461,50.05916],[-114.79447,50.05917],[-114.79434,50.0592],[-114.79422,50.05921],[-114.79409,50.05922],[-114.79397,50.05921],[-114.79385,50.05921],[-114.79373,50.05919],[-114.79362,50.05917],[-114.79349,50.05916],[-114.79334,50.05914],[-114.79319,50.05913],[-114.79302,50.05912],[-114.79284,50.0591],[-114.79263,50.05908],[-114.79238,50.05903],[-114.79217,50.059],[-114.79198,50.05896],[-114.7918,50.05892],[-114.79162,50.05888],[-114.79145,50.05884],[-114.79129,50.05879],[-114.79112,50.05875],[-114.79096,50.0587],[-114.79079,50.05867],[-114.79073,50.05866],[-114.79067,50.05864],[-114.79053,50.05862],[-114.79039,50.05859],[-114.79024,50.05857],[-114.79007,50.05854],[-114.78988,50.0585],[-114.78972,50.05846],[-114.78957,50.05843],[-114.78941,50.0584],[-114.78924,50.05837],[-114.78913,50.05835],[-114.78903,50.05834],[-114.78893,50.05833],[-114.78884,50.05832],[-114.78875,50.05832],[-114.78864,50.05832],[-114.78852,50.05831],[-114.78839,50.0583],[-114.78826,50.05829],[-114.78813,50.05828],[-114.78801,50.05826],[-114.7879,50.05824],[-114.78781,50.05822],[-114.78772,50.05819],[-114.78763,50.05815],[-114.78756,50.05812],[-114.78751,50.0581],[-114.78745,50.05806],[-114.7874,50.05803],[-114.78734,50.058],[-114.78726,50.05795],[-114.78717,50.05789],[-114.78708,50.05784],[-114.78699,50.05778],[-114.78689,50.05773],[-114.78662,50.05752],[-114.78638,50.05736],[-114.78634,50.05733],[-114.78622,50.05723],[-114.78604,50.0571],[-114.7858,50.05699],[-114.78556,50.05693],[-114.78523,50.05682],[-114.78486,50.05673],[-114.78469,50.05672],[-114.7842,50.0567],[-114.78399,50.05669],[-114.78376,50.05659],[-114.78357,50.0565],[-114.78347,50.05646],[-114.78304,50.05639],[-114.78265,50.05634],[-114.78242,50.0563],[-114.78225,50.05627],[-114.78198,50.0562],[-114.78161,50.05615],[-114.78136,50.05612],[-114.78116,50.05606],[-114.78076,50.05591],[-114.78065,50.05587],[-114.78031,50.05576],[-114.77992,50.0557],[-114.77948,50.05569],[-114.7793,50.05566],[-114.779,50.05561],[-114.77857,50.05553],[-114.77825,50.05544],[-114.77787,50.0553],[-114.77763,50.05524],[-114.77729,50.05515],[-114.77686,50.05503],[-114.77656,50.05495],[-114.77638,50.05492],[-114.77617,50.05488],[-114.77595,50.0548],[-114.77588,50.05476],[-114.77514,50.05454],[-114.77494,50.0545],[-114.77478,50.05448],[-114.7745,50.05444],[-114.77443,50.05442],[-114.77435,50.05441],[-114.77424,50.05439],[-114.77401,50.05433],[-114.77389,50.0543],[-114.7735,50.05418],[-114.77345,50.05417],[-114.7733,50.05413],[-114.77323,50.05412],[-114.77314,50.05412],[-114.77306,50.05411],[-114.77302,50.0541],[-114.77255,50.05409],[-114.77248,50.05408],[-114.77225,50.0541],[-114.77208,50.05413],[-114.77194,50.05417],[-114.77187,50.05418],[-114.77181,50.0542],[-114.77165,50.05421],[-114.77128,50.05421],[-114.77121,50.0542],[-114.77114,50.05418],[-114.77106,50.05417],[-114.77098,50.05414],[-114.7708,50.05406],[-114.77076,50.05403],[-114.77072,50.05402],[-114.77068,50.05398],[-114.7705,50.05388],[-114.7703,50.05377],[-114.77021,50.05373],[-114.77008,50.05366],[-114.77002,50.05362],[-114.76997,50.05358],[-114.76992,50.05354],[-114.76981,50.05345],[-114.76977,50.0534],[-114.76971,50.05336],[-114.76965,50.05331],[-114.76959,50.05326],[-114.76946,50.05316],[-114.7694,50.05312],[-114.76936,50.05309],[-114.76934,50.05308],[-114.7693,50.05304],[-114.76913,50.05295],[-114.76904,50.0529],[-114.76885,50.05283],[-114.76879,50.05282],[-114.76858,50.05276],[-114.76851,50.05272],[-114.76834,50.05264],[-114.76827,50.0526],[-114.76811,50.05249],[-114.76805,50.05244],[-114.768,50.05241],[-114.76796,50.05236],[-114.76782,50.05227],[-114.76777,50.05222],[-114.76769,50.05218],[-114.76761,50.05211],[-114.76751,50.05206],[-114.76736,50.05195],[-114.76731,50.05191],[-114.76724,50.05187],[-114.76717,50.05182],[-114.76712,50.0518],[-114.76706,50.05176],[-114.76701,50.05173],[-114.76696,50.05169],[-114.7669,50.05165],[-114.76684,50.05159],[-114.76678,50.05154],[-114.76673,50.05147],[-114.76668,50.0514],[-114.76653,50.05126],[-114.76646,50.05121],[-114.76641,50.05115],[-114.76627,50.05106],[-114.76619,50.05101],[-114.7661,50.05097],[-114.76601,50.05092],[-114.76593,50.05086],[-114.76585,50.05082],[-114.76577,50.05076],[-114.76562,50.05064],[-114.76554,50.05057],[-114.76546,50.05049],[-114.76539,50.05044],[-114.76535,50.05039],[-114.76521,50.05026],[-114.76512,50.05022],[-114.76506,50.05017],[-114.76482,50.05007],[-114.76477,50.05004],[-114.76473,50.05001],[-114.76466,50.04999],[-114.76444,50.04991],[-114.76418,50.04983],[-114.76415,50.04981],[-114.76408,50.04979],[-114.76378,50.04969],[-114.76334,50.04956],[-114.76312,50.04952],[-114.7631,50.04951],[-114.76284,50.04943],[-114.76267,50.04926],[-114.76242,50.04899],[-114.76236,50.04892],[-114.7621,50.04858],[-114.76138,50.04811],[-114.7612,50.04803],[-114.76069,50.04787],[-114.76012,50.04762],[-114.75991,50.04752],[-114.75952,50.0473],[-114.75929,50.04709],[-114.75916,50.04697],[-114.75897,50.04672],[-114.75871,50.04634],[-114.75856,50.04604],[-114.75809,50.04555],[-114.75782,50.04534],[-114.75774,50.04528],[-114.75763,50.04522],[-114.75743,50.04507],[-114.75731,50.045],[-114.75702,50.04485],[-114.75652,50.04455],[-114.75626,50.04438],[-114.75596,50.04418],[-114.7555,50.04398],[-114.7552,50.04379],[-114.75467,50.04352],[-114.75445,50.04341],[-114.75404,50.04325],[-114.75383,50.04313],[-114.7537,50.04296],[-114.75354,50.04272],[-114.75355,50.04251],[-114.75339,50.04215],[-114.75319,50.04188],[-114.75301,50.04169],[-114.75278,50.04144],[-114.75255,50.0412],[-114.75233,50.04101],[-114.75203,50.04077],[-114.75183,50.04063],[-114.7515,50.04049],[-114.75111,50.04033],[-114.75074,50.04018],[-114.75031,50.03992],[-114.74987,50.03971],[-114.74956,50.03955],[-114.74933,50.03942],[-114.74918,50.03933],[-114.74911,50.0393],[-114.7489,50.03922],[-114.74863,50.03909],[-114.74798,50.03876],[-114.74764,50.03856],[-114.7472,50.03837],[-114.74679,50.0382],[-114.74657,50.0381],[-114.74624,50.03804],[-114.74597,50.03798],[-114.74581,50.03794],[-114.74578,50.03793],[-114.74574,50.03792],[-114.74554,50.03776],[-114.74539,50.03771],[-114.74518,50.03769],[-114.74502,50.03768],[-114.74491,50.0377],[-114.7447,50.03772],[-114.74441,50.03766],[-114.74409,50.03755],[-114.74394,50.0375],[-114.74378,50.03746],[-114.74342,50.03734],[-114.74324,50.03728],[-114.74304,50.03718],[-114.74297,50.03712],[-114.74279,50.03696],[-114.74249,50.03669],[-114.74231,50.03658],[-114.74208,50.03642],[-114.74181,50.03628],[-114.74159,50.03622],[-114.74122,50.03604],[-114.74097,50.0359],[-114.74063,50.03571],[-114.7404,50.03557],[-114.74023,50.03546],[-114.74002,50.03533],[-114.7398,50.03525],[-114.7396,50.03517],[-114.73936,50.03509],[-114.73916,50.035],[-114.7389,50.03488],[-114.73828,50.03466],[-114.73811,50.0346],[-114.73787,50.03451],[-114.73758,50.0344],[-114.73741,50.03438],[-114.73728,50.03433],[-114.73711,50.03421],[-114.73688,50.03405],[-114.7365,50.03396],[-114.73637,50.03391],[-114.73591,50.03376],[-114.73562,50.03363],[-114.73548,50.03354],[-114.73497,50.03342],[-114.73472,50.03338],[-114.73457,50.03341],[-114.73414,50.03345],[-114.73356,50.03338],[-114.73253,50.03331],[-114.73209,50.0333],[-114.73192,50.03333],[-114.73179,50.03339],[-114.7317,50.03339],[-114.73137,50.03336],[-114.73107,50.03338],[-114.73086,50.03348],[-114.7308,50.03355],[-114.73076,50.03364],[-114.73078,50.03373],[-114.7309,50.03376],[-114.73103,50.03376],[-114.73114,50.03371],[-114.73127,50.0337],[-114.73134,50.0338],[-114.73143,50.03389],[-114.73148,50.034],[-114.73149,50.03409],[-114.73156,50.03419],[-114.73169,50.03419],[-114.73193,50.03415],[-114.732,50.03418],[-114.73204,50.03427],[-114.7321,50.0344],[-114.73216,50.03454],[-114.73218,50.03457],[-114.73228,50.03464],[-114.73234,50.0347],[-114.73238,50.03476],[-114.73262,50.03477],[-114.73269,50.0348],[-114.7328,50.03487],[-114.73291,50.03493],[-114.73296,50.03504],[-114.73297,50.03512],[-114.7331,50.03514],[-114.73332,50.03518],[-114.73344,50.03528],[-114.73353,50.0353],[-114.73371,50.03541],[-114.73379,50.03562],[-114.73384,50.0359],[-114.73388,50.03606],[-114.73395,50.03624],[-114.73396,50.03647],[-114.73406,50.03664],[-114.73414,50.03683],[-114.73415,50.03698],[-114.7342,50.03712],[-114.73425,50.03729],[-114.73439,50.03746],[-114.73453,50.03762],[-114.73462,50.03774],[-114.73476,50.03789],[-114.73501,50.03825],[-114.73534,50.03844],[-114.73544,50.03857],[-114.73548,50.03863],[-114.7353,50.03883],[-114.73525,50.03864]]}}
]}
