{"type":"FeatureCollection","features":[
{"type":"Feature","properties":{"spotId":"F-deer-atv-0150","kind":"ride","km":1.42,"climbM":10,"name":"220 m S of Cabin Creek","flags":[]},"geometry":{"type":"LineString","coordinates":[[-114.62554,49.09963],[-114.62552,49.09962],[-114.62544,49.09956],[-114.62536,49.0995],[-114.62528,49.09945],[-114.62519,49.09939],[-114.62508,49.09935],[-114.62498,49.09932],[-114.62486,49.09931],[-114.62474,49.09933],[-114.62461,49.09935],[-114.6245,49.09934],[-114.6242,49.09943],[-114.62411,49.09943],[-114.62403,49.09945],[-114.62392,49.09947],[-114.62384,49.09949],[-114.62376,49.09951],[-114.62366,49.09953],[-114.62356,49.09955],[-114.62346,49.09957],[-114.6234,49.09958],[-114.62327,49.09959],[-114.62312,49.09957],[-114.62297,49.09955],[-114.62282,49.09949],[-114.62268,49.09943],[-114.62257,49.0994],[-114.62245,49.09936],[-114.6223,49.09933],[-114.62222,49.09932],[-114.62207,49.09928],[-114.62194,49.09927],[-114.62185,49.09927],[-114.62174,49.09927],[-114.62163,49.09927],[-114.62155,49.09926],[-114.62145,49.09924],[-114.62137,49.09923],[-114.62127,49.09923],[-114.62117,49.09923],[-114.62107,49.09923],[-114.62097,49.09923],[-114.62088,49.09921],[-114.62074,49.09917],[-114.62065,49.09915],[-114.62054,49.09913],[-114.62042,49.09911],[-114.62028,49.09909],[-114.62016,49.09909],[-114.62005,49.09908],[-114.61994,49.09908],[-114.61983,49.09908],[-114.61975,49.09906],[-114.61965,49.09905],[-114.61957,49.09904],[-114.61949,49.09903],[-114.61934,49.09901],[-114.61926,49.099],[-114.61918,49.09899],[-114.61908,49.09898],[-114.61897,49.09896],[-114.61888,49.09895],[-114.61877,49.09893],[-114.61867,49.09893],[-114.61859,49.09892],[-114.61851,49.09892],[-114.61843,49.09892],[-114.61833,49.09892],[-114.61823,49.09892],[-114.61814,49.09891],[-114.61804,49.09891],[-114.61795,49.09892],[-114.61785,49.09893],[-114.61773,49.09892],[-114.61762,49.09893],[-114.61749,49.09894],[-114.61737,49.09894],[-114.61725,49.09895],[-114.61714,49.09896],[-114.61703,49.09896],[-114.61692,49.09897],[-114.61678,49.09897],[-114.61664,49.09897],[-114.61652,49.09899],[-114.61642,49.099],[-114.61631,49.09901],[-114.6162,49.09902],[-114.61608,49.09903],[-114.61597,49.09904],[-114.61584,49.09905],[-114.61573,49.09905],[-114.61562,49.09905],[-114.61553,49.09906],[-114.61541,49.09907],[-114.6153,49.09907],[-114.61519,49.09908],[-114.61502,49.09909],[-114.61498,49.0991],[-114.61494,49.0991],[-114.61491,49.09919],[-114.61482,49.0992],[-114.61474,49.0992],[-114.61463,49.09921],[-114.61452,49.09921],[-114.61441,49.09921],[-114.6143,49.09921],[-114.61418,49.09922],[-114.61407,49.09923],[-114.61396,49.09924],[-114.61383,49.09924],[-114.61366,49.09923],[-114.61351,49.09922],[-114.61341,49.09919],[-114.61332,49.09918],[-114.61322,49.09917],[-114.61311,49.09918],[-114.61299,49.0992],[-114.61289,49.09922],[-114.61281,49.09925],[-114.61271,49.0993],[-114.61256,49.09933],[-114.61239,49.09934],[-114.61223,49.09932],[-114.61215,49.0993],[-114.61204,49.09927],[-114.61196,49.09923],[-114.61188,49.09917],[-114.61175,49.09909],[-114.61161,49.09901],[-114.61152,49.09899],[-114.61142,49.09897],[-114.61134,49.09896],[-114.61126,49.09895],[-114.61112,49.09894],[-114.61104,49.09894],[-114.61095,49.09893],[-114.61081,49.09891],[-114.6107,49.09886],[-114.61061,49.0988],[-114.61052,49.0987],[-114.61047,49.09865],[-114.61044,49.09858],[-114.61043,49.09852],[-114.61043,49.09847],[-114.61042,49.09838],[-114.6104,49.09832],[-114.61038,49.09824],[-114.61034,49.09815],[-114.6103,49.09809],[-114.61024,49.09801],[-114.61018,49.09793],[-114.61012,49.09785],[-114.61007,49.09778],[-114.61002,49.09771],[-114.60997,49.09766],[-114.60991,49.09758],[-114.60985,49.09752],[-114.60969,49.09746],[-114.60947,49.09747],[-114.60934,49.09752],[-114.60923,49.09754],[-114.60915,49.09758],[-114.60905,49.0976],[-114.60894,49.09764],[-114.60886,49.09766],[-114.60873,49.09769],[-114.60861,49.09773],[-114.60851,49.09776]]}},
{"type":"Feature","properties":{"spotId":"F-deer-atv-0150","kind":"walk","km":0.13,"climbM":36,"name":"220 m S of Cabin Creek","flags":[]},"geometry":{"type":"LineString","coordinates":[[-114.60851,49.09776],[-114.60767,49.09668]]}},
{"type":"Feature","properties":{"spotId":"F-deer-drive-0028","kind":"walk","km":0.03,"climbM":3,"name":"By Couldrey Creek","flags":[]},"geometry":{"type":"LineString","coordinates":[[-114.63806,49.02266],[-114.63805,49.02295]]}},
{"type":"Feature","properties":{"spotId":"F-deer-drive-0141","kind":"walk","km":0.05,"climbM":0,"name":"340 m NW of Cabin Creek","flags":[]},"geometry":{"type":"LineString","coordinates":[[-114.60432,49.10337],[-114.60444,49.1029]]}},
{"type":"Feature","properties":{"spotId":"F-deer-drive-0146","kind":"walk","km":0.08,"climbM":0,"name":"390 m N of Cabin Creek","flags":[]},"geometry":{"type":"LineString","coordinates":[[-114.62638,49.10382],[-114.62539,49.10351]]}},
{"type":"Feature","properties":{"spotId":"F-deer-walk-0142","kind":"walk","km":0.4,"climbM":121,"name":"470 m N of Couldrey Creek","flags":[]},"geometry":{"type":"LineString","coordinates":[[-114.63868,49.02269],[-114.63858,49.02629]]}},
{"type":"Feature","properties":{"spotId":"F-duck-drive-0132","kind":"walk","km":0.06,"climbM":0,"name":"Unnamed wetland 410 m SW of Cabin Pass","flags":[]},"geometry":{"type":"LineString","coordinates":[[-114.736,49.1302],[-114.73657,49.12986]]}},
{"type":"Feature","properties":{"spotId":"F-elk-drive-0006","kind":"walk","km":0.02,"climbM":1,"name":"450 m NW of Couldrey Creek","flags":[]},"geometry":{"type":"LineString","coordinates":[[-114.6018,49.02956],[-114.60208,49.02951]]}},
{"type":"Feature","properties":{"spotId":"F-grouse-atv-0068","kind":"ride","km":3.3,"climbM":132,"name":"By Couldrey Creek","flags":[]},"geometry":{"type":"LineString","coordinates":[[-114.6668,49.02825],[-114.66704,49.0282],[-114.66712,49.02819],[-114.66721,49.02819],[-114.66728,49.02815],[-114.66731,49.02818],[-114.66739,49.02817],[-114.66747,49.02817],[-114.66758,49.02817],[-114.66768,49.02816],[-114.6678,49.02815],[-114.66791,49.02815],[-114.66802,49.02813],[-114.66811,49.02813],[-114.66822,49.02813],[-114.66832,49.02813],[-114.66841,49.02814],[-114.6685,49.02815],[-114.6686,49.02816],[-114.66872,49.02817],[-114.6688,49.02818],[-114.6689,49.02819],[-114.66899,49.02819],[-114.6691,49.0282],[-114.6692,49.02819],[-114.6694,49.02834],[-114.66949,49.02838],[-114.66957,49.02842],[-114.66966,49.02845],[-114.66976,49.02848],[-114.66984,49.0285],[-114.66993,49.02853],[-114.67004,49.02857],[-114.67014,49.0286],[-114.67024,49.02863],[-114.67035,49.02867],[-114.67047,49.02869],[-114.6706,49.02872],[-114.67073,49.02874],[-114.67087,49.02876],[-114.67098,49.02876],[-114.67107,49.02877],[-114.6712,49.02877],[-114.67135,49.02878],[-114.67148,49.02879],[-114.6716,49.02881],[-114.67171,49.02883],[-114.67181,49.02886],[-114.6719,49.02889],[-114.67202,49.02894],[-114.67214,49.02898],[-114.67225,49.02901],[-114.67233,49.02904],[-114.67241,49.02908],[-114.67256,49.02911],[-114.6727,49.02914],[-114.67282,49.02918],[-114.67295,49.02923],[-114.67309,49.02927],[-114.67323,49.02934],[-114.67335,49.0294],[-114.67348,49.02947],[-114.67355,49.02954],[-114.67366,49.02961],[-114.67378,49.02968],[-114.67391,49.02974],[-114.67405,49.02978],[-114.6742,49.02984],[-114.67432,49.0299],[-114.67444,49.02996],[-114.67456,49.03003],[-114.67466,49.03009],[-114.67477,49.03018],[-114.67485,49.03023],[-114.67495,49.0303],[-114.67509,49.03034],[-114.67522,49.03039],[-114.67533,49.03045],[-114.67542,49.03049],[-114.67557,49.03054],[-114.67569,49.03059],[-114.67584,49.03066],[-114.67597,49.03073],[-114.67605,49.03077],[-114.67614,49.03081],[-114.67627,49.03087],[-114.67636,49.03094],[-114.6765,49.03101],[-114.67662,49.03108],[-114.67672,49.03113],[-114.67686,49.03121],[-114.67693,49.03127],[-114.67701,49.03135],[-114.67712,49.03142],[-114.67725,49.03148],[-114.67733,49.03152],[-114.67747,49.0316],[-114.6776,49.03166],[-114.67772,49.03172],[-114.67783,49.03178],[-114.67793,49.03185],[-114.67808,49.03192],[-114.67823,49.03198],[-114.67838,49.03203],[-114.67851,49.03207],[-114.67861,49.03209],[-114.6787,49.03211],[-114.67878,49.03213],[-114.67889,49.03214],[-114.67899,49.03216],[-114.67909,49.03221],[-114.67917,49.03224],[-114.67927,49.03227],[-114.67935,49.0323],[-114.67944,49.03235],[-114.67954,49.03239],[-114.67964,49.03245],[-114.67975,49.0325],[-114.6799,49.03252],[-114.67998,49.03253],[-114.68006,49.03253],[-114.68015,49.03254],[-114.68029,49.03256],[-114.68043,49.03258],[-114.68057,49.0326],[-114.68063,49.03261],[-114.68074,49.03264],[-114.68084,49.03265],[-114.68093,49.03266],[-114.68101,49.03268],[-114.68115,49.03271],[-114.68129,49.03275],[-114.68141,49.03277],[-114.68149,49.03278],[-114.68158,49.03279],[-114.68167,49.03281],[-114.68176,49.03282],[-114.68184,49.03284],[-114.68192,49.03286],[-114.68207,49.03289],[-114.68221,49.03293],[-114.68229,49.03295],[-114.68238,49.03296],[-114.68248,49.03298],[-114.68257,49.03301],[-114.68267,49.03303],[-114.68276,49.03305],[-114.68291,49.03311],[-114.68304,49.03316],[-114.68319,49.03321],[-114.68327,49.03323],[-114.68337,49.03325],[-114.68345,49.03327],[-114.68352,49.03328],[-114.6836,49.0333],[-114.68368,49.03332],[-114.68376,49.03333],[-114.68383,49.03335],[-114.68398,49.03338],[-114.68406,49.0334],[-114.68415,49.03341],[-114.68424,49.03343],[-114.68432,49.03344],[-114.6844,49.03346],[-114.68448,49.03347],[-114.68458,49.03349],[-114.68472,49.03353],[-114.68482,49.03356],[-114.68491,49.03358],[-114.68501,49.03361],[-114.6851,49.03364],[-114.6852,49.03367],[-114.68528,49.03369],[-114.68537,49.03372],[-114.68545,49.03375],[-114.68555,49.03377],[-114.68567,49.0338],[-114.68578,49.03384],[-114.68593,49.03388],[-114.68601,49.0339],[-114.68614,49.03395],[-114.68629,49.034],[-114.68637,49.03403],[-114.68652,49.03409],[-114.68661,49.03413],[-114.68671,49.03416],[-114.6868,49.03419],[-114.68688,49.03422],[-114.68703,49.03426],[-114.68718,49.03432],[-114.68731,49.03437],[-114.68745,49.03441],[-114.68754,49.03442],[-114.68765,49.03443],[-114.68775,49.03443],[-114.68784,49.03444],[-114.68792,49.03444],[-114.68801,49.03445],[-114.68809,49.03446],[-114.68817,49.03448],[-114.68825,49.03448],[-114.68835,49.03449],[-114.68846,49.0345],[-114.68856,49.03452],[-114.68865,49.03453],[-114.68873,49.03454],[-114.68881,49.03455],[-114.6889,49.03456],[-114.68899,49.03457],[-114.68907,49.03457],[-114.68915,49.03459],[-114.68926,49.0346],[-114.68938,49.0346],[-114.68949,49.03461],[-114.68959,49.03462],[-114.68969,49.03463],[-114.68979,49.03464],[-114.68989,49.03465],[-114.68998,49.03466],[-114.69006,49.03466],[-114.69014,49.03466],[-114.69025,49.03466],[-114.69036,49.03466],[-114.69045,49.03467],[-114.69054,49.03469],[-114.69069,49.03471],[-114.69084,49.03474],[-114.69092,49.03476],[-114.69103,49.03478],[-114.69114,49.03479],[-114.69125,49.03481],[-114.69136,49.03481],[-114.69144,49.03481],[-114.69153,49.03482],[-114.69162,49.03482],[-114.69171,49.03483],[-114.69179,49.03481],[-114.69192,49.0348],[-114.69203,49.03479],[-114.69212,49.03477],[-114.69222,49.03476],[-114.6923,49.03476],[-114.69238,49.03475],[-114.69248,49.03475],[-114.69256,49.03475],[-114.69267,49.03476],[-114.69278,49.03477],[-114.69289,49.03478],[-114.693,49.03478],[-114.69309,49.03479],[-114.6932,49.03479],[-114.6933,49.03479],[-114.6934,49.0348],[-114.6935,49.03481],[-114.69361,49.03482],[-114.69372,49.03483],[-114.69384,49.03483],[-114.69397,49.03484],[-114.69408,49.03485],[-114.69417,49.03485],[-114.69428,49.03486],[-114.69439,49.03486],[-114.69451,49.03487],[-114.69462,49.03487],[-114.69472,49.03487],[-114.69481,49.03487],[-114.69491,49.03488],[-114.69499,49.0349],[-114.69507,49.03492],[-114.69515,49.03494],[-114.69523,49.03496],[-114.69532,49.03499],[-114.6954,49.03502],[-114.69553,49.03507],[-114.69563,49.0351],[-114.69576,49.03516],[-114.69585,49.03519],[-114.69599,49.03523],[-114.69607,49.03526],[-114.69615,49.03528],[-114.69631,49.03535],[-114.69644,49.03542],[-114.69658,49.03551],[-114.69672,49.03558],[-114.69687,49.03566],[-114.69702,49.03571],[-114.6971,49.03574],[-114.69722,49.0358],[-114.69731,49.03585],[-114.6974,49.03587],[-114.69754,49.03594],[-114.69769,49.03601],[-114.69782,49.03607],[-114.69794,49.03613],[-114.69805,49.03618],[-114.69819,49.03622],[-114.69827,49.03626],[-114.69835,49.03628],[-114.69846,49.03629],[-114.69859,49.03629],[-114.69875,49.03628],[-114.69883,49.03626],[-114.6989,49.03624],[-114.69898,49.03622],[-114.69913,49.03616],[-114.69927,49.03615],[-114.69935,49.03614],[-114.69945,49.03615],[-114.69952,49.03616],[-114.69967,49.0362],[-114.69979,49.03622],[-114.69987,49.03626],[-114.69989,49.03632],[-114.69981,49.03637],[-114.69971,49.03644],[-114.69962,49.03649],[-114.69954,49.03655],[-114.69952,49.03661],[-114.69962,49.03661],[-114.6997,49.0366],[-114.69978,49.03659],[-114.6999,49.03656],[-114.69999,49.03654],[-114.70012,49.03651],[-114.70025,49.03648],[-114.70035,49.03646],[-114.70046,49.03644],[-114.70057,49.03641],[-114.70067,49.03639],[-114.70077,49.03639],[-114.70085,49.03638],[-114.70093,49.03637],[-114.70103,49.03639],[-114.70111,49.03642],[-114.7012,49.03645],[-114.70131,49.03648],[-114.70142,49.03654],[-114.70155,49.03661],[-114.70168,49.03667],[-114.70176,49.03672],[-114.70184,49.03677],[-114.70192,49.03684],[-114.70196,49.03691],[-114.70197,49.03698],[-114.70199,49.03706],[-114.70203,49.03715],[-114.70204,49.03724],[-114.70206,49.03732],[-114.70209,49.0374],[-114.70211,49.03747],[-114.70214,49.03754],[-114.70215,49.03762],[-114.70214,49.0377],[-114.70214,49.03777],[-114.70212,49.03784],[-114.70213,49.0379],[-114.70213,49.03797],[-114.70214,49.03802],[-114.70214,49.03808],[-114.70215,49.03816],[-114.70217,49.03824],[-114.70219,49.03833],[-114.70221,49.03838],[-114.70222,49.03844],[-114.7023,49.03851],[-114.70242,49.03857],[-114.7025,49.03859],[-114.70259,49.03861],[-114.70267,49.03861],[-114.70283,49.0386],[-114.70291,49.03859],[-114.70299,49.03859],[-114.70307,49.03858],[-114.70316,49.03857],[-114.70325,49.03856],[-114.70335,49.03855],[-114.70344,49.03854],[-114.70354,49.03853],[-114.70362,49.03852],[-114.70371,49.03851],[-114.7038,49.03849],[-114.70389,49.03847],[-114.70397,49.03845],[-114.70405,49.03843],[-114.70422,49.03841],[-114.70435,49.03839],[-114.70446,49.03837],[-114.7047,49.03833]]}},
{"type":"Feature","properties":{"spotId":"F-grouse-drive-0022","kind":"roadside","km":5.39,"climbM":176,"name":"By Cabin Creek","flags":[]},"geometry":{"type":"LineString","coordinates":[[-114.66896,49.10373],[-114.66918,49.10386],[-114.66965,49.10402],[-114.67065,49.10426],[-114.67092,49.10435],[-114.67193,49.10491],[-114.67294,49.10572],[-114.67372,49.10614],[-114.67444,49.10668],[-114.67487,49.107],[-114.67544,49.10751],[-114.6755,49.10755],[-114.67596,49.10785],[-114.67697,49.1087],[-114.67711,49.10895],[-114.6772,49.10938],[-114.67737,49.10971],[-114.67753,49.10993],[-114.67779,49.11028],[-114.67805,49.11065],[-114.67817,49.11088],[-114.6784,49.11102],[-114.67901,49.11117],[-114.68056,49.11114],[-114.68058,49.11113],[-114.68081,49.11108],[-114.68157,49.11076],[-114.68178,49.11067],[-114.68249,49.11023],[-114.68363,49.10993],[-114.68397,49.10973],[-114.68407,49.10973],[-114.68475,49.10972],[-114.68539,49.10965],[-114.68696,49.10928],[-114.68714,49.10927],[-114.68758,49.10944],[-114.6885,49.10999],[-114.68883,49.11039],[-114.68912,49.11065],[-114.68983,49.111],[-114.69242,49.11149],[-114.69332,49.11173],[-114.69414,49.11202],[-114.69449,49.1121],[-114.69489,49.11215],[-114.6959,49.11217],[-114.6968,49.11227],[-114.69776,49.11229],[-114.69777,49.11229],[-114.69867,49.11242],[-114.69889,49.11243],[-114.69977,49.11232],[-114.70056,49.11213],[-114.70094,49.11211],[-114.70132,49.11208],[-114.70232,49.112],[-114.7029,49.11204],[-114.70434,49.11186],[-114.70524,49.11189],[-114.70578,49.11182],[-114.70612,49.11182],[-114.70667,49.11189],[-114.7076,49.11208],[-114.70863,49.11242],[-114.70977,49.11267],[-114.70989,49.11269],[-114.71146,49.11294],[-114.71227,49.1132],[-114.71257,49.11319],[-114.71405,49.11298],[-114.71469,49.11285],[-114.71535,49.11285],[-114.71584,49.11268],[-114.7161,49.11269],[-114.71651,49.11283],[-114.71701,49.11313],[-114.71766,49.11327],[-114.71809,49.11342],[-114.71877,49.11395],[-114.71909,49.11426],[-114.71942,49.11438],[-114.71961,49.11451],[-114.71973,49.11453],[-114.72072,49.11471],[-114.72129,49.11486],[-114.72157,49.11498],[-114.72178,49.11516],[-114.72179,49.11516],[-114.72249,49.1155],[-114.72303,49.11566],[-114.72322,49.11579],[-114.7235,49.11596],[-114.72371,49.11623],[-114.72374,49.11627],[-114.72447,49.11662],[-114.72486,49.11684],[-114.72507,49.11701],[-114.72516,49.11717],[-114.72542,49.11738],[-114.72564,49.11747],[-114.72578,49.11757],[-114.72589,49.11776],[-114.72583,49.11804],[-114.72578,49.11824],[-114.72581,49.11855],[-114.72613,49.11914],[-114.72616,49.11919],[-114.72683,49.11966],[-114.72739,49.11992],[-114.72784,49.12008],[-114.72818,49.12036],[-114.72829,49.12051]]}},
{"type":"Feature","properties":{"spotId":"F-moose-drive-0049","kind":"walk","km":0.05,"climbM":0,"name":"210 m N of Cabin Creek","flags":[]},"geometry":{"type":"LineString","coordinates":[[-114.6378,49.10056],[-114.63782,49.10009]]}}
]}
