{"type":"FeatureCollection","features":[
{"type":"Feature","properties":{"spotId":"F-moose-backcountry-0025","kind":"backcountry","km":7.52,"climbM":92,"name":"310 m W of Alexander Creek","flags":[]},"geometry":{"type":"LineString","coordinates":[[-114.64667,49.77115],[-114.64709,49.77125],[-114.64749,49.77133],[-114.64775,49.7714],[-114.64792,49.77142],[-114.64818,49.77146],[-114.64863,49.77154],[-114.64905,49.77161],[-114.64922,49.77168],[-114.6495,49.77173],[-114.64977,49.77181],[-114.65006,49.77188],[-114.65016,49.77191],[-114.65045,49.77192],[-114.65063,49.7719],[-114.65092,49.77195],[-114.65102,49.77196],[-114.65108,49.77199],[-114.65126,49.77202],[-114.65143,49.77207],[-114.65163,49.77208],[-114.65182,49.77204],[-114.6521,49.77193],[-114.6523,49.77187],[-114.65241,49.77188],[-114.65258,49.77195],[-114.65285,49.77203],[-114.65299,49.7721],[-114.65323,49.77222],[-114.65332,49.77226],[-114.65342,49.77227],[-114.65353,49.7722],[-114.6537,49.77215],[-114.65398,49.77214],[-114.65419,49.77215],[-114.65446,49.77205],[-114.65474,49.77197],[-114.65502,49.77195],[-114.65528,49.77196],[-114.65547,49.77207],[-114.65566,49.77213],[-114.65596,49.77222],[-114.65621,49.77228],[-114.65629,49.7723],[-114.65634,49.77236],[-114.65662,49.77238],[-114.65692,49.77245],[-114.6572,49.77253],[-114.65746,49.77262],[-114.65758,49.77264],[-114.65784,49.77271],[-114.65812,49.77278],[-114.6584,49.77285],[-114.65848,49.77289],[-114.65873,49.77292],[-114.65901,49.77302],[-114.65925,49.77314],[-114.65948,49.7732],[-114.65972,49.77327],[-114.65994,49.77332],[-114.66005,49.77335],[-114.66016,49.77338],[-114.66047,49.77346],[-114.66076,49.77351],[-114.66106,49.77357],[-114.66134,49.77362],[-114.66157,49.77365],[-114.66191,49.77368],[-114.66218,49.77373],[-114.66251,49.77379],[-114.66276,49.77383],[-114.66299,49.77387],[-114.66326,49.7739],[-114.6635,49.77395],[-114.66372,49.77399],[-114.66392,49.77405],[-114.66402,49.77411],[-114.66417,49.77422],[-114.66435,49.77431],[-114.66455,49.77442],[-114.66474,49.77453],[-114.66494,49.77461],[-114.66526,49.77467],[-114.66542,49.77472],[-114.6656,49.7748],[-114.66587,49.77494],[-114.66605,49.77502],[-114.66622,49.77516],[-114.66645,49.77527],[-114.66665,49.77534],[-114.66692,49.77547],[-114.66709,49.77557],[-114.66719,49.77561],[-114.66734,49.77563],[-114.66744,49.77561],[-114.66754,49.77549],[-114.66762,49.77549],[-114.66765,49.77545],[-114.6677,49.77542],[-114.6679,49.77539],[-114.66796,49.77539],[-114.66803,49.7754],[-114.66808,49.77541],[-114.66821,49.77545],[-114.66855,49.77555],[-114.66887,49.77564],[-114.66909,49.77572],[-114.66926,49.77577],[-114.66948,49.7758],[-114.66972,49.77584],[-114.67005,49.77594],[-114.67038,49.77604],[-114.67059,49.7761],[-114.67065,49.7761],[-114.67095,49.77616],[-114.67118,49.77621],[-114.67175,49.77638],[-114.67195,49.77643],[-114.67216,49.77647],[-114.67253,49.77661],[-114.67309,49.77676],[-114.67342,49.77686],[-114.67357,49.7769],[-114.67381,49.77694],[-114.67419,49.77704],[-114.67446,49.77714],[-114.67476,49.77723],[-114.67501,49.7773],[-114.67519,49.77738],[-114.67557,49.77749],[-114.67571,49.77752],[-114.67584,49.77755],[-114.676,49.77759],[-114.67615,49.77763],[-114.67635,49.77771],[-114.67667,49.7778],[-114.67726,49.77797],[-114.67747,49.77803],[-114.67812,49.77826],[-114.67845,49.77834],[-114.67874,49.77843],[-114.67964,49.77868],[-114.67998,49.77879],[-114.68027,49.77886],[-114.68051,49.77895],[-114.68073,49.77903],[-114.68088,49.77908],[-114.68097,49.77915],[-114.68106,49.77919],[-114.68124,49.77924],[-114.68143,49.77926],[-114.68153,49.77927],[-114.68163,49.7793],[-114.68176,49.77934],[-114.68225,49.77946],[-114.68349,49.77986],[-114.68378,49.77995],[-114.68485,49.78024],[-114.68495,49.78028],[-114.68505,49.78031],[-114.68535,49.78039],[-114.68636,49.78072],[-114.6868,49.78085],[-114.6879,49.78118],[-114.68819,49.78129],[-114.68845,49.78134],[-114.68875,49.78142],[-114.68898,49.78151],[-114.68913,49.78158],[-114.68971,49.78176],[-114.69068,49.78202],[-114.6912,49.78217],[-114.69185,49.78236],[-114.69316,49.78278],[-114.69433,49.78315],[-114.69447,49.78318],[-114.69469,49.78328],[-114.69498,49.78338],[-114.69511,49.7835],[-114.6952,49.78356],[-114.6953,49.78357],[-114.6954,49.78357],[-114.69549,49.78357],[-114.69559,49.78358],[-114.69569,49.78358],[-114.69588,49.78358],[-114.69606,49.78364],[-114.69616,49.78368],[-114.69638,49.78375],[-114.69647,49.78376],[-114.69656,49.78373],[-114.69664,49.78366],[-114.69674,49.78367],[-114.69667,49.78379],[-114.69653,49.78394],[-114.69642,49.784],[-114.69648,49.78411],[-114.69656,49.78415],[-114.69666,49.78416],[-114.69691,49.78419],[-114.69719,49.78418],[-114.69727,49.78416],[-114.69743,49.78412],[-114.69771,49.78411],[-114.69779,49.78414],[-114.69785,49.78409],[-114.6979,49.78404],[-114.69798,49.78397],[-114.69808,49.78393],[-114.69816,49.78387],[-114.69826,49.7838],[-114.69836,49.78373],[-114.69848,49.78368],[-114.69859,49.78363],[-114.6987,49.78358],[-114.6988,49.78352],[-114.69893,49.78348],[-114.69906,49.78343],[-114.69919,49.78338],[-114.69931,49.78332],[-114.69947,49.78327],[-114.69955,49.78324],[-114.69964,49.78321],[-114.69972,49.78319],[-114.69986,49.78314],[-114.69998,49.78309],[-114.7001,49.78304],[-114.70023,49.78298],[-114.70032,49.78297],[-114.70041,49.78294],[-114.7005,49.78291],[-114.70063,49.78284],[-114.70077,49.78277],[-114.70094,49.78271],[-114.70102,49.78268],[-114.70114,49.78264],[-114.70122,49.78262],[-114.70131,49.78258],[-114.70148,49.7825],[-114.70162,49.78243],[-114.70175,49.78237],[-114.70189,49.78231],[-114.70203,49.78225],[-114.70212,49.78221],[-114.70214,49.7822],[-114.70227,49.78215],[-114.7024,49.7821],[-114.70254,49.78203],[-114.70257,49.78202],[-114.7027,49.78197],[-114.70285,49.78191],[-114.70292,49.78189],[-114.70301,49.78185],[-114.70316,49.78178],[-114.70332,49.78173],[-114.70346,49.78168],[-114.70358,49.78162],[-114.70373,49.78155],[-114.70377,49.78153],[-114.70386,49.7815],[-114.70397,49.78145],[-114.7041,49.78141],[-114.70424,49.78136],[-114.70449,49.7813],[-114.70475,49.78119],[-114.705,49.7811],[-114.70523,49.78104],[-114.70535,49.78101],[-114.70548,49.78097],[-114.70572,49.7809],[-114.70602,49.78081],[-114.70633,49.78073],[-114.70662,49.78064],[-114.70689,49.78053],[-114.70714,49.78047],[-114.70736,49.78039],[-114.70753,49.78029],[-114.70766,49.78016],[-114.7077,49.78009],[-114.70773,49.77993],[-114.70777,49.7798],[-114.70783,49.77973],[-114.708,49.77962],[-114.70818,49.77951],[-114.70825,49.77945],[-114.70841,49.77926],[-114.70854,49.77914],[-114.70861,49.77907],[-114.70882,49.77891],[-114.70899,49.77873],[-114.70911,49.7786],[-114.70923,49.77846],[-114.70932,49.77832],[-114.70945,49.77812],[-114.70955,49.77798],[-114.70966,49.77785],[-114.70977,49.77763],[-114.7098,49.77758],[-114.70987,49.77752],[-114.71015,49.77741],[-114.71036,49.7773],[-114.71056,49.77724],[-114.71076,49.77718],[-114.71096,49.77711],[-114.71106,49.77706],[-114.71135,49.77703],[-114.7116,49.777],[-114.71189,49.77695],[-114.71219,49.77693],[-114.71235,49.77694],[-114.71252,49.7769],[-114.71278,49.7768],[-114.71293,49.77679],[-114.71303,49.77676],[-114.71324,49.77674],[-114.71329,49.77673],[-114.71359,49.77665],[-114.71387,49.77662],[-114.71406,49.7766],[-114.71418,49.77657],[-114.71443,49.77653],[-114.71474,49.77649],[-114.71496,49.77623],[-114.71544,49.77571],[-114.71564,49.77522],[-114.71569,49.77512],[-114.71578,49.77496],[-114.71589,49.77477],[-114.716,49.77462],[-114.71595,49.77441],[-114.71595,49.77432],[-114.716,49.77415],[-114.71601,49.77399],[-114.71593,49.77385],[-114.71588,49.7737],[-114.71581,49.77352],[-114.71575,49.77335],[-114.71566,49.7732],[-114.71558,49.77304],[-114.71549,49.77284],[-114.7154,49.7727],[-114.7153,49.77253],[-114.71523,49.77239],[-114.71537,49.77224],[-114.71554,49.77211],[-114.71575,49.772],[-114.71589,49.77196],[-114.7167,49.77185],[-114.71729,49.77179],[-114.71761,49.77175],[-114.71793,49.77176],[-114.71826,49.77179],[-114.71858,49.77185],[-114.71877,49.77185],[-114.71897,49.7718],[-114.71911,49.77174],[-114.71959,49.77153],[-114.71991,49.77138],[-114.72036,49.77117],[-114.72062,49.77096],[-114.72083,49.77072],[-114.72089,49.77065],[-114.72196,49.76315]]}}
]}
