{"type":"FeatureCollection","features":[
{"type":"Feature","properties":{"spotId":"F-camp-camp-0085","kind":"walk","km":0.2,"climbM":5,"name":"840 m SW of Elk River","flags":[]},"geometry":{"type":"LineString","coordinates":[[-114.94656,50.12401],[-114.94918,50.12332]]}},
{"type":"Feature","properties":{"spotId":"F-deer-atv-0012","kind":"ride","km":1.17,"climbM":64,"name":"920 m E of Elk River","flags":[]},"geometry":{"type":"LineString","coordinates":[[-114.95676,50.18389],[-114.95656,50.18443],[-114.95643,50.18467],[-114.95646,50.18492],[-114.95655,50.18517],[-114.95659,50.1856],[-114.9566,50.18666],[-114.95656,50.18706],[-114.95615,50.18788],[-114.95611,50.18827],[-114.95615,50.18855],[-114.95642,50.18897],[-114.95657,50.18921],[-114.95669,50.18942],[-114.95674,50.18954],[-114.95686,50.18969],[-114.95708,50.18983],[-114.95707,50.18992],[-114.95701,50.19],[-114.95689,50.19004],[-114.95662,50.18995],[-114.95617,50.18964],[-114.95586,50.18934],[-114.95566,50.18916],[-114.9555,50.18891],[-114.95493,50.18829],[-114.95423,50.18768],[-114.95371,50.18715],[-114.9534,50.18669],[-114.95333,50.18669]]}},
{"type":"Feature","properties":{"spotId":"F-deer-atv-0012","kind":"walk","km":0.22,"climbM":29,"name":"920 m E of Elk River","flags":[]},"geometry":{"type":"LineString","coordinates":[[-114.95333,50.18669],[-114.95098,50.18538]]}},
{"type":"Feature","properties":{"spotId":"F-deer-atv-0131","kind":"ride","km":1.34,"climbM":1,"name":"380 m NE of Britt Creek","flags":[]},"geometry":{"type":"LineString","coordinates":[[-114.91962,50.23517],[-114.91958,50.23551],[-114.91953,50.23573],[-114.91952,50.23598],[-114.91989,50.23594],[-114.91999,50.236],[-114.92023,50.23619],[-114.92043,50.23641],[-114.92048,50.23651],[-114.92052,50.23654],[-114.92057,50.23664],[-114.92059,50.2367],[-114.92069,50.23685],[-114.92073,50.23698],[-114.92079,50.23706],[-114.92088,50.2372],[-114.92098,50.23731],[-114.92101,50.23746],[-114.92109,50.23754],[-114.9212,50.23782],[-114.92121,50.23792],[-114.92127,50.23803],[-114.92132,50.23814],[-114.92132,50.23825],[-114.92148,50.23862],[-114.9215,50.23873],[-114.92153,50.23884],[-114.92159,50.23919],[-114.92163,50.23928],[-114.92157,50.23957],[-114.92153,50.23964],[-114.92149,50.23974],[-114.92139,50.23995],[-114.92137,50.24006],[-114.92132,50.24016],[-114.92128,50.24032],[-114.92133,50.24046],[-114.92128,50.24049],[-114.9213,50.24065],[-114.92134,50.24079],[-114.92143,50.24088],[-114.92153,50.24096],[-114.92163,50.24106],[-114.92172,50.24114],[-114.9218,50.24124],[-114.92191,50.24134],[-114.92203,50.24147],[-114.92206,50.24172],[-114.922,50.24186],[-114.92198,50.24204],[-114.92194,50.24227],[-114.92191,50.24247],[-114.92187,50.24261],[-114.9218,50.24272],[-114.92173,50.24288],[-114.92165,50.24303],[-114.92162,50.24313],[-114.92161,50.24327],[-114.92157,50.24341],[-114.92155,50.24351],[-114.92156,50.24361],[-114.92159,50.24378],[-114.9217,50.24404],[-114.92164,50.24426],[-114.92161,50.24441],[-114.92158,50.24452],[-114.92156,50.24471],[-114.92155,50.24485],[-114.9215,50.24515],[-114.92158,50.24526],[-114.9217,50.24533],[-114.92179,50.24542],[-114.9219,50.24545],[-114.92201,50.24555],[-114.92205,50.24566],[-114.9221,50.24575],[-114.92212,50.24591],[-114.92219,50.24604],[-114.92226,50.2462],[-114.92229,50.2463]]}},
{"type":"Feature","properties":{"spotId":"F-deer-atv-0131","kind":"walk","km":0.02,"climbM":0,"name":"380 m NE of Britt Creek","flags":[]},"geometry":{"type":"LineString","coordinates":[[-114.92229,50.2463],[-114.92261,50.24627]]}},
{"type":"Feature","properties":{"spotId":"F-deer-drive-0016","kind":"walk","km":0.01,"climbM":0,"name":"680 m E of Elk River","flags":[]},"geometry":{"type":"LineString","coordinates":[[-114.96007,50.20261],[-114.96022,50.20266]]}},
{"type":"Feature","properties":{"spotId":"F-deer-drive-0116","kind":"walk","km":0.18,"climbM":0,"name":"By Crossing Creek","flags":[]},"geometry":{"type":"LineString","coordinates":[[-114.94252,50.06217],[-114.94028,50.06145]]}},
{"type":"Feature","properties":{"spotId":"F-deer-drive-0133","kind":"walk","km":0.19,"climbM":39,"name":"910 m NE of Elk River","flags":[]},"geometry":{"type":"LineString","coordinates":[[-114.95037,50.17103],[-114.94796,50.17175]]}},
{"type":"Feature","properties":{"spotId":"F-deer-drive-0166","kind":"walk","km":0.03,"climbM":6,"name":"By Crossing Creek","flags":[]},"geometry":{"type":"LineString","coordinates":[[-114.96665,50.06933],[-114.96657,50.06957]]}},
{"type":"Feature","properties":{"spotId":"F-deer-walk-0015","kind":"walk","km":0.6,"climbM":0,"name":"120 m NE of Elk River","flags":[]},"geometry":{"type":"LineString","coordinates":[[-114.95004,50.17062],[-114.95686,50.1674]]}},
{"type":"Feature","properties":{"spotId":"F-deer-walk-0038","kind":"walk","km":0.57,"climbM":3,"name":"160 m NE of Elk River","flags":[]},"geometry":{"type":"LineString","coordinates":[[-114.97697,50.2027],[-114.96942,50.20443]]}},
{"type":"Feature","properties":{"spotId":"F-deer-walk-0109","kind":"walk","km":3.12,"climbM":458,"name":"2.7 km NE of Grace Creek","flags":["Route crosses private land (ParcelMap BC, updated 2026-09-26): get permission first or go around."]},"geometry":{"type":"LineString","coordinates":[[-114.83963,50.01566],[-114.79637,50.01231]]}},
{"type":"Feature","properties":{"spotId":"F-deer-walk-0115","kind":"walk","km":0.4,"climbM":54,"name":"1.1 km NE of Elk River","flags":[]},"geometry":{"type":"LineString","coordinates":[[-114.92871,50.14751],[-114.92652,50.15082]]}},
{"type":"Feature","properties":{"spotId":"F-deer-walk-0144","kind":"walk","km":1.44,"climbM":347,"name":"610 m NW of Chauncey Creek","flags":["Route crosses private land (ParcelMap BC, updated 2026-09-26): get permission first or go around."]},"geometry":{"type":"LineString","coordinates":[[-114.82743,50.11965],[-114.80898,50.12487]]}},
{"type":"Feature","properties":{"spotId":"F-deer-walk-0163","kind":"walk","km":3.67,"climbM":158,"name":"410 m NE of Ewin Creek","flags":["Route touches city limits: District of Elkford. Local firearm bylaw applies.","Route crosses private land (ParcelMap BC, updated 2026-09-26): get permission first or go around."]},"geometry":{"type":"LineString","coordinates":[[-114.80479,50.06036],[-114.80396,50.06059],[-114.80395,50.06057],[-114.80391,50.06051],[-114.80388,50.06045],[-114.80385,50.06039],[-114.80382,50.06034],[-114.80379,50.06029],[-114.80375,50.06024],[-114.80372,50.06016],[-114.80364,50.06002],[-114.80356,50.05989],[-114.80353,50.05985],[-114.8035,50.05978],[-114.80344,50.05969],[-114.80338,50.05959],[-114.80329,50.05949],[-114.80315,50.05937],[-114.80302,50.05925],[-114.8029,50.05913],[-114.80282,50.05905],[-114.80275,50.05898],[-114.80268,50.05892],[-114.80263,50.05884],[-114.80259,50.05876],[-114.80254,50.05866],[-114.80253,50.0586],[-114.8025,50.05854],[-114.80248,50.05844],[-114.80247,50.05834],[-114.80246,50.05825],[-114.80247,50.05818],[-114.80244,50.05808],[-114.80242,50.05798],[-114.8024,50.05787],[-114.80237,50.05776],[-114.80235,50.05769],[-114.80235,50.05765],[-114.80202,50.05788],[-114.80189,50.05793],[-114.80175,50.05797],[-114.80165,50.05801],[-114.80158,50.05803],[-114.80149,50.05806],[-114.80142,50.05807],[-114.80132,50.05809],[-114.80121,50.05811],[-114.8011,50.05811],[-114.80099,50.05811],[-114.80088,50.05812],[-114.80078,50.05813],[-114.80065,50.05815],[-114.80061,50.05816],[-114.80052,50.05817],[-114.8004,50.05821],[-114.80024,50.05822],[-114.80009,50.05825],[-114.8,50.05824],[-114.79993,50.05824],[-114.79981,50.05823],[-114.7997,50.05822],[-114.79959,50.05821],[-114.79946,50.05822],[-114.79933,50.05822],[-114.79921,50.05824],[-114.79908,50.05826],[-114.79898,50.0583],[-114.7989,50.05834],[-114.79884,50.05839],[-114.79878,50.05845],[-114.79876,50.05849],[-114.79873,50.05853],[-114.79867,50.05858],[-114.79857,50.05863],[-114.79848,50.05867],[-114.79836,50.05869],[-114.79826,50.0587],[-114.79815,50.0587],[-114.79805,50.05872],[-114.79795,50.05874],[-114.79786,50.05875],[-114.79777,50.05878],[-114.79769,50.0588],[-114.7976,50.05883],[-114.79749,50.05887],[-114.79737,50.0589],[-114.79725,50.05895],[-114.7971,50.05899],[-114.79694,50.05902],[-114.79677,50.05907],[-114.79661,50.05911],[-114.79647,50.05914],[-114.79633,50.05916],[-114.79619,50.05918],[-114.79606,50.05919],[-114.79592,50.05918],[-114.7958,50.05917],[-114.79567,50.05917],[-114.79555,50.05916],[-114.79541,50.05915],[-114.79527,50.05913],[-114.79513,50.05913],[-114.79497,50.05913],[-114.79478,50.05913],[-114.79461,50.05916],[-114.79447,50.05917],[-114.79434,50.0592],[-114.79422,50.05921],[-114.79409,50.05922],[-114.79397,50.05921],[-114.79385,50.05921],[-114.79373,50.05919],[-114.79362,50.05917],[-114.79349,50.05916],[-114.79334,50.05914],[-114.79319,50.05913],[-114.79302,50.05912],[-114.79284,50.0591],[-114.79263,50.05908],[-114.79238,50.05903],[-114.79217,50.059],[-114.79198,50.05896],[-114.7918,50.05892],[-114.79162,50.05888],[-114.79145,50.05884],[-114.79129,50.05879],[-114.79112,50.05875],[-114.79096,50.0587],[-114.79079,50.05867],[-114.79073,50.05866],[-114.79067,50.05864],[-114.79053,50.05862],[-114.79039,50.05859],[-114.79024,50.05857],[-114.79007,50.05854],[-114.78988,50.0585],[-114.78972,50.05846],[-114.78957,50.05843],[-114.78941,50.0584],[-114.78924,50.05837],[-114.78913,50.05835],[-114.78903,50.05834],[-114.78893,50.05833],[-114.78884,50.05832],[-114.78875,50.05832],[-114.78864,50.05832],[-114.78852,50.05831],[-114.78839,50.0583],[-114.78826,50.05829],[-114.78813,50.05828],[-114.78801,50.05826],[-114.7879,50.05824],[-114.78781,50.05822],[-114.78772,50.05819],[-114.78763,50.05815],[-114.78756,50.05812],[-114.78751,50.0581],[-114.78745,50.05806],[-114.7874,50.05803],[-114.78734,50.058],[-114.78726,50.05795],[-114.78717,50.05789],[-114.78708,50.05784],[-114.78699,50.05778],[-114.78689,50.05773],[-114.78662,50.05752],[-114.78638,50.05736],[-114.78634,50.05733],[-114.78622,50.05723],[-114.78604,50.0571],[-114.7858,50.05699],[-114.78556,50.05693],[-114.78523,50.05682],[-114.78486,50.05673],[-114.78469,50.05672],[-114.7842,50.0567],[-114.78399,50.05669],[-114.78376,50.05659],[-114.78357,50.0565],[-114.78347,50.05646],[-114.78304,50.05639],[-114.78265,50.05634],[-114.78242,50.0563],[-114.78225,50.05627],[-114.78198,50.0562],[-114.78161,50.05615],[-114.78136,50.05612],[-114.78096,50.0561],[-114.78078,50.0561],[-114.78072,50.05609],[-114.78057,50.05608],[-114.7804,50.05606],[-114.78031,50.05604],[-114.78018,50.05603],[-114.78002,50.056],[-114.77988,50.05599],[-114.77975,50.05597],[-114.77964,50.05596],[-114.77953,50.05594],[-114.77942,50.05593],[-114.77917,50.05589],[-114.77893,50.05586],[-114.77881,50.05586],[-114.77869,50.05585],[-114.77814,50.05584],[-114.77807,50.05583],[-114.77789,50.05583],[-114.77784,50.05583],[-114.7778,50.05583],[-114.77777,50.05584],[-114.77775,50.05584],[-114.77772,50.05586],[-114.77769,50.05587],[-114.77764,50.05589],[-114.77759,50.05593],[-114.77754,50.05595],[-114.77743,50.05603],[-114.7773,50.05616],[-114.77719,50.05627],[-114.77711,50.05638],[-114.77699,50.05647],[-114.77695,50.05651],[-114.77687,50.05654],[-114.77682,50.05658],[-114.77676,50.05661],[-114.7767,50.05664],[-114.77665,50.05667],[-114.77659,50.05669],[-114.77654,50.05672],[-114.77649,50.05674],[-114.77642,50.05678],[-114.77637,50.05681],[-114.77632,50.05684],[-114.77627,50.05687],[-114.77624,50.05689],[-114.7762,50.05691],[-114.77614,50.05693],[-114.7761,50.05696],[-114.77603,50.05699],[-114.77597,50.057],[-114.77592,50.05703],[-114.77584,50.05706],[-114.77576,50.05707],[-114.77569,50.05709],[-114.77562,50.05711],[-114.77552,50.05714],[-114.77546,50.05716],[-114.77542,50.05717],[-114.77536,50.05719],[-114.77532,50.05721],[-114.77528,50.05722],[-114.77522,50.05725],[-114.77516,50.05728],[-114.77511,50.0573],[-114.77506,50.05734],[-114.77502,50.05737],[-114.77498,50.0574],[-114.77495,50.05742],[-114.77492,50.05746],[-114.77489,50.0575],[-114.77486,50.05755],[-114.77481,50.05762],[-114.77477,50.05768],[-114.77474,50.05774],[-114.77472,50.05779],[-114.77468,50.05783],[-114.77465,50.05789],[-114.77459,50.05794],[-114.77454,50.058],[-114.77449,50.05805],[-114.77444,50.05811],[-114.77441,50.05815],[-114.77437,50.05819],[-114.77435,50.05822],[-114.76176,50.05505]]}},
{"type":"Feature","properties":{"spotId":"F-duck-drive-0017","kind":"walk","km":0.1,"climbM":0,"name":"Unnamed wetland by Fording River","flags":[]},"geometry":{"type":"LineString","coordinates":[[-114.80334,50.08443],[-114.80476,50.08434]]}},
{"type":"Feature","properties":{"spotId":"F-duck-drive-0021","kind":"walk","km":0.1,"climbM":0,"name":"Unnamed lake 160 m SW of Fording River","flags":[]},"geometry":{"type":"LineString","coordinates":[[-114.81352,50.09205],[-114.81254,50.09267]]}},
{"type":"Feature","properties":{"spotId":"F-duck-drive-0099","kind":"walk","km":0.24,"climbM":0,"name":"Unnamed wetland 350 m NE of Elk River","flags":["Route crosses private land (ParcelMap BC, updated 2026-09-26): get permission first or go around."]},"geometry":{"type":"LineString","coordinates":[[-114.93236,50.13267],[-114.93499,50.13129]]}},
{"type":"Feature","properties":{"spotId":"F-duck-drive-0119","kind":"walk","km":0.04,"climbM":0,"name":"Unnamed lake 580 m W of Elk River","flags":[]},"geometry":{"type":"LineString","coordinates":[[-114.94485,50.12109],[-114.94542,50.12096]]}},
{"type":"Feature","properties":{"spotId":"F-duck-walk-0007","kind":"walk","km":0.62,"climbM":5,"name":"Unnamed wetland by Fording River","flags":["Route crosses private land (ParcelMap BC, updated 2026-09-26): get permission first or go around."]},"geometry":{"type":"LineString","coordinates":[[-114.82583,50.11342],[-114.83413,50.11172]]}},
{"type":"Feature","properties":{"spotId":"F-duck-walk-0048","kind":"walk","km":0.4,"climbM":6,"name":"Unnamed wetland 1.0 km E of Britt Creek","flags":[]},"geometry":{"type":"LineString","coordinates":[[-114.91215,50.23508],[-114.90883,50.238]]}},
{"type":"Feature","properties":{"spotId":"F-duck-walk-0064","kind":"walk","km":0.5,"climbM":17,"name":"Unnamed wetland 510 m W of Forsyth Creek","flags":[]},"geometry":{"type":"LineString","coordinates":[[-114.96946,50.2303],[-114.97631,50.23111]]}},
{"type":"Feature","properties":{"spotId":"F-duck-walk-0086","kind":"walk","km":0.43,"climbM":2,"name":"Unnamed wetland 210 m W of Elk River","flags":[]},"geometry":{"type":"LineString","coordinates":[[-114.97651,50.17943],[-114.97127,50.18129]]}},
{"type":"Feature","properties":{"spotId":"F-elk-drive-0005","kind":"walk","km":0.1,"climbM":3,"name":"By Bingay Creek","flags":["Route enters a Motor Vehicle Closed Area: Upper Elk Valley and Fording River. Closed Year Round. Synopsis map 1-35/23."]},"geometry":{"type":"LineString","coordinates":[[-114.98681,50.19759],[-114.98581,50.19694]]}},
{"type":"Feature","properties":{"spotId":"F-elk-walk-0053","kind":"walk","km":0.74,"climbM":93,"name":"200 m N of Boivin Creek","flags":[]},"geometry":{"type":"LineString","coordinates":[[-114.95847,50.01205],[-114.96694,50.01592]]}},
{"type":"Feature","properties":{"spotId":"F-grouse-atv-0036","kind":"ride","km":3.27,"climbM":37,"name":"730 m NE of Elk River","flags":[]},"geometry":{"type":"LineString","coordinates":[[-114.94961,50.1703],[-114.94978,50.17034],[-114.95,50.17039],[-114.95019,50.17043],[-114.95036,50.17047],[-114.95047,50.17049],[-114.95056,50.17051],[-114.95068,50.17053],[-114.95083,50.17057],[-114.95101,50.17061],[-114.95119,50.17065],[-114.95139,50.17069],[-114.95157,50.17073],[-114.95174,50.17076],[-114.95189,50.17081],[-114.95207,50.17086],[-114.95219,50.17089],[-114.95233,50.17094],[-114.95245,50.17098],[-114.95255,50.171],[-114.95265,50.171],[-114.95272,50.17098],[-114.95283,50.17096],[-114.95295,50.17093],[-114.95307,50.17092],[-114.9532,50.17092],[-114.9533,50.17094],[-114.95338,50.17096],[-114.95345,50.171],[-114.95353,50.17103],[-114.95361,50.17104],[-114.95375,50.17105],[-114.95389,50.17102],[-114.95404,50.17099],[-114.95416,50.17095],[-114.95425,50.17091],[-114.95431,50.17088],[-114.95436,50.17084],[-114.95444,50.1708],[-114.95452,50.17075],[-114.95461,50.17071],[-114.95468,50.17068],[-114.95504,50.17051],[-114.95511,50.17047],[-114.95521,50.17041],[-114.95531,50.17035],[-114.95541,50.17029],[-114.9555,50.17024],[-114.95558,50.17019],[-114.95567,50.17014],[-114.95573,50.17008],[-114.95579,50.17004],[-114.95586,50.16998],[-114.95593,50.16992],[-114.95603,50.16986],[-114.95616,50.1698],[-114.95627,50.16974],[-114.95636,50.16971],[-114.95646,50.16968],[-114.95654,50.16966],[-114.95663,50.16964],[-114.9567,50.16961],[-114.95678,50.16959],[-114.95688,50.16956],[-114.957,50.16953],[-114.95708,50.1695],[-114.95717,50.16949],[-114.95724,50.16947],[-114.95729,50.16946],[-114.95738,50.16945],[-114.95746,50.16944],[-114.95753,50.16942],[-114.95759,50.16941],[-114.95766,50.1694],[-114.95772,50.16939],[-114.95777,50.16937],[-114.95782,50.16937],[-114.9579,50.16935],[-114.95797,50.16932],[-114.95807,50.16928],[-114.95814,50.16924],[-114.95822,50.1692],[-114.95827,50.16917],[-114.95833,50.16914],[-114.95842,50.16911],[-114.95849,50.1691],[-114.95858,50.16908],[-114.95867,50.16907],[-114.95875,50.16908],[-114.95884,50.16908],[-114.95892,50.16908],[-114.95898,50.16909],[-114.95905,50.16911],[-114.95911,50.16914],[-114.9592,50.16918],[-114.95928,50.16923],[-114.95933,50.16927],[-114.95941,50.16933],[-114.95947,50.1694],[-114.95951,50.16948],[-114.95953,50.16957],[-114.95955,50.16966],[-114.95956,50.16976],[-114.95956,50.16985],[-114.95954,50.16993],[-114.95953,50.17002],[-114.95951,50.17011],[-114.95951,50.17015],[-114.95949,50.17019],[-114.95947,50.17024],[-114.95946,50.17028],[-114.95944,50.17032],[-114.9594,50.17038],[-114.95933,50.17044],[-114.95925,50.17051],[-114.95918,50.17058],[-114.95911,50.17066],[-114.95906,50.17074],[-114.95903,50.17081],[-114.959,50.17088],[-114.959,50.17093],[-114.95898,50.17099],[-114.95899,50.17104],[-114.95902,50.1711],[-114.95906,50.17118],[-114.95909,50.17125],[-114.95913,50.17131],[-114.95916,50.17138],[-114.95918,50.17144],[-114.95922,50.1715],[-114.95926,50.17158],[-114.95932,50.17163],[-114.95938,50.17171],[-114.95946,50.17178],[-114.95955,50.17184],[-114.95963,50.17191],[-114.95969,50.17195],[-114.95976,50.17199],[-114.95983,50.17204],[-114.95991,50.17211],[-114.95998,50.17217],[-114.96005,50.17224],[-114.96009,50.17229],[-114.96011,50.17235],[-114.96014,50.17241],[-114.96016,50.17247],[-114.96017,50.17254],[-114.96018,50.17262],[-114.96018,50.17271],[-114.96018,50.17279],[-114.96016,50.17286],[-114.96016,50.17293],[-114.96014,50.173],[-114.96012,50.17308],[-114.96012,50.17317],[-114.9601,50.17326],[-114.9601,50.17334],[-114.96011,50.17343],[-114.96013,50.17352],[-114.96017,50.17361],[-114.96021,50.17371],[-114.96026,50.17381],[-114.9603,50.17387],[-114.96034,50.17393],[-114.96038,50.17399],[-114.96042,50.17403],[-114.96047,50.17407],[-114.96053,50.1741],[-114.96061,50.17413],[-114.96069,50.17416],[-114.96076,50.17419],[-114.96083,50.17423],[-114.96086,50.17425],[-114.96087,50.17428],[-114.9609,50.17431],[-114.9609,50.17436],[-114.96091,50.17439],[-114.9609,50.17447],[-114.9609,50.17454],[-114.96088,50.17461],[-114.96087,50.17466],[-114.96087,50.17471],[-114.96085,50.17474],[-114.96085,50.17479],[-114.96085,50.17485],[-114.96083,50.17492],[-114.96083,50.17499],[-114.96103,50.17537],[-114.96111,50.17549],[-114.96129,50.17572],[-114.96136,50.17596],[-114.96177,50.17689],[-114.96184,50.17713],[-114.96189,50.17741],[-114.96199,50.17767],[-114.96204,50.17847],[-114.96206,50.17865],[-114.96216,50.17891],[-114.96225,50.17906],[-114.9624,50.17919],[-114.96252,50.17937],[-114.96296,50.17991],[-114.96299,50.17998],[-114.96305,50.18023],[-114.96325,50.18058],[-114.96327,50.18088],[-114.96329,50.18097],[-114.96355,50.18119],[-114.96384,50.18153],[-114.964,50.18175],[-114.96565,50.18404],[-114.9663,50.18434],[-114.96666,50.18445],[-114.96745,50.18487],[-114.96782,50.18499],[-114.96812,50.18504],[-114.96823,50.18508],[-114.96832,50.18512],[-114.96853,50.18527],[-114.96862,50.1853],[-114.96879,50.18533],[-114.96889,50.18534],[-114.96903,50.18534],[-114.96945,50.18529],[-114.97001,50.18527],[-114.9703,50.18533],[-114.97067,50.18537],[-114.97069,50.18537],[-114.97076,50.18538],[-114.97082,50.18539],[-114.97089,50.18541],[-114.97096,50.18542],[-114.97107,50.18544],[-114.97118,50.18546],[-114.97128,50.18549],[-114.97137,50.18551],[-114.97142,50.18554],[-114.97146,50.18557],[-114.97148,50.1856],[-114.97154,50.18563],[-114.97158,50.18568],[-114.97163,50.18573],[-114.97167,50.18577],[-114.9717,50.18582],[-114.97172,50.18586],[-114.97175,50.1859],[-114.97176,50.18594],[-114.97179,50.18597],[-114.9718,50.186],[-114.97183,50.18603],[-114.97184,50.18605],[-114.97186,50.18608],[-114.97188,50.1861],[-114.97191,50.18614],[-114.97192,50.18616],[-114.97195,50.1862],[-114.97199,50.18624],[-114.97202,50.18626],[-114.97207,50.18629],[-114.9721,50.18631],[-114.97214,50.18633],[-114.97218,50.18635],[-114.97225,50.18637],[-114.9723,50.18639],[-114.97237,50.18642],[-114.97243,50.18644],[-114.97247,50.18646],[-114.97251,50.18647],[-114.97257,50.18649],[-114.97261,50.18651],[-114.97266,50.18654],[-114.97272,50.18656],[-114.97276,50.1866],[-114.9728,50.18663],[-114.97283,50.18666],[-114.97285,50.18669],[-114.97289,50.18672],[-114.97292,50.18674],[-114.97296,50.18677],[-114.973,50.18678],[-114.97304,50.1868],[-114.97307,50.18681],[-114.97311,50.18684],[-114.97317,50.18686],[-114.97322,50.18689],[-114.97328,50.18692],[-114.97334,50.18696],[-114.97341,50.18701],[-114.97348,50.18705],[-114.97354,50.18709],[-114.97358,50.18713],[-114.9736,50.18715]]}},
{"type":"Feature","properties":{"spotId":"F-grouse-atv-0058","kind":"walk","km":0.47,"climbM":0,"name":"530 m NW of Crossing Creek","flags":["Route touches city limits: District of Elkford. Local firearm bylaw applies."]},"geometry":{"type":"LineString","coordinates":[[-114.9417,50.06305],[-114.93808,50.0666]]}},
{"type":"Feature","properties":{"spotId":"F-grouse-atv-0058","kind":"ride","km":3.06,"climbM":109,"name":"530 m NW of Crossing Creek","flags":["Route touches city limits: District of Elkford. Local firearm bylaw applies."]},"geometry":{"type":"LineString","coordinates":[[-114.93808,50.0666],[-114.93826,50.06645],[-114.9384,50.0664],[-114.9385,50.06637],[-114.93866,50.06637],[-114.93881,50.06639],[-114.93938,50.06659],[-114.93999,50.06683],[-114.9403,50.06699],[-114.94049,50.06712],[-114.9406,50.06725],[-114.94072,50.06746],[-114.94094,50.06789],[-114.94173,50.06923],[-114.94187,50.06956],[-114.94194,50.06985],[-114.94212,50.07045],[-114.94261,50.07225],[-114.9429,50.07326],[-114.94297,50.07347],[-114.94309,50.07415],[-114.94335,50.07495],[-114.94349,50.07554],[-114.94361,50.07584],[-114.94367,50.07597],[-114.94378,50.07631],[-114.94413,50.07752],[-114.94438,50.0783],[-114.9446,50.07891],[-114.94471,50.07924],[-114.94479,50.07948],[-114.94485,50.07978],[-114.94494,50.08007],[-114.94507,50.08033],[-114.94523,50.08053],[-114.94542,50.08075],[-114.94552,50.08088],[-114.9456,50.08098],[-114.94571,50.08118],[-114.94581,50.08133],[-114.94596,50.08148],[-114.9461,50.08159],[-114.94634,50.08171],[-114.94664,50.08184],[-114.94688,50.08204],[-114.94705,50.08216],[-114.94734,50.08224],[-114.94746,50.08228],[-114.94749,50.08233],[-114.94751,50.0824],[-114.9475,50.0825],[-114.94741,50.0826],[-114.94727,50.08271],[-114.94719,50.08279],[-114.94716,50.08282],[-114.94712,50.08286],[-114.94711,50.08293],[-114.94712,50.08308],[-114.94713,50.08328],[-114.94708,50.08355],[-114.94703,50.08368],[-114.94702,50.08383],[-114.94711,50.08429],[-114.94716,50.08445],[-114.94722,50.08457],[-114.94726,50.08468],[-114.94726,50.08477],[-114.94723,50.08487],[-114.9472,50.08494],[-114.94716,50.08498],[-114.94717,50.08506],[-114.94723,50.08532],[-114.9473,50.08548],[-114.9473,50.08555],[-114.94725,50.0857],[-114.94725,50.08582],[-114.9473,50.08602],[-114.94755,50.08669],[-114.94777,50.08751],[-114.94784,50.08774],[-114.94788,50.08793],[-114.94793,50.08806],[-114.94801,50.0882],[-114.94806,50.08833],[-114.94811,50.08852],[-114.94814,50.08877],[-114.94858,50.09009],[-114.94898,50.09139],[-114.949,50.09156]]}},
{"type":"Feature","properties":{"spotId":"F-grouse-drive-0019","kind":"roadside","km":4.95,"climbM":81,"name":"450 m SW of Elk River","flags":[]},"geometry":{"type":"LineString","coordinates":[[-114.94231,50.11685],[-114.94235,50.11692],[-114.9424,50.11702],[-114.94247,50.11714],[-114.9426,50.11735],[-114.94271,50.11752],[-114.9428,50.11768],[-114.94287,50.11782],[-114.94297,50.11797],[-114.94308,50.11814],[-114.94319,50.11833],[-114.94331,50.11851],[-114.94341,50.11869],[-114.94352,50.11886],[-114.94358,50.11896],[-114.94365,50.11907],[-114.94374,50.11924],[-114.94379,50.11931],[-114.94387,50.11948],[-114.94397,50.11965],[-114.94406,50.11979],[-114.94414,50.11991],[-114.94421,50.12003],[-114.9443,50.12016],[-114.94436,50.12027],[-114.94443,50.12038],[-114.94449,50.12049],[-114.94456,50.12059],[-114.94461,50.12067],[-114.94468,50.12079],[-114.94474,50.12092],[-114.94483,50.12107],[-114.94492,50.12123],[-114.94503,50.12142],[-114.94517,50.12167],[-114.94529,50.12187],[-114.94541,50.12204],[-114.94551,50.12221],[-114.94562,50.12239],[-114.94571,50.12255],[-114.94581,50.12271],[-114.9459,50.12288],[-114.94599,50.12302],[-114.94607,50.12315],[-114.94613,50.12324],[-114.94618,50.12334],[-114.94623,50.12346],[-114.94631,50.12358],[-114.94635,50.12365],[-114.9464,50.12374],[-114.9465,50.12391],[-114.94659,50.12406],[-114.94667,50.12418],[-114.94677,50.12431],[-114.94683,50.12445],[-114.94688,50.12452],[-114.94692,50.1246],[-114.94697,50.12468],[-114.94701,50.12476],[-114.94704,50.12482],[-114.94705,50.12484],[-114.9471,50.12492],[-114.94717,50.12503],[-114.94726,50.12516],[-114.94735,50.12531],[-114.94746,50.12549],[-114.94757,50.12568],[-114.94768,50.12585],[-114.94776,50.126],[-114.94783,50.12615],[-114.94791,50.12629],[-114.94804,50.12651],[-114.9482,50.12675],[-114.94834,50.12698],[-114.94845,50.12716],[-114.94859,50.12739],[-114.94868,50.12752],[-114.94876,50.12766],[-114.94885,50.12781],[-114.94897,50.12799],[-114.94909,50.1282],[-114.9493,50.12856],[-114.94948,50.12885],[-114.94964,50.1291],[-114.94978,50.12935],[-114.94984,50.12945],[-114.94994,50.12961],[-114.9501,50.12985],[-114.95024,50.1301],[-114.9504,50.13036],[-114.95054,50.13059],[-114.95066,50.1308],[-114.95075,50.13096],[-114.95085,50.13114],[-114.95097,50.13134],[-114.9511,50.13156],[-114.95124,50.13181],[-114.95137,50.13202],[-114.95148,50.1322],[-114.95158,50.13236],[-114.95168,50.13251],[-114.95177,50.13266],[-114.95192,50.13291],[-114.95207,50.13318],[-114.9521,50.13323],[-114.95222,50.13344],[-114.95238,50.13368],[-114.9525,50.13389],[-114.95262,50.13408],[-114.95273,50.13429],[-114.95288,50.13451],[-114.95303,50.13478],[-114.95322,50.13509],[-114.95339,50.13539],[-114.95354,50.13566],[-114.95366,50.13588],[-114.95371,50.13596],[-114.95379,50.13611],[-114.95392,50.13634],[-114.9541,50.13668],[-114.95431,50.13706],[-114.95452,50.13743],[-114.95471,50.13777],[-114.95488,50.13808],[-114.95506,50.13841],[-114.95522,50.1387],[-114.9554,50.13905],[-114.95561,50.13945],[-114.95583,50.13989],[-114.95599,50.14022],[-114.95612,50.14049],[-114.95617,50.14058],[-114.95625,50.14074],[-114.95637,50.14099],[-114.95649,50.14125],[-114.95658,50.14146],[-114.95669,50.14167],[-114.95671,50.14175],[-114.95678,50.14188],[-114.95687,50.14207],[-114.95694,50.14222],[-114.95705,50.14244],[-114.95716,50.14267],[-114.9572,50.14274],[-114.95728,50.1429],[-114.95729,50.14295],[-114.95743,50.14325],[-114.9576,50.1436],[-114.95777,50.14394],[-114.95789,50.14423],[-114.95801,50.14449],[-114.95812,50.14473],[-114.95824,50.14499],[-114.95828,50.14508],[-114.95834,50.14523],[-114.95846,50.14549],[-114.95856,50.14574],[-114.95867,50.14602],[-114.95879,50.14626],[-114.95885,50.14641],[-114.95893,50.14656],[-114.95902,50.14672],[-114.9591,50.14688],[-114.95919,50.14706],[-114.95923,50.14713],[-114.95927,50.14719],[-114.95929,50.14726],[-114.95932,50.14732],[-114.95933,50.14736],[-114.95937,50.14743],[-114.95941,50.14749],[-114.95946,50.14757],[-114.95954,50.14766],[-114.95963,50.14776],[-114.95969,50.14782],[-114.95978,50.14793],[-114.95991,50.14806],[-114.96002,50.14817],[-114.96012,50.14826],[-114.96022,50.14836],[-114.9604,50.14852],[-114.96059,50.1487],[-114.96064,50.14874],[-114.96078,50.14887],[-114.96096,50.14905],[-114.96111,50.14918],[-114.96129,50.14935],[-114.96148,50.14951],[-114.96171,50.14972],[-114.96195,50.14993],[-114.96223,50.15018],[-114.96236,50.15029],[-114.96253,50.15044],[-114.96279,50.15066],[-114.963,50.15085],[-114.96322,50.15105],[-114.96343,50.15124],[-114.96374,50.1515],[-114.96405,50.15177],[-114.96428,50.15195],[-114.96438,50.15204],[-114.96468,50.15228],[-114.96492,50.15247],[-114.96512,50.15262],[-114.96535,50.15279],[-114.96556,50.15295],[-114.96561,50.153],[-114.96569,50.15304],[-114.96591,50.15322],[-114.96625,50.15347],[-114.96656,50.15372],[-114.96683,50.15393],[-114.96706,50.15412],[-114.96729,50.1543],[-114.96752,50.1545],[-114.96782,50.15473],[-114.96812,50.15499],[-114.96842,50.15522],[-114.96843,50.15524],[-114.96871,50.15547],[-114.96897,50.15567],[-114.96915,50.15582],[-114.96936,50.15598],[-114.96959,50.15616],[-114.96985,50.15635],[-114.97015,50.15658],[-114.97046,50.15682],[-114.97066,50.15698]]}},
{"type":"Feature","properties":{"spotId":"F-grouse-drive-0050","kind":"roadside","km":4.95,"climbM":52,"name":"By Bingay Creek","flags":["Route enters a Motor Vehicle Closed Area: Upper Elk Valley and Fording River. Closed Year Round. Synopsis map 1-35/23."]},"geometry":{"type":"LineString","coordinates":[[-114.98644,50.19577],[-114.98643,50.19572],[-114.98639,50.19565],[-114.98635,50.19555],[-114.98631,50.19545],[-114.98626,50.19533],[-114.98621,50.1952],[-114.98616,50.19506],[-114.98611,50.19494],[-114.98606,50.19484],[-114.98602,50.19474],[-114.98598,50.19465],[-114.98593,50.1945],[-114.98588,50.19434],[-114.98582,50.19418],[-114.98576,50.194],[-114.98569,50.19384],[-114.98563,50.19365],[-114.98557,50.19346],[-114.98551,50.19328],[-114.98543,50.19307],[-114.98535,50.19288],[-114.98534,50.19283],[-114.98519,50.19239],[-114.98518,50.19237],[-114.98503,50.19195],[-114.98489,50.19158],[-114.98478,50.19125],[-114.98477,50.19121],[-114.98468,50.19096],[-114.9846,50.19078],[-114.98453,50.19057],[-114.98444,50.19035],[-114.98435,50.19011],[-114.98425,50.18983],[-114.98417,50.18964],[-114.98416,50.18959],[-114.9841,50.18942],[-114.98401,50.1892],[-114.98394,50.18898],[-114.98385,50.18877],[-114.98378,50.18859],[-114.98372,50.1884],[-114.98369,50.18833],[-114.98365,50.18821],[-114.98358,50.18802],[-114.98351,50.18784],[-114.98346,50.18768],[-114.98339,50.18752],[-114.98335,50.18735],[-114.98327,50.18716],[-114.98319,50.18696],[-114.98318,50.18693],[-114.98312,50.18674],[-114.98307,50.18659],[-114.98302,50.18645],[-114.98298,50.18631],[-114.98297,50.18619],[-114.98296,50.18608],[-114.98296,50.18595],[-114.98295,50.18582],[-114.98295,50.18569],[-114.98296,50.18556],[-114.98298,50.18545],[-114.98301,50.18534],[-114.98303,50.18522],[-114.98306,50.18512],[-114.98312,50.18496],[-114.98316,50.18487],[-114.98319,50.18482],[-114.98326,50.18469],[-114.98332,50.18458],[-114.9834,50.18448],[-114.98347,50.18438],[-114.98362,50.18422],[-114.98375,50.18403],[-114.9839,50.18384],[-114.98405,50.18366],[-114.98418,50.18348],[-114.98428,50.18335],[-114.98439,50.18322],[-114.98451,50.18309],[-114.98463,50.18294],[-114.98474,50.18279],[-114.98477,50.18275],[-114.98493,50.18255],[-114.98505,50.18237],[-114.98517,50.18221],[-114.98528,50.18207],[-114.98538,50.18194],[-114.98545,50.18184],[-114.98556,50.18172],[-114.98565,50.1816],[-114.98575,50.18147],[-114.98584,50.18136],[-114.98588,50.18131],[-114.98593,50.18124],[-114.98599,50.18119],[-114.98603,50.18112],[-114.98609,50.18105],[-114.98618,50.18092],[-114.98627,50.18082],[-114.9863,50.18076],[-114.98634,50.18071],[-114.98642,50.18062],[-114.98648,50.18054],[-114.98658,50.18041],[-114.98668,50.18025],[-114.9868,50.18008],[-114.98692,50.17991],[-114.98704,50.17974],[-114.9871,50.17965],[-114.98722,50.17951],[-114.98731,50.1794],[-114.98738,50.17931],[-114.98756,50.17909],[-114.98777,50.17885],[-114.98799,50.17855],[-114.9882,50.17826],[-114.98837,50.17801],[-114.98851,50.17778],[-114.98862,50.17757],[-114.98868,50.1774],[-114.98871,50.17727],[-114.98878,50.17711],[-114.98883,50.17694],[-114.98887,50.17681],[-114.98894,50.17661],[-114.98899,50.17647],[-114.98902,50.17634],[-114.98905,50.17621],[-114.98907,50.17604],[-114.98911,50.17584],[-114.98912,50.17569],[-114.98912,50.17558],[-114.98911,50.17549],[-114.9891,50.17541],[-114.9891,50.17533],[-114.98909,50.17524],[-114.98909,50.1751],[-114.98909,50.17496],[-114.98908,50.1748],[-114.98908,50.17465],[-114.98906,50.17441],[-114.98901,50.17418],[-114.98897,50.17396],[-114.98891,50.1737],[-114.98883,50.1734],[-114.98882,50.17336],[-114.98878,50.17313],[-114.98872,50.17289],[-114.98867,50.17268],[-114.98863,50.17251],[-114.9886,50.17236],[-114.98858,50.17221],[-114.98854,50.17203],[-114.98851,50.17183],[-114.98847,50.17163],[-114.98843,50.17142],[-114.98839,50.17126],[-114.98834,50.17109],[-114.98831,50.17093],[-114.98825,50.17076],[-114.98818,50.17054],[-114.98814,50.17033],[-114.98813,50.17028],[-114.98809,50.17013],[-114.98804,50.16996],[-114.98801,50.1698],[-114.98798,50.16967],[-114.98795,50.16956],[-114.98789,50.16943],[-114.98786,50.16929],[-114.98782,50.16914],[-114.98779,50.16901],[-114.98776,50.16895],[-114.98775,50.16889],[-114.98772,50.16882],[-114.9877,50.16875],[-114.98766,50.16866],[-114.98762,50.16859],[-114.98758,50.16853],[-114.98753,50.16847],[-114.98749,50.16842],[-114.98745,50.16838],[-114.98737,50.1683],[-114.98729,50.1682],[-114.9872,50.16808],[-114.9871,50.16795],[-114.98704,50.16787],[-114.98701,50.16783],[-114.98692,50.16771],[-114.98682,50.1676],[-114.98673,50.16748],[-114.98661,50.16736],[-114.9865,50.16721],[-114.98628,50.16696],[-114.98608,50.16672],[-114.98588,50.16649],[-114.98572,50.16631],[-114.98557,50.16616],[-114.98547,50.16608],[-114.98537,50.16596],[-114.98523,50.16582],[-114.98508,50.16569],[-114.98496,50.16555],[-114.98483,50.16543],[-114.98471,50.16532],[-114.98459,50.16521],[-114.98444,50.16509],[-114.98423,50.16494],[-114.98403,50.16481],[-114.98384,50.1647],[-114.98366,50.16461],[-114.98351,50.16454],[-114.9834,50.1645],[-114.98331,50.16449],[-114.98319,50.16443],[-114.98304,50.16435],[-114.9827,50.16417],[-114.98255,50.1641],[-114.98241,50.16403],[-114.98229,50.16396],[-114.98216,50.1639],[-114.98204,50.16384],[-114.98179,50.16371],[-114.9815,50.16358],[-114.98122,50.16343],[-114.98091,50.16329],[-114.98074,50.16321],[-114.98038,50.16304],[-114.98014,50.16293],[-114.97995,50.16283],[-114.9799,50.16282],[-114.97964,50.16269],[-114.97932,50.16254],[-114.97899,50.16238],[-114.9787,50.16225],[-114.97844,50.16212],[-114.97821,50.162],[-114.978,50.1619],[-114.97777,50.16179],[-114.9775,50.16166],[-114.97719,50.16151],[-114.97689,50.16136],[-114.9766,50.16123],[-114.97641,50.16114],[-114.97621,50.16104],[-114.97601,50.16094],[-114.97596,50.16092],[-114.97577,50.16082],[-114.97549,50.16067],[-114.97533,50.16059],[-114.97519,50.1605],[-114.97508,50.16044],[-114.975,50.16037],[-114.97493,50.16032],[-114.97483,50.16024],[-114.97468,50.16013],[-114.97451,50.16001],[-114.97435,50.15989],[-114.97419,50.15977],[-114.97398,50.15961],[-114.97379,50.15946],[-114.9736,50.15931],[-114.97339,50.15914],[-114.97313,50.15894],[-114.97286,50.15874],[-114.97263,50.15855],[-114.97241,50.15839],[-114.97225,50.15827],[-114.97211,50.15816],[-114.97202,50.15807],[-114.9719,50.15797],[-114.97176,50.15786],[-114.97164,50.15777],[-114.97161,50.15774],[-114.97146,50.15762],[-114.97121,50.15741],[-114.97096,50.15722],[-114.97072,50.15703],[-114.97066,50.15698]]}},
{"type":"Feature","properties":{"spotId":"F-grouse-walk-0002","kind":"walk","km":1.74,"climbM":72,"name":"By Ewin Creek","flags":["Route touches city limits: District of Elkford. Local firearm bylaw applies.","Route crosses private land (ParcelMap BC, updated 2026-09-26): get permission first or go around."]},"geometry":{"type":"LineString","coordinates":[[-114.80479,50.06036],[-114.78136,50.05612]]}},
{"type":"Feature","properties":{"spotId":"F-grouse-walk-0002","kind":"roadside","km":3.4,"climbM":93,"name":"By Ewin Creek","flags":["Route touches city limits: District of Elkford. Local firearm bylaw applies.","Route crosses private land (ParcelMap BC, updated 2026-09-26): get permission first or go around."]},"geometry":{"type":"LineString","coordinates":[[-114.78136,50.05612],[-114.78116,50.05606],[-114.78076,50.05591],[-114.78065,50.05587],[-114.78031,50.05576],[-114.77992,50.0557],[-114.77948,50.05569],[-114.7793,50.05566],[-114.779,50.05561],[-114.77857,50.05553],[-114.77825,50.05544],[-114.77787,50.0553],[-114.77763,50.05524],[-114.77729,50.05515],[-114.77686,50.05503],[-114.77656,50.05495],[-114.77638,50.05492],[-114.77617,50.05488],[-114.77595,50.0548],[-114.77588,50.05476],[-114.77514,50.05454],[-114.77494,50.0545],[-114.77478,50.05448],[-114.7745,50.05444],[-114.77443,50.05442],[-114.77435,50.05441],[-114.77424,50.05439],[-114.77401,50.05433],[-114.77389,50.0543],[-114.7735,50.05418],[-114.77345,50.05417],[-114.7733,50.05413],[-114.77323,50.05412],[-114.77314,50.05412],[-114.77306,50.05411],[-114.77302,50.0541],[-114.77255,50.05409],[-114.77248,50.05408],[-114.77225,50.0541],[-114.77208,50.05413],[-114.77194,50.05417],[-114.77187,50.05418],[-114.77181,50.0542],[-114.77165,50.05421],[-114.77128,50.05421],[-114.77121,50.0542],[-114.77114,50.05418],[-114.77106,50.05417],[-114.77098,50.05414],[-114.7708,50.05406],[-114.77076,50.05403],[-114.77072,50.05402],[-114.77068,50.05398],[-114.7705,50.05388],[-114.7703,50.05377],[-114.77021,50.05373],[-114.77008,50.05366],[-114.77002,50.05362],[-114.76997,50.05358],[-114.76992,50.05354],[-114.76981,50.05345],[-114.76977,50.0534],[-114.76971,50.05336],[-114.76965,50.05331],[-114.76959,50.05326],[-114.76946,50.05316],[-114.7694,50.05312],[-114.76936,50.05309],[-114.76934,50.05308],[-114.7693,50.05304],[-114.76913,50.05295],[-114.76904,50.0529],[-114.76885,50.05283],[-114.76879,50.05282],[-114.76858,50.05276],[-114.76851,50.05272],[-114.76834,50.05264],[-114.76827,50.0526],[-114.76811,50.05249],[-114.76805,50.05244],[-114.768,50.05241],[-114.76796,50.05236],[-114.76782,50.05227],[-114.76777,50.05222],[-114.76769,50.05218],[-114.76761,50.05211],[-114.76751,50.05206],[-114.76736,50.05195],[-114.76731,50.05191],[-114.76724,50.05187],[-114.76717,50.05182],[-114.76712,50.0518],[-114.76706,50.05176],[-114.76701,50.05173],[-114.76696,50.05169],[-114.7669,50.05165],[-114.76684,50.05159],[-114.76678,50.05154],[-114.76673,50.05147],[-114.76668,50.0514],[-114.76653,50.05126],[-114.76646,50.05121],[-114.76641,50.05115],[-114.76627,50.05106],[-114.76619,50.05101],[-114.7661,50.05097],[-114.76601,50.05092],[-114.76593,50.05086],[-114.76585,50.05082],[-114.76577,50.05076],[-114.76562,50.05064],[-114.76554,50.05057],[-114.76546,50.05049],[-114.76539,50.05044],[-114.76535,50.05039],[-114.76521,50.05026],[-114.76512,50.05022],[-114.76506,50.05017],[-114.76482,50.05007],[-114.76477,50.05004],[-114.76473,50.05001],[-114.76466,50.04999],[-114.76444,50.04991],[-114.76418,50.04983],[-114.76415,50.04981],[-114.76408,50.04979],[-114.76378,50.04969],[-114.76334,50.04956],[-114.76312,50.04952],[-114.7631,50.04951],[-114.76284,50.04943],[-114.76267,50.04926],[-114.76242,50.04899],[-114.76236,50.04892],[-114.7621,50.04858],[-114.76138,50.04811],[-114.7612,50.04803],[-114.76069,50.04787],[-114.76012,50.04762],[-114.75991,50.04752],[-114.75952,50.0473],[-114.75929,50.04709],[-114.75916,50.04697],[-114.75897,50.04672],[-114.75871,50.04634],[-114.75856,50.04604],[-114.75809,50.04555],[-114.75782,50.04534],[-114.75774,50.04528],[-114.7576,50.04502],[-114.75738,50.04475],[-114.75715,50.04452],[-114.75693,50.04423],[-114.75662,50.04402],[-114.7564,50.04379],[-114.7561,50.04358],[-114.75575,50.04328],[-114.75519,50.04279],[-114.75477,50.04238],[-114.75399,50.04169],[-114.75373,50.04148],[-114.75337,50.04124],[-114.75268,50.0408],[-114.75237,50.04055],[-114.75173,50.03981],[-114.7514,50.03959],[-114.75119,50.03938],[-114.75059,50.03893],[-114.75036,50.03882],[-114.7502,50.0387],[-114.75001,50.03847],[-114.7498,50.03831],[-114.74962,50.03797],[-114.74934,50.03761],[-114.74905,50.03737],[-114.74839,50.03696],[-114.7482,50.03692],[-114.74792,50.0369],[-114.74765,50.03694]]}},
{"type":"Feature","properties":{"spotId":"F-grouse-walk-0014","kind":"walk","km":0.19,"climbM":6,"name":"190 m S of Chauncey Creek","flags":["Route crosses private land (ParcelMap BC, updated 2026-09-26): get permission first or go around."]},"geometry":{"type":"LineString","coordinates":[[-114.81819,50.10521],[-114.81608,50.10626]]}},
{"type":"Feature","properties":{"spotId":"F-grouse-walk-0014","kind":"roadside","km":4.17,"climbM":174,"name":"190 m S of Chauncey Creek","flags":["Route crosses private land (ParcelMap BC, updated 2026-09-26): get permission first or go around."]},"geometry":{"type":"LineString","coordinates":[[-114.81608,50.10626],[-114.81609,50.10641],[-114.8161,50.10645],[-114.81609,50.10652],[-114.81608,50.10657],[-114.81607,50.10665],[-114.81605,50.10673],[-114.81602,50.10682],[-114.81598,50.1069],[-114.81592,50.10706],[-114.81584,50.1072],[-114.81573,50.10733],[-114.81558,50.10745],[-114.81541,50.10755],[-114.81527,50.1076],[-114.81511,50.10764],[-114.81496,50.10768],[-114.81483,50.10772],[-114.81471,50.10776],[-114.81463,50.10781],[-114.81454,50.10788],[-114.81445,50.10796],[-114.81438,50.10804],[-114.81432,50.10813],[-114.81429,50.1082],[-114.81429,50.10822],[-114.81427,50.10828],[-114.81425,50.10836],[-114.81424,50.10845],[-114.81422,50.10855],[-114.8142,50.10868],[-114.81416,50.1088],[-114.81412,50.10891],[-114.81404,50.109],[-114.81396,50.10904],[-114.81386,50.10908],[-114.81373,50.10913],[-114.81361,50.1092],[-114.8135,50.10928],[-114.81341,50.10936],[-114.81337,50.10943],[-114.81335,50.1095],[-114.81335,50.10957],[-114.81334,50.10964],[-114.81334,50.10972],[-114.81333,50.10982],[-114.81333,50.10994],[-114.81334,50.11005],[-114.81334,50.11008],[-114.81332,50.11015],[-114.81331,50.11024],[-114.81331,50.11026],[-114.81328,50.11039],[-114.81325,50.11052],[-114.8132,50.11066],[-114.81312,50.11079],[-114.81302,50.11092],[-114.81293,50.11104],[-114.81283,50.11115],[-114.81272,50.11126],[-114.81265,50.11136],[-114.81259,50.11145],[-114.81256,50.11156],[-114.81252,50.11169],[-114.81246,50.11182],[-114.8124,50.11195],[-114.81232,50.11203],[-114.81225,50.11209],[-114.81217,50.11214],[-114.81208,50.11219],[-114.81201,50.11223],[-114.81198,50.11224],[-114.81189,50.1123],[-114.81173,50.11241],[-114.81159,50.11251],[-114.81146,50.11261],[-114.81134,50.1127],[-114.81124,50.11277],[-114.81117,50.11281],[-114.81107,50.11286],[-114.81097,50.11292],[-114.81085,50.11298],[-114.81075,50.11302],[-114.81058,50.1131],[-114.81043,50.11316],[-114.8104,50.11317],[-114.81024,50.11325],[-114.81011,50.11334],[-114.80999,50.11346],[-114.80993,50.11354],[-114.80989,50.11364],[-114.80987,50.11375],[-114.80985,50.11385],[-114.80984,50.11394],[-114.80983,50.11404],[-114.80979,50.11414],[-114.80975,50.11425],[-114.80967,50.11435],[-114.8096,50.11443],[-114.80948,50.1145],[-114.80937,50.11459],[-114.80922,50.11468],[-114.80909,50.11477],[-114.80896,50.11488],[-114.80885,50.11498],[-114.80876,50.1151],[-114.80868,50.1152],[-114.80865,50.11532],[-114.80866,50.11542],[-114.80867,50.11548],[-114.80869,50.11555],[-114.80869,50.11562],[-114.80869,50.11568],[-114.80866,50.11573],[-114.80863,50.11578],[-114.8086,50.11583],[-114.80855,50.11588],[-114.80848,50.11592],[-114.80842,50.11595],[-114.80834,50.11598],[-114.80825,50.116],[-114.80817,50.11602],[-114.80808,50.11604],[-114.80804,50.11605],[-114.808,50.1161],[-114.80797,50.11614],[-114.80794,50.11621],[-114.80791,50.11627],[-114.80789,50.11632],[-114.80785,50.11637],[-114.8078,50.11643],[-114.80774,50.11648],[-114.80768,50.11653],[-114.80763,50.1166],[-114.80755,50.11669],[-114.80748,50.11678],[-114.80742,50.11688],[-114.80737,50.11698],[-114.80732,50.11706],[-114.80726,50.11714],[-114.80719,50.11723],[-114.8071,50.11731],[-114.80702,50.11738],[-114.80692,50.11745],[-114.80679,50.11751],[-114.80667,50.11758],[-114.80653,50.11764],[-114.80639,50.11771],[-114.80626,50.11778],[-114.80613,50.11785],[-114.806,50.11792],[-114.80588,50.11799],[-114.80578,50.11806],[-114.80568,50.11813],[-114.80558,50.11821],[-114.80548,50.1183],[-114.80538,50.11839],[-114.80532,50.11847],[-114.8053,50.11854],[-114.8053,50.11858],[-114.80529,50.11861],[-114.80529,50.11866],[-114.80529,50.11871],[-114.8053,50.11876],[-114.80531,50.11885],[-114.80534,50.11893],[-114.80537,50.11901],[-114.80537,50.11907],[-114.80537,50.11913],[-114.80531,50.11918],[-114.80522,50.11924],[-114.80512,50.1193],[-114.80502,50.11937],[-114.80491,50.11943],[-114.80472,50.11954],[-114.80455,50.11966],[-114.80437,50.11978],[-114.80421,50.1199],[-114.80419,50.1199],[-114.80404,50.12001],[-114.80393,50.12009],[-114.8038,50.12017],[-114.80365,50.12024],[-114.80352,50.12031],[-114.80337,50.12037],[-114.80311,50.12049],[-114.80308,50.12049],[-114.80284,50.1206],[-114.80255,50.12072],[-114.80233,50.1208],[-114.80217,50.12086],[-114.80207,50.1209],[-114.80197,50.12093],[-114.80181,50.12099],[-114.80166,50.12105],[-114.8015,50.12111],[-114.80134,50.12118],[-114.8012,50.12124],[-114.80117,50.12126],[-114.80106,50.1213],[-114.80092,50.12137],[-114.80079,50.12143],[-114.8007,50.12147],[-114.80064,50.12149],[-114.80062,50.1215],[-114.80053,50.12153],[-114.80046,50.12157],[-114.80039,50.12159],[-114.80016,50.12168],[-114.8,50.12174],[-114.7999,50.12177],[-114.79965,50.12188],[-114.79939,50.12199],[-114.79913,50.12213],[-114.79893,50.12224],[-114.79874,50.12236],[-114.79856,50.12244],[-114.79835,50.1225],[-114.79813,50.12251],[-114.79808,50.1225],[-114.79804,50.1225],[-114.79793,50.12249],[-114.79781,50.12248],[-114.79772,50.12249],[-114.79765,50.12249],[-114.79759,50.1225],[-114.79751,50.12252],[-114.79742,50.12254],[-114.79732,50.12255],[-114.79722,50.12258],[-114.79712,50.12261],[-114.79701,50.12265],[-114.79688,50.12268],[-114.79674,50.12271],[-114.7966,50.12276],[-114.79651,50.12278],[-114.79644,50.12281],[-114.79639,50.12283],[-114.79631,50.12285],[-114.79624,50.12286],[-114.79616,50.12286],[-114.79608,50.12287],[-114.79601,50.12287],[-114.79594,50.12287],[-114.79587,50.12288],[-114.79575,50.1229],[-114.79564,50.12293],[-114.79554,50.12298],[-114.79541,50.12304],[-114.79527,50.1231],[-114.79511,50.12316],[-114.79503,50.12318],[-114.79498,50.12319],[-114.79487,50.12323],[-114.79476,50.12326],[-114.79463,50.1233],[-114.7945,50.12335],[-114.79439,50.12339],[-114.79427,50.12344],[-114.79417,50.1235],[-114.79407,50.12355],[-114.79398,50.12362],[-114.79388,50.12369],[-114.79378,50.12376],[-114.79367,50.12383],[-114.79352,50.12389],[-114.79343,50.12393],[-114.79331,50.12395],[-114.79321,50.12398],[-114.79313,50.12399],[-114.79303,50.12403],[-114.79287,50.12409],[-114.79271,50.12416],[-114.79257,50.12424],[-114.79244,50.12433],[-114.79234,50.12442],[-114.79231,50.12445],[-114.79228,50.12448],[-114.79225,50.12452],[-114.79222,50.12455],[-114.79218,50.12459],[-114.79215,50.12461],[-114.79213,50.12464],[-114.7921,50.12466],[-114.79209,50.12468],[-114.79206,50.12469],[-114.79203,50.12471],[-114.79199,50.12472],[-114.79196,50.12473],[-114.79193,50.12474],[-114.7919,50.12474],[-114.79185,50.12474],[-114.79181,50.12474],[-114.79177,50.12472],[-114.79171,50.1247],[-114.79164,50.12468],[-114.79148,50.12462],[-114.79135,50.12457],[-114.79126,50.12452],[-114.79115,50.12449],[-114.79104,50.12444],[-114.79089,50.12437],[-114.79074,50.12431],[-114.79058,50.12425],[-114.79043,50.1242],[-114.79025,50.12416],[-114.79022,50.12415],[-114.7902,50.12414],[-114.79017,50.12414],[-114.79014,50.12413],[-114.79013,50.1241],[-114.79012,50.12408],[-114.79012,50.12406],[-114.79017,50.12403],[-114.79022,50.12402],[-114.79032,50.12401],[-114.79038,50.12401],[-114.79046,50.124],[-114.79054,50.12399],[-114.79062,50.12398],[-114.79074,50.12397],[-114.79084,50.12396],[-114.79092,50.12395],[-114.791,50.12394],[-114.79109,50.12392],[-114.79116,50.12389],[-114.7912,50.12387],[-114.79126,50.12384],[-114.7913,50.12381],[-114.79133,50.12378],[-114.79143,50.1237],[-114.79151,50.12361],[-114.79158,50.12351],[-114.79169,50.12341],[-114.7918,50.12329],[-114.79198,50.12316],[-114.79202,50.12313],[-114.79211,50.12306],[-114.79225,50.12296],[-114.7924,50.12286],[-114.79305,50.12259],[-114.79368,50.12236],[-114.79433,50.12224],[-114.79481,50.12202],[-114.7953,50.12175],[-114.7957,50.12162],[-114.79612,50.12151],[-114.79641,50.12145],[-114.79687,50.12147],[-114.79725,50.12142],[-114.79756,50.12125],[-114.79804,50.12108],[-114.79869,50.1208],[-114.79915,50.12067],[-114.79944,50.12054],[-114.79972,50.12031],[-114.80017,50.12009],[-114.80076,50.11981],[-114.80102,50.11957],[-114.80141,50.11915],[-114.80191,50.11877],[-114.80233,50.1184]]}},
{"type":"Feature","properties":{"spotId":"F-grouse-walk-0032","kind":"walk","km":1.7,"climbM":327,"name":"230 m SE of Fording River","flags":["Route enters this area: Fording River coal mine (Maps D13 and D16): No Hunting/No Shooting and No Shooting Areas on private property; company permission before entry, maps at the gate houses (synopsis page 41, 99%). Mine outline from OpenStreetMap (estimate)."]},"geometry":{"type":"LineString","coordinates":[[-114.85247,50.23325],[-114.8564,50.24833]]}},
{"type":"Feature","properties":{"spotId":"F-grouse-walk-0032","kind":"roadside","km":6.32,"climbM":187,"name":"230 m SE of Fording River","flags":["Route enters this area: Fording River coal mine (Maps D13 and D16): No Hunting/No Shooting and No Shooting Areas on private property; company permission before entry, maps at the gate houses (synopsis page 41, 99%). Mine outline from OpenStreetMap (estimate)."]},"geometry":{"type":"LineString","coordinates":[[-114.8564,50.24833],[-114.85601,50.24872],[-114.85491,50.24935],[-114.85447,50.24946],[-114.85401,50.24997],[-114.85365,50.25023],[-114.85316,50.25058],[-114.85297,50.25088],[-114.85285,50.25124],[-114.85271,50.25167],[-114.85255,50.25226],[-114.85224,50.25272],[-114.85218,50.25294],[-114.85183,50.25336],[-114.8514,50.2538],[-114.85135,50.25406],[-114.85099,50.25442],[-114.8507,50.25477],[-114.85035,50.25504],[-114.85009,50.25528],[-114.84978,50.25576],[-114.85003,50.25623],[-114.85,50.25651],[-114.8498,50.25713],[-114.84962,50.25773],[-114.84939,50.25804],[-114.84927,50.25815],[-114.8486,50.25838],[-114.84821,50.25839],[-114.84763,50.25843],[-114.84734,50.25846],[-114.84695,50.25852],[-114.84654,50.25867],[-114.84623,50.25881],[-114.84592,50.25889],[-114.8455,50.25902],[-114.84523,50.25911],[-114.84507,50.25926],[-114.84496,50.25951],[-114.84495,50.25981],[-114.84507,50.26001],[-114.84546,50.26026],[-114.8457,50.26053],[-114.84566,50.26086],[-114.84551,50.26126],[-114.84534,50.2616],[-114.84507,50.26178],[-114.84477,50.26207],[-114.84461,50.26227],[-114.8447,50.26243],[-114.84513,50.26303],[-114.84523,50.26326],[-114.84543,50.26392],[-114.84542,50.26419],[-114.84537,50.26448],[-114.84526,50.2647],[-114.84519,50.265],[-114.84499,50.26565],[-114.84487,50.26586],[-114.84474,50.2661],[-114.84472,50.26621],[-114.84491,50.26656],[-114.84507,50.26693],[-114.84515,50.26723],[-114.84523,50.26754],[-114.84521,50.26802],[-114.84529,50.26835],[-114.84557,50.26854],[-114.84576,50.26892],[-114.84594,50.26992],[-114.84604,50.27034],[-114.84605,50.2709],[-114.84598,50.27117],[-114.84588,50.27138],[-114.84567,50.27166],[-114.84561,50.27177],[-114.84562,50.27191],[-114.84571,50.27211],[-114.84572,50.27214],[-114.84574,50.27298],[-114.84571,50.27311],[-114.84559,50.27326],[-114.84551,50.27345],[-114.84558,50.27363],[-114.84563,50.27381],[-114.84569,50.27391],[-114.84573,50.27416],[-114.84575,50.27446],[-114.84584,50.27469],[-114.84594,50.2749],[-114.84597,50.27539],[-114.84598,50.27566],[-114.846,50.27589],[-114.84602,50.27609],[-114.84607,50.27621],[-114.84618,50.27635],[-114.84632,50.27648],[-114.8466,50.27671],[-114.84681,50.27694],[-114.84693,50.27709],[-114.84701,50.27724],[-114.84709,50.27742],[-114.84714,50.27756],[-114.84717,50.27772],[-114.84727,50.27802],[-114.84756,50.27809],[-114.84794,50.27825],[-114.84836,50.27837],[-114.84855,50.27845],[-114.84901,50.27856],[-114.84961,50.27879],[-114.85045,50.27928],[-114.85091,50.27958],[-114.85133,50.27994],[-114.85174,50.28064],[-114.85183,50.28107],[-114.85196,50.28153],[-114.85196,50.2821],[-114.8519,50.28254],[-114.85182,50.28308],[-114.85167,50.28416],[-114.85168,50.2847],[-114.85175,50.2849],[-114.85186,50.28555],[-114.85199,50.28603],[-114.85213,50.28661],[-114.85217,50.28705],[-114.85212,50.28734],[-114.85168,50.28816],[-114.85156,50.28834],[-114.85145,50.28862],[-114.85141,50.28904],[-114.85133,50.28956],[-114.85123,50.29011],[-114.85106,50.29054],[-114.85096,50.29109],[-114.85076,50.29171],[-114.85084,50.29211],[-114.85092,50.29239],[-114.85108,50.29272],[-114.85115,50.29319],[-114.85127,50.29362],[-114.85121,50.2938],[-114.85112,50.29414],[-114.85082,50.29466],[-114.8506,50.29483],[-114.85043,50.29511],[-114.85034,50.2954],[-114.85031,50.2958],[-114.85042,50.29614],[-114.85064,50.29648],[-114.85073,50.29667],[-114.85071,50.29705],[-114.85068,50.29733],[-114.8508,50.29756],[-114.85118,50.2981],[-114.85135,50.29843],[-114.8514,50.29894]]}},
{"type":"Feature","properties":{"spotId":"F-grouse-walk-0054","kind":"walk","km":3.76,"climbM":660,"name":"1.4 km NE of Ewin Creek","flags":["Route touches city limits: District of Elkford. Local firearm bylaw applies.","Route crosses private land (ParcelMap BC, updated 2026-09-26): get permission first or go around."]},"geometry":{"type":"LineString","coordinates":[[-114.80387,50.06666],[-114.75191,50.06195]]}},
{"type":"Feature","properties":{"spotId":"F-grouse-walk-0054","kind":"roadside","km":3.18,"climbM":113,"name":"1.4 km NE of Ewin Creek","flags":["Route touches city limits: District of Elkford. Local firearm bylaw applies.","Route crosses private land (ParcelMap BC, updated 2026-09-26): get permission first or go around."]},"geometry":{"type":"LineString","coordinates":[[-114.75191,50.06195],[-114.75112,50.06197],[-114.75081,50.062],[-114.75062,50.06204],[-114.75061,50.06228],[-114.75066,50.06242],[-114.75126,50.06286],[-114.7518,50.06321],[-114.75203,50.0635],[-114.75244,50.06388],[-114.7525,50.06398],[-114.75237,50.0641],[-114.75209,50.06411],[-114.75186,50.06397],[-114.75173,50.06397],[-114.75118,50.06394],[-114.75084,50.06397],[-114.7502,50.0637],[-114.74989,50.06369],[-114.74965,50.06367],[-114.74944,50.06358],[-114.74907,50.0635],[-114.74846,50.06329],[-114.74822,50.06324],[-114.74788,50.06312],[-114.74752,50.06299],[-114.74715,50.06292],[-114.74664,50.06269],[-114.74627,50.06259],[-114.74623,50.06256],[-114.74593,50.06244],[-114.74575,50.06238],[-114.74549,50.06234],[-114.74533,50.06233],[-114.74514,50.06232],[-114.74499,50.06229],[-114.74486,50.06224],[-114.74476,50.06219],[-114.74439,50.06208],[-114.74412,50.06203],[-114.74363,50.06192],[-114.74339,50.06188],[-114.74314,50.06179],[-114.74287,50.06177],[-114.74238,50.06166],[-114.74226,50.06162],[-114.74195,50.06155],[-114.74186,50.06151],[-114.7417,50.06157],[-114.74159,50.06157],[-114.74153,50.06155],[-114.74128,50.06149],[-114.74115,50.06149],[-114.74106,50.06152],[-114.74098,50.06155],[-114.74093,50.06156],[-114.7407,50.06157],[-114.74036,50.06156],[-114.74024,50.06146],[-114.74024,50.06136],[-114.74022,50.06122],[-114.74013,50.06112],[-114.73973,50.06103],[-114.73955,50.06103],[-114.73911,50.06106],[-114.7389,50.0611],[-114.73853,50.06107],[-114.73822,50.06101],[-114.73788,50.06098],[-114.73757,50.06101],[-114.73702,50.06106],[-114.73671,50.06113],[-114.73653,50.06116],[-114.73618,50.06122],[-114.73562,50.06123],[-114.7355,50.06115],[-114.73541,50.06107],[-114.73518,50.061],[-114.73487,50.06102],[-114.73444,50.06095],[-114.7341,50.06106],[-114.73379,50.06104],[-114.73339,50.06103],[-114.7329,50.06098],[-114.73268,50.06098],[-114.73235,50.06095],[-114.73222,50.06093],[-114.7321,50.0609],[-114.732,50.06084],[-114.73186,50.06081],[-114.73173,50.0608],[-114.73161,50.06082],[-114.73155,50.06086],[-114.73144,50.06103],[-114.73129,50.06109],[-114.73113,50.06112],[-114.73072,50.0613],[-114.73048,50.06129],[-114.7302,50.06121],[-114.73003,50.06116],[-114.72988,50.06116],[-114.72969,50.06126],[-114.72947,50.06123],[-114.72938,50.06119],[-114.72917,50.06118],[-114.72873,50.06127],[-114.72835,50.06125],[-114.72821,50.06126],[-114.72758,50.06139],[-114.72712,50.06142],[-114.72674,50.06154],[-114.7265,50.06153],[-114.7261,50.06154],[-114.72563,50.06153],[-114.72449,50.06157],[-114.72411,50.06166],[-114.72352,50.06177],[-114.72328,50.06177],[-114.72291,50.06172],[-114.72263,50.06169],[-114.72242,50.06171],[-114.72213,50.06188],[-114.72142,50.06203],[-114.72123,50.06208],[-114.72102,50.06204],[-114.72074,50.06201],[-114.72025,50.06194],[-114.72001,50.06196],[-114.71981,50.06208],[-114.71953,50.06229],[-114.7194,50.06244],[-114.7193,50.06252],[-114.71908,50.06254],[-114.71896,50.06254],[-114.71884,50.06251],[-114.7188,50.06259],[-114.71885,50.06266],[-114.71911,50.06276],[-114.71951,50.06288],[-114.7198,50.06298],[-114.72038,50.0632],[-114.7207,50.06346]]}},
{"type":"Feature","properties":{"spotId":"F-moose-atv-0031","kind":"ride","km":1.4,"climbM":48,"name":"400 m S of Lowe Creek","flags":[]},"geometry":{"type":"LineString","coordinates":[[-114.97042,50.16754],[-114.97055,50.16753],[-114.97071,50.16746],[-114.97079,50.16741],[-114.97082,50.16739],[-114.97085,50.16735],[-114.97086,50.16726],[-114.97086,50.16716],[-114.97084,50.16708],[-114.9708,50.16699],[-114.97073,50.16688],[-114.97066,50.16675],[-114.97062,50.16665],[-114.97062,50.16653],[-114.97059,50.1664],[-114.97054,50.16631],[-114.97045,50.16622],[-114.97038,50.16615],[-114.97033,50.16608],[-114.97032,50.16595],[-114.97023,50.16578],[-114.97017,50.1657],[-114.97015,50.16555],[-114.97014,50.16545],[-114.97008,50.16531],[-114.97002,50.16524],[-114.96992,50.16518],[-114.96979,50.16507],[-114.96971,50.165],[-114.96963,50.16496],[-114.96958,50.16495],[-114.9695,50.16492],[-114.96945,50.16489],[-114.96941,50.16483],[-114.9694,50.16475],[-114.96941,50.16468],[-114.96948,50.16457],[-114.96957,50.16453],[-114.96972,50.16452],[-114.96982,50.16451],[-114.96989,50.16451],[-114.97006,50.1646],[-114.97019,50.16463],[-114.97032,50.16469],[-114.97041,50.16474],[-114.97045,50.1648],[-114.97053,50.16489],[-114.9706,50.16495],[-114.97075,50.16509],[-114.97082,50.16521],[-114.97097,50.16539],[-114.97107,50.16549],[-114.97119,50.16562],[-114.97127,50.16573],[-114.9713,50.16581],[-114.9714,50.16591],[-114.9715,50.16598],[-114.97157,50.16605],[-114.97168,50.16616],[-114.97173,50.16623],[-114.97182,50.16633],[-114.97191,50.16649],[-114.97197,50.16658],[-114.97212,50.16689],[-114.97227,50.16713],[-114.97235,50.16728],[-114.97243,50.16736],[-114.97256,50.16745],[-114.97275,50.16754],[-114.97289,50.16761],[-114.973,50.16764],[-114.97323,50.16768],[-114.97346,50.16769],[-114.9739,50.16769],[-114.97412,50.1677],[-114.97468,50.16768],[-114.975,50.16768],[-114.97521,50.16768],[-114.9755,50.16767],[-114.97557,50.16766],[-114.97606,50.16777],[-114.97625,50.16793],[-114.97638,50.16815],[-114.9765,50.16832],[-114.97691,50.16848],[-114.97739,50.16843],[-114.97781,50.16841],[-114.97845,50.16831],[-114.9789,50.16831],[-114.97916,50.16839],[-114.97955,50.16851],[-114.9797,50.16858],[-114.98004,50.16873]]}},
{"type":"Feature","properties":{"spotId":"F-moose-atv-0031","kind":"walk","km":0.38,"climbM":2,"name":"400 m S of Lowe Creek","flags":[]},"geometry":{"type":"LineString","coordinates":[[-114.97042,50.16754],[-114.97011,50.17093]]}},
{"type":"Feature","properties":{"spotId":"F-moose-atv-0039","kind":"ride","km":1.45,"climbM":37,"name":"760 m SW of Elk River","flags":["Route touches city limits: District of Elkford. Local firearm bylaw applies."]},"geometry":{"type":"LineString","coordinates":[[-114.9417,50.06305],[-114.94152,50.06307],[-114.94122,50.06312],[-114.94099,50.06314],[-114.94083,50.06314],[-114.94037,50.06305],[-114.93994,50.063],[-114.93975,50.06301],[-114.93957,50.06305],[-114.93936,50.06311],[-114.93917,50.06318],[-114.9389,50.06331],[-114.93875,50.06342],[-114.93865,50.06351],[-114.93862,50.06363],[-114.9386,50.06382],[-114.93845,50.06405],[-114.93837,50.06417],[-114.9382,50.06447],[-114.93815,50.06467],[-114.93807,50.06519],[-114.93802,50.06538],[-114.93793,50.06569],[-114.93785,50.06606],[-114.93786,50.06619],[-114.9379,50.0663],[-114.93798,50.06646],[-114.93808,50.0666],[-114.93826,50.06645],[-114.9384,50.0664],[-114.9385,50.06637],[-114.93866,50.06637],[-114.93881,50.06639],[-114.93938,50.06659],[-114.93999,50.06683],[-114.9403,50.06699],[-114.94049,50.06712],[-114.9406,50.06725],[-114.94072,50.06746],[-114.94094,50.06789],[-114.94173,50.06923],[-114.94187,50.06956],[-114.94194,50.06985],[-114.94212,50.07045],[-114.94261,50.07225],[-114.94274,50.07272]]}},
{"type":"Feature","properties":{"spotId":"F-moose-atv-0039","kind":"walk","km":0.03,"climbM":8,"name":"760 m SW of Elk River","flags":["Route touches city limits: District of Elkford. Local firearm bylaw applies."]},"geometry":{"type":"LineString","coordinates":[[-114.94274,50.07272],[-114.94319,50.07267]]}},
{"type":"Feature","properties":{"spotId":"F-moose-drive-0026","kind":"walk","km":0.07,"climbM":0,"name":"200 m SW of Fording River","flags":[]},"geometry":{"type":"LineString","coordinates":[[-114.81333,50.09181],[-114.81245,50.09211]]}},
{"type":"Feature","properties":{"spotId":"F-moose-drive-0031","kind":"walk","km":0.17,"climbM":0,"name":"880 m SW of Elk River","flags":[]},"geometry":{"type":"LineString","coordinates":[[-114.96102,50.15476],[-114.96298,50.15396]]}},
{"type":"Feature","properties":{"spotId":"F-moose-walk-0029","kind":"walk","km":0.72,"climbM":20,"name":"720 m W of Forsyth Creek","flags":[]},"geometry":{"type":"LineString","coordinates":[[-114.96946,50.2303],[-114.97924,50.23205]]}},
{"type":"Feature","properties":{"spotId":"F-moose-walk-0031","kind":"walk","km":2.5,"climbM":63,"name":"By Ewin Creek","flags":["Route touches city limits: District of Elkford. Local firearm bylaw applies.","Route crosses private land (ParcelMap BC, updated 2026-09-26): get permission first or go around."]},"geometry":{"type":"LineString","coordinates":[[-114.80479,50.06036],[-114.80396,50.06059],[-114.80395,50.06057],[-114.80391,50.06051],[-114.80388,50.06045],[-114.80385,50.06039],[-114.80382,50.06034],[-114.80379,50.06029],[-114.80375,50.06024],[-114.80372,50.06016],[-114.80364,50.06002],[-114.80356,50.05989],[-114.80353,50.05985],[-114.8035,50.05978],[-114.80344,50.05969],[-114.80338,50.05959],[-114.80329,50.05949],[-114.80315,50.05937],[-114.80302,50.05925],[-114.8029,50.05913],[-114.80282,50.05905],[-114.80275,50.05898],[-114.80268,50.05892],[-114.80263,50.05884],[-114.80259,50.05876],[-114.80254,50.05866],[-114.80253,50.0586],[-114.8025,50.05854],[-114.80248,50.05844],[-114.80247,50.05834],[-114.80246,50.05825],[-114.80247,50.05818],[-114.80244,50.05808],[-114.80242,50.05798],[-114.8024,50.05787],[-114.80237,50.05776],[-114.80235,50.05769],[-114.80235,50.05765],[-114.80202,50.05788],[-114.80189,50.05793],[-114.80175,50.05797],[-114.80165,50.05801],[-114.80158,50.05803],[-114.80149,50.05806],[-114.80142,50.05807],[-114.80132,50.05809],[-114.80121,50.05811],[-114.8011,50.05811],[-114.80099,50.05811],[-114.80088,50.05812],[-114.80078,50.05813],[-114.80065,50.05815],[-114.80061,50.05816],[-114.80052,50.05817],[-114.8004,50.05821],[-114.80024,50.05822],[-114.80009,50.05825],[-114.8,50.05824],[-114.79993,50.05824],[-114.79981,50.05823],[-114.7997,50.05822],[-114.79959,50.05821],[-114.79946,50.05822],[-114.79933,50.05822],[-114.79921,50.05824],[-114.79908,50.05826],[-114.79898,50.0583],[-114.7989,50.05834],[-114.79884,50.05839],[-114.79878,50.05845],[-114.79876,50.05849],[-114.79873,50.05853],[-114.79867,50.05858],[-114.79857,50.05863],[-114.79848,50.05867],[-114.79836,50.05869],[-114.79826,50.0587],[-114.79815,50.0587],[-114.79805,50.05872],[-114.79795,50.05874],[-114.79786,50.05875],[-114.79777,50.05878],[-114.79769,50.0588],[-114.7976,50.05883],[-114.79749,50.05887],[-114.79737,50.0589],[-114.79725,50.05895],[-114.7971,50.05899],[-114.79694,50.05902],[-114.79677,50.05907],[-114.79661,50.05911],[-114.79647,50.05914],[-114.79633,50.05916],[-114.79619,50.05918],[-114.79606,50.05919],[-114.79592,50.05918],[-114.7958,50.05917],[-114.79567,50.05917],[-114.79555,50.05916],[-114.79541,50.05915],[-114.79527,50.05913],[-114.79513,50.05913],[-114.79497,50.05913],[-114.79478,50.05913],[-114.79461,50.05916],[-114.79447,50.05917],[-114.79434,50.0592],[-114.79422,50.05921],[-114.79409,50.05922],[-114.79397,50.05921],[-114.79385,50.05921],[-114.79373,50.05919],[-114.79362,50.05917],[-114.79349,50.05916],[-114.79334,50.05914],[-114.79319,50.05913],[-114.79302,50.05912],[-114.79284,50.0591],[-114.79263,50.05908],[-114.79238,50.05903],[-114.79217,50.059],[-114.79198,50.05896],[-114.7918,50.05892],[-114.79162,50.05888],[-114.79145,50.05884],[-114.79129,50.05879],[-114.79112,50.05875],[-114.79096,50.0587],[-114.79079,50.05867],[-114.79073,50.05866],[-114.79067,50.05864],[-114.79053,50.05862],[-114.79039,50.05859],[-114.79024,50.05857],[-114.79007,50.05854],[-114.78988,50.0585],[-114.78972,50.05846],[-114.78957,50.05843],[-114.78941,50.0584],[-114.78924,50.05837],[-114.78913,50.05835],[-114.78903,50.05834],[-114.78893,50.05833],[-114.78884,50.05832],[-114.78875,50.05832],[-114.78864,50.05832],[-114.78852,50.05831],[-114.78839,50.0583],[-114.78826,50.05829],[-114.78813,50.05828],[-114.78801,50.05826],[-114.7879,50.05824],[-114.78781,50.05822],[-114.78772,50.05819],[-114.78763,50.05815],[-114.78756,50.05812],[-114.78751,50.0581],[-114.78745,50.05806],[-114.7874,50.05803],[-114.78734,50.058],[-114.78726,50.05795],[-114.78717,50.05789],[-114.78708,50.05784],[-114.78699,50.05778],[-114.78689,50.05773],[-114.78662,50.05752],[-114.78638,50.05736],[-114.78634,50.05733],[-114.78622,50.05723],[-114.78604,50.0571],[-114.7858,50.05699],[-114.78556,50.05693],[-114.78523,50.05682],[-114.78486,50.05673],[-114.78469,50.05672],[-114.7842,50.0567],[-114.78399,50.05669],[-114.78376,50.05659],[-114.78357,50.0565],[-114.78347,50.05646],[-114.78304,50.05639],[-114.78265,50.05634],[-114.78242,50.0563],[-114.78225,50.05627],[-114.78198,50.0562],[-114.78161,50.05615],[-114.78136,50.05612],[-114.77527,50.05559]]}},
{"type":"Feature","properties":{"spotId":"F-moose-walk-0034","kind":"walk","km":0.62,"climbM":3,"name":"By Elk River","flags":["Route crosses private land (ParcelMap BC, updated 2026-09-26): get permission first or go around."]},"geometry":{"type":"LineString","coordinates":[[-114.93236,50.13267],[-114.94001,50.13]]}},
{"type":"Feature","properties":{"spotId":"F-moose-walk-0052","kind":"walk","km":0.42,"climbM":34,"name":"660 m SW of Britt Creek","flags":["Route crosses private land (ParcelMap BC, updated 2026-09-26): get permission first or go around."]},"geometry":{"type":"LineString","coordinates":[[-114.93083,50.23626],[-114.93087,50.23608],[-114.9308,50.23581],[-114.93077,50.23551],[-114.93054,50.23532],[-114.93019,50.23507],[-114.92993,50.23489],[-114.92957,50.23455],[-114.92942,50.23434],[-114.92938,50.23414],[-114.92942,50.2339],[-114.92947,50.23373],[-114.92954,50.23355],[-114.93068,50.23337]]}}
]}
