{"type":"FeatureCollection","features":[
{"type":"Feature","properties":{"spotId":"F-deer-atv-0132","kind":"ride","km":1.63,"climbM":127,"name":"920 m SE of Morrissey Creek","flags":["Route crosses private land (ParcelMap BC, updated 2026-09-26): get permission first or go around."]},"geometry":{"type":"LineString","coordinates":[[-114.96049,49.36275],[-114.96039,49.36282],[-114.96033,49.36288],[-114.9603,49.36293],[-114.96029,49.36297],[-114.96026,49.36304],[-114.96023,49.3631],[-114.96021,49.36316],[-114.96021,49.36322],[-114.96019,49.36326],[-114.96019,49.36331],[-114.96019,49.36337],[-114.96018,49.36342],[-114.9602,49.36348],[-114.96019,49.36354],[-114.96019,49.3636],[-114.96019,49.36366],[-114.96019,49.36371],[-114.9602,49.36376],[-114.9602,49.36383],[-114.96019,49.36388],[-114.96018,49.36394],[-114.96016,49.36399],[-114.96016,49.36404],[-114.96016,49.36409],[-114.96016,49.36413],[-114.96017,49.36418],[-114.96019,49.36423],[-114.96022,49.36429],[-114.96023,49.36433],[-114.96026,49.36438],[-114.96027,49.36443],[-114.96026,49.36449],[-114.96028,49.36455],[-114.96026,49.3646],[-114.96024,49.36466],[-114.96024,49.3647],[-114.96024,49.36475],[-114.96024,49.36483],[-114.96025,49.36489],[-114.96027,49.36496],[-114.96027,49.36503],[-114.96028,49.36508],[-114.96029,49.36514],[-114.9603,49.36521],[-114.96032,49.36526],[-114.96033,49.36533],[-114.96034,49.3654],[-114.96035,49.36546],[-114.96035,49.36552],[-114.96036,49.36558],[-114.96037,49.36563],[-114.96037,49.3657],[-114.96039,49.36577],[-114.9604,49.36585],[-114.96043,49.36591],[-114.96044,49.36597],[-114.96045,49.36604],[-114.96047,49.3661],[-114.9605,49.36617],[-114.96052,49.36624],[-114.96055,49.36631],[-114.96057,49.36637],[-114.96058,49.36642],[-114.96061,49.36649],[-114.96062,49.36655],[-114.96063,49.36662],[-114.96064,49.36669],[-114.96065,49.36677],[-114.96064,49.36684],[-114.96063,49.36691],[-114.96062,49.36698],[-114.96059,49.36705],[-114.96055,49.36714],[-114.96051,49.36721],[-114.96048,49.36728],[-114.96045,49.36735],[-114.96042,49.3674],[-114.96038,49.36746],[-114.96033,49.36754],[-114.96029,49.3676],[-114.96026,49.36767],[-114.96023,49.36773],[-114.9602,49.36779],[-114.96015,49.36784],[-114.96012,49.36789],[-114.96008,49.36795],[-114.96004,49.36802],[-114.96001,49.36808],[-114.95996,49.36813],[-114.95995,49.36818],[-114.95989,49.36824],[-114.95985,49.36829],[-114.9598,49.36836],[-114.95976,49.36843],[-114.95973,49.36848],[-114.95968,49.36852],[-114.95961,49.36858],[-114.95953,49.36863],[-114.95947,49.36867],[-114.95941,49.36873],[-114.95936,49.36878],[-114.9593,49.36883],[-114.95927,49.36886],[-114.95912,49.36876],[-114.95896,49.36865],[-114.95877,49.36853],[-114.95861,49.36844],[-114.95842,49.36837],[-114.95826,49.36828],[-114.95817,49.36824],[-114.95809,49.36819],[-114.95793,49.3681],[-114.9579,49.36806],[-114.95778,49.36795],[-114.95771,49.36789],[-114.95765,49.36783],[-114.95756,49.3677],[-114.95751,49.36757],[-114.95746,49.36743],[-114.95741,49.3673],[-114.95739,49.36715],[-114.95734,49.36702],[-114.9573,49.36699],[-114.95719,49.36686],[-114.95714,49.3668],[-114.95705,49.36668],[-114.95694,49.36655],[-114.95688,49.36642],[-114.95684,49.36638],[-114.95676,49.36629],[-114.95669,49.36622],[-114.95661,49.36617],[-114.95655,49.36614],[-114.9564,49.36605],[-114.95633,49.36602],[-114.95615,49.36594],[-114.95609,49.36593],[-114.95587,49.36588],[-114.95568,49.36583],[-114.95549,49.36576],[-114.95539,49.36572],[-114.95532,49.36572],[-114.95526,49.36571],[-114.95519,49.36568],[-114.95512,49.36567],[-114.95502,49.36564],[-114.95482,49.36558],[-114.95474,49.36553],[-114.95467,49.36549],[-114.95462,49.36546],[-114.95443,49.3654],[-114.95427,49.36531],[-114.95409,49.36522],[-114.95394,49.36513],[-114.95378,49.36505],[-114.95362,49.36495],[-114.95358,49.36493],[-114.95344,49.36487],[-114.95339,49.36483],[-114.95328,49.36476],[-114.9532,49.36472],[-114.95307,49.36468],[-114.95296,49.36467],[-114.95286,49.36466],[-114.95278,49.36465],[-114.95267,49.36465],[-114.95257,49.36465],[-114.95249,49.36465],[-114.95225,49.3647],[-114.95199,49.36479],[-114.95182,49.36488],[-114.95175,49.36491],[-114.95169,49.36494],[-114.95155,49.36503],[-114.95152,49.36508],[-114.95146,49.36511],[-114.95139,49.36516],[-114.95134,49.36519],[-114.95127,49.36524],[-114.95121,49.36531],[-114.95119,49.36535],[-114.95119,49.36549],[-114.95117,49.36561],[-114.95118,49.36575],[-114.95121,49.36588],[-114.95122,49.36595]]}},
{"type":"Feature","properties":{"spotId":"F-deer-atv-0132","kind":"walk","km":0.09,"climbM":0,"name":"920 m SE of Morrissey Creek","flags":["Route crosses private land (ParcelMap BC, updated 2026-09-26): get permission first or go around."]},"geometry":{"type":"LineString","coordinates":[[-114.95122,49.36595],[-114.95195,49.36525]]}},
{"type":"Feature","properties":{"spotId":"F-deer-backcountry-0001","kind":"backcountry","km":5.54,"climbM":889,"name":"340 m N of Wigwam River","flags":[]},"geometry":{"type":"LineString","coordinates":[[-114.98796,49.21493],[-114.94373,49.25542]]}},
{"type":"Feature","properties":{"spotId":"F-deer-drive-0152","kind":"walk","km":0.07,"climbM":0,"name":"360 m SE of Morrissey Creek","flags":[]},"geometry":{"type":"LineString","coordinates":[[-114.94227,49.37594],[-114.94255,49.37533]]}},
{"type":"Feature","properties":{"spotId":"F-deer-drive-0159","kind":"walk","km":0.24,"climbM":144,"name":"410 m E of Morrissey Creek","flags":[]},"geometry":{"type":"LineString","coordinates":[[-114.92784,49.38444],[-114.92608,49.38623]]}},
{"type":"Feature","properties":{"spotId":"F-deer-walk-0012","kind":"walk","km":1.49,"climbM":202,"name":"1.0 km S of Lodgepole Creek","flags":[]},"geometry":{"type":"LineString","coordinates":[[-114.89807,49.30458],[-114.90978,49.29355]]}},
{"type":"Feature","properties":{"spotId":"F-deer-walk-0014","kind":"walk","km":4.17,"climbM":773,"name":"2.1 km SE of Lodgepole Creek","flags":[]},"geometry":{"type":"LineString","coordinates":[[-114.89807,49.30458],[-114.9301,49.27344]]}},
{"type":"Feature","properties":{"spotId":"F-deer-walk-0168","kind":"walk","km":0.94,"climbM":272,"name":"1.5 km SE of Morrissey Creek","flags":["Route crosses private land (ParcelMap BC, updated 2026-09-26): get permission first or go around."]},"geometry":{"type":"LineString","coordinates":[[-114.96044,49.36246],[-114.94767,49.3612]]}},
{"type":"Feature","properties":{"spotId":"F-deer-walk-0169","kind":"walk","km":2.34,"climbM":344,"name":"By Bean Creek","flags":["Route crosses private land (ParcelMap BC, updated 2026-09-26): get permission first or go around."]},"geometry":{"type":"LineString","coordinates":[[-114.89807,49.30458],[-114.90899,49.32434]]}},
{"type":"Feature","properties":{"spotId":"F-deer-walk-0173","kind":"walk","km":0.59,"climbM":350,"name":"770 m E of Morrissey Creek","flags":[]},"geometry":{"type":"LineString","coordinates":[[-114.92791,49.3894],[-114.92,49.38834]]}},
{"type":"Feature","properties":{"spotId":"F-deer-walk-0176","kind":"walk","km":3.5,"climbM":714,"name":"2.1 km N of Bean Creek","flags":["Route crosses private land (ParcelMap BC, updated 2026-09-26): get permission first or go around."]},"geometry":{"type":"LineString","coordinates":[[-114.96084,49.36192],[-114.92435,49.34142]]}},
{"type":"Feature","properties":{"spotId":"F-duck-backcountry-0001","kind":"backcountry","km":5.12,"climbM":212,"name":"Unnamed wetland 170 m N of Flathead River","flags":[]},"geometry":{"type":"LineString","coordinates":[[-114.85758,49.41517],[-114.80695,49.38314]]}},
{"type":"Feature","properties":{"spotId":"F-duck-backcountry-0002","kind":"backcountry","km":5.55,"climbM":233,"name":"Unnamed wetland by Flathead River","flags":[]},"geometry":{"type":"LineString","coordinates":[[-114.85239,49.41846],[-114.79292,49.38714]]}},
{"type":"Feature","properties":{"spotId":"F-duck-backcountry-0003","kind":"backcountry","km":6.41,"climbM":130,"name":"Unnamed wetland by Flathead River","flags":[]},"geometry":{"type":"LineString","coordinates":[[-114.85239,49.41846],[-114.77481,49.391]]}},
{"type":"Feature","properties":{"spotId":"F-duck-walk-0105","kind":"walk","km":4.71,"climbM":174,"name":"Unnamed wetland 310 m N of Flathead River","flags":[]},"geometry":{"type":"LineString","coordinates":[[-114.85812,49.41486],[-114.8164,49.3824]]}},
{"type":"Feature","properties":{"spotId":"F-grouse-drive-0057","kind":"roadside","km":5.63,"climbM":66,"name":"1.0 km S of Leach Creek","flags":[]},"geometry":{"type":"LineString","coordinates":[[-114.77338,49.45437],[-114.77342,49.45463],[-114.77331,49.45472],[-114.77233,49.45555],[-114.77181,49.45569],[-114.7712,49.45608],[-114.77105,49.45641],[-114.77098,49.45645],[-114.77083,49.45654],[-114.77063,49.45653],[-114.77051,49.45642],[-114.77022,49.45606],[-114.7702,49.45576],[-114.77012,49.45573],[-114.77005,49.45575],[-114.76997,49.45591],[-114.76988,49.45638],[-114.7692,49.45675],[-114.76914,49.45685],[-114.76914,49.45706],[-114.769,49.45725],[-114.76893,49.45745],[-114.7689,49.45748],[-114.76844,49.45781],[-114.76835,49.45793],[-114.76829,49.45808],[-114.76831,49.45829],[-114.7684,49.45849],[-114.7689,49.45911],[-114.76973,49.46015],[-114.77007,49.46102],[-114.77015,49.46152],[-114.77005,49.4619],[-114.76991,49.46246],[-114.77012,49.46299],[-114.77028,49.46317],[-114.77111,49.46364],[-114.7713,49.46361],[-114.77204,49.46333],[-114.7727,49.46331],[-114.77308,49.46321],[-114.77342,49.46323],[-114.7736,49.46324],[-114.7741,49.46334],[-114.77552,49.46401],[-114.77649,49.46485],[-114.77776,49.46593],[-114.77837,49.46674],[-114.77894,49.46731],[-114.7801,49.46847],[-114.78118,49.46935],[-114.78219,49.46992],[-114.78478,49.4714],[-114.78597,49.47208],[-114.78665,49.47299],[-114.78704,49.47383],[-114.78705,49.47415],[-114.78705,49.4742],[-114.78705,49.47431],[-114.78706,49.47444],[-114.78723,49.47466],[-114.78846,49.47629],[-114.78941,49.47754],[-114.78986,49.47886],[-114.79149,49.48358],[-114.79155,49.48375],[-114.79157,49.48847],[-114.79143,49.48869],[-114.79139,49.48877],[-114.79136,49.48891],[-114.7914,49.48909],[-114.79156,49.4893],[-114.79184,49.48938],[-114.7919,49.4894],[-114.79194,49.48941],[-114.79273,49.49011],[-114.79407,49.49128],[-114.79494,49.49268],[-114.79519,49.49292],[-114.79691,49.49352],[-114.7972,49.4937],[-114.79728,49.49382]]}},
{"type":"Feature","properties":{"spotId":"F-grouse-drive-0073","kind":"roadside","km":4.84,"climbM":288,"name":"120 m N of Morrissey Creek","flags":["Route enters a Motor Vehicle Closed Area: Upper Flathead. Closed Year Round. Exemption: Snowmobiles exempt November 1 to May 31. Synopsis map 1-60/23."]},"geometry":{"type":"LineString","coordinates":[[-114.89761,49.43085],[-114.89654,49.43092],[-114.89652,49.43093],[-114.8959,49.43087],[-114.89534,49.43078],[-114.89344,49.43049],[-114.89319,49.43041],[-114.89246,49.43008],[-114.89211,49.42981],[-114.89119,49.42937],[-114.89044,49.4292],[-114.88911,49.42825],[-114.88863,49.42806],[-114.88795,49.42804],[-114.88552,49.42748],[-114.88478,49.42741],[-114.88387,49.4272],[-114.88318,49.42713],[-114.88243,49.42715],[-114.8823,49.42712],[-114.88203,49.42705],[-114.88001,49.42602],[-114.87816,49.42385],[-114.87696,49.4235],[-114.87615,49.42343],[-114.87489,49.42343],[-114.873,49.42359],[-114.87254,49.42368],[-114.8718,49.42405],[-114.87168,49.42407],[-114.8715,49.42405],[-114.87128,49.42378],[-114.87078,49.42355],[-114.87035,49.42324],[-114.87027,49.42307],[-114.86979,49.42276],[-114.86979,49.42272],[-114.8698,49.42251],[-114.86997,49.42202],[-114.86995,49.4218],[-114.86976,49.42144],[-114.86976,49.4212],[-114.86969,49.421],[-114.86906,49.42024],[-114.86844,49.41975],[-114.86776,49.41938],[-114.86722,49.41919],[-114.86529,49.41814],[-114.86522,49.418],[-114.86497,49.41753],[-114.86496,49.41742],[-114.86488,49.41699],[-114.86479,49.41677],[-114.86448,49.41663],[-114.86355,49.41642],[-114.86295,49.41621],[-114.86256,49.41601],[-114.86213,49.41562],[-114.86188,49.41546],[-114.86119,49.41514],[-114.86038,49.41494],[-114.85923,49.41475],[-114.85872,49.4147],[-114.85871,49.4147],[-114.85843,49.41474],[-114.85812,49.41486],[-114.85758,49.41517],[-114.85676,49.41642],[-114.85652,49.41666],[-114.8561,49.41691],[-114.85514,49.41731],[-114.8541,49.41768],[-114.85292,49.4181],[-114.85244,49.41843],[-114.85239,49.41846],[-114.85257,49.41868],[-114.85261,49.41894],[-114.8523,49.41971],[-114.85219,49.42012],[-114.852,49.42051],[-114.85167,49.42088],[-114.85053,49.42168],[-114.85039,49.42188],[-114.85045,49.42203]]}},
{"type":"Feature","properties":{"spotId":"F-grouse-drive-0076","kind":"roadside","km":3.01,"climbM":13,"name":"By Lodgepole Creek","flags":[]},"geometry":{"type":"LineString","coordinates":[[-114.85238,49.29833],[-114.85277,49.29842],[-114.85324,49.29868],[-114.85378,49.2991],[-114.85391,49.2992],[-114.85432,49.29946],[-114.85485,49.29986],[-114.85492,49.3],[-114.85506,49.30013],[-114.85528,49.30044],[-114.85546,49.30058],[-114.85582,49.30077],[-114.85609,49.30087],[-114.85615,49.30093],[-114.85648,49.30109],[-114.85672,49.30128],[-114.85687,49.30148],[-114.85717,49.30166],[-114.85838,49.30218],[-114.85862,49.30234],[-114.8592,49.30281],[-114.85936,49.30288],[-114.85978,49.303],[-114.86019,49.30307],[-114.86122,49.30337],[-114.86152,49.30343],[-114.8621,49.30348],[-114.86248,49.30361],[-114.86297,49.30371],[-114.86368,49.30378],[-114.86463,49.30379],[-114.86611,49.30399],[-114.86994,49.30399],[-114.8711,49.30391],[-114.87159,49.30388],[-114.87212,49.30388],[-114.87255,49.30393],[-114.87328,49.3041],[-114.87457,49.30467],[-114.87497,49.3048],[-114.87556,49.30493],[-114.87731,49.30521],[-114.88037,49.30553],[-114.88091,49.30563],[-114.88132,49.30574],[-114.88171,49.30579],[-114.8838,49.30596],[-114.88494,49.30615],[-114.8853,49.30617],[-114.88548,49.30618],[-114.88647,49.30615],[-114.88753,49.30608],[-114.88836,49.30598],[-114.88904,49.30598],[-114.88957,49.30589],[-114.8897,49.30587]]}},
{"type":"Feature","properties":{"spotId":"F-grouse-walk-0011","kind":"walk","km":2.47,"climbM":82,"name":"By McEvoy Creek","flags":[]},"geometry":{"type":"LineString","coordinates":[[-114.77338,49.45437],[-114.80232,49.44274]]}},
{"type":"Feature","properties":{"spotId":"F-grouse-walk-0011","kind":"roadside","km":5.12,"climbM":31,"name":"By McEvoy Creek","flags":[]},"geometry":{"type":"LineString","coordinates":[[-114.80232,49.44274],[-114.8,49.44301],[-114.79915,49.44311],[-114.7988,49.44316],[-114.7984,49.4432],[-114.79589,49.4435],[-114.7958,49.44351],[-114.79411,49.44467],[-114.79376,49.44473],[-114.79373,49.44474],[-114.79326,49.44494],[-114.79308,49.4451],[-114.79308,49.44514],[-114.79307,49.4452],[-114.79316,49.44529],[-114.7932,49.44534],[-114.79314,49.44551],[-114.79289,49.44573],[-114.79283,49.44578],[-114.79259,49.44586],[-114.79245,49.44584],[-114.79239,49.44584],[-114.79212,49.44571],[-114.79145,49.44562],[-114.79078,49.44553],[-114.7885,49.44533],[-114.7877,49.4454],[-114.78749,49.44552],[-114.78722,49.44568],[-114.78584,49.44587],[-114.78491,49.44599],[-114.78477,49.44595],[-114.78453,49.44587],[-114.7831,49.44611],[-114.78185,49.44632],[-114.78055,49.44654],[-114.78,49.44668],[-114.77981,49.44669],[-114.77952,49.4467],[-114.77944,49.44667],[-114.779,49.44639],[-114.77894,49.44618],[-114.77901,49.44539],[-114.77913,49.44531],[-114.77931,49.44529],[-114.7797,49.44513],[-114.77965,49.44494],[-114.77968,49.44473],[-114.77949,49.4445],[-114.7794,49.44439],[-114.77877,49.44438],[-114.77775,49.44426],[-114.77675,49.44398],[-114.77667,49.44393],[-114.77662,49.44372],[-114.77649,49.4435],[-114.77647,49.44338],[-114.77592,49.44298],[-114.77515,49.44265],[-114.77476,49.44252],[-114.77364,49.44198],[-114.77349,49.44191],[-114.7733,49.44185],[-114.77312,49.44184],[-114.77305,49.44183],[-114.77277,49.44162],[-114.77274,49.44155],[-114.77275,49.44092],[-114.77262,49.4407],[-114.77225,49.44051],[-114.77147,49.44033],[-114.77125,49.44024],[-114.77103,49.44015],[-114.77063,49.43981],[-114.77044,49.43948],[-114.77039,49.43925],[-114.77026,49.43909],[-114.77018,49.43887],[-114.76935,49.43786],[-114.769,49.43736],[-114.76876,49.43715],[-114.76862,49.43693],[-114.76854,49.43681],[-114.76834,49.43601],[-114.7683,49.43584],[-114.76825,49.4349],[-114.76805,49.43424],[-114.7669,49.43285],[-114.76684,49.43274],[-114.76678,49.43263],[-114.76629,49.43218],[-114.76581,49.43144],[-114.76508,49.4305],[-114.76489,49.4301],[-114.76482,49.43],[-114.76458,49.42964],[-114.76454,49.42953],[-114.76442,49.4292],[-114.7643,49.42897],[-114.7642,49.42879],[-114.76391,49.42858],[-114.76365,49.4277],[-114.76362,49.42745],[-114.76359,49.42717],[-114.76361,49.42695],[-114.76344,49.42615],[-114.76354,49.42588],[-114.76364,49.42491],[-114.76385,49.42407],[-114.76393,49.42355],[-114.76394,49.42329],[-114.76395,49.42313],[-114.76395,49.42307],[-114.76396,49.42302],[-114.76392,49.42288],[-114.76393,49.42283],[-114.76395,49.42276],[-114.76401,49.42243],[-114.76392,49.42223],[-114.76392,49.42218]]}},
{"type":"Feature","properties":{"spotId":"F-grouse-walk-0019","kind":"walk","km":3.64,"climbM":3,"name":"By McEvoy Creek","flags":["Route crosses private land (ParcelMap BC, updated 2026-09-26): get permission first or go around."]},"geometry":{"type":"LineString","coordinates":[[-114.77338,49.45437],[-114.76392,49.42218]]}},
{"type":"Feature","properties":{"spotId":"F-grouse-walk-0019","kind":"roadside","km":5.12,"climbM":27,"name":"By McEvoy Creek","flags":["Route crosses private land (ParcelMap BC, updated 2026-09-26): get permission first or go around."]},"geometry":{"type":"LineString","coordinates":[[-114.76392,49.42218],[-114.76388,49.42176],[-114.7637,49.42135],[-114.76384,49.42097],[-114.76386,49.42039],[-114.76381,49.42012],[-114.76372,49.41982],[-114.76361,49.41967],[-114.76349,49.41928],[-114.7632,49.4187],[-114.76308,49.41855],[-114.76304,49.41831],[-114.76296,49.4182],[-114.76288,49.4178],[-114.76279,49.41771],[-114.76263,49.4177],[-114.7625,49.41754],[-114.76253,49.41749],[-114.76278,49.41738],[-114.76282,49.41733],[-114.76287,49.41688],[-114.76324,49.41626],[-114.76328,49.41606],[-114.76317,49.41543],[-114.76286,49.4143],[-114.76259,49.41374],[-114.76238,49.41342],[-114.76176,49.41284],[-114.76159,49.4126],[-114.76159,49.41254],[-114.76165,49.4125],[-114.76175,49.4124],[-114.76172,49.41217],[-114.76176,49.41193],[-114.7617,49.41188],[-114.76163,49.41182],[-114.76157,49.41148],[-114.76104,49.41075],[-114.76101,49.4106],[-114.76054,49.4102],[-114.76016,49.41002],[-114.75973,49.4099],[-114.75956,49.40973],[-114.75912,49.4095],[-114.75882,49.40934],[-114.75828,49.40876],[-114.75782,49.40844],[-114.75667,49.40811],[-114.75608,49.40802],[-114.75599,49.40801],[-114.75597,49.408],[-114.75455,49.40768],[-114.75397,49.40742],[-114.7536,49.40732],[-114.75286,49.4069],[-114.75249,49.40682],[-114.75235,49.40675],[-114.75209,49.40648],[-114.75178,49.40634],[-114.75152,49.40609],[-114.75101,49.40602],[-114.75075,49.40595],[-114.75041,49.40586],[-114.7502,49.40559],[-114.75012,49.4054],[-114.75014,49.4052],[-114.75022,49.40504],[-114.7504,49.4049],[-114.75041,49.4048],[-114.75033,49.4047],[-114.75003,49.40453],[-114.74997,49.40447],[-114.74974,49.40425],[-114.74912,49.40398],[-114.74827,49.40353],[-114.74754,49.40321],[-114.74723,49.40304],[-114.74645,49.40243],[-114.7462,49.40233],[-114.74609,49.40236],[-114.74578,49.40227],[-114.74575,49.40222],[-114.74563,49.40204],[-114.74539,49.40184],[-114.7453,49.40181],[-114.7451,49.40154],[-114.74496,49.40126],[-114.74426,49.40106],[-114.74389,49.40068],[-114.74368,49.40061],[-114.74335,49.40026],[-114.74304,49.4],[-114.74298,49.39995],[-114.74288,49.39977],[-114.74228,49.39932],[-114.7419,49.39919],[-114.74105,49.39872],[-114.74039,49.39812],[-114.73993,49.3979],[-114.73943,49.39758],[-114.73897,49.39738],[-114.73886,49.39727],[-114.73875,49.39708],[-114.7386,49.39692],[-114.73866,49.39674],[-114.73868,49.39668],[-114.73887,49.39636],[-114.73864,49.396],[-114.73844,49.39585],[-114.73826,49.39551],[-114.7382,49.3953],[-114.73801,49.39504],[-114.73799,49.39487],[-114.7379,49.39477],[-114.73779,49.39449],[-114.73743,49.39406],[-114.7371,49.39382],[-114.73661,49.39364],[-114.73631,49.39333],[-114.73607,49.39316],[-114.73558,49.39292],[-114.7355,49.39279],[-114.73512,49.39242],[-114.73432,49.39198],[-114.73411,49.39175],[-114.73361,49.39142],[-114.73295,49.39091],[-114.73262,49.39073],[-114.73214,49.39057],[-114.7314,49.39017],[-114.73123,49.39011],[-114.73099,49.38972],[-114.73093,49.3895],[-114.73084,49.38938],[-114.73051,49.38869],[-114.73025,49.38833],[-114.72994,49.38738],[-114.73015,49.38656]]}},
{"type":"Feature","properties":{"spotId":"F-moose-backcountry-0026","kind":"backcountry","km":5.03,"climbM":800,"name":"1.5 km SE of Lodgepole Creek","flags":[]},"geometry":{"type":"LineString","coordinates":[[-114.89807,49.30458],[-114.94532,49.27161]]}},
{"type":"Feature","properties":{"spotId":"F-moose-backcountry-0033","kind":"backcountry","km":6.02,"climbM":224,"name":"150 m N of Flathead River","flags":[]},"geometry":{"type":"LineString","coordinates":[[-114.85239,49.41846],[-114.78485,49.38712]]}},
{"type":"Feature","properties":{"spotId":"F-moose-walk-0054","kind":"walk","km":4.95,"climbM":1072,"name":"2.9 km W of Windfall Mountain","flags":[]},"geometry":{"type":"LineString","coordinates":[[-114.89796,49.30458],[-114.89529,49.26006]]}}
]}
