{"type":"FeatureCollection","features":[
{"type":"Feature","properties":{"spotId":"F-deer-backcountry-0005","kind":"backcountry","km":6.96,"climbM":1010,"name":"250 m NW of Klookuh Creek","flags":["Route enters a Motor Vehicle for Hunting Closed Area: White River and Bull River. Closed September 1 to June 30. Synopsis map 2-56/23."]},"geometry":{"type":"LineString","coordinates":[[-115.1376,50.21414],[-115.18088,50.27024]]}},
{"type":"Feature","properties":{"spotId":"F-deer-backcountry-0007","kind":"backcountry","km":9.62,"climbM":1536,"name":"By Seeta Creek","flags":[]},"geometry":{"type":"LineString","coordinates":[[-115.33404,50.40893],[-115.22955,50.35407]]}},
{"type":"Feature","properties":{"spotId":"F-deer-backcountry-0009","kind":"backcountry","km":10.78,"climbM":1334,"name":"560 m N of Akanko Creek","flags":["Route enters a Motor Vehicle for Hunting Closed Area: White River and Bull River. Closed September 1 to June 30. Synopsis map 2-56/23."]},"geometry":{"type":"LineString","coordinates":[[-115.1376,50.21414],[-115.22816,50.29171]]}},
{"type":"Feature","properties":{"spotId":"F-grouse-walk-0017","kind":"walk","km":11.74,"climbM":1649,"name":"190 m E of Maiyuk Creek rec site","flags":[]},"geometry":{"type":"LineString","coordinates":[[-115.33404,50.40893],[-115.19898,50.34823]]}},
{"type":"Feature","properties":{"spotId":"F-grouse-walk-0017","kind":"roadside","km":4.34,"climbM":54,"name":"190 m E of Maiyuk Creek rec site","flags":[]},"geometry":{"type":"LineString","coordinates":[[-115.19898,50.34823],[-115.19911,50.34823],[-115.19921,50.34823],[-115.19932,50.34822],[-115.19943,50.34822],[-115.19957,50.34823],[-115.1997,50.34823],[-115.19981,50.34824],[-115.19994,50.34823],[-115.2,50.34823],[-115.20008,50.34822],[-115.2005,50.34823],[-115.20063,50.34822],[-115.2007,50.34822],[-115.2008,50.34822],[-115.20108,50.3482],[-115.20139,50.34819],[-115.20146,50.34818],[-115.20153,50.34818],[-115.20168,50.34817],[-115.20183,50.34813],[-115.20188,50.34812],[-115.20193,50.3481],[-115.20202,50.34812],[-115.20211,50.34809],[-115.20219,50.3481],[-115.20225,50.34813],[-115.20232,50.3481],[-115.20246,50.34809],[-115.20257,50.34808],[-115.20295,50.34809],[-115.20305,50.3481],[-115.20316,50.3481],[-115.20326,50.34809],[-115.20337,50.34808],[-115.20349,50.34805],[-115.20357,50.34804],[-115.20366,50.34801],[-115.20374,50.34798],[-115.20383,50.34793],[-115.2039,50.34787],[-115.20393,50.3478],[-115.20394,50.34754],[-115.20393,50.34747],[-115.20394,50.34738],[-115.20392,50.34728],[-115.20394,50.34681],[-115.20399,50.34673],[-115.20406,50.34667],[-115.20412,50.34661],[-115.2042,50.34659],[-115.2043,50.34656],[-115.20444,50.34655],[-115.2046,50.34653],[-115.20488,50.34654],[-115.20501,50.34656],[-115.20512,50.34658],[-115.20526,50.34662],[-115.20549,50.34668],[-115.20556,50.3467],[-115.20567,50.34674],[-115.2058,50.34677],[-115.20591,50.34679],[-115.20601,50.3468],[-115.20612,50.34681],[-115.20633,50.34681],[-115.20643,50.34679],[-115.20654,50.34679],[-115.20666,50.34678],[-115.2068,50.34676],[-115.20691,50.34674],[-115.20704,50.34671],[-115.20715,50.34668],[-115.20727,50.34663],[-115.20744,50.34654],[-115.20753,50.34647],[-115.20761,50.34641],[-115.20766,50.34633],[-115.20772,50.34625],[-115.20776,50.34615],[-115.20778,50.3461],[-115.20783,50.34591],[-115.20786,50.34585],[-115.20787,50.3458],[-115.2079,50.34574],[-115.20792,50.34568],[-115.20795,50.34563],[-115.208,50.34552],[-115.20807,50.34543],[-115.20814,50.34534],[-115.20822,50.34525],[-115.20832,50.34518],[-115.20841,50.34511],[-115.20846,50.34505],[-115.20852,50.34497],[-115.20858,50.3449],[-115.20864,50.34481],[-115.20873,50.34472],[-115.20883,50.34463],[-115.20893,50.34454],[-115.20902,50.34447],[-115.20911,50.34437],[-115.2092,50.3443],[-115.20931,50.34422],[-115.20944,50.34414],[-115.20958,50.34406],[-115.20971,50.34398],[-115.20983,50.34388],[-115.20993,50.3438],[-115.20999,50.34373],[-115.21009,50.34367],[-115.21016,50.3436],[-115.21025,50.34354],[-115.21037,50.34347],[-115.21045,50.34343],[-115.21054,50.34337],[-115.21061,50.34331],[-115.2107,50.34324],[-115.21081,50.34317],[-115.21091,50.3431],[-115.211,50.34305],[-115.21107,50.343],[-115.21119,50.34293],[-115.2113,50.34288],[-115.21139,50.34283],[-115.21147,50.34277],[-115.21157,50.3427],[-115.21166,50.34264],[-115.21172,50.34257],[-115.21179,50.34251],[-115.21189,50.34244],[-115.21194,50.3424],[-115.21197,50.34238],[-115.21205,50.34232],[-115.21214,50.34223],[-115.21221,50.34213],[-115.21223,50.34212],[-115.21232,50.34205],[-115.21239,50.34197],[-115.21245,50.34187],[-115.21254,50.34168],[-115.21259,50.34162],[-115.21262,50.34156],[-115.21266,50.34148],[-115.21269,50.34142],[-115.21281,50.34121],[-115.21284,50.34115],[-115.21287,50.34109],[-115.21296,50.34099],[-115.21305,50.34082],[-115.21307,50.34076],[-115.2131,50.34071],[-115.21313,50.34062],[-115.21315,50.34051],[-115.21319,50.34035],[-115.2132,50.34028],[-115.21323,50.34017],[-115.21326,50.34012],[-115.21328,50.34005],[-115.21334,50.33997],[-115.21341,50.33983],[-115.21348,50.33974],[-115.21357,50.33965],[-115.21378,50.33948],[-115.21398,50.33932],[-115.21407,50.33925],[-115.21418,50.33915],[-115.21427,50.33908],[-115.21437,50.339],[-115.21447,50.33891],[-115.21456,50.33882],[-115.21466,50.33874],[-115.21478,50.33865],[-115.21499,50.3385],[-115.21511,50.33842],[-115.21524,50.33833],[-115.21535,50.33824],[-115.21547,50.33818],[-115.21558,50.33813],[-115.2157,50.33806],[-115.2158,50.33799],[-115.21589,50.33793],[-115.21597,50.33786],[-115.21619,50.33772],[-115.2163,50.33764],[-115.21638,50.33757],[-115.21648,50.3375],[-115.21671,50.33731],[-115.2168,50.33724],[-115.21693,50.33716],[-115.21703,50.33708],[-115.21714,50.33701],[-115.21729,50.33694],[-115.21737,50.33692],[-115.21741,50.33691],[-115.21751,50.33687],[-115.21766,50.33683],[-115.21778,50.3368],[-115.21807,50.33676],[-115.21832,50.33675],[-115.21842,50.33673],[-115.21853,50.33673],[-115.21864,50.33671],[-115.21873,50.33668],[-115.21883,50.33665],[-115.21891,50.33662],[-115.21901,50.33659],[-115.2191,50.33656],[-115.21918,50.33653],[-115.21928,50.3365],[-115.21937,50.33647],[-115.21948,50.33645],[-115.21961,50.33643],[-115.21972,50.33638],[-115.21985,50.33633],[-115.21998,50.33627],[-115.22011,50.33619],[-115.22024,50.33613],[-115.22035,50.33607],[-115.22045,50.33602],[-115.22052,50.33599],[-115.22057,50.33597],[-115.22074,50.33586],[-115.22084,50.33581],[-115.22093,50.33575],[-115.22101,50.33568],[-115.22103,50.33566],[-115.22113,50.33555],[-115.22118,50.33548],[-115.22124,50.3354],[-115.2213,50.33526],[-115.22131,50.33523],[-115.22133,50.33517],[-115.22135,50.33508],[-115.22136,50.33502],[-115.22137,50.33479],[-115.22136,50.33474],[-115.22136,50.33467],[-115.22137,50.33458],[-115.22135,50.33448],[-115.22136,50.33428],[-115.22138,50.33422],[-115.22138,50.33417],[-115.2214,50.33412],[-115.22143,50.33405],[-115.22158,50.33379],[-115.22162,50.33369],[-115.22168,50.3336],[-115.2218,50.33335],[-115.22185,50.3333],[-115.22192,50.33319],[-115.22207,50.33301],[-115.22213,50.33296],[-115.22217,50.33288],[-115.2222,50.33282],[-115.22222,50.33275],[-115.22225,50.3327],[-115.22228,50.33257],[-115.2223,50.33252],[-115.22231,50.33249],[-115.22233,50.33247],[-115.22236,50.33236],[-115.22239,50.33228],[-115.22241,50.33221],[-115.2224,50.33212],[-115.2224,50.33197],[-115.22242,50.33191],[-115.2224,50.33171],[-115.2224,50.33166],[-115.22239,50.33156],[-115.2224,50.3314],[-115.22239,50.33133],[-115.22239,50.33126],[-115.22238,50.33117],[-115.22238,50.33107],[-115.22237,50.33098],[-115.22239,50.33042],[-115.22238,50.33035],[-115.22237,50.33026],[-115.22236,50.33017],[-115.22235,50.33009],[-115.22233,50.32993],[-115.22233,50.3299],[-115.22231,50.32984],[-115.2223,50.32974],[-115.22229,50.32966],[-115.22228,50.3296],[-115.22227,50.32953],[-115.22227,50.32944],[-115.22226,50.32935],[-115.22225,50.32929],[-115.22226,50.32917],[-115.22224,50.32911],[-115.22225,50.32906],[-115.22224,50.32897],[-115.22222,50.32889],[-115.22223,50.32883],[-115.22221,50.32876],[-115.2222,50.32868],[-115.22219,50.32861],[-115.22218,50.32851],[-115.22218,50.32845],[-115.22217,50.32839],[-115.22218,50.32811],[-115.22217,50.328],[-115.22216,50.3279],[-115.22213,50.32774],[-115.22211,50.32768],[-115.2221,50.32761],[-115.22209,50.32755],[-115.22205,50.32744],[-115.22204,50.32739],[-115.22203,50.32733],[-115.222,50.32727],[-115.22196,50.32718],[-115.22189,50.32691],[-115.22187,50.32683],[-115.22184,50.32676],[-115.22183,50.32668],[-115.22182,50.32659],[-115.22181,50.32649],[-115.2218,50.32641],[-115.22178,50.32636],[-115.22177,50.32629],[-115.22178,50.32614],[-115.22175,50.32605],[-115.22174,50.32596],[-115.22172,50.32583],[-115.22169,50.32577],[-115.2217,50.32572],[-115.22167,50.32566],[-115.22166,50.32559],[-115.22164,50.32545],[-115.22164,50.32539],[-115.2216,50.32522],[-115.2216,50.32517],[-115.22158,50.32506],[-115.22155,50.32498],[-115.22148,50.32471],[-115.22143,50.32455],[-115.22135,50.32438],[-115.22131,50.32431],[-115.2213,50.32424],[-115.22128,50.32415],[-115.22125,50.3241],[-115.22124,50.32404],[-115.22121,50.32394],[-115.22116,50.32385],[-115.22114,50.32376],[-115.22112,50.32371],[-115.22109,50.32361],[-115.22106,50.32352],[-115.22105,50.32346],[-115.22102,50.32341],[-115.22097,50.32328],[-115.22096,50.32323],[-115.22093,50.32316],[-115.2209,50.32306],[-115.22088,50.32301],[-115.22082,50.32291],[-115.22076,50.32281],[-115.22071,50.3227],[-115.22069,50.32264],[-115.22068,50.32257],[-115.22066,50.32253],[-115.22065,50.3225],[-115.22064,50.32244],[-115.22061,50.32238],[-115.22059,50.32228],[-115.22058,50.32221],[-115.22055,50.32216],[-115.22053,50.32205],[-115.22051,50.32199],[-115.2205,50.32193],[-115.22049,50.32186],[-115.22044,50.32174],[-115.22039,50.32164],[-115.22038,50.32158],[-115.22035,50.32152],[-115.22028,50.32142],[-115.22024,50.32132],[-115.2202,50.32125],[-115.22018,50.32119],[-115.22015,50.32111],[-115.22013,50.32104],[-115.2201,50.321],[-115.22009,50.32097],[-115.22005,50.32087],[-115.22,50.32079],[-115.21996,50.3207],[-115.21991,50.32062],[-115.21979,50.32035],[-115.21976,50.32025],[-115.21973,50.32016],[-115.2197,50.3201],[-115.21969,50.32005],[-115.21957,50.31978],[-115.21956,50.31972],[-115.21952,50.31962],[-115.2195,50.31954],[-115.21944,50.31946],[-115.21942,50.3194],[-115.21938,50.31932],[-115.21935,50.31923],[-115.21931,50.31915],[-115.21929,50.31906],[-115.21928,50.319],[-115.21924,50.3189],[-115.21919,50.31872],[-115.21917,50.31862],[-115.21913,50.31853],[-115.2191,50.31844]]}},
{"type":"Feature","properties":{"spotId":"F-moose-backcountry-0012","kind":"backcountry","km":10.17,"climbM":1575,"name":"750 m W of Seeta Creek","flags":[]},"geometry":{"type":"LineString","coordinates":[[-115.33499,50.40824],[-115.23509,50.3428]]}},
{"type":"Feature","properties":{"spotId":"F-moose-backcountry-0015","kind":"backcountry","km":11.01,"climbM":2408,"name":"1.2 km NE of Kotsats Creek","flags":["Route enters a Motor Vehicle for Hunting Closed Area: White River and Bull River. Closed September 1 to June 30. Synopsis map 2-56/23."]},"geometry":{"type":"LineString","coordinates":[[-115.1376,50.21414],[-115.16588,50.31144]]}},
{"type":"Feature","properties":{"spotId":"F-moose-backcountry-0017","kind":"backcountry","km":5.14,"climbM":192,"name":"By Forsyth Creek","flags":[]},"geometry":{"type":"LineString","coordinates":[[-114.95484,50.25439],[-115.02231,50.27079]]}},
{"type":"Feature","properties":{"spotId":"F-moose-backcountry-0018","kind":"backcountry","km":6.75,"climbM":766,"name":"By Klookuh Creek","flags":[]},"geometry":{"type":"LineString","coordinates":[[-115.1376,50.21414],[-115.1915,50.26396]]}}
]}
