{"type":"FeatureCollection","features":[
{"type":"Feature","properties":{"spotId":"F-camp-camp-0086","kind":"walk","km":0.05,"climbM":0,"name":"By Quinn (Queen) Creek","flags":[]},"geometry":{"type":"LineString","coordinates":[[-115.19396,49.8035],[-115.19427,49.80307]]}},
{"type":"Feature","properties":{"spotId":"F-deer-atv-0118","kind":"ride","km":2.68,"climbM":254,"name":"1.0 km NE of Quinn (Queen) Creek","flags":[]},"geometry":{"type":"LineString","coordinates":[[-115.17631,49.78554],[-115.17591,49.7854],[-115.17582,49.78537],[-115.17571,49.78534],[-115.17564,49.78532],[-115.17535,49.78521],[-115.17516,49.78513],[-115.17504,49.78508],[-115.17483,49.785],[-115.17456,49.78497],[-115.17448,49.78496],[-115.17442,49.78496],[-115.17437,49.78497],[-115.17434,49.78498],[-115.17419,49.78506],[-115.17408,49.78521],[-115.17395,49.78538],[-115.17387,49.78546],[-115.17372,49.78565],[-115.17361,49.78577],[-115.1735,49.78587],[-115.17332,49.78601],[-115.17316,49.78612],[-115.17301,49.78622],[-115.17285,49.78631],[-115.1727,49.78638],[-115.17256,49.78644],[-115.17246,49.78647],[-115.17237,49.7865],[-115.17232,49.78651],[-115.17228,49.78651],[-115.17223,49.78651],[-115.17214,49.78649],[-115.17201,49.78644],[-115.17187,49.78637],[-115.17178,49.78631],[-115.17161,49.78617],[-115.17141,49.78601],[-115.17134,49.78596],[-115.17118,49.78584],[-115.1711,49.78578],[-115.17106,49.78574],[-115.17089,49.78562],[-115.17072,49.78553],[-115.17059,49.78546],[-115.17047,49.7854],[-115.17035,49.78535],[-115.17017,49.78527],[-115.16993,49.78516],[-115.1698,49.7851],[-115.16954,49.78499],[-115.1694,49.7849],[-115.16919,49.78476],[-115.16906,49.78459],[-115.16901,49.78453],[-115.16886,49.7844],[-115.16867,49.7842],[-115.16856,49.78409],[-115.16845,49.78401],[-115.16839,49.78396],[-115.16833,49.78389],[-115.1682,49.78375],[-115.16804,49.78359],[-115.16792,49.78351],[-115.16783,49.78345],[-115.16776,49.78341],[-115.16769,49.78338],[-115.16767,49.78337],[-115.16761,49.78335],[-115.16753,49.78336],[-115.16747,49.78337],[-115.16739,49.7834],[-115.16729,49.78344],[-115.16714,49.78352],[-115.167,49.78359],[-115.16691,49.78362],[-115.16672,49.78369],[-115.16646,49.78372],[-115.16633,49.78374],[-115.16627,49.78375],[-115.16624,49.78377],[-115.16622,49.7838],[-115.1662,49.78389],[-115.16619,49.78398],[-115.16619,49.78419],[-115.16617,49.78436],[-115.16613,49.78446],[-115.16607,49.78476],[-115.16604,49.78493],[-115.16605,49.78507],[-115.16616,49.78527],[-115.16627,49.78543],[-115.16631,49.78558],[-115.16636,49.7857],[-115.16639,49.78578],[-115.16647,49.78589],[-115.16653,49.786],[-115.16658,49.78609],[-115.16667,49.78628],[-115.16672,49.78638],[-115.16677,49.78649],[-115.16678,49.78654],[-115.16678,49.78664],[-115.16675,49.7868],[-115.16673,49.78706],[-115.16669,49.78726],[-115.16666,49.78762],[-115.16666,49.78769],[-115.16669,49.78779],[-115.16673,49.78789],[-115.16676,49.78793],[-115.16682,49.78798],[-115.16685,49.78803],[-115.16687,49.78807],[-115.16687,49.78811],[-115.16686,49.78815],[-115.16685,49.78818],[-115.16678,49.78822],[-115.16665,49.78839],[-115.16651,49.7886],[-115.16647,49.78869],[-115.16645,49.78882],[-115.16645,49.78897],[-115.16646,49.78909],[-115.16649,49.78918],[-115.16652,49.78927],[-115.16655,49.78935],[-115.16655,49.78939],[-115.16657,49.78941],[-115.16659,49.78942],[-115.16676,49.78945],[-115.16691,49.78948],[-115.16695,49.78948],[-115.16702,49.78944],[-115.16708,49.78936],[-115.16717,49.78924],[-115.1672,49.7892],[-115.16749,49.78936],[-115.16773,49.78964],[-115.16776,49.78967],[-115.16797,49.78992],[-115.16797,49.78995],[-115.168,49.79012],[-115.16826,49.79028],[-115.16877,49.7906],[-115.16888,49.79067],[-115.16908,49.79081],[-115.16918,49.79093],[-115.16932,49.79107],[-115.16949,49.7913],[-115.16951,49.79148],[-115.16955,49.79156],[-115.17013,49.7914],[-115.17066,49.79136],[-115.17083,49.79165],[-115.17099,49.79198],[-115.17102,49.79219],[-115.17099,49.79226],[-115.17088,49.79237],[-115.17079,49.79243],[-115.1708,49.79257],[-115.1708,49.79265],[-115.17081,49.79276],[-115.1708,49.79307],[-115.17075,49.79326],[-115.17069,49.79346],[-115.17046,49.7937],[-115.17018,49.79402],[-115.17023,49.7942],[-115.17025,49.79432],[-115.17025,49.79457],[-115.17018,49.79474],[-115.17004,49.79484],[-115.16972,49.79501],[-115.16947,49.79516],[-115.16932,49.79532],[-115.16925,49.79552],[-115.16919,49.79568],[-115.1693,49.79579],[-115.16928,49.79592],[-115.16926,49.79597]]}},
{"type":"Feature","properties":{"spotId":"F-deer-atv-0118","kind":"walk","km":0.02,"climbM":4,"name":"1.0 km NE of Quinn (Queen) Creek","flags":[]},"geometry":{"type":"LineString","coordinates":[[-115.16926,49.79597],[-115.16948,49.79601]]}},
{"type":"Feature","properties":{"spotId":"F-deer-atv-0119","kind":"ride","km":5.63,"climbM":371,"name":"1.1 km E of Bull River","flags":[]},"geometry":{"type":"LineString","coordinates":[[-115.15773,49.75981],[-115.15765,49.7599],[-115.15759,49.76],[-115.15756,49.76006],[-115.15753,49.76013],[-115.15749,49.76018],[-115.15745,49.7602],[-115.15737,49.7603],[-115.15731,49.76036],[-115.15729,49.76039],[-115.15728,49.76044],[-115.15729,49.76048],[-115.15729,49.76054],[-115.1573,49.76059],[-115.15731,49.76062],[-115.1573,49.76069],[-115.15729,49.76074],[-115.15726,49.7608],[-115.15721,49.76086],[-115.15716,49.76091],[-115.15711,49.76095],[-115.15706,49.76098],[-115.15702,49.76102],[-115.15697,49.76106],[-115.15692,49.76111],[-115.15685,49.76115],[-115.15674,49.76123],[-115.15665,49.76129],[-115.15654,49.7614],[-115.15648,49.76145],[-115.15644,49.7615],[-115.15642,49.76152],[-115.15641,49.76155],[-115.15641,49.76158],[-115.15642,49.76164],[-115.15646,49.76171],[-115.15646,49.76174],[-115.1565,49.76179],[-115.15654,49.76183],[-115.15659,49.76186],[-115.15665,49.76189],[-115.15668,49.76194],[-115.15671,49.76201],[-115.15675,49.76205],[-115.15679,49.7621],[-115.15683,49.76214],[-115.15685,49.76218],[-115.15688,49.76222],[-115.15691,49.76226],[-115.15695,49.7623],[-115.15695,49.76233],[-115.15694,49.76235],[-115.15693,49.76237],[-115.15692,49.7624],[-115.15691,49.76242],[-115.15689,49.76244],[-115.15687,49.76247],[-115.15684,49.76249],[-115.15682,49.7625],[-115.1568,49.76251],[-115.15675,49.76253],[-115.15672,49.76254],[-115.15668,49.76255],[-115.15665,49.76255],[-115.15661,49.76255],[-115.15658,49.76255],[-115.15654,49.76254],[-115.15652,49.76252],[-115.15649,49.7625],[-115.15643,49.76244],[-115.15633,49.76237],[-115.1563,49.76234],[-115.15628,49.76232],[-115.15626,49.7623],[-115.15625,49.76227],[-115.15623,49.76224],[-115.1562,49.76216],[-115.1562,49.76212],[-115.15618,49.76203],[-115.15616,49.76195],[-115.15614,49.76189],[-115.15612,49.76184],[-115.15608,49.76175],[-115.15605,49.76168],[-115.15602,49.7616],[-115.156,49.76153],[-115.15598,49.76147],[-115.15595,49.76136],[-115.15594,49.76133],[-115.15594,49.7613],[-115.15594,49.76127],[-115.15595,49.76124],[-115.15597,49.76121],[-115.15599,49.76117],[-115.15603,49.76111],[-115.15605,49.76107],[-115.15614,49.76096],[-115.15619,49.76091],[-115.15621,49.76088],[-115.15623,49.76086],[-115.15623,49.76084],[-115.15621,49.76082],[-115.15618,49.76079],[-115.15615,49.76078],[-115.15613,49.76077],[-115.1561,49.76076],[-115.15607,49.76075],[-115.15603,49.76075],[-115.15599,49.76075],[-115.15593,49.76076],[-115.15588,49.76077],[-115.15585,49.76078],[-115.15582,49.7608],[-115.1558,49.76082],[-115.15575,49.76088],[-115.15573,49.7609],[-115.1557,49.76092],[-115.15562,49.76098],[-115.15558,49.76101],[-115.15555,49.76105],[-115.15552,49.76109],[-115.1555,49.76113],[-115.1555,49.76116],[-115.1555,49.76118],[-115.1555,49.76121],[-115.15553,49.7613],[-115.15554,49.76133],[-115.15555,49.76144],[-115.15555,49.76148],[-115.15555,49.76152],[-115.15555,49.76156],[-115.15553,49.76167],[-115.15552,49.76172],[-115.15552,49.76177],[-115.15553,49.76185],[-115.15554,49.76196],[-115.15555,49.7621],[-115.15558,49.76226],[-115.15559,49.76237],[-115.15559,49.76243],[-115.15559,49.76258],[-115.15563,49.76286],[-115.15563,49.7629],[-115.15563,49.76303],[-115.15564,49.76315],[-115.15565,49.7632],[-115.15564,49.76325],[-115.15561,49.76349],[-115.1556,49.76364],[-115.15559,49.76367],[-115.15557,49.76375],[-115.15556,49.76379],[-115.15556,49.76383],[-115.15556,49.76392],[-115.15556,49.76397],[-115.15553,49.76413],[-115.15551,49.76428],[-115.15548,49.76439],[-115.15547,49.76443],[-115.15547,49.76447],[-115.15547,49.76456],[-115.15546,49.7646],[-115.15544,49.76474],[-115.15541,49.76487],[-115.15541,49.76495],[-115.15541,49.765],[-115.15541,49.76503],[-115.15542,49.76506],[-115.15543,49.76509],[-115.15545,49.76512],[-115.15548,49.76516],[-115.15551,49.76521],[-115.15553,49.76524],[-115.15557,49.76528],[-115.15565,49.76535],[-115.15579,49.76547],[-115.15589,49.76556],[-115.15595,49.76562],[-115.15605,49.76572],[-115.15609,49.76576],[-115.15621,49.76587],[-115.15636,49.76599],[-115.15647,49.76607],[-115.15651,49.76611],[-115.15654,49.76614],[-115.15661,49.76623],[-115.15663,49.76625],[-115.15664,49.76627],[-115.15668,49.7663],[-115.15677,49.76636],[-115.15679,49.76637],[-115.1568,49.76639],[-115.15682,49.76641],[-115.15684,49.76643],[-115.15687,49.76652],[-115.15689,49.76655],[-115.15696,49.76665],[-115.15698,49.76669],[-115.15701,49.76677],[-115.15703,49.76682],[-115.15703,49.76685],[-115.15703,49.76687],[-115.15703,49.76689],[-115.15702,49.76692],[-115.157,49.76698],[-115.15697,49.76704],[-115.15695,49.76706],[-115.15692,49.76709],[-115.15684,49.76718],[-115.15671,49.7673],[-115.15663,49.76739],[-115.15659,49.76745],[-115.15655,49.7675],[-115.15651,49.76755],[-115.15647,49.76762],[-115.15643,49.76769],[-115.1564,49.76774],[-115.15635,49.76779],[-115.15628,49.76786],[-115.15625,49.76789],[-115.15614,49.76796],[-115.15605,49.76804],[-115.15601,49.76808],[-115.15597,49.76812],[-115.15595,49.76816],[-115.15589,49.76827],[-115.15583,49.76837],[-115.1558,49.76843],[-115.15579,49.76846],[-115.15578,49.76849],[-115.15578,49.76853],[-115.15578,49.76856],[-115.15578,49.76862],[-115.15578,49.76867],[-115.15579,49.76871],[-115.15582,49.7688],[-115.15583,49.76884],[-115.15583,49.76888],[-115.15582,49.76895],[-115.15582,49.76899],[-115.15582,49.76903],[-115.15584,49.76907],[-115.15586,49.76911],[-115.15588,49.76914],[-115.15591,49.76917],[-115.15598,49.76924],[-115.15601,49.76927],[-115.15605,49.76934],[-115.15609,49.7694],[-115.15612,49.76945],[-115.15613,49.76951],[-115.15616,49.76961],[-115.15618,49.76971],[-115.15619,49.76975],[-115.1562,49.76978],[-115.15623,49.76985],[-115.15624,49.76988],[-115.15624,49.7699],[-115.15624,49.76992],[-115.15622,49.76999],[-115.15621,49.77002],[-115.15621,49.77006],[-115.15621,49.77015],[-115.1562,49.77019],[-115.15619,49.77026],[-115.15616,49.77032],[-115.15615,49.77035],[-115.15611,49.7704],[-115.1561,49.77042],[-115.1561,49.77045],[-115.15609,49.77047],[-115.1561,49.77049],[-115.1561,49.77051],[-115.15612,49.77055],[-115.15615,49.77058],[-115.15619,49.77061],[-115.15623,49.77064],[-115.15627,49.77066],[-115.1563,49.77067],[-115.15634,49.77068],[-115.15642,49.7707],[-115.15649,49.77072],[-115.15653,49.77074],[-115.15656,49.77075],[-115.15658,49.77077],[-115.1566,49.7708],[-115.15662,49.77084],[-115.15663,49.77087],[-115.15663,49.7709],[-115.15663,49.77096],[-115.15663,49.77101],[-115.15663,49.77105],[-115.15661,49.77108],[-115.15656,49.77118],[-115.1565,49.7713],[-115.15646,49.77137],[-115.15644,49.77139],[-115.15642,49.77141],[-115.1564,49.77143],[-115.15633,49.77149],[-115.15631,49.77151],[-115.1563,49.77152],[-115.15628,49.77156],[-115.15627,49.77159],[-115.15627,49.77161],[-115.15627,49.77164],[-115.15628,49.77167],[-115.15631,49.77172],[-115.15634,49.77175],[-115.15637,49.77179],[-115.1564,49.77182],[-115.15647,49.77187],[-115.15657,49.77193],[-115.1566,49.77196],[-115.15663,49.77198],[-115.15665,49.77201],[-115.15667,49.77204],[-115.15669,49.77212],[-115.15675,49.77222],[-115.15676,49.7723],[-115.15677,49.77232],[-115.15677,49.77235],[-115.15677,49.77238],[-115.15677,49.7724],[-115.15676,49.77245],[-115.15674,49.7725],[-115.15669,49.77256],[-115.15664,49.77264],[-115.1566,49.77268],[-115.15657,49.77271],[-115.15654,49.77274],[-115.15645,49.77281],[-115.15636,49.77286],[-115.15627,49.77291],[-115.15617,49.77296],[-115.15607,49.77301],[-115.15589,49.77308],[-115.15571,49.77314],[-115.15563,49.77317],[-115.15546,49.77321],[-115.15533,49.77324],[-115.1552,49.77329],[-115.15507,49.77334],[-115.15497,49.77338],[-115.15487,49.77343],[-115.15481,49.77347],[-115.1547,49.77354],[-115.15465,49.77356],[-115.15462,49.77357],[-115.1546,49.77358],[-115.15447,49.77362],[-115.15443,49.77363],[-115.15441,49.77365],[-115.15438,49.77366],[-115.15434,49.7737],[-115.1543,49.77375],[-115.15428,49.77377],[-115.15426,49.7738],[-115.15422,49.77388],[-115.15419,49.77391],[-115.15416,49.77395],[-115.15408,49.77401],[-115.15405,49.77403],[-115.15403,49.77406],[-115.15401,49.77409],[-115.15401,49.77411],[-115.154,49.77413],[-115.15399,49.77421],[-115.15398,49.77424],[-115.15394,49.77437],[-115.15393,49.77441],[-115.15391,49.77452],[-115.1539,49.77456],[-115.15389,49.7746],[-115.15385,49.77469],[-115.15384,49.77472],[-115.15383,49.77476],[-115.15382,49.77479],[-115.15382,49.77483],[-115.15383,49.77487],[-115.15383,49.7749],[-115.15384,49.77493],[-115.15386,49.77495],[-115.15387,49.77497],[-115.15392,49.77502],[-115.15394,49.77505],[-115.15394,49.77509],[-115.15395,49.77517],[-115.15397,49.77527],[-115.15398,49.77531],[-115.15399,49.77534],[-115.15402,49.7754],[-115.15403,49.77542],[-115.15404,49.77546],[-115.15404,49.77548],[-115.15402,49.77552],[-115.154,49.77555],[-115.15396,49.77558],[-115.15393,49.7756],[-115.15389,49.77561],[-115.1538,49.77564],[-115.15372,49.77567],[-115.15369,49.77568],[-115.15365,49.77569],[-115.15361,49.7757],[-115.15356,49.77569],[-115.15346,49.77565],[-115.15337,49.77563],[-115.15334,49.77562],[-115.15332,49.7756],[-115.15329,49.77556],[-115.15321,49.77549],[-115.15319,49.77546],[-115.15315,49.77541],[-115.15311,49.77534],[-115.15307,49.77528],[-115.15303,49.77517],[-115.15301,49.77511],[-115.15292,49.7749],[-115.15286,49.77477],[-115.15281,49.77469],[-115.1528,49.77465],[-115.15279,49.77461],[-115.15279,49.77456],[-115.1528,49.77454],[-115.15282,49.77448],[-115.15282,49.77446],[-115.15281,49.77442],[-115.15279,49.77435],[-115.15278,49.77431],[-115.15278,49.77429],[-115.1528,49.77422],[-115.15279,49.7742],[-115.15278,49.77417],[-115.15274,49.77414],[-115.15269,49.77412],[-115.15264,49.77409],[-115.15261,49.77407],[-115.15259,49.77406],[-115.15258,49.77403],[-115.15258,49.77401],[-115.15258,49.77393],[-115.15258,49.7739],[-115.15258,49.77382],[-115.1526,49.77376],[-115.1526,49.77373],[-115.15262,49.7737],[-115.15269,49.77359],[-115.15273,49.7735],[-115.15275,49.77346],[-115.15279,49.77342],[-115.15288,49.77331],[-115.1529,49.77328],[-115.15294,49.77323],[-115.15297,49.77318],[-115.153,49.77313],[-115.15302,49.77308],[-115.15304,49.77303],[-115.15306,49.77298],[-115.15307,49.77293],[-115.15309,49.77283],[-115.1531,49.77279],[-115.15311,49.77276],[-115.15316,49.77267],[-115.15317,49.77263],[-115.15318,49.77259],[-115.15317,49.77251],[-115.15317,49.77248],[-115.15318,49.77244],[-115.15321,49.77237],[-115.15322,49.77234],[-115.15322,49.77231],[-115.15323,49.77222],[-115.15323,49.7722],[-115.15325,49.77217],[-115.15327,49.77214],[-115.15333,49.77208],[-115.15335,49.77206],[-115.15337,49.77203],[-115.15343,49.77195],[-115.15345,49.77192],[-115.15348,49.7719],[-115.15351,49.77188],[-115.15355,49.77185],[-115.15384,49.7717],[-115.15394,49.77164],[-115.15403,49.77158],[-115.15411,49.77152],[-115.15419,49.77145],[-115.15424,49.7714],[-115.15432,49.7713],[-115.1544,49.77121],[-115.15443,49.77116],[-115.15447,49.77108],[-115.15449,49.771],[-115.15449,49.77095],[-115.15448,49.77084],[-115.15448,49.77072],[-115.15447,49.77061],[-115.15447,49.77056],[-115.15448,49.77053],[-115.15451,49.77047],[-115.15451,49.77044],[-115.1545,49.77041],[-115.15447,49.77036],[-115.15444,49.77032],[-115.15437,49.77022],[-115.15426,49.77008],[-115.15412,49.76992],[-115.15401,49.76978],[-115.15393,49.7697],[-115.1539,49.76966],[-115.15389,49.76962],[-115.15389,49.76956],[-115.15389,49.76951],[-115.1539,49.76947],[-115.15391,49.76941],[-115.15397,49.7693],[-115.15401,49.7692],[-115.15403,49.76915],[-115.15403,49.76909],[-115.15402,49.76905],[-115.15399,49.76899],[-115.15394,49.7689],[-115.15388,49.76884],[-115.15383,49.76879],[-115.15375,49.76873],[-115.15362,49.76865],[-115.15355,49.76861],[-115.1535,49.76857],[-115.15347,49.76854],[-115.15344,49.76851],[-115.15341,49.76846],[-115.15337,49.76839],[-115.15335,49.76832],[-115.15335,49.76828],[-115.15335,49.76818],[-115.15333,49.76798],[-115.15333,49.76788],[-115.15332,49.76783],[-115.1533,49.76772],[-115.15328,49.76768],[-115.15326,49.76764],[-115.15321,49.76758],[-115.15311,49.76749],[-115.15298,49.76738],[-115.15287,49.76729],[-115.15283,49.76726],[-115.15276,49.76716],[-115.15271,49.76711],[-115.15266,49.76705],[-115.15264,49.76701],[-115.1526,49.76693],[-115.15257,49.76688],[-115.15256,49.76685],[-115.15255,49.76682],[-115.15256,49.76677],[-115.15257,49.76674],[-115.15261,49.76668],[-115.15262,49.76665],[-115.15264,49.7666],[-115.15265,49.76652],[-115.15265,49.7664],[-115.15266,49.76631],[-115.15266,49.76619],[-115.15266,49.76613],[-115.15264,49.76604],[-115.15262,49.76598],[-115.15258,49.76592],[-115.15255,49.76589],[-115.15251,49.76585],[-115.15245,49.7658],[-115.15237,49.76571],[-115.15231,49.76564],[-115.15228,49.76561],[-115.15224,49.76554],[-115.15222,49.76547],[-115.1522,49.7654],[-115.15217,49.76536],[-115.15214,49.76532],[-115.15209,49.76526],[-115.15207,49.76523],[-115.15204,49.76515],[-115.152,49.76509],[-115.15194,49.76493],[-115.15189,49.76484],[-115.15186,49.76478],[-115.15186,49.76475],[-115.15188,49.76467],[-115.15187,49.7646],[-115.15186,49.76455],[-115.15186,49.7645],[-115.15186,49.76445],[-115.15188,49.76441],[-115.15193,49.7643],[-115.15196,49.76424],[-115.15197,49.76419],[-115.15198,49.76414],[-115.15198,49.76409],[-115.15195,49.76401],[-115.15193,49.7639],[-115.15189,49.76384],[-115.15188,49.76381],[-115.15188,49.76378],[-115.1519,49.76374],[-115.15192,49.7637],[-115.15193,49.76367],[-115.15196,49.76356],[-115.15198,49.76351],[-115.152,49.76345],[-115.152,49.76341],[-115.15201,49.76335],[-115.15199,49.76327],[-115.15196,49.7632],[-115.15196,49.76317],[-115.15197,49.7631],[-115.15197,49.76304],[-115.15196,49.763],[-115.15194,49.76298],[-115.15189,49.76294],[-115.15182,49.76288],[-115.1518,49.76284],[-115.15175,49.76275],[-115.15169,49.76264],[-115.15167,49.7626],[-115.15157,49.76249],[-115.15155,49.76245],[-115.15153,49.7624],[-115.15149,49.76227],[-115.15145,49.76216],[-115.1514,49.76208],[-115.15138,49.76205],[-115.1513,49.76196],[-115.15122,49.76187],[-115.15118,49.76183],[-115.15112,49.76177],[-115.15108,49.76174],[-115.15104,49.76173],[-115.15099,49.76171],[-115.15094,49.7617],[-115.15081,49.76168],[-115.15076,49.76167],[-115.15067,49.76164],[-115.15058,49.76161],[-115.15052,49.76157],[-115.15047,49.76154],[-115.15039,49.76148],[-115.15035,49.76144],[-115.15031,49.7614],[-115.15027,49.76132],[-115.15025,49.76129],[-115.15018,49.76124],[-115.15016,49.76122],[-115.15014,49.76118],[-115.15012,49.76111],[-115.15009,49.76101],[-115.15009,49.76096],[-115.15009,49.76085],[-115.15008,49.76076],[-115.15008,49.76072],[-115.1501,49.76067],[-115.15011,49.76064],[-115.15014,49.76062],[-115.15023,49.76059],[-115.15026,49.76057],[-115.15029,49.76053],[-115.15031,49.76051],[-115.15036,49.76047],[-115.15042,49.76042],[-115.15044,49.7604],[-115.15048,49.76038],[-115.1505,49.76035],[-115.15053,49.76033],[-115.15056,49.76032],[-115.15058,49.7603],[-115.15059,49.76028],[-115.15058,49.76025],[-115.15055,49.7602],[-115.15051,49.76015],[-115.15047,49.76011],[-115.15041,49.76005],[-115.15038,49.76003],[-115.15036,49.76002],[-115.1503,49.76002],[-115.15026,49.76002],[-115.15023,49.75999],[-115.15021,49.75997],[-115.15021,49.75996],[-115.15021,49.75992],[-115.15023,49.75988],[-115.15024,49.75987],[-115.15025,49.75985],[-115.15033,49.75977],[-115.15043,49.75969],[-115.15045,49.75967],[-115.15046,49.75965],[-115.15047,49.75963],[-115.15047,49.75961],[-115.15048,49.75952],[-115.15049,49.75947],[-115.1505,49.7594],[-115.15052,49.75934],[-115.15054,49.7593],[-115.15056,49.75926],[-115.15057,49.75924],[-115.15063,49.75918],[-115.15064,49.75917],[-115.15065,49.75912],[-115.15064,49.75907],[-115.15064,49.75905],[-115.15065,49.75902],[-115.15067,49.75895],[-115.15064,49.75889],[-115.15053,49.75875],[-115.15048,49.75867],[-115.15045,49.75861],[-115.15044,49.75859],[-115.15043,49.75853],[-115.1504,49.75846],[-115.15037,49.7584],[-115.15031,49.75832],[-115.15028,49.75827],[-115.15027,49.75822],[-115.15028,49.75815],[-115.15028,49.75812],[-115.15026,49.75808],[-115.15026,49.75805],[-115.15026,49.75797],[-115.15024,49.75791],[-115.1502,49.75785],[-115.15011,49.75775],[-115.15003,49.75764],[-115.14998,49.75759],[-115.14993,49.75755],[-115.14989,49.75751],[-115.14987,49.75746],[-115.14986,49.75743],[-115.14985,49.75737],[-115.14985,49.75734],[-115.14988,49.75729],[-115.14988,49.75725],[-115.14986,49.75721],[-115.14982,49.75718],[-115.14976,49.75717],[-115.14967,49.75713],[-115.14965,49.75709],[-115.14963,49.75706],[-115.14963,49.757],[-115.14964,49.75695],[-115.14964,49.7569],[-115.14962,49.75683],[-115.1496,49.75677],[-115.14956,49.75668],[-115.14953,49.75663],[-115.14946,49.75655],[-115.14932,49.75644],[-115.14925,49.75639],[-115.14921,49.75634],[-115.14915,49.75628],[-115.1491,49.7562],[-115.14911,49.75612],[-115.14911,49.75606],[-115.1491,49.75597],[-115.14908,49.75589],[-115.14905,49.75582],[-115.149,49.75575],[-115.14891,49.75566],[-115.14883,49.75559],[-115.1488,49.75556],[-115.1488,49.75551],[-115.14883,49.75547],[-115.14883,49.75538],[-115.14877,49.75526],[-115.14871,49.75513],[-115.14869,49.75509],[-115.14869,49.75506],[-115.14869,49.755],[-115.14868,49.75498],[-115.14868,49.75495],[-115.14865,49.75489],[-115.14864,49.75484],[-115.14863,49.75481],[-115.14863,49.75478],[-115.14863,49.75475],[-115.14863,49.75472],[-115.14865,49.75463],[-115.14865,49.75461],[-115.14863,49.75456],[-115.14863,49.75453],[-115.14862,49.75451],[-115.14862,49.75448],[-115.14864,49.75441],[-115.14864,49.75437],[-115.14866,49.7543],[-115.14867,49.75427],[-115.14867,49.75422],[-115.14867,49.7542],[-115.14868,49.75418],[-115.14871,49.75413],[-115.14872,49.75409],[-115.14872,49.75407],[-115.1487,49.754],[-115.1487,49.75397],[-115.14871,49.75394],[-115.14873,49.75387],[-115.14873,49.75384],[-115.14873,49.75381],[-115.14872,49.75377],[-115.14871,49.75371],[-115.1487,49.75367],[-115.14869,49.75361],[-115.14868,49.75358],[-115.14867,49.75356],[-115.14866,49.75354],[-115.14864,49.75352],[-115.1486,49.75348],[-115.14858,49.75346],[-115.14857,49.75344],[-115.14854,49.75339],[-115.14853,49.75337],[-115.1485,49.75335],[-115.14844,49.75329],[-115.14838,49.75323],[-115.14835,49.75319],[-115.14833,49.75316],[-115.14831,49.75311],[-115.1483,49.75309],[-115.14828,49.75306],[-115.14815,49.75302],[-115.14809,49.75302],[-115.14795,49.75277],[-115.14761,49.75281],[-115.14741,49.75291],[-115.14721,49.753],[-115.14705,49.75304],[-115.14686,49.75308],[-115.14671,49.75306],[-115.14663,49.75304],[-115.14647,49.75305],[-115.14591,49.75308],[-115.14536,49.7532],[-115.14517,49.75327],[-115.14493,49.75337],[-115.14467,49.75345],[-115.14452,49.75354],[-115.14434,49.7537],[-115.14416,49.75389],[-115.1441,49.75395]]}},
{"type":"Feature","properties":{"spotId":"F-deer-atv-0119","kind":"walk","km":0.05,"climbM":0,"name":"1.1 km E of Bull River","flags":[]},"geometry":{"type":"LineString","coordinates":[[-115.1441,49.75395],[-115.14422,49.75442]]}},
{"type":"Feature","properties":{"spotId":"F-deer-drive-0036","kind":"walk","km":0.08,"climbM":18,"name":"330 m N of Norboe Creek rec site","flags":[]},"geometry":{"type":"LineString","coordinates":[[-115.13944,49.8924],[-115.13835,49.89265]]}},
{"type":"Feature","properties":{"spotId":"F-deer-drive-0081","kind":"walk","km":0.04,"climbM":0,"name":"By Bull River","flags":[]},"geometry":{"type":"LineString","coordinates":[[-115.14256,49.8762],[-115.14309,49.87621]]}},
{"type":"Feature","properties":{"spotId":"F-deer-drive-0140","kind":"walk","km":0.26,"climbM":155,"name":"460 m E of Bull River","flags":[]},"geometry":{"type":"LineString","coordinates":[[-115.15613,49.75151],[-115.15294,49.75253]]}},
{"type":"Feature","properties":{"spotId":"F-deer-drive-0142","kind":"walk","km":0.15,"climbM":36,"name":"260 m SE of Bull River","flags":[]},"geometry":{"type":"LineString","coordinates":[[-115.14733,49.84053],[-115.14532,49.84022]]}},
{"type":"Feature","properties":{"spotId":"F-deer-drive-0160","kind":"walk","km":0.26,"climbM":30,"name":"1.6 km S of Profile Mountain","flags":[]},"geometry":{"type":"LineString","coordinates":[[-115.0072,49.99377],[-115.01061,49.99307]]}},
{"type":"Feature","properties":{"spotId":"F-deer-walk-0023","kind":"walk","km":4.15,"climbM":86,"name":"480 m E of Bull River","flags":[]},"geometry":{"type":"LineString","coordinates":[[-115.14141,49.89629],[-115.14144,49.89634],[-115.14176,49.89702],[-115.14187,49.89728],[-115.14209,49.89777],[-115.14213,49.89784],[-115.14217,49.89791],[-115.14221,49.89798],[-115.14225,49.89807],[-115.14229,49.89814],[-115.14231,49.89819],[-115.14232,49.89826],[-115.14236,49.89832],[-115.14237,49.89838],[-115.14239,49.89845],[-115.1424,49.8985],[-115.14241,49.89855],[-115.14242,49.8986],[-115.14242,49.89864],[-115.14242,49.89867],[-115.14242,49.89872],[-115.14242,49.89878],[-115.14243,49.89885],[-115.14242,49.89893],[-115.14243,49.899],[-115.14243,49.8991],[-115.14244,49.89919],[-115.14244,49.89927],[-115.14245,49.89936],[-115.14244,49.89947],[-115.14249,49.89999],[-115.14249,49.9],[-115.14251,49.90007],[-115.14253,49.90121],[-115.14256,49.90232],[-115.14261,49.90344],[-115.14263,49.90407],[-115.14265,49.90458],[-115.14266,49.90464],[-115.14266,49.90471],[-115.14267,49.90477],[-115.14267,49.90485],[-115.14267,49.90492],[-115.14268,49.90497],[-115.14268,49.90505],[-115.14269,49.90508],[-115.14269,49.90512],[-115.1427,49.90516],[-115.1427,49.90522],[-115.14271,49.90528],[-115.14272,49.90534],[-115.14272,49.90541],[-115.14273,49.90548],[-115.14274,49.90554],[-115.14275,49.90559],[-115.14276,49.90565],[-115.14278,49.90571],[-115.1428,49.90577],[-115.14283,49.90584],[-115.14285,49.9059],[-115.14288,49.90596],[-115.14292,49.906],[-115.14297,49.90607],[-115.14304,49.90617],[-115.14306,49.90621],[-115.1431,49.90627],[-115.14318,49.90638],[-115.14326,49.9065],[-115.14334,49.90663],[-115.14342,49.90675],[-115.14348,49.90686],[-115.14355,49.90696],[-115.1436,49.90706],[-115.14365,49.90716],[-115.14371,49.90725],[-115.14376,49.90735],[-115.14381,49.90743],[-115.14386,49.90752],[-115.1439,49.90757],[-115.14394,49.90765],[-115.14398,49.90771],[-115.14403,49.90778],[-115.14406,49.90786],[-115.14408,49.90792],[-115.14411,49.90798],[-115.14412,49.90804],[-115.14412,49.90808],[-115.14412,49.90813],[-115.1441,49.90817],[-115.14409,49.90822],[-115.14407,49.90829],[-115.14405,49.90835],[-115.14404,49.90841],[-115.14403,49.90852],[-115.14403,49.90862],[-115.14404,49.90871],[-115.14404,49.9088],[-115.14403,49.90891],[-115.14401,49.90906],[-115.14398,49.90922],[-115.14393,49.90936],[-115.1439,49.9095],[-115.14388,49.90959],[-115.14386,49.90965],[-115.14386,49.90972],[-115.14386,49.90982],[-115.14384,49.90992],[-115.14382,49.91002],[-115.1438,49.91011],[-115.14379,49.91019],[-115.14377,49.91027],[-115.14375,49.91036],[-115.14375,49.91045],[-115.14373,49.91055],[-115.14374,49.91066],[-115.14374,49.91075],[-115.14375,49.91084],[-115.14376,49.9109],[-115.14377,49.91095],[-115.14378,49.91103],[-115.14379,49.91112],[-115.1438,49.91121],[-115.14381,49.9113],[-115.14382,49.9114],[-115.14384,49.91149],[-115.14385,49.91158],[-115.14387,49.91167],[-115.14389,49.9118],[-115.14398,49.91216],[-115.1442,49.91331],[-115.14435,49.91414],[-115.14446,49.91476],[-115.14449,49.91486],[-115.14473,49.91601],[-115.1448,49.91638],[-115.1449,49.91702],[-115.14511,49.91791],[-115.14516,49.91823],[-115.14527,49.91876],[-115.14545,49.91981],[-115.14555,49.92052],[-115.14578,49.92155],[-115.14589,49.92215],[-115.14603,49.92294],[-115.14608,49.92313],[-115.14621,49.92374],[-115.14628,49.92413],[-115.14629,49.92414],[-115.1465,49.92529],[-115.14654,49.92555],[-115.14664,49.92597],[-115.14672,49.92679],[-115.14681,49.92762],[-115.14683,49.92788],[-115.14686,49.92827],[-115.14691,49.92863],[-115.14691,49.92868],[-115.14694,49.92907],[-115.14695,49.9291],[-115.14695,49.92914],[-115.14695,49.92917],[-115.14696,49.9292],[-115.14696,49.92924],[-115.14695,49.92933],[-115.14695,49.92942],[-115.14695,49.92951],[-115.14694,49.92961],[-115.14695,49.9297],[-115.14695,49.92978],[-115.14695,49.92983],[-115.14695,49.92989],[-115.14694,49.92995],[-115.14694,49.92998],[-115.14693,49.93004],[-115.14691,49.93011],[-115.14689,49.93019],[-115.14688,49.93028],[-115.14684,49.93036],[-115.14684,49.93041],[-115.14683,49.93048],[-115.14649,49.93043],[-115.14613,49.93043],[-115.14578,49.93043],[-115.14532,49.93042],[-115.14509,49.93047],[-115.14466,49.93059],[-115.14437,49.93067],[-115.14479,49.92963]]}},
{"type":"Feature","properties":{"spotId":"F-deer-walk-0035","kind":"walk","km":0.43,"climbM":10,"name":"140 m E of Bull River","flags":[]},"geometry":{"type":"LineString","coordinates":[[-115.14373,49.89001],[-115.13994,49.89077],[-115.1397,49.89086],[-115.13959,49.89093],[-115.13958,49.89099],[-115.13955,49.8911],[-115.13956,49.89121],[-115.13958,49.89129],[-115.1396,49.89137],[-115.13959,49.89146],[-115.1395,49.89145],[-115.13938,49.89143],[-115.1393,49.89142],[-115.13921,49.8914],[-115.13912,49.89138],[-115.13904,49.89137],[-115.13892,49.89134]]}},
{"type":"Feature","properties":{"spotId":"F-deer-walk-0078","kind":"walk","km":0.79,"climbM":148,"name":"580 m W of Bull River","flags":[]},"geometry":{"type":"LineString","coordinates":[[-115.14277,49.87245],[-115.15377,49.87273]]}},
{"type":"Feature","properties":{"spotId":"F-deer-walk-0158","kind":"walk","km":0.35,"climbM":25,"name":"520 m E of Bull River","flags":[]},"geometry":{"type":"LineString","coordinates":[[-115.14832,49.83757],[-115.14361,49.83696]]}},
{"type":"Feature","properties":{"spotId":"F-duck-walk-0107","kind":"walk","km":3.78,"climbM":35,"name":"Unnamed wetland 260 m NW of Bull River","flags":[]},"geometry":{"type":"LineString","coordinates":[[-115.14141,49.89629],[-115.15573,49.92898]]}},
{"type":"Feature","properties":{"spotId":"F-elk-backcountry-0001","kind":"backcountry","km":7.82,"climbM":150,"name":"480 m E of Bull River","flags":[]},"geometry":{"type":"LineString","coordinates":[[-115.14141,49.89629],[-115.14144,49.89634],[-115.14176,49.89702],[-115.14187,49.89728],[-115.14209,49.89777],[-115.14213,49.89784],[-115.14217,49.89791],[-115.14221,49.89798],[-115.14225,49.89807],[-115.14229,49.89814],[-115.14231,49.89819],[-115.14232,49.89826],[-115.14236,49.89832],[-115.14237,49.89838],[-115.14239,49.89845],[-115.1424,49.8985],[-115.14241,49.89855],[-115.14242,49.8986],[-115.14242,49.89864],[-115.14242,49.89867],[-115.14242,49.89872],[-115.14242,49.89878],[-115.14243,49.89885],[-115.14242,49.89893],[-115.14243,49.899],[-115.14243,49.8991],[-115.14244,49.89919],[-115.14244,49.89927],[-115.14245,49.89936],[-115.14244,49.89947],[-115.14249,49.89999],[-115.14249,49.9],[-115.14251,49.90007],[-115.14253,49.90121],[-115.14256,49.90232],[-115.14261,49.90344],[-115.14263,49.90407],[-115.14265,49.90458],[-115.14266,49.90464],[-115.14266,49.90471],[-115.14267,49.90477],[-115.14267,49.90485],[-115.14267,49.90492],[-115.14268,49.90497],[-115.14268,49.90505],[-115.14269,49.90508],[-115.14269,49.90512],[-115.1427,49.90516],[-115.1427,49.90522],[-115.14271,49.90528],[-115.14272,49.90534],[-115.14272,49.90541],[-115.14273,49.90548],[-115.14274,49.90554],[-115.14275,49.90559],[-115.14276,49.90565],[-115.14278,49.90571],[-115.1428,49.90577],[-115.14283,49.90584],[-115.14285,49.9059],[-115.14288,49.90596],[-115.14292,49.906],[-115.14297,49.90607],[-115.14304,49.90617],[-115.14306,49.90621],[-115.1431,49.90627],[-115.14318,49.90638],[-115.14326,49.9065],[-115.14334,49.90663],[-115.14342,49.90675],[-115.14348,49.90686],[-115.14355,49.90696],[-115.1436,49.90706],[-115.14365,49.90716],[-115.14371,49.90725],[-115.14376,49.90735],[-115.14381,49.90743],[-115.14386,49.90752],[-115.1439,49.90757],[-115.14394,49.90765],[-115.14398,49.90771],[-115.14403,49.90778],[-115.14406,49.90786],[-115.14408,49.90792],[-115.14411,49.90798],[-115.14412,49.90804],[-115.14412,49.90808],[-115.14412,49.90813],[-115.1441,49.90817],[-115.14409,49.90822],[-115.14407,49.90829],[-115.14405,49.90835],[-115.14404,49.90841],[-115.14403,49.90852],[-115.14403,49.90862],[-115.14404,49.90871],[-115.14404,49.9088],[-115.14403,49.90891],[-115.14401,49.90906],[-115.14398,49.90922],[-115.14393,49.90936],[-115.1439,49.9095],[-115.14388,49.90959],[-115.14386,49.90965],[-115.14386,49.90972],[-115.14386,49.90982],[-115.14384,49.90992],[-115.14382,49.91002],[-115.1438,49.91011],[-115.14379,49.91019],[-115.14377,49.91027],[-115.14375,49.91036],[-115.14375,49.91045],[-115.14373,49.91055],[-115.14374,49.91066],[-115.14374,49.91075],[-115.14375,49.91084],[-115.14376,49.9109],[-115.14377,49.91095],[-115.14378,49.91103],[-115.14379,49.91112],[-115.1438,49.91121],[-115.14381,49.9113],[-115.14382,49.9114],[-115.14384,49.91149],[-115.14385,49.91158],[-115.14387,49.91167],[-115.14389,49.9118],[-115.14398,49.91216],[-115.1442,49.91331],[-115.14435,49.91414],[-115.14446,49.91476],[-115.14449,49.91486],[-115.14473,49.91601],[-115.1448,49.91638],[-115.1449,49.91702],[-115.14511,49.91791],[-115.14516,49.91823],[-115.14527,49.91876],[-115.14545,49.91981],[-115.14555,49.92052],[-115.14578,49.92155],[-115.14589,49.92215],[-115.14603,49.92294],[-115.14608,49.92313],[-115.14621,49.92374],[-115.14628,49.92413],[-115.14629,49.92414],[-115.1465,49.92529],[-115.14654,49.92555],[-115.14664,49.92597],[-115.14672,49.92679],[-115.14681,49.92762],[-115.14683,49.92788],[-115.14686,49.92827],[-115.14691,49.92863],[-115.14691,49.92868],[-115.14694,49.92907],[-115.14695,49.9291],[-115.14695,49.92914],[-115.14695,49.92917],[-115.14696,49.9292],[-115.14696,49.92924],[-115.14695,49.92933],[-115.14695,49.92942],[-115.14695,49.92951],[-115.14694,49.92961],[-115.14695,49.9297],[-115.14695,49.92978],[-115.14695,49.92983],[-115.14695,49.92989],[-115.14694,49.92995],[-115.14694,49.92998],[-115.14693,49.93004],[-115.14691,49.93011],[-115.14689,49.93019],[-115.14688,49.93028],[-115.14684,49.93036],[-115.14684,49.93041],[-115.14683,49.93048],[-115.14681,49.93054],[-115.14679,49.93059],[-115.14678,49.93066],[-115.14673,49.93089],[-115.14647,49.93203],[-115.14639,49.9324],[-115.14608,49.93354],[-115.14606,49.93368],[-115.1458,49.93482],[-115.14573,49.93513],[-115.14548,49.93627],[-115.14531,49.93697],[-115.14506,49.938],[-115.14494,49.93855],[-115.14493,49.9386],[-115.14491,49.93866],[-115.14489,49.93872],[-115.14488,49.93878],[-115.14486,49.93887],[-115.14486,49.93897],[-115.14484,49.93905],[-115.14484,49.93912],[-115.14485,49.93918],[-115.14485,49.93921],[-115.14485,49.93924],[-115.14486,49.93928],[-115.14486,49.93932],[-115.14487,49.93938],[-115.14488,49.93943],[-115.14489,49.93949],[-115.14492,49.93953],[-115.14494,49.93958],[-115.14498,49.93962],[-115.14502,49.93967],[-115.14508,49.93972],[-115.14512,49.93977],[-115.14517,49.9398],[-115.14521,49.93984],[-115.14525,49.93987],[-115.14529,49.93991],[-115.14535,49.93995],[-115.14542,49.94001],[-115.14547,49.94006],[-115.14562,49.9402],[-115.14577,49.94033],[-115.14591,49.94044],[-115.14605,49.94055],[-115.14619,49.94065],[-115.1463,49.94077],[-115.14641,49.94087],[-115.14655,49.94098],[-115.14668,49.9411],[-115.14683,49.94122],[-115.14691,49.94127],[-115.147,49.94133],[-115.14706,49.94138],[-115.14713,49.94143],[-115.14717,49.94147],[-115.14724,49.94153],[-115.14729,49.94159],[-115.14737,49.94167],[-115.14744,49.94176],[-115.14751,49.94183],[-115.14753,49.9419],[-115.14757,49.94197],[-115.1476,49.94204],[-115.14762,49.94211],[-115.14765,49.94219],[-115.14766,49.94225],[-115.14768,49.94233],[-115.14771,49.94239],[-115.14771,49.94245],[-115.1477,49.94249],[-115.1477,49.94255],[-115.14767,49.94262],[-115.14765,49.9427],[-115.14764,49.94279],[-115.1476,49.94288],[-115.14759,49.94295],[-115.14757,49.94301],[-115.14757,49.94306],[-115.14756,49.94309],[-115.14747,49.94342],[-115.14737,49.94387],[-115.14734,49.94397],[-115.14706,49.94504],[-115.14695,49.94548],[-115.14661,49.94662],[-115.14659,49.94669],[-115.14624,49.94783],[-115.14592,49.94895],[-115.14559,49.95008],[-115.14554,49.95024],[-115.14548,49.95047],[-115.14523,49.95137],[-115.14496,49.95234],[-115.14459,49.95343],[-115.14443,49.95394],[-115.14424,49.95453],[-115.14419,49.95477],[-115.14418,49.95481],[-115.14418,49.95487],[-115.14416,49.95494],[-115.14413,49.95502],[-115.1441,49.95511],[-115.14407,49.95519],[-115.14404,49.95525],[-115.14401,49.95531],[-115.14397,49.95537],[-115.14391,49.95549],[-115.14384,49.95561],[-115.14378,49.95575],[-115.1437,49.95587],[-115.14363,49.95601],[-115.14299,49.95714],[-115.14258,49.95784],[-115.14215,49.95853],[-115.1421,49.95863],[-115.14206,49.9587],[-115.142,49.95879],[-115.14197,49.95888],[-115.14191,49.95897],[-115.14188,49.95906],[-115.14185,49.95914],[-115.14183,49.95922],[-115.14182,49.9593],[-115.14181,49.95938],[-115.14181,49.95949],[-115.14181,49.95958],[-115.14182,49.95967],[-115.14183,49.95975],[-115.14184,49.95983],[-115.14185,49.9599],[-115.14185,49.95999],[-115.14186,49.96009],[-115.14187,49.96018],[-115.14186,49.96028],[-115.14187,49.96038],[-115.14188,49.96044],[-115.14188,49.96046],[-115.1419,49.9605],[-115.14191,49.96057],[-115.14193,49.96064],[-115.14196,49.96072],[-115.14201,49.96084],[-115.14206,49.96094],[-115.1421,49.96102],[-115.14215,49.9611],[-115.14219,49.96118],[-115.14223,49.96128],[-115.14227,49.96138],[-115.14232,49.96148],[-115.14236,49.96158],[-115.14239,49.96166],[-115.14232,49.96178],[-115.14226,49.96188],[-115.14223,49.96191],[-115.14213,49.96197],[-115.14204,49.96201],[-115.14195,49.96203],[-115.1419,49.96204],[-115.14185,49.96204],[-115.14179,49.96202],[-115.13894,49.96405]]}},
{"type":"Feature","properties":{"spotId":"F-elk-drive-0037","kind":"walk","km":0.19,"climbM":43,"name":"350 m NE of Bull River","flags":[]},"geometry":{"type":"LineString","coordinates":[[-115.15795,49.76121],[-115.15574,49.76207]]}},
{"type":"Feature","properties":{"spotId":"F-elk-drive-0039","kind":"walk","km":0.18,"climbM":89,"name":"210 m E of Bull River","flags":[]},"geometry":{"type":"LineString","coordinates":[[-115.16091,49.78284],[-115.15837,49.78296]]}},
{"type":"Feature","properties":{"spotId":"F-elk-walk-0008","kind":"walk","km":1.57,"climbM":53,"name":"490 m E of Bull River","flags":[]},"geometry":{"type":"LineString","coordinates":[[-115.14141,49.89629],[-115.14144,49.89634],[-115.14176,49.89702],[-115.14187,49.89728],[-115.14209,49.89777],[-115.14213,49.89784],[-115.14217,49.89791],[-115.14221,49.89798],[-115.14225,49.89807],[-115.14229,49.89814],[-115.14231,49.89819],[-115.14232,49.89826],[-115.14236,49.89832],[-115.14237,49.89838],[-115.14239,49.89845],[-115.1424,49.8985],[-115.14241,49.89855],[-115.14242,49.8986],[-115.14242,49.89864],[-115.14242,49.89867],[-115.14242,49.89872],[-115.14242,49.89878],[-115.14243,49.89885],[-115.14242,49.89893],[-115.14243,49.899],[-115.14243,49.8991],[-115.14244,49.89919],[-115.14244,49.89927],[-115.14245,49.89936],[-115.14244,49.89947],[-115.14249,49.89999],[-115.14249,49.9],[-115.14251,49.90007],[-115.14253,49.90121],[-115.14256,49.90232],[-115.14261,49.90344],[-115.14263,49.90407],[-115.14265,49.90458],[-115.14266,49.90464],[-115.14266,49.90471],[-115.14267,49.90477],[-115.14267,49.90485],[-115.14267,49.90492],[-115.14268,49.90497],[-115.14268,49.90505],[-115.14166,49.91029]]}},
{"type":"Feature","properties":{"spotId":"F-elk-walk-0045","kind":"walk","km":0.44,"climbM":122,"name":"150 m N of Burns Creek","flags":[]},"geometry":{"type":"LineString","coordinates":[[-115.16049,49.77929],[-115.1547,49.7806]]}},
{"type":"Feature","properties":{"spotId":"F-grouse-drive-0027","kind":"roadside","km":4.36,"climbM":137,"name":"By Bull River","flags":[]},"geometry":{"type":"LineString","coordinates":[[-115.16635,49.77536],[-115.16635,49.77538],[-115.16637,49.77542],[-115.16637,49.77548],[-115.1664,49.77551],[-115.16641,49.77552],[-115.16645,49.77563],[-115.16645,49.77568],[-115.1665,49.7758],[-115.16655,49.77592],[-115.16659,49.77598],[-115.16666,49.776],[-115.16674,49.77602],[-115.16684,49.77604],[-115.16693,49.77607],[-115.16704,49.77609],[-115.16714,49.77611],[-115.16725,49.77611],[-115.16732,49.77611],[-115.16739,49.77611],[-115.16747,49.77612],[-115.16756,49.77611],[-115.16764,49.77611],[-115.16771,49.7761],[-115.16779,49.77608],[-115.16789,49.77608],[-115.16799,49.77605],[-115.1681,49.77605],[-115.16821,49.77604],[-115.16832,49.77604],[-115.16842,49.77604],[-115.16855,49.77604],[-115.16867,49.77606],[-115.16874,49.77607],[-115.16882,49.77607],[-115.16891,49.77608],[-115.16899,49.7761],[-115.16906,49.77609],[-115.16913,49.77609],[-115.16921,49.77609],[-115.16929,49.77609],[-115.16936,49.77608],[-115.16945,49.77608],[-115.16957,49.77609],[-115.16966,49.77609],[-115.16968,49.77608],[-115.16977,49.77607],[-115.16986,49.77606],[-115.16994,49.77603],[-115.17001,49.77601],[-115.17012,49.77601],[-115.17014,49.77601],[-115.17021,49.77601],[-115.1703,49.77601],[-115.17037,49.77601],[-115.17045,49.776],[-115.17052,49.77598],[-115.1706,49.77597],[-115.17067,49.77596],[-115.17074,49.77596],[-115.17081,49.77595],[-115.1709,49.77596],[-115.17101,49.77598],[-115.17108,49.776],[-115.17116,49.77602],[-115.17125,49.77603],[-115.17135,49.77608],[-115.17142,49.7761],[-115.17149,49.77613],[-115.17158,49.77615],[-115.17167,49.77617],[-115.17173,49.77621],[-115.17175,49.77626],[-115.17176,49.77631],[-115.17177,49.77637],[-115.17178,49.77645],[-115.17182,49.77654],[-115.17189,49.77662],[-115.17194,49.77671],[-115.17202,49.77679],[-115.17208,49.77686],[-115.17219,49.77692],[-115.1723,49.77698],[-115.1724,49.77705],[-115.17246,49.77709],[-115.1726,49.77716],[-115.17271,49.77723],[-115.1728,49.77729],[-115.1729,49.77733],[-115.173,49.77737],[-115.17312,49.77742],[-115.17323,49.77747],[-115.17332,49.7775],[-115.17345,49.77753],[-115.17357,49.77757],[-115.17368,49.77761],[-115.17379,49.77766],[-115.17391,49.77769],[-115.17402,49.77774],[-115.17415,49.77779],[-115.17424,49.77783],[-115.17434,49.77788],[-115.17443,49.77794],[-115.17451,49.77798],[-115.17453,49.77803],[-115.17455,49.77809],[-115.17458,49.77814],[-115.17459,49.77821],[-115.17463,49.77827],[-115.17465,49.77834],[-115.17469,49.77842],[-115.17473,49.77851],[-115.17477,49.77859],[-115.17481,49.77865],[-115.17485,49.77872],[-115.17489,49.77881],[-115.17491,49.77885],[-115.17494,49.77891],[-115.17495,49.77895],[-115.17496,49.779],[-115.17502,49.77909],[-115.17504,49.77916],[-115.17508,49.77924],[-115.17509,49.77929],[-115.17513,49.77938],[-115.17514,49.77942],[-115.17517,49.77949],[-115.17521,49.77957],[-115.17523,49.77964],[-115.17526,49.7797],[-115.17528,49.77978],[-115.17529,49.77985],[-115.17529,49.77986],[-115.1753,49.77993],[-115.17531,49.78001],[-115.17535,49.78008],[-115.17538,49.78013],[-115.17539,49.7802],[-115.17541,49.78028],[-115.17544,49.78035],[-115.17548,49.78043],[-115.17553,49.7805],[-115.17558,49.78056],[-115.17565,49.78063],[-115.17572,49.78069],[-115.17577,49.78077],[-115.17581,49.78083],[-115.17584,49.78089],[-115.17588,49.78094],[-115.1759,49.78098],[-115.17597,49.78106],[-115.17605,49.78115],[-115.17609,49.78119],[-115.17613,49.78124],[-115.17617,49.78128],[-115.1762,49.78133],[-115.17623,49.78141],[-115.1763,49.78148],[-115.17639,49.78156],[-115.17646,49.78163],[-115.1765,49.78167],[-115.17653,49.78173],[-115.17657,49.78177],[-115.17659,49.78183],[-115.17662,49.78187],[-115.17667,49.78196],[-115.17672,49.78205],[-115.17675,49.7821],[-115.17677,49.78218],[-115.17683,49.78225],[-115.17687,49.78231],[-115.17688,49.78237],[-115.1769,49.78244],[-115.17694,49.7825],[-115.17695,49.78256],[-115.17701,49.78264],[-115.17705,49.78272],[-115.1771,49.7828],[-115.17715,49.78287],[-115.17718,49.78292],[-115.1772,49.78297],[-115.17721,49.78303],[-115.17725,49.78311],[-115.17729,49.78318],[-115.17732,49.78324],[-115.17736,49.78332],[-115.1774,49.7834],[-115.17742,49.78344],[-115.17745,49.7835],[-115.17747,49.78355],[-115.17751,49.78361],[-115.17754,49.78366],[-115.17756,49.78371],[-115.17759,49.78375],[-115.1776,49.78381],[-115.17763,49.78388],[-115.17765,49.78394],[-115.17766,49.784],[-115.17766,49.78407],[-115.17769,49.78412],[-115.1777,49.78418],[-115.17772,49.78425],[-115.17772,49.7843],[-115.17773,49.78436],[-115.17775,49.78443],[-115.17777,49.78449],[-115.17778,49.78455],[-115.17779,49.78461],[-115.17782,49.78465],[-115.17783,49.78471],[-115.17784,49.78476],[-115.17788,49.78484],[-115.1779,49.78489],[-115.17791,49.78494],[-115.17792,49.785],[-115.17796,49.78508],[-115.17795,49.78515],[-115.17797,49.78523],[-115.17796,49.78531],[-115.17797,49.78539],[-115.17797,49.78544],[-115.17798,49.78549],[-115.17798,49.78554],[-115.17801,49.78564],[-115.17802,49.78571],[-115.17803,49.7858],[-115.17804,49.78584],[-115.17805,49.78589],[-115.17806,49.78594],[-115.17806,49.78599],[-115.17806,49.78604],[-115.17807,49.78609],[-115.17807,49.78614],[-115.17807,49.78619],[-115.17807,49.78624],[-115.17808,49.78629],[-115.17808,49.78633],[-115.17806,49.78638],[-115.17806,49.78642],[-115.17804,49.78647],[-115.17803,49.78652],[-115.178,49.78661],[-115.17798,49.78665],[-115.17794,49.78674],[-115.17789,49.78682],[-115.17788,49.78687],[-115.17787,49.78691],[-115.17786,49.78696],[-115.17786,49.78704],[-115.17783,49.78713],[-115.17782,49.78718],[-115.17782,49.78724],[-115.17782,49.78728],[-115.17782,49.78733],[-115.17782,49.78739],[-115.17781,49.78745],[-115.17782,49.78751],[-115.17782,49.78757],[-115.17783,49.78762],[-115.17785,49.78769],[-115.17784,49.78774],[-115.17786,49.78779],[-115.17785,49.78785],[-115.17785,49.78789],[-115.17786,49.78794],[-115.17787,49.78803],[-115.17787,49.78807],[-115.17788,49.78813],[-115.17791,49.78822],[-115.17795,49.78831],[-115.17801,49.78837],[-115.17811,49.78845],[-115.17823,49.78851],[-115.17834,49.78858],[-115.17843,49.78865],[-115.17854,49.78872],[-115.17862,49.7888],[-115.17873,49.78887],[-115.17885,49.78893],[-115.17898,49.78898],[-115.17909,49.78903],[-115.17917,49.78909],[-115.17925,49.78914],[-115.1793,49.7892],[-115.17937,49.78927],[-115.17942,49.78934],[-115.17948,49.7894],[-115.17953,49.78947],[-115.17957,49.78955],[-115.17962,49.78962],[-115.17967,49.78971],[-115.1797,49.78976],[-115.17973,49.7898],[-115.17977,49.78985],[-115.1798,49.78993],[-115.17984,49.79],[-115.1799,49.79007],[-115.17994,49.79012],[-115.17996,49.79017],[-115.17997,49.79022],[-115.17999,49.79027],[-115.18004,49.79036],[-115.1801,49.79044],[-115.18019,49.7905],[-115.18027,49.79057],[-115.18032,49.79065],[-115.18039,49.79073],[-115.18045,49.7908],[-115.18052,49.79087],[-115.18056,49.79093],[-115.18063,49.79099],[-115.18069,49.79108],[-115.1807,49.79112],[-115.18072,49.79118],[-115.18075,49.79126],[-115.18079,49.79134],[-115.18085,49.79142],[-115.1809,49.7915],[-115.18095,49.79158],[-115.18099,49.79167],[-115.18106,49.79175],[-115.18115,49.79183],[-115.18123,49.79191],[-115.1813,49.79198],[-115.18136,49.79204],[-115.1814,49.7921],[-115.18149,49.79216],[-115.18163,49.79228],[-115.18169,49.79232],[-115.18176,49.79235],[-115.18182,49.79241],[-115.18189,49.79245],[-115.18197,49.79251],[-115.18205,49.79256],[-115.18212,49.79262],[-115.18222,49.79267],[-115.18227,49.79272],[-115.18231,49.79277],[-115.18235,49.79282],[-115.18243,49.79289],[-115.18247,49.79293],[-115.18252,49.79299],[-115.18256,49.79304],[-115.18262,49.79309],[-115.18267,49.79315],[-115.18271,49.7932],[-115.18276,49.79326],[-115.18283,49.79332],[-115.18288,49.79338],[-115.18295,49.79344],[-115.18302,49.79351],[-115.18307,49.79358],[-115.1831,49.79365],[-115.18312,49.79371],[-115.18315,49.79379],[-115.18316,49.79384],[-115.18316,49.7939],[-115.18317,49.79397],[-115.18318,49.79401],[-115.18318,49.79406],[-115.1832,49.79411],[-115.18323,49.79417],[-115.18326,49.79423],[-115.18327,49.79428],[-115.18328,49.79434],[-115.18329,49.7944],[-115.18332,49.79445],[-115.18333,49.79449],[-115.18336,49.79454],[-115.18344,49.7946],[-115.18346,49.79462],[-115.1835,49.79464],[-115.18356,49.79469],[-115.18361,49.79474],[-115.18365,49.7948],[-115.1837,49.79487],[-115.18373,49.79493],[-115.18377,49.79498],[-115.18381,49.79507],[-115.18387,49.79514],[-115.18391,49.79521],[-115.18399,49.79528],[-115.18405,49.79538],[-115.18407,49.79542],[-115.1841,49.79547],[-115.18412,49.79552],[-115.18415,49.79557],[-115.18422,49.79566],[-115.18424,49.7957],[-115.18427,49.79575],[-115.18429,49.7958],[-115.18432,49.79585],[-115.18435,49.7959],[-115.18437,49.79596],[-115.1844,49.796],[-115.18446,49.79609],[-115.18452,49.79616],[-115.18457,49.79624],[-115.18462,49.79631],[-115.18468,49.7964],[-115.18474,49.79648],[-115.18481,49.79657],[-115.18486,49.79664],[-115.18493,49.7967],[-115.18499,49.79678],[-115.18506,49.79685],[-115.18513,49.79693],[-115.18522,49.79699],[-115.1853,49.79707],[-115.18538,49.79714],[-115.18547,49.7972],[-115.18556,49.79725],[-115.18566,49.7973],[-115.18575,49.79734],[-115.18583,49.79738],[-115.18593,49.79741],[-115.18603,49.79743],[-115.18612,49.79746],[-115.18622,49.79749],[-115.18629,49.79751],[-115.18637,49.79754],[-115.18644,49.79757],[-115.18651,49.79762],[-115.18659,49.79766],[-115.18665,49.79772],[-115.18674,49.79776],[-115.1868,49.79782],[-115.18687,49.79787],[-115.18695,49.7979],[-115.18704,49.79795],[-115.18712,49.798],[-115.18718,49.79804],[-115.18725,49.79807],[-115.18728,49.79809],[-115.18739,49.79813],[-115.18749,49.79815],[-115.18758,49.79821],[-115.18768,49.79824],[-115.18776,49.79828],[-115.18784,49.79831],[-115.18792,49.79834],[-115.18801,49.79837],[-115.18807,49.79842],[-115.18813,49.79847],[-115.18818,49.79853],[-115.18822,49.79858],[-115.18829,49.79863],[-115.18834,49.79869],[-115.18839,49.79875],[-115.18848,49.79881],[-115.18852,49.79886],[-115.18857,49.79892],[-115.18862,49.79897],[-115.18868,49.79904],[-115.18873,49.7991],[-115.18878,49.79916],[-115.18886,49.79922],[-115.18893,49.79928],[-115.18897,49.79934],[-115.18902,49.79939],[-115.18906,49.79945],[-115.18912,49.7995],[-115.18917,49.79957],[-115.18922,49.79961],[-115.18928,49.79968],[-115.18935,49.79972],[-115.18943,49.79977],[-115.18948,49.79981],[-115.18952,49.79989],[-115.18965,49.8],[-115.18975,49.80008],[-115.18983,49.80015],[-115.18991,49.80023],[-115.19003,49.80034],[-115.19015,49.80045],[-115.19027,49.80056],[-115.19038,49.80066],[-115.19045,49.80074],[-115.1905,49.80079],[-115.19055,49.80086],[-115.19063,49.80094],[-115.1907,49.80102],[-115.19077,49.80111],[-115.19083,49.80118],[-115.19089,49.80125],[-115.19093,49.80132],[-115.19096,49.80138],[-115.191,49.80146],[-115.19104,49.80154],[-115.19107,49.80161],[-115.19109,49.80168],[-115.19112,49.80176],[-115.19113,49.8018],[-115.19114,49.80183],[-115.19116,49.80187],[-115.19118,49.80192],[-115.19122,49.80197],[-115.19126,49.80203],[-115.19127,49.80205],[-115.19131,49.80207],[-115.19133,49.80209],[-115.19135,49.80211],[-115.1914,49.80212],[-115.19141,49.80214],[-115.19144,49.80215],[-115.19146,49.80217],[-115.19149,49.80219],[-115.19159,49.80226],[-115.19169,49.80233],[-115.19172,49.80236],[-115.19179,49.8024],[-115.1919,49.80249],[-115.192,49.80258],[-115.19215,49.80269],[-115.1923,49.80279],[-115.19244,49.80289],[-115.1926,49.80298],[-115.19276,49.80308],[-115.19291,49.80314],[-115.19305,49.80321],[-115.19319,49.80326],[-115.19331,49.80331],[-115.19342,49.80334],[-115.1935,49.80337],[-115.1936,49.8034],[-115.19371,49.80342],[-115.19383,49.80346],[-115.19396,49.8035],[-115.19408,49.80355],[-115.1942,49.80358],[-115.19431,49.80362],[-115.19442,49.80366],[-115.19453,49.8037],[-115.19464,49.80374],[-115.19475,49.80379],[-115.19485,49.80384],[-115.19494,49.80387],[-115.19501,49.80391],[-115.19509,49.80395],[-115.1952,49.80399],[-115.19531,49.80404],[-115.19542,49.8041],[-115.19555,49.80415],[-115.19565,49.80421],[-115.19576,49.80427],[-115.19584,49.80432],[-115.19593,49.80438],[-115.19601,49.80443],[-115.19607,49.80449],[-115.19616,49.80454],[-115.19622,49.80461],[-115.19628,49.80466],[-115.19633,49.80471],[-115.1964,49.80478],[-115.19648,49.80486],[-115.19656,49.80496],[-115.19664,49.80505],[-115.19674,49.80517],[-115.19678,49.80522],[-115.19682,49.80526],[-115.19686,49.8053],[-115.19688,49.80531]]}},
{"type":"Feature","properties":{"spotId":"F-grouse-drive-0043","kind":"roadside","km":4.8,"climbM":38,"name":"By Norboe Creek","flags":[]},"geometry":{"type":"LineString","coordinates":[[-115.13841,49.88955],[-115.13841,49.88948],[-115.13832,49.88858],[-115.13825,49.88827],[-115.13828,49.88811],[-115.13832,49.88791],[-115.13852,49.88741],[-115.1387,49.88688],[-115.13896,49.88617],[-115.13921,49.88547],[-115.13946,49.88476],[-115.13961,49.88439],[-115.13972,49.8841],[-115.1398,49.88392],[-115.13989,49.88369],[-115.1402,49.88298],[-115.14051,49.88238],[-115.14084,49.88189],[-115.14115,49.88136],[-115.14141,49.88099],[-115.14146,49.88094],[-115.14184,49.8804],[-115.14217,49.87991],[-115.14243,49.87946],[-115.14267,49.87908],[-115.14284,49.87864],[-115.1429,49.8783],[-115.14287,49.87786],[-115.14269,49.8776],[-115.14256,49.87732],[-115.14256,49.87687],[-115.14255,49.87639],[-115.14257,49.87594],[-115.14257,49.87591],[-115.14258,49.87557],[-115.14262,49.87505],[-115.14263,49.87466],[-115.14266,49.87418],[-115.14271,49.8737],[-115.14272,49.87338],[-115.14274,49.873],[-115.14277,49.87238],[-115.14281,49.87191],[-115.14287,49.87138],[-115.14287,49.87096],[-115.1429,49.87058],[-115.1429,49.87055],[-115.14295,49.87031],[-115.14314,49.87008],[-115.14352,49.86963],[-115.1438,49.86923],[-115.14402,49.86906],[-115.14417,49.86873],[-115.14414,49.86841],[-115.14398,49.86816],[-115.14391,49.86773],[-115.14394,49.86741],[-115.14415,49.86696],[-115.14436,49.86662],[-115.14465,49.86616],[-115.14511,49.86549],[-115.14544,49.86494],[-115.14549,49.86484],[-115.14555,49.86466],[-115.14567,49.8644],[-115.14573,49.86379],[-115.14563,49.86317],[-115.14543,49.86271],[-115.14495,49.86198],[-115.14474,49.86185],[-115.14417,49.86145],[-115.14396,49.86119],[-115.14384,49.86047],[-115.14379,49.85994],[-115.14373,49.8594],[-115.14358,49.85903],[-115.14336,49.85869],[-115.14288,49.85835],[-115.14241,49.85805],[-115.14207,49.85779],[-115.14164,49.85735],[-115.14135,49.85685],[-115.14111,49.85637],[-115.14101,49.85589],[-115.14092,49.85554],[-115.14089,49.85544],[-115.14082,49.85511],[-115.14073,49.85469],[-115.14064,49.85445],[-115.14037,49.85385],[-115.1403,49.8537],[-115.14018,49.85342],[-115.13969,49.85267],[-115.13941,49.85221],[-115.1394,49.8522],[-115.13942,49.85173],[-115.13969,49.85079],[-115.13992,49.85032],[-115.14012,49.8499],[-115.14021,49.84972],[-115.14042,49.84934],[-115.14056,49.84912],[-115.14096,49.84856]]}},
{"type":"Feature","properties":{"spotId":"F-grouse-walk-0022","kind":"walk","km":4.88,"climbM":45,"name":"160 m SE of Bull River","flags":["Route enters a Motor Vehicle for Hunting Closed Area: Swanson, Haynes, Big Tower and Little Tower Creeks. Closed April 1 to June 30 and September 1 to February 28 (February 29 in a leap year). Synopsis map 2-11/23."]},"geometry":{"type":"LineString","coordinates":[[-115.11513,50.02647],[-115.13413,49.9843]]}},
{"type":"Feature","properties":{"spotId":"F-grouse-walk-0022","kind":"roadside","km":5.1,"climbM":55,"name":"160 m SE of Bull River","flags":["Route enters a Motor Vehicle for Hunting Closed Area: Swanson, Haynes, Big Tower and Little Tower Creeks. Closed April 1 to June 30 and September 1 to February 28 (February 29 in a leap year). Synopsis map 2-11/23."]},"geometry":{"type":"LineString","coordinates":[[-115.13413,49.9843],[-115.13413,49.98424],[-115.13416,49.98416],[-115.13416,49.98413],[-115.13416,49.98409],[-115.1342,49.984],[-115.13423,49.98391],[-115.13426,49.98379],[-115.13429,49.9837],[-115.13434,49.98362],[-115.13438,49.98354],[-115.13444,49.98347],[-115.13448,49.9834],[-115.13463,49.98324],[-115.13478,49.98308],[-115.13492,49.98292],[-115.13505,49.98275],[-115.13516,49.98259],[-115.13519,49.98253],[-115.13523,49.98246],[-115.13526,49.98239],[-115.13531,49.98232],[-115.13534,49.98224],[-115.13546,49.98205],[-115.13559,49.9819],[-115.13572,49.98176],[-115.13588,49.98161],[-115.13605,49.98144],[-115.13614,49.98134],[-115.13624,49.98124],[-115.13633,49.98117],[-115.1364,49.98108],[-115.13647,49.981],[-115.13656,49.98091],[-115.13662,49.98082],[-115.13669,49.98073],[-115.13677,49.98063],[-115.13687,49.98053],[-115.13696,49.98042],[-115.13703,49.98034],[-115.13712,49.98026],[-115.1372,49.98017],[-115.1373,49.98008],[-115.13739,49.97999],[-115.13749,49.97992],[-115.13758,49.97985],[-115.13766,49.97979],[-115.13776,49.97974],[-115.13784,49.9797],[-115.13791,49.97967],[-115.13799,49.97964],[-115.13808,49.97959],[-115.13818,49.97955],[-115.13828,49.97951],[-115.13836,49.97946],[-115.13842,49.97943],[-115.13849,49.97938],[-115.13856,49.97934],[-115.13865,49.97926],[-115.13874,49.97917],[-115.13881,49.97908],[-115.13887,49.97899],[-115.13891,49.9789],[-115.13896,49.97882],[-115.139,49.97875],[-115.13903,49.97866],[-115.13906,49.97857],[-115.13911,49.97848],[-115.13913,49.97835],[-115.13916,49.97824],[-115.13918,49.97814],[-115.13922,49.97805],[-115.13927,49.97795],[-115.13934,49.97786],[-115.13942,49.97778],[-115.1395,49.9777],[-115.13959,49.97763],[-115.13968,49.97756],[-115.13976,49.97747],[-115.13984,49.97736],[-115.13991,49.97725],[-115.13997,49.97713],[-115.14006,49.97699],[-115.14019,49.97681],[-115.14028,49.97666],[-115.14037,49.97652],[-115.14043,49.9764],[-115.14046,49.97637],[-115.14054,49.97621],[-115.14058,49.97611],[-115.14064,49.97602],[-115.14067,49.97593],[-115.1407,49.97584],[-115.14077,49.97571],[-115.14114,49.97495],[-115.14163,49.974],[-115.1422,49.97287],[-115.14241,49.97238],[-115.14262,49.97173],[-115.14284,49.97097],[-115.14315,49.96992],[-115.14319,49.96986],[-115.14329,49.96957],[-115.1436,49.96844],[-115.14368,49.9682],[-115.14401,49.96707],[-115.14404,49.96699],[-115.14406,49.9669],[-115.14408,49.96682],[-115.1441,49.96674],[-115.1441,49.96666],[-115.14409,49.96659],[-115.14409,49.96653],[-115.14408,49.96647],[-115.14405,49.9664],[-115.14403,49.96634],[-115.144,49.96629],[-115.14396,49.96625],[-115.14392,49.96619],[-115.14387,49.96615],[-115.1438,49.96608],[-115.14373,49.96603],[-115.14366,49.96599],[-115.1436,49.96595],[-115.14353,49.96594],[-115.14344,49.96592],[-115.14336,49.9659],[-115.14326,49.96589],[-115.14317,49.96587],[-115.14308,49.96584],[-115.14299,49.96582],[-115.14293,49.96581],[-115.14288,49.96578],[-115.14282,49.96577],[-115.14277,49.96574],[-115.1427,49.96572],[-115.14262,49.96567],[-115.14256,49.96563],[-115.14255,49.96561],[-115.14252,49.9656],[-115.1425,49.96555],[-115.14247,49.96551],[-115.14246,49.96546],[-115.14245,49.96541],[-115.14245,49.96536],[-115.14245,49.96532],[-115.14245,49.96527],[-115.14245,49.96521],[-115.14246,49.96514],[-115.14247,49.96509],[-115.14249,49.96502],[-115.1425,49.96495],[-115.14254,49.96482],[-115.14257,49.96471],[-115.1426,49.96461],[-115.14263,49.96452],[-115.14264,49.96442],[-115.14264,49.96435],[-115.14264,49.96428],[-115.14265,49.96419],[-115.14263,49.96412],[-115.14262,49.96404],[-115.1426,49.96395],[-115.14257,49.96387],[-115.14254,49.96377],[-115.14251,49.96367],[-115.14249,49.96355],[-115.14248,49.96345],[-115.14247,49.96336],[-115.14247,49.96329],[-115.14247,49.96322],[-115.14249,49.96315],[-115.14249,49.96306],[-115.1425,49.96295],[-115.1425,49.96285],[-115.14249,49.96275],[-115.1425,49.96265],[-115.1425,49.96255],[-115.1425,49.96246],[-115.14251,49.96237],[-115.1425,49.96225],[-115.14249,49.96211],[-115.14248,49.96201],[-115.14247,49.96191],[-115.14244,49.96183],[-115.14242,49.96175],[-115.14239,49.96168],[-115.14239,49.96166],[-115.14236,49.96158],[-115.14232,49.96148],[-115.14227,49.96138],[-115.14223,49.96128],[-115.14219,49.96118],[-115.14215,49.9611],[-115.1421,49.96102],[-115.14206,49.96094],[-115.14201,49.96084],[-115.14196,49.96072],[-115.14193,49.96064],[-115.14191,49.96057],[-115.1419,49.9605],[-115.14188,49.96046],[-115.14188,49.96044],[-115.14187,49.96038],[-115.14186,49.96028],[-115.14187,49.96018],[-115.14186,49.96009],[-115.14185,49.95999],[-115.14185,49.9599],[-115.14184,49.95983],[-115.14183,49.95975],[-115.14182,49.95967],[-115.14181,49.95958],[-115.14181,49.95949],[-115.14181,49.95938],[-115.14182,49.9593],[-115.14183,49.95922],[-115.14185,49.95914],[-115.14188,49.95906],[-115.14191,49.95897],[-115.14197,49.95888],[-115.142,49.95879],[-115.14206,49.9587],[-115.1421,49.95863],[-115.14215,49.95853],[-115.14258,49.95784],[-115.14299,49.95714],[-115.14363,49.95601],[-115.1437,49.95587],[-115.14378,49.95575],[-115.14384,49.95561],[-115.14391,49.95549],[-115.14397,49.95537],[-115.14401,49.95531],[-115.14404,49.95525],[-115.14407,49.95519],[-115.1441,49.95511],[-115.14413,49.95502],[-115.14416,49.95494],[-115.14418,49.95487],[-115.14418,49.95481],[-115.14419,49.95477],[-115.14424,49.95453],[-115.14443,49.95394],[-115.14459,49.95343],[-115.14496,49.95234],[-115.14523,49.95137],[-115.14548,49.95047],[-115.14554,49.95024],[-115.14559,49.95008],[-115.14592,49.94895],[-115.14624,49.94783],[-115.14659,49.94669],[-115.14661,49.94662],[-115.14695,49.94548],[-115.14706,49.94504],[-115.14734,49.94397],[-115.14737,49.94387],[-115.14747,49.94342],[-115.14756,49.94309],[-115.14757,49.94306],[-115.14757,49.94301],[-115.14759,49.94295],[-115.1476,49.94288],[-115.14764,49.94279],[-115.14765,49.9427],[-115.14767,49.94262],[-115.1477,49.94255],[-115.1477,49.94249],[-115.14771,49.94245],[-115.14771,49.94239],[-115.14768,49.94233],[-115.14766,49.94225],[-115.14765,49.94219],[-115.14762,49.94211],[-115.1476,49.94204],[-115.14757,49.94197],[-115.14753,49.9419],[-115.14751,49.94183],[-115.14744,49.94176],[-115.14737,49.94167],[-115.14729,49.94159],[-115.14724,49.94153],[-115.14717,49.94147],[-115.14713,49.94143],[-115.14706,49.94138],[-115.147,49.94133],[-115.14691,49.94127],[-115.14683,49.94122],[-115.14681,49.9412]]}},
{"type":"Feature","properties":{"spotId":"F-grouse-walk-0028","kind":"roadside","km":5.24,"climbM":433,"name":"130 m N of Norboe Creek rec site","flags":[]},"geometry":{"type":"LineString","coordinates":[[-115.13853,49.89085],[-115.13697,49.89099],[-115.13488,49.89125],[-115.13454,49.89127],[-115.13442,49.89129],[-115.13439,49.89132],[-115.13435,49.89135],[-115.13432,49.89137],[-115.13414,49.89142],[-115.13348,49.89157],[-115.13332,49.89157],[-115.13282,49.89156],[-115.13252,49.89151],[-115.13236,49.89148],[-115.13204,49.89132],[-115.13151,49.891],[-115.13138,49.89093],[-115.13122,49.89084],[-115.13114,49.89081],[-115.13089,49.89073],[-115.13078,49.89071],[-115.13053,49.89073],[-115.13022,49.89073],[-115.13019,49.89073],[-115.12991,49.89083],[-115.12977,49.89085],[-115.12949,49.89084],[-115.12929,49.89074],[-115.12893,49.8907],[-115.1285,49.89068],[-115.12847,49.89067],[-115.12841,49.89066],[-115.12825,49.89063],[-115.12817,49.89061],[-115.12801,49.89057],[-115.12789,49.89054],[-115.12764,49.89046],[-115.1273,49.8904],[-115.12719,49.89037],[-115.12702,49.89032],[-115.1269,49.89031],[-115.1267,49.8903],[-115.12644,49.89029],[-115.12553,49.89028],[-115.12538,49.89027],[-115.12524,49.89026],[-115.1251,49.89022],[-115.12446,49.89007],[-115.12411,49.89006],[-115.12397,49.89006],[-115.1236,49.89011],[-115.12344,49.89012],[-115.12292,49.89013],[-115.12272,49.89017],[-115.12245,49.89016],[-115.122,49.89016],[-115.12158,49.89023],[-115.1215,49.89026],[-115.12138,49.89032],[-115.12108,49.89049],[-115.12077,49.89063],[-115.12046,49.8908],[-115.12015,49.89095],[-115.12005,49.89097],[-115.11971,49.89102],[-115.11936,49.8911],[-115.1191,49.89114],[-115.11894,49.89114],[-115.11874,49.89108],[-115.11835,49.891],[-115.11788,49.89085],[-115.11785,49.89083],[-115.11774,49.89078],[-115.11768,49.89074],[-115.11727,49.89052],[-115.11725,49.89051],[-115.11717,49.89049],[-115.11707,49.89045],[-115.11682,49.89028],[-115.11646,49.89011],[-115.11593,49.88994],[-115.1159,49.88993],[-115.11525,49.88979],[-115.1151,49.88974],[-115.11471,49.88962],[-115.11464,49.88954],[-115.11447,49.88952],[-115.11416,49.88949],[-115.1137,49.88959],[-115.11258,49.89005],[-115.11208,49.89011],[-115.11155,49.89028],[-115.1112,49.89027],[-115.11055,49.89046],[-115.10983,49.89072],[-115.10937,49.89079],[-115.10882,49.89084],[-115.10791,49.89081],[-115.1072,49.89075],[-115.10595,49.89084],[-115.10531,49.89094],[-115.10378,49.89126],[-115.10289,49.89132],[-115.10186,49.89128],[-115.10103,49.89123],[-115.09997,49.8912],[-115.0993,49.89125],[-115.09834,49.89116],[-115.09762,49.89114],[-115.09666,49.89111],[-115.09649,49.89114],[-115.09631,49.89122],[-115.09603,49.89144],[-115.09571,49.89169],[-115.09496,49.89211],[-115.09334,49.89266],[-115.09284,49.89287],[-115.09187,49.89322],[-115.09161,49.89335],[-115.0912,49.89348],[-115.09084,49.89343],[-115.09026,49.8934],[-115.08977,49.89341],[-115.08884,49.89371],[-115.0882,49.89391],[-115.0877,49.89409],[-115.08736,49.89417],[-115.08697,49.89414],[-115.08656,49.89419],[-115.08626,49.89427],[-115.08578,49.89462],[-115.08526,49.89481],[-115.08506,49.89491],[-115.08481,49.89514],[-115.08452,49.89562],[-115.0841,49.89612],[-115.08385,49.8963],[-115.0834,49.89673],[-115.08311,49.8972],[-115.0828,49.89794],[-115.08254,49.89835],[-115.08216,49.89876],[-115.08187,49.89903],[-115.08173,49.8992],[-115.08154,49.8994],[-115.0815,49.89954],[-115.08142,49.9],[-115.08138,49.90034],[-115.08136,49.90048],[-115.08129,49.90076],[-115.08125,49.90086],[-115.08123,49.90102],[-115.08123,49.9012],[-115.08124,49.90142],[-115.08127,49.90155],[-115.08126,49.90172],[-115.08124,49.90181],[-115.08119,49.90192],[-115.08107,49.9021],[-115.08097,49.90226],[-115.08095,49.90245],[-115.08083,49.90262],[-115.08085,49.90277],[-115.08093,49.90294],[-115.08091,49.90317],[-115.08087,49.90331],[-115.0809,49.90349],[-115.08094,49.90366],[-115.08091,49.90383],[-115.08091,49.90387]]}},
{"type":"Feature","properties":{"spotId":"F-moose-backcountry-0001","kind":"backcountry","km":5.57,"climbM":120,"name":"260 m W of Bull River","flags":["Route enters a Motor Vehicle for Hunting Closed Area: White River and Bull River. Closed September 1 to June 30. Synopsis map 2-56/23."]},"geometry":{"type":"LineString","coordinates":[[-115.14141,49.89629],[-115.15538,49.94554]]}},
{"type":"Feature","properties":{"spotId":"F-moose-backcountry-0004","kind":"backcountry","km":6.64,"climbM":918,"name":"1.6 km W of Bull River","flags":["Route enters a Motor Vehicle for Hunting Closed Area: White River and Bull River. Closed September 1 to June 30. Synopsis map 2-56/23."]},"geometry":{"type":"LineString","coordinates":[[-115.11513,50.02647],[-115.16772,49.97733]]}},
{"type":"Feature","properties":{"spotId":"F-moose-backcountry-0005","kind":"backcountry","km":5.59,"climbM":1235,"name":"1.3 km N of Brûlé Creek","flags":["Route enters a Motor Vehicle for Hunting Closed Area: White River and Bull River. Closed September 1 to June 30. Synopsis map 2-56/23."]},"geometry":{"type":"LineString","coordinates":[[-115.14141,49.89629],[-115.07957,49.92686]]}},
{"type":"Feature","properties":{"spotId":"F-moose-walk-0021","kind":"walk","km":4.09,"climbM":47,"name":"200 m SW of Bull River","flags":[]},"geometry":{"type":"LineString","coordinates":[[-115.14141,49.89629],[-115.15594,49.93188]]}}
]}
