{"type":"FeatureCollection","features":[
{"type":"Feature","properties":{"spotId":"F-deer-backcountry-0011","kind":"backcountry","km":5.51,"climbM":1345,"name":"210 m N of Nukpook Creek","flags":[]},"geometry":{"type":"LineString","coordinates":[[-115.19807,49.80626],[-115.26181,49.77885]]}},
{"type":"Feature","properties":{"spotId":"F-grouse-drive-0031","kind":"roadside","km":4.36,"climbM":21,"name":"150 m NE of Quinn (Queen) Creek","flags":[]},"geometry":{"type":"LineString","coordinates":[[-115.2651,49.86609],[-115.26509,49.86608],[-115.26505,49.86604],[-115.26501,49.86599],[-115.26497,49.86593],[-115.26493,49.86589],[-115.26486,49.86579],[-115.26481,49.86571],[-115.26474,49.86563],[-115.26469,49.86556],[-115.26461,49.86547],[-115.26453,49.86537],[-115.26445,49.86527],[-115.26437,49.86517],[-115.26429,49.86508],[-115.26425,49.86502],[-115.26419,49.86495],[-115.26413,49.86487],[-115.26406,49.86477],[-115.26398,49.86467],[-115.26392,49.86457],[-115.26386,49.86449],[-115.26381,49.86443],[-115.26376,49.86437],[-115.2637,49.8643],[-115.26365,49.86423],[-115.2636,49.86417],[-115.26354,49.86409],[-115.26349,49.86403],[-115.26344,49.86396],[-115.2634,49.8639],[-115.26336,49.86386],[-115.26332,49.86382],[-115.26328,49.86376],[-115.26324,49.86371],[-115.26318,49.86366],[-115.26308,49.86352],[-115.26297,49.86339],[-115.26288,49.86328],[-115.2628,49.86318],[-115.26273,49.8631],[-115.2627,49.86305],[-115.26266,49.86299],[-115.26263,49.86293],[-115.26257,49.86287],[-115.26253,49.86281],[-115.26249,49.86275],[-115.26247,49.86271],[-115.26243,49.86265],[-115.26239,49.86261],[-115.26233,49.86255],[-115.26227,49.86245],[-115.26219,49.86237],[-115.26212,49.86229],[-115.26207,49.86223],[-115.26201,49.86216],[-115.26197,49.8621],[-115.26192,49.86204],[-115.26187,49.86196],[-115.2618,49.86189],[-115.26173,49.86183],[-115.26169,49.86179],[-115.26165,49.86176],[-115.26161,49.86172],[-115.26157,49.86169],[-115.26152,49.86165],[-115.26142,49.86156],[-115.26133,49.86147],[-115.26125,49.86139],[-115.26118,49.8613],[-115.26113,49.86125],[-115.26107,49.86119],[-115.26099,49.8611],[-115.2609,49.86102],[-115.2608,49.86093],[-115.2607,49.86085],[-115.26063,49.86077],[-115.26056,49.86072],[-115.26048,49.86066],[-115.26041,49.86059],[-115.26032,49.86052],[-115.26018,49.8604],[-115.26006,49.86028],[-115.25994,49.86018],[-115.25983,49.86009],[-115.25975,49.86001],[-115.25967,49.85994],[-115.25959,49.85987],[-115.2595,49.85978],[-115.2594,49.85968],[-115.25931,49.85959],[-115.25921,49.8595],[-115.25912,49.85942],[-115.25902,49.85935],[-115.25893,49.85926],[-115.25882,49.85917],[-115.25873,49.85908],[-115.25863,49.85901],[-115.25854,49.85893],[-115.25846,49.85886],[-115.25839,49.85881],[-115.25831,49.85874],[-115.25821,49.85866],[-115.25811,49.85857],[-115.25801,49.85848],[-115.25792,49.85839],[-115.25786,49.85834],[-115.25781,49.85829],[-115.25776,49.85824],[-115.2577,49.85818],[-115.25768,49.85817],[-115.25764,49.85813],[-115.25755,49.85805],[-115.25747,49.85797],[-115.25741,49.85791],[-115.25734,49.85785],[-115.2573,49.8578],[-115.25723,49.85774],[-115.25715,49.85767],[-115.25706,49.8576],[-115.25696,49.85752],[-115.25685,49.85744],[-115.25677,49.85738],[-115.25669,49.85732],[-115.25661,49.85725],[-115.25651,49.85719],[-115.25642,49.85711],[-115.25634,49.85704],[-115.25626,49.85698],[-115.2562,49.85692],[-115.25614,49.85686],[-115.25608,49.85681],[-115.25606,49.85678],[-115.25603,49.85676],[-115.256,49.85674],[-115.25598,49.8567],[-115.25595,49.85668],[-115.25588,49.85662],[-115.25581,49.85656],[-115.25575,49.8565],[-115.25567,49.85644],[-115.25558,49.85637],[-115.25552,49.85631],[-115.25545,49.85625],[-115.25538,49.8562],[-115.25533,49.85614],[-115.25529,49.8561],[-115.25522,49.85605],[-115.25515,49.85599],[-115.25509,49.85592],[-115.255,49.85585],[-115.25494,49.85579],[-115.25484,49.85571],[-115.25475,49.85564],[-115.25467,49.85557],[-115.25457,49.85548],[-115.25448,49.8554],[-115.25437,49.8553],[-115.25425,49.85521],[-115.25415,49.85512],[-115.25406,49.85504],[-115.25399,49.85497],[-115.25391,49.85491],[-115.2538,49.85483],[-115.25368,49.85472],[-115.25356,49.85463],[-115.25344,49.85454],[-115.25333,49.85446],[-115.25323,49.85438],[-115.25314,49.85431],[-115.25303,49.85422],[-115.25292,49.85412],[-115.25283,49.85404],[-115.25275,49.85396],[-115.25267,49.85389],[-115.25261,49.85383],[-115.25256,49.85377],[-115.25249,49.85373],[-115.2524,49.85366],[-115.2523,49.85359],[-115.25218,49.85351],[-115.25209,49.85344],[-115.25199,49.85338],[-115.25191,49.8533],[-115.25183,49.85323],[-115.25175,49.85316],[-115.25174,49.85314],[-115.25167,49.85307],[-115.25159,49.853],[-115.25152,49.85293],[-115.25145,49.85286],[-115.2514,49.85281],[-115.25135,49.85276],[-115.25126,49.8527],[-115.25116,49.85262],[-115.25105,49.85253],[-115.25094,49.85243],[-115.25083,49.85234],[-115.25075,49.85227],[-115.25067,49.8522],[-115.2506,49.85212],[-115.25052,49.85205],[-115.25043,49.85197],[-115.25033,49.85189],[-115.25024,49.85181],[-115.25016,49.85175],[-115.25008,49.85169],[-115.25005,49.85167],[-115.25002,49.85165],[-115.24995,49.8516],[-115.2499,49.85154],[-115.24982,49.85145],[-115.24974,49.85137],[-115.24966,49.85127],[-115.24963,49.85125],[-115.24961,49.85123],[-115.24958,49.8512],[-115.24955,49.85116],[-115.24953,49.85114],[-115.2495,49.85108],[-115.24947,49.85102],[-115.24946,49.85097],[-115.24945,49.85093],[-115.24944,49.8509],[-115.24942,49.85086],[-115.2494,49.85079],[-115.24937,49.85072],[-115.24935,49.85065],[-115.24931,49.85057],[-115.24929,49.85048],[-115.24926,49.85039],[-115.24922,49.85031],[-115.2492,49.85022],[-115.24916,49.85013],[-115.24912,49.85006],[-115.24907,49.84998],[-115.24903,49.84991],[-115.24899,49.84985],[-115.24896,49.8498],[-115.24894,49.84974],[-115.24891,49.84967],[-115.2489,49.8496],[-115.24888,49.84951],[-115.24885,49.84943],[-115.24884,49.84937],[-115.24881,49.84931],[-115.24879,49.84925],[-115.24876,49.84919],[-115.24874,49.84913],[-115.24871,49.84906],[-115.24869,49.84899],[-115.24866,49.84893],[-115.24863,49.84887],[-115.24861,49.84882],[-115.24858,49.84876],[-115.24856,49.84869],[-115.24853,49.8486],[-115.24851,49.84852],[-115.24848,49.84843],[-115.24847,49.84837],[-115.24846,49.84831],[-115.24843,49.84825],[-115.24841,49.8482],[-115.24838,49.84813],[-115.24833,49.84806],[-115.24829,49.848],[-115.24824,49.84792],[-115.2482,49.84788],[-115.24817,49.84784],[-115.24814,49.84779],[-115.24811,49.84772],[-115.24807,49.84765],[-115.24803,49.84757],[-115.24799,49.84751],[-115.24794,49.84743],[-115.2479,49.84737],[-115.24784,49.84731],[-115.24778,49.84724],[-115.24771,49.84717],[-115.24767,49.84713],[-115.24764,49.8471],[-115.2476,49.84706],[-115.24757,49.84703],[-115.24756,49.84701],[-115.24753,49.84698],[-115.24748,49.84692],[-115.24743,49.84686],[-115.24737,49.84679],[-115.24731,49.84674],[-115.24724,49.84667],[-115.24717,49.8466],[-115.2471,49.84654],[-115.24704,49.84648],[-115.24696,49.84642],[-115.24686,49.84634],[-115.24677,49.84626],[-115.24667,49.84618],[-115.24659,49.84612],[-115.24652,49.84606],[-115.24647,49.84603],[-115.24642,49.84599],[-115.24636,49.84594],[-115.24629,49.8459],[-115.24625,49.84585],[-115.24617,49.84579],[-115.24611,49.84571],[-115.24605,49.84565],[-115.246,49.84558],[-115.24595,49.8455],[-115.24588,49.8454],[-115.24581,49.84532],[-115.24575,49.84524],[-115.24571,49.84518],[-115.24565,49.84512],[-115.24561,49.84506],[-115.24553,49.84499],[-115.24544,49.84489],[-115.24533,49.84478],[-115.24525,49.84468],[-115.24517,49.8446],[-115.24512,49.84452],[-115.24505,49.84444],[-115.24499,49.84437],[-115.24492,49.84427],[-115.24481,49.84416],[-115.24471,49.84404],[-115.24461,49.84392],[-115.24452,49.84383],[-115.24445,49.84374],[-115.2444,49.84366],[-115.24433,49.84358],[-115.24427,49.84349],[-115.2442,49.8434],[-115.24412,49.84331],[-115.24405,49.84323],[-115.24397,49.84315],[-115.24392,49.84307],[-115.24385,49.84299],[-115.24377,49.8429],[-115.24375,49.84286],[-115.24372,49.84282],[-115.24369,49.84278],[-115.24367,49.84275],[-115.24365,49.84274],[-115.24363,49.8427],[-115.24357,49.84264],[-115.24353,49.84259],[-115.24348,49.84253],[-115.24341,49.84246],[-115.24337,49.84241],[-115.24335,49.84237],[-115.24332,49.84234],[-115.24328,49.84229],[-115.24324,49.84223],[-115.24319,49.84217],[-115.24316,49.84213],[-115.24311,49.84208],[-115.24308,49.84203],[-115.24304,49.842],[-115.24303,49.84196],[-115.243,49.84194],[-115.24297,49.84191],[-115.24295,49.84186],[-115.24291,49.84182],[-115.24287,49.84178],[-115.24283,49.84173],[-115.24279,49.84169],[-115.24275,49.84164],[-115.24271,49.8416],[-115.24267,49.84154],[-115.24261,49.84147],[-115.24256,49.8414],[-115.24252,49.84133],[-115.24248,49.84127],[-115.24244,49.84122],[-115.24242,49.84117],[-115.24238,49.84111],[-115.24232,49.84104],[-115.24228,49.84098],[-115.24223,49.84091],[-115.24218,49.84086],[-115.24214,49.84081],[-115.24208,49.84075],[-115.24204,49.84071],[-115.24199,49.84065],[-115.24195,49.8406],[-115.24191,49.84054],[-115.24187,49.8405],[-115.24183,49.84044],[-115.24179,49.84039],[-115.24177,49.84035],[-115.24175,49.84033],[-115.24173,49.8403],[-115.2417,49.84028],[-115.24167,49.84025],[-115.24165,49.8402],[-115.24161,49.84015],[-115.24155,49.84008],[-115.2415,49.84001],[-115.24146,49.83995],[-115.24142,49.8399],[-115.24138,49.83986],[-115.24135,49.83983],[-115.2413,49.83979],[-115.24125,49.83974],[-115.24121,49.83968],[-115.24115,49.83964],[-115.24111,49.83958],[-115.24109,49.83955],[-115.24106,49.83949],[-115.24102,49.83945],[-115.24098,49.83939],[-115.24093,49.83933],[-115.24089,49.83926],[-115.24083,49.83919],[-115.24079,49.83914],[-115.24075,49.83909],[-115.24074,49.83908],[-115.24073,49.83905],[-115.24067,49.83898],[-115.24063,49.83892],[-115.24058,49.83884],[-115.24054,49.83877],[-115.2405,49.83868],[-115.24047,49.8386],[-115.24043,49.83853],[-115.24039,49.83845],[-115.24035,49.83835],[-115.24032,49.83827],[-115.2403,49.83819],[-115.24026,49.83811],[-115.24025,49.83805],[-115.24022,49.838],[-115.2402,49.83793],[-115.24019,49.83786],[-115.24016,49.83778],[-115.24014,49.83769],[-115.24011,49.8376],[-115.24007,49.8375],[-115.24005,49.83741],[-115.24,49.83731],[-115.23996,49.83722],[-115.23991,49.83711],[-115.23988,49.83704],[-115.23984,49.83697],[-115.23982,49.83692],[-115.23978,49.83687],[-115.23975,49.83683],[-115.23972,49.83679],[-115.2397,49.83675],[-115.23967,49.83669],[-115.23965,49.83664],[-115.23961,49.83658],[-115.23958,49.83649],[-115.23957,49.83639],[-115.23956,49.83631],[-115.23955,49.83622],[-115.23953,49.83612],[-115.23949,49.83604],[-115.23946,49.83597],[-115.23942,49.83591],[-115.23938,49.83584],[-115.23934,49.83579],[-115.23933,49.83576],[-115.2393,49.83574],[-115.23929,49.83572],[-115.23926,49.83569],[-115.23925,49.83566],[-115.23923,49.83561],[-115.23919,49.83556],[-115.23916,49.83551],[-115.23913,49.83545],[-115.23908,49.8354],[-115.23901,49.83533],[-115.23895,49.83526],[-115.23888,49.83521],[-115.23887,49.83519],[-115.23882,49.83515],[-115.23877,49.83511],[-115.23872,49.83506],[-115.23865,49.835],[-115.23858,49.83491],[-115.23852,49.83483],[-115.23845,49.83475],[-115.23841,49.8347],[-115.23837,49.83465],[-115.23833,49.8346],[-115.23828,49.83454],[-115.23824,49.83448],[-115.2382,49.83442],[-115.23816,49.83437],[-115.23813,49.83432],[-115.23811,49.83429],[-115.23809,49.83425],[-115.23807,49.8342],[-115.23803,49.83413],[-115.23796,49.83406],[-115.23789,49.83399],[-115.23781,49.83391],[-115.23775,49.83384],[-115.23768,49.83378],[-115.23761,49.83373],[-115.23753,49.83367],[-115.23745,49.83361],[-115.23737,49.83355],[-115.23731,49.8335],[-115.23725,49.83345],[-115.23719,49.8334],[-115.23715,49.83336],[-115.2371,49.83332],[-115.23703,49.83326],[-115.23694,49.83319],[-115.23684,49.83312],[-115.23675,49.83304],[-115.23665,49.83298],[-115.23657,49.83291],[-115.23649,49.83285],[-115.23639,49.83279],[-115.2363,49.83273],[-115.23619,49.83266],[-115.23608,49.83258],[-115.23599,49.83252],[-115.23589,49.83246],[-115.23582,49.83242],[-115.23575,49.83237]]}},
{"type":"Feature","properties":{"spotId":"F-grouse-walk-0006","kind":"walk","km":4.64,"climbM":317,"name":"130 m W of Quinn (Queen) Creek","flags":[]},"geometry":{"type":"LineString","coordinates":[[-115.2651,49.86609],[-115.29717,49.90236]]}},
{"type":"Feature","properties":{"spotId":"F-grouse-walk-0006","kind":"roadside","km":5.31,"climbM":216,"name":"130 m W of Quinn (Queen) Creek","flags":[]},"geometry":{"type":"LineString","coordinates":[[-115.29717,49.90236],[-115.29715,49.9024],[-115.29711,49.90246],[-115.29706,49.90252],[-115.29703,49.90258],[-115.29699,49.90265],[-115.29695,49.90271],[-115.29689,49.90277],[-115.29682,49.90286],[-115.29673,49.90294],[-115.29664,49.90302],[-115.29658,49.90309],[-115.29653,49.90315],[-115.2965,49.90319],[-115.29647,49.90323],[-115.29639,49.90333],[-115.29632,49.90344],[-115.29625,49.90354],[-115.2962,49.9036],[-115.29618,49.90363],[-115.29615,49.90366],[-115.29612,49.90369],[-115.29609,49.90373],[-115.29606,49.90376],[-115.29602,49.90379],[-115.29596,49.90386],[-115.2959,49.90394],[-115.29584,49.90402],[-115.29581,49.90409],[-115.29578,49.90415],[-115.29574,49.90421],[-115.29569,49.90429],[-115.29563,49.90438],[-115.29557,49.90446],[-115.2955,49.90454],[-115.29547,49.90459],[-115.29543,49.90464],[-115.29539,49.90469],[-115.29534,49.90474],[-115.29534,49.90476],[-115.2953,49.9048],[-115.29524,49.90489],[-115.29517,49.90498],[-115.29509,49.90507],[-115.29504,49.90515],[-115.29501,49.90522],[-115.29498,49.90526],[-115.29492,49.90532],[-115.29487,49.90539],[-115.29483,49.90546],[-115.29479,49.90552],[-115.29473,49.90558],[-115.29468,49.90564],[-115.29464,49.9057],[-115.2946,49.90576],[-115.29455,49.90583],[-115.29451,49.90588],[-115.29448,49.90595],[-115.29445,49.906],[-115.29443,49.90604],[-115.2944,49.90609],[-115.29437,49.90612],[-115.29434,49.90617],[-115.2943,49.90621],[-115.29427,49.90627],[-115.29423,49.90631],[-115.29419,49.90635],[-115.29413,49.9064],[-115.29407,49.90643],[-115.29403,49.90648],[-115.29397,49.90652],[-115.2939,49.90656],[-115.29384,49.90658],[-115.29377,49.90662],[-115.29373,49.90665],[-115.2937,49.90666],[-115.29366,49.90668],[-115.29363,49.90669],[-115.29355,49.90672],[-115.29349,49.90676],[-115.29342,49.90679],[-115.29333,49.90682],[-115.29328,49.90685],[-115.29323,49.90687],[-115.29318,49.90689],[-115.29313,49.90691],[-115.29309,49.90693],[-115.29305,49.90695],[-115.29296,49.907],[-115.29291,49.90706],[-115.29284,49.90711],[-115.29279,49.90715],[-115.29278,49.90719],[-115.29276,49.90722],[-115.29273,49.90724],[-115.29272,49.90728],[-115.29269,49.90731],[-115.29266,49.90734],[-115.29263,49.90739],[-115.2926,49.90743],[-115.29259,49.90747],[-115.29257,49.90751],[-115.29255,49.90756],[-115.29252,49.90767],[-115.29248,49.90779],[-115.29244,49.90791],[-115.29243,49.90802],[-115.29241,49.9081],[-115.29241,49.90819],[-115.29239,49.9083],[-115.29239,49.90841],[-115.29238,49.90853],[-115.29236,49.90865],[-115.29236,49.90876],[-115.29236,49.90887],[-115.29237,49.90896],[-115.29236,49.90905],[-115.29236,49.90907],[-115.29236,49.90915],[-115.29236,49.90918],[-115.29234,49.90936],[-115.29232,49.90953],[-115.2923,49.90969],[-115.29228,49.90984],[-115.29226,49.90996],[-115.29226,49.91005],[-115.29225,49.91016],[-115.29225,49.91029],[-115.29224,49.91043],[-115.29224,49.9105],[-115.29224,49.91055],[-115.29224,49.91068],[-115.29223,49.9108],[-115.29223,49.91091],[-115.29222,49.91104],[-115.29223,49.91118],[-115.29223,49.91125],[-115.29223,49.91132],[-115.29222,49.91139],[-115.29222,49.91144],[-115.29221,49.91149],[-115.29221,49.91153],[-115.29218,49.91158],[-115.29216,49.91164],[-115.29213,49.9117],[-115.2921,49.91175],[-115.29209,49.91178],[-115.29206,49.9118],[-115.29204,49.91182],[-115.292,49.91187],[-115.29198,49.9119],[-115.29197,49.91192],[-115.29194,49.91194],[-115.29193,49.91196],[-115.2919,49.91198],[-115.29188,49.91201],[-115.29187,49.91202],[-115.29182,49.91208],[-115.29178,49.91214],[-115.29174,49.91219],[-115.29168,49.91225],[-115.29164,49.9123],[-115.29153,49.91241],[-115.29143,49.91251],[-115.29133,49.91262],[-115.29125,49.9127],[-115.29117,49.91277],[-115.29112,49.91281],[-115.29104,49.91288],[-115.29099,49.91295],[-115.29091,49.91302],[-115.29084,49.9131],[-115.29074,49.91321],[-115.29065,49.91333],[-115.29056,49.91344],[-115.29049,49.91357],[-115.29042,49.9137],[-115.29031,49.9139],[-115.29021,49.9141],[-115.29012,49.91429],[-115.29007,49.91445],[-115.29005,49.91457],[-115.29005,49.91463],[-115.29003,49.91474],[-115.29001,49.91487],[-115.28999,49.91499],[-115.28996,49.91512],[-115.28994,49.9152],[-115.28994,49.91523],[-115.28993,49.91529],[-115.28992,49.91538],[-115.28991,49.91546],[-115.2899,49.91555],[-115.2899,49.91559],[-115.28989,49.91564],[-115.28989,49.91568],[-115.28987,49.91572],[-115.28987,49.91575],[-115.28984,49.9158],[-115.28982,49.91587],[-115.28978,49.91593],[-115.28973,49.91601],[-115.28969,49.91608],[-115.28966,49.91616],[-115.28962,49.91623],[-115.28957,49.91629],[-115.28954,49.91636],[-115.2895,49.91643],[-115.28942,49.91657],[-115.28935,49.9167],[-115.28927,49.91683],[-115.2892,49.91695],[-115.28914,49.91703],[-115.28911,49.91707],[-115.28907,49.91714],[-115.28901,49.91721],[-115.28895,49.91729],[-115.28888,49.91737],[-115.28878,49.91749],[-115.28868,49.91762],[-115.28859,49.91773],[-115.28854,49.91786],[-115.28854,49.918],[-115.28855,49.91809],[-115.28857,49.91818],[-115.28861,49.91826],[-115.28864,49.91833],[-115.28866,49.91836],[-115.28866,49.91839],[-115.28867,49.91843],[-115.28869,49.91847],[-115.28869,49.91852],[-115.2887,49.91857],[-115.2887,49.91861],[-115.28869,49.91863],[-115.28874,49.91884],[-115.28875,49.9191],[-115.28875,49.91931],[-115.28897,49.91995],[-115.28922,49.9206],[-115.28942,49.92091],[-115.28964,49.92115],[-115.28992,49.92151],[-115.29015,49.92187],[-115.29025,49.922],[-115.29061,49.9225],[-115.29089,49.92279],[-115.29105,49.92294],[-115.2914,49.92328],[-115.29227,49.9238],[-115.29305,49.92435],[-115.29336,49.92455],[-115.29361,49.92472],[-115.29393,49.92501],[-115.29445,49.92542],[-115.2947,49.92567],[-115.29505,49.92601],[-115.29533,49.92649],[-115.2956,49.92707],[-115.29581,49.92738],[-115.296,49.92767],[-115.29622,49.92808],[-115.29635,49.92864],[-115.29636,49.92877],[-115.29638,49.92904],[-115.29636,49.92954],[-115.29634,49.93009],[-115.29636,49.93068],[-115.29634,49.93145],[-115.29631,49.93181],[-115.29631,49.9319],[-115.29629,49.93226],[-115.29627,49.93294],[-115.29628,49.93317],[-115.29627,49.93366],[-115.29628,49.93382],[-115.2963,49.93396],[-115.29641,49.93411],[-115.29658,49.93448],[-115.29673,49.93484],[-115.297,49.93559],[-115.29724,49.93626],[-115.29726,49.9365],[-115.29728,49.93681],[-115.29727,49.93695],[-115.29728,49.93715],[-115.29729,49.93748],[-115.29729,49.93774],[-115.2973,49.93813],[-115.2973,49.93849],[-115.29742,49.93869],[-115.2975,49.93884],[-115.29764,49.93923],[-115.29775,49.93952],[-115.29777,49.93956],[-115.29793,49.93996],[-115.29792,49.94027],[-115.29792,49.94042],[-115.29787,49.94082],[-115.29784,49.94111],[-115.29781,49.94158],[-115.29778,49.94185],[-115.29776,49.94205],[-115.29772,49.9424],[-115.29759,49.94308],[-115.29754,49.94328],[-115.29753,49.94359],[-115.29755,49.9438],[-115.29756,49.94381],[-115.29757,49.9439],[-115.2976,49.94398],[-115.29773,49.94443],[-115.29785,49.94493],[-115.29782,49.94526],[-115.29778,49.94555],[-115.29776,49.94572],[-115.29773,49.94596],[-115.2977,49.94614],[-115.29768,49.94623],[-115.29767,49.94652],[-115.29771,49.9467],[-115.29788,49.94703],[-115.29788,49.94705]]}},
{"type":"Feature","properties":{"spotId":"F-grouse-walk-0010","kind":"roadside","km":5.31,"climbM":113,"name":"150 m NE of Quinn (Queen) Creek","flags":[]},"geometry":{"type":"LineString","coordinates":[[-115.2651,49.86609],[-115.26511,49.86611],[-115.26514,49.86617],[-115.26519,49.86623],[-115.26523,49.86629],[-115.2653,49.86638],[-115.26535,49.86645],[-115.26539,49.86649],[-115.26543,49.86652],[-115.26546,49.86657],[-115.2655,49.8666],[-115.26553,49.86664],[-115.26557,49.8667],[-115.26559,49.86674],[-115.2656,49.86679],[-115.26562,49.86685],[-115.26563,49.86689],[-115.26564,49.86696],[-115.26566,49.86703],[-115.26569,49.86711],[-115.26571,49.86719],[-115.26574,49.86728],[-115.26575,49.86734],[-115.26578,49.86739],[-115.26579,49.86745],[-115.2658,49.86749],[-115.26581,49.86755],[-115.26582,49.86763],[-115.26584,49.86772],[-115.26586,49.86779],[-115.26586,49.86786],[-115.26587,49.86791],[-115.26588,49.86795],[-115.26589,49.868],[-115.26591,49.86806],[-115.26593,49.86812],[-115.26596,49.86819],[-115.26597,49.86825],[-115.26598,49.86829],[-115.26599,49.86835],[-115.26602,49.86839],[-115.26603,49.86845],[-115.26606,49.8685],[-115.2661,49.86857],[-115.26612,49.86862],[-115.26616,49.86867],[-115.26619,49.86871],[-115.26622,49.86876],[-115.26625,49.86884],[-115.26629,49.86891],[-115.26635,49.86899],[-115.2664,49.86907],[-115.26644,49.86913],[-115.26648,49.86918],[-115.2665,49.86923],[-115.26653,49.86928],[-115.26657,49.86933],[-115.26661,49.86941],[-115.26665,49.86949],[-115.26669,49.86958],[-115.26673,49.86965],[-115.26675,49.86971],[-115.26679,49.86977],[-115.26683,49.86984],[-115.26688,49.86991],[-115.26694,49.87],[-115.26699,49.87008],[-115.26702,49.87013],[-115.26704,49.87017],[-115.26705,49.87021],[-115.26707,49.87024],[-115.26709,49.87029],[-115.26713,49.87035],[-115.26717,49.87043],[-115.26721,49.87052],[-115.26724,49.87058],[-115.26726,49.87063],[-115.26729,49.87068],[-115.2673,49.87071],[-115.26734,49.87079],[-115.26738,49.87087],[-115.26743,49.87097],[-115.26748,49.87107],[-115.26752,49.87115],[-115.26753,49.87121],[-115.26757,49.87129],[-115.26758,49.87136],[-115.26761,49.87143],[-115.26763,49.87151],[-115.26766,49.87158],[-115.26768,49.87167],[-115.2677,49.87173],[-115.26771,49.87176],[-115.26772,49.87179],[-115.26772,49.87182],[-115.26773,49.87185],[-115.26775,49.87189],[-115.26776,49.87194],[-115.26778,49.87203],[-115.26781,49.87211],[-115.26783,49.87219],[-115.26787,49.87226],[-115.26791,49.87234],[-115.26794,49.87241],[-115.26796,49.87247],[-115.26799,49.87252],[-115.26801,49.87258],[-115.26803,49.87261],[-115.26802,49.87264],[-115.26804,49.87267],[-115.26805,49.87271],[-115.26806,49.87274],[-115.26808,49.87278],[-115.26811,49.87289],[-115.26815,49.87298],[-115.2682,49.87307],[-115.26827,49.87315],[-115.26834,49.87324],[-115.26839,49.87333],[-115.26846,49.87342],[-115.26851,49.8735],[-115.26856,49.87359],[-115.2686,49.87365],[-115.26864,49.8737],[-115.26868,49.87377],[-115.26873,49.87384],[-115.26879,49.87392],[-115.26885,49.874],[-115.26895,49.8741],[-115.26904,49.87419],[-115.26914,49.87427],[-115.26923,49.87436],[-115.26934,49.87444],[-115.26942,49.87452],[-115.2695,49.87461],[-115.26957,49.87468],[-115.26963,49.87475],[-115.26967,49.8748],[-115.2697,49.87483],[-115.26975,49.87488],[-115.26979,49.87494],[-115.26986,49.87502],[-115.26993,49.87508],[-115.26995,49.87513],[-115.26999,49.87517],[-115.27002,49.87521],[-115.27006,49.87524],[-115.27009,49.87526],[-115.27011,49.87531],[-115.27014,49.87535],[-115.27017,49.87539],[-115.27019,49.87544],[-115.27023,49.87547],[-115.27026,49.87552],[-115.2703,49.87555],[-115.27034,49.87559],[-115.27038,49.87563],[-115.27042,49.87567],[-115.27049,49.87572],[-115.27054,49.87577],[-115.2706,49.87583],[-115.27064,49.87587],[-115.27066,49.8759],[-115.27068,49.87593],[-115.27072,49.87596],[-115.27074,49.87598],[-115.27077,49.87602],[-115.27081,49.87606],[-115.27085,49.87612],[-115.27089,49.87617],[-115.27093,49.87624],[-115.27097,49.87629],[-115.27101,49.87636],[-115.27105,49.87641],[-115.2711,49.87647],[-115.27116,49.87653],[-115.2712,49.87657],[-115.27124,49.87662],[-115.27129,49.87667],[-115.27136,49.87673],[-115.27143,49.87679],[-115.27148,49.87687],[-115.27156,49.87695],[-115.27161,49.87701],[-115.27167,49.87707],[-115.27172,49.87712],[-115.27177,49.87719],[-115.27183,49.87724],[-115.27189,49.8773],[-115.27195,49.87737],[-115.272,49.87743],[-115.27206,49.87748],[-115.27208,49.87751],[-115.27211,49.87755],[-115.27213,49.87759],[-115.27218,49.87763],[-115.27222,49.87768],[-115.27226,49.87773],[-115.27232,49.87781],[-115.27239,49.87788],[-115.27244,49.87795],[-115.2725,49.87802],[-115.27256,49.8781],[-115.2726,49.87814],[-115.27263,49.87819],[-115.27267,49.87823],[-115.27269,49.87828],[-115.27272,49.87831],[-115.27275,49.87834],[-115.27279,49.87838],[-115.27283,49.87843],[-115.27287,49.87848],[-115.27291,49.87853],[-115.27295,49.87858],[-115.273,49.87863],[-115.27303,49.87868],[-115.27308,49.87873],[-115.27312,49.87878],[-115.27319,49.87886],[-115.27328,49.87895],[-115.27335,49.87904],[-115.27342,49.87912],[-115.27346,49.87916],[-115.27347,49.87919],[-115.2735,49.87923],[-115.27352,49.87927],[-115.27356,49.87933],[-115.27359,49.87937],[-115.27364,49.87944],[-115.27368,49.87949],[-115.27372,49.87954],[-115.27375,49.87961],[-115.2738,49.87966],[-115.27384,49.87973],[-115.27389,49.87979],[-115.27393,49.87984],[-115.27397,49.8799],[-115.274,49.87994],[-115.27401,49.87996],[-115.27404,49.87999],[-115.27407,49.88004],[-115.27409,49.88007],[-115.27412,49.88012],[-115.27416,49.88018],[-115.27417,49.8802],[-115.2742,49.88024],[-115.27424,49.88029],[-115.27428,49.88034],[-115.27432,49.88041],[-115.27436,49.88048],[-115.27441,49.88055],[-115.27445,49.88063],[-115.27449,49.88068],[-115.27451,49.88073],[-115.27454,49.88076],[-115.27457,49.8808],[-115.27459,49.88085],[-115.27462,49.88091],[-115.27465,49.88095],[-115.27466,49.88101],[-115.27466,49.88106],[-115.27465,49.88111],[-115.27465,49.88116],[-115.27466,49.8812],[-115.27466,49.88126],[-115.27467,49.88131],[-115.2747,49.88137],[-115.27471,49.8814],[-115.27473,49.88144],[-115.27475,49.88149],[-115.27476,49.88154],[-115.27478,49.8816],[-115.27479,49.88165],[-115.2748,49.88167],[-115.27481,49.88174],[-115.27481,49.88176],[-115.27482,49.88179],[-115.27484,49.88186],[-115.27486,49.88191],[-115.27487,49.88197],[-115.27489,49.88203],[-115.27492,49.88211],[-115.27496,49.88219],[-115.27502,49.88228],[-115.27506,49.88235],[-115.27508,49.88241],[-115.27511,49.88245],[-115.27512,49.88251],[-115.27515,49.88256],[-115.27517,49.88262],[-115.2752,49.88269],[-115.27521,49.88273],[-115.27522,49.88277],[-115.27523,49.88281],[-115.27525,49.88283],[-115.27526,49.88287],[-115.27529,49.88292],[-115.2753,49.88298],[-115.27532,49.88302],[-115.27534,49.88307],[-115.27535,49.88311],[-115.27535,49.88315],[-115.27536,49.8832],[-115.27536,49.88326],[-115.27535,49.88332],[-115.27537,49.88338],[-115.27536,49.88346],[-115.27536,49.88353],[-115.27537,49.8836],[-115.27538,49.88366],[-115.2754,49.88373],[-115.27542,49.88378],[-115.27546,49.88383],[-115.27549,49.88388],[-115.27553,49.88393],[-115.27555,49.88396],[-115.27561,49.88399],[-115.27565,49.88401],[-115.27572,49.88405],[-115.27579,49.88407],[-115.27586,49.88411],[-115.27592,49.88415],[-115.27599,49.88418],[-115.27605,49.8842],[-115.27612,49.88422],[-115.27617,49.88424],[-115.27621,49.88425],[-115.27627,49.88427],[-115.27634,49.88428],[-115.27639,49.88429],[-115.27646,49.88431],[-115.27659,49.88434],[-115.2767,49.88436],[-115.27681,49.88437],[-115.27692,49.88439],[-115.27701,49.8844],[-115.27713,49.88441],[-115.27726,49.88442],[-115.27738,49.88443],[-115.2775,49.88444],[-115.27761,49.88445],[-115.27769,49.88446],[-115.27778,49.88447],[-115.27787,49.88448],[-115.27797,49.8845],[-115.27808,49.88451],[-115.27821,49.88452],[-115.27832,49.88453],[-115.27842,49.88454],[-115.27851,49.88455],[-115.2786,49.88456],[-115.27872,49.88458],[-115.27885,49.88459],[-115.27897,49.88461],[-115.27909,49.88463],[-115.27921,49.88465],[-115.27926,49.88466],[-115.27932,49.88467],[-115.27939,49.88468],[-115.27945,49.88469],[-115.27954,49.8847],[-115.27961,49.88471],[-115.27966,49.88472],[-115.2797,49.88472],[-115.27976,49.88473],[-115.2798,49.88473],[-115.27988,49.88474],[-115.27998,49.88475],[-115.28009,49.88477],[-115.28018,49.88479],[-115.28027,49.88481],[-115.28037,49.88482],[-115.28048,49.88483],[-115.28058,49.88485],[-115.2807,49.88486],[-115.28084,49.88488],[-115.28094,49.8849],[-115.28102,49.88492],[-115.2811,49.88493],[-115.28117,49.88494],[-115.28124,49.88495],[-115.28135,49.88497],[-115.28146,49.88498],[-115.28157,49.88498],[-115.28169,49.88498],[-115.28178,49.88498],[-115.28185,49.88497],[-115.28194,49.88497],[-115.28202,49.88498],[-115.28212,49.88498],[-115.28221,49.88497],[-115.28234,49.88496],[-115.28247,49.88496],[-115.28258,49.88496],[-115.28267,49.88496],[-115.28279,49.88497],[-115.28284,49.88498],[-115.28287,49.88499],[-115.28292,49.88499],[-115.28295,49.885],[-115.28299,49.88501],[-115.28308,49.88504],[-115.28314,49.88508],[-115.28323,49.88513],[-115.28332,49.88518],[-115.28342,49.88525],[-115.2835,49.8853],[-115.28355,49.88536],[-115.28361,49.88539],[-115.28366,49.88544],[-115.28371,49.88548],[-115.28382,49.88551],[-115.28392,49.88554],[-115.28405,49.88557],[-115.28416,49.88558],[-115.28427,49.8856],[-115.28438,49.88561],[-115.28449,49.88562],[-115.28461,49.88565],[-115.28474,49.88567],[-115.28489,49.88569],[-115.28504,49.88572],[-115.28519,49.88573],[-115.28533,49.88575],[-115.28546,49.88576],[-115.2856,49.88578],[-115.28572,49.8858],[-115.28586,49.88582],[-115.28597,49.88584],[-115.2861,49.88586],[-115.28619,49.88587],[-115.2863,49.8859],[-115.28643,49.88592],[-115.28658,49.88595],[-115.28673,49.88598],[-115.28691,49.886],[-115.28704,49.88602],[-115.28715,49.88604],[-115.28726,49.88605],[-115.28735,49.88607],[-115.28747,49.88608],[-115.28755,49.8861],[-115.28763,49.88611],[-115.28771,49.88613],[-115.2878,49.88615],[-115.28784,49.88615],[-115.28787,49.88616],[-115.28794,49.88616],[-115.28803,49.88617],[-115.28813,49.88618],[-115.28824,49.88619],[-115.28835,49.8862],[-115.28838,49.8862],[-115.28849,49.88621],[-115.28863,49.88622],[-115.28874,49.88623],[-115.28887,49.88625],[-115.28899,49.88627],[-115.28907,49.88627],[-115.28917,49.88627],[-115.28925,49.88627],[-115.28934,49.88628],[-115.28941,49.88629],[-115.28949,49.8863],[-115.28957,49.88631],[-115.28966,49.88634],[-115.28975,49.88636],[-115.28985,49.8864],[-115.2899,49.88642],[-115.28994,49.88644],[-115.28997,49.88647],[-115.29001,49.8865],[-115.29005,49.88652],[-115.29009,49.88653],[-115.29015,49.88656],[-115.2902,49.88658],[-115.29025,49.8866],[-115.29029,49.88662],[-115.29033,49.88664],[-115.29037,49.88666],[-115.29041,49.8867],[-115.29045,49.88674],[-115.2905,49.88677],[-115.29057,49.88683],[-115.29064,49.88687],[-115.29071,49.88689],[-115.29078,49.88693],[-115.29085,49.88697],[-115.2909,49.887],[-115.29097,49.88703],[-115.29104,49.88707],[-115.29109,49.88711],[-115.29113,49.88713],[-115.29117,49.88716],[-115.29123,49.8872],[-115.29128,49.88724],[-115.29135,49.88729],[-115.29143,49.88734],[-115.29153,49.8874],[-115.29161,49.88746],[-115.29168,49.8875],[-115.29174,49.88755],[-115.29181,49.88758],[-115.29196,49.88764],[-115.29205,49.88768],[-115.29209,49.8877],[-115.29221,49.88774],[-115.29229,49.88778],[-115.29233,49.8878],[-115.29237,49.88782],[-115.29243,49.88783],[-115.29247,49.88785],[-115.29253,49.88786],[-115.29262,49.88788],[-115.29272,49.88789],[-115.2928,49.88788],[-115.29289,49.88787],[-115.29299,49.88785],[-115.2931,49.88783],[-115.29322,49.88782],[-115.29334,49.8878],[-115.29343,49.8878],[-115.2935,49.8878],[-115.29356,49.88781],[-115.29364,49.88782],[-115.29372,49.88783],[-115.29382,49.88784],[-115.29392,49.88786],[-115.29397,49.88787],[-115.29403,49.8879],[-115.29408,49.88791],[-115.29412,49.88794],[-115.29418,49.88796],[-115.29425,49.888],[-115.2943,49.88803],[-115.29445,49.8881],[-115.2946,49.88817],[-115.29474,49.88823],[-115.29485,49.88829],[-115.29501,49.88839],[-115.29519,49.8885],[-115.29538,49.88862],[-115.29552,49.8887],[-115.29559,49.88875],[-115.29578,49.88887],[-115.29587,49.88893],[-115.29597,49.88899],[-115.29605,49.88904],[-115.29614,49.8891],[-115.29624,49.88916],[-115.29633,49.88923],[-115.29644,49.8893],[-115.29652,49.88936],[-115.29659,49.88943],[-115.29665,49.88948],[-115.29666,49.88955],[-115.2967,49.88964],[-115.29672,49.88975],[-115.29676,49.88986],[-115.29678,49.88997],[-115.29682,49.89012],[-115.29684,49.89027],[-115.29686,49.89041],[-115.29689,49.89055],[-115.2969,49.89069],[-115.29699,49.89128],[-115.29703,49.89165],[-115.29705,49.89178],[-115.29717,49.89273],[-115.29718,49.89279],[-115.29733,49.89375],[-115.29748,49.89456],[-115.29761,49.89501],[-115.29763,49.89507],[-115.29766,49.89518],[-115.29768,49.89533],[-115.2977,49.89549],[-115.2977,49.89555],[-115.29771,49.89564],[-115.29772,49.89575],[-115.29772,49.89586],[-115.29771,49.89596],[-115.2977,49.89605],[-115.29768,49.89613],[-115.29769,49.8962],[-115.2977,49.89625],[-115.2977,49.89632],[-115.29771,49.89637],[-115.29773,49.89639],[-115.29772,49.89643],[-115.29775,49.89652],[-115.29779,49.8966],[-115.29781,49.89669],[-115.29784,49.89675],[-115.29785,49.8968],[-115.29786,49.89688],[-115.29787,49.89697],[-115.29787,49.89708],[-115.29788,49.89719],[-115.29789,49.8973],[-115.2979,49.89733],[-115.29791,49.89737],[-115.29791,49.89741],[-115.29792,49.89744],[-115.29794,49.89748],[-115.29796,49.89753],[-115.29799,49.8976],[-115.29802,49.89765],[-115.29804,49.8977],[-115.29807,49.89774],[-115.29809,49.89782],[-115.2981,49.89792],[-115.29811,49.89802],[-115.29811,49.89804],[-115.29811,49.89816],[-115.29812,49.89827],[-115.29811,49.89837],[-115.29811,49.89848],[-115.29811,49.89857],[-115.29812,49.89867],[-115.29812,49.89876],[-115.29811,49.89883],[-115.29811,49.89889],[-115.29812,49.89895],[-115.29812,49.89899],[-115.29812,49.89903],[-115.29812,49.89906],[-115.29812,49.89909],[-115.29812,49.89913],[-115.29811,49.89916],[-115.29811,49.89921],[-115.29811,49.89924],[-115.29811,49.89927],[-115.29811,49.8993],[-115.29811,49.89933],[-115.29811,49.89936],[-115.29811,49.89942],[-115.2981,49.89948],[-115.2981,49.89954],[-115.2981,49.89959],[-115.29808,49.89963],[-115.29808,49.89967],[-115.29807,49.89971],[-115.29805,49.89977],[-115.29802,49.89987],[-115.298,49.89992],[-115.29799,49.89996],[-115.29796,49.90001],[-115.29794,49.90005],[-115.29793,49.9001],[-115.29788,49.90025],[-115.29783,49.9004],[-115.29782,49.90054],[-115.29778,49.90067],[-115.29778,49.90073],[-115.29777,49.90077],[-115.29776,49.90081],[-115.29773,49.90088],[-115.29772,49.90095],[-115.29769,49.90103],[-115.29766,49.90111],[-115.29761,49.90127],[-115.29758,49.90142],[-115.29753,49.90157],[-115.29747,49.90172],[-115.29741,49.90188],[-115.29738,49.90193],[-115.29736,49.90198],[-115.29733,49.90203],[-115.29732,49.90208],[-115.2973,49.90211],[-115.29727,49.90217],[-115.29723,49.90224],[-115.29718,49.90232],[-115.29717,49.90236]]}},
{"type":"Feature","properties":{"spotId":"F-grouse-walk-0034","kind":"walk","km":2.17,"climbM":319,"name":"720 m S of Goathoof Creek","flags":[]},"geometry":{"type":"LineString","coordinates":[[-115.32044,49.73901],[-115.29673,49.7511]]}},
{"type":"Feature","properties":{"spotId":"F-grouse-walk-0034","kind":"roadside","km":3.58,"climbM":15,"name":"720 m S of Goathoof Creek","flags":[]},"geometry":{"type":"LineString","coordinates":[[-115.29673,49.7511],[-115.29675,49.75114],[-115.29677,49.75118],[-115.29679,49.75127],[-115.29682,49.75136],[-115.29686,49.75145],[-115.29689,49.75151],[-115.29693,49.75157],[-115.29698,49.75164],[-115.29701,49.75168],[-115.29704,49.75171],[-115.29709,49.75175],[-115.29716,49.7518],[-115.29718,49.75182],[-115.29721,49.75183],[-115.29727,49.75185],[-115.2973,49.75186],[-115.29733,49.75188],[-115.29741,49.75192],[-115.29746,49.75195],[-115.29754,49.75202],[-115.29757,49.75204],[-115.29766,49.7521],[-115.2977,49.75214],[-115.29776,49.7522],[-115.29779,49.75223],[-115.29785,49.7523],[-115.29789,49.75235],[-115.29793,49.75241],[-115.29802,49.75246],[-115.29806,49.75252],[-115.29809,49.75259],[-115.29813,49.75268],[-115.29816,49.75278],[-115.29818,49.75285],[-115.29817,49.75293],[-115.29817,49.75306],[-115.29817,49.75309],[-115.29819,49.75316],[-115.2982,49.75319],[-115.2982,49.75325],[-115.29821,49.75328],[-115.2982,49.75333],[-115.29819,49.75341],[-115.29815,49.75355],[-115.29814,49.75364],[-115.29813,49.75368],[-115.29812,49.75372],[-115.29811,49.75375],[-115.29809,49.75377],[-115.29805,49.75383],[-115.29796,49.75396],[-115.29791,49.75402],[-115.29787,49.75407],[-115.29779,49.75415],[-115.29769,49.75426],[-115.29762,49.75433],[-115.29761,49.75441],[-115.29762,49.75448],[-115.29761,49.75455],[-115.29757,49.75463],[-115.29756,49.75468],[-115.29755,49.75472],[-115.29755,49.75479],[-115.29755,49.75481],[-115.29754,49.75485],[-115.29753,49.75488],[-115.29751,49.75491],[-115.29749,49.75494],[-115.29743,49.755],[-115.29741,49.75504],[-115.29739,49.75508],[-115.29738,49.75511],[-115.29736,49.75518],[-115.29735,49.75521],[-115.29734,49.75524],[-115.29729,49.75531],[-115.29728,49.75535],[-115.29725,49.75542],[-115.29724,49.75544],[-115.29723,49.75547],[-115.29719,49.75553],[-115.29717,49.75558],[-115.29714,49.75565],[-115.29712,49.75571],[-115.29711,49.75574],[-115.29711,49.75578],[-115.29712,49.75582],[-115.29715,49.75587],[-115.29716,49.75589],[-115.29716,49.75592],[-115.29714,49.75598],[-115.29714,49.75604],[-115.29715,49.75609],[-115.29716,49.75614],[-115.29715,49.75622],[-115.29708,49.75629],[-115.29696,49.75629],[-115.29686,49.75625],[-115.29681,49.75622],[-115.29677,49.75615],[-115.29677,49.75609],[-115.29675,49.75602],[-115.2967,49.75596],[-115.29657,49.75589],[-115.29646,49.75584],[-115.29629,49.75576],[-115.29619,49.7557],[-115.29614,49.75559],[-115.29613,49.75547],[-115.29613,49.75544],[-115.29611,49.75537],[-115.29609,49.75527],[-115.29604,49.75513],[-115.29602,49.75499],[-115.29594,49.75488],[-115.29587,49.75482],[-115.29581,49.75476],[-115.29571,49.7546],[-115.29566,49.75454],[-115.29564,49.7545],[-115.29561,49.75449],[-115.29556,49.75445],[-115.29554,49.75444],[-115.29552,49.75442],[-115.29549,49.75436],[-115.29545,49.75432],[-115.29538,49.75425],[-115.29531,49.75416],[-115.29526,49.75409],[-115.29524,49.75402],[-115.29518,49.75397],[-115.29512,49.75393],[-115.295,49.75387],[-115.2949,49.75382],[-115.29487,49.75377],[-115.29484,49.75371],[-115.29472,49.75363],[-115.29459,49.75356],[-115.29448,49.75353],[-115.29439,49.75349],[-115.29433,49.75343],[-115.29427,49.75341],[-115.29414,49.7534],[-115.29403,49.75341],[-115.29392,49.75342],[-115.2938,49.75344],[-115.2937,49.75344],[-115.2936,49.75348],[-115.29349,49.75353],[-115.29338,49.7536],[-115.29332,49.75363],[-115.29325,49.75368],[-115.29322,49.75369],[-115.29317,49.75371],[-115.29306,49.75376],[-115.29302,49.75378],[-115.29295,49.7538],[-115.29287,49.75382],[-115.29281,49.75383],[-115.2926,49.75387],[-115.2924,49.7539],[-115.29222,49.75396],[-115.29213,49.754],[-115.29203,49.75407],[-115.29193,49.75409],[-115.2918,49.75409],[-115.29155,49.75413],[-115.29145,49.75416],[-115.29132,49.75424],[-115.29115,49.75436],[-115.29107,49.75448],[-115.291,49.75453],[-115.29069,49.75471],[-115.29063,49.75473],[-115.29058,49.75478],[-115.29059,49.75485],[-115.29054,49.75495],[-115.2905,49.75499],[-115.29033,49.75507],[-115.29024,49.75516],[-115.29018,49.75525],[-115.29014,49.7553],[-115.29002,49.75536],[-115.28986,49.75544],[-115.28971,49.75543],[-115.28961,49.75542],[-115.28952,49.75539],[-115.28948,49.75535],[-115.28947,49.75531],[-115.28942,49.75526],[-115.28934,49.75521],[-115.28928,49.75518],[-115.28924,49.75511],[-115.28923,49.75506],[-115.28924,49.75493],[-115.28923,49.7548],[-115.28923,49.75463],[-115.28924,49.75452],[-115.28924,49.75449],[-115.28923,49.75447],[-115.28922,49.75441],[-115.28916,49.7543],[-115.28903,49.75419],[-115.28897,49.7541],[-115.28895,49.75399],[-115.28893,49.75387],[-115.28892,49.75384],[-115.28891,49.7538],[-115.28889,49.75377],[-115.28883,49.75367],[-115.28877,49.75359],[-115.28866,49.75345],[-115.28863,49.75341],[-115.28852,49.75329],[-115.28849,49.75325],[-115.28847,49.75321],[-115.28841,49.75305],[-115.28832,49.75288],[-115.28829,49.75273],[-115.28824,49.75265],[-115.28823,49.75262],[-115.28818,49.75244],[-115.28817,49.75233],[-115.28814,49.75228],[-115.288,49.75217],[-115.28791,49.7521],[-115.28776,49.75201],[-115.28764,49.75199],[-115.28755,49.752],[-115.28746,49.75201],[-115.28729,49.75206],[-115.28724,49.7521],[-115.28718,49.75217],[-115.28718,49.7522],[-115.28718,49.75224],[-115.28719,49.75228],[-115.28722,49.75238],[-115.28724,49.75246],[-115.28724,49.75249],[-115.28724,49.75257],[-115.28725,49.7527],[-115.28726,49.75279],[-115.28728,49.75289],[-115.28727,49.75299],[-115.28721,49.75308],[-115.28709,49.75318],[-115.28709,49.75327],[-115.28708,49.75337],[-115.28711,49.75352],[-115.28713,49.75359],[-115.28714,49.75368],[-115.28714,49.75375],[-115.28714,49.7538],[-115.28714,49.75385],[-115.28713,49.7539],[-115.28711,49.75396],[-115.28706,49.75409],[-115.28702,49.75421],[-115.28701,49.75428],[-115.28699,49.75437],[-115.28697,49.75445],[-115.28696,49.75448],[-115.28695,49.75451],[-115.28692,49.75457],[-115.28689,49.75461],[-115.28686,49.75465],[-115.28683,49.75467],[-115.2868,49.75469],[-115.28678,49.7547],[-115.28665,49.75475],[-115.28662,49.75476],[-115.28659,49.75477],[-115.28656,49.75479],[-115.28653,49.75482],[-115.28649,49.75485],[-115.28645,49.75489],[-115.28642,49.75492],[-115.28637,49.75497],[-115.28631,49.75505],[-115.28625,49.75512],[-115.28624,49.75515],[-115.28623,49.75517],[-115.28623,49.75519],[-115.28623,49.75522],[-115.28626,49.75531],[-115.28627,49.75533],[-115.28629,49.75544],[-115.28629,49.75554],[-115.28629,49.75565],[-115.28627,49.75575],[-115.28626,49.75581],[-115.28621,49.75592],[-115.2862,49.75598],[-115.28619,49.75607],[-115.28618,49.7561],[-115.28615,49.75616],[-115.28614,49.75618],[-115.28613,49.7562],[-115.28614,49.75622],[-115.28615,49.75625],[-115.28617,49.75627],[-115.28619,49.75629],[-115.28622,49.75631],[-115.28626,49.75632],[-115.28632,49.75634],[-115.28636,49.75634],[-115.28644,49.75635],[-115.28648,49.75636],[-115.28654,49.75638],[-115.28659,49.75639],[-115.28672,49.75642],[-115.28684,49.75646],[-115.2869,49.75647],[-115.28699,49.75649],[-115.28712,49.75651],[-115.28723,49.75652],[-115.28729,49.75654],[-115.28734,49.75656],[-115.28741,49.75659],[-115.2875,49.75664],[-115.28768,49.75677],[-115.28776,49.75683],[-115.28791,49.75692],[-115.288,49.757],[-115.28803,49.75709],[-115.28803,49.75714],[-115.28801,49.75721],[-115.288,49.75726],[-115.28799,49.75729],[-115.28799,49.75731],[-115.288,49.75738],[-115.28799,49.75746],[-115.28798,49.75753],[-115.28796,49.75759],[-115.28793,49.75764],[-115.2879,49.75768],[-115.28786,49.75771],[-115.28781,49.75775],[-115.28775,49.75779],[-115.28767,49.75784],[-115.28763,49.75785],[-115.2876,49.75786],[-115.28754,49.75788],[-115.28748,49.75789],[-115.28742,49.7579],[-115.28736,49.7579],[-115.28733,49.75789],[-115.28729,49.75789],[-115.28716,49.75785],[-115.28712,49.75784],[-115.28701,49.75782],[-115.28693,49.75781],[-115.28683,49.7578],[-115.28666,49.75779],[-115.28648,49.75778],[-115.28643,49.75777],[-115.28638,49.75777],[-115.28633,49.75778],[-115.28622,49.75779],[-115.28618,49.75779],[-115.28608,49.75779],[-115.28592,49.75779],[-115.28576,49.75778],[-115.28564,49.75777],[-115.2856,49.75777],[-115.28549,49.75775],[-115.28546,49.75774],[-115.28543,49.75774],[-115.2854,49.75774],[-115.28536,49.75775],[-115.28522,49.75777],[-115.28514,49.75778],[-115.28508,49.75779],[-115.285,49.75782],[-115.28494,49.75784],[-115.28489,49.75786],[-115.28484,49.75788],[-115.28479,49.7579],[-115.28475,49.75793],[-115.28471,49.75795],[-115.28468,49.75798],[-115.28464,49.75801],[-115.28461,49.75804],[-115.28458,49.75808],[-115.28454,49.75816],[-115.28452,49.7582],[-115.28449,49.75822],[-115.28443,49.75829],[-115.28441,49.75832],[-115.28438,49.75835],[-115.28433,49.75844],[-115.2843,49.75848],[-115.28422,49.75858],[-115.28417,49.75863],[-115.28415,49.75866],[-115.28414,49.75869],[-115.28412,49.75876],[-115.2841,49.7588],[-115.28406,49.75888],[-115.28404,49.75892],[-115.28401,49.75902],[-115.28397,49.75912],[-115.28391,49.75922],[-115.28386,49.75934],[-115.28382,49.75942],[-115.2838,49.75944],[-115.28378,49.75946],[-115.28377,49.75948],[-115.28372,49.75952],[-115.2837,49.75954],[-115.28369,49.75957],[-115.28366,49.75962],[-115.28361,49.75973],[-115.2836,49.75976],[-115.28359,49.75978],[-115.28359,49.75982],[-115.28361,49.75991],[-115.28362,49.75998],[-115.28361,49.76003],[-115.28363,49.76007],[-115.28368,49.76012],[-115.28368,49.76017],[-115.28361,49.76021],[-115.28353,49.76022],[-115.28338,49.76022],[-115.28324,49.76021],[-115.28313,49.76022],[-115.28303,49.76025],[-115.28295,49.7603],[-115.28291,49.76034],[-115.28288,49.7604],[-115.28282,49.76046],[-115.28273,49.76053],[-115.28266,49.76054],[-115.28257,49.76053],[-115.28244,49.76048],[-115.28235,49.76042],[-115.28225,49.76037],[-115.2821,49.76032],[-115.28198,49.76026],[-115.28195,49.76025],[-115.28188,49.76023],[-115.28181,49.76023],[-115.28177,49.76024],[-115.28172,49.76024],[-115.28168,49.76025],[-115.28164,49.76026],[-115.2816,49.76028],[-115.28157,49.7603],[-115.28154,49.76033],[-115.28147,49.7604],[-115.28145,49.76042],[-115.28143,49.76044],[-115.28135,49.76048],[-115.28132,49.7605],[-115.28129,49.76053],[-115.28121,49.76061],[-115.28114,49.76067],[-115.2811,49.76072],[-115.28106,49.76077],[-115.28101,49.76086],[-115.281,49.76088],[-115.28097,49.76093],[-115.28095,49.76097],[-115.28093,49.76098],[-115.28091,49.761],[-115.28088,49.76102],[-115.28077,49.76109],[-115.28073,49.76112],[-115.28069,49.76115],[-115.28066,49.76119],[-115.28063,49.76122],[-115.28061,49.76125],[-115.28059,49.76128],[-115.28057,49.76131],[-115.28057,49.76133],[-115.28056,49.76137],[-115.28055,49.76141],[-115.28055,49.76148],[-115.28054,49.76156],[-115.28053,49.76159],[-115.28052,49.76163],[-115.2805,49.76166],[-115.28049,49.76169],[-115.28047,49.7617],[-115.28045,49.76172],[-115.28042,49.76174],[-115.28038,49.76177],[-115.28032,49.76181],[-115.28027,49.76184],[-115.28021,49.76186],[-115.28013,49.76188],[-115.2801,49.76188],[-115.28,49.76188],[-115.27996,49.76188],[-115.27993,49.76189],[-115.27984,49.76191]]}},
{"type":"Feature","properties":{"spotId":"F-moose-backcountry-0023","kind":"backcountry","km":7.74,"climbM":1605,"name":"1.3 km E of Quinn (Queen) Creek","flags":[]},"geometry":{"type":"LineString","coordinates":[[-115.2651,49.86609],[-115.27835,49.93512]]}},
{"type":"Feature","properties":{"spotId":"F-moose-backcountry-0024","kind":"backcountry","km":7.48,"climbM":26,"name":"By Goat Creek","flags":[]},"geometry":{"type":"LineString","coordinates":[[-115.33329,49.89323],[-115.33196,49.89419],[-115.33193,49.8942],[-115.3318,49.89427],[-115.33168,49.89432],[-115.33155,49.89438],[-115.33143,49.89443],[-115.33131,49.89449],[-115.33117,49.89456],[-115.33102,49.89464],[-115.3309,49.89471],[-115.33078,49.89477],[-115.33068,49.89483],[-115.33054,49.89489],[-115.3304,49.89497],[-115.33024,49.89505],[-115.33009,49.89512],[-115.32993,49.89521],[-115.32979,49.89529],[-115.32965,49.89537],[-115.32951,49.89544],[-115.32938,49.89551],[-115.32925,49.89557],[-115.32912,49.89563],[-115.32898,49.89571],[-115.32887,49.89576],[-115.32878,49.89582],[-115.32873,49.89586],[-115.3287,49.89588],[-115.3286,49.89595],[-115.32847,49.89603],[-115.32836,49.8961],[-115.32813,49.89622],[-115.32803,49.89625],[-115.32793,49.89629],[-115.32785,49.89632],[-115.3278,49.89633],[-115.32775,49.89635],[-115.32761,49.89637],[-115.32745,49.89641],[-115.32733,49.89643],[-115.32719,49.89646],[-115.32709,49.89647],[-115.32699,49.89649],[-115.32688,49.89652],[-115.32675,49.89655],[-115.32661,49.89657],[-115.32649,49.89661],[-115.32632,49.89666],[-115.32615,49.8967],[-115.32599,49.89674],[-115.32583,49.89677],[-115.32569,49.8968],[-115.32562,49.89681],[-115.32553,49.89683],[-115.32535,49.89685],[-115.32518,49.89688],[-115.32503,49.8969],[-115.3249,49.89692],[-115.32477,49.89694],[-115.32462,49.89697],[-115.32445,49.89701],[-115.32426,49.89704],[-115.32414,49.89707],[-115.32406,49.89709],[-115.32396,49.89711],[-115.32385,49.89714],[-115.32372,49.89717],[-115.32358,49.8972],[-115.3234,49.89725],[-115.32323,49.8973],[-115.32309,49.89734],[-115.32296,49.89738],[-115.32285,49.89741],[-115.32271,49.89744],[-115.32256,49.89749],[-115.32239,49.89753],[-115.32236,49.89754],[-115.32223,49.89757],[-115.32208,49.89761],[-115.32192,49.89763],[-115.32185,49.89765],[-115.32171,49.89766],[-115.32159,49.89768],[-115.32146,49.89769],[-115.3213,49.89769],[-115.32113,49.8977],[-115.32099,49.89771],[-115.32096,49.89771],[-115.32086,49.89771],[-115.32074,49.89771],[-115.3206,49.89771],[-115.32052,49.89771],[-115.32043,49.8977],[-115.32038,49.8977],[-115.32035,49.8977],[-115.32028,49.8977],[-115.3202,49.89769],[-115.32003,49.89768],[-115.31986,49.89769],[-115.31969,49.89771],[-115.31951,49.89771],[-115.3193,49.89772],[-115.31912,49.89773],[-115.31897,49.89772],[-115.31886,49.89772],[-115.31883,49.89772],[-115.31869,49.89772],[-115.31854,49.89773],[-115.31837,49.89774],[-115.31822,49.89775],[-115.31806,49.89777],[-115.31796,49.89779],[-115.31792,49.89779],[-115.31777,49.89781],[-115.31768,49.89783],[-115.3176,49.89784],[-115.31752,49.89785],[-115.31742,49.89784],[-115.31731,49.89782],[-115.3172,49.8978],[-115.3171,49.89778],[-115.31702,49.89775],[-115.31699,49.89773],[-115.31695,49.89772],[-115.31685,49.89768],[-115.31673,49.89765],[-115.31661,49.89761],[-115.31647,49.89758],[-115.31634,49.89757],[-115.31622,49.89757],[-115.31618,49.89757],[-115.31612,49.89759],[-115.31606,49.8976],[-115.31599,49.89762],[-115.31592,49.89764],[-115.31578,49.89767],[-115.31567,49.8977],[-115.31559,49.89772],[-115.31554,49.89773],[-115.3155,49.89774],[-115.3154,49.89775],[-115.31532,49.89775],[-115.31525,49.89775],[-115.31517,49.89775],[-115.31508,49.89775],[-115.315,49.89775],[-115.31488,49.89773],[-115.31476,49.89772],[-115.31464,49.8977],[-115.31452,49.89768],[-115.31435,49.89765],[-115.31417,49.89763],[-115.314,49.89761],[-115.31386,49.89759],[-115.31372,49.89758],[-115.3136,49.89757],[-115.31347,49.89756],[-115.31336,49.89755],[-115.31324,49.89753],[-115.31311,49.89751],[-115.31299,49.8975],[-115.31292,49.89748],[-115.31284,49.89747],[-115.31275,49.89746],[-115.31266,49.89747],[-115.31257,49.89749],[-115.31253,49.89749],[-115.3125,49.8975],[-115.31245,49.89753],[-115.31237,49.89756],[-115.31233,49.89758],[-115.31228,49.89761],[-115.31219,49.89764],[-115.31208,49.89766],[-115.31197,49.89768],[-115.31185,49.8977],[-115.31176,49.89772],[-115.31167,49.89773],[-115.3116,49.89774],[-115.31152,49.89774],[-115.31144,49.89773],[-115.31134,49.89771],[-115.31124,49.89767],[-115.31116,49.89764],[-115.31109,49.89759],[-115.31107,49.89758],[-115.31102,49.89755],[-115.31096,49.89752],[-115.31093,49.89749],[-115.31087,49.89747],[-115.31083,49.89744],[-115.31079,49.89742],[-115.31074,49.89741],[-115.31068,49.8974],[-115.31061,49.89739],[-115.31054,49.89739],[-115.31047,49.89739],[-115.3104,49.8974],[-115.31032,49.89739],[-115.31024,49.89738],[-115.31014,49.89737],[-115.31003,49.89737],[-115.30992,49.89738],[-115.30981,49.89737],[-115.30972,49.89738],[-115.30964,49.89739],[-115.30957,49.8974],[-115.3095,49.8974],[-115.30941,49.8974],[-115.30933,49.8974],[-115.30923,49.89741],[-115.30915,49.89742],[-115.30905,49.89743],[-115.30894,49.89744],[-115.30884,49.89745],[-115.30873,49.89747],[-115.30867,49.89748],[-115.30862,49.89749],[-115.30849,49.8975],[-115.30846,49.89751],[-115.30842,49.89751],[-115.30838,49.89751],[-115.30834,49.89751],[-115.30831,49.89751],[-115.30827,49.89751],[-115.30823,49.89751],[-115.30819,49.89751],[-115.30814,49.89751],[-115.3081,49.89751],[-115.30807,49.89751],[-115.30805,49.89751],[-115.308,49.8975],[-115.30796,49.8975],[-115.30791,49.89749],[-115.30782,49.89748],[-115.30774,49.89748],[-115.30769,49.89747],[-115.30762,49.89747],[-115.30756,49.89746],[-115.30745,49.89744],[-115.30734,49.89742],[-115.30723,49.89739],[-115.30713,49.89737],[-115.30702,49.89734],[-115.30697,49.89732],[-115.30691,49.89731],[-115.30684,49.89729],[-115.30677,49.89728],[-115.3067,49.89727],[-115.30666,49.89727],[-115.30662,49.89727],[-115.30659,49.89727],[-115.30655,49.89727],[-115.30652,49.89727],[-115.30647,49.89727],[-115.3064,49.89727],[-115.30633,49.89727],[-115.30627,49.89727],[-115.30622,49.89727],[-115.30613,49.89727],[-115.30606,49.89727],[-115.30599,49.89726],[-115.30591,49.89724],[-115.30583,49.89723],[-115.30577,49.89722],[-115.30569,49.89719],[-115.30566,49.89719],[-115.30562,49.89718],[-115.30555,49.89718],[-115.3055,49.89718],[-115.30543,49.89717],[-115.30537,49.89718],[-115.30531,49.89718],[-115.30527,49.89718],[-115.30524,49.89718],[-115.30522,49.89718],[-115.30519,49.89718],[-115.30511,49.89718],[-115.30504,49.89718],[-115.30497,49.89718],[-115.30492,49.89718],[-115.30487,49.89717],[-115.30467,49.89715],[-115.30448,49.89712],[-115.30443,49.89711],[-115.30426,49.89708],[-115.30404,49.89705],[-115.30383,49.89703],[-115.30369,49.89701],[-115.30354,49.89701],[-115.30338,49.897],[-115.30325,49.89697],[-115.3031,49.89692],[-115.30303,49.89688],[-115.30296,49.89684],[-115.3029,49.89681],[-115.30285,49.89678],[-115.3028,49.89674],[-115.30274,49.8967],[-115.30262,49.89664],[-115.30255,49.89661],[-115.30245,49.89659],[-115.3024,49.89659],[-115.30233,49.89661],[-115.3023,49.89663],[-115.30227,49.89664],[-115.30224,49.89666],[-115.30221,49.89669],[-115.30217,49.89674],[-115.30215,49.89676],[-115.30214,49.89678],[-115.30212,49.89681],[-115.30211,49.89684],[-115.30208,49.89687],[-115.30205,49.89691],[-115.30202,49.89695],[-115.30199,49.89699],[-115.30195,49.89703],[-115.30193,49.89707],[-115.30191,49.89709],[-115.30189,49.89711],[-115.30188,49.89713],[-115.30183,49.89717],[-115.30182,49.89719],[-115.30178,49.8972],[-115.30175,49.89722],[-115.30171,49.89723],[-115.30165,49.89725],[-115.30161,49.89725],[-115.30157,49.89727],[-115.30152,49.89728],[-115.30148,49.89728],[-115.30144,49.89729],[-115.30138,49.89729],[-115.30133,49.89729],[-115.30127,49.89728],[-115.30122,49.89728],[-115.30098,49.89726],[-115.30077,49.89724],[-115.30056,49.89722],[-115.30034,49.89719],[-115.30008,49.89716],[-115.2999,49.89713],[-115.29975,49.89711],[-115.29959,49.89709],[-115.29946,49.89706],[-115.29932,49.89704],[-115.29921,49.89703],[-115.2991,49.89701],[-115.29899,49.89699],[-115.29887,49.89697],[-115.29878,49.89694],[-115.29871,49.89693],[-115.29864,49.89691],[-115.29856,49.89689],[-115.29849,49.89687],[-115.29841,49.89684],[-115.29838,49.89682],[-115.29834,49.89681],[-115.29827,49.89677],[-115.29823,49.89675],[-115.29816,49.89672],[-115.29812,49.8967],[-115.29808,49.89667],[-115.29804,49.89664],[-115.29798,49.89661],[-115.29794,49.89658],[-115.29791,49.89656],[-115.29789,49.89653],[-115.29786,49.89652],[-115.29782,49.89649],[-115.29779,49.89645],[-115.29773,49.89639],[-115.29771,49.89637],[-115.2977,49.89632],[-115.2977,49.89625],[-115.29769,49.8962],[-115.29768,49.89613],[-115.2977,49.89605],[-115.29771,49.89596],[-115.29772,49.89586],[-115.29772,49.89575],[-115.29771,49.89564],[-115.2977,49.89555],[-115.2977,49.89549],[-115.29768,49.89533],[-115.29766,49.89518],[-115.29763,49.89507],[-115.29761,49.89501],[-115.29748,49.89456],[-115.29733,49.89375],[-115.29718,49.89279],[-115.29717,49.89273],[-115.29705,49.89178],[-115.29703,49.89165],[-115.29699,49.89128],[-115.2969,49.89069],[-115.29689,49.89055],[-115.29686,49.89041],[-115.29684,49.89027],[-115.29682,49.89012],[-115.29678,49.88997],[-115.29676,49.88986],[-115.29672,49.88975],[-115.2967,49.88964],[-115.29666,49.88955],[-115.29665,49.88948],[-115.29659,49.88943],[-115.29652,49.88936],[-115.29644,49.8893],[-115.29633,49.88923],[-115.29624,49.88916],[-115.29614,49.8891],[-115.29605,49.88904],[-115.29597,49.88899],[-115.29587,49.88893],[-115.29578,49.88887],[-115.29559,49.88875],[-115.29552,49.8887],[-115.29538,49.88862],[-115.29519,49.8885],[-115.29501,49.88839],[-115.29485,49.88829],[-115.29474,49.88823],[-115.2946,49.88817],[-115.29445,49.8881],[-115.2943,49.88803],[-115.29425,49.888],[-115.29418,49.88796],[-115.29412,49.88794],[-115.29408,49.88791],[-115.29403,49.8879],[-115.29397,49.88787],[-115.29392,49.88786],[-115.29382,49.88784],[-115.29372,49.88783],[-115.29364,49.88782],[-115.29356,49.88781],[-115.2935,49.8878],[-115.29343,49.8878],[-115.29334,49.8878],[-115.29322,49.88782],[-115.2931,49.88783],[-115.29299,49.88785],[-115.29289,49.88787],[-115.2928,49.88788],[-115.29272,49.88789],[-115.29262,49.88788],[-115.29253,49.88786],[-115.29247,49.88785],[-115.29243,49.88783],[-115.29237,49.88782],[-115.29233,49.8878],[-115.29229,49.88778],[-115.29221,49.88774],[-115.29209,49.8877],[-115.29205,49.88768],[-115.29196,49.88764],[-115.29181,49.88758],[-115.29174,49.88755],[-115.29168,49.8875],[-115.29161,49.88746],[-115.29153,49.8874],[-115.29143,49.88734],[-115.29135,49.88729],[-115.29128,49.88724],[-115.29123,49.8872],[-115.29117,49.88716],[-115.29113,49.88713],[-115.29109,49.88711],[-115.29104,49.88707],[-115.29097,49.88703],[-115.2909,49.887],[-115.29085,49.88697],[-115.29078,49.88693],[-115.29071,49.88689],[-115.29064,49.88687],[-115.29057,49.88683],[-115.2905,49.88677],[-115.29045,49.88674],[-115.29041,49.8867],[-115.29037,49.88666],[-115.29033,49.88664],[-115.29029,49.88662],[-115.29025,49.8866],[-115.2902,49.88658],[-115.29015,49.88656],[-115.29009,49.88653],[-115.29005,49.88652],[-115.29001,49.8865],[-115.28997,49.88647],[-115.28994,49.88644],[-115.2899,49.88642],[-115.28985,49.8864],[-115.28975,49.88636],[-115.28966,49.88634],[-115.28957,49.88631],[-115.28949,49.8863],[-115.28941,49.88629],[-115.28934,49.88628],[-115.28925,49.88627],[-115.28917,49.88627],[-115.28907,49.88627],[-115.28899,49.88627],[-115.28887,49.88625],[-115.28874,49.88623],[-115.28863,49.88622],[-115.28849,49.88621],[-115.28838,49.8862],[-115.28835,49.8862],[-115.28824,49.88619],[-115.28813,49.88618],[-115.28803,49.88617],[-115.28794,49.88616],[-115.28787,49.88616],[-115.28784,49.88615],[-115.2878,49.88615],[-115.28771,49.88613],[-115.28763,49.88611],[-115.28755,49.8861],[-115.28747,49.88608],[-115.28735,49.88607],[-115.28726,49.88605],[-115.28715,49.88604],[-115.28704,49.88602],[-115.28691,49.886],[-115.28673,49.88598],[-115.28658,49.88595],[-115.28643,49.88592],[-115.2863,49.8859],[-115.28619,49.88587],[-115.2861,49.88586],[-115.28597,49.88584],[-115.28586,49.88582],[-115.28572,49.8858],[-115.2856,49.88578],[-115.28546,49.88576],[-115.28533,49.88575],[-115.28519,49.88573],[-115.28504,49.88572],[-115.28489,49.88569],[-115.28474,49.88567],[-115.28461,49.88565],[-115.28449,49.88562],[-115.28438,49.88561],[-115.28427,49.8856],[-115.28416,49.88558],[-115.28405,49.88557],[-115.28392,49.88554],[-115.28382,49.88551],[-115.28371,49.88548],[-115.28366,49.88544],[-115.28361,49.88539],[-115.28355,49.88536],[-115.2835,49.8853],[-115.28342,49.88525],[-115.28332,49.88518],[-115.28323,49.88513],[-115.28314,49.88508],[-115.28308,49.88504],[-115.28299,49.88501],[-115.28295,49.885],[-115.28292,49.88499],[-115.28287,49.88499],[-115.28284,49.88498],[-115.28279,49.88497],[-115.28267,49.88496],[-115.28258,49.88496],[-115.28247,49.88496],[-115.28234,49.88496],[-115.28221,49.88497],[-115.28212,49.88498],[-115.28202,49.88498],[-115.28194,49.88497],[-115.28185,49.88497],[-115.28178,49.88498],[-115.28169,49.88498],[-115.28157,49.88498],[-115.28146,49.88498],[-115.28135,49.88497],[-115.28124,49.88495],[-115.28117,49.88494],[-115.2811,49.88493],[-115.28102,49.88492],[-115.28094,49.8849],[-115.28084,49.88488],[-115.2807,49.88486],[-115.28058,49.88485],[-115.28048,49.88483],[-115.28037,49.88482],[-115.28027,49.88481],[-115.28018,49.88479],[-115.28009,49.88477],[-115.27998,49.88475],[-115.27988,49.88474],[-115.2798,49.88473],[-115.27976,49.88473],[-115.2797,49.88472],[-115.27966,49.88472],[-115.27961,49.88471],[-115.27954,49.8847],[-115.27945,49.88469],[-115.27939,49.88468],[-115.27932,49.88467],[-115.27926,49.88466],[-115.27921,49.88465],[-115.27909,49.88463],[-115.27897,49.88461],[-115.27885,49.88459],[-115.27872,49.88458],[-115.2786,49.88456],[-115.27851,49.88455],[-115.27842,49.88454],[-115.27832,49.88453],[-115.27821,49.88452],[-115.27808,49.88451],[-115.27797,49.8845],[-115.27787,49.88448],[-115.27778,49.88447],[-115.27769,49.88446],[-115.27761,49.88445],[-115.2775,49.88444],[-115.27738,49.88443],[-115.27726,49.88442],[-115.27713,49.88441],[-115.27701,49.8844],[-115.27692,49.88439],[-115.27681,49.88437],[-115.2767,49.88436],[-115.27659,49.88434],[-115.27646,49.88431],[-115.27639,49.88429],[-115.27634,49.88428],[-115.27627,49.88427],[-115.27621,49.88425],[-115.27617,49.88424],[-115.27612,49.88422],[-115.27605,49.8842],[-115.27599,49.88418],[-115.27592,49.88415],[-115.27586,49.88411],[-115.27579,49.88407],[-115.27572,49.88405],[-115.27565,49.88401],[-115.27561,49.88399],[-115.27555,49.88396],[-115.27553,49.88393],[-115.27549,49.88388],[-115.27546,49.88383],[-115.27542,49.88378],[-115.2754,49.88373],[-115.27538,49.88366],[-115.27537,49.8836],[-115.27536,49.88353],[-115.27536,49.88346],[-115.27537,49.88338],[-115.27535,49.88332],[-115.27536,49.88326],[-115.27536,49.8832],[-115.27535,49.88315],[-115.27535,49.88311],[-115.27534,49.88307],[-115.27532,49.88302],[-115.2753,49.88298],[-115.27529,49.88292],[-115.27526,49.88287],[-115.27525,49.88283],[-115.27523,49.88281],[-115.27522,49.88277],[-115.27521,49.88273],[-115.2752,49.88269],[-115.27517,49.88262],[-115.27515,49.88256],[-115.27512,49.88251],[-115.27511,49.88245],[-115.27508,49.88241],[-115.27506,49.88235],[-115.27502,49.88228],[-115.27496,49.88219],[-115.27492,49.88211],[-115.27489,49.88203],[-115.27487,49.88197],[-115.27486,49.88191],[-115.27484,49.88186],[-115.27482,49.88179],[-115.27481,49.88176],[-115.27481,49.88174],[-115.2748,49.88167],[-115.27479,49.88165],[-115.27478,49.8816],[-115.27476,49.88154],[-115.27475,49.88149],[-115.27473,49.88144],[-115.27471,49.8814],[-115.2747,49.88137],[-115.27467,49.88131],[-115.27466,49.88126],[-115.27466,49.8812],[-115.27465,49.88116],[-115.27465,49.88111],[-115.27466,49.88106],[-115.27466,49.88101],[-115.27465,49.88095],[-115.27462,49.88091],[-115.27459,49.88085],[-115.27457,49.8808],[-115.27454,49.88076],[-115.27451,49.88073],[-115.27449,49.88068],[-115.27445,49.88063],[-115.27441,49.88055],[-115.27436,49.88048],[-115.27432,49.88041],[-115.27428,49.88034],[-115.27424,49.88029],[-115.2742,49.88024],[-115.27417,49.8802],[-115.27416,49.88018],[-115.27412,49.88012],[-115.27409,49.88007],[-115.27407,49.88004],[-115.27404,49.87999],[-115.27401,49.87996],[-115.274,49.87994],[-115.27397,49.8799],[-115.27393,49.87984],[-115.27389,49.87979],[-115.27384,49.87973],[-115.2738,49.87966],[-115.27375,49.87961],[-115.27372,49.87954],[-115.27368,49.87949],[-115.27364,49.87944],[-115.27359,49.87937],[-115.27356,49.87933],[-115.27352,49.87927],[-115.2735,49.87923],[-115.27347,49.87919],[-115.27346,49.87916],[-115.27342,49.87912],[-115.27335,49.87904],[-115.27328,49.87895],[-115.27319,49.87886],[-115.27312,49.87878],[-115.27308,49.87873],[-115.27303,49.87868],[-115.273,49.87863],[-115.27295,49.87858],[-115.27291,49.87853],[-115.27287,49.87848],[-115.27283,49.87843],[-115.27279,49.87838],[-115.27275,49.87834],[-115.27272,49.87831],[-115.27269,49.87828],[-115.27267,49.87823],[-115.27263,49.87819],[-115.2726,49.87814],[-115.27256,49.8781],[-115.2725,49.87802],[-115.27244,49.87795],[-115.27239,49.87788],[-115.27232,49.87781],[-115.27226,49.87773],[-115.27222,49.87768],[-115.27218,49.87763],[-115.27213,49.87759],[-115.27211,49.87755],[-115.27208,49.87751],[-115.27206,49.87748],[-115.272,49.87743],[-115.27195,49.87737],[-115.27189,49.8773],[-115.27183,49.87724],[-115.27177,49.87719],[-115.27172,49.87712],[-115.27167,49.87707],[-115.27161,49.87701],[-115.27156,49.87695],[-115.27148,49.87687],[-115.27143,49.87679],[-115.27136,49.87673],[-115.27129,49.87667],[-115.27124,49.87662],[-115.2712,49.87657],[-115.27116,49.87653],[-115.2711,49.87647],[-115.27105,49.87641],[-115.27101,49.87636],[-115.27097,49.87629],[-115.27093,49.87624],[-115.27089,49.87617],[-115.27085,49.87612],[-115.27081,49.87606],[-115.27077,49.87602],[-115.27074,49.87598],[-115.27072,49.87596],[-115.27068,49.87593],[-115.27066,49.8759],[-115.27064,49.87587],[-115.2706,49.87583],[-115.27054,49.87577],[-115.27049,49.87572],[-115.27042,49.87567],[-115.27038,49.87563],[-115.27034,49.87559],[-115.2703,49.87555],[-115.27026,49.87552],[-115.27023,49.87547],[-115.27019,49.87544],[-115.27017,49.87539],[-115.27014,49.87535],[-115.27011,49.87531],[-115.27009,49.87526],[-115.27006,49.87524],[-115.27002,49.87521],[-115.26999,49.87517],[-115.26995,49.87513],[-115.26993,49.87508],[-115.26986,49.87502],[-115.26979,49.87494],[-115.26975,49.87488],[-115.2697,49.87483],[-115.26967,49.8748],[-115.26963,49.87475],[-115.26957,49.87468],[-115.2695,49.87461],[-115.26942,49.87452],[-115.26934,49.87444],[-115.26923,49.87436],[-115.26914,49.87427],[-115.26904,49.87419],[-115.26895,49.8741],[-115.26885,49.874],[-115.26879,49.87392],[-115.26873,49.87384],[-115.26868,49.87377],[-115.26864,49.8737],[-115.2686,49.87365],[-115.26856,49.87359],[-115.26851,49.8735],[-115.26846,49.87342],[-115.26839,49.87333],[-115.26834,49.87324],[-115.26827,49.87315],[-115.2682,49.87307],[-115.26815,49.87298],[-115.26811,49.87289],[-115.26808,49.87278],[-115.26806,49.87274],[-115.26805,49.87271],[-115.26804,49.87267],[-115.26802,49.87264],[-115.26803,49.87261],[-115.26801,49.87258],[-115.26799,49.87252],[-115.26796,49.87247],[-115.26794,49.87241],[-115.26791,49.87234],[-115.26787,49.87226],[-115.26783,49.87219],[-115.26781,49.87211],[-115.26778,49.87203],[-115.26776,49.87194],[-115.26775,49.87189],[-115.26773,49.87185],[-115.26772,49.87182],[-115.26772,49.87179],[-115.26771,49.87176],[-115.2677,49.87173],[-115.26768,49.87167],[-115.26766,49.87158],[-115.26763,49.87151],[-115.26761,49.87143],[-115.26758,49.87136],[-115.26757,49.87129],[-115.26753,49.87121],[-115.26752,49.87115],[-115.26748,49.87107],[-115.26743,49.87097],[-115.26738,49.87087],[-115.26734,49.87079],[-115.2673,49.87071],[-115.26729,49.87068],[-115.26726,49.87063],[-115.26724,49.87058],[-115.26721,49.87052],[-115.26717,49.87043],[-115.26713,49.87035],[-115.26709,49.87029],[-115.26707,49.87024],[-115.26705,49.87021],[-115.26704,49.87017],[-115.26702,49.87013],[-115.26699,49.87008],[-115.26694,49.87],[-115.26688,49.86991],[-115.26683,49.86984],[-115.26679,49.86977],[-115.26675,49.86971],[-115.26673,49.86965],[-115.26669,49.86958],[-115.26665,49.86949],[-115.26661,49.86941],[-115.26657,49.86933],[-115.26653,49.86928],[-115.2665,49.86923],[-115.26648,49.86918],[-115.26644,49.86913],[-115.2664,49.86907],[-115.26635,49.86899],[-115.26629,49.86891],[-115.26625,49.86884],[-115.26622,49.86876],[-115.26619,49.86871],[-115.26616,49.86867],[-115.26612,49.86862],[-115.2661,49.86857],[-115.26606,49.8685],[-115.26603,49.86845],[-115.26602,49.86839],[-115.26599,49.86835],[-115.26598,49.86829],[-115.26597,49.86825],[-115.26596,49.86819],[-115.26593,49.86812],[-115.26591,49.86806],[-115.26589,49.868],[-115.26588,49.86795],[-115.26587,49.86791],[-115.26586,49.86786],[-115.26586,49.86779],[-115.26584,49.86772],[-115.26582,49.86763],[-115.26581,49.86755],[-115.2658,49.86749],[-115.26579,49.86745],[-115.26578,49.86739],[-115.26575,49.86734],[-115.26574,49.86728],[-115.26571,49.86719],[-115.26569,49.86711],[-115.26566,49.86703],[-115.26564,49.86696],[-115.26563,49.86689],[-115.26562,49.86685],[-115.2656,49.86679],[-115.26559,49.86674],[-115.26557,49.8667],[-115.26553,49.86664],[-115.2655,49.8666],[-115.26546,49.86657],[-115.26543,49.86652],[-115.26539,49.86649],[-115.26535,49.86645],[-115.2653,49.86638],[-115.26523,49.86629],[-115.26519,49.86623],[-115.26514,49.86617],[-115.26511,49.86611],[-115.2651,49.86609]]}}
]}
