{"type":"FeatureCollection","features":[
{"type":"Feature","properties":{"spotId":"F-camp-camp-0035","kind":"walk","km":0.02,"climbM":0,"name":"By Freeman Creek","flags":[]},"geometry":{"type":"LineString","coordinates":[[-115.86066,49.06114],[-115.86083,49.06103]]}},
{"type":"Feature","properties":{"spotId":"F-deer-atv-0129","kind":"ride","km":1.12,"climbM":51,"name":"270 m E of Stone Creek","flags":[]},"geometry":{"type":"LineString","coordinates":[[-115.89675,49.21262],[-115.89686,49.21278],[-115.89696,49.21309],[-115.89679,49.2133],[-115.89651,49.2136],[-115.89645,49.21381],[-115.89631,49.21403],[-115.89603,49.21435],[-115.89589,49.21447],[-115.8957,49.21471],[-115.89566,49.21475],[-115.89545,49.21522],[-115.89515,49.21542],[-115.895,49.21563],[-115.89448,49.21584],[-115.89423,49.2161],[-115.89379,49.21641],[-115.8934,49.2168],[-115.89314,49.21714],[-115.89239,49.21793],[-115.89196,49.21828],[-115.89144,49.21854],[-115.89098,49.21871],[-115.89067,49.21908],[-115.8905,49.21929],[-115.89018,49.21967],[-115.8897,49.22012],[-115.8894,49.22041],[-115.88901,49.22051],[-115.88858,49.2205]]}},
{"type":"Feature","properties":{"spotId":"F-deer-atv-0129","kind":"walk","km":0.02,"climbM":0,"name":"270 m E of Stone Creek","flags":[]},"geometry":{"type":"LineString","coordinates":[[-115.89675,49.21262],[-115.89707,49.21254]]}},
{"type":"Feature","properties":{"spotId":"F-deer-walk-0153","kind":"walk","km":0.63,"climbM":181,"name":"710 m N of Moyie River","flags":[]},"geometry":{"type":"LineString","coordinates":[[-115.97541,49.20627],[-115.97625,49.21193]]}},
{"type":"Feature","properties":{"spotId":"F-deer-walk-0155","kind":"walk","km":0.32,"climbM":0,"name":"480 m E of Stone Creek","flags":[]},"geometry":{"type":"LineString","coordinates":[[-115.89048,49.21662],[-115.89488,49.21692]]}},
{"type":"Feature","properties":{"spotId":"F-deer-walk-0167","kind":"walk","km":0.54,"climbM":135,"name":"1.0 km N of Moyie River","flags":[]},"geometry":{"type":"LineString","coordinates":[[-115.93188,49.21951],[-115.93304,49.22427]]}},
{"type":"Feature","properties":{"spotId":"F-duck-drive-0011","kind":"walk","km":0.18,"climbM":0,"name":"Unnamed wetland 210 m NW of Moyie River","flags":["Route crosses private land (ParcelMap BC, updated 2026-09-26): get permission first or go around."]},"geometry":{"type":"LineString","coordinates":[[-115.92206,49.22211],[-115.9212,49.22057]]}},
{"type":"Feature","properties":{"spotId":"F-duck-drive-0015","kind":"walk","km":0.26,"climbM":0,"name":"Unnamed wetland by Moyie River","flags":["Route crosses private land (ParcelMap BC, updated 2026-09-26): get permission first or go around."]},"geometry":{"type":"LineString","coordinates":[[-115.90052,49.22758],[-115.89827,49.22575]]}},
{"type":"Feature","properties":{"spotId":"F-duck-drive-0068","kind":"walk","km":0.07,"climbM":0,"name":"Unnamed wetland by Hawkins Creek","flags":[]},"geometry":{"type":"LineString","coordinates":[[-115.92157,49.04299],[-115.92139,49.04362]]}},
{"type":"Feature","properties":{"spotId":"F-duck-drive-0120","kind":"walk","km":0.02,"climbM":0,"name":"Unnamed wetland by Freeman Creek","flags":[]},"geometry":{"type":"LineString","coordinates":[[-115.85743,49.02117],[-115.85757,49.02104]]}},
{"type":"Feature","properties":{"spotId":"F-duck-drive-0125","kind":"walk","km":0.02,"climbM":0,"name":"Unnamed wetland by Freeman Creek","flags":[]},"geometry":{"type":"LineString","coordinates":[[-115.86862,49.05233],[-115.86845,49.0524]]}},
{"type":"Feature","properties":{"spotId":"F-duck-walk-0008","kind":"walk","km":0.33,"climbM":0,"name":"Unnamed wetland 300 m SE of Moyie River","flags":[]},"geometry":{"type":"LineString","coordinates":[[-115.90977,49.21748],[-115.91387,49.21869]]}},
{"type":"Feature","properties":{"spotId":"F-duck-walk-0011","kind":"walk","km":0.43,"climbM":0,"name":"Unnamed wetland by Moyie River","flags":["Route crosses private land (ParcelMap BC, updated 2026-09-26): get permission first or go around."]},"geometry":{"type":"LineString","coordinates":[[-115.93936,49.2176],[-115.93679,49.21412]]}},
{"type":"Feature","properties":{"spotId":"F-duck-walk-0080","kind":"walk","km":0.31,"climbM":13,"name":"Unnamed wetland 230 m SE of Freeman Creek","flags":[]},"geometry":{"type":"LineString","coordinates":[[-115.87099,49.02953],[-115.87004,49.03222]]}},
{"type":"Feature","properties":{"spotId":"F-grouse-atv-0017","kind":"walk","km":0.05,"climbM":0,"name":"1.0 km W of Freeman Creek","flags":[]},"geometry":{"type":"LineString","coordinates":[[-115.8902,49.0358],[-115.89022,49.03536]]}},
{"type":"Feature","properties":{"spotId":"F-grouse-atv-0017","kind":"ride","km":3.46,"climbM":108,"name":"1.0 km W of Freeman Creek","flags":[]},"geometry":{"type":"LineString","coordinates":[[-115.89022,49.03536],[-115.89011,49.03532],[-115.88999,49.03527],[-115.88988,49.03521],[-115.88977,49.03513],[-115.88965,49.0351],[-115.88957,49.03508],[-115.88949,49.03507],[-115.88941,49.03505],[-115.88924,49.03502],[-115.88917,49.03501],[-115.88909,49.035],[-115.889,49.035],[-115.8889,49.03499],[-115.88882,49.03498],[-115.88874,49.03496],[-115.88865,49.03494],[-115.88851,49.0349],[-115.88842,49.03486],[-115.88827,49.0348],[-115.88813,49.03474],[-115.88804,49.03471],[-115.88796,49.03468],[-115.88788,49.03466],[-115.8878,49.03464],[-115.88769,49.03461],[-115.88761,49.03459],[-115.88753,49.03458],[-115.88741,49.03454],[-115.88732,49.03452],[-115.88724,49.03451],[-115.88715,49.03449],[-115.88706,49.03447],[-115.88697,49.03446],[-115.88689,49.03444],[-115.88681,49.03443],[-115.88672,49.03442],[-115.88656,49.03441],[-115.88642,49.03439],[-115.88634,49.03439],[-115.88626,49.03438],[-115.88616,49.03437],[-115.88607,49.03437],[-115.88597,49.03436],[-115.88589,49.03436],[-115.88574,49.03435],[-115.8856,49.03434],[-115.88549,49.03433],[-115.88539,49.03432],[-115.88526,49.0343],[-115.88511,49.03429],[-115.88498,49.03427],[-115.88485,49.03424],[-115.88474,49.03422],[-115.88462,49.03418],[-115.88449,49.03415],[-115.88436,49.0341],[-115.88424,49.03405],[-115.88413,49.03401],[-115.88403,49.03396],[-115.88392,49.0339],[-115.88381,49.03383],[-115.88376,49.03378],[-115.88372,49.03372],[-115.88369,49.03364],[-115.88365,49.03357],[-115.88363,49.03348],[-115.88361,49.03341],[-115.88359,49.03335],[-115.88355,49.0333],[-115.88352,49.03325],[-115.88351,49.03316],[-115.8835,49.0331],[-115.88349,49.033],[-115.88349,49.03291],[-115.8835,49.03283],[-115.88352,49.03278],[-115.88355,49.0327],[-115.88358,49.03261],[-115.88359,49.03253],[-115.88361,49.03246],[-115.88364,49.03239],[-115.88365,49.03233],[-115.88369,49.03225],[-115.88372,49.0322],[-115.88375,49.03214],[-115.88378,49.03209],[-115.88382,49.03203],[-115.88385,49.03198],[-115.88388,49.03194],[-115.88392,49.03183],[-115.88397,49.03174],[-115.88398,49.03164],[-115.884,49.03159],[-115.88401,49.03152],[-115.88403,49.03146],[-115.88403,49.0314],[-115.88402,49.03133],[-115.884,49.03127],[-115.88399,49.03122],[-115.88398,49.03111],[-115.88397,49.03106],[-115.88395,49.03101],[-115.88394,49.03095],[-115.88393,49.03088],[-115.88393,49.03081],[-115.88392,49.03075],[-115.88389,49.03067],[-115.88385,49.0306],[-115.8838,49.03056],[-115.88375,49.03048],[-115.88369,49.03041],[-115.88364,49.03034],[-115.8836,49.03025],[-115.88358,49.0302],[-115.88351,49.03011],[-115.88342,49.03001],[-115.88331,49.02993],[-115.88319,49.02988],[-115.88308,49.02981],[-115.88298,49.02975],[-115.8829,49.02968],[-115.8828,49.0296],[-115.88272,49.0295],[-115.88265,49.02941],[-115.88262,49.02934],[-115.88258,49.02928],[-115.88254,49.02922],[-115.88249,49.02914],[-115.88242,49.02909],[-115.88241,49.02907],[-115.8823,49.02901],[-115.88219,49.02893],[-115.88211,49.02887],[-115.88205,49.02881],[-115.88198,49.02873],[-115.88187,49.02865],[-115.88176,49.02859],[-115.88164,49.02851],[-115.88151,49.02845],[-115.88139,49.02839],[-115.88128,49.02834],[-115.88117,49.02828],[-115.88103,49.02824],[-115.8809,49.02818],[-115.88085,49.02811],[-115.88076,49.02813],[-115.88063,49.0281],[-115.8805,49.0281],[-115.88038,49.02811],[-115.88026,49.02813],[-115.88011,49.02815],[-115.88002,49.02816],[-115.87994,49.02816],[-115.87986,49.02817],[-115.87974,49.02819],[-115.87961,49.0282],[-115.87948,49.02821],[-115.87932,49.0282],[-115.87917,49.0282],[-115.87905,49.0282],[-115.87893,49.02821],[-115.87879,49.02821],[-115.87865,49.02821],[-115.87852,49.0282],[-115.87841,49.02819],[-115.87831,49.02818],[-115.87823,49.02817],[-115.87809,49.02816],[-115.87794,49.02814],[-115.87781,49.02811],[-115.8777,49.02809],[-115.87758,49.02806],[-115.87747,49.02803],[-115.87735,49.028],[-115.87722,49.02796],[-115.8771,49.02792],[-115.87695,49.02788],[-115.8768,49.02786],[-115.87673,49.02785],[-115.87665,49.02784],[-115.87652,49.0278],[-115.87638,49.02775],[-115.87627,49.02772],[-115.87619,49.02769],[-115.87604,49.02764],[-115.87593,49.02761],[-115.87581,49.02758],[-115.87571,49.02754],[-115.87563,49.02751],[-115.87551,49.02749],[-115.87536,49.02748],[-115.87521,49.02746],[-115.87513,49.02745],[-115.87505,49.02744],[-115.87496,49.02743],[-115.87488,49.02741],[-115.8748,49.0274],[-115.87471,49.02739],[-115.87461,49.02738],[-115.87445,49.02736],[-115.87432,49.02732],[-115.87422,49.02727],[-115.87408,49.02721],[-115.87393,49.02713],[-115.87385,49.02709],[-115.87377,49.02704],[-115.8737,49.02701],[-115.87355,49.02692],[-115.87343,49.02686],[-115.87327,49.0268],[-115.87319,49.02676],[-115.87311,49.02671],[-115.87301,49.02667],[-115.87293,49.02663],[-115.87285,49.02658],[-115.87277,49.02654],[-115.87267,49.0265],[-115.87258,49.02646],[-115.8725,49.02642],[-115.87242,49.02638],[-115.87234,49.02634],[-115.87225,49.02629],[-115.87211,49.02621],[-115.87197,49.02613],[-115.87184,49.02606],[-115.87171,49.02598],[-115.87163,49.02593],[-115.87155,49.02589],[-115.87146,49.02585],[-115.87138,49.02581],[-115.8713,49.02576],[-115.87113,49.02569],[-115.87104,49.02564],[-115.87096,49.0256],[-115.87088,49.02557],[-115.87079,49.02552],[-115.8707,49.02547],[-115.87054,49.02537],[-115.87047,49.02532],[-115.8704,49.02526],[-115.87027,49.02517],[-115.87019,49.02514],[-115.87009,49.0251],[-115.87001,49.02506],[-115.8699,49.02502],[-115.86981,49.02497],[-115.86973,49.02493],[-115.86965,49.02489],[-115.86956,49.02485],[-115.86947,49.02481],[-115.86939,49.02477],[-115.86932,49.02473],[-115.86924,49.0247],[-115.86916,49.02466],[-115.86906,49.02461],[-115.86897,49.02458],[-115.86887,49.02455],[-115.86879,49.02451],[-115.86867,49.02445],[-115.86859,49.02441],[-115.86851,49.02436],[-115.86843,49.02431],[-115.86835,49.02427],[-115.86828,49.02418],[-115.86823,49.02412],[-115.86819,49.02406],[-115.86812,49.024],[-115.86807,49.02395],[-115.86804,49.02389],[-115.86799,49.02385],[-115.86793,49.02378],[-115.86788,49.02371],[-115.8679,49.02362],[-115.86784,49.02361],[-115.8678,49.02354],[-115.86775,49.02346],[-115.86767,49.02339],[-115.86758,49.02331],[-115.86747,49.02325],[-115.86736,49.02318],[-115.86728,49.02311],[-115.86723,49.02306],[-115.86713,49.023],[-115.86708,49.02294],[-115.86702,49.02288],[-115.86697,49.02282],[-115.86692,49.02276],[-115.86684,49.0227],[-115.86673,49.02264],[-115.86662,49.02257],[-115.86651,49.02249],[-115.86642,49.02244],[-115.86632,49.02238],[-115.86622,49.02233],[-115.86609,49.02228],[-115.86601,49.02226],[-115.86592,49.02223],[-115.86581,49.02216],[-115.86571,49.02212],[-115.86562,49.02206],[-115.86551,49.02201],[-115.86539,49.02196],[-115.8653,49.0219],[-115.86519,49.02184],[-115.86507,49.02178],[-115.86493,49.0217],[-115.8648,49.02163],[-115.86469,49.02157],[-115.86457,49.0215],[-115.86446,49.02145],[-115.86436,49.02139],[-115.86427,49.02134],[-115.86417,49.02129],[-115.86408,49.02126],[-115.864,49.02123],[-115.8639,49.02119],[-115.86382,49.02116],[-115.86371,49.0211],[-115.86365,49.02105],[-115.86359,49.021],[-115.86359,49.02094],[-115.86364,49.02088],[-115.86372,49.02084],[-115.86383,49.02082],[-115.86394,49.02081],[-115.86403,49.02081],[-115.86414,49.0208],[-115.86427,49.0208],[-115.86438,49.02078],[-115.86446,49.02076],[-115.86453,49.02076],[-115.86465,49.02074],[-115.86473,49.02073],[-115.86493,49.02073],[-115.86518,49.02076],[-115.86527,49.02076],[-115.86538,49.02077],[-115.86562,49.02077],[-115.86572,49.02077],[-115.86591,49.02073],[-115.86612,49.02064],[-115.86619,49.02058],[-115.86625,49.02041],[-115.86623,49.02031],[-115.86618,49.02016],[-115.86617,49.02007],[-115.86616,49.02001],[-115.86617,49.0197],[-115.86615,49.01961],[-115.86612,49.01953],[-115.86606,49.01947],[-115.86601,49.01938],[-115.866,49.01932],[-115.86589,49.01914],[-115.86581,49.01904],[-115.8657,49.01894],[-115.8656,49.01885],[-115.86547,49.01865],[-115.86544,49.0186],[-115.8654,49.0185],[-115.8654,49.01833],[-115.86543,49.01826],[-115.86545,49.01816],[-115.86551,49.01805],[-115.86555,49.01798],[-115.86566,49.01773],[-115.86571,49.01767],[-115.86572,49.0176],[-115.86575,49.01754],[-115.86584,49.01741],[-115.86586,49.01735],[-115.86589,49.01722],[-115.86592,49.01715],[-115.86598,49.01692],[-115.86602,49.0168]]}},
{"type":"Feature","properties":{"spotId":"F-grouse-drive-0014","kind":"roadside","km":4.41,"climbM":33,"name":"By Freeman Creek","flags":[]},"geometry":{"type":"LineString","coordinates":[[-115.87428,49.02926],[-115.87419,49.02922],[-115.87409,49.02921],[-115.87401,49.0292],[-115.87393,49.02919],[-115.8738,49.02918],[-115.87372,49.02918],[-115.87361,49.02919],[-115.8735,49.0292],[-115.87339,49.02921],[-115.8733,49.02922],[-115.87321,49.02923],[-115.87312,49.02925],[-115.87304,49.02928],[-115.87293,49.0293],[-115.87281,49.02934],[-115.8727,49.02937],[-115.87259,49.02941],[-115.87251,49.02944],[-115.8724,49.02949],[-115.8723,49.02953],[-115.87219,49.02956],[-115.8721,49.0296],[-115.87199,49.02962],[-115.87188,49.02963],[-115.87178,49.02963],[-115.87167,49.02962],[-115.87158,49.02961],[-115.87148,49.0296],[-115.87139,49.02959],[-115.87128,49.02958],[-115.8712,49.02956],[-115.8711,49.02954],[-115.87099,49.02953],[-115.8709,49.02951],[-115.87081,49.02949],[-115.87069,49.02946],[-115.87061,49.02944],[-115.87053,49.02942],[-115.87042,49.02939],[-115.87032,49.02935],[-115.87022,49.02932],[-115.87009,49.02929],[-115.87001,49.02926],[-115.86993,49.02925],[-115.86983,49.02923],[-115.86974,49.02922],[-115.86963,49.02921],[-115.86951,49.02919],[-115.86943,49.02918],[-115.86933,49.02917],[-115.86925,49.02916],[-115.86915,49.02915],[-115.86907,49.02914],[-115.86899,49.02913],[-115.86891,49.02912],[-115.86884,49.0291],[-115.86876,49.02909],[-115.86865,49.02906],[-115.86855,49.02903],[-115.86846,49.029],[-115.86835,49.02896],[-115.86826,49.02891],[-115.86816,49.02887],[-115.86807,49.02884],[-115.86796,49.02881],[-115.86787,49.02879],[-115.86778,49.02878],[-115.8677,49.02877],[-115.86762,49.02877],[-115.86752,49.02876],[-115.86744,49.02876],[-115.86734,49.02877],[-115.86725,49.02879],[-115.86715,49.0288],[-115.86708,49.02882],[-115.86698,49.02886],[-115.86689,49.02891],[-115.8668,49.02896],[-115.86669,49.02898],[-115.8666,49.02897],[-115.86648,49.02895],[-115.86637,49.02893],[-115.86627,49.02891],[-115.86618,49.02889],[-115.86608,49.02888],[-115.86598,49.02888],[-115.8659,49.02888],[-115.86582,49.02889],[-115.86572,49.02889],[-115.86564,49.02889],[-115.86555,49.02889],[-115.86545,49.02889],[-115.86537,49.02887],[-115.86529,49.02884],[-115.86521,49.02878],[-115.86513,49.0287],[-115.86503,49.02863],[-115.86493,49.02857],[-115.86483,49.0285],[-115.86472,49.02845],[-115.86464,49.02841],[-115.86456,49.02837],[-115.86447,49.02833],[-115.86436,49.02826],[-115.86426,49.02822],[-115.86417,49.02817],[-115.86409,49.0281],[-115.86405,49.02805],[-115.86401,49.02799],[-115.86396,49.02791],[-115.8639,49.02783],[-115.86384,49.02776],[-115.86373,49.02769],[-115.86363,49.02761],[-115.86355,49.02756],[-115.86344,49.02749],[-115.86336,49.02743],[-115.86331,49.02737],[-115.86326,49.02732],[-115.86318,49.02724],[-115.86311,49.02718],[-115.86304,49.02712],[-115.86296,49.02704],[-115.86288,49.02698],[-115.86283,49.02693],[-115.86275,49.02685],[-115.86268,49.02678],[-115.86263,49.02672],[-115.86257,49.02665],[-115.86252,49.02657],[-115.86248,49.02652],[-115.86242,49.02645],[-115.86232,49.0264],[-115.86224,49.02634],[-115.86217,49.02628],[-115.86212,49.02622],[-115.86207,49.02616],[-115.86203,49.02611],[-115.86199,49.02605],[-115.86195,49.02597],[-115.86191,49.02592],[-115.86185,49.02586],[-115.8618,49.02579],[-115.86176,49.02572],[-115.86172,49.02564],[-115.86168,49.02557],[-115.86164,49.0255],[-115.86158,49.02544],[-115.86152,49.02538],[-115.86146,49.02531],[-115.8614,49.02524],[-115.86136,49.02518],[-115.86132,49.0251],[-115.86127,49.02504],[-115.8612,49.02499],[-115.86112,49.02492],[-115.86107,49.02485],[-115.86103,49.02478],[-115.86099,49.02471],[-115.86094,49.02465],[-115.86093,49.0246],[-115.86089,49.02451],[-115.86087,49.02445],[-115.86083,49.02436],[-115.86082,49.02428],[-115.86081,49.02421],[-115.8608,49.02412],[-115.86076,49.02405],[-115.86073,49.02397],[-115.86071,49.02391],[-115.86067,49.02385],[-115.86064,49.02378],[-115.8606,49.02372],[-115.86058,49.02367],[-115.86051,49.02361],[-115.86044,49.02356],[-115.86034,49.02349],[-115.86024,49.02345],[-115.86015,49.02338],[-115.86005,49.02332],[-115.85997,49.02324],[-115.85993,49.02319],[-115.85986,49.02312],[-115.85983,49.02306],[-115.8598,49.02299],[-115.85976,49.02293],[-115.85971,49.0228],[-115.85968,49.02272],[-115.85968,49.02267],[-115.85967,49.02264],[-115.85966,49.02257],[-115.85966,49.02249],[-115.85965,49.02242],[-115.85962,49.02236],[-115.85961,49.02231],[-115.85961,49.02225],[-115.8596,49.02219],[-115.85957,49.02213],[-115.85956,49.02206],[-115.85952,49.022],[-115.85949,49.02195],[-115.85944,49.02188],[-115.85937,49.02181],[-115.85929,49.02176],[-115.85919,49.02172],[-115.85909,49.02169],[-115.859,49.02166],[-115.85889,49.02164],[-115.85879,49.02163],[-115.85868,49.02162],[-115.85857,49.02162],[-115.85848,49.02162],[-115.85838,49.02162],[-115.85829,49.02161],[-115.85818,49.02159],[-115.85808,49.02155],[-115.85797,49.02148],[-115.85785,49.02142],[-115.85774,49.02134],[-115.85764,49.02129],[-115.85756,49.02123],[-115.85746,49.02119],[-115.85737,49.02114],[-115.85727,49.02109],[-115.85716,49.02105],[-115.85704,49.02104],[-115.85696,49.02105],[-115.85685,49.02106],[-115.85674,49.02107],[-115.85664,49.0211],[-115.85655,49.02113],[-115.85644,49.02114],[-115.85634,49.02114],[-115.85626,49.02114],[-115.85616,49.02114],[-115.85608,49.02113],[-115.85598,49.02113],[-115.85589,49.02112],[-115.85581,49.02112],[-115.85571,49.02111],[-115.85562,49.02111],[-115.85553,49.02111],[-115.85542,49.02111],[-115.85533,49.0211],[-115.85523,49.02109],[-115.85512,49.02108],[-115.85503,49.02108],[-115.85493,49.02107],[-115.85485,49.02108],[-115.85477,49.0211],[-115.85464,49.02113],[-115.85455,49.02116],[-115.85447,49.02117],[-115.85435,49.02122],[-115.85426,49.02124],[-115.85416,49.02126],[-115.85405,49.02129],[-115.85394,49.02132],[-115.85383,49.02134],[-115.85374,49.02138],[-115.85365,49.02139],[-115.85357,49.02141],[-115.85349,49.02142],[-115.85339,49.02144],[-115.8533,49.02143],[-115.85322,49.02142],[-115.85313,49.02142],[-115.85305,49.02141],[-115.85293,49.0214],[-115.85281,49.02139],[-115.8527,49.02137],[-115.8526,49.02134],[-115.85248,49.0213],[-115.85234,49.02126],[-115.85223,49.02123],[-115.85217,49.02117],[-115.8521,49.02119],[-115.85196,49.02116],[-115.85187,49.02115],[-115.85176,49.02113],[-115.85164,49.02111],[-115.85154,49.02109],[-115.85146,49.02107],[-115.85136,49.02106],[-115.85131,49.02102],[-115.85125,49.02103],[-115.85113,49.02101],[-115.85102,49.021],[-115.85078,49.02096],[-115.85068,49.02096],[-115.85057,49.02097],[-115.85045,49.02097],[-115.85034,49.02098],[-115.85022,49.02102],[-115.85012,49.02104],[-115.85004,49.02108],[-115.84993,49.02112],[-115.84983,49.02116],[-115.84973,49.02117],[-115.84965,49.02118],[-115.84955,49.02118],[-115.84928,49.02116],[-115.84894,49.0211],[-115.84885,49.02109],[-115.84876,49.02107],[-115.84867,49.02106],[-115.84859,49.02106],[-115.8485,49.02106],[-115.84842,49.02105],[-115.84834,49.02104],[-115.84826,49.02103],[-115.84816,49.02101],[-115.8481,49.02101],[-115.84799,49.02097],[-115.84789,49.02093],[-115.84781,49.02089],[-115.84773,49.02087],[-115.84765,49.02085],[-115.84755,49.02083],[-115.84744,49.02081],[-115.84733,49.02079],[-115.84723,49.02076],[-115.84713,49.02073],[-115.84705,49.02072],[-115.84694,49.0207],[-115.84684,49.02068],[-115.84675,49.02066],[-115.84667,49.02065],[-115.84657,49.02065],[-115.84649,49.02063],[-115.84639,49.02062],[-115.8463,49.0206],[-115.8462,49.02058],[-115.84612,49.02054],[-115.84603,49.02048],[-115.84596,49.02043],[-115.84587,49.02036],[-115.84581,49.02028],[-115.84577,49.02023],[-115.84572,49.02016],[-115.84565,49.0201],[-115.8456,49.02004],[-115.84552,49.01996],[-115.84545,49.01991],[-115.84543,49.01986],[-115.84539,49.01981],[-115.84533,49.01975],[-115.84531,49.01968],[-115.84527,49.01963],[-115.84523,49.01957],[-115.84519,49.01951],[-115.84516,49.01946],[-115.84512,49.01938],[-115.84508,49.01932],[-115.84504,49.01925],[-115.84502,49.01918],[-115.84498,49.01913],[-115.84493,49.01907],[-115.84489,49.01901],[-115.84483,49.01896],[-115.84474,49.01888],[-115.84464,49.01883],[-115.84456,49.01877],[-115.84446,49.01871],[-115.84435,49.01866],[-115.84424,49.01862],[-115.84414,49.01857],[-115.84404,49.01854],[-115.84394,49.01853],[-115.84384,49.0185],[-115.84374,49.01849],[-115.84364,49.01847],[-115.84356,49.01844],[-115.84346,49.01841],[-115.84338,49.01839],[-115.84329,49.01838],[-115.84319,49.01837],[-115.84312,49.01836],[-115.84301,49.01833],[-115.84289,49.0183],[-115.84281,49.01828],[-115.84271,49.01827],[-115.84263,49.01826],[-115.84255,49.01824],[-115.84247,49.01823],[-115.84236,49.01822],[-115.84224,49.0182],[-115.84213,49.01819],[-115.84203,49.01818],[-115.84191,49.01817],[-115.84181,49.01816],[-115.84171,49.01814],[-115.8416,49.01813],[-115.8415,49.01812],[-115.84139,49.01812],[-115.84128,49.01811],[-115.84117,49.01811],[-115.84105,49.01811],[-115.84095,49.0181],[-115.84085,49.01809],[-115.84076,49.01807],[-115.84064,49.01804],[-115.84055,49.01802],[-115.84044,49.01801],[-115.84034,49.01799],[-115.84025,49.01798],[-115.84015,49.01794],[-115.84004,49.01791],[-115.83996,49.01789],[-115.83985,49.01786],[-115.83976,49.01784],[-115.83968,49.0178],[-115.83957,49.01777],[-115.83947,49.01774],[-115.83939,49.01772],[-115.8393,49.0177],[-115.83921,49.01769],[-115.83912,49.01767],[-115.83901,49.01766],[-115.83889,49.01765],[-115.83876,49.01763],[-115.83864,49.01761],[-115.83852,49.0176],[-115.83842,49.01758],[-115.83833,49.01758],[-115.83824,49.01757],[-115.83812,49.01754],[-115.83804,49.01753],[-115.83795,49.01752],[-115.83784,49.0175],[-115.83774,49.01749],[-115.83765,49.01747],[-115.83755,49.01746],[-115.83745,49.01744],[-115.83736,49.01743],[-115.83728,49.01742],[-115.83717,49.01741],[-115.83706,49.0174],[-115.83692,49.01738],[-115.83681,49.01737],[-115.83672,49.01736],[-115.83661,49.01735],[-115.8365,49.01734],[-115.83638,49.01733],[-115.83627,49.01733],[-115.83616,49.01732],[-115.83604,49.01731],[-115.83593,49.01729],[-115.83583,49.01728],[-115.83575,49.01727],[-115.83567,49.01725],[-115.83559,49.01723],[-115.8355,49.0172],[-115.83542,49.01717],[-115.83533,49.01713],[-115.83525,49.01709],[-115.83515,49.01703],[-115.83504,49.01699],[-115.83495,49.01692],[-115.83486,49.01685],[-115.83478,49.01678],[-115.83468,49.01671],[-115.83457,49.01665],[-115.83449,49.01661],[-115.83438,49.01658],[-115.8343,49.01655],[-115.83419,49.01651],[-115.83411,49.01648],[-115.83402,49.01646],[-115.83391,49.01645],[-115.83381,49.01644],[-115.83373,49.01643],[-115.83362,49.01642],[-115.83354,49.01642],[-115.83344,49.01641],[-115.83333,49.0164],[-115.83324,49.01639],[-115.83314,49.01638],[-115.83305,49.01637],[-115.83293,49.01635],[-115.83283,49.01633],[-115.83275,49.0163],[-115.83265,49.01627],[-115.83256,49.01625],[-115.83248,49.01622],[-115.83245,49.01621],[-115.83236,49.01618],[-115.83225,49.01613],[-115.83217,49.0161],[-115.83207,49.01606],[-115.83196,49.01601],[-115.83184,49.01597],[-115.83176,49.01593],[-115.83165,49.01589],[-115.83156,49.01586],[-115.83146,49.01584],[-115.83139,49.0158],[-115.83131,49.01574],[-115.8312,49.01569],[-115.83112,49.01566],[-115.83103,49.01563],[-115.83093,49.01558],[-115.83078,49.01553],[-115.83069,49.01551],[-115.83057,49.0155],[-115.83046,49.01549],[-115.83033,49.01548],[-115.83021,49.01547],[-115.83009,49.01546],[-115.82997,49.01545],[-115.82986,49.01544],[-115.82975,49.01542],[-115.82965,49.01541],[-115.82956,49.0154],[-115.82946,49.01538],[-115.82932,49.01536],[-115.8292,49.01535],[-115.82909,49.01533],[-115.82898,49.01532],[-115.82889,49.01531],[-115.82878,49.01529],[-115.82867,49.01527],[-115.82856,49.01525],[-115.82845,49.01523],[-115.82836,49.0152],[-115.82828,49.01517],[-115.82818,49.01513],[-115.8281,49.01511],[-115.82802,49.0151],[-115.82794,49.01509],[-115.82784,49.01507],[-115.82775,49.01504],[-115.82766,49.01499],[-115.82758,49.01494],[-115.82749,49.01491],[-115.82738,49.01487],[-115.82729,49.01482],[-115.82719,49.01477],[-115.82712,49.0147],[-115.82707,49.01465],[-115.827,49.01457],[-115.82694,49.0145],[-115.82687,49.01444],[-115.82683,49.01438],[-115.82675,49.0143],[-115.82664,49.01425],[-115.82656,49.01418],[-115.82652,49.01412],[-115.82647,49.01406],[-115.8264,49.014],[-115.82629,49.01395],[-115.8262,49.01388],[-115.82611,49.01384],[-115.82601,49.01379]]}},
{"type":"Feature","properties":{"spotId":"F-grouse-drive-0020","kind":"roadside","km":4.41,"climbM":56,"name":"By Hart Creek","flags":[]},"geometry":{"type":"LineString","coordinates":[[-115.77221,49.01195],[-115.77228,49.01187],[-115.77235,49.0118],[-115.77242,49.01174],[-115.77251,49.01168],[-115.77259,49.01162],[-115.77266,49.01156],[-115.77276,49.01149],[-115.77285,49.01143],[-115.77294,49.01139],[-115.77299,49.01135],[-115.77305,49.01132],[-115.77317,49.01125],[-115.77327,49.0112],[-115.77335,49.01117],[-115.7734,49.01115],[-115.77347,49.01109],[-115.77356,49.01103],[-115.77365,49.011],[-115.77374,49.01096],[-115.77385,49.01093],[-115.77393,49.01091],[-115.77403,49.01089],[-115.77411,49.01086],[-115.7742,49.01083],[-115.77429,49.01081],[-115.77439,49.01078],[-115.77451,49.01075],[-115.77462,49.01073],[-115.7747,49.01072],[-115.77479,49.0107],[-115.77487,49.01066],[-115.77498,49.01062],[-115.77509,49.01058],[-115.77517,49.01056],[-115.77527,49.01052],[-115.77538,49.01048],[-115.77548,49.01043],[-115.77556,49.01042],[-115.77564,49.01039],[-115.77574,49.01036],[-115.77584,49.01031],[-115.77596,49.01027],[-115.77604,49.01024],[-115.77613,49.01022],[-115.77622,49.01017],[-115.77632,49.01013],[-115.77642,49.01009],[-115.77651,49.01005],[-115.77661,49.01002],[-115.77672,49.00998],[-115.7768,49.00994],[-115.7769,49.0099],[-115.777,49.00985],[-115.77708,49.00979],[-115.77718,49.00975],[-115.77726,49.0097],[-115.77733,49.00965],[-115.7774,49.00959],[-115.77746,49.00953],[-115.77751,49.00947],[-115.77755,49.00941],[-115.77761,49.00936],[-115.77765,49.00931],[-115.77775,49.00924],[-115.77786,49.0092],[-115.77794,49.00916],[-115.77805,49.00913],[-115.77814,49.00911],[-115.77823,49.0091],[-115.77831,49.00907],[-115.77842,49.00904],[-115.77852,49.00902],[-115.77863,49.00899],[-115.77874,49.00897],[-115.77882,49.00896],[-115.77893,49.00892],[-115.77902,49.00891],[-115.77911,49.00889],[-115.77919,49.00888],[-115.77928,49.00886],[-115.77937,49.00886],[-115.77947,49.00884],[-115.77956,49.00883],[-115.77966,49.00881],[-115.77976,49.00882],[-115.77984,49.00882],[-115.77988,49.00881],[-115.77996,49.00881],[-115.78003,49.00881],[-115.78013,49.00881],[-115.78021,49.00882],[-115.78032,49.00881],[-115.78041,49.0088],[-115.78051,49.00879],[-115.78062,49.00877],[-115.7807,49.00876],[-115.7808,49.00875],[-115.78088,49.00875],[-115.78096,49.00874],[-115.78106,49.00872],[-115.78117,49.00871],[-115.78126,49.0087],[-115.78137,49.0087],[-115.78146,49.0087],[-115.78155,49.0087],[-115.78165,49.0087],[-115.78173,49.00871],[-115.78182,49.00872],[-115.78191,49.00873],[-115.78199,49.00874],[-115.78208,49.00875],[-115.78216,49.00877],[-115.78226,49.00879],[-115.78237,49.00882],[-115.78248,49.00885],[-115.78254,49.00887],[-115.78263,49.00889],[-115.78272,49.00892],[-115.7828,49.00895],[-115.78288,49.00897],[-115.78298,49.009],[-115.78309,49.00902],[-115.78317,49.00905],[-115.78326,49.00907],[-115.78337,49.0091],[-115.78346,49.00911],[-115.78354,49.00913],[-115.78362,49.00915],[-115.78371,49.00916],[-115.7838,49.00917],[-115.78389,49.00918],[-115.78397,49.00919],[-115.7841,49.00921],[-115.78418,49.00923],[-115.78426,49.00923],[-115.78433,49.00924],[-115.78444,49.00926],[-115.7846,49.00928],[-115.78471,49.0093],[-115.7848,49.00931],[-115.7849,49.00931],[-115.78508,49.00935],[-115.78519,49.00937],[-115.78548,49.00943],[-115.78557,49.00944],[-115.78568,49.00948],[-115.78577,49.00951],[-115.78607,49.00961],[-115.78615,49.00965],[-115.78624,49.00968],[-115.78633,49.00971],[-115.78642,49.00975],[-115.78662,49.00981],[-115.78682,49.00984],[-115.78691,49.00985],[-115.78701,49.00987],[-115.7871,49.00988],[-115.78718,49.00988],[-115.78737,49.0099],[-115.78747,49.00992],[-115.78755,49.00995],[-115.78763,49.00999],[-115.78774,49.01001],[-115.78782,49.01002],[-115.78801,49.01003],[-115.78827,49.01],[-115.78838,49.01],[-115.78849,49.00999],[-115.78867,49.00999],[-115.78886,49.00997],[-115.78896,49.00997],[-115.78904,49.00997],[-115.78912,49.00997],[-115.78929,49.00995],[-115.78949,49.00992],[-115.78958,49.00991],[-115.7898,49.00986],[-115.78989,49.00984],[-115.78997,49.00983],[-115.79008,49.00981],[-115.79017,49.00982],[-115.79026,49.00981],[-115.79056,49.00981],[-115.79066,49.00982],[-115.79086,49.00982],[-115.79097,49.00983],[-115.79105,49.00983],[-115.79112,49.00983],[-115.79153,49.00983],[-115.79164,49.00984],[-115.79178,49.00984],[-115.79189,49.00985],[-115.79208,49.00985],[-115.79218,49.00986],[-115.79227,49.00986],[-115.79249,49.00982],[-115.79266,49.00981],[-115.79274,49.00979],[-115.79283,49.00979],[-115.79294,49.00976],[-115.79311,49.00971],[-115.79322,49.00967],[-115.7933,49.00964],[-115.79341,49.00962],[-115.79344,49.00961],[-115.79349,49.00959],[-115.79359,49.00956],[-115.79377,49.00953],[-115.79387,49.00952],[-115.79406,49.00952],[-115.79414,49.00953],[-115.79425,49.00953],[-115.79443,49.00955],[-115.79449,49.00957],[-115.7947,49.0096],[-115.79481,49.0096],[-115.7949,49.00961],[-115.79509,49.00961],[-115.79546,49.00959],[-115.79581,49.0096],[-115.79628,49.00965],[-115.79668,49.00972],[-115.79677,49.00976],[-115.79687,49.00979],[-115.79698,49.00983],[-115.79706,49.00986],[-115.79723,49.00994],[-115.79734,49.01001],[-115.79744,49.01007],[-115.79753,49.01011],[-115.79761,49.01014],[-115.79772,49.0102],[-115.7978,49.01025],[-115.79797,49.01038],[-115.79825,49.01045],[-115.79834,49.01047],[-115.79841,49.01047],[-115.79867,49.01056],[-115.7989,49.01062],[-115.79897,49.01066],[-115.79901,49.01068],[-115.79909,49.01072],[-115.7992,49.01077],[-115.79936,49.01086],[-115.79956,49.01096],[-115.79979,49.01104],[-115.79982,49.01106],[-115.7999,49.0111],[-115.79999,49.01117],[-115.80002,49.01118],[-115.80009,49.01121],[-115.80018,49.01124],[-115.80029,49.01128],[-115.80039,49.01132],[-115.8005,49.01134],[-115.80062,49.01137],[-115.80073,49.0114],[-115.80079,49.0114],[-115.80096,49.01143],[-115.80111,49.01145],[-115.80124,49.01147],[-115.80146,49.01151],[-115.80156,49.01154],[-115.80164,49.0116],[-115.80173,49.01165],[-115.80185,49.01169],[-115.80195,49.01174],[-115.80206,49.01178],[-115.80214,49.01181],[-115.80225,49.01182],[-115.80234,49.01184],[-115.80244,49.01184],[-115.80256,49.01185],[-115.8027,49.01185],[-115.80282,49.01186],[-115.80293,49.01186],[-115.80329,49.01186],[-115.80353,49.01184],[-115.80363,49.01183],[-115.80371,49.01182],[-115.80379,49.0118],[-115.80388,49.01179],[-115.80399,49.01174],[-115.8041,49.0117],[-115.80441,49.01159],[-115.80452,49.01155],[-115.80461,49.01153],[-115.80472,49.01151],[-115.8048,49.01151],[-115.80498,49.01147],[-115.80506,49.01144],[-115.80535,49.01135],[-115.80554,49.01131],[-115.80562,49.01128],[-115.80572,49.01125],[-115.8058,49.01124],[-115.80591,49.0112],[-115.80616,49.01117],[-115.80643,49.01117],[-115.80652,49.01118],[-115.8066,49.0112],[-115.80668,49.01123],[-115.80688,49.01131],[-115.80696,49.01137],[-115.80704,49.01141],[-115.80714,49.01145],[-115.80722,49.01149],[-115.80729,49.01153],[-115.80737,49.01158],[-115.80746,49.01161],[-115.80756,49.01166],[-115.80783,49.01178],[-115.80792,49.01182],[-115.80805,49.01185],[-115.80815,49.01186],[-115.80826,49.01189],[-115.80837,49.01191],[-115.80854,49.01195],[-115.80863,49.01198],[-115.80889,49.01204],[-115.80898,49.01207],[-115.80908,49.01209],[-115.80927,49.01215],[-115.80945,49.01218],[-115.80956,49.0122],[-115.80968,49.01223],[-115.80979,49.01225],[-115.80988,49.01228],[-115.80999,49.0123],[-115.81007,49.01232],[-115.81018,49.01233],[-115.81051,49.01233],[-115.81061,49.01232],[-115.81071,49.01233],[-115.81082,49.01232],[-115.81114,49.01234],[-115.81138,49.01232],[-115.81154,49.01233],[-115.8119,49.01231],[-115.812,49.01229],[-115.81212,49.01227],[-115.81238,49.01226],[-115.81248,49.01226],[-115.81258,49.01225],[-115.81303,49.01226],[-115.81316,49.01227],[-115.81329,49.01228],[-115.81342,49.0123],[-115.81355,49.0123],[-115.81386,49.01236],[-115.81397,49.0124],[-115.81406,49.01245],[-115.81416,49.01248],[-115.81445,49.01266],[-115.81454,49.0127],[-115.81463,49.01275],[-115.81474,49.01281],[-115.81483,49.01288],[-115.8152,49.01305],[-115.81528,49.0131],[-115.8154,49.01314],[-115.81549,49.01319],[-115.81559,49.01322],[-115.81577,49.01325],[-115.81585,49.01325],[-115.81594,49.01322],[-115.81603,49.01317],[-115.81607,49.01311],[-115.81614,49.01304],[-115.81621,49.01298],[-115.81629,49.01292],[-115.81639,49.01284],[-115.81647,49.01279],[-115.81656,49.01275],[-115.81668,49.01269],[-115.81678,49.01262],[-115.81686,49.01257],[-115.81695,49.01249],[-115.81702,49.01244],[-115.8171,49.01238],[-115.81716,49.01233],[-115.81724,49.01227],[-115.81731,49.01221],[-115.81743,49.01215],[-115.81752,49.01212],[-115.8176,49.01211],[-115.81768,49.01209],[-115.81779,49.01207],[-115.81787,49.01206],[-115.81797,49.01206],[-115.81808,49.01207],[-115.8182,49.01207],[-115.81832,49.01207],[-115.81846,49.01208],[-115.81858,49.01209],[-115.81871,49.0121],[-115.81883,49.01211],[-115.81894,49.01212],[-115.81905,49.01213],[-115.81917,49.01215],[-115.81929,49.01218],[-115.81939,49.0122],[-115.81951,49.01222],[-115.81965,49.01225],[-115.81976,49.01227],[-115.81986,49.01227],[-115.81997,49.01227],[-115.82012,49.01227],[-115.82021,49.01227],[-115.82034,49.01227],[-115.82047,49.01228],[-115.8206,49.01228],[-115.82074,49.01231],[-115.82088,49.01233],[-115.82103,49.01234],[-115.82115,49.01234],[-115.82126,49.01234],[-115.82137,49.01235],[-115.82145,49.01233],[-115.82155,49.01232],[-115.82164,49.01228],[-115.82177,49.01227],[-115.82189,49.01223],[-115.82203,49.0122],[-115.82214,49.01216],[-115.82227,49.01214],[-115.82238,49.01213],[-115.82254,49.01212],[-115.82262,49.01212],[-115.82277,49.01212],[-115.82289,49.01212],[-115.82301,49.01213],[-115.82314,49.01214],[-115.82326,49.01215],[-115.82337,49.01216],[-115.82348,49.01217],[-115.8236,49.01219],[-115.82374,49.0122],[-115.82386,49.01222],[-115.82397,49.01225],[-115.82406,49.01228],[-115.82416,49.01232],[-115.82425,49.01237],[-115.82433,49.01242],[-115.82441,49.01247],[-115.8245,49.01252],[-115.82462,49.01259],[-115.82471,49.01265],[-115.82479,49.01269],[-115.82487,49.01272],[-115.82494,49.01277],[-115.82502,49.01286],[-115.82507,49.01292],[-115.82515,49.01298],[-115.82522,49.01305],[-115.82529,49.01312],[-115.82534,49.01317],[-115.82539,49.01323],[-115.82546,49.0133],[-115.82554,49.01337],[-115.8256,49.01343],[-115.82565,49.01349],[-115.8257,49.01355],[-115.82576,49.0136],[-115.82585,49.01367],[-115.82592,49.01372],[-115.826,49.01378],[-115.82601,49.01379]]}},
{"type":"Feature","properties":{"spotId":"F-grouse-drive-0029","kind":"roadside","km":4.0,"climbM":2,"name":"By Sundown Creek","flags":[]},"geometry":{"type":"LineString","coordinates":[[-115.83164,49.17701],[-115.83157,49.17706],[-115.83151,49.17712],[-115.83145,49.17719],[-115.8314,49.17726],[-115.83134,49.17733],[-115.8313,49.17741],[-115.83127,49.17749],[-115.83125,49.17757],[-115.83124,49.17764],[-115.83124,49.17772],[-115.83122,49.17779],[-115.83122,49.17786],[-115.8312,49.17795],[-115.8312,49.17803],[-115.8312,49.17808],[-115.8312,49.17813],[-115.83118,49.1782],[-115.83118,49.1783],[-115.83118,49.17836],[-115.83118,49.17841],[-115.83118,49.1785],[-115.83117,49.17856],[-115.83114,49.17905],[-115.83117,49.17911],[-115.83124,49.17918],[-115.8313,49.17924],[-115.83131,49.17931],[-115.83132,49.17936],[-115.83133,49.17941],[-115.83133,49.17947],[-115.83133,49.17953],[-115.83133,49.17959],[-115.83131,49.17966],[-115.83133,49.17973],[-115.83132,49.17978],[-115.83135,49.17985],[-115.83139,49.17991],[-115.83143,49.17997],[-115.83145,49.18004],[-115.83147,49.18009],[-115.83148,49.18014],[-115.83148,49.1802],[-115.83144,49.18026],[-115.83141,49.18031],[-115.83136,49.18037],[-115.83132,49.18044],[-115.83128,49.1805],[-115.83124,49.18057],[-115.83124,49.18063],[-115.83125,49.18068],[-115.83129,49.18074],[-115.8313,49.18081],[-115.8313,49.18088],[-115.8313,49.18095],[-115.83129,49.18101],[-115.83129,49.18108],[-115.83129,49.18113],[-115.8313,49.18119],[-115.8313,49.18125],[-115.83133,49.18131],[-115.83137,49.18138],[-115.83141,49.18146],[-115.83146,49.1815],[-115.83153,49.18157],[-115.83158,49.18163],[-115.83162,49.1817],[-115.83167,49.18177],[-115.8317,49.18185],[-115.8317,49.18191],[-115.8317,49.18197],[-115.8317,49.18203],[-115.83168,49.18211],[-115.83168,49.18216],[-115.83168,49.18222],[-115.83169,49.18229],[-115.83172,49.18235],[-115.83174,49.1824],[-115.83178,49.18246],[-115.83181,49.18252],[-115.83185,49.18258],[-115.83186,49.18263],[-115.83189,49.18269],[-115.83193,49.18276],[-115.83195,49.18281],[-115.83199,49.18287],[-115.83206,49.18295],[-115.8321,49.18301],[-115.83212,49.18306],[-115.83219,49.18314],[-115.83223,49.1832],[-115.83226,49.18325],[-115.83228,49.18332],[-115.83234,49.18339],[-115.83239,49.18346],[-115.83243,49.18354],[-115.83247,49.18359],[-115.8325,49.18364],[-115.83252,49.1837],[-115.83256,49.18376],[-115.8326,49.18382],[-115.83265,49.1839],[-115.83268,49.18396],[-115.83271,49.18402],[-115.83272,49.1841],[-115.83274,49.18417],[-115.83277,49.18424],[-115.83278,49.18429],[-115.83281,49.18436],[-115.83282,49.18441],[-115.83283,49.18448],[-115.83286,49.18457],[-115.83288,49.18464],[-115.83291,49.1847],[-115.83291,49.18475],[-115.83292,49.18482],[-115.83293,49.18487],[-115.83295,49.18493],[-115.83296,49.18499],[-115.83298,49.18505],[-115.833,49.18512],[-115.83302,49.18517],[-115.83306,49.18524],[-115.83307,49.1853],[-115.83309,49.18535],[-115.8331,49.1854],[-115.83313,49.18546],[-115.83316,49.18552],[-115.8332,49.18559],[-115.83324,49.18565],[-115.8333,49.18571],[-115.83338,49.18577],[-115.83345,49.18582],[-115.83353,49.18588],[-115.83355,49.18592],[-115.83358,49.18598],[-115.83363,49.18605],[-115.83364,49.18612],[-115.83364,49.18617],[-115.83364,49.18623],[-115.83364,49.1863],[-115.83364,49.18638],[-115.83362,49.18644],[-115.83362,49.1865],[-115.83361,49.18657],[-115.83358,49.18663],[-115.8336,49.1867],[-115.83364,49.18675],[-115.83371,49.18681],[-115.83375,49.18687],[-115.83383,49.18692],[-115.8339,49.18698],[-115.83395,49.18703],[-115.83401,49.18709],[-115.83406,49.18714],[-115.83414,49.1872],[-115.83422,49.18727],[-115.83432,49.18733],[-115.8344,49.18739],[-115.83448,49.18745],[-115.83455,49.18751],[-115.83461,49.18757],[-115.83471,49.18762],[-115.83477,49.18768],[-115.83486,49.18772],[-115.83494,49.18777],[-115.83503,49.18781],[-115.83513,49.18784],[-115.83522,49.18787],[-115.83532,49.18791],[-115.8354,49.18796],[-115.83548,49.18803],[-115.83555,49.18809],[-115.83561,49.18816],[-115.83568,49.18823],[-115.83575,49.1883],[-115.8358,49.18836],[-115.83587,49.18842],[-115.83591,49.18847],[-115.83598,49.18854],[-115.83603,49.18861],[-115.8361,49.18868],[-115.83616,49.18875],[-115.83623,49.18881],[-115.83628,49.18887],[-115.83636,49.18893],[-115.83643,49.18899],[-115.83651,49.18905],[-115.83661,49.18911],[-115.8367,49.18917],[-115.83678,49.18923],[-115.83685,49.18928],[-115.83692,49.18935],[-115.83699,49.18939],[-115.83702,49.18946],[-115.83706,49.18951],[-115.83709,49.18956],[-115.83713,49.18962],[-115.83717,49.18968],[-115.83722,49.18975],[-115.83726,49.18982],[-115.8373,49.18987],[-115.83736,49.18993],[-115.83742,49.18998],[-115.83749,49.19005],[-115.83752,49.19012],[-115.83753,49.19018],[-115.83753,49.19023],[-115.83757,49.1903],[-115.83763,49.19036],[-115.83772,49.19042],[-115.83777,49.19047],[-115.83782,49.19053],[-115.83789,49.1906],[-115.83794,49.19065],[-115.838,49.19072],[-115.83805,49.19078],[-115.83812,49.19084],[-115.83817,49.19091],[-115.83822,49.19097],[-115.83828,49.19103],[-115.83835,49.19109],[-115.8384,49.19114],[-115.83841,49.19121],[-115.83841,49.19127],[-115.83841,49.19133],[-115.83841,49.1914],[-115.83843,49.19146],[-115.83844,49.19152],[-115.83847,49.19158],[-115.8385,49.19164],[-115.83854,49.1917],[-115.83856,49.19175],[-115.83862,49.19181],[-115.83867,49.19187],[-115.83872,49.19193],[-115.83876,49.19198],[-115.83883,49.19204],[-115.83888,49.19209],[-115.83892,49.19216],[-115.83894,49.19223],[-115.83895,49.19231],[-115.83895,49.19235],[-115.83893,49.19241],[-115.83893,49.19246],[-115.83894,49.19253],[-115.83895,49.19261],[-115.83898,49.19267],[-115.83901,49.19274],[-115.83903,49.19279],[-115.83906,49.19286],[-115.83908,49.19292],[-115.83912,49.19299],[-115.83916,49.19307],[-115.83919,49.19312],[-115.83922,49.19318],[-115.83923,49.19324],[-115.83928,49.19331],[-115.83932,49.19337],[-115.83935,49.19344],[-115.83937,49.19349],[-115.83943,49.19356],[-115.83947,49.19363],[-115.83951,49.19371],[-115.83952,49.19375],[-115.83956,49.19382],[-115.83957,49.19388],[-115.83962,49.19394],[-115.83966,49.19401],[-115.83969,49.19407],[-115.83972,49.19413],[-115.83973,49.19421],[-115.83975,49.19427],[-115.83975,49.19432],[-115.83978,49.19439],[-115.83979,49.19443],[-115.8398,49.19449],[-115.83982,49.19455],[-115.83983,49.1946],[-115.83984,49.19467],[-115.83985,49.19473],[-115.83986,49.19478],[-115.83988,49.19485],[-115.83989,49.19492],[-115.8399,49.19497],[-115.83993,49.19504],[-115.83995,49.19509],[-115.83997,49.19514],[-115.84001,49.19521],[-115.84002,49.19528],[-115.84004,49.19535],[-115.84007,49.19542],[-115.84008,49.19549],[-115.84009,49.19553],[-115.84012,49.1956],[-115.84013,49.19567],[-115.84017,49.19573],[-115.8402,49.19578],[-115.8402,49.19583],[-115.8402,49.1959],[-115.84019,49.19596],[-115.84021,49.19604],[-115.84019,49.19609],[-115.8402,49.19614],[-115.8402,49.1962],[-115.8402,49.19625],[-115.84021,49.19631],[-115.84023,49.19637],[-115.84022,49.19642],[-115.84025,49.19649],[-115.84029,49.19654],[-115.84034,49.19661],[-115.84037,49.19665],[-115.84042,49.19671],[-115.84046,49.19678],[-115.84052,49.19685],[-115.84056,49.1969],[-115.8406,49.19697],[-115.84066,49.19703],[-115.8407,49.19708],[-115.84076,49.19714],[-115.84084,49.19719],[-115.84092,49.19724],[-115.84101,49.1973],[-115.84111,49.19736],[-115.8412,49.19741],[-115.8413,49.19745],[-115.84138,49.1975],[-115.84146,49.19753],[-115.84151,49.1976],[-115.84155,49.19765],[-115.84159,49.19771],[-115.84162,49.19779],[-115.84165,49.19785],[-115.84167,49.19791],[-115.84168,49.19799],[-115.84171,49.19806],[-115.84174,49.19813],[-115.84176,49.19818],[-115.84179,49.19825],[-115.84181,49.19832],[-115.84184,49.19839],[-115.84191,49.19846],[-115.84197,49.19853],[-115.84201,49.19858],[-115.84207,49.19866],[-115.84211,49.19873],[-115.84215,49.19879],[-115.84217,49.19885],[-115.8422,49.19892],[-115.84224,49.19898],[-115.84228,49.19904],[-115.84232,49.19911],[-115.84236,49.19918],[-115.84238,49.19925],[-115.84242,49.19931],[-115.84246,49.19937],[-115.84249,49.19943],[-115.84253,49.1995],[-115.84255,49.19955],[-115.84257,49.19958],[-115.84268,49.2],[-115.84271,49.20006],[-115.8427,49.20015],[-115.8427,49.20023],[-115.84271,49.2003],[-115.84271,49.20035],[-115.84273,49.20042],[-115.84274,49.20048],[-115.84279,49.20057],[-115.84282,49.20062],[-115.84287,49.2007],[-115.84292,49.20077],[-115.84298,49.20084],[-115.84302,49.2009],[-115.84306,49.20099],[-115.84308,49.20105],[-115.84309,49.20111],[-115.84313,49.20129],[-115.84314,49.20137],[-115.84316,49.20141],[-115.84318,49.20146],[-115.84321,49.20157],[-115.84323,49.20168],[-115.84327,49.20181],[-115.8433,49.20188],[-115.84335,49.20201],[-115.84337,49.20209],[-115.84339,49.20214],[-115.8434,49.20223],[-115.84341,49.20229],[-115.84342,49.20237],[-115.84347,49.20246],[-115.84353,49.20252],[-115.84357,49.20262],[-115.84358,49.20268],[-115.84358,49.20276],[-115.84358,49.20284],[-115.84359,49.20292],[-115.84361,49.20299],[-115.84365,49.20304],[-115.8438,49.20316],[-115.84389,49.20327],[-115.84393,49.20332],[-115.84397,49.20339],[-115.84403,49.20348],[-115.84407,49.20355],[-115.84412,49.20366],[-115.84413,49.20374],[-115.84416,49.20379],[-115.84417,49.20387],[-115.84422,49.20405],[-115.84423,49.20412],[-115.84426,49.20421],[-115.8443,49.20427],[-115.84432,49.20435],[-115.84437,49.20446],[-115.8444,49.20452],[-115.84444,49.20459],[-115.84449,49.20465],[-115.84453,49.20471],[-115.84457,49.20478],[-115.84464,49.20486],[-115.84469,49.20497],[-115.84472,49.20506],[-115.84474,49.20516],[-115.84477,49.20522],[-115.84478,49.20529],[-115.84482,49.20541],[-115.84482,49.20548],[-115.84482,49.20555],[-115.84481,49.20561],[-115.84481,49.20568],[-115.84478,49.20576],[-115.84478,49.20587],[-115.84478,49.20594],[-115.84479,49.206],[-115.84483,49.20608],[-115.8449,49.20617],[-115.84495,49.20625],[-115.845,49.20633],[-115.84502,49.20641],[-115.84504,49.20648],[-115.84509,49.20659],[-115.84511,49.20666],[-115.84512,49.20674],[-115.84512,49.20681],[-115.84513,49.2069],[-115.84512,49.20702],[-115.84512,49.20711],[-115.84513,49.2072],[-115.84513,49.20728],[-115.84515,49.20734],[-115.84517,49.20742],[-115.84518,49.20748],[-115.8452,49.20754],[-115.84521,49.20759],[-115.84523,49.20767],[-115.84525,49.20774],[-115.84528,49.20782],[-115.84531,49.20788],[-115.84532,49.20796],[-115.8454,49.2082],[-115.84541,49.20825],[-115.84541,49.20835],[-115.84541,49.20841],[-115.84541,49.20848],[-115.84546,49.20858],[-115.84553,49.20868],[-115.84557,49.20875],[-115.84561,49.20879],[-115.84571,49.20889],[-115.84578,49.20896],[-115.84583,49.20901],[-115.84591,49.2091],[-115.84598,49.20918],[-115.84599,49.20925],[-115.84598,49.20931],[-115.84593,49.20943],[-115.8459,49.20951],[-115.84592,49.20959],[-115.84594,49.20969],[-115.84595,49.20979],[-115.84596,49.2099],[-115.84596,49.21],[-115.84599,49.21011],[-115.84601,49.21019],[-115.84605,49.21027],[-115.84609,49.21034],[-115.84611,49.21038]]}},
{"type":"Feature","properties":{"spotId":"F-grouse-drive-0068","kind":"roadside","km":5.37,"climbM":11,"name":"480 m SE of Sunrise Creek","flags":[]},"geometry":{"type":"LineString","coordinates":[[-115.76469,49.21717],[-115.76465,49.21722],[-115.76459,49.21728],[-115.76448,49.2173],[-115.76439,49.2173],[-115.76418,49.21724],[-115.76402,49.21717],[-115.7639,49.21712],[-115.76375,49.21707],[-115.76363,49.21699],[-115.76353,49.21695],[-115.76341,49.21687],[-115.7633,49.21681],[-115.76323,49.21677],[-115.76312,49.21671],[-115.76298,49.21664],[-115.76289,49.21659],[-115.76281,49.21654],[-115.76272,49.2165],[-115.76262,49.21646],[-115.76253,49.21642],[-115.76246,49.21637],[-115.76241,49.21633],[-115.7623,49.21625],[-115.76222,49.21618],[-115.76214,49.21611],[-115.76206,49.21603],[-115.76199,49.21598],[-115.7619,49.2159],[-115.76181,49.21586],[-115.76175,49.21582],[-115.76165,49.21578],[-115.76145,49.21567],[-115.76138,49.21564],[-115.76126,49.21558],[-115.76119,49.21555],[-115.76107,49.21545],[-115.76099,49.21541],[-115.76092,49.21538],[-115.76081,49.21532],[-115.7607,49.21526],[-115.76053,49.21519],[-115.76036,49.21515],[-115.76024,49.21512],[-115.76013,49.21509],[-115.76005,49.21507],[-115.75995,49.21503],[-115.75987,49.21499],[-115.75978,49.21494],[-115.75967,49.21488],[-115.75962,49.21485],[-115.75952,49.21476],[-115.75948,49.2147],[-115.75946,49.21463],[-115.75946,49.21457],[-115.75946,49.21448],[-115.75945,49.21438],[-115.75945,49.21431],[-115.75944,49.21424],[-115.75941,49.21419],[-115.75933,49.21409],[-115.75926,49.21404],[-115.75916,49.214],[-115.75886,49.21393],[-115.75877,49.21393],[-115.75861,49.21393],[-115.75847,49.21394],[-115.75824,49.21398],[-115.7581,49.21401],[-115.75795,49.21405],[-115.75778,49.21408],[-115.75767,49.2141],[-115.75759,49.21411],[-115.75748,49.21413],[-115.75738,49.21416],[-115.75724,49.21418],[-115.75716,49.2142],[-115.75704,49.21422],[-115.75683,49.21428],[-115.75665,49.21433],[-115.75648,49.21437],[-115.75629,49.21441],[-115.75621,49.21442],[-115.75611,49.21445],[-115.75596,49.21448],[-115.75575,49.21452],[-115.7556,49.21454],[-115.75547,49.21458],[-115.75536,49.2146],[-115.75524,49.21465],[-115.75513,49.21469],[-115.75503,49.21473],[-115.75495,49.21478],[-115.75489,49.21483],[-115.75479,49.21493],[-115.75471,49.21504],[-115.75469,49.21514],[-115.75469,49.21522],[-115.75469,49.21534],[-115.75468,49.21542],[-115.7547,49.21548],[-115.75471,49.21555],[-115.75479,49.21568],[-115.75487,49.21573],[-115.75492,49.21578],[-115.75498,49.21587],[-115.75506,49.21596],[-115.75514,49.21603],[-115.75523,49.2161],[-115.75532,49.21618],[-115.75539,49.21623],[-115.75547,49.21627],[-115.75557,49.21632],[-115.75565,49.21634],[-115.7558,49.21641],[-115.75587,49.21649],[-115.75592,49.21653],[-115.75596,49.21659],[-115.75597,49.21664],[-115.75596,49.21671],[-115.75593,49.21679],[-115.75576,49.21685],[-115.75565,49.21686],[-115.7555,49.21686],[-115.75542,49.21686],[-115.75531,49.21686],[-115.75513,49.21689],[-115.75498,49.21692],[-115.75481,49.21693],[-115.7547,49.21692],[-115.75451,49.21692],[-115.7544,49.21689],[-115.75428,49.21685],[-115.75418,49.21681],[-115.7541,49.21678],[-115.75397,49.21672],[-115.75388,49.21669],[-115.7536,49.21662],[-115.75338,49.21659],[-115.75321,49.21658],[-115.75312,49.21658],[-115.75305,49.2166],[-115.7529,49.21664],[-115.75281,49.21666],[-115.75267,49.2167],[-115.75256,49.21673],[-115.75245,49.21677],[-115.75233,49.2168],[-115.75218,49.21687],[-115.75207,49.21691],[-115.75194,49.21698],[-115.75183,49.21703],[-115.75175,49.21708],[-115.75165,49.21715],[-115.75152,49.21726],[-115.75135,49.21737],[-115.75117,49.21749],[-115.75107,49.21754],[-115.751,49.2176],[-115.75091,49.21766],[-115.75078,49.21774],[-115.75061,49.21782],[-115.75048,49.21788],[-115.75031,49.21796],[-115.75024,49.218],[-115.75011,49.21805],[-115.75004,49.2181],[-115.74995,49.21815],[-115.74979,49.21823],[-115.74968,49.21832],[-115.74932,49.21849],[-115.74922,49.21854],[-115.74915,49.21857],[-115.74904,49.21864],[-115.74896,49.21871],[-115.7488,49.21879],[-115.74872,49.21885],[-115.74864,49.21892],[-115.74851,49.219],[-115.74844,49.21907],[-115.74837,49.21912],[-115.7483,49.21917],[-115.7482,49.21925],[-115.74813,49.21931],[-115.74806,49.21938],[-115.74796,49.21947],[-115.74789,49.21954],[-115.74784,49.2196],[-115.74778,49.21968],[-115.74767,49.21979],[-115.7476,49.21987],[-115.74748,49.21999],[-115.74738,49.22009],[-115.74733,49.22021],[-115.74728,49.2203],[-115.74724,49.22037],[-115.7472,49.22044],[-115.74714,49.22054],[-115.74708,49.22063],[-115.74698,49.22077],[-115.74693,49.22085],[-115.74687,49.22093],[-115.74683,49.221],[-115.74677,49.22108],[-115.7467,49.22116],[-115.74657,49.22133],[-115.74651,49.22141],[-115.74646,49.22148],[-115.7464,49.22158],[-115.74631,49.22167],[-115.74629,49.22173],[-115.74624,49.22178],[-115.74619,49.22191],[-115.74611,49.222],[-115.74606,49.22208],[-115.74601,49.22216],[-115.74591,49.2223],[-115.74586,49.22239],[-115.7458,49.22249],[-115.74577,49.22253],[-115.74574,49.22258],[-115.74568,49.22269],[-115.74564,49.22277],[-115.74559,49.22284],[-115.74553,49.22292],[-115.74548,49.223],[-115.74543,49.22308],[-115.74536,49.22317],[-115.74533,49.22323],[-115.7453,49.22329],[-115.74524,49.22339],[-115.74516,49.22349],[-115.74511,49.22357],[-115.74507,49.22365],[-115.74504,49.2237],[-115.74503,49.22376],[-115.745,49.22386],[-115.74495,49.22393],[-115.74495,49.22395],[-115.74492,49.22401],[-115.74489,49.22408],[-115.74488,49.22415],[-115.74485,49.22422],[-115.74483,49.22428],[-115.74481,49.22435],[-115.74479,49.2244],[-115.74476,49.22446],[-115.74473,49.22451],[-115.7447,49.22457],[-115.74465,49.22464],[-115.74463,49.2247],[-115.74459,49.22478],[-115.74455,49.22482],[-115.74449,49.22487],[-115.74436,49.22492],[-115.74417,49.22498],[-115.74403,49.225],[-115.74385,49.225],[-115.74373,49.22499],[-115.74362,49.22498],[-115.74353,49.22498],[-115.74337,49.22498],[-115.74325,49.225],[-115.74318,49.22502],[-115.7431,49.22504],[-115.74295,49.22508],[-115.74286,49.22511],[-115.74277,49.22514],[-115.7427,49.22517],[-115.7426,49.22523],[-115.74252,49.22528],[-115.74243,49.22536],[-115.74235,49.22543],[-115.74225,49.2255],[-115.74216,49.22556],[-115.74208,49.22564],[-115.742,49.2257],[-115.74187,49.22581],[-115.74181,49.22585],[-115.74174,49.22592],[-115.7416,49.22602],[-115.74151,49.22607],[-115.74145,49.22612],[-115.74134,49.22617],[-115.7412,49.22624],[-115.7411,49.22629],[-115.74094,49.22636],[-115.74085,49.22641],[-115.7407,49.22647],[-115.74059,49.22652],[-115.74051,49.22656],[-115.74044,49.22659],[-115.74034,49.22663],[-115.74025,49.22669],[-115.74014,49.22677],[-115.74006,49.22682],[-115.73997,49.22689],[-115.73992,49.22697],[-115.73985,49.22705],[-115.73978,49.22713],[-115.73969,49.22723],[-115.73963,49.22732],[-115.73956,49.22739],[-115.73951,49.22746],[-115.73946,49.22752],[-115.73938,49.22763],[-115.73932,49.22768],[-115.73927,49.22774],[-115.73922,49.22779],[-115.73917,49.22785],[-115.7391,49.22792],[-115.73904,49.22797],[-115.73898,49.22802],[-115.73894,49.22807],[-115.73891,49.22812],[-115.73883,49.22819],[-115.73877,49.22827],[-115.73874,49.22833],[-115.73871,49.22839],[-115.73861,49.2286],[-115.73858,49.22865],[-115.73854,49.22871],[-115.73851,49.22877],[-115.73847,49.22881],[-115.73836,49.22895],[-115.73833,49.229],[-115.73816,49.22921],[-115.7381,49.22927],[-115.73798,49.22935],[-115.73788,49.22942],[-115.73775,49.22942],[-115.73762,49.22942],[-115.73749,49.22941],[-115.73719,49.22937],[-115.7371,49.22936],[-115.73633,49.22935],[-115.73623,49.22936],[-115.73611,49.22936],[-115.73601,49.22939],[-115.73575,49.22941],[-115.73546,49.22947],[-115.73531,49.22951],[-115.73521,49.22953],[-115.73499,49.22961],[-115.73482,49.22968],[-115.73461,49.22978],[-115.73438,49.22987],[-115.73428,49.22992],[-115.73421,49.22996],[-115.7341,49.23001],[-115.7339,49.23013],[-115.73375,49.23024],[-115.73367,49.23032],[-115.7336,49.23035],[-115.73353,49.23039],[-115.73341,49.23048],[-115.73326,49.23058],[-115.73316,49.23067],[-115.73305,49.23076],[-115.73276,49.23097],[-115.73259,49.2311],[-115.73243,49.23122],[-115.73235,49.23127],[-115.7322,49.23139],[-115.73213,49.23143],[-115.73204,49.23148],[-115.73168,49.2317],[-115.7315,49.23179],[-115.73129,49.23193],[-115.73111,49.23201],[-115.73082,49.23216],[-115.73065,49.23227],[-115.73051,49.23234],[-115.73034,49.23242],[-115.73026,49.23247],[-115.73016,49.23252],[-115.72993,49.2326],[-115.72977,49.23267],[-115.72969,49.2327],[-115.72913,49.2329],[-115.72893,49.23298],[-115.72883,49.233],[-115.72853,49.23307],[-115.72833,49.2331],[-115.72824,49.23311],[-115.72815,49.23312],[-115.72795,49.23315],[-115.72784,49.23317],[-115.72753,49.23323],[-115.72735,49.23324],[-115.72705,49.23327],[-115.72686,49.23331],[-115.72653,49.23335],[-115.72631,49.23336],[-115.72616,49.23338],[-115.72606,49.2334],[-115.72589,49.23341],[-115.72577,49.23342],[-115.72566,49.23342],[-115.72533,49.23346],[-115.72522,49.23348],[-115.72508,49.2335],[-115.72498,49.2335],[-115.72479,49.23357],[-115.72454,49.23365],[-115.72424,49.23371],[-115.72403,49.23378],[-115.72391,49.23381],[-115.72352,49.2339],[-115.72319,49.234],[-115.72305,49.23403],[-115.72295,49.23405],[-115.72272,49.23411],[-115.72258,49.23413],[-115.72244,49.23417],[-115.72218,49.23425],[-115.72198,49.23431],[-115.72179,49.23439],[-115.72166,49.23443],[-115.72134,49.23457],[-115.72115,49.23464],[-115.72104,49.23466],[-115.72091,49.23471],[-115.72072,49.23477],[-115.72017,49.23492],[-115.71999,49.23496],[-115.71988,49.23498],[-115.71977,49.23501],[-115.71957,49.23504],[-115.71942,49.23508],[-115.71934,49.23511],[-115.71916,49.23515],[-115.71903,49.23519],[-115.71873,49.23529],[-115.71845,49.23536],[-115.71829,49.23541],[-115.71811,49.23546],[-115.71797,49.23552],[-115.71754,49.23566],[-115.71722,49.23577],[-115.71709,49.23583],[-115.71666,49.23599],[-115.71641,49.23611],[-115.716,49.23627],[-115.7156,49.23641],[-115.71533,49.23651],[-115.71522,49.23658],[-115.71511,49.23666],[-115.71491,49.23676],[-115.71483,49.2368],[-115.71476,49.23684],[-115.71432,49.23706],[-115.71393,49.2372],[-115.71383,49.23723],[-115.71364,49.23729],[-115.71351,49.23732],[-115.71339,49.23735],[-115.71329,49.23737],[-115.71313,49.23738],[-115.713,49.2374],[-115.7129,49.23741],[-115.71285,49.23743]]}},
{"type":"Feature","properties":{"spotId":"F-moose-atv-0014","kind":"ride","km":1.83,"climbM":50,"name":"By Moyie River","flags":[]},"geometry":{"type":"LineString","coordinates":[[-115.93373,49.21299],[-115.93249,49.21331],[-115.93214,49.21341],[-115.93134,49.21364],[-115.93044,49.21388],[-115.93036,49.21391],[-115.93026,49.21393],[-115.93011,49.21397],[-115.93,49.214],[-115.92992,49.21401],[-115.92981,49.21405],[-115.92967,49.21408],[-115.92952,49.21413],[-115.92938,49.21417],[-115.92928,49.2142],[-115.9292,49.21422],[-115.92912,49.21424],[-115.92902,49.21426],[-115.92883,49.21432],[-115.9287,49.21435],[-115.92854,49.21439],[-115.9284,49.21442],[-115.9282,49.21449],[-115.92809,49.21453],[-115.92798,49.21455],[-115.92772,49.21462],[-115.92756,49.21467],[-115.92747,49.21469],[-115.92732,49.21473],[-115.92724,49.21474],[-115.92713,49.21477],[-115.92702,49.21479],[-115.92682,49.21481],[-115.92669,49.21483],[-115.92638,49.21491],[-115.92563,49.21502],[-115.92489,49.21514],[-115.92414,49.21525],[-115.92335,49.21538],[-115.92204,49.21559],[-115.92076,49.21578],[-115.92017,49.21587],[-115.92009,49.21589],[-115.91995,49.21592],[-115.9198,49.21594],[-115.91966,49.21597],[-115.91949,49.21598],[-115.91941,49.216],[-115.91923,49.21603],[-115.91914,49.21603],[-115.91905,49.21604],[-115.91897,49.21606],[-115.91882,49.21608],[-115.91868,49.21609],[-115.91858,49.21611],[-115.91832,49.21614],[-115.91821,49.21616],[-115.91813,49.21618],[-115.91803,49.21619],[-115.9179,49.2162],[-115.91781,49.21622],[-115.91773,49.21623],[-115.91755,49.21625],[-115.91746,49.21626],[-115.9173,49.21629],[-115.91721,49.2163],[-115.91711,49.2163],[-115.91699,49.21632],[-115.91686,49.21634],[-115.91673,49.21635],[-115.91659,49.21635],[-115.91651,49.21635],[-115.91637,49.21636],[-115.91624,49.21637],[-115.91615,49.21637],[-115.91601,49.21637],[-115.91591,49.21636],[-115.91579,49.21636],[-115.9157,49.21635],[-115.91556,49.21634],[-115.91546,49.21634],[-115.91531,49.21634],[-115.9152,49.21635],[-115.9151,49.21636],[-115.91501,49.21636],[-115.91488,49.21638],[-115.91479,49.21641],[-115.91464,49.21642],[-115.91455,49.21645],[-115.91446,49.21647],[-115.91437,49.21648],[-115.91424,49.21651],[-115.91414,49.21654],[-115.91399,49.21656],[-115.91385,49.21659],[-115.91377,49.21661],[-115.91364,49.21662],[-115.91348,49.21666],[-115.91333,49.21668],[-115.91322,49.2167],[-115.91308,49.21672],[-115.9129,49.21676],[-115.91275,49.21678],[-115.91262,49.21682],[-115.91237,49.21687],[-115.91228,49.21689],[-115.91206,49.21693],[-115.91195,49.21695],[-115.91181,49.21698],[-115.9117,49.217],[-115.91158,49.21702],[-115.91148,49.21703],[-115.91123,49.21709],[-115.9109,49.21714],[-115.91076,49.21717],[-115.91068,49.2172],[-115.91053,49.21722],[-115.91043,49.21726],[-115.91029,49.21729],[-115.9102,49.21733],[-115.91002,49.21739],[-115.90989,49.21743],[-115.90977,49.21748]]}},
{"type":"Feature","properties":{"spotId":"F-moose-atv-0014","kind":"walk","km":0.18,"climbM":0,"name":"By Moyie River","flags":[]},"geometry":{"type":"LineString","coordinates":[[-115.93373,49.21299],[-115.93396,49.21457]]}},
{"type":"Feature","properties":{"spotId":"F-moose-drive-0008","kind":"walk","km":0.26,"climbM":17,"name":"300 m N of Freeman Creek","flags":[]},"geometry":{"type":"LineString","coordinates":[[-115.84191,49.01817],[-115.84136,49.02045]]}},
{"type":"Feature","properties":{"spotId":"F-moose-drive-0024","kind":"walk","km":0.06,"climbM":0,"name":"210 m N of Moyie River","flags":[]},"geometry":{"type":"LineString","coordinates":[[-115.96057,49.21098],[-115.9602,49.21049]]}},
{"type":"Feature","properties":{"spotId":"F-moose-walk-0003","kind":"walk","km":0.38,"climbM":3,"name":"By Freeman Creek","flags":[]},"geometry":{"type":"LineString","coordinates":[[-115.87699,49.0329],[-115.87289,49.03498]]}},
{"type":"Feature","properties":{"spotId":"F-moose-walk-0015","kind":"walk","km":0.43,"climbM":15,"name":"220 m SW of Freeman Creek","flags":[]},"geometry":{"type":"LineString","coordinates":[[-115.86064,49.02378],[-115.86623,49.02255]]}},
{"type":"Feature","properties":{"spotId":"F-moose-walk-0016","kind":"walk","km":0.46,"climbM":1,"name":"By Moyie River","flags":["Route crosses private land (ParcelMap BC, updated 2026-09-26): get permission first or go around."]},"geometry":{"type":"LineString","coordinates":[[-115.91953,49.22272],[-115.91737,49.21885]]}}
]}
