{"type":"FeatureCollection","features":[
{"type":"Feature","properties":{"spotId":"F-camp-camp-0016","kind":"walk","km":0.11,"climbM":9,"name":"160 m W of Pommier Creek","flags":[]},"geometry":{"type":"LineString","coordinates":[[-115.81862,49.87983],[-115.8202,49.8799]]}},
{"type":"Feature","properties":{"spotId":"F-camp-camp-0025","kind":"walk","km":0.04,"climbM":0,"name":"140 m S of Sandown Creek","flags":[]},"geometry":{"type":"LineString","coordinates":[[-115.87317,49.99724],[-115.87271,49.99745]]}},
{"type":"Feature","properties":{"spotId":"F-camp-camp-0062","kind":"walk","km":0.07,"climbM":0,"name":"450 m W of Skookumchuck Creek","flags":[]},"geometry":{"type":"LineString","coordinates":[[-115.87908,49.89576],[-115.8784,49.89624]]}},
{"type":"Feature","properties":{"spotId":"F-camp-camp-0064","kind":"walk","km":0.19,"climbM":0,"name":"1.0 km SE of Mather Creek","flags":[]},"geometry":{"type":"LineString","coordinates":[[-115.9102,49.79395],[-115.90921,49.79553]]}},
{"type":"Feature","properties":{"spotId":"F-camp-camp-0065","kind":"walk","km":0.21,"climbM":0,"name":"790 m W of Ta Ta Creek","flags":[]},"geometry":{"type":"LineString","coordinates":[[-115.84904,49.78817],[-115.84736,49.78977]]}},
{"type":"Feature","properties":{"spotId":"F-deer-atv-0005","kind":"ride","km":3.4,"climbM":25,"name":"1.2 km NW of Kootenay River","flags":[]},"geometry":{"type":"LineString","coordinates":[[-115.7551,49.84212],[-115.75508,49.84221],[-115.75506,49.84237],[-115.75507,49.84258],[-115.75518,49.84293],[-115.75532,49.84325],[-115.75545,49.84346],[-115.75553,49.84357],[-115.75565,49.84371],[-115.7559,49.84405],[-115.75597,49.84423],[-115.75603,49.84444],[-115.75608,49.84478],[-115.75612,49.84526],[-115.75614,49.8456],[-115.75611,49.84605],[-115.75613,49.84629],[-115.75617,49.84647],[-115.75622,49.84667],[-115.75624,49.84687],[-115.75625,49.84702],[-115.75626,49.84721],[-115.75625,49.84745],[-115.75622,49.84786],[-115.75619,49.848],[-115.75615,49.84825],[-115.75608,49.84848],[-115.75591,49.84913],[-115.75586,49.84928],[-115.75577,49.84967],[-115.75576,49.84984],[-115.75577,49.85005],[-115.75581,49.85026],[-115.75583,49.85039],[-115.7559,49.85056],[-115.75593,49.8507],[-115.75604,49.85099],[-115.75609,49.85112],[-115.75617,49.85128],[-115.75622,49.8514],[-115.75626,49.85152],[-115.75627,49.85186],[-115.75627,49.85198],[-115.75631,49.85283],[-115.75631,49.85301],[-115.75635,49.8532],[-115.75637,49.8534],[-115.75641,49.85359],[-115.75646,49.85377],[-115.75648,49.85404],[-115.75653,49.85429],[-115.75655,49.85444],[-115.75656,49.8547],[-115.75657,49.85484],[-115.75655,49.85498],[-115.75647,49.85546],[-115.75646,49.85564],[-115.75642,49.85573],[-115.7564,49.85581],[-115.75632,49.85581],[-115.75615,49.85579],[-115.75606,49.85577],[-115.75595,49.85575],[-115.75584,49.85572],[-115.75564,49.85566],[-115.75559,49.85563],[-115.75548,49.85559],[-115.75535,49.85553],[-115.75522,49.85547],[-115.75491,49.85534],[-115.75483,49.8553],[-115.75473,49.85525],[-115.75454,49.85518],[-115.75445,49.85513],[-115.75434,49.85508],[-115.75414,49.85497],[-115.75406,49.85492],[-115.75401,49.85488],[-115.75397,49.85485],[-115.75394,49.85482],[-115.7539,49.85478],[-115.75386,49.85474],[-115.7538,49.8547],[-115.75379,49.85466],[-115.75378,49.85461],[-115.75375,49.85457],[-115.75372,49.85453],[-115.75368,49.85449],[-115.75359,49.85443],[-115.75348,49.85438],[-115.75328,49.8543],[-115.75323,49.85428],[-115.75315,49.85422],[-115.75302,49.85415],[-115.7529,49.85407],[-115.75276,49.85398],[-115.75263,49.85391],[-115.75253,49.85387],[-115.75243,49.85384],[-115.75235,49.85382],[-115.75225,49.85378],[-115.75216,49.85373],[-115.75208,49.8537],[-115.75201,49.85365],[-115.7519,49.85356],[-115.75186,49.85352],[-115.75182,49.85347],[-115.75171,49.85334],[-115.75164,49.85327],[-115.75157,49.85321],[-115.75153,49.85318],[-115.75145,49.85313],[-115.75133,49.85294],[-115.75126,49.85287],[-115.75115,49.85277],[-115.75089,49.8526],[-115.7508,49.85254],[-115.75063,49.85243],[-115.75038,49.85227],[-115.75007,49.85211],[-115.74915,49.85167],[-115.74819,49.85126],[-115.74693,49.85067],[-115.74598,49.85019],[-115.74529,49.8498],[-115.74476,49.84949],[-115.74448,49.84929],[-115.74426,49.84909],[-115.74402,49.84879],[-115.74378,49.84833],[-115.7435,49.84775],[-115.74333,49.84716],[-115.74316,49.84675],[-115.743,49.84655],[-115.74292,49.84645],[-115.74286,49.84637],[-115.74274,49.84633],[-115.74259,49.84625],[-115.74228,49.84616],[-115.74196,49.84609],[-115.74166,49.846],[-115.74137,49.84593],[-115.74109,49.84585],[-115.74106,49.84584],[-115.7408,49.84577],[-115.7405,49.84567],[-115.7402,49.84562],[-115.73992,49.84552],[-115.73982,49.84551],[-115.73977,49.84544],[-115.73973,49.84533],[-115.73972,49.84513],[-115.73972,49.84505],[-115.73976,49.84483],[-115.73974,49.84464],[-115.73974,49.84463],[-115.73976,49.84462],[-115.73982,49.8445],[-115.7398,49.84445]]}},
{"type":"Feature","properties":{"spotId":"F-deer-atv-0005","kind":"walk","km":0.26,"climbM":28,"name":"1.2 km NW of Kootenay River","flags":[]},"geometry":{"type":"LineString","coordinates":[[-115.7551,49.84212],[-115.75859,49.8414]]}},
{"type":"Feature","properties":{"spotId":"F-deer-atv-0036","kind":"ride","km":1.69,"climbM":1,"name":"1.2 km E of Lost Dog Creek","flags":[]},"geometry":{"type":"LineString","coordinates":[[-115.85914,49.7988],[-115.85897,49.79875],[-115.85882,49.79872],[-115.85871,49.79871],[-115.85856,49.7987],[-115.85849,49.7987],[-115.85839,49.79869],[-115.85825,49.79868],[-115.85814,49.79868],[-115.85804,49.79868],[-115.85792,49.79868],[-115.85781,49.79865],[-115.85768,49.79862],[-115.85757,49.79859],[-115.85748,49.79858],[-115.85731,49.79857],[-115.85723,49.79856],[-115.8571,49.79852],[-115.85699,49.79845],[-115.85688,49.79838],[-115.85677,49.79832],[-115.85664,49.79828],[-115.85651,49.79825],[-115.85639,49.79822],[-115.85626,49.79821],[-115.85617,49.79819],[-115.85601,49.79814],[-115.85593,49.7981],[-115.85585,49.79806],[-115.85577,49.79803],[-115.85563,49.79794],[-115.85559,49.79787],[-115.85559,49.79781],[-115.85559,49.79775],[-115.85562,49.79768],[-115.85575,49.79763],[-115.85585,49.79763],[-115.85596,49.79764],[-115.85605,49.79766],[-115.85615,49.79769],[-115.85629,49.79775],[-115.85638,49.79778],[-115.85655,49.79779],[-115.85665,49.7978],[-115.85674,49.7978],[-115.85695,49.7978],[-115.85709,49.79779],[-115.85719,49.79779],[-115.8573,49.79778],[-115.85741,49.79776],[-115.85755,49.79773],[-115.85776,49.79771],[-115.85786,49.7977],[-115.85798,49.79769],[-115.85811,49.79769],[-115.85825,49.79768],[-115.85833,49.79767],[-115.85843,49.79766],[-115.85857,49.79764],[-115.85865,49.79762],[-115.85881,49.79761],[-115.8589,49.7976],[-115.85903,49.79759],[-115.85914,49.79758],[-115.85931,49.79757],[-115.85945,49.79756],[-115.85953,49.79755],[-115.85968,49.79755],[-115.85977,49.79755],[-115.85986,49.79755],[-115.86006,49.79754],[-115.8602,49.79753],[-115.86035,49.7975],[-115.86048,49.79748],[-115.86063,49.79746],[-115.86075,49.79745],[-115.86088,49.79743],[-115.86098,49.79741],[-115.86108,49.7974],[-115.86123,49.79736],[-115.86133,49.79735],[-115.86141,49.79733],[-115.86155,49.7973],[-115.86163,49.79729],[-115.86177,49.79727],[-115.86187,49.79725],[-115.86198,49.79723],[-115.86212,49.79719],[-115.86228,49.79715],[-115.86239,49.79711],[-115.86246,49.7971],[-115.8626,49.79707],[-115.8627,49.79705],[-115.86279,49.79705],[-115.86289,49.79703],[-115.86299,49.79701],[-115.8631,49.79699],[-115.8632,49.79698],[-115.86329,49.79697],[-115.86339,49.79694],[-115.86349,49.79692],[-115.86364,49.79687],[-115.86376,49.79685],[-115.86391,49.7968],[-115.86408,49.79679],[-115.86423,49.79675],[-115.8644,49.79672],[-115.86455,49.79669],[-115.86464,49.79668],[-115.86482,49.79666],[-115.86491,49.79665],[-115.86501,49.79665],[-115.86519,49.79665],[-115.86529,49.79665],[-115.86539,49.79663],[-115.86554,49.7966],[-115.86562,49.79657],[-115.86571,49.79655],[-115.86581,49.79653],[-115.86599,49.7965],[-115.86609,49.79647],[-115.86621,49.79646],[-115.86632,49.79643],[-115.86643,49.79642],[-115.86652,49.79641],[-115.86663,49.79639],[-115.86673,49.79637],[-115.86688,49.79634],[-115.86701,49.79631],[-115.86715,49.79629],[-115.86723,49.79627],[-115.86733,49.79624],[-115.86741,49.79623],[-115.86751,49.7962],[-115.86766,49.79614],[-115.86776,49.7961],[-115.86787,49.79604],[-115.86799,49.79596],[-115.86813,49.79588],[-115.86821,49.79584],[-115.86834,49.79577],[-115.86841,49.79571],[-115.86848,49.79564],[-115.8685,49.79563],[-115.86858,49.79556],[-115.86866,49.79551],[-115.86878,49.79543],[-115.8689,49.79536],[-115.86903,49.79528],[-115.86913,49.79522],[-115.86926,49.79512],[-115.86934,49.79505],[-115.86943,49.79501],[-115.86951,49.79494],[-115.86965,49.79485],[-115.86977,49.79477],[-115.86984,49.7947],[-115.86994,49.79464],[-115.87002,49.79458],[-115.87009,49.79454],[-115.87023,49.79448],[-115.87032,49.79445],[-115.87046,49.79438],[-115.87057,49.79429],[-115.87063,49.79423],[-115.87072,49.79416],[-115.87078,49.79411],[-115.87082,49.79406],[-115.87085,49.79399],[-115.8709,49.79394],[-115.87095,49.79386],[-115.87101,49.79378],[-115.87104,49.79372],[-115.87104,49.79364],[-115.87104,49.79357],[-115.87105,49.79352],[-115.87103,49.79346],[-115.87103,49.79338],[-115.87101,49.79328],[-115.87098,49.79322],[-115.87096,49.79316],[-115.87094,49.79308],[-115.87093,49.79301],[-115.87092,49.79291],[-115.87091,49.79285],[-115.87088,49.79278],[-115.87083,49.79271]]}},
{"type":"Feature","properties":{"spotId":"F-deer-atv-0036","kind":"walk","km":0.21,"climbM":0,"name":"1.2 km E of Lost Dog Creek","flags":[]},"geometry":{"type":"LineString","coordinates":[[-115.85914,49.7988],[-115.8603,49.79709]]}},
{"type":"Feature","properties":{"spotId":"F-deer-atv-0057","kind":"ride","km":1.03,"climbM":14,"name":"1.1 km W of Kootenay River","flags":[]},"geometry":{"type":"LineString","coordinates":[[-115.81017,49.97173],[-115.81055,49.97188],[-115.81084,49.97204],[-115.81092,49.9722],[-115.81086,49.97237],[-115.81053,49.97267],[-115.81036,49.97293],[-115.81025,49.97323],[-115.81008,49.97358],[-115.80982,49.9741],[-115.80947,49.97474],[-115.8093,49.97501],[-115.80914,49.97539],[-115.80906,49.9757],[-115.80909,49.9762],[-115.80904,49.97642],[-115.80905,49.97663],[-115.80885,49.97684],[-115.80862,49.97692],[-115.80829,49.97704],[-115.8086,49.9771],[-115.80899,49.97716],[-115.80923,49.97728],[-115.80929,49.97744],[-115.80932,49.97762],[-115.80949,49.97802],[-115.80987,49.97865],[-115.80997,49.97893],[-115.80997,49.97923],[-115.80993,49.97931],[-115.80979,49.97974]]}},
{"type":"Feature","properties":{"spotId":"F-deer-atv-0057","kind":"walk","km":0.09,"climbM":0,"name":"1.1 km W of Kootenay River","flags":[]},"geometry":{"type":"LineString","coordinates":[[-115.81017,49.97173],[-115.80914,49.97226]]}},
{"type":"Feature","properties":{"spotId":"F-deer-atv-0077","kind":"ride","km":3.52,"climbM":15,"name":"3.0 km E of Echoes Lakes","flags":[]},"geometry":{"type":"LineString","coordinates":[[-115.76481,49.87186],[-115.7648,49.87207],[-115.76471,49.87288],[-115.76466,49.87343],[-115.7646,49.87444],[-115.76457,49.87491],[-115.76453,49.87556],[-115.76449,49.87606],[-115.76441,49.87686],[-115.76438,49.87739],[-115.76432,49.87805],[-115.76429,49.87849],[-115.76423,49.87926],[-115.7642,49.87977],[-115.76415,49.88059],[-115.76412,49.88107],[-115.76404,49.88186],[-115.76401,49.88231],[-115.76395,49.88297],[-115.76391,49.88348],[-115.76388,49.88397],[-115.76382,49.88467],[-115.7638,49.88508],[-115.76374,49.88569],[-115.76372,49.88639],[-115.76366,49.88692],[-115.7636,49.8877],[-115.76359,49.88802],[-115.76355,49.88859],[-115.76354,49.88868],[-115.76351,49.8889],[-115.76346,49.88948],[-115.7634,49.89023],[-115.76339,49.89072],[-115.76331,49.89139],[-115.76327,49.89197],[-115.76322,49.89275],[-115.76318,49.89322],[-115.76312,49.89391],[-115.7631,49.89425],[-115.76307,49.8947],[-115.76303,49.89523],[-115.76301,49.89559],[-115.76297,49.89601],[-115.76294,49.89661],[-115.76291,49.89702],[-115.76286,49.8976],[-115.76285,49.89789],[-115.76286,49.89831],[-115.76282,49.89874],[-115.76274,49.89934],[-115.76266,49.90007],[-115.76258,49.90075],[-115.76251,49.90179],[-115.76248,49.90227],[-115.76247,49.90307],[-115.76245,49.9035]]}},
{"type":"Feature","properties":{"spotId":"F-deer-atv-0077","kind":"walk","km":0.02,"climbM":1,"name":"3.0 km E of Echoes Lakes","flags":[]},"geometry":{"type":"LineString","coordinates":[[-115.76481,49.87186],[-115.76446,49.87186]]}},
{"type":"Feature","properties":{"spotId":"F-deer-atv-0085","kind":"ride","km":3.53,"climbM":48,"name":"3.2 km E of Echoes Lakes","flags":[]},"geometry":{"type":"LineString","coordinates":[[-115.76275,49.85896],[-115.76278,49.859],[-115.76286,49.85912],[-115.76307,49.85943],[-115.76316,49.85964],[-115.76323,49.85983],[-115.76326,49.85998],[-115.76326,49.86021],[-115.76326,49.86035],[-115.76324,49.86044],[-115.7632,49.86053],[-115.76303,49.86108],[-115.76296,49.86127],[-115.76289,49.86142],[-115.76281,49.86153],[-115.76271,49.86178],[-115.76262,49.86195],[-115.76254,49.86213],[-115.76241,49.86234],[-115.76227,49.8626],[-115.76214,49.86285],[-115.762,49.86323],[-115.76191,49.86343],[-115.76186,49.86352],[-115.76178,49.86372],[-115.76168,49.8641],[-115.76164,49.86424],[-115.76161,49.86437],[-115.76157,49.86453],[-115.76153,49.86479],[-115.76145,49.86521],[-115.76147,49.86525],[-115.76174,49.86549],[-115.76194,49.86565],[-115.76214,49.86582],[-115.76237,49.86601],[-115.76285,49.86643],[-115.76316,49.86671],[-115.7633,49.86684],[-115.76349,49.86699],[-115.76368,49.86713],[-115.76381,49.86722],[-115.76434,49.86753],[-115.76437,49.86756],[-115.76438,49.86759],[-115.76438,49.86766],[-115.76432,49.86788],[-115.76419,49.86813],[-115.76378,49.86864],[-115.76341,49.86906],[-115.76325,49.86925],[-115.76301,49.86954],[-115.76289,49.86971],[-115.76259,49.87009],[-115.76225,49.87058],[-115.76192,49.87114],[-115.76182,49.87129],[-115.76173,49.87139],[-115.76165,49.8715],[-115.76158,49.87163],[-115.76144,49.87198],[-115.76141,49.87211],[-115.76138,49.87237],[-115.76134,49.8726],[-115.7613,49.87277],[-115.76128,49.87308],[-115.76105,49.87326],[-115.76075,49.87357],[-115.76025,49.8739],[-115.7601,49.87398],[-115.7599,49.87409],[-115.75961,49.87428],[-115.75938,49.87445],[-115.759,49.87466],[-115.75884,49.87467],[-115.75871,49.87466],[-115.75853,49.87465],[-115.75834,49.87464],[-115.75818,49.8746],[-115.75794,49.87458],[-115.75782,49.87453],[-115.7577,49.87445],[-115.75761,49.87433],[-115.75757,49.87411],[-115.75758,49.87391],[-115.75761,49.87362],[-115.75762,49.87309],[-115.75758,49.87266],[-115.75759,49.87239],[-115.75759,49.87211],[-115.75757,49.872],[-115.75757,49.87192],[-115.75758,49.8718],[-115.75766,49.8717],[-115.75778,49.87156],[-115.75782,49.8715],[-115.7579,49.87138],[-115.75798,49.87123],[-115.75801,49.8711],[-115.75804,49.871],[-115.75797,49.87085],[-115.75787,49.87063],[-115.75769,49.87039],[-115.75767,49.87033],[-115.75755,49.87063],[-115.75741,49.87099],[-115.75735,49.87126],[-115.75731,49.87144],[-115.75727,49.87156],[-115.75723,49.87173],[-115.75721,49.87187],[-115.75718,49.87198],[-115.75707,49.87213],[-115.75689,49.8723],[-115.75679,49.87244],[-115.75665,49.87258],[-115.75656,49.87268],[-115.75654,49.87273],[-115.75652,49.87282],[-115.7565,49.87292],[-115.75645,49.87303],[-115.75642,49.87308],[-115.75638,49.87314],[-115.75626,49.87328],[-115.75617,49.87337],[-115.75603,49.87346],[-115.75587,49.87354],[-115.75575,49.87362],[-115.75568,49.87365],[-115.75559,49.87373],[-115.75546,49.87382],[-115.75534,49.87389],[-115.75523,49.87398],[-115.75513,49.87406],[-115.75503,49.87416],[-115.75492,49.87426],[-115.75479,49.87443],[-115.75467,49.87456],[-115.75459,49.87465],[-115.75453,49.87472],[-115.75448,49.87477],[-115.75439,49.87482],[-115.75426,49.87487],[-115.75414,49.87493],[-115.75402,49.87499],[-115.75393,49.87503],[-115.75389,49.87506],[-115.75388,49.87504],[-115.75368,49.87499],[-115.75349,49.87497],[-115.75316,49.87497],[-115.75291,49.87499],[-115.75274,49.87498],[-115.75243,49.87497],[-115.75222,49.87496],[-115.75211,49.87496],[-115.75169,49.87495],[-115.75164,49.87495],[-115.7514,49.87495],[-115.75125,49.87496],[-115.75065,49.87496],[-115.75057,49.87496],[-115.75005,49.87497],[-115.74994,49.87498],[-115.7494,49.87498],[-115.74937,49.87498],[-115.74849,49.875],[-115.74846,49.875]]}},
{"type":"Feature","properties":{"spotId":"F-deer-atv-0085","kind":"walk","km":0.06,"climbM":0,"name":"3.2 km E of Echoes Lakes","flags":[]},"geometry":{"type":"LineString","coordinates":[[-115.76275,49.85896],[-115.76343,49.85873]]}},
{"type":"Feature","properties":{"spotId":"F-deer-atv-0095","kind":"ride","km":3.74,"climbM":87,"name":"880 m SW of Larchwood Lake","flags":[]},"geometry":{"type":"LineString","coordinates":[[-115.80845,49.94025],[-115.80852,49.94012],[-115.80859,49.93987],[-115.80865,49.9398],[-115.80874,49.9397],[-115.80889,49.9396],[-115.80922,49.93939],[-115.80938,49.93927],[-115.80964,49.93908],[-115.80973,49.93892],[-115.80983,49.93874],[-115.80988,49.93854],[-115.81001,49.93825],[-115.81014,49.93803],[-115.81026,49.93771],[-115.81041,49.9374],[-115.8106,49.93721],[-115.81084,49.93701],[-115.81097,49.93681],[-115.81099,49.93664],[-115.81096,49.93644],[-115.81114,49.9361],[-115.81118,49.93602],[-115.81132,49.93569],[-115.81144,49.9354],[-115.81154,49.935],[-115.81171,49.93454],[-115.81172,49.9345],[-115.81183,49.93424],[-115.81183,49.93392],[-115.81183,49.93364],[-115.81181,49.9336],[-115.81183,49.93339],[-115.81183,49.93337],[-115.81194,49.93308],[-115.81198,49.93288],[-115.81202,49.93279],[-115.81208,49.93253],[-115.81212,49.93236],[-115.81232,49.93209],[-115.81261,49.93189],[-115.81274,49.93176],[-115.81287,49.93163],[-115.81301,49.93149],[-115.81312,49.93129],[-115.81324,49.93109],[-115.81341,49.93096],[-115.81353,49.93075],[-115.81356,49.93071],[-115.81362,49.93061],[-115.81362,49.93046],[-115.81359,49.93032],[-115.8135,49.93011],[-115.81343,49.92981],[-115.81332,49.92961],[-115.81323,49.92934],[-115.81316,49.9291],[-115.81304,49.92888],[-115.81294,49.92873],[-115.81289,49.92847],[-115.81288,49.92831],[-115.81287,49.92821],[-115.81279,49.92797],[-115.81276,49.92787],[-115.8127,49.92769],[-115.81263,49.92741],[-115.81258,49.92719],[-115.81251,49.92695],[-115.81247,49.92667],[-115.81246,49.92645],[-115.81246,49.92643],[-115.81232,49.92592],[-115.81219,49.9257],[-115.81206,49.92539],[-115.81194,49.92513],[-115.81176,49.92465],[-115.81165,49.9244],[-115.81161,49.9243],[-115.81153,49.92412],[-115.81145,49.92393],[-115.81139,49.92377],[-115.81134,49.92361],[-115.81127,49.92345],[-115.81119,49.92333],[-115.81118,49.92313],[-115.81127,49.92282],[-115.81136,49.92256],[-115.81144,49.92231],[-115.81146,49.92211],[-115.81145,49.92191],[-115.81145,49.92188],[-115.81148,49.92168],[-115.8116,49.92149],[-115.81167,49.9213],[-115.81173,49.92108],[-115.81175,49.92105],[-115.81182,49.92081],[-115.81173,49.92066],[-115.81161,49.92052],[-115.81157,49.92048],[-115.81149,49.9203],[-115.81153,49.92011],[-115.81165,49.92],[-115.81179,49.91989],[-115.81192,49.9198],[-115.81207,49.91965],[-115.81223,49.91945],[-115.81232,49.91928],[-115.81233,49.91925],[-115.81244,49.91902],[-115.81251,49.91885],[-115.81253,49.91858],[-115.81259,49.91832],[-115.8127,49.91805],[-115.81277,49.91777],[-115.81285,49.91753],[-115.81294,49.91732],[-115.81294,49.91728],[-115.81293,49.9171],[-115.81294,49.91664],[-115.81296,49.91652],[-115.81295,49.91634],[-115.81292,49.91623],[-115.813,49.91607],[-115.8132,49.91584],[-115.81334,49.91569],[-115.81344,49.91549],[-115.8135,49.9153],[-115.81352,49.91514],[-115.81355,49.91495],[-115.81356,49.91482],[-115.81356,49.91474],[-115.81354,49.91457],[-115.81347,49.91435],[-115.81334,49.91402],[-115.81322,49.91382],[-115.81307,49.9136],[-115.81296,49.91343],[-115.81287,49.91323],[-115.81287,49.91322],[-115.81284,49.9132],[-115.81276,49.91309],[-115.81275,49.91304],[-115.81273,49.9129],[-115.81273,49.91274],[-115.81272,49.9127],[-115.81272,49.91266],[-115.81271,49.91262],[-115.81271,49.91256],[-115.81268,49.91246],[-115.81268,49.91237],[-115.81267,49.91231],[-115.81267,49.91226],[-115.81266,49.91219],[-115.81262,49.91203],[-115.81261,49.912],[-115.81261,49.91197],[-115.8126,49.91193],[-115.81257,49.91191],[-115.81256,49.91187],[-115.81253,49.91183],[-115.8125,49.91178],[-115.8125,49.91177],[-115.81242,49.91161],[-115.81238,49.91155],[-115.81236,49.91148],[-115.81232,49.91142],[-115.81226,49.91128],[-115.81224,49.91124],[-115.81221,49.9112],[-115.81216,49.91109],[-115.81212,49.91104],[-115.81209,49.91098],[-115.81205,49.91094],[-115.812,49.91085],[-115.81194,49.91074],[-115.81192,49.91069],[-115.8119,49.91065],[-115.81188,49.91061],[-115.81188,49.91058],[-115.81185,49.91051],[-115.81184,49.91047],[-115.81181,49.91042],[-115.81181,49.91041],[-115.81177,49.91037],[-115.81175,49.91032],[-115.81169,49.91027],[-115.81165,49.91024],[-115.81162,49.91021],[-115.81158,49.9102],[-115.81153,49.91017],[-115.81148,49.91015],[-115.81143,49.91013],[-115.81139,49.91012],[-115.81133,49.91011],[-115.81125,49.91008],[-115.81119,49.91005],[-115.81111,49.90998],[-115.8111,49.90994],[-115.81107,49.9099],[-115.81105,49.90983],[-115.81103,49.90979],[-115.81095,49.90965],[-115.81093,49.90961],[-115.81091,49.90959],[-115.8109,49.90955],[-115.81086,49.90951],[-115.81083,49.90947],[-115.81081,49.90942],[-115.81078,49.90937],[-115.8107,49.90926],[-115.81069,49.90922],[-115.81063,49.90913],[-115.81062,49.90911],[-115.81058,49.90903],[-115.81055,49.90899],[-115.81054,49.90895],[-115.81053,49.90892],[-115.8105,49.90888],[-115.81049,49.90883],[-115.81046,49.90877],[-115.81043,49.90872],[-115.81041,49.90867],[-115.81037,49.90861],[-115.81035,49.90856],[-115.81032,49.90851]]}},
{"type":"Feature","properties":{"spotId":"F-deer-atv-0095","kind":"walk","km":0.01,"climbM":0,"name":"880 m SW of Larchwood Lake","flags":[]},"geometry":{"type":"LineString","coordinates":[[-115.80845,49.94025],[-115.80861,49.94029]]}},
{"type":"Feature","properties":{"spotId":"F-deer-atv-0130","kind":"ride","km":2.63,"climbM":44,"name":"880 m N of Houle Creek","flags":[]},"geometry":{"type":"LineString","coordinates":[[-115.92795,49.76484],[-115.92794,49.76485],[-115.92744,49.76514],[-115.92641,49.76546],[-115.92493,49.76575],[-115.9243,49.76583],[-115.92346,49.76587],[-115.92291,49.76592],[-115.9231,49.76572],[-115.92324,49.76547],[-115.92335,49.76528],[-115.9234,49.76516],[-115.9234,49.76498],[-115.92325,49.76468],[-115.92323,49.76455],[-115.92325,49.76425],[-115.92334,49.7638],[-115.92341,49.76353],[-115.92348,49.76336],[-115.92356,49.76321],[-115.92362,49.7631],[-115.92366,49.76299],[-115.92374,49.76282],[-115.92382,49.76267],[-115.9239,49.76255],[-115.92402,49.76243],[-115.92413,49.76229],[-115.92422,49.76216],[-115.92425,49.76202],[-115.92433,49.76186],[-115.92436,49.76172],[-115.92439,49.7616],[-115.92445,49.76144],[-115.92451,49.76136],[-115.92457,49.76126],[-115.92467,49.76116],[-115.92479,49.76107],[-115.92481,49.76104],[-115.92483,49.761],[-115.92487,49.76089],[-115.92494,49.76082],[-115.92499,49.76076],[-115.92503,49.7607],[-115.92504,49.76064],[-115.92506,49.76055],[-115.92507,49.76033],[-115.92505,49.76023],[-115.92502,49.76012],[-115.92501,49.75996],[-115.92498,49.75981],[-115.925,49.75953],[-115.92502,49.75938],[-115.92504,49.75925],[-115.92503,49.75919],[-115.92499,49.75907],[-115.92489,49.75895],[-115.92478,49.75887],[-115.9246,49.75874],[-115.92442,49.75864],[-115.92422,49.75854],[-115.92398,49.75842],[-115.9238,49.75837],[-115.92371,49.75834],[-115.92356,49.75828],[-115.92346,49.75825],[-115.92336,49.75821],[-115.92314,49.75815],[-115.92294,49.7581],[-115.92274,49.75808],[-115.92256,49.75804],[-115.92219,49.75796],[-115.92211,49.75793],[-115.92187,49.75784],[-115.92182,49.75781],[-115.92162,49.75762],[-115.92152,49.75751],[-115.9215,49.75744],[-115.92149,49.75731],[-115.92149,49.75715],[-115.9215,49.75708],[-115.92164,49.7569],[-115.92181,49.75672],[-115.9219,49.7566],[-115.92193,49.75653],[-115.92205,49.75641],[-115.92209,49.75636],[-115.92217,49.75623],[-115.9223,49.75608],[-115.92238,49.75595],[-115.92244,49.75575],[-115.92244,49.7557],[-115.92241,49.75559],[-115.92231,49.75543],[-115.92224,49.75529],[-115.92216,49.75512],[-115.92216,49.75508],[-115.92214,49.755],[-115.92208,49.75483],[-115.92208,49.75479],[-115.92209,49.75472],[-115.92207,49.75456],[-115.92207,49.75443],[-115.92209,49.75427],[-115.92207,49.75421],[-115.922,49.75413],[-115.92187,49.75402],[-115.92171,49.75393],[-115.92162,49.75385],[-115.92152,49.75369],[-115.92152,49.75363],[-115.92152,49.75352],[-115.92154,49.75339],[-115.92155,49.75331],[-115.9216,49.75322],[-115.92165,49.75314],[-115.92174,49.75305],[-115.92177,49.75303],[-115.92185,49.75299],[-115.92188,49.75298],[-115.92205,49.75295],[-115.92211,49.75294],[-115.9222,49.75291],[-115.92231,49.75288],[-115.9224,49.75284],[-115.92241,49.75282],[-115.92242,49.75278],[-115.92243,49.75274],[-115.92246,49.75268],[-115.92251,49.75262],[-115.92253,49.75259],[-115.92257,49.75257],[-115.92265,49.75252],[-115.92276,49.75246],[-115.92296,49.7524],[-115.92302,49.7524],[-115.9233,49.7524],[-115.92339,49.75241],[-115.92349,49.75242],[-115.92358,49.75241],[-115.92364,49.7524],[-115.92377,49.75237],[-115.92398,49.75236],[-115.92412,49.75235],[-115.9243,49.7523],[-115.92442,49.7523],[-115.92447,49.7523],[-115.92456,49.7523],[-115.9247,49.75231],[-115.92478,49.75229],[-115.92484,49.75226],[-115.92489,49.75221],[-115.92491,49.75214],[-115.9249,49.75206],[-115.92488,49.75195],[-115.92485,49.75187],[-115.92482,49.75184],[-115.92475,49.7518],[-115.92457,49.75172],[-115.92431,49.75163],[-115.92413,49.75159],[-115.92404,49.75156],[-115.92393,49.75151],[-115.92378,49.75142],[-115.92365,49.75135],[-115.92346,49.75125],[-115.92324,49.75117],[-115.92291,49.75102],[-115.92271,49.75096],[-115.92249,49.75091],[-115.92234,49.7509],[-115.9222,49.7509],[-115.92209,49.7509],[-115.92196,49.75089],[-115.92181,49.75086],[-115.92177,49.75084],[-115.92127,49.75073]]}},
{"type":"Feature","properties":{"spotId":"F-deer-atv-0130","kind":"walk","km":0.04,"climbM":0,"name":"880 m N of Houle Creek","flags":[]},"geometry":{"type":"LineString","coordinates":[[-115.92795,49.76484],[-115.92844,49.76503]]}},
{"type":"Feature","properties":{"spotId":"F-deer-drive-0017","kind":"walk","km":0.11,"climbM":7,"name":"1.0 km NW of Kootenay River","flags":[]},"geometry":{"type":"LineString","coordinates":[[-115.76145,49.8343],[-115.76137,49.8353]]}},
{"type":"Feature","properties":{"spotId":"F-deer-drive-0048","kind":"walk","km":0.18,"climbM":9,"name":"By Lost Dog Creek","flags":[]},"geometry":{"type":"LineString","coordinates":[[-115.86864,49.7837],[-115.86694,49.78253]]}},
{"type":"Feature","properties":{"spotId":"F-deer-drive-0060","kind":"walk","km":0.13,"climbM":0,"name":"420 m N of Skookumchuck Creek","flags":[]},"geometry":{"type":"LineString","coordinates":[[-115.84486,49.89997],[-115.84487,49.89877]]}},
{"type":"Feature","properties":{"spotId":"F-deer-drive-0062","kind":"walk","km":0.09,"climbM":15,"name":"2.0 km SW of Ta Ta Lake","flags":[]},"geometry":{"type":"LineString","coordinates":[[-115.83736,49.76932],[-115.83657,49.76872]]}},
{"type":"Feature","properties":{"spotId":"F-deer-drive-0069","kind":"walk","km":0.19,"climbM":7,"name":"400 m W of Cherry Creek","flags":[]},"geometry":{"type":"LineString","coordinates":[[-115.92467,49.81866],[-115.92582,49.81707]]}},
{"type":"Feature","properties":{"spotId":"F-deer-drive-0092","kind":"walk","km":0.02,"climbM":1,"name":"520 m N of Cherry Creek","flags":[]},"geometry":{"type":"LineString","coordinates":[[-115.94408,49.83968],[-115.94439,49.83963]]}},
{"type":"Feature","properties":{"spotId":"F-deer-drive-0135","kind":"walk","km":0.05,"climbM":0,"name":"880 m W of Skookumchuck Creek","flags":[]},"geometry":{"type":"LineString","coordinates":[[-115.88496,49.91364],[-115.88441,49.91342]]}},
{"type":"Feature","properties":{"spotId":"F-deer-drive-0139","kind":"walk","km":0.11,"climbM":0,"name":"230 m NW of Mather Creek","flags":[]},"geometry":{"type":"LineString","coordinates":[[-115.93376,49.88029],[-115.93287,49.87944]]}},
{"type":"Feature","properties":{"spotId":"F-deer-walk-0008","kind":"walk","km":0.37,"climbM":9,"name":"810 m NW of Kootenay River","flags":["Route crosses private land (ParcelMap BC, updated 2026-09-26): get permission first or go around."]},"geometry":{"type":"LineString","coordinates":[[-115.75596,49.83505],[-115.75506,49.83833]]}},
{"type":"Feature","properties":{"spotId":"F-deer-walk-0027","kind":"walk","km":0.67,"climbM":162,"name":"370 m NE of Cherry Creek","flags":[]},"geometry":{"type":"LineString","coordinates":[[-115.91759,49.83189],[-115.92565,49.82886]]}},
{"type":"Feature","properties":{"spotId":"F-deer-walk-0045","kind":"walk","km":0.41,"climbM":80,"name":"530 m E of Lost Dog Creek","flags":[]},"geometry":{"type":"LineString","coordinates":[[-115.86596,49.77046],[-115.86068,49.77194]]}},
{"type":"Feature","properties":{"spotId":"F-deer-walk-0065","kind":"walk","km":0.66,"climbM":30,"name":"710 m W of Ta Ta Creek","flags":[]},"geometry":{"type":"LineString","coordinates":[[-115.84945,49.78833],[-115.84618,49.79391]]}},
{"type":"Feature","properties":{"spotId":"F-deer-walk-0071","kind":"walk","km":0.33,"climbM":11,"name":"360 m NE of Tamarack Lake","flags":[]},"geometry":{"type":"LineString","coordinates":[[-115.79936,49.92182],[-115.79925,49.92475]]}},
{"type":"Feature","properties":{"spotId":"F-duck-drive-0030","kind":"walk","km":0.03,"climbM":0,"name":"Unnamed wetland 510 m E of Echoes Lakes","flags":[]},"geometry":{"type":"LineString","coordinates":[[-115.79981,49.868],[-115.79947,49.86814]]}},
{"type":"Feature","properties":{"spotId":"F-duck-drive-0038","kind":"walk","km":0.03,"climbM":0,"name":"Johnson Lake","flags":[]},"geometry":{"type":"LineString","coordinates":[[-115.763,49.95525],[-115.76334,49.95531]]}},
{"type":"Feature","properties":{"spotId":"F-duck-drive-0048","kind":"walk","km":0.2,"climbM":3,"name":"Unnamed lake 630 m W of Kootenay River","flags":["Route crosses private land (ParcelMap BC, updated 2026-09-26): get permission first or go around."]},"geometry":{"type":"LineString","coordinates":[[-115.7721,49.8126],[-115.77485,49.81274]]}},
{"type":"Feature","properties":{"spotId":"F-duck-drive-0050","kind":"walk","km":0.04,"climbM":0,"name":"Unnamed wetland 2.0 km NE of Ta Ta Lake","flags":[]},"geometry":{"type":"LineString","coordinates":[[-115.80331,49.80154],[-115.80345,49.80189]]}},
{"type":"Feature","properties":{"spotId":"F-duck-drive-0066","kind":"walk","km":0.05,"climbM":0,"name":"Unnamed wetland 660 m W of Mather Creek","flags":[]},"geometry":{"type":"LineString","coordinates":[[-115.91853,49.7585],[-115.91881,49.75807]]}},
{"type":"Feature","properties":{"spotId":"F-duck-drive-0069","kind":"walk","km":0.01,"climbM":0,"name":"Unnamed wetland 160 m NW of Mather Creek","flags":[]},"geometry":{"type":"LineString","coordinates":[[-115.90943,49.8158],[-115.90926,49.81579]]}},
{"type":"Feature","properties":{"spotId":"F-duck-drive-0077","kind":"walk","km":0.04,"climbM":0,"name":"Unnamed wetland by Sandown Creek","flags":[]},"geometry":{"type":"LineString","coordinates":[[-115.87232,49.97403],[-115.87214,49.97437]]}},
{"type":"Feature","properties":{"spotId":"F-duck-drive-0079","kind":"walk","km":0.07,"climbM":0,"name":"Unnamed wetland by Sandown Creek","flags":[]},"geometry":{"type":"LineString","coordinates":[[-115.87665,49.98708],[-115.87758,49.9873]]}},
{"type":"Feature","properties":{"spotId":"F-duck-drive-0085","kind":"walk","km":0.24,"climbM":0,"name":"Unnamed wetland 850 m N of Mather Creek","flags":[]},"geometry":{"type":"LineString","coordinates":[[-115.92848,49.8856],[-115.92512,49.88527]]}},
{"type":"Feature","properties":{"spotId":"F-duck-drive-0095","kind":"walk","km":0.09,"climbM":0,"name":"Unnamed wetland 2.7 km NW of McNair Lakes","flags":[]},"geometry":{"type":"LineString","coordinates":[[-115.91609,49.90103],[-115.91492,49.90081]]}},
{"type":"Feature","properties":{"spotId":"F-duck-drive-0098","kind":"walk","km":0.03,"climbM":0,"name":"Unnamed wetland by Mather Creek","flags":[]},"geometry":{"type":"LineString","coordinates":[[-115.90208,49.82709],[-115.90235,49.82725]]}},
{"type":"Feature","properties":{"spotId":"F-duck-drive-0111","kind":"walk","km":0.07,"climbM":0,"name":"Unnamed wetland 1.2 km NE of Mather Creek","flags":[]},"geometry":{"type":"LineString","coordinates":[[-115.90763,49.79225],[-115.90695,49.79268]]}},
{"type":"Feature","properties":{"spotId":"F-duck-drive-0112","kind":"walk","km":0.05,"climbM":0,"name":"Unnamed wetland 1.2 km W of Skookumchuck Creek","flags":[]},"geometry":{"type":"LineString","coordinates":[[-115.87834,49.93391],[-115.87768,49.93377]]}},
{"type":"Feature","properties":{"spotId":"F-duck-walk-0014","kind":"walk","km":0.4,"climbM":0,"name":"Echoes Lakes","flags":[]},"geometry":{"type":"LineString","coordinates":[[-115.81595,49.87641],[-115.81045,49.87615]]}},
{"type":"Feature","properties":{"spotId":"F-duck-walk-0029","kind":"walk","km":0.41,"climbM":15,"name":"Unnamed wetland 920 m E of Echoes Lakes","flags":[]},"geometry":{"type":"LineString","coordinates":[[-115.79932,49.86741],[-115.79378,49.86839]]}},
{"type":"Feature","properties":{"spotId":"F-duck-walk-0034","kind":"walk","km":0.42,"climbM":12,"name":"Unnamed lake 1.6 km SE of Echoes Lakes","flags":[]},"geometry":{"type":"LineString","coordinates":[[-115.79313,49.85757],[-115.7876,49.85881]]}},
{"type":"Feature","properties":{"spotId":"F-duck-walk-0051","kind":"walk","km":0.46,"climbM":0,"name":"Unnamed wetland 2.5 km NW of Lost Dog Lake","flags":[]},"geometry":{"type":"LineString","coordinates":[[-115.88499,49.85],[-115.89136,49.84931]]}},
{"type":"Feature","properties":{"spotId":"F-duck-walk-0052","kind":"walk","km":0.37,"climbM":0,"name":"Unnamed wetland by Mather Creek","flags":[]},"geometry":{"type":"LineString","coordinates":[[-115.93908,49.85863],[-115.93406,49.85934]]}},
{"type":"Feature","properties":{"spotId":"F-duck-walk-0057","kind":"walk","km":0.33,"climbM":91,"name":"Unnamed wetland 1.4 km W of Reed Lakes","flags":[]},"geometry":{"type":"LineString","coordinates":[[-115.81526,49.82516],[-115.8195,49.8264]]}},
{"type":"Feature","properties":{"spotId":"F-duck-walk-0058","kind":"walk","km":0.37,"climbM":11,"name":"Unnamed wetland by Mather Creek","flags":[]},"geometry":{"type":"LineString","coordinates":[[-115.91221,49.82927],[-115.90854,49.83165]]}},
{"type":"Feature","properties":{"spotId":"F-duck-walk-0061","kind":"walk","km":0.32,"climbM":0,"name":"Unnamed wetland 740 m W of Ta Ta Creek","flags":[]},"geometry":{"type":"LineString","coordinates":[[-115.84904,49.78817],[-115.84667,49.79063]]}},
{"type":"Feature","properties":{"spotId":"F-duck-walk-0068","kind":"walk","km":0.32,"climbM":0,"name":"Unnamed lake 1.6 km SW of Mather Creek","flags":[]},"geometry":{"type":"LineString","coordinates":[[-115.94344,49.78327],[-115.94704,49.78489]]}},
{"type":"Feature","properties":{"spotId":"F-duck-walk-0070","kind":"walk","km":0.36,"climbM":19,"name":"Unnamed wetland 810 m SW of Lost Dog Creek","flags":[]},"geometry":{"type":"LineString","coordinates":[[-115.88585,49.79077],[-115.88933,49.78845]]}},
{"type":"Feature","properties":{"spotId":"F-duck-walk-0073","kind":"walk","km":0.41,"climbM":0,"name":"Unnamed lake 2.0 km NE of Lost Dog Lake","flags":[]},"geometry":{"type":"LineString","coordinates":[[-115.84606,49.84605],[-115.84238,49.84327]]}},
{"type":"Feature","properties":{"spotId":"F-duck-walk-0076","kind":"walk","km":0.5,"climbM":0,"name":"Unnamed wetland 4.9 km NE of Sullivan Hill","flags":[]},"geometry":{"type":"LineString","coordinates":[[-115.98866,49.77491],[-115.98207,49.77625]]}},
{"type":"Feature","properties":{"spotId":"F-duck-walk-0085","kind":"walk","km":0.5,"climbM":15,"name":"Unnamed wetland 1.6 km NW of McNair Lakes","flags":[]},"geometry":{"type":"LineString","coordinates":[[-115.89134,49.89634],[-115.89611,49.89965]]}},
{"type":"Feature","properties":{"spotId":"F-elk-drive-0028","kind":"walk","km":0.04,"climbM":5,"name":"250 m SE of Sandown Creek","flags":[]},"geometry":{"type":"LineString","coordinates":[[-115.87306,49.9886],[-115.87297,49.98824]]}},
{"type":"Feature","properties":{"spotId":"F-elk-drive-0034","kind":"walk","km":0.08,"climbM":6,"name":"1.0 km N of Houle Creek","flags":[]},"geometry":{"type":"LineString","coordinates":[[-115.93395,49.76549],[-115.93312,49.76603]]}},
{"type":"Feature","properties":{"spotId":"F-elk-drive-0040","kind":"walk","km":0.21,"climbM":0,"name":"530 m E of Echoes Lakes","flags":[]},"geometry":{"type":"LineString","coordinates":[[-115.80032,49.87236],[-115.79839,49.87379]]}},
{"type":"Feature","properties":{"spotId":"F-elk-walk-0031","kind":"walk","km":1.02,"climbM":117,"name":"510 m E of Lost Dog Creek","flags":[]},"geometry":{"type":"LineString","coordinates":[[-115.86311,49.78709],[-115.86308,49.78707],[-115.86285,49.78694],[-115.86263,49.78681],[-115.86238,49.78667],[-115.86227,49.78662],[-115.86212,49.78646],[-115.86207,49.78642],[-115.86192,49.78632],[-115.86171,49.78619],[-115.86154,49.78603],[-115.86136,49.78586],[-115.86124,49.7857],[-115.86102,49.78553],[-115.86095,49.78542],[-115.86082,49.78531],[-115.86078,49.78528],[-115.86059,49.78513],[-115.86039,49.78499],[-115.86027,49.78493],[-115.86001,49.78484],[-115.85986,49.78478],[-115.85968,49.78474],[-115.85967,49.78467],[-115.85954,49.78452],[-115.85942,49.78436],[-115.85934,49.78417],[-115.85927,49.78396],[-115.85919,49.78377],[-115.85916,49.78356],[-115.85917,49.78338],[-115.85925,49.78323],[-115.85936,49.78304],[-115.85947,49.78285],[-115.85953,49.78266],[-115.85954,49.78258],[-115.85955,49.78245],[-115.85951,49.78234],[-115.85948,49.78229],[-115.85946,49.78219],[-115.85953,49.78199],[-115.85958,49.78188],[-115.85961,49.7818],[-115.85976,49.78161],[-115.85992,49.78143],[-115.86006,49.78125],[-115.86014,49.78116],[-115.86032,49.78105],[-115.86106,49.7792]]}},
{"type":"Feature","properties":{"spotId":"F-grouse-atv-0009","kind":"walk","km":0.35,"climbM":0,"name":"2.3 km SW of Larchwood Lake","flags":[]},"geometry":{"type":"LineString","coordinates":[[-115.83353,49.93616],[-115.82911,49.93743]]}},
{"type":"Feature","properties":{"spotId":"F-grouse-atv-0009","kind":"ride","km":4.95,"climbM":190,"name":"2.3 km SW of Larchwood Lake","flags":[]},"geometry":{"type":"LineString","coordinates":[[-115.82911,49.93743],[-115.82911,49.93754],[-115.82909,49.93756],[-115.82909,49.93778],[-115.82907,49.93794],[-115.82904,49.93806],[-115.82902,49.93822],[-115.82905,49.93845],[-115.82905,49.93847],[-115.82905,49.93868],[-115.82913,49.93888],[-115.82917,49.93909],[-115.8292,49.93941],[-115.82914,49.93967],[-115.82918,49.94025],[-115.82929,49.94044],[-115.82938,49.94063],[-115.8294,49.94086],[-115.82942,49.94091],[-115.82941,49.94116],[-115.82932,49.94138],[-115.82925,49.94163],[-115.82918,49.94189],[-115.82916,49.94217],[-115.82923,49.94235],[-115.82934,49.94251],[-115.82944,49.94272],[-115.82937,49.94297],[-115.82917,49.94323],[-115.8289,49.94349],[-115.82868,49.94378],[-115.82848,49.94402],[-115.82838,49.94424],[-115.82827,49.94454],[-115.82828,49.94477],[-115.82826,49.9449],[-115.82817,49.94504],[-115.82801,49.94508],[-115.82762,49.94535],[-115.82747,49.94573],[-115.82747,49.94598],[-115.82745,49.94625],[-115.82744,49.94654],[-115.82741,49.94673],[-115.82732,49.947],[-115.82717,49.94727],[-115.82716,49.94729],[-115.8271,49.94732],[-115.82707,49.94737],[-115.82704,49.94742],[-115.82703,49.94746],[-115.82703,49.9475],[-115.82701,49.94754],[-115.82703,49.94758],[-115.82704,49.94762],[-115.82705,49.94764],[-115.82705,49.94768],[-115.82709,49.94776],[-115.8271,49.9478],[-115.82713,49.94783],[-115.82714,49.94788],[-115.82716,49.94792],[-115.82726,49.94806],[-115.82732,49.9481],[-115.82736,49.94814],[-115.82746,49.94821],[-115.8275,49.94824],[-115.82754,49.94827],[-115.82758,49.94831],[-115.82762,49.94833],[-115.82766,49.94837],[-115.8277,49.9484],[-115.82773,49.94843],[-115.82777,49.94846],[-115.8278,49.94849],[-115.82784,49.94853],[-115.82787,49.94856],[-115.82792,49.94865],[-115.82793,49.94869],[-115.82796,49.94872],[-115.82796,49.94875],[-115.82797,49.94878],[-115.82797,49.94898],[-115.82795,49.94902],[-115.82794,49.94906],[-115.82791,49.94909],[-115.82795,49.94925],[-115.82794,49.94945],[-115.8279,49.94966],[-115.82779,49.94985],[-115.82771,49.94994],[-115.82749,49.9501],[-115.82725,49.95026],[-115.82721,49.95028],[-115.82711,49.95033],[-115.82697,49.95038],[-115.8268,49.95039],[-115.82671,49.95042],[-115.82651,49.95048],[-115.82644,49.95052],[-115.82637,49.95054],[-115.8263,49.95058],[-115.82624,49.9506],[-115.82618,49.95064],[-115.82613,49.95066],[-115.82607,49.95068],[-115.82602,49.9507],[-115.82597,49.95071],[-115.82595,49.95073],[-115.8259,49.95075],[-115.8258,49.95081],[-115.82578,49.95084],[-115.82573,49.95088],[-115.82572,49.95091],[-115.82569,49.95093],[-115.82568,49.95096],[-115.82565,49.951],[-115.8256,49.95106],[-115.82557,49.95111],[-115.82552,49.9512],[-115.82549,49.95127],[-115.82546,49.95132],[-115.82543,49.95137],[-115.82534,49.95148],[-115.82531,49.95153],[-115.82527,49.95157],[-115.82524,49.95161],[-115.8252,49.95164],[-115.82514,49.95168],[-115.82506,49.95173],[-115.82499,49.95176],[-115.82482,49.95181],[-115.82437,49.95197],[-115.82339,49.95228],[-115.82284,49.95241],[-115.82198,49.95251],[-115.82145,49.9528],[-115.82135,49.95309],[-115.8211,49.95388],[-115.82115,49.95397],[-115.82109,49.95409],[-115.8209,49.95428],[-115.82088,49.95448],[-115.82084,49.9547],[-115.82081,49.95478],[-115.82078,49.95495],[-115.82075,49.95516],[-115.82073,49.95536],[-115.82074,49.95556],[-115.82079,49.95578],[-115.82083,49.95598],[-115.82082,49.95618],[-115.82078,49.95638],[-115.82075,49.95646],[-115.82062,49.95665],[-115.82047,49.95683],[-115.82034,49.95692],[-115.82019,49.95701],[-115.81996,49.95717],[-115.81986,49.95738],[-115.81973,49.95768],[-115.81962,49.95798],[-115.81962,49.95806],[-115.8196,49.95823],[-115.81955,49.95845],[-115.81948,49.95869],[-115.81947,49.9589],[-115.81948,49.95913],[-115.81952,49.95939],[-115.81959,49.95964],[-115.81962,49.95991],[-115.81961,49.96016],[-115.81956,49.96045],[-115.81958,49.96071],[-115.81959,49.96095],[-115.81958,49.96125],[-115.81956,49.96149],[-115.81957,49.96168],[-115.81965,49.96185],[-115.81995,49.96202],[-115.82001,49.96205],[-115.8202,49.96215],[-115.82057,49.96233],[-115.82065,49.96262],[-115.8206,49.96303],[-115.82064,49.96323],[-115.82076,49.96332],[-115.82077,49.9634],[-115.82078,49.96353],[-115.82079,49.96359],[-115.82082,49.96381],[-115.82085,49.96403],[-115.82089,49.96423],[-115.82087,49.96507],[-115.8209,49.96518],[-115.82095,49.96537],[-115.82104,49.96556],[-115.82111,49.96566],[-115.82117,49.96574],[-115.82127,49.96584],[-115.82146,49.96598],[-115.82154,49.96605],[-115.82182,49.96627],[-115.82201,49.96644],[-115.82214,49.96662],[-115.82216,49.96665],[-115.82222,49.96673],[-115.8223,49.96686],[-115.82233,49.96696],[-115.82235,49.96718],[-115.82238,49.96738],[-115.82237,49.96753],[-115.82238,49.96774],[-115.82239,49.96795],[-115.82241,49.96818],[-115.82242,49.96821],[-115.82248,49.96834],[-115.8226,49.96853],[-115.82269,49.96861],[-115.82278,49.96868],[-115.82299,49.96883],[-115.82321,49.96899],[-115.82342,49.96914],[-115.8236,49.96931],[-115.82382,49.96948],[-115.82384,49.96953],[-115.82392,49.96972],[-115.82392,49.96978],[-115.82388,49.96989],[-115.82383,49.97004],[-115.82381,49.97012],[-115.8238,49.97031],[-115.82372,49.97041],[-115.82365,49.97049],[-115.82355,49.97055],[-115.82344,49.97061],[-115.82323,49.97067],[-115.82314,49.97069],[-115.82305,49.97076],[-115.823,49.97081],[-115.823,49.97089],[-115.82303,49.97094],[-115.82315,49.97103],[-115.82323,49.97105],[-115.82354,49.97113],[-115.8237,49.97119],[-115.82402,49.97124],[-115.82436,49.9713],[-115.82448,49.97131],[-115.82464,49.9713],[-115.82476,49.9713],[-115.82493,49.97136],[-115.82508,49.97145],[-115.82515,49.97149],[-115.82534,49.97163],[-115.82541,49.97171],[-115.82545,49.9718],[-115.82546,49.9719],[-115.82548,49.97211],[-115.82557,49.97232],[-115.82561,49.97236],[-115.82567,49.97242],[-115.82586,49.97257],[-115.82598,49.97262],[-115.82615,49.97268],[-115.82629,49.97271],[-115.82655,49.97277],[-115.82672,49.97283],[-115.8268,49.97286],[-115.8269,49.9729],[-115.82698,49.97294],[-115.82712,49.97296],[-115.82744,49.97296],[-115.82757,49.97293],[-115.82788,49.97285],[-115.82818,49.97279],[-115.82842,49.97277],[-115.82871,49.97276],[-115.82905,49.97275],[-115.82937,49.97276],[-115.82972,49.97278],[-115.82986,49.97279],[-115.83,49.97283],[-115.83018,49.97288],[-115.83026,49.97291],[-115.83051,49.97301],[-115.83064,49.97312],[-115.83077,49.97326],[-115.83086,49.97339],[-115.83092,49.9735]]}},
{"type":"Feature","properties":{"spotId":"F-grouse-atv-0041","kind":"walk","km":0.64,"climbM":0,"name":"150 m E of Skookumchuck Creek","flags":[]},"geometry":{"type":"LineString","coordinates":[[-115.84828,49.95807],[-115.85612,49.96088]]}},
{"type":"Feature","properties":{"spotId":"F-grouse-atv-0041","kind":"ride","km":3.05,"climbM":86,"name":"150 m E of Skookumchuck Creek","flags":[]},"geometry":{"type":"LineString","coordinates":[[-115.85612,49.96088],[-115.85595,49.95971],[-115.85575,49.95904],[-115.85564,49.95872],[-115.85544,49.95818],[-115.85537,49.95788],[-115.85521,49.95718],[-115.85509,49.95671],[-115.85511,49.95613],[-115.85503,49.95522],[-115.85513,49.95463],[-115.85516,49.95422],[-115.85511,49.95397],[-115.85496,49.95382],[-115.85493,49.95365],[-115.85495,49.95347],[-115.85495,49.95329],[-115.85495,49.95284],[-115.85499,49.9524],[-115.85438,49.95179],[-115.85393,49.9512],[-115.85373,49.95089],[-115.85363,49.95074],[-115.85357,49.95063],[-115.85347,49.95048],[-115.85333,49.95022],[-115.85313,49.94984],[-115.85306,49.94942],[-115.853,49.94916],[-115.85286,49.94887],[-115.85265,49.94855],[-115.85252,49.94803],[-115.8524,49.94759],[-115.85229,49.94738],[-115.85216,49.94717],[-115.85209,49.94695],[-115.85204,49.94672],[-115.85201,49.9465],[-115.85195,49.94632],[-115.85196,49.9463],[-115.85197,49.94625],[-115.852,49.94598],[-115.85192,49.94579],[-115.85191,49.94564],[-115.85191,49.94539],[-115.85195,49.945],[-115.85191,49.94478],[-115.85192,49.94448],[-115.85205,49.94431],[-115.85216,49.94402],[-115.85216,49.94383],[-115.85215,49.94356],[-115.85207,49.9432],[-115.85204,49.94282],[-115.85196,49.94254],[-115.852,49.94236],[-115.85203,49.94213],[-115.85204,49.94184],[-115.85208,49.9416],[-115.85211,49.94137],[-115.85218,49.94112],[-115.85226,49.94085],[-115.85237,49.94053],[-115.85242,49.94028],[-115.85241,49.93999],[-115.85248,49.93973],[-115.85248,49.93948],[-115.85245,49.93936],[-115.85248,49.93922],[-115.85247,49.93908],[-115.85247,49.93895],[-115.85251,49.93882],[-115.85253,49.93873],[-115.85256,49.93864],[-115.85261,49.93856],[-115.85266,49.93847],[-115.85271,49.93839],[-115.85278,49.93831],[-115.85282,49.93823],[-115.85288,49.93815],[-115.85292,49.93811],[-115.85296,49.93807],[-115.853,49.93799],[-115.85304,49.93795],[-115.85308,49.93791],[-115.85318,49.93785],[-115.8532,49.93776],[-115.85329,49.93769],[-115.85337,49.93761],[-115.85347,49.93755],[-115.85355,49.93748],[-115.85367,49.93743],[-115.85379,49.93738],[-115.8539,49.93733],[-115.85401,49.93728],[-115.85407,49.93725],[-115.85414,49.93724],[-115.85427,49.9372],[-115.8544,49.9372],[-115.85454,49.93718],[-115.85467,49.93715],[-115.85479,49.9371],[-115.85487,49.93703],[-115.85496,49.93696],[-115.85505,49.93689],[-115.85512,49.93681],[-115.85522,49.93675],[-115.85533,49.93669],[-115.85545,49.93665],[-115.85558,49.93662],[-115.85569,49.93656],[-115.85575,49.93648],[-115.85579,49.9364],[-115.8559,49.93634],[-115.85602,49.93629],[-115.85611,49.93622],[-115.85623,49.93618],[-115.85635,49.93613],[-115.85647,49.93609],[-115.8566,49.93605],[-115.8567,49.93599],[-115.85683,49.93595],[-115.85694,49.93591],[-115.85762,49.9356]]}},
{"type":"Feature","properties":{"spotId":"F-grouse-drive-0041","kind":"roadside","km":5.71,"climbM":58,"name":"500 m W of Skookumchuck Creek","flags":[]},"geometry":{"type":"LineString","coordinates":[[-115.87908,49.89576],[-115.87912,49.89572],[-115.87919,49.89569],[-115.87925,49.89565],[-115.87932,49.89562],[-115.87937,49.8956],[-115.87944,49.89557],[-115.87953,49.89555],[-115.87961,49.89551],[-115.87971,49.89547],[-115.87978,49.89545],[-115.87981,49.89543],[-115.87989,49.8954],[-115.87996,49.89537],[-115.88005,49.89534],[-115.88017,49.89529],[-115.88031,49.89524],[-115.88047,49.89519],[-115.88061,49.89512],[-115.88071,49.89509],[-115.88075,49.89507],[-115.88081,49.89505],[-115.88086,49.89503],[-115.88096,49.89498],[-115.88106,49.89493],[-115.88117,49.89487],[-115.88145,49.89469],[-115.8815,49.89464],[-115.88158,49.89455],[-115.88164,49.89449],[-115.8817,49.89441],[-115.88177,49.89434],[-115.88184,49.89425],[-115.88193,49.89418],[-115.882,49.89411],[-115.88205,49.89405],[-115.88218,49.89393],[-115.88231,49.8938],[-115.88244,49.89365],[-115.88256,49.89345],[-115.88261,49.89333],[-115.88264,49.89322],[-115.88266,49.89313],[-115.88265,49.89304],[-115.88264,49.89296],[-115.88264,49.89286],[-115.88265,49.89275],[-115.88268,49.89265],[-115.88272,49.89252],[-115.88276,49.89241],[-115.88279,49.89237],[-115.8828,49.89231],[-115.88283,49.89226],[-115.88286,49.89221],[-115.88289,49.89213],[-115.88292,49.89203],[-115.88295,49.89193],[-115.88297,49.89184],[-115.88298,49.89176],[-115.88301,49.89168],[-115.88307,49.89159],[-115.88322,49.89137],[-115.88323,49.89135],[-115.88329,49.89126],[-115.88335,49.89116],[-115.8834,49.89106],[-115.88343,49.89098],[-115.88345,49.89092],[-115.88351,49.89077],[-115.88355,49.89066],[-115.88361,49.89054],[-115.88364,49.89044],[-115.88368,49.89035],[-115.88373,49.89027],[-115.88374,49.8902],[-115.88374,49.89018],[-115.88377,49.89008],[-115.88378,49.89001],[-115.88379,49.88997],[-115.88379,49.88987],[-115.8838,49.88943],[-115.88379,49.88933],[-115.88377,49.88921],[-115.88374,49.88908],[-115.8837,49.88892],[-115.88368,49.88888],[-115.88365,49.88882],[-115.88365,49.88879],[-115.8836,49.88868],[-115.88353,49.88857],[-115.88348,49.88847],[-115.88341,49.88834],[-115.88332,49.88809],[-115.88329,49.88804],[-115.88324,49.8879],[-115.88317,49.88776],[-115.88312,49.88764],[-115.88299,49.8874],[-115.88291,49.88726],[-115.88283,49.8871],[-115.88276,49.88694],[-115.88271,49.88681],[-115.88267,49.88669],[-115.88262,49.88659],[-115.88259,49.88649],[-115.88254,49.88638],[-115.88238,49.886],[-115.88234,49.88589],[-115.88231,49.8858],[-115.8823,49.88572],[-115.88228,49.88563],[-115.88225,49.88553],[-115.88221,49.8854],[-115.88217,49.88532],[-115.88213,49.88526],[-115.88211,49.88521],[-115.88208,49.88516],[-115.88205,49.88507],[-115.88203,49.88501],[-115.88201,49.88494],[-115.882,49.88488],[-115.88199,49.8848],[-115.88196,49.88479],[-115.88188,49.88478],[-115.88184,49.88477],[-115.88181,49.88476],[-115.8817,49.88473],[-115.8816,49.88468],[-115.88152,49.88464],[-115.88145,49.88459],[-115.88142,49.88454],[-115.88141,49.88446],[-115.88139,49.88439],[-115.88136,49.8843],[-115.88133,49.88422],[-115.88131,49.88413],[-115.88125,49.88406],[-115.88111,49.88388],[-115.88094,49.88368],[-115.88075,49.88351],[-115.88064,49.88346],[-115.88048,49.88339],[-115.88026,49.88333],[-115.87992,49.88329],[-115.87989,49.88328],[-115.87984,49.88326],[-115.87978,49.88325],[-115.87965,49.88323],[-115.87958,49.88321],[-115.87947,49.88318],[-115.87941,49.88317],[-115.87938,49.88315],[-115.87931,49.88311],[-115.87923,49.88309],[-115.87915,49.88304],[-115.87907,49.88301],[-115.87897,49.883],[-115.87882,49.883],[-115.87875,49.88303],[-115.87868,49.88304],[-115.8786,49.88308],[-115.87848,49.88313],[-115.87835,49.88319],[-115.87825,49.88326],[-115.87808,49.88337],[-115.878,49.88342],[-115.87786,49.88348],[-115.87772,49.88355],[-115.87758,49.88363],[-115.87745,49.88372],[-115.87738,49.8838],[-115.87732,49.88389],[-115.87729,49.88399],[-115.87727,49.8841],[-115.87728,49.8842],[-115.87728,49.8844],[-115.87726,49.8845],[-115.87725,49.88458],[-115.87725,49.88464],[-115.87723,49.88469],[-115.8772,49.88484],[-115.87718,49.88493],[-115.87715,49.885],[-115.8771,49.88511],[-115.87701,49.8852],[-115.87691,49.88528],[-115.87678,49.88536],[-115.87666,49.88544],[-115.87653,49.88551],[-115.87639,49.88559],[-115.87626,49.88567],[-115.87615,49.88574],[-115.87598,49.88582],[-115.87588,49.88589],[-115.87575,49.88595],[-115.87563,49.88602],[-115.8755,49.8861],[-115.8753,49.88624],[-115.87505,49.88645],[-115.87499,49.88651],[-115.87492,49.88656],[-115.87485,49.8866],[-115.87478,49.88662],[-115.87472,49.88663],[-115.87468,49.88663],[-115.87462,49.88662],[-115.87457,49.88662],[-115.87451,49.88661],[-115.87446,49.88661],[-115.87425,49.88653],[-115.87414,49.88647],[-115.87407,49.88644],[-115.87399,49.88643],[-115.87389,49.88642],[-115.87381,49.88641],[-115.87372,49.88642],[-115.87361,49.88644],[-115.87347,49.88646],[-115.8734,49.88646],[-115.87331,49.88647],[-115.87321,49.88648],[-115.87311,49.8865],[-115.87301,49.88651],[-115.87291,49.88652],[-115.87283,49.88654],[-115.87257,49.88657],[-115.87247,49.88659],[-115.87237,49.8866],[-115.87226,49.88662],[-115.87212,49.88663],[-115.87197,49.88665],[-115.8718,49.88668],[-115.87164,49.88672],[-115.87146,49.88676],[-115.87129,49.88681],[-115.87114,49.88686],[-115.871,49.88689],[-115.87086,49.88691],[-115.87079,49.88691],[-115.87069,49.8869],[-115.87053,49.8869],[-115.87044,49.88688],[-115.8703,49.88686],[-115.87005,49.88678],[-115.86992,49.88673],[-115.86981,49.88667],[-115.86967,49.88657],[-115.86957,49.88649],[-115.86955,49.88647],[-115.86944,49.88638],[-115.86931,49.8863],[-115.86918,49.88625],[-115.86911,49.88623],[-115.86902,49.88622],[-115.86886,49.8862],[-115.86838,49.88619],[-115.86819,49.88621],[-115.86799,49.88623],[-115.86778,49.88628],[-115.86739,49.88636],[-115.86721,49.8864],[-115.86703,49.88643],[-115.86686,49.88644],[-115.86676,49.88643],[-115.86653,49.88642],[-115.86643,49.88643],[-115.86633,49.88645],[-115.86628,49.88648],[-115.86619,49.8865],[-115.86612,49.88654],[-115.86604,49.88657],[-115.86578,49.88665],[-115.86562,49.88669],[-115.86545,49.88673],[-115.86528,49.88675],[-115.86513,49.88677],[-115.86496,49.8868],[-115.86479,49.88684],[-115.86461,49.88687],[-115.86446,49.88693],[-115.86434,49.88698],[-115.86424,49.88704],[-115.86382,49.88723],[-115.86367,49.88727],[-115.86357,49.8873],[-115.86349,49.88731],[-115.86337,49.88732],[-115.86328,49.88736],[-115.86316,49.8874],[-115.86309,49.88743],[-115.86304,49.88747],[-115.86298,49.8875],[-115.86294,49.88751],[-115.86288,49.88751],[-115.86284,49.8875],[-115.86255,49.8875],[-115.86252,49.88751],[-115.86248,49.88751],[-115.86239,49.88753],[-115.86235,49.88753],[-115.86231,49.88753],[-115.86206,49.88753],[-115.86202,49.88752],[-115.86195,49.88752],[-115.86189,49.88751],[-115.86175,49.88749],[-115.86169,49.88747],[-115.86144,49.88745],[-115.86137,49.88743],[-115.86131,49.88742],[-115.86127,49.88742],[-115.86116,49.8874],[-115.86099,49.8874],[-115.86092,49.8874],[-115.86085,49.88742],[-115.86077,49.88743],[-115.8607,49.88744],[-115.86061,49.88745],[-115.86032,49.88744],[-115.86025,49.88743],[-115.86017,49.88743],[-115.86009,49.88744],[-115.85993,49.88744],[-115.85986,49.88743],[-115.8597,49.88743],[-115.85961,49.88742],[-115.85953,49.88742],[-115.85943,49.88743],[-115.85935,49.88742],[-115.85926,49.88743],[-115.85918,49.88745],[-115.8591,49.88746],[-115.85903,49.88747],[-115.85894,49.88747],[-115.85885,49.88748],[-115.85876,49.88748],[-115.85869,49.88749],[-115.85865,49.88749],[-115.85859,49.8875],[-115.85855,49.88752],[-115.8585,49.88752],[-115.85845,49.88754],[-115.8584,49.88757],[-115.85834,49.8876],[-115.85825,49.88774],[-115.85823,49.88779],[-115.85817,49.88785],[-115.85811,49.88791],[-115.85805,49.88795],[-115.85798,49.88798],[-115.85794,49.888],[-115.85783,49.88805],[-115.85776,49.88807],[-115.8577,49.88809],[-115.85762,49.88812],[-115.85734,49.88819],[-115.85726,49.88821],[-115.85716,49.88825],[-115.85706,49.88829],[-115.85697,49.88833],[-115.85686,49.8884],[-115.85678,49.88843],[-115.85671,49.88848],[-115.85661,49.88851],[-115.85652,49.88856],[-115.85623,49.88869],[-115.85613,49.88872],[-115.85603,49.88877],[-115.85581,49.88887],[-115.85569,49.88892],[-115.85559,49.88897],[-115.85551,49.88901],[-115.85544,49.88904],[-115.85536,49.88908],[-115.85527,49.88912],[-115.85517,49.88916],[-115.85509,49.88919],[-115.85499,49.88922],[-115.85492,49.88923],[-115.85482,49.88925],[-115.85472,49.88928],[-115.8546,49.88931],[-115.85453,49.88933],[-115.85444,49.88936],[-115.85391,49.88941],[-115.85387,49.88944],[-115.85373,49.88949],[-115.85353,49.88962],[-115.85348,49.88966],[-115.85341,49.88971],[-115.85335,49.88976],[-115.85323,49.88986],[-115.85306,49.89],[-115.85301,49.89003],[-115.85275,49.89014],[-115.85268,49.89016],[-115.85264,49.89016],[-115.8526,49.89016],[-115.85255,49.89016],[-115.85246,49.89018],[-115.85241,49.89018],[-115.85236,49.89019],[-115.85222,49.89019],[-115.85218,49.89018],[-115.85213,49.89017],[-115.85209,49.89016],[-115.85203,49.89016],[-115.852,49.89015],[-115.85193,49.89015],[-115.85185,49.89014],[-115.85168,49.89014],[-115.8516,49.89013],[-115.85153,49.89012],[-115.85145,49.89012],[-115.85139,49.8901],[-115.85132,49.89009],[-115.85127,49.89007],[-115.8512,49.89006],[-115.85114,49.89003],[-115.85109,49.89001],[-115.85102,49.89],[-115.85099,49.88998],[-115.85094,49.88996],[-115.85089,49.88994],[-115.85087,49.88992],[-115.85082,49.88991],[-115.8508,49.88989],[-115.85077,49.88989],[-115.85073,49.88988],[-115.85071,49.88986],[-115.85067,49.88986],[-115.85065,49.88985],[-115.85056,49.88983],[-115.85051,49.88982],[-115.85042,49.88982],[-115.85037,49.88983],[-115.85031,49.88983],[-115.85026,49.88984],[-115.8502,49.88985],[-115.85014,49.88986],[-115.85009,49.88988],[-115.85005,49.88989],[-115.85,49.8899],[-115.84996,49.88991],[-115.84975,49.88991],[-115.84968,49.88989],[-115.84963,49.88988],[-115.84955,49.88986],[-115.84949,49.88985],[-115.84942,49.88985],[-115.8492,49.88984],[-115.84916,49.88985],[-115.84906,49.88985],[-115.849,49.88986],[-115.84896,49.88986],[-115.84892,49.88987],[-115.8489,49.88989],[-115.84869,49.89],[-115.84845,49.8903],[-115.84826,49.89046],[-115.84818,49.89052],[-115.84791,49.89069],[-115.84788,49.8907],[-115.8478,49.89074],[-115.84776,49.89076],[-115.8477,49.89078],[-115.84757,49.89083],[-115.84754,49.89085],[-115.8475,49.89087],[-115.84746,49.8909],[-115.84742,49.89091],[-115.84739,49.89093],[-115.84735,49.89095],[-115.84732,49.89097],[-115.84728,49.89098],[-115.84725,49.89098],[-115.84721,49.89099],[-115.84716,49.89101],[-115.84711,49.89102],[-115.84707,49.89102],[-115.84704,49.89103],[-115.847,49.89103],[-115.84676,49.89108],[-115.84661,49.89107],[-115.84655,49.89108],[-115.84647,49.89109],[-115.84642,49.89111],[-115.84638,49.89112],[-115.84635,49.89113],[-115.84631,49.89113],[-115.8462,49.89114],[-115.84608,49.89114],[-115.84602,49.89113],[-115.84598,49.89112],[-115.8459,49.89109],[-115.84579,49.89107],[-115.84573,49.89107],[-115.84567,49.89108],[-115.84562,49.89109],[-115.84556,49.89112],[-115.84542,49.89115],[-115.84537,49.89116],[-115.84532,49.89117],[-115.84525,49.89118],[-115.84521,49.89119],[-115.84517,49.89119],[-115.84511,49.89121],[-115.84504,49.89121],[-115.84497,49.89123],[-115.84492,49.89125],[-115.84486,49.89126],[-115.84472,49.89127],[-115.84464,49.89128],[-115.84447,49.89128],[-115.8444,49.89127],[-115.84404,49.89127],[-115.84398,49.89128],[-115.84393,49.89127],[-115.84387,49.89128],[-115.84383,49.89129],[-115.84369,49.89131],[-115.84361,49.89132],[-115.84354,49.89133],[-115.84345,49.89135],[-115.84337,49.89136],[-115.8433,49.89138],[-115.84322,49.89138],[-115.84315,49.8914],[-115.84306,49.89142],[-115.84299,49.89144],[-115.84291,49.89145],[-115.84284,49.89146],[-115.84277,49.89148],[-115.84273,49.89149],[-115.84268,49.89151],[-115.84263,49.89153],[-115.84257,49.89155],[-115.84243,49.8916],[-115.84239,49.89162],[-115.84228,49.89165],[-115.84223,49.89167],[-115.84218,49.89169],[-115.84209,49.89171],[-115.84195,49.89176],[-115.8419,49.89179],[-115.84184,49.8918],[-115.8418,49.89182],[-115.84173,49.89184],[-115.84166,49.89186],[-115.84159,49.8919],[-115.84153,49.89193],[-115.84145,49.89196],[-115.84139,49.89198],[-115.84136,49.892],[-115.84131,49.89202],[-115.84126,49.89206],[-115.84121,49.89209],[-115.84118,49.89213],[-115.84114,49.89216],[-115.84112,49.89218],[-115.84109,49.89221],[-115.84105,49.89224],[-115.84099,49.89228],[-115.84095,49.89232],[-115.8409,49.89235],[-115.84081,49.89242],[-115.84078,49.89245],[-115.8407,49.8925],[-115.84065,49.89254],[-115.8406,49.89256],[-115.84054,49.8926],[-115.84046,49.89263],[-115.84042,49.89264],[-115.84037,49.89266],[-115.8403,49.89268],[-115.84025,49.8927],[-115.84019,49.8927],[-115.84011,49.89272],[-115.83997,49.89274],[-115.83984,49.89274],[-115.83979,49.89273],[-115.83961,49.89272],[-115.83955,49.89272],[-115.83948,49.89271],[-115.83944,49.8927],[-115.83938,49.8927],[-115.83934,49.89269],[-115.83929,49.89269],[-115.83912,49.89268],[-115.83909,49.89269],[-115.83906,49.8927],[-115.83899,49.89273],[-115.83895,49.89278],[-115.83894,49.89281],[-115.83907,49.89289],[-115.83935,49.89291],[-115.83961,49.89294],[-115.83993,49.89298],[-115.84028,49.89304],[-115.84054,49.89309],[-115.84061,49.8932],[-115.84059,49.89331],[-115.84038,49.89347],[-115.84003,49.89357],[-115.83978,49.89362],[-115.8395,49.89363],[-115.83912,49.89363],[-115.83893,49.89364],[-115.83865,49.89369],[-115.83834,49.8937],[-115.83805,49.89373],[-115.83769,49.89377],[-115.83733,49.89374],[-115.83705,49.89372],[-115.83666,49.89372],[-115.83621,49.89374],[-115.83581,49.89374],[-115.8355,49.89377],[-115.83525,49.89383],[-115.83498,49.89395],[-115.83487,49.89402]]}},
{"type":"Feature","properties":{"spotId":"F-grouse-drive-0047","kind":"roadside","km":3.43,"climbM":47,"name":"1.0 km NE of Lost Dog Lake","flags":[]},"geometry":{"type":"LineString","coordinates":[[-115.85267,49.83791],[-115.85258,49.83773],[-115.85323,49.83717],[-115.85351,49.83696],[-115.85374,49.83683],[-115.85397,49.83672],[-115.85423,49.83664],[-115.85459,49.83654],[-115.85485,49.83645],[-115.85509,49.83638],[-115.85532,49.8363],[-115.85545,49.83627],[-115.85564,49.8362],[-115.85604,49.83608],[-115.85623,49.83601],[-115.85652,49.8359],[-115.85668,49.83583],[-115.85679,49.83577],[-115.85692,49.83571],[-115.85729,49.83546],[-115.85746,49.83523],[-115.85751,49.83516],[-115.85757,49.8351],[-115.8577,49.83504],[-115.85785,49.835],[-115.85801,49.83498],[-115.85816,49.83499],[-115.85827,49.83502],[-115.85871,49.83524],[-115.85885,49.83532],[-115.85889,49.83534],[-115.85894,49.83534],[-115.85906,49.83535],[-115.85925,49.83534],[-115.85946,49.83532],[-115.85977,49.83527],[-115.86001,49.83521],[-115.8602,49.83517],[-115.86038,49.83514],[-115.86061,49.83512],[-115.86078,49.83513],[-115.86088,49.83514],[-115.86106,49.8352],[-115.86135,49.83534],[-115.8615,49.83544],[-115.86164,49.83555],[-115.86181,49.8357],[-115.8619,49.83577],[-115.86201,49.83583],[-115.86217,49.83596],[-115.86241,49.8362],[-115.86251,49.83628],[-115.86261,49.83635],[-115.86295,49.83655],[-115.86313,49.83669],[-115.86344,49.83696],[-115.86346,49.837],[-115.86349,49.83708],[-115.86354,49.83712],[-115.8636,49.83717],[-115.8638,49.83722],[-115.86404,49.83733],[-115.86411,49.83738],[-115.86422,49.83747],[-115.86432,49.8376],[-115.86448,49.83787],[-115.86454,49.83805],[-115.86464,49.83837],[-115.86469,49.83845],[-115.86478,49.83857],[-115.86492,49.83877],[-115.86506,49.83893],[-115.86512,49.83904],[-115.86516,49.83916],[-115.86526,49.8393],[-115.86539,49.83944],[-115.86563,49.8396],[-115.86571,49.83968],[-115.86584,49.83975],[-115.86624,49.84002],[-115.86631,49.84008],[-115.86637,49.84017],[-115.86643,49.84032],[-115.86643,49.84043],[-115.86648,49.84062],[-115.86646,49.84088],[-115.86642,49.84124],[-115.86644,49.84164],[-115.86649,49.84178],[-115.86652,49.84194],[-115.86655,49.84202],[-115.86653,49.84209],[-115.86647,49.84221],[-115.86639,49.84233],[-115.86635,49.84249],[-115.86635,49.8426],[-115.86637,49.84273],[-115.86643,49.84287],[-115.86682,49.84348],[-115.86704,49.8438],[-115.86708,49.84392],[-115.86711,49.84406],[-115.8671,49.84427],[-115.86705,49.84448],[-115.86703,49.8447],[-115.86706,49.84487],[-115.86707,49.84501],[-115.86706,49.84523],[-115.86701,49.84539],[-115.86691,49.84564],[-115.86688,49.84583],[-115.86682,49.84615],[-115.86677,49.8464],[-115.86674,49.8467],[-115.8667,49.8469],[-115.86671,49.84707],[-115.86668,49.8473],[-115.86664,49.8474],[-115.86657,49.84752],[-115.86645,49.84765],[-115.8664,49.84774],[-115.86635,49.84808],[-115.86634,49.84826],[-115.86627,49.84843],[-115.86619,49.84854],[-115.86598,49.84871],[-115.86577,49.8489],[-115.86551,49.84917],[-115.86541,49.84927],[-115.86501,49.84976],[-115.86483,49.84995],[-115.86467,49.85024],[-115.8646,49.85041],[-115.86458,49.85072],[-115.86456,49.851],[-115.86456,49.8512],[-115.86455,49.85138],[-115.86449,49.85159],[-115.86446,49.85186],[-115.8644,49.85201],[-115.86433,49.8522],[-115.86425,49.85245],[-115.86423,49.85267],[-115.86422,49.85281],[-115.86424,49.85292],[-115.86428,49.85299],[-115.8643,49.85311],[-115.8643,49.85328],[-115.86429,49.85341],[-115.86425,49.85358],[-115.86398,49.85411],[-115.86391,49.85429],[-115.8639,49.85435],[-115.86392,49.85442],[-115.86399,49.85455],[-115.8641,49.85476],[-115.86436,49.85511],[-115.8645,49.85528],[-115.86458,49.85537],[-115.8647,49.85545],[-115.86526,49.85587],[-115.86537,49.85594],[-115.86552,49.85601],[-115.86559,49.85606],[-115.86568,49.85616],[-115.8658,49.85641],[-115.86602,49.85685],[-115.86607,49.85695]]}},
{"type":"Feature","properties":{"spotId":"F-grouse-walk-0021","kind":"roadside","km":4.51,"climbM":215,"name":"By Skookumchuck Creek","flags":[]},"geometry":{"type":"LineString","coordinates":[[-115.92223,49.97388],[-115.9221,49.97378],[-115.9219,49.97361],[-115.92172,49.97345],[-115.92153,49.97329],[-115.92129,49.97311],[-115.92106,49.97297],[-115.92099,49.97289],[-115.92095,49.97281],[-115.921,49.97275],[-115.92102,49.97273],[-115.92109,49.9727],[-115.92132,49.97265],[-115.9216,49.97259],[-115.92181,49.97254],[-115.92188,49.97253],[-115.92219,49.97246],[-115.92248,49.97239],[-115.9228,49.97231],[-115.92311,49.97226],[-115.92349,49.97218],[-115.9238,49.9721],[-115.92409,49.97202],[-115.92442,49.97194],[-115.92471,49.97188],[-115.92489,49.97183],[-115.92508,49.97178],[-115.92534,49.97171],[-115.92565,49.97163],[-115.92593,49.97157],[-115.92624,49.97152],[-115.9265,49.97149],[-115.92669,49.97148],[-115.92692,49.97146],[-115.92722,49.97142],[-115.92741,49.97139],[-115.92773,49.97135],[-115.92803,49.97131],[-115.92824,49.97129],[-115.92838,49.97128],[-115.92871,49.97124],[-115.92876,49.97124],[-115.92902,49.97122],[-115.92931,49.97119],[-115.92962,49.97116],[-115.92994,49.97113],[-115.93026,49.97109],[-115.93059,49.97106],[-115.93092,49.97105],[-115.93153,49.97104],[-115.93174,49.97103],[-115.93184,49.97104],[-115.93215,49.97102],[-115.9325,49.97101],[-115.9328,49.97099],[-115.93315,49.97098],[-115.93346,49.97096],[-115.93378,49.97097],[-115.93399,49.97098],[-115.93409,49.97099],[-115.93439,49.97099],[-115.93473,49.97101],[-115.93504,49.97101],[-115.93537,49.97103],[-115.93568,49.97105],[-115.93597,49.97105],[-115.93626,49.97103],[-115.93691,49.97096],[-115.93723,49.97091],[-115.93755,49.97087],[-115.93787,49.97081],[-115.93817,49.97073],[-115.93845,49.97064],[-115.93874,49.97054],[-115.93887,49.97052],[-115.93919,49.97055],[-115.93952,49.97056],[-115.93984,49.97055],[-115.94082,49.97056],[-115.94117,49.97054],[-115.94148,49.9705],[-115.94177,49.97046],[-115.94208,49.97044],[-115.9424,49.97042],[-115.94272,49.97042],[-115.94304,49.97044],[-115.94321,49.97044],[-115.94351,49.9704],[-115.9437,49.97036],[-115.94384,49.97031],[-115.9441,49.97022],[-115.94438,49.97012],[-115.94468,49.97005],[-115.945,49.96999],[-115.94527,49.96993],[-115.94558,49.96986],[-115.94586,49.96979],[-115.94615,49.96973],[-115.94646,49.96966],[-115.94663,49.96959],[-115.94674,49.96953],[-115.9468,49.96944],[-115.94681,49.96932],[-115.9468,49.9692],[-115.94676,49.96911],[-115.94666,49.96892],[-115.94659,49.96884],[-115.94642,49.96873],[-115.94619,49.96858],[-115.94597,49.96843],[-115.94578,49.96825],[-115.94571,49.96814],[-115.94562,49.96794],[-115.94555,49.96776],[-115.94547,49.96757],[-115.94542,49.96735],[-115.9454,49.96714],[-115.94539,49.96691],[-115.94537,49.96672],[-115.9453,49.9665],[-115.94525,49.96629],[-115.94526,49.96624],[-115.94532,49.96619],[-115.94539,49.96616],[-115.94548,49.96614],[-115.94571,49.96612],[-115.94575,49.96613],[-115.94582,49.96617],[-115.94588,49.96622],[-115.94592,49.96628],[-115.94599,49.96639],[-115.94604,49.96647],[-115.94615,49.96666],[-115.9463,49.96685],[-115.94645,49.96703],[-115.94661,49.96722],[-115.94676,49.96739],[-115.94695,49.96755],[-115.94743,49.96787],[-115.94768,49.96801],[-115.94791,49.96815],[-115.94815,49.96827],[-115.94844,49.9684],[-115.94869,49.96853],[-115.94877,49.9686],[-115.94884,49.96868],[-115.94896,49.96886],[-115.94911,49.96903],[-115.94922,49.9691],[-115.94944,49.96923],[-115.94947,49.96925],[-115.94958,49.96931],[-115.9496,49.96933],[-115.94978,49.96939],[-115.94985,49.96942],[-115.94995,49.96946],[-115.95023,49.96957],[-115.95039,49.96963],[-115.95049,49.96966],[-115.95079,49.96975],[-115.9511,49.96983],[-115.9512,49.96984],[-115.95138,49.96986],[-115.95173,49.96989],[-115.95194,49.96993],[-115.95203,49.96994],[-115.95235,49.97003],[-115.95264,49.9701],[-115.95296,49.97018],[-115.95327,49.97024],[-115.95332,49.97026],[-115.95354,49.97031],[-115.95382,49.97037],[-115.95415,49.97041],[-115.95447,49.97045],[-115.95482,49.97047],[-115.95512,49.97046],[-115.95531,49.97043],[-115.95563,49.97037],[-115.9558,49.97035],[-115.95594,49.97036],[-115.95625,49.97038],[-115.95647,49.97039],[-115.95671,49.97037],[-115.95701,49.97035],[-115.95714,49.97033],[-115.95742,49.97028],[-115.95774,49.97021],[-115.95806,49.97013],[-115.95826,49.97009],[-115.95837,49.97006],[-115.95868,49.96998],[-115.959,49.96991],[-115.95928,49.96984],[-115.95956,49.96979],[-115.95987,49.96976],[-115.96019,49.96972],[-115.96049,49.96967],[-115.96082,49.96964],[-115.96116,49.96961],[-115.96149,49.96957],[-115.9618,49.96954],[-115.96209,49.96955],[-115.96222,49.96956],[-115.96248,49.96959],[-115.96254,49.9696],[-115.96283,49.96963],[-115.96314,49.96965],[-115.96347,49.96965],[-115.96381,49.96964],[-115.9641,49.96963],[-115.96439,49.9696],[-115.9647,49.96957],[-115.96502,49.96953],[-115.96533,49.96949],[-115.96561,49.96943],[-115.96569,49.96939],[-115.96574,49.96935],[-115.96575,49.96929],[-115.96571,49.96926],[-115.96563,49.96924],[-115.96554,49.96923],[-115.96543,49.96923],[-115.96525,49.96923],[-115.96507,49.96926],[-115.96476,49.96928],[-115.96462,49.96928],[-115.96444,49.96926],[-115.96412,49.96921],[-115.96385,49.96915],[-115.96365,49.96909],[-115.96336,49.969],[-115.96307,49.96893],[-115.96304,49.96893],[-115.96294,49.96892],[-115.96264,49.9689],[-115.9624,49.96885],[-115.9621,49.96879],[-115.96179,49.96872],[-115.96149,49.96865],[-115.96134,49.96862]]}},
{"type":"Feature","properties":{"spotId":"F-moose-atv-0001","kind":"ride","km":1.36,"climbM":32,"name":"120 m NE of Mather Creek","flags":[]},"geometry":{"type":"LineString","coordinates":[[-115.92692,49.87844],[-115.92753,49.87764],[-115.92807,49.87692],[-115.9283,49.87672],[-115.92871,49.87643],[-115.92899,49.8762],[-115.9292,49.8758],[-115.92934,49.87555],[-115.92954,49.87494],[-115.92949,49.87471],[-115.92937,49.87445],[-115.92925,49.87404],[-115.92912,49.87376],[-115.92896,49.87349],[-115.92882,49.87322],[-115.9287,49.87312],[-115.9286,49.87284],[-115.92863,49.8727],[-115.92865,49.87246],[-115.92861,49.87224],[-115.92853,49.87206],[-115.92839,49.8716],[-115.92831,49.8714],[-115.92827,49.87115],[-115.92821,49.87094],[-115.92808,49.8708],[-115.92761,49.87034],[-115.92736,49.8701],[-115.92705,49.86982],[-115.92682,49.86959],[-115.92664,49.86935],[-115.92645,49.86916],[-115.92611,49.86878],[-115.92589,49.86858],[-115.9257,49.86842],[-115.92557,49.86832],[-115.9253,49.86825],[-115.9248,49.86821],[-115.92429,49.86818],[-115.92398,49.86822]]}},
{"type":"Feature","properties":{"spotId":"F-moose-atv-0001","kind":"walk","km":0.15,"climbM":2,"name":"120 m NE of Mather Creek","flags":[]},"geometry":{"type":"LineString","coordinates":[[-115.92692,49.87844],[-115.9287,49.87915]]}},
{"type":"Feature","properties":{"spotId":"F-moose-atv-0002","kind":"ride","km":2.82,"climbM":44,"name":"840 m SW of Mather Creek","flags":[]},"geometry":{"type":"LineString","coordinates":[[-115.92458,49.77015],[-115.92429,49.77013],[-115.92399,49.77005],[-115.92351,49.76984],[-115.92316,49.76957],[-115.92286,49.76914],[-115.9227,49.76877],[-115.92261,49.76867],[-115.9224,49.76854],[-115.92216,49.76841],[-115.922,49.76826],[-115.92189,49.76804],[-115.92183,49.76783],[-115.92185,49.76769],[-115.92194,49.76756],[-115.92218,49.76736],[-115.92234,49.76722],[-115.92241,49.7671],[-115.92247,49.76684],[-115.92258,49.76644],[-115.9227,49.7662],[-115.92286,49.76598],[-115.92291,49.76592],[-115.9231,49.76572],[-115.92324,49.76547],[-115.92335,49.76528],[-115.9234,49.76516],[-115.9234,49.76498],[-115.92325,49.76468],[-115.92323,49.76455],[-115.92325,49.76425],[-115.92334,49.7638],[-115.92341,49.76353],[-115.92348,49.76336],[-115.92356,49.76321],[-115.92362,49.7631],[-115.92366,49.76299],[-115.92374,49.76282],[-115.92382,49.76267],[-115.9239,49.76255],[-115.92402,49.76243],[-115.92413,49.76229],[-115.92422,49.76216],[-115.92425,49.76202],[-115.92433,49.76186],[-115.92436,49.76172],[-115.92439,49.7616],[-115.92445,49.76144],[-115.92451,49.76136],[-115.92457,49.76126],[-115.92467,49.76116],[-115.92479,49.76107],[-115.92481,49.76104],[-115.92483,49.761],[-115.92487,49.76089],[-115.92494,49.76082],[-115.92499,49.76076],[-115.92503,49.7607],[-115.92504,49.76064],[-115.92506,49.76055],[-115.92507,49.76033],[-115.92505,49.76023],[-115.92502,49.76012],[-115.92501,49.75996],[-115.92498,49.75981],[-115.925,49.75953],[-115.92502,49.75938],[-115.92504,49.75925],[-115.92503,49.75919],[-115.92499,49.75907],[-115.92489,49.75895],[-115.92478,49.75887],[-115.9246,49.75874],[-115.92442,49.75864],[-115.92422,49.75854],[-115.92398,49.75842],[-115.9238,49.75837],[-115.92371,49.75834],[-115.92356,49.75828],[-115.92346,49.75825],[-115.92336,49.75821],[-115.92314,49.75815],[-115.92294,49.7581],[-115.92274,49.75808],[-115.92256,49.75804],[-115.92219,49.75796],[-115.92211,49.75793],[-115.92187,49.75784],[-115.92182,49.75781],[-115.92162,49.75762],[-115.92152,49.75751],[-115.9215,49.75744],[-115.92149,49.75731],[-115.92149,49.75715],[-115.9215,49.75708],[-115.92164,49.7569],[-115.92181,49.75672],[-115.9219,49.7566],[-115.92193,49.75653],[-115.92205,49.75641],[-115.92209,49.75636],[-115.92217,49.75623],[-115.9223,49.75608],[-115.92238,49.75595],[-115.92244,49.75575],[-115.92244,49.7557],[-115.92241,49.75559],[-115.92231,49.75543],[-115.92224,49.75529],[-115.92216,49.75512],[-115.92216,49.75508],[-115.92214,49.755],[-115.92208,49.75483],[-115.92208,49.75479],[-115.92209,49.75472],[-115.92207,49.75456],[-115.92207,49.75443],[-115.92209,49.75427],[-115.92207,49.75421],[-115.922,49.75413],[-115.92187,49.75402],[-115.92171,49.75393],[-115.92162,49.75385],[-115.92152,49.75369],[-115.92152,49.75363],[-115.92152,49.75352],[-115.92154,49.75339],[-115.92155,49.75331],[-115.9216,49.75322],[-115.92165,49.75314],[-115.92174,49.75305],[-115.92177,49.75303],[-115.92185,49.75299],[-115.92188,49.75298],[-115.92205,49.75295],[-115.92211,49.75294],[-115.9222,49.75291],[-115.92231,49.75288],[-115.9224,49.75284],[-115.92241,49.75282],[-115.92242,49.75278],[-115.92243,49.75274],[-115.92246,49.75268],[-115.92251,49.75262],[-115.92253,49.75259],[-115.92257,49.75257],[-115.92265,49.75252],[-115.92276,49.75246],[-115.92296,49.7524],[-115.92302,49.7524],[-115.9233,49.7524],[-115.92339,49.75241],[-115.92349,49.75242],[-115.92358,49.75241],[-115.92364,49.7524],[-115.92377,49.75237],[-115.92398,49.75236],[-115.92412,49.75235],[-115.9243,49.7523],[-115.92442,49.7523],[-115.92447,49.7523],[-115.92456,49.7523],[-115.9247,49.75231],[-115.92478,49.75229],[-115.92484,49.75226],[-115.92489,49.75221],[-115.92491,49.75214],[-115.9249,49.75206],[-115.92488,49.75195],[-115.92485,49.75187],[-115.92482,49.75184],[-115.92475,49.7518],[-115.92457,49.75172],[-115.92431,49.75163],[-115.92413,49.75159],[-115.92404,49.75156],[-115.92393,49.75151],[-115.92378,49.75142],[-115.92365,49.75135],[-115.92346,49.75125],[-115.92324,49.75117],[-115.92291,49.75102],[-115.92271,49.75096],[-115.92249,49.75091],[-115.92234,49.7509],[-115.9222,49.7509],[-115.92209,49.7509],[-115.92196,49.75089],[-115.92181,49.75086],[-115.92177,49.75084],[-115.92127,49.75073]]}},
{"type":"Feature","properties":{"spotId":"F-moose-atv-0002","kind":"walk","km":0.35,"climbM":2,"name":"840 m SW of Mather Creek","flags":[]},"geometry":{"type":"LineString","coordinates":[[-115.92458,49.77015],[-115.92554,49.77325]]}},
{"type":"Feature","properties":{"spotId":"F-moose-atv-0008","kind":"ride","km":1.08,"climbM":27,"name":"800 m E of Mather Creek","flags":[]},"geometry":{"type":"LineString","coordinates":[[-115.90079,49.7484],[-115.90102,49.74866],[-115.90144,49.74912],[-115.90179,49.74958],[-115.90208,49.74992],[-115.90237,49.7503],[-115.90253,49.75049],[-115.90264,49.75066],[-115.90265,49.75076],[-115.90267,49.75091],[-115.90272,49.75121],[-115.90276,49.75157],[-115.90275,49.75161],[-115.90279,49.75189],[-115.9028,49.75212],[-115.90285,49.75248],[-115.90294,49.75276],[-115.90309,49.75331],[-115.90322,49.75368],[-115.90324,49.7538],[-115.90319,49.75383],[-115.90286,49.75407],[-115.90242,49.75423],[-115.90209,49.7542],[-115.9018,49.75423],[-115.9013,49.75419],[-115.90075,49.75405],[-115.90024,49.7539],[-115.89985,49.75383],[-115.89944,49.75372],[-115.89911,49.75367],[-115.89856,49.75354],[-115.89823,49.75358],[-115.89796,49.75369],[-115.89755,49.75375]]}},
{"type":"Feature","properties":{"spotId":"F-moose-atv-0008","kind":"walk","km":0.17,"climbM":0,"name":"800 m E of Mather Creek","flags":[]},"geometry":{"type":"LineString","coordinates":[[-115.89755,49.75375],[-115.89882,49.75501]]}},
{"type":"Feature","properties":{"spotId":"F-moose-drive-0003","kind":"walk","km":0.18,"climbM":2,"name":"920 m E of Lost Dog Creek","flags":[]},"geometry":{"type":"LineString","coordinates":[[-115.85701,49.75936],[-115.85927,49.75995]]}},
{"type":"Feature","properties":{"spotId":"F-moose-drive-0009","kind":"walk","km":0.18,"climbM":0,"name":"1.1 km E of Skookumchuck Creek","flags":[]},"geometry":{"type":"LineString","coordinates":[[-115.84108,49.96423],[-115.84342,49.96376]]}},
{"type":"Feature","properties":{"spotId":"F-moose-drive-0011","kind":"walk","km":0.08,"climbM":0,"name":"510 m NW of Sandown Creek","flags":[]},"geometry":{"type":"LineString","coordinates":[[-115.88382,49.99196],[-115.88282,49.99166]]}},
{"type":"Feature","properties":{"spotId":"F-moose-drive-0012","kind":"walk","km":0.12,"climbM":0,"name":"By Lost Dog Creek","flags":[]},"geometry":{"type":"LineString","coordinates":[[-115.86844,49.85079],[-115.86684,49.85119]]}},
{"type":"Feature","properties":{"spotId":"F-moose-drive-0016","kind":"walk","km":0.29,"climbM":3,"name":"2.0 km W of Larchwood Lake rec site","flags":[]},"geometry":{"type":"LineString","coordinates":[[-115.82673,49.9549],[-115.82309,49.9537]]}},
{"type":"Feature","properties":{"spotId":"F-moose-walk-0001","kind":"walk","km":0.33,"climbM":0,"name":"1.0 km N of Mather Creek","flags":[]},"geometry":{"type":"LineString","coordinates":[[-115.92839,49.88749],[-115.92397,49.88685]]}},
{"type":"Feature","properties":{"spotId":"F-moose-walk-0002","kind":"walk","km":0.35,"climbM":10,"name":"750 m E of Mather Creek","flags":[]},"geometry":{"type":"LineString","coordinates":[[-115.91003,49.79379],[-115.91337,49.79149]]}},
{"type":"Feature","properties":{"spotId":"F-moose-walk-0004","kind":"walk","km":0.48,"climbM":5,"name":"1.6 km W of Lost Dog Creek","flags":[]},"geometry":{"type":"LineString","coordinates":[[-115.88308,49.85375],[-115.88965,49.85452]]}},
{"type":"Feature","properties":{"spotId":"F-moose-walk-0013","kind":"walk","km":0.9,"climbM":2,"name":"430 m N of Pommier Creek","flags":[]},"geometry":{"type":"LineString","coordinates":[[-115.8223,49.8946],[-115.82245,49.89438],[-115.82251,49.89427],[-115.82256,49.89413],[-115.82255,49.89402],[-115.82259,49.89398],[-115.82247,49.89379],[-115.82238,49.89358],[-115.82232,49.8935],[-115.8222,49.89339],[-115.82194,49.89326],[-115.82168,49.89314],[-115.82143,49.89301],[-115.82118,49.89285],[-115.82115,49.89283],[-115.81388,49.88929]]}},
{"type":"Feature","properties":{"spotId":"F-moose-walk-0023","kind":"walk","km":0.36,"climbM":28,"name":"1.0 km S of Echoes Lakes","flags":[]},"geometry":{"type":"LineString","coordinates":[[-115.80469,49.85849],[-115.80952,49.8575]]}},
{"type":"Feature","properties":{"spotId":"F-moose-walk-0056","kind":"walk","km":0.8,"climbM":10,"name":"1.6 km W of Hahas Lake","flags":[]},"geometry":{"type":"LineString","coordinates":[[-115.85395,49.75797],[-115.85215,49.75087]]}},
{"type":"Feature","properties":{"spotId":"F-turkey-atv-0019","kind":"ride","km":2.41,"climbM":9,"name":"140 m N of Kootenay River","flags":[]},"geometry":{"type":"LineString","coordinates":[[-115.75282,49.94488],[-115.75302,49.94488],[-115.7531,49.94489],[-115.75333,49.9449],[-115.75354,49.94494],[-115.75361,49.94497],[-115.75376,49.94501],[-115.75383,49.94501],[-115.754,49.94501],[-115.75405,49.945],[-115.75412,49.945],[-115.75416,49.94499],[-115.75421,49.94495],[-115.75422,49.94492],[-115.75437,49.94464],[-115.75449,49.94443],[-115.75457,49.94424],[-115.75478,49.94369],[-115.75483,49.94348],[-115.75484,49.94318],[-115.75487,49.94311],[-115.75491,49.94302],[-115.75494,49.943],[-115.75494,49.94296],[-115.75497,49.94289],[-115.75497,49.94284],[-115.75497,49.9426],[-115.75498,49.94256],[-115.75499,49.94219],[-115.755,49.94216],[-115.755,49.94214],[-115.75502,49.9421],[-115.75508,49.94201],[-115.75509,49.94197],[-115.75512,49.94195],[-115.75514,49.94192],[-115.75518,49.94187],[-115.75524,49.94164],[-115.75526,49.94151],[-115.75532,49.94134],[-115.75535,49.94129],[-115.7554,49.94122],[-115.75546,49.9412],[-115.75552,49.94119],[-115.75559,49.94117],[-115.75585,49.94117],[-115.75606,49.94115],[-115.7561,49.94113],[-115.75615,49.94113],[-115.75617,49.94111],[-115.75624,49.9411],[-115.75634,49.94106],[-115.75644,49.94104],[-115.75654,49.941],[-115.75661,49.94097],[-115.75669,49.94093],[-115.75684,49.94089],[-115.75704,49.94085],[-115.75714,49.94085],[-115.75724,49.94085],[-115.75735,49.94086],[-115.75792,49.94086],[-115.75803,49.94085],[-115.75819,49.94086],[-115.75834,49.94087],[-115.75848,49.94087],[-115.75855,49.94088],[-115.75879,49.94088],[-115.75883,49.94087],[-115.75887,49.94087],[-115.75893,49.94086],[-115.75895,49.94086],[-115.759,49.94086],[-115.75904,49.94085],[-115.75909,49.94083],[-115.75915,49.9408],[-115.75926,49.94073],[-115.75929,49.94071],[-115.75933,49.94069],[-115.75936,49.94066],[-115.75939,49.94064],[-115.75943,49.94063],[-115.75948,49.9406],[-115.75955,49.94057],[-115.75966,49.94054],[-115.75976,49.9405],[-115.76002,49.94042],[-115.76012,49.94039],[-115.76015,49.94039],[-115.76026,49.94038],[-115.76043,49.94042],[-115.76046,49.94045],[-115.76053,49.94047],[-115.76073,49.94049],[-115.76086,49.94049],[-115.76103,49.94051],[-115.76123,49.94051],[-115.76132,49.94053],[-115.76141,49.94057],[-115.76153,49.9406],[-115.76175,49.94067],[-115.76194,49.94073],[-115.76215,49.94076],[-115.76222,49.94077],[-115.76245,49.94078],[-115.76252,49.94077],[-115.76257,49.94076],[-115.76264,49.94076],[-115.76277,49.94078],[-115.76291,49.94084],[-115.76299,49.94093],[-115.7632,49.94108],[-115.76332,49.94115],[-115.76342,49.9412],[-115.76353,49.94124],[-115.76357,49.94126],[-115.76371,49.94129],[-115.76379,49.94131],[-115.76386,49.94134],[-115.76394,49.94136],[-115.76403,49.94139],[-115.76408,49.94142],[-115.76403,49.94128],[-115.76395,49.9411],[-115.7639,49.941],[-115.76385,49.94089],[-115.76366,49.94058],[-115.76358,49.94045],[-115.7635,49.94032],[-115.76342,49.9402],[-115.76339,49.94016],[-115.76338,49.94011],[-115.76336,49.94006],[-115.76337,49.93997],[-115.76338,49.93991],[-115.76341,49.93987],[-115.76343,49.93982],[-115.76351,49.93972],[-115.76354,49.93967],[-115.76357,49.93958],[-115.76359,49.93955],[-115.7636,49.93952],[-115.76357,49.93947],[-115.76355,49.93942],[-115.76351,49.93935],[-115.76345,49.93927],[-115.76343,49.93919],[-115.76343,49.93901],[-115.76342,49.93895],[-115.76339,49.93892],[-115.76338,49.93887],[-115.76334,49.93884],[-115.76331,49.93882],[-115.76329,49.9388],[-115.76324,49.93878],[-115.76318,49.93875],[-115.76311,49.93871],[-115.76302,49.93867],[-115.76297,49.93863],[-115.76294,49.93857],[-115.76293,49.93851],[-115.76295,49.93843],[-115.76299,49.93837],[-115.76305,49.93831],[-115.76323,49.93819],[-115.76329,49.93817],[-115.76333,49.93815],[-115.76344,49.9381],[-115.7635,49.93805],[-115.76361,49.93795],[-115.76364,49.93791],[-115.76367,49.93786],[-115.7637,49.93782],[-115.76372,49.93778],[-115.76373,49.93774],[-115.76377,49.93768],[-115.7638,49.9376],[-115.76385,49.93753],[-115.76389,49.93746],[-115.76392,49.93741],[-115.76394,49.93736],[-115.76397,49.93724],[-115.76397,49.93691],[-115.76396,49.93684],[-115.76396,49.93678],[-115.76395,49.93669],[-115.76397,49.936],[-115.764,49.93585],[-115.76405,49.93579],[-115.76409,49.93572],[-115.76416,49.93567],[-115.76423,49.93561],[-115.76429,49.93555],[-115.76436,49.93551],[-115.7644,49.93547],[-115.76454,49.93538],[-115.76459,49.93535],[-115.76464,49.9353],[-115.76471,49.93525],[-115.76486,49.93516],[-115.76493,49.93511],[-115.76501,49.93506],[-115.76513,49.93497],[-115.76523,49.93487],[-115.76533,49.93478],[-115.76541,49.93469],[-115.76548,49.93462],[-115.76553,49.93457],[-115.76558,49.93451],[-115.76564,49.93445],[-115.7657,49.9344],[-115.76574,49.93434],[-115.76577,49.93432],[-115.76585,49.93424],[-115.7659,49.93421],[-115.76594,49.93418],[-115.766,49.93415],[-115.76604,49.93411],[-115.76614,49.93405],[-115.76619,49.93403],[-115.76625,49.93401],[-115.76639,49.93396],[-115.76649,49.93392],[-115.7666,49.93389],[-115.7667,49.93387],[-115.76693,49.9338],[-115.76705,49.93374],[-115.76717,49.93368],[-115.76728,49.9336],[-115.76736,49.93354],[-115.76745,49.93349],[-115.76748,49.93345],[-115.76752,49.93343],[-115.76756,49.93339],[-115.7676,49.93337],[-115.76766,49.93332],[-115.76776,49.93326],[-115.76786,49.93321],[-115.76804,49.93309],[-115.76813,49.93303],[-115.76817,49.933],[-115.76821,49.93297],[-115.76826,49.93294],[-115.7683,49.93292],[-115.76843,49.93284],[-115.76846,49.93281],[-115.76848,49.93276],[-115.76849,49.93272],[-115.76846,49.93265],[-115.76845,49.93262],[-115.76842,49.93258],[-115.76839,49.93256],[-115.76838,49.93255],[-115.76835,49.93252],[-115.76824,49.93245]]}},
{"type":"Feature","properties":{"spotId":"F-turkey-atv-0019","kind":"walk","km":0.15,"climbM":6,"name":"140 m N of Kootenay River","flags":[]},"geometry":{"type":"LineString","coordinates":[[-115.76824,49.93245],[-115.76627,49.93209]]}},
{"type":"Feature","properties":{"spotId":"F-turkey-atv-0024","kind":"ride","km":2.05,"climbM":26,"name":"150 m E of Kootenay River","flags":[]},"geometry":{"type":"LineString","coordinates":[[-115.77678,49.97235],[-115.777,49.97229],[-115.77714,49.97226],[-115.77725,49.97221],[-115.7774,49.97201],[-115.77744,49.97197],[-115.7775,49.97189],[-115.77757,49.97186],[-115.7777,49.97184],[-115.77779,49.97181],[-115.77786,49.97176],[-115.77804,49.97158],[-115.77811,49.9715],[-115.77835,49.97134],[-115.77852,49.97116],[-115.77868,49.97099],[-115.77876,49.97092],[-115.77881,49.97087],[-115.77888,49.97082],[-115.77898,49.9708],[-115.77907,49.97088],[-115.77911,49.97095],[-115.77923,49.97109],[-115.77937,49.97119],[-115.77943,49.97123],[-115.77951,49.97127],[-115.7797,49.97143],[-115.77974,49.9715],[-115.77984,49.97146],[-115.77995,49.97134],[-115.78,49.97126],[-115.78,49.97117],[-115.77986,49.97098],[-115.7798,49.97086],[-115.77977,49.97073],[-115.77978,49.97063],[-115.77981,49.97055],[-115.77996,49.97037],[-115.78012,49.97022],[-115.78015,49.9702],[-115.78023,49.9702],[-115.78033,49.9702],[-115.78047,49.97022],[-115.78061,49.97026],[-115.78086,49.97038],[-115.7809,49.9704],[-115.78094,49.9704],[-115.78102,49.97038],[-115.78109,49.97034],[-115.78118,49.97026],[-115.78131,49.97007],[-115.78145,49.96989],[-115.78151,49.96981],[-115.78159,49.96968],[-115.78167,49.96948],[-115.7817,49.96943],[-115.78192,49.96928],[-115.782,49.96919],[-115.78207,49.96909],[-115.78212,49.96898],[-115.78212,49.96889],[-115.78207,49.96867],[-115.78205,49.96855],[-115.78211,49.96834],[-115.78222,49.96814],[-115.78231,49.96803],[-115.78238,49.96796],[-115.78248,49.9679],[-115.78276,49.968],[-115.78314,49.96813],[-115.78342,49.96824],[-115.78359,49.96829],[-115.78386,49.96842],[-115.78401,49.96851],[-115.78418,49.96856],[-115.78423,49.96861],[-115.78437,49.9688],[-115.78444,49.96889],[-115.78464,49.96906],[-115.78485,49.9692],[-115.78494,49.96927],[-115.78504,49.96937],[-115.78508,49.96946],[-115.7851,49.96968],[-115.78512,49.96983],[-115.78516,49.96992],[-115.78534,49.97011],[-115.78541,49.97016],[-115.78556,49.97058],[-115.78569,49.97076],[-115.78574,49.97087],[-115.78578,49.97101],[-115.78579,49.9712],[-115.78574,49.97132],[-115.78563,49.97151],[-115.78554,49.97171],[-115.78551,49.9718],[-115.7855,49.97188],[-115.78553,49.97202],[-115.78559,49.97217],[-115.78577,49.97234],[-115.78595,49.97249],[-115.78599,49.97254],[-115.78597,49.97274],[-115.78597,49.97295],[-115.78599,49.97309],[-115.78611,49.97327],[-115.78619,49.97347],[-115.78626,49.97359],[-115.78632,49.97379],[-115.78636,49.97398],[-115.78638,49.97419],[-115.78638,49.97425],[-115.78632,49.97444],[-115.78629,49.97453],[-115.78627,49.97461],[-115.78621,49.97469],[-115.78613,49.97476],[-115.78601,49.97497],[-115.78591,49.97516],[-115.78579,49.97536],[-115.78569,49.97546],[-115.78548,49.97563],[-115.78544,49.97568],[-115.78541,49.97576],[-115.78541,49.97582],[-115.78546,49.97603],[-115.78551,49.97613],[-115.7857,49.97633],[-115.78582,49.97641],[-115.7861,49.97653],[-115.78626,49.97659],[-115.78639,49.97667],[-115.78644,49.97672],[-115.78655,49.97691],[-115.78658,49.97695]]}},
{"type":"Feature","properties":{"spotId":"F-turkey-atv-0024","kind":"walk","km":0.35,"climbM":1,"name":"150 m E of Kootenay River","flags":[]},"geometry":{"type":"LineString","coordinates":[[-115.78658,49.97695],[-115.79112,49.97803]]}},
{"type":"Feature","properties":{"spotId":"F-turkey-atv-0034","kind":"ride","km":2.94,"climbM":74,"name":"1.3 km N of Tamarack Lake","flags":[]},"geometry":{"type":"LineString","coordinates":[[-115.81182,49.93358],[-115.81183,49.93339],[-115.81183,49.93337],[-115.81194,49.93308],[-115.81198,49.93288],[-115.81202,49.93279],[-115.81208,49.93253],[-115.81212,49.93236],[-115.81232,49.93209],[-115.81261,49.93189],[-115.81274,49.93176],[-115.81287,49.93163],[-115.81301,49.93149],[-115.81312,49.93129],[-115.81324,49.93109],[-115.81341,49.93096],[-115.81353,49.93075],[-115.81356,49.93071],[-115.81362,49.93061],[-115.81362,49.93046],[-115.81359,49.93032],[-115.8135,49.93011],[-115.81343,49.92981],[-115.81332,49.92961],[-115.81323,49.92934],[-115.81316,49.9291],[-115.81304,49.92888],[-115.81294,49.92873],[-115.81289,49.92847],[-115.81288,49.92831],[-115.81287,49.92821],[-115.81279,49.92797],[-115.81276,49.92787],[-115.8127,49.92769],[-115.81263,49.92741],[-115.81258,49.92719],[-115.81251,49.92695],[-115.81247,49.92667],[-115.81246,49.92645],[-115.81246,49.92643],[-115.81232,49.92592],[-115.81219,49.9257],[-115.81206,49.92539],[-115.81194,49.92513],[-115.81176,49.92465],[-115.81165,49.9244],[-115.81161,49.9243],[-115.81153,49.92412],[-115.81145,49.92393],[-115.81139,49.92377],[-115.81134,49.92361],[-115.81127,49.92345],[-115.81119,49.92333],[-115.81118,49.92313],[-115.81127,49.92282],[-115.81136,49.92256],[-115.81144,49.92231],[-115.81146,49.92211],[-115.81145,49.92191],[-115.81145,49.92188],[-115.81148,49.92168],[-115.8116,49.92149],[-115.81167,49.9213],[-115.81173,49.92108],[-115.81175,49.92105],[-115.81182,49.92081],[-115.81173,49.92066],[-115.81161,49.92052],[-115.81157,49.92048],[-115.81149,49.9203],[-115.81153,49.92011],[-115.81165,49.92],[-115.81179,49.91989],[-115.81192,49.9198],[-115.81207,49.91965],[-115.81223,49.91945],[-115.81232,49.91928],[-115.81233,49.91925],[-115.81244,49.91902],[-115.81251,49.91885],[-115.81253,49.91858],[-115.81259,49.91832],[-115.8127,49.91805],[-115.81277,49.91777],[-115.81285,49.91753],[-115.81294,49.91732],[-115.81294,49.91728],[-115.81293,49.9171],[-115.81294,49.91664],[-115.81296,49.91652],[-115.81295,49.91634],[-115.81292,49.91623],[-115.813,49.91607],[-115.8132,49.91584],[-115.81334,49.91569],[-115.81344,49.91549],[-115.8135,49.9153],[-115.81352,49.91514],[-115.81355,49.91495],[-115.81356,49.91482],[-115.81356,49.91474],[-115.81354,49.91457],[-115.81347,49.91435],[-115.81334,49.91402],[-115.81322,49.91382],[-115.81307,49.9136],[-115.81296,49.91343],[-115.81287,49.91323],[-115.81287,49.91322],[-115.81284,49.9132],[-115.81276,49.91309],[-115.81275,49.91304],[-115.81273,49.9129],[-115.81273,49.91274],[-115.81272,49.9127],[-115.81272,49.91266],[-115.81271,49.91262],[-115.81271,49.91256],[-115.81268,49.91246],[-115.81268,49.91237],[-115.81267,49.91231],[-115.81267,49.91226],[-115.81266,49.91219],[-115.81262,49.91203],[-115.81261,49.912],[-115.81261,49.91197],[-115.8126,49.91193],[-115.81257,49.91191],[-115.81256,49.91187],[-115.81253,49.91183],[-115.8125,49.91178],[-115.8125,49.91177],[-115.81242,49.91161],[-115.81238,49.91155],[-115.81236,49.91148],[-115.81232,49.91142],[-115.81226,49.91128],[-115.81224,49.91124],[-115.81221,49.9112],[-115.81216,49.91109],[-115.81212,49.91104],[-115.81209,49.91098],[-115.81205,49.91094],[-115.812,49.91085],[-115.81194,49.91074],[-115.81192,49.91069],[-115.8119,49.91065],[-115.81188,49.91061],[-115.81188,49.91058],[-115.81185,49.91051],[-115.81184,49.91047],[-115.81181,49.91042],[-115.81181,49.91041],[-115.81177,49.91037],[-115.81175,49.91032],[-115.81169,49.91027],[-115.81165,49.91024],[-115.81162,49.91021],[-115.81158,49.9102],[-115.81153,49.91017],[-115.81148,49.91015],[-115.81143,49.91013],[-115.81139,49.91012],[-115.81133,49.91011],[-115.81125,49.91008],[-115.81119,49.91005],[-115.81111,49.90998],[-115.8111,49.90994],[-115.81107,49.9099],[-115.81105,49.90983],[-115.81103,49.90979],[-115.81095,49.90965],[-115.81093,49.90961],[-115.81091,49.90959],[-115.8109,49.90955],[-115.81086,49.90951],[-115.81083,49.90947],[-115.81081,49.90942],[-115.81078,49.90937],[-115.8107,49.90926],[-115.81069,49.90922],[-115.81063,49.90913],[-115.81062,49.90911],[-115.81058,49.90903],[-115.81055,49.90899],[-115.81054,49.90895],[-115.81053,49.90892],[-115.8105,49.90888],[-115.81049,49.90883],[-115.81046,49.90877],[-115.81043,49.90872],[-115.81041,49.90867],[-115.81037,49.90861],[-115.81035,49.90856],[-115.81032,49.90851]]}},
{"type":"Feature","properties":{"spotId":"F-turkey-atv-0034","kind":"walk","km":0.06,"climbM":0,"name":"1.3 km N of Tamarack Lake","flags":[]},"geometry":{"type":"LineString","coordinates":[[-115.81182,49.93358],[-115.81098,49.93355]]}},
{"type":"Feature","properties":{"spotId":"F-turkey-drive-0014","kind":"walk","km":0.05,"climbM":0,"name":"By Skookumchuck Creek","flags":[]},"geometry":{"type":"LineString","coordinates":[[-115.81641,49.90448],[-115.81619,49.90406]]}},
{"type":"Feature","properties":{"spotId":"F-turkey-drive-0019","kind":"walk","km":0.23,"climbM":0,"name":"By Ta Ta Creek","flags":[]},"geometry":{"type":"LineString","coordinates":[[-115.81059,49.77711],[-115.80911,49.77891]]}},
{"type":"Feature","properties":{"spotId":"F-turkey-walk-0001","kind":"walk","km":0.31,"climbM":22,"name":"By Tamarack Creek","flags":["Route crosses private land (ParcelMap BC, updated 2026-09-26): get permission first or go around."]},"geometry":{"type":"LineString","coordinates":[[-115.78552,49.94147],[-115.78968,49.94064]]}},
{"type":"Feature","properties":{"spotId":"F-turkey-walk-0021","kind":"walk","km":0.4,"climbM":28,"name":"By Skookumchuck Creek","flags":["Route crosses private land (ParcelMap BC, updated 2026-09-26): get permission first or go around."]},"geometry":{"type":"LineString","coordinates":[[-115.81753,49.9],[-115.8229,49.89923]]}},
{"type":"Feature","properties":{"spotId":"F-turkey-walk-0078","kind":"walk","km":0.94,"climbM":2,"name":"260 m N of Pommier Creek","flags":[]},"geometry":{"type":"LineString","coordinates":[[-115.8223,49.8946],[-115.82245,49.89438],[-115.82251,49.89427],[-115.82256,49.89413],[-115.82255,49.89402],[-115.82259,49.89398],[-115.82247,49.89379],[-115.82238,49.89358],[-115.82232,49.8935],[-115.8222,49.89339],[-115.82194,49.89326],[-115.82168,49.89314],[-115.82143,49.89301],[-115.82118,49.89285],[-115.82115,49.89283],[-115.81565,49.88765]]}}
]}
