{"type":"FeatureCollection","features":[
{"type":"Feature","properties":{"spotId":"F-camp-camp-0013","kind":"walk","km":0.04,"climbM":0,"name":"By Deer Creek","flags":[]},"geometry":{"type":"LineString","coordinates":[[-115.99211,50.14591],[-115.99216,50.14558]]}},
{"type":"Feature","properties":{"spotId":"F-deer-atv-0038","kind":"ride","km":1.79,"climbM":6,"name":"1.1 km E of Kootenay River","flags":["Route crosses private land (ParcelMap BC, updated 2026-09-26): get permission first or go around."]},"geometry":{"type":"LineString","coordinates":[[-115.77347,50.05749],[-115.77343,50.0577],[-115.77336,50.05785],[-115.7733,50.05803],[-115.77323,50.05823],[-115.7732,50.05837],[-115.77318,50.05857],[-115.77319,50.05887],[-115.77316,50.05923],[-115.77315,50.05951],[-115.77308,50.05981],[-115.77298,50.06002],[-115.77287,50.0602],[-115.77276,50.06036],[-115.77258,50.06054],[-115.77241,50.06062],[-115.7723,50.06064],[-115.77211,50.06065],[-115.77186,50.06064],[-115.77171,50.06063],[-115.77138,50.0606],[-115.77123,50.0606],[-115.7708,50.06061],[-115.77058,50.06065],[-115.77033,50.06077],[-115.77014,50.06087],[-115.76994,50.06101],[-115.76984,50.06117],[-115.76969,50.06139],[-115.76957,50.06159],[-115.76935,50.06181],[-115.76921,50.06193],[-115.76914,50.06205],[-115.76901,50.06215],[-115.76787,50.06245],[-115.76763,50.06246],[-115.7675,50.06242],[-115.76739,50.06238],[-115.76729,50.06232],[-115.76703,50.06222],[-115.76673,50.06212],[-115.76628,50.06203],[-115.76614,50.06195],[-115.76603,50.06187],[-115.76601,50.06179],[-115.766,50.0617],[-115.76561,50.06125],[-115.76538,50.06078],[-115.76526,50.06069],[-115.7651,50.06071],[-115.76492,50.06081],[-115.76466,50.06089],[-115.76456,50.06091],[-115.76423,50.06095],[-115.76389,50.06093],[-115.76371,50.06089],[-115.76343,50.0608],[-115.76335,50.06078],[-115.76311,50.06076],[-115.76279,50.06074],[-115.76249,50.06076],[-115.76214,50.06079],[-115.76184,50.06084],[-115.76176,50.06083],[-115.76167,50.06081],[-115.7614,50.06071],[-115.76115,50.06056],[-115.76093,50.06042],[-115.76071,50.06028],[-115.76024,50.06],[-115.75998,50.05989],[-115.75967,50.05983],[-115.75941,50.05972],[-115.75931,50.05967],[-115.75911,50.05951],[-115.75889,50.05937],[-115.75878,50.05927],[-115.75867,50.05908],[-115.75862,50.05904],[-115.75845,50.05894],[-115.75837,50.05889],[-115.75825,50.05885],[-115.75812,50.05884],[-115.75798,50.05885],[-115.75788,50.0589],[-115.75787,50.0589],[-115.75756,50.05899],[-115.7575,50.05904],[-115.75744,50.05913],[-115.75744,50.05917],[-115.75743,50.05918],[-115.75742,50.05932],[-115.75741,50.05936]]}},
{"type":"Feature","properties":{"spotId":"F-deer-atv-0038","kind":"walk","km":0.24,"climbM":11,"name":"1.1 km E of Kootenay River","flags":["Route crosses private land (ParcelMap BC, updated 2026-09-26): get permission first or go around."]},"geometry":{"type":"LineString","coordinates":[[-115.77347,50.05749],[-115.77348,50.05531]]}},
{"type":"Feature","properties":{"spotId":"F-deer-atv-0068","kind":"ride","km":3.49,"climbM":144,"name":"530 m S of Findlay Creek","flags":[]},"geometry":{"type":"LineString","coordinates":[[-115.96806,50.13203],[-115.96802,50.13198],[-115.9679,50.13194],[-115.96777,50.13183],[-115.96715,50.13182],[-115.96701,50.13186],[-115.96673,50.13188],[-115.96639,50.13189],[-115.96613,50.1319],[-115.96553,50.13191],[-115.96492,50.13188],[-115.96444,50.13177],[-115.96395,50.13177],[-115.96354,50.13178],[-115.96339,50.1318],[-115.96315,50.13186],[-115.96301,50.13187],[-115.96236,50.13188],[-115.9606,50.13186],[-115.96007,50.13187],[-115.95958,50.13189],[-115.95931,50.13188],[-115.95883,50.13177],[-115.95858,50.13175],[-115.95815,50.13175],[-115.95804,50.13177],[-115.95794,50.1318],[-115.95787,50.13186],[-115.95776,50.13193],[-115.95763,50.13197],[-115.95746,50.132],[-115.95702,50.13198],[-115.95671,50.13193],[-115.9566,50.13192],[-115.95603,50.13192],[-115.95587,50.13194],[-115.95528,50.13223],[-115.95493,50.13231],[-115.9548,50.13237],[-115.9545,50.13252],[-115.95406,50.13265],[-115.95384,50.13274],[-115.95373,50.13279],[-115.95355,50.1329],[-115.95323,50.13303],[-115.95312,50.1331],[-115.95296,50.13316],[-115.95278,50.13319],[-115.95257,50.1332],[-115.95244,50.13323],[-115.95227,50.13327],[-115.95209,50.13336],[-115.95206,50.13338],[-115.95189,50.13348],[-115.95185,50.13352],[-115.95163,50.13368],[-115.95141,50.13383],[-115.95132,50.13386],[-115.95113,50.13393],[-115.951,50.13397],[-115.95091,50.13403],[-115.95086,50.13408],[-115.9508,50.13411],[-115.95076,50.13415],[-115.95073,50.13416],[-115.9506,50.13426],[-115.9504,50.13444],[-115.95023,50.13462],[-115.95014,50.13469],[-115.95007,50.13476],[-115.94987,50.13487],[-115.94979,50.13489],[-115.94961,50.13496],[-115.9493,50.13506],[-115.94915,50.13514],[-115.94893,50.13529],[-115.9487,50.13542],[-115.9484,50.13554],[-115.94811,50.13563],[-115.94783,50.1357],[-115.94756,50.13579],[-115.94729,50.1359],[-115.94702,50.13601],[-115.94689,50.13605],[-115.94668,50.1361],[-115.94649,50.13613],[-115.94616,50.13617],[-115.94612,50.13616],[-115.94598,50.13615],[-115.94586,50.13613],[-115.94577,50.13609],[-115.94565,50.13602],[-115.94543,50.13585],[-115.94525,50.13569],[-115.94511,50.13561],[-115.945,50.13556],[-115.94492,50.13556],[-115.94488,50.13558],[-115.94483,50.13566],[-115.9448,50.13577],[-115.94474,50.13596],[-115.94463,50.13617],[-115.9445,50.13637],[-115.94444,50.13641],[-115.94431,50.1365],[-115.94407,50.13663],[-115.94379,50.13674],[-115.9437,50.13676],[-115.94366,50.13677],[-115.94358,50.1368],[-115.94332,50.13691],[-115.94307,50.13701],[-115.94277,50.13709],[-115.94256,50.13713],[-115.94241,50.13714],[-115.9422,50.13713],[-115.94211,50.13713],[-115.94178,50.13711],[-115.94146,50.13713],[-115.9413,50.13716],[-115.94046,50.13734],[-115.94013,50.13742],[-115.93984,50.13751],[-115.93951,50.1376],[-115.93923,50.13769],[-115.93895,50.13779],[-115.93871,50.13791],[-115.93862,50.13796],[-115.9384,50.13809],[-115.93833,50.13814],[-115.93806,50.13825],[-115.93778,50.13836],[-115.93749,50.13849],[-115.93722,50.13861],[-115.93698,50.13872],[-115.93674,50.13883],[-115.93649,50.13894],[-115.93622,50.13905],[-115.93597,50.13914],[-115.93567,50.13924],[-115.93539,50.13934],[-115.93512,50.13944],[-115.93485,50.13955],[-115.9346,50.13968],[-115.93433,50.13982],[-115.93407,50.13995],[-115.93381,50.14005],[-115.93354,50.14014],[-115.93321,50.14024],[-115.93292,50.14032],[-115.93264,50.14039],[-115.93234,50.14048],[-115.93219,50.14057],[-115.93197,50.14071],[-115.93175,50.14085],[-115.93146,50.14099],[-115.93127,50.14102],[-115.93092,50.14103],[-115.93061,50.14102],[-115.93026,50.14103],[-115.92995,50.14106],[-115.92967,50.14111],[-115.92954,50.14116],[-115.92933,50.14122],[-115.92926,50.14125],[-115.92894,50.14132],[-115.92874,50.14136],[-115.9287,50.14137],[-115.92854,50.14141],[-115.92826,50.14146],[-115.92801,50.14152],[-115.92773,50.14158],[-115.92752,50.14163],[-115.92725,50.14172],[-115.92698,50.14182],[-115.92667,50.1419],[-115.92636,50.14193],[-115.92602,50.14195],[-115.92569,50.14197]]}},
{"type":"Feature","properties":{"spotId":"F-deer-atv-0068","kind":"walk","km":0.18,"climbM":31,"name":"530 m S of Findlay Creek","flags":[]},"geometry":{"type":"LineString","coordinates":[[-115.92569,50.14197],[-115.92548,50.14037]]}},
{"type":"Feature","properties":{"spotId":"F-deer-atv-0069","kind":"ride","km":1.39,"climbM":1,"name":"120 m NE of Findlay Creek","flags":[]},"geometry":{"type":"LineString","coordinates":[[-115.98656,50.13173],[-115.98642,50.13154],[-115.98627,50.13134],[-115.98614,50.13117],[-115.986,50.13098],[-115.98589,50.1308],[-115.98577,50.13059],[-115.98571,50.1304],[-115.98566,50.12997],[-115.98565,50.12978],[-115.98563,50.12938],[-115.98562,50.12917],[-115.98562,50.12897],[-115.98561,50.12876],[-115.98562,50.12839],[-115.98565,50.12831],[-115.98577,50.12819],[-115.98598,50.12804],[-115.98619,50.1279],[-115.98631,50.12783],[-115.98652,50.12767],[-115.98669,50.12757],[-115.98683,50.12752],[-115.98697,50.12749],[-115.98729,50.12748],[-115.98745,50.12748],[-115.98776,50.12744],[-115.98805,50.12738],[-115.98839,50.12733],[-115.98868,50.12726],[-115.98889,50.1272],[-115.98906,50.12712],[-115.98928,50.12697],[-115.98941,50.12679],[-115.98942,50.12677],[-115.98952,50.12658],[-115.98955,50.12636],[-115.98955,50.12615],[-115.98958,50.12572],[-115.98957,50.12552],[-115.98955,50.12531],[-115.98958,50.12524],[-115.98954,50.12512],[-115.98953,50.12507],[-115.98956,50.12486],[-115.98959,50.12463],[-115.98964,50.12443],[-115.98968,50.12421],[-115.9897,50.12412],[-115.9898,50.12392],[-115.98982,50.12381],[-115.98981,50.12375],[-115.9897,50.12355],[-115.98959,50.12334],[-115.98959,50.12321],[-115.98965,50.12302],[-115.98973,50.12281],[-115.98984,50.12261],[-115.98996,50.12249],[-115.99004,50.12244],[-115.99004,50.12236],[-115.99,50.12228],[-115.98985,50.1221],[-115.98975,50.1219],[-115.98972,50.12185],[-115.98973,50.12181],[-115.98981,50.12178],[-115.99007,50.12171],[-115.99024,50.1216],[-115.99029,50.12156],[-115.99034,50.12147],[-115.99038,50.12127],[-115.99036,50.12119]]}},
{"type":"Feature","properties":{"spotId":"F-deer-atv-0069","kind":"walk","km":0.11,"climbM":1,"name":"120 m NE of Findlay Creek","flags":[]},"geometry":{"type":"LineString","coordinates":[[-115.99036,50.12119],[-115.99195,50.12104]]}},
{"type":"Feature","properties":{"spotId":"F-deer-drive-0058","kind":"walk","km":0.07,"climbM":4,"name":"630 m N of Mud Creek","flags":[]},"geometry":{"type":"LineString","coordinates":[[-115.76375,50.13363],[-115.76453,50.13402]]}},
{"type":"Feature","properties":{"spotId":"F-deer-drive-0117","kind":"walk","km":0.03,"climbM":6,"name":"470 m E of Copper Lake","flags":[]},"geometry":{"type":"LineString","coordinates":[[-115.8925,50.03308],[-115.8927,50.03328]]}},
{"type":"Feature","properties":{"spotId":"F-deer-drive-0127","kind":"walk","km":0.16,"climbM":0,"name":"By Sandown Creek","flags":[]},"geometry":{"type":"LineString","coordinates":[[-115.88893,50.01556],[-115.89123,50.01551]]}},
{"type":"Feature","properties":{"spotId":"F-deer-walk-0016","kind":"walk","km":0.91,"climbM":170,"name":"1.3 km SW of Lavington Creek","flags":[]},"geometry":{"type":"LineString","coordinates":[[-115.98594,50.0755],[-115.98802,50.0674]]}},
{"type":"Feature","properties":{"spotId":"F-deer-walk-0030","kind":"walk","km":2.66,"climbM":248,"name":"1.5 km SW of Lavington Creek","flags":[]},"geometry":{"type":"LineString","coordinates":[[-115.93621,50.0465],[-115.97301,50.04964]]}},
{"type":"Feature","properties":{"spotId":"F-deer-walk-0042","kind":"walk","km":0.48,"climbM":5,"name":"1.0 km N of Findlay Creek","flags":[]},"geometry":{"type":"LineString","coordinates":[[-115.92488,50.15452],[-115.91907,50.15671]]}},
{"type":"Feature","properties":{"spotId":"F-duck-drive-0051","kind":"walk","km":0.3,"climbM":0,"name":"Unnamed wetland 440 m SW of Kootenay River","flags":[]},"geometry":{"type":"LineString","coordinates":[[-115.80014,50.05117],[-115.79625,50.05218]]}},
{"type":"Feature","properties":{"spotId":"F-duck-drive-0064","kind":"walk","km":0.15,"climbM":1,"name":"Unnamed wetland 450 m SW of Findlay Creek","flags":[]},"geometry":{"type":"LineString","coordinates":[[-115.82206,50.09919],[-115.8214,50.09793]]}},
{"type":"Feature","properties":{"spotId":"F-duck-drive-0091","kind":"walk","km":0.1,"climbM":0,"name":"Copper Lake","flags":[]},"geometry":{"type":"LineString","coordinates":[[-115.90232,50.03411],[-115.90113,50.03454]]}},
{"type":"Feature","properties":{"spotId":"F-duck-drive-0106","kind":"walk","km":0.04,"climbM":0,"name":"Unnamed lake by Sandown Creek","flags":[]},"geometry":{"type":"LineString","coordinates":[[-115.92606,50.04359],[-115.92647,50.04329]]}},
{"type":"Feature","properties":{"spotId":"F-duck-walk-0006","kind":"walk","km":0.67,"climbM":2,"name":"Unnamed wetland 380 m NE of Kootenay River","flags":[]},"geometry":{"type":"LineString","coordinates":[[-115.79236,50.12884],[-115.79257,50.12876],[-115.79272,50.12866],[-115.79279,50.12859],[-115.79285,50.12851],[-115.79295,50.12832],[-115.79304,50.12814],[-115.79331,50.1279],[-115.7934,50.1278],[-115.79353,50.12761],[-115.79369,50.12743],[-115.79389,50.12729],[-115.79395,50.12721],[-115.79405,50.12702],[-115.79422,50.12683],[-115.7917,50.12361]]}},
{"type":"Feature","properties":{"spotId":"F-duck-walk-0056","kind":"walk","km":0.93,"climbM":0,"name":"Unnamed wetland 570 m E of Kootenay River","flags":["Route crosses private land (ParcelMap BC, updated 2026-09-26): get permission first or go around."]},"geometry":{"type":"LineString","coordinates":[[-115.77179,50.02776],[-115.78475,50.02841]]}},
{"type":"Feature","properties":{"spotId":"F-duck-walk-0063","kind":"walk","km":0.91,"climbM":27,"name":"Unnamed wetland 150 m SE of Mud Creek","flags":["Route crosses private land (ParcelMap BC, updated 2026-09-26): get permission first or go around."]},"geometry":{"type":"LineString","coordinates":[[-115.76914,50.115],[-115.77997,50.11065]]}},
{"type":"Feature","properties":{"spotId":"F-duck-walk-0091","kind":"walk","km":0.47,"climbM":1,"name":"Unnamed lake 930 m NW of Sandown Creek","flags":[]},"geometry":{"type":"LineString","coordinates":[[-115.93621,50.0465],[-115.94266,50.04749]]}},
{"type":"Feature","properties":{"spotId":"F-elk-drive-0030","kind":"walk","km":0.02,"climbM":5,"name":"370 m E of Sandown Creek","flags":[]},"geometry":{"type":"LineString","coordinates":[[-115.87167,50.00477],[-115.87173,50.00499]]}},
{"type":"Feature","properties":{"spotId":"F-grouse-atv-0001","kind":"ride","km":3.51,"climbM":55,"name":"470 m E of Copper Lake","flags":[]},"geometry":{"type":"LineString","coordinates":[[-115.89282,50.03292],[-115.89285,50.03291],[-115.89291,50.03288],[-115.89297,50.03287],[-115.89304,50.03285],[-115.89309,50.03283],[-115.89315,50.03281],[-115.89319,50.03279],[-115.89325,50.03277],[-115.89327,50.03275],[-115.89332,50.03273],[-115.89337,50.03272],[-115.89343,50.03269],[-115.89353,50.03263],[-115.89357,50.03261],[-115.8936,50.03259],[-115.89363,50.03257],[-115.8937,50.03252],[-115.89374,50.03248],[-115.8938,50.03243],[-115.89386,50.03238],[-115.89394,50.03231],[-115.89398,50.03228],[-115.89403,50.03223],[-115.89407,50.03218],[-115.89411,50.03212],[-115.89417,50.03207],[-115.8942,50.03203],[-115.89421,50.032],[-115.89424,50.03197],[-115.89427,50.03193],[-115.89429,50.03191],[-115.89433,50.03187],[-115.89437,50.03183],[-115.89443,50.03178],[-115.89447,50.03175],[-115.89454,50.0317],[-115.89458,50.03169],[-115.89461,50.03168],[-115.8947,50.03166],[-115.89475,50.03164],[-115.89481,50.03164],[-115.89486,50.03163],[-115.89492,50.03163],[-115.89496,50.03163],[-115.89502,50.03163],[-115.89507,50.03162],[-115.89513,50.03162],[-115.89517,50.03161],[-115.89523,50.03161],[-115.89527,50.0316],[-115.89561,50.03161],[-115.89566,50.03161],[-115.89574,50.03162],[-115.89579,50.03163],[-115.89584,50.03163],[-115.89591,50.03164],[-115.89597,50.03165],[-115.89602,50.03165],[-115.89609,50.03166],[-115.89615,50.03166],[-115.8962,50.03164],[-115.89626,50.03161],[-115.8963,50.03158],[-115.89633,50.03157],[-115.89638,50.03151],[-115.89639,50.0315],[-115.8964,50.03147],[-115.89642,50.03145],[-115.89643,50.03142],[-115.89645,50.03141],[-115.89646,50.03138],[-115.89652,50.03133],[-115.89655,50.03131],[-115.89663,50.03127],[-115.89669,50.03126],[-115.89673,50.03125],[-115.89679,50.03123],[-115.89686,50.03119],[-115.89687,50.03117],[-115.89689,50.03114],[-115.89689,50.03112],[-115.89687,50.0311],[-115.89687,50.03103],[-115.89689,50.03101],[-115.8969,50.03098],[-115.89695,50.03093],[-115.89696,50.0309],[-115.89698,50.03087],[-115.897,50.03085],[-115.89703,50.03083],[-115.89706,50.0308],[-115.8971,50.03077],[-115.89713,50.03075],[-115.89718,50.03073],[-115.89726,50.03071],[-115.8973,50.03072],[-115.89733,50.03072],[-115.89737,50.03073],[-115.8974,50.03074],[-115.89743,50.03074],[-115.89745,50.03075],[-115.8975,50.03076],[-115.89754,50.03078],[-115.89759,50.03081],[-115.89769,50.03087],[-115.89774,50.03092],[-115.89778,50.03095],[-115.89781,50.031],[-115.89785,50.03103],[-115.89787,50.03107],[-115.8979,50.0312],[-115.89792,50.03123],[-115.89792,50.03126],[-115.89793,50.03129],[-115.89793,50.03131],[-115.89796,50.03137],[-115.89796,50.03142],[-115.89797,50.03147],[-115.89797,50.03151],[-115.89798,50.03156],[-115.89798,50.03165],[-115.898,50.03177],[-115.898,50.03208],[-115.89801,50.03217],[-115.89801,50.03226],[-115.89803,50.03234],[-115.89804,50.0324],[-115.89807,50.03247],[-115.89808,50.03253],[-115.8981,50.03256],[-115.89812,50.03265],[-115.89814,50.03271],[-115.89816,50.03276],[-115.89817,50.03283],[-115.8982,50.03288],[-115.89821,50.03293],[-115.89824,50.03299],[-115.89827,50.03303],[-115.89828,50.0331],[-115.89836,50.03324],[-115.8984,50.03332],[-115.89843,50.03339],[-115.89844,50.03344],[-115.89847,50.03349],[-115.89852,50.03362],[-115.89853,50.03365],[-115.89857,50.0337],[-115.89861,50.03377],[-115.89865,50.03382],[-115.89874,50.03393],[-115.89876,50.03397],[-115.8988,50.03403],[-115.89884,50.03409],[-115.89888,50.03415],[-115.89891,50.0342],[-115.89894,50.03424],[-115.89897,50.03426],[-115.89898,50.03429],[-115.89901,50.03434],[-115.89906,50.03444],[-115.89908,50.03454],[-115.89914,50.03469],[-115.89915,50.03475],[-115.89918,50.03481],[-115.8992,50.03487],[-115.89923,50.03493],[-115.89927,50.03499],[-115.8993,50.03504],[-115.89931,50.03506],[-115.89932,50.03509],[-115.89935,50.03511],[-115.89936,50.03515],[-115.89939,50.03519],[-115.89942,50.03523],[-115.89946,50.03528],[-115.89951,50.03537],[-115.89955,50.03544],[-115.89963,50.03557],[-115.89967,50.03562],[-115.89971,50.0357],[-115.89977,50.03578],[-115.89981,50.03586],[-115.89986,50.03595],[-115.8999,50.03602],[-115.89993,50.03605],[-115.89994,50.0361],[-115.89997,50.03614],[-115.9,50.0362],[-115.90002,50.03626],[-115.90005,50.03632],[-115.90006,50.03636],[-115.90009,50.0364],[-115.90012,50.03648],[-115.90011,50.03661],[-115.9001,50.03668],[-115.90007,50.03676],[-115.90005,50.03683],[-115.90004,50.03686],[-115.90004,50.03688],[-115.90006,50.03694],[-115.90009,50.03697],[-115.90015,50.037],[-115.90021,50.03704],[-115.90024,50.03705],[-115.90028,50.03707],[-115.90033,50.03708],[-115.90038,50.03709],[-115.90042,50.03711],[-115.90046,50.03712],[-115.90052,50.03713],[-115.90056,50.03714],[-115.9006,50.03716],[-115.90064,50.03717],[-115.90067,50.03719],[-115.90071,50.03723],[-115.90077,50.0373],[-115.90081,50.03737],[-115.90082,50.03742],[-115.90085,50.03747],[-115.90085,50.03753],[-115.9009,50.03774],[-115.90096,50.03788],[-115.901,50.03795],[-115.90106,50.03803],[-115.90119,50.03817],[-115.90123,50.03822],[-115.90129,50.03828],[-115.90133,50.03832],[-115.90136,50.03837],[-115.90138,50.03841],[-115.90144,50.03846],[-115.90148,50.03849],[-115.90152,50.03852],[-115.90158,50.03855],[-115.90162,50.03858],[-115.90165,50.03859],[-115.9017,50.03862],[-115.90173,50.03863],[-115.90177,50.03865],[-115.9018,50.03867],[-115.90182,50.03868],[-115.90188,50.0387],[-115.90191,50.03872],[-115.90195,50.03873],[-115.90209,50.03878],[-115.90217,50.03881],[-115.90236,50.03888],[-115.90243,50.03891],[-115.90249,50.03894],[-115.90254,50.03896],[-115.90261,50.03899],[-115.90267,50.03903],[-115.90274,50.03907],[-115.90281,50.03911],[-115.90285,50.03915],[-115.90292,50.03919],[-115.903,50.03927],[-115.90305,50.0393],[-115.90316,50.03939],[-115.90322,50.03943],[-115.90326,50.03947],[-115.9033,50.03949],[-115.90348,50.03961],[-115.90353,50.03966],[-115.90363,50.03972],[-115.90367,50.03976],[-115.90381,50.03983],[-115.90389,50.03988],[-115.90399,50.03993],[-115.9041,50.03999],[-115.90429,50.04008],[-115.90449,50.04015],[-115.90457,50.04017],[-115.90474,50.04023],[-115.90481,50.04025],[-115.90486,50.04026],[-115.90492,50.04027],[-115.90494,50.04028],[-115.90497,50.04029],[-115.90504,50.04031],[-115.90512,50.04034],[-115.90522,50.04036],[-115.90532,50.04039],[-115.90542,50.0404],[-115.90558,50.04044],[-115.90568,50.04046],[-115.90587,50.04052],[-115.90599,50.04055],[-115.90607,50.04057],[-115.90614,50.04058],[-115.90625,50.0406],[-115.90631,50.04062],[-115.90637,50.04064],[-115.90651,50.04069],[-115.90657,50.04073],[-115.90661,50.04077],[-115.90664,50.04078],[-115.90666,50.0408],[-115.90673,50.04083],[-115.90679,50.04085],[-115.90684,50.04086],[-115.9069,50.04088],[-115.90696,50.04089],[-115.907,50.04091],[-115.90704,50.04091],[-115.90715,50.04095],[-115.90722,50.04097],[-115.90732,50.04098],[-115.90743,50.04099],[-115.90753,50.041],[-115.90771,50.041],[-115.90782,50.04099],[-115.9079,50.04099],[-115.908,50.041],[-115.90808,50.04101],[-115.90815,50.04102],[-115.90822,50.04103],[-115.90832,50.0411],[-115.9084,50.04113],[-115.90847,50.04115],[-115.90857,50.04118],[-115.90865,50.04119],[-115.90878,50.04119],[-115.90883,50.04118],[-115.9089,50.04118],[-115.90904,50.0412],[-115.90913,50.04121],[-115.9092,50.04123],[-115.90924,50.04124],[-115.90932,50.04125],[-115.90943,50.04126],[-115.90956,50.04127],[-115.9097,50.04129],[-115.90985,50.04131],[-115.90995,50.04133],[-115.91009,50.04135],[-115.91016,50.04137],[-115.91024,50.04139],[-115.91031,50.0414],[-115.91037,50.0414],[-115.91044,50.04142],[-115.91049,50.04143],[-115.91053,50.04144],[-115.91067,50.04148],[-115.91077,50.04151],[-115.91085,50.04154],[-115.91105,50.04161],[-115.91118,50.04166],[-115.91124,50.04169],[-115.91131,50.04173],[-115.91136,50.04176],[-115.91142,50.04179],[-115.91146,50.04183],[-115.9115,50.04186],[-115.91153,50.04188],[-115.91154,50.0419],[-115.9116,50.04194],[-115.91162,50.04197],[-115.91167,50.04199],[-115.91173,50.04203],[-115.91179,50.04205],[-115.91184,50.04208],[-115.91189,50.04209],[-115.91194,50.04211],[-115.91198,50.04213],[-115.91201,50.04214],[-115.91209,50.04216],[-115.91215,50.04217],[-115.91229,50.04219],[-115.9124,50.04222],[-115.91244,50.04224],[-115.91248,50.04227],[-115.91252,50.04228],[-115.91257,50.0423],[-115.91266,50.04233],[-115.91276,50.04234],[-115.91287,50.04236],[-115.91301,50.04239],[-115.91315,50.04243],[-115.91321,50.04245],[-115.91326,50.04246],[-115.9133,50.04248],[-115.91334,50.04249],[-115.9134,50.0425],[-115.91352,50.04252],[-115.91362,50.04254],[-115.91368,50.04255],[-115.91383,50.04256],[-115.91398,50.04258],[-115.91411,50.04259],[-115.91422,50.04261],[-115.91435,50.04262],[-115.91447,50.04265],[-115.91462,50.04267],[-115.91479,50.0427],[-115.91492,50.04272],[-115.91503,50.04273],[-115.91522,50.04276],[-115.91531,50.04279],[-115.91542,50.04282],[-115.91554,50.04287],[-115.91564,50.0429],[-115.91575,50.04294],[-115.91583,50.04298],[-115.9159,50.04301],[-115.91599,50.04304],[-115.91607,50.04308],[-115.91621,50.04312],[-115.9163,50.04315],[-115.9164,50.04319],[-115.91648,50.04322],[-115.91655,50.04323],[-115.91664,50.04325],[-115.91671,50.04326],[-115.91682,50.04332],[-115.91689,50.04334],[-115.91702,50.04339],[-115.91727,50.04348],[-115.91737,50.04349],[-115.91748,50.04351],[-115.91764,50.04353],[-115.91793,50.04354],[-115.91806,50.04353],[-115.91831,50.04353],[-115.91842,50.04354],[-115.91879,50.0436],[-115.91893,50.04363],[-115.91906,50.04366],[-115.91918,50.04369],[-115.91931,50.04374],[-115.91946,50.04379],[-115.9196,50.04384],[-115.91972,50.04388],[-115.91983,50.04392],[-115.91993,50.04397],[-115.92004,50.044],[-115.92014,50.04402],[-115.92025,50.04405],[-115.92036,50.04407],[-115.92058,50.04413],[-115.92071,50.04415],[-115.92082,50.04418],[-115.92093,50.04422],[-115.92106,50.04426],[-115.92142,50.04438],[-115.9215,50.04441],[-115.92158,50.04444],[-115.92166,50.04448],[-115.92196,50.04456],[-115.92207,50.0446],[-115.92216,50.04464],[-115.92227,50.04468],[-115.92237,50.04473],[-115.92247,50.04476],[-115.92259,50.04481],[-115.92273,50.04485],[-115.92282,50.04486],[-115.92284,50.04487],[-115.92294,50.04488],[-115.92311,50.04488],[-115.92319,50.04487],[-115.92332,50.04488],[-115.92344,50.0449],[-115.92358,50.04492],[-115.92372,50.04495],[-115.92386,50.04497],[-115.92396,50.04498],[-115.92415,50.04498],[-115.92425,50.04497],[-115.92436,50.04496],[-115.92449,50.04495],[-115.9246,50.04492],[-115.92469,50.04489],[-115.92479,50.04485],[-115.92512,50.04471],[-115.92522,50.04467],[-115.92531,50.04464],[-115.92538,50.04461],[-115.92543,50.04459],[-115.92557,50.04453],[-115.92566,50.04451],[-115.9258,50.04445],[-115.92593,50.04442],[-115.92604,50.04439],[-115.92615,50.04436],[-115.92626,50.04433],[-115.92639,50.0443],[-115.92652,50.04425],[-115.92664,50.04422],[-115.92677,50.04419],[-115.92688,50.04418],[-115.92698,50.04417],[-115.92706,50.04416],[-115.92727,50.04416],[-115.9274,50.04415],[-115.92775,50.04417]]}},
{"type":"Feature","properties":{"spotId":"F-grouse-drive-0035","kind":"roadside","km":4.4,"climbM":102,"name":"By Findlay Creek","flags":[]},"geometry":{"type":"LineString","coordinates":[[-115.87505,50.13659],[-115.87504,50.13655],[-115.87499,50.13651],[-115.87496,50.13649],[-115.8749,50.13644],[-115.87486,50.1364],[-115.87478,50.13635],[-115.87459,50.13626],[-115.87449,50.13619],[-115.87438,50.13613],[-115.87428,50.13607],[-115.87421,50.136],[-115.87416,50.13595],[-115.87412,50.13589],[-115.87411,50.13582],[-115.87407,50.13581],[-115.87377,50.13573],[-115.87347,50.13566],[-115.87316,50.13561],[-115.87283,50.13554],[-115.87253,50.13547],[-115.87224,50.1354],[-115.87198,50.13531],[-115.87169,50.13522],[-115.87141,50.13514],[-115.87114,50.13503],[-115.87092,50.13488],[-115.87046,50.13459],[-115.87026,50.13444],[-115.87014,50.13434],[-115.87006,50.13427],[-115.86987,50.13411],[-115.86974,50.13402],[-115.86949,50.13388],[-115.86926,50.13374],[-115.86904,50.1336],[-115.86879,50.13347],[-115.86851,50.13336],[-115.86822,50.13325],[-115.86796,50.13314],[-115.86774,50.13304],[-115.86768,50.13303],[-115.8674,50.13291],[-115.86713,50.13279],[-115.86683,50.13271],[-115.86654,50.13261],[-115.86628,50.1325],[-115.86614,50.13243],[-115.86603,50.13238],[-115.86574,50.13227],[-115.86545,50.13217],[-115.86517,50.13207],[-115.86488,50.13197],[-115.8646,50.13186],[-115.86434,50.13176],[-115.86419,50.13169],[-115.86401,50.13157],[-115.86394,50.1315],[-115.8638,50.13132],[-115.8637,50.13111],[-115.8636,50.1309],[-115.86355,50.13068],[-115.8635,50.13048],[-115.86348,50.13031],[-115.86346,50.13026],[-115.86344,50.13018],[-115.8634,50.12999],[-115.86339,50.12977],[-115.86337,50.12955],[-115.86333,50.12933],[-115.86331,50.12911],[-115.8633,50.12889],[-115.86326,50.12868],[-115.86318,50.12847],[-115.86317,50.12845],[-115.86306,50.12826],[-115.86297,50.12812],[-115.86294,50.12809],[-115.86249,50.12754],[-115.86229,50.12736],[-115.86193,50.12701],[-115.86175,50.12685],[-115.86156,50.12669],[-115.86142,50.12659],[-115.86137,50.12653],[-115.86122,50.12643],[-115.86111,50.12639],[-115.86082,50.12627],[-115.8607,50.12624],[-115.86054,50.12618],[-115.86026,50.1261],[-115.85995,50.12601],[-115.85966,50.12594],[-115.85908,50.12581],[-115.8588,50.12575],[-115.85847,50.12568],[-115.85816,50.1256],[-115.85773,50.1255],[-115.85759,50.12547],[-115.85734,50.12542],[-115.8572,50.12539],[-115.85692,50.12528],[-115.85673,50.12521],[-115.85666,50.12518],[-115.85637,50.12509],[-115.85609,50.12499],[-115.85583,50.12488],[-115.85554,50.12478],[-115.85524,50.12468],[-115.85498,50.12459],[-115.85472,50.12446],[-115.85459,50.12441],[-115.85445,50.12434],[-115.85418,50.12422],[-115.85391,50.12409],[-115.85365,50.12397],[-115.8534,50.12385],[-115.85314,50.12374],[-115.85288,50.12362],[-115.85278,50.12356],[-115.85252,50.12346],[-115.85224,50.12335],[-115.85198,50.12322],[-115.85176,50.12307],[-115.85151,50.12294],[-115.85129,50.12279],[-115.8511,50.12262],[-115.85093,50.12245],[-115.85088,50.12241],[-115.85075,50.12229],[-115.85056,50.12211],[-115.85044,50.122],[-115.85038,50.12195],[-115.85021,50.12179],[-115.8501,50.12168],[-115.85002,50.1216],[-115.84991,50.1215],[-115.84978,50.12142],[-115.84969,50.12134],[-115.84959,50.12124],[-115.84954,50.12117],[-115.8495,50.12111],[-115.84947,50.12105],[-115.84942,50.12094],[-115.84936,50.12086],[-115.84929,50.12079],[-115.84921,50.12071],[-115.84913,50.12064],[-115.84905,50.12057],[-115.84894,50.12049],[-115.84884,50.12041],[-115.84875,50.12032],[-115.84865,50.12024],[-115.84853,50.12014],[-115.84846,50.12008],[-115.8484,50.12003],[-115.84829,50.11994],[-115.84825,50.1199],[-115.84818,50.11986],[-115.848,50.11974],[-115.84795,50.11969],[-115.84791,50.11965],[-115.84785,50.11955],[-115.84783,50.1195],[-115.84781,50.11946],[-115.84785,50.11933],[-115.84786,50.11925],[-115.84788,50.11918],[-115.84788,50.11911],[-115.84787,50.11904],[-115.84787,50.11898],[-115.84786,50.11891],[-115.84786,50.11875],[-115.84789,50.11866],[-115.84791,50.11857],[-115.84792,50.11849],[-115.84795,50.11844],[-115.84797,50.11838],[-115.848,50.1183],[-115.84804,50.1182],[-115.84806,50.11817],[-115.84807,50.11811],[-115.84811,50.11802],[-115.84817,50.11788],[-115.84822,50.11781],[-115.84825,50.11774],[-115.84828,50.11766],[-115.84831,50.11759],[-115.84832,50.11756],[-115.84832,50.11753],[-115.84834,50.1175],[-115.84834,50.11748],[-115.84835,50.11746],[-115.84835,50.11741],[-115.84837,50.11737],[-115.84837,50.11727],[-115.84836,50.1172],[-115.84836,50.11714],[-115.84835,50.11709],[-115.84832,50.11694],[-115.84832,50.11688],[-115.84831,50.11682],[-115.84831,50.1168],[-115.84831,50.11673],[-115.8483,50.11668],[-115.84829,50.11664],[-115.84826,50.11653],[-115.84825,50.11649],[-115.84822,50.11646],[-115.84821,50.11643],[-115.84818,50.11639],[-115.84817,50.11636],[-115.84813,50.11632],[-115.84805,50.11623],[-115.848,50.11619],[-115.84798,50.11617],[-115.84792,50.11612],[-115.84785,50.11606],[-115.84777,50.11597],[-115.84768,50.1159],[-115.84761,50.11582],[-115.84757,50.11578],[-115.84751,50.11571],[-115.84747,50.11568],[-115.84744,50.11566],[-115.8474,50.11562],[-115.84735,50.11557],[-115.84731,50.11554],[-115.84728,50.11549],[-115.84725,50.11547],[-115.84723,50.1154],[-115.84716,50.11534],[-115.84709,50.11529],[-115.84699,50.11525],[-115.84688,50.11521],[-115.84681,50.1152],[-115.84671,50.11519],[-115.84663,50.11519],[-115.84656,50.11518],[-115.84649,50.11516],[-115.84642,50.11513],[-115.84637,50.1151],[-115.84633,50.11505],[-115.8463,50.11501],[-115.84627,50.11498],[-115.84626,50.11495],[-115.84625,50.11491],[-115.84625,50.1148],[-115.84624,50.11474],[-115.84622,50.11465],[-115.8461,50.11444],[-115.84605,50.11437],[-115.84601,50.11431],[-115.84598,50.11427],[-115.84594,50.11424],[-115.84586,50.11417],[-115.84577,50.11411],[-115.84566,50.11406],[-115.84555,50.11403],[-115.84546,50.11397],[-115.84536,50.1139],[-115.84531,50.11383],[-115.84528,50.11375],[-115.8453,50.1137],[-115.84532,50.11366],[-115.84535,50.1136],[-115.84538,50.11356],[-115.84538,50.1135],[-115.84536,50.11341],[-115.84533,50.11337],[-115.8453,50.11333],[-115.84523,50.1133],[-115.84517,50.11329],[-115.84508,50.11329],[-115.845,50.11329],[-115.8449,50.1133],[-115.8448,50.11329],[-115.84472,50.11328],[-115.84465,50.11325],[-115.84458,50.11322],[-115.84451,50.11317],[-115.84448,50.11314],[-115.84444,50.1131],[-115.84442,50.11307],[-115.8444,50.11304],[-115.84439,50.11303],[-115.84438,50.11298],[-115.84436,50.11293],[-115.84436,50.11284],[-115.84437,50.11282],[-115.84435,50.11277],[-115.84434,50.1127],[-115.84433,50.11265],[-115.8443,50.1126],[-115.84426,50.11256],[-115.84423,50.11254],[-115.8442,50.11252],[-115.84416,50.11248],[-115.84409,50.11245],[-115.84398,50.11239],[-115.84386,50.11231],[-115.84382,50.11229],[-115.84375,50.11226],[-115.84368,50.11223],[-115.84361,50.11221],[-115.84353,50.11218],[-115.84346,50.11217],[-115.84339,50.11214],[-115.84335,50.11213],[-115.84331,50.1121],[-115.84329,50.11207],[-115.84329,50.11205],[-115.84332,50.11192],[-115.84333,50.11183],[-115.8433,50.1118],[-115.84327,50.11178],[-115.84324,50.11178],[-115.84322,50.11177],[-115.84315,50.11177],[-115.843,50.11181],[-115.84292,50.11184],[-115.84289,50.11186],[-115.84269,50.11191],[-115.84258,50.11193],[-115.84247,50.11195],[-115.84227,50.11194],[-115.84209,50.11191],[-115.84193,50.11185],[-115.84175,50.11177],[-115.84154,50.11169],[-115.8414,50.11164],[-115.84115,50.11156],[-115.8409,50.11153],[-115.84042,50.11152],[-115.84027,50.1115],[-115.84015,50.11147],[-115.84009,50.11145],[-115.84004,50.11141],[-115.83999,50.11136],[-115.83993,50.11131],[-115.83972,50.11117],[-115.83959,50.11112],[-115.83948,50.11107],[-115.83937,50.11103],[-115.83928,50.11097],[-115.83917,50.11089],[-115.83909,50.11079],[-115.83888,50.11049],[-115.8388,50.11038],[-115.83872,50.11028],[-115.83862,50.11017],[-115.83853,50.11005],[-115.83841,50.10992],[-115.8383,50.10981],[-115.83822,50.10973]]}},
{"type":"Feature","properties":{"spotId":"F-grouse-drive-0048","kind":"roadside","km":4.61,"climbM":158,"name":"270 m S of Copper Creek","flags":[]},"geometry":{"type":"LineString","coordinates":[[-115.83521,50.03409],[-115.83513,50.03401],[-115.8351,50.03396],[-115.83507,50.03394],[-115.83499,50.03386],[-115.83491,50.03381],[-115.83486,50.03378],[-115.83477,50.03373],[-115.83472,50.03371],[-115.83469,50.03368],[-115.83465,50.03367],[-115.83459,50.03365],[-115.83454,50.03362],[-115.83447,50.03359],[-115.83436,50.03352],[-115.83435,50.0335],[-115.83433,50.03347],[-115.8343,50.03345],[-115.83429,50.03343],[-115.83429,50.0334],[-115.83428,50.03336],[-115.83428,50.03333],[-115.83431,50.03325],[-115.83432,50.03323],[-115.83434,50.03321],[-115.83437,50.03318],[-115.83449,50.0331],[-115.83454,50.03309],[-115.83458,50.03307],[-115.83461,50.03306],[-115.83465,50.03305],[-115.83468,50.03304],[-115.83471,50.03304],[-115.83479,50.03303],[-115.83493,50.03298],[-115.83511,50.03291],[-115.83533,50.03282],[-115.83555,50.03273],[-115.83571,50.03267],[-115.83588,50.0326],[-115.83616,50.03248],[-115.83628,50.03243],[-115.83638,50.03239],[-115.8365,50.03233],[-115.8366,50.03228],[-115.83671,50.03224],[-115.83679,50.03218],[-115.83688,50.03214],[-115.83695,50.03208],[-115.83703,50.03202],[-115.83712,50.03195],[-115.83719,50.03189],[-115.83726,50.03182],[-115.83733,50.03176],[-115.83745,50.03163],[-115.83751,50.03158],[-115.83759,50.03147],[-115.83768,50.03135],[-115.83771,50.03129],[-115.83775,50.03125],[-115.83781,50.03114],[-115.83787,50.03101],[-115.838,50.03077],[-115.83804,50.03069],[-115.83807,50.03063],[-115.8381,50.03056],[-115.83813,50.03048],[-115.83818,50.03039],[-115.83821,50.03031],[-115.83824,50.03024],[-115.83825,50.03018],[-115.83828,50.03012],[-115.83831,50.03006],[-115.83833,50.02998],[-115.83836,50.02991],[-115.83838,50.02986],[-115.83841,50.0298],[-115.83844,50.02969],[-115.83846,50.02963],[-115.83847,50.0296],[-115.83848,50.02946],[-115.83851,50.02939],[-115.83851,50.02935],[-115.83854,50.02926],[-115.83855,50.0292],[-115.83856,50.02902],[-115.83857,50.02895],[-115.83858,50.02889],[-115.83859,50.02882],[-115.83859,50.02875],[-115.83861,50.02869],[-115.8386,50.02865],[-115.8386,50.02839],[-115.83862,50.02822],[-115.83865,50.02805],[-115.83871,50.02787],[-115.83874,50.02778],[-115.83883,50.0276],[-115.83889,50.02752],[-115.83901,50.02733],[-115.83912,50.02719],[-115.83918,50.02712],[-115.83921,50.02705],[-115.83925,50.02701],[-115.83928,50.02697],[-115.83929,50.02695],[-115.83935,50.02687],[-115.83942,50.0268],[-115.83948,50.02673],[-115.83959,50.02662],[-115.83972,50.02646],[-115.83977,50.02639],[-115.83983,50.02623],[-115.83984,50.02616],[-115.83984,50.02614],[-115.83987,50.02605],[-115.83988,50.02593],[-115.83989,50.02585],[-115.83989,50.02573],[-115.83991,50.02567],[-115.83992,50.0254],[-115.8399,50.0253],[-115.83991,50.02521],[-115.8399,50.02512],[-115.83988,50.02504],[-115.83987,50.025],[-115.83986,50.02494],[-115.83978,50.02472],[-115.83974,50.0246],[-115.83969,50.0245],[-115.83965,50.02439],[-115.83959,50.0243],[-115.83954,50.02419],[-115.83951,50.02412],[-115.83947,50.02405],[-115.83939,50.02392],[-115.83935,50.02388],[-115.83933,50.02385],[-115.83931,50.02381],[-115.83929,50.02376],[-115.83927,50.02372],[-115.83926,50.02366],[-115.83925,50.02362],[-115.83925,50.02353],[-115.83926,50.02347],[-115.83928,50.02343],[-115.8393,50.02337],[-115.83932,50.02331],[-115.83934,50.02326],[-115.83937,50.02321],[-115.83938,50.02319],[-115.8394,50.02313],[-115.83943,50.02306],[-115.83946,50.02298],[-115.8395,50.02288],[-115.83955,50.02279],[-115.83958,50.0227],[-115.83962,50.02262],[-115.83965,50.02254],[-115.83969,50.02247],[-115.83974,50.02239],[-115.8398,50.02227],[-115.83981,50.02226],[-115.83987,50.02215],[-115.83993,50.02202],[-115.83997,50.02191],[-115.84003,50.02181],[-115.84005,50.02176],[-115.84007,50.02172],[-115.84009,50.02166],[-115.84013,50.0216],[-115.84016,50.02156],[-115.84021,50.02149],[-115.84032,50.02136],[-115.84041,50.02124],[-115.84045,50.02114],[-115.84047,50.02103],[-115.84047,50.02101],[-115.8405,50.02092],[-115.8405,50.02083],[-115.84052,50.02074],[-115.84052,50.02055],[-115.84055,50.02043],[-115.84057,50.0203],[-115.8406,50.02019],[-115.84065,50.02005],[-115.84068,50.01993],[-115.84074,50.01979],[-115.84078,50.01967],[-115.84084,50.01954],[-115.84088,50.01944],[-115.84093,50.01935],[-115.84096,50.01929],[-115.84101,50.0192],[-115.84103,50.01916],[-115.84112,50.01899],[-115.84118,50.0189],[-115.84126,50.01872],[-115.84129,50.01865],[-115.84134,50.01857],[-115.8414,50.01848],[-115.84144,50.01843],[-115.84148,50.01837],[-115.84152,50.01832],[-115.84155,50.01826],[-115.84157,50.01821],[-115.84163,50.01812],[-115.84168,50.01807],[-115.84176,50.01803],[-115.84183,50.01799],[-115.84191,50.01797],[-115.84201,50.01794],[-115.8422,50.01793],[-115.8423,50.01791],[-115.84236,50.01789],[-115.8424,50.01788],[-115.84246,50.01787],[-115.8425,50.01787],[-115.84253,50.01786],[-115.84257,50.01785],[-115.8426,50.01783],[-115.84268,50.01776],[-115.84274,50.01769],[-115.84277,50.01762],[-115.84277,50.01759],[-115.84277,50.01744],[-115.84276,50.0174],[-115.84276,50.01732],[-115.84278,50.0173],[-115.84278,50.01728],[-115.84281,50.01726],[-115.84286,50.01722],[-115.84291,50.0172],[-115.84293,50.01719],[-115.8431,50.01711],[-115.84322,50.01707],[-115.84326,50.01706],[-115.8433,50.01705],[-115.84336,50.01702],[-115.8434,50.01698],[-115.84346,50.01693],[-115.84347,50.0169],[-115.84349,50.01687],[-115.84349,50.01684],[-115.8435,50.01681],[-115.8435,50.01676],[-115.84349,50.01671],[-115.84348,50.01668],[-115.84346,50.01664],[-115.84345,50.01659],[-115.84341,50.01655],[-115.8434,50.01652],[-115.84337,50.01649],[-115.84334,50.01644],[-115.8433,50.01641],[-115.84327,50.01636],[-115.84323,50.01628],[-115.84324,50.01613],[-115.84327,50.01606],[-115.84327,50.01602],[-115.8433,50.01598],[-115.84331,50.01594],[-115.84334,50.0159],[-115.84337,50.01586],[-115.84341,50.01581],[-115.84347,50.01574],[-115.84351,50.01569],[-115.84357,50.01565],[-115.84361,50.01561],[-115.84366,50.01556],[-115.84373,50.01549],[-115.84381,50.01542],[-115.84391,50.01534],[-115.84403,50.01525],[-115.84414,50.01516],[-115.84428,50.01505],[-115.84444,50.01494],[-115.84477,50.01474],[-115.84488,50.01465],[-115.84501,50.01457],[-115.84513,50.01448],[-115.84539,50.01432],[-115.84547,50.01425],[-115.84553,50.01422],[-115.84557,50.01418],[-115.8456,50.01415],[-115.84563,50.01412],[-115.84566,50.01408],[-115.84569,50.01404],[-115.84572,50.014],[-115.84576,50.01396],[-115.84585,50.01388],[-115.84593,50.01381],[-115.84614,50.01368],[-115.84624,50.0136],[-115.8464,50.01351],[-115.84643,50.01348],[-115.84653,50.01341],[-115.84674,50.01328],[-115.84681,50.01324],[-115.84687,50.0132],[-115.84694,50.01316],[-115.847,50.01311],[-115.84704,50.01305],[-115.8471,50.01301],[-115.84714,50.01295],[-115.84718,50.01289],[-115.84723,50.01283],[-115.84727,50.01278],[-115.8474,50.01264],[-115.84743,50.01262],[-115.84746,50.01255],[-115.84753,50.01248],[-115.84761,50.01239],[-115.84771,50.0123],[-115.84783,50.0122],[-115.84793,50.01212],[-115.84813,50.01199],[-115.84824,50.01193],[-115.84871,50.01164],[-115.84886,50.01153],[-115.84899,50.01145],[-115.84912,50.01138],[-115.84923,50.01132],[-115.84936,50.01125],[-115.84944,50.01122],[-115.84954,50.01116],[-115.84965,50.01112],[-115.84974,50.01108],[-115.84982,50.01104],[-115.84994,50.01099],[-115.85006,50.01091],[-115.85016,50.01085],[-115.85019,50.01082],[-115.85023,50.0108],[-115.85025,50.01078],[-115.85033,50.01073],[-115.85039,50.01069],[-115.85043,50.01064],[-115.85049,50.01059],[-115.85053,50.01054],[-115.85058,50.01049],[-115.85063,50.01044],[-115.85069,50.01037],[-115.85073,50.01031],[-115.85083,50.01019],[-115.85089,50.01014],[-115.85093,50.01009],[-115.85102,50.01],[-115.85105,50.00996],[-115.85122,50.00979],[-115.85126,50.00975],[-115.85139,50.00964],[-115.85145,50.0096],[-115.85149,50.00955],[-115.85172,50.00938],[-115.85178,50.00934],[-115.85189,50.00925],[-115.85196,50.00921],[-115.85202,50.00916],[-115.85206,50.00912],[-115.85212,50.00908],[-115.85219,50.00903],[-115.85229,50.00899],[-115.85237,50.00894],[-115.85247,50.00889],[-115.85258,50.00885],[-115.85268,50.00882],[-115.85279,50.00879],[-115.85291,50.00875],[-115.85299,50.00872],[-115.85309,50.00871],[-115.85329,50.00866],[-115.85337,50.00863],[-115.85344,50.00861],[-115.85355,50.00859],[-115.85366,50.00855],[-115.85408,50.00847],[-115.8542,50.00845],[-115.8543,50.00843],[-115.85441,50.00841],[-115.8547,50.00836],[-115.85481,50.00836],[-115.85493,50.00834],[-115.85504,50.00833],[-115.85511,50.00832],[-115.85519,50.00831],[-115.85528,50.0083],[-115.85557,50.00822],[-115.85568,50.00818],[-115.85588,50.00811],[-115.85598,50.00807],[-115.85606,50.00803],[-115.85616,50.00798],[-115.85628,50.00793],[-115.85639,50.00787],[-115.85649,50.00781],[-115.85656,50.00777],[-115.85664,50.00773],[-115.85676,50.00768],[-115.85701,50.00756],[-115.85714,50.00751],[-115.85733,50.00742],[-115.85742,50.00737],[-115.85752,50.00733],[-115.8576,50.00729],[-115.8577,50.00726],[-115.8579,50.0072],[-115.85801,50.00716],[-115.85818,50.00711],[-115.85829,50.00709],[-115.85842,50.00706],[-115.85856,50.00703],[-115.8587,50.007],[-115.85881,50.00698],[-115.85892,50.00696],[-115.85903,50.00694],[-115.85913,50.00692],[-115.85923,50.0069],[-115.85934,50.00687],[-115.85947,50.00685],[-115.85961,50.00682],[-115.85981,50.00676],[-115.8599,50.00674],[-115.86003,50.00672],[-115.86031,50.00666],[-115.86052,50.00664],[-115.86059,50.00662],[-115.86065,50.00661],[-115.86072,50.00661],[-115.86077,50.00661],[-115.86119,50.00661],[-115.86126,50.0066],[-115.86133,50.00658],[-115.8614,50.00658],[-115.86151,50.00656],[-115.8616,50.00655],[-115.8617,50.00653],[-115.86178,50.00653],[-115.86185,50.00652],[-115.86197,50.0065],[-115.86213,50.00648],[-115.8623,50.00645],[-115.86245,50.00642],[-115.86256,50.00641],[-115.86276,50.00639],[-115.86287,50.00639],[-115.86298,50.00638],[-115.86344,50.00639],[-115.86354,50.0064],[-115.86362,50.0064],[-115.86371,50.00642],[-115.86376,50.00642],[-115.86382,50.00643],[-115.86389,50.00644],[-115.86393,50.00646],[-115.864,50.00647],[-115.86404,50.00649],[-115.86414,50.00649],[-115.86418,50.00651],[-115.86421,50.00651],[-115.86425,50.00654],[-115.8643,50.00657],[-115.86436,50.00661],[-115.8644,50.00664],[-115.86448,50.0067],[-115.86454,50.00675],[-115.86458,50.0068],[-115.8646,50.00684],[-115.86463,50.0069],[-115.86467,50.007],[-115.86467,50.00713],[-115.86465,50.00718],[-115.86465,50.0073],[-115.86463,50.00734],[-115.86465,50.00737],[-115.86465,50.00747],[-115.86463,50.0075],[-115.86463,50.00753],[-115.86462,50.00754],[-115.86463,50.00757],[-115.86464,50.00759],[-115.8647,50.00762],[-115.86473,50.00763],[-115.86485,50.00764],[-115.86488,50.00763],[-115.86491,50.00763],[-115.86494,50.00762],[-115.86499,50.00761],[-115.86505,50.00759],[-115.86512,50.00757],[-115.86519,50.00755],[-115.86538,50.0075],[-115.86547,50.00749],[-115.86554,50.00748],[-115.86561,50.00746],[-115.86575,50.00745],[-115.86583,50.00743],[-115.8659,50.00742],[-115.86597,50.0074],[-115.86604,50.0074],[-115.86611,50.00738],[-115.86628,50.00736],[-115.86635,50.00735],[-115.86638,50.00734],[-115.86648,50.00734],[-115.86656,50.00733],[-115.86663,50.00733],[-115.86674,50.00731],[-115.8668,50.00731],[-115.86687,50.0073],[-115.86695,50.00729],[-115.8673,50.0072],[-115.86736,50.00718],[-115.86743,50.00716],[-115.86751,50.00713],[-115.8676,50.00709]]}},
{"type":"Feature","properties":{"spotId":"F-grouse-walk-0035","kind":"walk","km":0.07,"climbM":0,"name":"200 m NE of Findlay Creek","flags":[]},"geometry":{"type":"LineString","coordinates":[[-115.87672,50.13917],[-115.87584,50.13888]]}},
{"type":"Feature","properties":{"spotId":"F-grouse-walk-0035","kind":"roadside","km":3.24,"climbM":30,"name":"200 m NE of Findlay Creek","flags":[]},"geometry":{"type":"LineString","coordinates":[[-115.87584,50.13888],[-115.87581,50.13887],[-115.8757,50.13879],[-115.87556,50.13869],[-115.8754,50.13857],[-115.87525,50.13844],[-115.8751,50.13832],[-115.87502,50.13824],[-115.87495,50.13816],[-115.87487,50.13808],[-115.8748,50.13799],[-115.8747,50.13789],[-115.87457,50.13776],[-115.87444,50.13762],[-115.87435,50.13756],[-115.8743,50.13752],[-115.87417,50.13743],[-115.87404,50.13739],[-115.87393,50.13737],[-115.87376,50.13732],[-115.8736,50.13726],[-115.87347,50.13724],[-115.8734,50.13722],[-115.87322,50.13717],[-115.87297,50.13713],[-115.87283,50.13711],[-115.87271,50.1371],[-115.87257,50.13709],[-115.87234,50.13707],[-115.87192,50.13703],[-115.8718,50.13702],[-115.87174,50.13702],[-115.8716,50.13703],[-115.8715,50.13704],[-115.87138,50.13705],[-115.87092,50.13704],[-115.87083,50.13704],[-115.87073,50.13702],[-115.87062,50.13701],[-115.87052,50.13699],[-115.87043,50.13698],[-115.87026,50.13695],[-115.87008,50.13692],[-115.86993,50.13689],[-115.86987,50.13687],[-115.8698,50.13685],[-115.86972,50.13681],[-115.86966,50.13677],[-115.86958,50.1367],[-115.86948,50.13665],[-115.86937,50.13658],[-115.86926,50.13651],[-115.86919,50.13647],[-115.86914,50.13642],[-115.8691,50.13639],[-115.86902,50.13634],[-115.86893,50.1363],[-115.86871,50.13621],[-115.86857,50.13618],[-115.86846,50.13615],[-115.86835,50.13613],[-115.86817,50.13611],[-115.86796,50.13608],[-115.86773,50.13605],[-115.86772,50.13605],[-115.8675,50.13602],[-115.86727,50.136],[-115.8668,50.13599],[-115.86663,50.136],[-115.86652,50.136],[-115.86621,50.136],[-115.86606,50.136],[-115.86586,50.13598],[-115.86569,50.13598],[-115.86558,50.13597],[-115.86546,50.13597],[-115.86532,50.13598],[-115.86492,50.13599],[-115.86471,50.136],[-115.8645,50.13602],[-115.86396,50.13606],[-115.86389,50.13605],[-115.86375,50.13607],[-115.86363,50.13609],[-115.86352,50.1361],[-115.86333,50.13611],[-115.86309,50.13615],[-115.86286,50.13617],[-115.86262,50.1362],[-115.86238,50.13623],[-115.86216,50.13625],[-115.86202,50.13626],[-115.86188,50.13629],[-115.86175,50.13631],[-115.86161,50.13635],[-115.86147,50.13641],[-115.86137,50.13645],[-115.86123,50.13652],[-115.86117,50.13656],[-115.86112,50.1366],[-115.86106,50.13666],[-115.86102,50.1367],[-115.86096,50.13675],[-115.86092,50.1368],[-115.86087,50.13685],[-115.86083,50.13692],[-115.86078,50.13701],[-115.86077,50.13706],[-115.86075,50.13714],[-115.86074,50.13723],[-115.86073,50.1375],[-115.86076,50.13766],[-115.86077,50.13772],[-115.86078,50.13781],[-115.86079,50.13788],[-115.86082,50.13794],[-115.86083,50.13801],[-115.86083,50.13808],[-115.86086,50.13816],[-115.86085,50.13824],[-115.86087,50.13832],[-115.86089,50.13843],[-115.86092,50.13854],[-115.86094,50.13864],[-115.86097,50.13873],[-115.86099,50.13881],[-115.86101,50.13891],[-115.86106,50.13909],[-115.86107,50.13918],[-115.86108,50.13927],[-115.86111,50.13935],[-115.86113,50.13947],[-115.86114,50.13954],[-115.86114,50.13962],[-115.86115,50.13971],[-115.86118,50.13982],[-115.86119,50.13992],[-115.86122,50.1401],[-115.86123,50.1402],[-115.86122,50.14029],[-115.86124,50.14038],[-115.86125,50.14046],[-115.86124,50.14063],[-115.86123,50.1407],[-115.86123,50.14078],[-115.8612,50.14085],[-115.86118,50.14094],[-115.86114,50.14103],[-115.86105,50.14119],[-115.86101,50.14125],[-115.86096,50.14133],[-115.86093,50.14141],[-115.86089,50.1415],[-115.86086,50.14158],[-115.86084,50.14166],[-115.86083,50.14174],[-115.86081,50.14182],[-115.86078,50.14189],[-115.86075,50.14197],[-115.86074,50.14205],[-115.86071,50.14213],[-115.86068,50.14222],[-115.86066,50.14231],[-115.86063,50.14238],[-115.8606,50.14254],[-115.86057,50.14264],[-115.86054,50.14278],[-115.86051,50.14288],[-115.86041,50.14318],[-115.86035,50.14336],[-115.86031,50.14344],[-115.86027,50.14353],[-115.86012,50.14371],[-115.86006,50.14375],[-115.85999,50.14381],[-115.85992,50.14389],[-115.85984,50.14398],[-115.85976,50.14406],[-115.85969,50.14413],[-115.85958,50.14427],[-115.8595,50.14435],[-115.85942,50.14444],[-115.85935,50.14453],[-115.85927,50.14461],[-115.85922,50.14469],[-115.85915,50.14475],[-115.85903,50.14489],[-115.85894,50.14496],[-115.85884,50.14505],[-115.85873,50.14516],[-115.85864,50.14525],[-115.85856,50.14533],[-115.85847,50.1454],[-115.85837,50.14547],[-115.85815,50.14556],[-115.85802,50.14559],[-115.85791,50.14563],[-115.85779,50.14565],[-115.85771,50.14567],[-115.85751,50.14571],[-115.85739,50.14571],[-115.85705,50.14571],[-115.85674,50.14569],[-115.85662,50.14568],[-115.85648,50.14567],[-115.856,50.14566],[-115.85597,50.14566],[-115.85589,50.14567],[-115.85571,50.14567],[-115.85566,50.14567],[-115.85555,50.14568],[-115.8554,50.14568],[-115.85525,50.14568],[-115.85502,50.14569],[-115.8549,50.14569],[-115.85478,50.14571],[-115.85467,50.14573],[-115.85456,50.14577],[-115.85447,50.1458],[-115.8544,50.14582],[-115.85429,50.14587],[-115.85425,50.14591],[-115.85422,50.14592],[-115.85418,50.14595],[-115.85412,50.14598],[-115.85402,50.14607],[-115.85392,50.14615],[-115.85383,50.14624],[-115.85378,50.14632],[-115.85376,50.14634],[-115.85373,50.14638],[-115.85372,50.14642],[-115.85369,50.14647],[-115.85366,50.14652],[-115.85361,50.14662],[-115.85356,50.14669],[-115.85353,50.14676],[-115.85344,50.1469],[-115.85338,50.14699],[-115.85335,50.14704],[-115.85334,50.14708],[-115.85328,50.14716],[-115.85324,50.14724],[-115.85318,50.14732],[-115.85315,50.14738],[-115.85306,50.14751],[-115.85302,50.14758],[-115.85299,50.14766],[-115.85294,50.14779],[-115.8529,50.1479],[-115.85288,50.14801],[-115.85285,50.14812],[-115.85284,50.14852],[-115.85285,50.14861],[-115.85287,50.14869],[-115.85288,50.14878],[-115.85287,50.14887],[-115.8529,50.14895],[-115.85291,50.14904],[-115.85294,50.14914],[-115.85295,50.14921],[-115.85298,50.14928],[-115.85299,50.14935],[-115.85302,50.14942],[-115.85304,50.14951],[-115.85305,50.14961],[-115.85308,50.1497],[-115.8531,50.14978],[-115.85312,50.14985],[-115.85314,50.14993],[-115.85316,50.14999],[-115.85321,50.15012],[-115.85322,50.15019],[-115.85325,50.15025],[-115.85327,50.15032],[-115.85329,50.15038],[-115.8533,50.15044],[-115.8533,50.1505],[-115.85327,50.15058],[-115.85325,50.15064],[-115.85322,50.15069],[-115.85314,50.15083],[-115.85311,50.15088],[-115.85306,50.15094],[-115.85303,50.151],[-115.85299,50.15105],[-115.85295,50.15111],[-115.85295,50.15112],[-115.8529,50.15118],[-115.85283,50.15128],[-115.85277,50.15135],[-115.85272,50.15143],[-115.85263,50.15152],[-115.85255,50.15165],[-115.85247,50.15175],[-115.8524,50.15184]]}},
{"type":"Feature","properties":{"spotId":"F-grouse-walk-0041","kind":"walk","km":1.26,"climbM":101,"name":"1.1 km NE of Findlay Creek","flags":[]},"geometry":{"type":"LineString","coordinates":[[-115.83119,50.10576],[-115.81984,50.1144]]}},
{"type":"Feature","properties":{"spotId":"F-grouse-walk-0041","kind":"roadside","km":5.53,"climbM":71,"name":"1.1 km NE of Findlay Creek","flags":[]},"geometry":{"type":"LineString","coordinates":[[-115.81984,50.1144],[-115.81953,50.11448],[-115.8194,50.11452],[-115.81924,50.11454],[-115.81905,50.11457],[-115.81899,50.11462],[-115.81896,50.11473],[-115.81902,50.11479],[-115.81909,50.11485],[-115.81916,50.11491],[-115.81926,50.11494],[-115.81939,50.11497],[-115.81949,50.11499],[-115.81955,50.11501],[-115.81961,50.11503],[-115.81965,50.11503],[-115.81972,50.11502],[-115.81979,50.115],[-115.81986,50.11498],[-115.81998,50.11494],[-115.8201,50.1149],[-115.82039,50.1148],[-115.82089,50.1148],[-115.82097,50.11481],[-115.82104,50.11483],[-115.82112,50.11488],[-115.82118,50.11493],[-115.82123,50.115],[-115.82129,50.11507],[-115.82131,50.11515],[-115.82134,50.11521],[-115.82135,50.11527],[-115.82138,50.11532],[-115.82139,50.11539],[-115.82142,50.11546],[-115.82144,50.11552],[-115.82147,50.11558],[-115.82148,50.11563],[-115.82152,50.11568],[-115.82157,50.11573],[-115.82163,50.11577],[-115.8217,50.11581],[-115.82177,50.11584],[-115.82186,50.11586],[-115.82191,50.11585],[-115.82194,50.11583],[-115.82196,50.1158],[-115.82199,50.11571],[-115.822,50.11565],[-115.82205,50.11555],[-115.8221,50.11547],[-115.82215,50.11541],[-115.82219,50.11536],[-115.82225,50.1153],[-115.82232,50.11523],[-115.8224,50.11516],[-115.82248,50.11509],[-115.82259,50.11503],[-115.82279,50.11492],[-115.82291,50.11489],[-115.82303,50.11486],[-115.82317,50.11484],[-115.82334,50.11482],[-115.82349,50.1148],[-115.82364,50.11479],[-115.82374,50.11477],[-115.82398,50.11477],[-115.82411,50.11479],[-115.82426,50.11483],[-115.8244,50.11487],[-115.82452,50.11491],[-115.82463,50.11495],[-115.82476,50.11501],[-115.8249,50.11506],[-115.82503,50.11513],[-115.82519,50.11521],[-115.82524,50.11524],[-115.82557,50.11537],[-115.82574,50.11545],[-115.82589,50.1155],[-115.82605,50.11557],[-115.8262,50.11562],[-115.8263,50.11565],[-115.82654,50.11573],[-115.82668,50.11579],[-115.82682,50.11586],[-115.82696,50.11595],[-115.82721,50.11608],[-115.82732,50.11614],[-115.82742,50.11618],[-115.82755,50.11624],[-115.82765,50.11627],[-115.82778,50.11631],[-115.82791,50.11637],[-115.82807,50.11644],[-115.8282,50.1165],[-115.8283,50.11655],[-115.8284,50.1166],[-115.82856,50.11671],[-115.82862,50.11675],[-115.82869,50.1168],[-115.82881,50.1169],[-115.82893,50.11701],[-115.82903,50.1171],[-115.8291,50.11717],[-115.82917,50.11724],[-115.82925,50.11733],[-115.82936,50.11743],[-115.82945,50.11754],[-115.82958,50.11766],[-115.82967,50.11776],[-115.82975,50.11785],[-115.82992,50.11802],[-115.83001,50.11811],[-115.83009,50.11819],[-115.83019,50.11828],[-115.83027,50.11836],[-115.83034,50.11843],[-115.83039,50.11847],[-115.83046,50.11854],[-115.83056,50.11864],[-115.83094,50.11902],[-115.83106,50.11913],[-115.83116,50.11923],[-115.83124,50.11932],[-115.83132,50.1194],[-115.8314,50.1195],[-115.83153,50.11969],[-115.83161,50.11978],[-115.83166,50.11985],[-115.83181,50.12015],[-115.83185,50.12028],[-115.83187,50.12037],[-115.8319,50.12044],[-115.83192,50.12058],[-115.83192,50.12065],[-115.83193,50.12075],[-115.83195,50.12086],[-115.83196,50.12095],[-115.83195,50.12104],[-115.83197,50.12111],[-115.83196,50.1212],[-115.83195,50.12131],[-115.83192,50.12143],[-115.83189,50.12156],[-115.83184,50.12172],[-115.83179,50.12188],[-115.83176,50.122],[-115.83175,50.12212],[-115.83169,50.12235],[-115.83165,50.12249],[-115.83161,50.12262],[-115.83155,50.12289],[-115.83153,50.12299],[-115.8315,50.12311],[-115.83147,50.12326],[-115.83141,50.12343],[-115.83133,50.12362],[-115.83124,50.12382],[-115.83117,50.12395],[-115.83111,50.12406],[-115.83104,50.12415],[-115.83092,50.12435],[-115.83086,50.12447],[-115.83079,50.12458],[-115.83073,50.1247],[-115.83067,50.12481],[-115.8306,50.1249],[-115.83051,50.12502],[-115.83047,50.12512],[-115.83041,50.12534],[-115.83041,50.12548],[-115.83039,50.12559],[-115.8304,50.1257],[-115.83043,50.1258],[-115.83044,50.1259],[-115.83048,50.12604],[-115.83058,50.12631],[-115.83062,50.12643],[-115.83066,50.12653],[-115.83069,50.12661],[-115.8307,50.12669],[-115.83074,50.12679],[-115.83076,50.12689],[-115.83082,50.12702],[-115.83085,50.12715],[-115.83089,50.12725],[-115.83097,50.12745],[-115.831,50.12755],[-115.83105,50.12768],[-115.8311,50.12781],[-115.83116,50.12794],[-115.8312,50.12806],[-115.83128,50.12824],[-115.8313,50.12836],[-115.83135,50.12847],[-115.83141,50.12863],[-115.83146,50.12879],[-115.8315,50.12892],[-115.83154,50.12905],[-115.83162,50.12925],[-115.83165,50.12936],[-115.83169,50.12948],[-115.83177,50.12973],[-115.83182,50.12985],[-115.83186,50.12995],[-115.83188,50.12997],[-115.83189,50.13001],[-115.83192,50.13004],[-115.83197,50.13013],[-115.83204,50.13023],[-115.83208,50.1303],[-115.83213,50.13036],[-115.83216,50.13042],[-115.8322,50.13048],[-115.83228,50.1306],[-115.83238,50.13072],[-115.83246,50.13085],[-115.83254,50.13097],[-115.83266,50.13113],[-115.8327,50.1312],[-115.83276,50.13128],[-115.8328,50.13136],[-115.83286,50.13146],[-115.83294,50.13157],[-115.83303,50.13166],[-115.83313,50.13182],[-115.83317,50.1319],[-115.8332,50.13196],[-115.83323,50.13204],[-115.83324,50.13211],[-115.83326,50.13218],[-115.83328,50.13223],[-115.83328,50.13227],[-115.83329,50.13229],[-115.8333,50.13231],[-115.8333,50.13232],[-115.83332,50.13234],[-115.83332,50.13238],[-115.83333,50.13242],[-115.83335,50.13253],[-115.83338,50.13262],[-115.83338,50.13266],[-115.8334,50.13275],[-115.83345,50.1328],[-115.83349,50.13288],[-115.83357,50.13299],[-115.83365,50.13308],[-115.83373,50.13317],[-115.8338,50.13323],[-115.83387,50.1333],[-115.83394,50.13338],[-115.83402,50.13347],[-115.83408,50.13357],[-115.83417,50.13366],[-115.83423,50.13373],[-115.83429,50.13379],[-115.83436,50.13386],[-115.83444,50.13393],[-115.83454,50.13401],[-115.83463,50.13411],[-115.83475,50.13423],[-115.83484,50.13434],[-115.83492,50.13443],[-115.83499,50.13452],[-115.83508,50.13461],[-115.83518,50.13469],[-115.8353,50.13476],[-115.83541,50.13485],[-115.83552,50.13492],[-115.83562,50.13497],[-115.83578,50.13507],[-115.83589,50.13512],[-115.836,50.13519],[-115.83614,50.13526],[-115.83635,50.13536],[-115.8365,50.13544],[-115.83665,50.13551],[-115.83678,50.13558],[-115.83692,50.13566],[-115.83714,50.13579],[-115.83733,50.13594],[-115.8374,50.13599],[-115.83745,50.13605],[-115.83751,50.13613],[-115.83756,50.13621],[-115.83761,50.13631],[-115.83768,50.13642],[-115.83779,50.13656],[-115.83786,50.13668],[-115.83802,50.13688],[-115.83812,50.13699],[-115.83818,50.13707],[-115.83827,50.13715],[-115.83833,50.13724],[-115.8384,50.13731],[-115.83844,50.13738],[-115.83847,50.13745],[-115.83851,50.13754],[-115.83856,50.13764],[-115.83863,50.13775],[-115.83871,50.13787],[-115.83879,50.13794],[-115.83893,50.13807],[-115.839,50.13812],[-115.83908,50.13817],[-115.8392,50.13825],[-115.83933,50.13834],[-115.83947,50.13842],[-115.8396,50.1385],[-115.83971,50.13856],[-115.83978,50.1386],[-115.83987,50.13864],[-115.83995,50.1387],[-115.84002,50.13877],[-115.84011,50.13884],[-115.84015,50.13888],[-115.84018,50.13892],[-115.84025,50.13899],[-115.8403,50.13905],[-115.84039,50.13918],[-115.84043,50.13925],[-115.84045,50.13933],[-115.84049,50.1394],[-115.84048,50.13971],[-115.84051,50.13976],[-115.84054,50.13984],[-115.84058,50.1399],[-115.84063,50.13995],[-115.84067,50.14],[-115.84073,50.14005],[-115.84077,50.1401],[-115.84097,50.14032],[-115.84101,50.14039],[-115.84108,50.14048],[-115.84122,50.14059],[-115.8413,50.14065],[-115.8414,50.14073],[-115.84148,50.1408],[-115.84153,50.14085],[-115.84175,50.14102],[-115.84202,50.14114],[-115.8423,50.14123],[-115.84239,50.14127],[-115.84253,50.14131],[-115.84273,50.14139],[-115.84285,50.14143],[-115.84304,50.1415],[-115.8432,50.14154],[-115.84335,50.1416],[-115.84349,50.14165],[-115.84364,50.14169],[-115.84379,50.14175],[-115.84396,50.1418],[-115.84411,50.14185],[-115.84427,50.14191],[-115.84438,50.14194],[-115.84445,50.14196],[-115.84452,50.14199],[-115.8446,50.14202],[-115.84479,50.14211],[-115.84499,50.14219],[-115.84513,50.14226],[-115.84526,50.14232],[-115.84539,50.14238],[-115.84551,50.14247],[-115.84561,50.14252],[-115.84569,50.14259],[-115.84577,50.14264],[-115.84584,50.1427],[-115.84591,50.14274],[-115.84601,50.14281],[-115.84615,50.1429],[-115.84628,50.143],[-115.84645,50.14311],[-115.8466,50.14325],[-115.84672,50.14335],[-115.84682,50.14344],[-115.84691,50.14352],[-115.847,50.14361],[-115.84706,50.1437],[-115.84709,50.14372],[-115.84715,50.14377],[-115.84735,50.14401],[-115.8474,50.14409],[-115.84743,50.14415],[-115.84747,50.14421],[-115.84755,50.14444],[-115.84755,50.14446],[-115.84758,50.14452],[-115.84759,50.1446],[-115.8476,50.14467],[-115.84763,50.14474],[-115.84764,50.1448],[-115.84765,50.14485],[-115.84766,50.14493],[-115.84769,50.14499],[-115.84773,50.14507],[-115.84777,50.14516],[-115.84782,50.14528],[-115.84786,50.14537],[-115.84798,50.14559],[-115.84803,50.14565],[-115.84807,50.14572],[-115.84812,50.14578],[-115.84819,50.14584],[-115.84824,50.14588],[-115.84829,50.14588],[-115.84833,50.1459],[-115.84842,50.14593],[-115.84845,50.14594],[-115.84854,50.14595],[-115.84862,50.14598],[-115.84863,50.14599],[-115.84876,50.14602],[-115.84884,50.14606],[-115.8489,50.1461],[-115.84895,50.14613],[-115.84903,50.1462],[-115.84909,50.14626],[-115.84913,50.14632],[-115.84918,50.1464],[-115.84922,50.14646],[-115.84926,50.14652],[-115.84933,50.14656],[-115.8494,50.14662],[-115.84959,50.14673],[-115.8497,50.14681],[-115.8499,50.147],[-115.8501,50.14724],[-115.85018,50.14732],[-115.85028,50.14742],[-115.85037,50.1475],[-115.85048,50.14757],[-115.85057,50.14763],[-115.85068,50.14773],[-115.85079,50.14785],[-115.85084,50.14792],[-115.85089,50.14801],[-115.85093,50.14808],[-115.85097,50.14814],[-115.851,50.1482],[-115.85104,50.14827],[-115.85111,50.14838],[-115.85116,50.14846],[-115.85118,50.14849],[-115.85123,50.14861],[-115.8513,50.14871],[-115.85135,50.14879],[-115.85141,50.14886],[-115.85145,50.14895],[-115.8515,50.14904],[-115.85155,50.14915],[-115.85159,50.14927],[-115.85163,50.14939],[-115.85166,50.1495],[-115.85168,50.14959],[-115.85169,50.14969],[-115.85172,50.14979],[-115.85173,50.14989],[-115.85176,50.14998],[-115.85178,50.15007],[-115.85181,50.15016],[-115.85186,50.15022],[-115.85192,50.15026],[-115.85199,50.15032],[-115.85205,50.15039],[-115.85212,50.15047],[-115.85218,50.15056],[-115.8522,50.15064],[-115.85223,50.15072],[-115.85223,50.15084],[-115.85221,50.15092],[-115.85218,50.15104],[-115.85215,50.15111],[-115.85212,50.15122],[-115.85212,50.15128],[-115.85214,50.15136],[-115.85225,50.15152],[-115.8523,50.15163],[-115.85235,50.15172],[-115.85236,50.15176],[-115.85239,50.15179],[-115.8524,50.15184]]}},
{"type":"Feature","properties":{"spotId":"F-grouse-walk-0062","kind":"roadside","km":3.09,"climbM":146,"name":"680 m S of Copper Creek","flags":["Route enters a Motor Vehicle for Hunting Closed Area: Copper Creek. Closed April 1 to June 30 and September 1 to February 28 (February 29 in a leap year). Synopsis map 2-29/23."]},"geometry":{"type":"LineString","coordinates":[[-115.83804,50.03069],[-115.83807,50.03074],[-115.83812,50.03094],[-115.8381,50.03123],[-115.83795,50.03156],[-115.83788,50.03186],[-115.83784,50.03201],[-115.83784,50.03218],[-115.83792,50.03251],[-115.8379,50.03267],[-115.83751,50.03332],[-115.83744,50.03431],[-115.83741,50.03445],[-115.83746,50.03468],[-115.83753,50.03479],[-115.83764,50.03489],[-115.83773,50.03501],[-115.83775,50.03517],[-115.83775,50.03536],[-115.83776,50.0354],[-115.83778,50.03542],[-115.83778,50.03545],[-115.83782,50.03549],[-115.83784,50.03551],[-115.83786,50.03553],[-115.83793,50.03558],[-115.83799,50.0356],[-115.83816,50.03566],[-115.83822,50.03569],[-115.83835,50.03574],[-115.83847,50.0358],[-115.83864,50.03592],[-115.83868,50.03597],[-115.83879,50.03606],[-115.83885,50.03612],[-115.83892,50.03617],[-115.83896,50.03619],[-115.83901,50.03621],[-115.83906,50.03623],[-115.83914,50.03625],[-115.83918,50.03627],[-115.83922,50.03628],[-115.8393,50.03631],[-115.8395,50.03636],[-115.83971,50.03643],[-115.83976,50.03644],[-115.83991,50.03648],[-115.83998,50.0365],[-115.84007,50.03653],[-115.84022,50.03657],[-115.84036,50.03662],[-115.84053,50.03665],[-115.84069,50.0367],[-115.84075,50.03671],[-115.84082,50.03673],[-115.84103,50.03675],[-115.84115,50.03675],[-115.8413,50.03676],[-115.84181,50.03681],[-115.84206,50.03683],[-115.84236,50.03683],[-115.84257,50.03677],[-115.84266,50.03674],[-115.84274,50.03671],[-115.8428,50.03669],[-115.84286,50.03668],[-115.8429,50.03666],[-115.84295,50.03665],[-115.843,50.03665],[-115.84304,50.03664],[-115.84309,50.03664],[-115.84314,50.03665],[-115.84318,50.03665],[-115.84321,50.03666],[-115.84322,50.03666],[-115.84334,50.03674],[-115.84334,50.03675],[-115.8434,50.03679],[-115.84343,50.0368],[-115.84349,50.03685],[-115.84354,50.03686],[-115.84365,50.03694],[-115.84369,50.03695],[-115.84372,50.03697],[-115.84376,50.03699],[-115.84383,50.037],[-115.84388,50.03702],[-115.84395,50.03703],[-115.84405,50.03705],[-115.84409,50.03705],[-115.84413,50.03706],[-115.8444,50.0371],[-115.84444,50.0371],[-115.84451,50.03712],[-115.84456,50.03713],[-115.8446,50.03714],[-115.84466,50.03716],[-115.84474,50.0372],[-115.84508,50.03729],[-115.84517,50.0373],[-115.84544,50.03735],[-115.84573,50.03734],[-115.8459,50.03733],[-115.84597,50.03729],[-115.84625,50.03716],[-115.84634,50.03713],[-115.84642,50.03708],[-115.84649,50.03704],[-115.84658,50.037],[-115.84663,50.03698],[-115.84669,50.03694],[-115.84676,50.03689],[-115.84683,50.03684],[-115.8469,50.03679],[-115.84696,50.03674],[-115.84713,50.0366],[-115.84719,50.03654],[-115.84725,50.03649],[-115.8473,50.03644],[-115.84737,50.03639],[-115.84743,50.03634],[-115.84752,50.03627],[-115.84757,50.03626],[-115.84766,50.03624],[-115.84776,50.03621],[-115.84784,50.0362],[-115.84794,50.03619],[-115.84802,50.03616],[-115.84812,50.03613],[-115.84818,50.0361],[-115.84821,50.03608],[-115.8483,50.03603],[-115.84839,50.03599],[-115.84859,50.03592],[-115.84869,50.03587],[-115.84877,50.03585],[-115.84885,50.03583],[-115.84891,50.0358],[-115.84899,50.03578],[-115.84906,50.03576],[-115.84923,50.03571],[-115.8493,50.03569],[-115.84936,50.03567],[-115.84943,50.03565],[-115.8496,50.03562],[-115.84967,50.03561],[-115.84975,50.03559],[-115.84989,50.03558],[-115.84994,50.03557],[-115.85001,50.03556],[-115.85009,50.03555],[-115.85042,50.03553],[-115.85051,50.03552],[-115.85059,50.03552],[-115.85076,50.03551],[-115.85084,50.03551],[-115.85118,50.03548],[-115.85128,50.03547],[-115.85136,50.03548],[-115.85153,50.03546],[-115.85173,50.03546],[-115.85182,50.03545],[-115.85258,50.03546],[-115.85265,50.03547],[-115.85276,50.03547],[-115.85281,50.03548],[-115.85286,50.03548],[-115.8529,50.03549],[-115.85308,50.03549],[-115.85319,50.03548],[-115.85337,50.03548],[-115.85344,50.03547],[-115.85357,50.03547],[-115.85369,50.03548],[-115.85382,50.03548],[-115.8539,50.03549],[-115.85393,50.03549],[-115.85403,50.0355],[-115.85411,50.0355],[-115.8542,50.03551],[-115.85429,50.03551],[-115.85438,50.03552],[-115.85446,50.03552],[-115.85452,50.03553],[-115.8548,50.03554],[-115.85485,50.03553],[-115.85496,50.03553],[-115.85502,50.03552],[-115.85506,50.03552],[-115.85513,50.03551],[-115.85519,50.03549],[-115.85526,50.03549],[-115.85531,50.03548],[-115.85536,50.03547],[-115.85543,50.03545],[-115.8555,50.03544],[-115.85566,50.03541],[-115.85575,50.0354],[-115.85586,50.03538],[-115.85594,50.03537],[-115.85604,50.03535],[-115.85629,50.03533],[-115.85652,50.03531],[-115.85663,50.03529],[-115.85669,50.03528],[-115.85674,50.03527],[-115.85676,50.03527],[-115.85677,50.03526],[-115.85678,50.03526],[-115.85683,50.03525],[-115.857,50.03522],[-115.85718,50.03517],[-115.85735,50.03514],[-115.85749,50.0351],[-115.8576,50.03508],[-115.85774,50.03504],[-115.85798,50.03499],[-115.85833,50.03492],[-115.85851,50.03489],[-115.85862,50.03487],[-115.85872,50.03486],[-115.85895,50.03482],[-115.85907,50.0348],[-115.85938,50.03475],[-115.85966,50.0347],[-115.85977,50.03469],[-115.85989,50.03466],[-115.86001,50.03463],[-115.86017,50.0346],[-115.86019,50.03459],[-115.86031,50.03456],[-115.86043,50.03452],[-115.86056,50.0345],[-115.86067,50.03445],[-115.86093,50.03438],[-115.86107,50.03434],[-115.86121,50.0343],[-115.86133,50.03426],[-115.86147,50.03423],[-115.8616,50.0342],[-115.8617,50.03418],[-115.86178,50.03417],[-115.86188,50.03415],[-115.86196,50.03413],[-115.86199,50.03413],[-115.86219,50.0341],[-115.86229,50.03407],[-115.86239,50.03405],[-115.86248,50.03403],[-115.86271,50.03398],[-115.86281,50.03396],[-115.86292,50.03394],[-115.86302,50.03393],[-115.86318,50.03391],[-115.86325,50.0339],[-115.8638,50.03385],[-115.86394,50.03385],[-115.86405,50.03385],[-115.86415,50.03385],[-115.86425,50.03386],[-115.86433,50.03386],[-115.86443,50.03387],[-115.86451,50.03387],[-115.8646,50.03388],[-115.86464,50.03388],[-115.86469,50.03389],[-115.86486,50.03389],[-115.86494,50.03388],[-115.86508,50.03385],[-115.86523,50.03379],[-115.86528,50.03377],[-115.86534,50.03373],[-115.86541,50.03371],[-115.86545,50.03367],[-115.86562,50.03356],[-115.86571,50.03353],[-115.86579,50.03349],[-115.86588,50.03345],[-115.86595,50.03342],[-115.86604,50.03341],[-115.86613,50.03339],[-115.86623,50.03336],[-115.86633,50.03335],[-115.86658,50.03328],[-115.8667,50.03325],[-115.8669,50.03318],[-115.86699,50.03316],[-115.86708,50.03313],[-115.86718,50.03309],[-115.86738,50.03304],[-115.86758,50.03297],[-115.86769,50.03294],[-115.86779,50.03289],[-115.86813,50.03276],[-115.86823,50.03272],[-115.86832,50.03268],[-115.86841,50.03265],[-115.86849,50.03262],[-115.86859,50.0326],[-115.8687,50.03257],[-115.86877,50.03255],[-115.8688,50.03255],[-115.8691,50.03247],[-115.86943,50.0324],[-115.8696,50.03236],[-115.86969,50.03234],[-115.86976,50.03233],[-115.8699,50.03229],[-115.87,50.03227],[-115.87012,50.03223]]}},
{"type":"Feature","properties":{"spotId":"F-moose-atv-0043","kind":"ride","km":2.79,"climbM":14,"name":"370 m SW of Deer Creek","flags":[]},"geometry":{"type":"LineString","coordinates":[[-115.99821,50.14149],[-115.99837,50.14129],[-115.99879,50.14101],[-115.99964,50.14069],[-116.00015,50.14053],[-116.00047,50.14036],[-116.00085,50.14007],[-116.0013,50.13979],[-116.00188,50.13949],[-116.00252,50.13932],[-116.00318,50.13915],[-116.00364,50.13898],[-116.00374,50.13885],[-116.00382,50.13876],[-116.00398,50.13846],[-116.00417,50.13823],[-116.0043,50.13806],[-116.00442,50.13787],[-116.00473,50.13744],[-116.00482,50.13734],[-116.00497,50.13718],[-116.00489,50.13704],[-116.00475,50.13672],[-116.00468,50.13661],[-116.00453,50.13645],[-116.00437,50.1363],[-116.00422,50.13619],[-116.00407,50.13606],[-116.00392,50.13587],[-116.00378,50.13573],[-116.00368,50.13559],[-116.00364,50.13557],[-116.00345,50.13547],[-116.00327,50.13538],[-116.00306,50.13529],[-116.00291,50.13524],[-116.00272,50.13519],[-116.00237,50.13507],[-116.00211,50.13498],[-116.00186,50.13493],[-116.00164,50.1349],[-116.00154,50.1349],[-116.00148,50.1349],[-116.00137,50.13494],[-116.00113,50.13503],[-116.0007,50.13525],[-116.00048,50.13538],[-116.0003,50.13553],[-115.99981,50.13584],[-115.99938,50.13607],[-115.99919,50.13619],[-115.99903,50.13633],[-115.99898,50.13638],[-115.99875,50.13651],[-115.99835,50.1366],[-115.99823,50.13665],[-115.99811,50.1367],[-115.99762,50.13695],[-115.99735,50.13709],[-115.99718,50.13717],[-115.99692,50.13728],[-115.99675,50.13733],[-115.99614,50.13744],[-115.99584,50.13752],[-115.99563,50.1376],[-115.99527,50.1377],[-115.99482,50.13784],[-115.99458,50.13791],[-115.99439,50.13793],[-115.99422,50.13789],[-115.99397,50.1378],[-115.99379,50.13771],[-115.9937,50.13761],[-115.99356,50.13743],[-115.99343,50.13727],[-115.9933,50.13714],[-115.99321,50.13699],[-115.99314,50.13685],[-115.99313,50.13675],[-115.99316,50.1366],[-115.99323,50.13645],[-115.99336,50.13629],[-115.99353,50.13605],[-115.99365,50.13597],[-115.99383,50.13588],[-115.99417,50.13567],[-115.99445,50.13553],[-115.99506,50.13524],[-115.99528,50.13512],[-115.99542,50.13501],[-115.9955,50.13489],[-115.9956,50.1347],[-115.99566,50.13455],[-115.99567,50.13445],[-115.99565,50.13432],[-115.99558,50.1341],[-115.99545,50.13385],[-115.99537,50.13371],[-115.99526,50.13339],[-115.99524,50.13328],[-115.99504,50.13277],[-115.99502,50.13267],[-115.99505,50.13234],[-115.99512,50.13203],[-115.99524,50.13178],[-115.9954,50.13151],[-115.99557,50.1313],[-115.99596,50.13094],[-115.99618,50.13078],[-115.99626,50.13069],[-115.99629,50.13065],[-115.99628,50.13062],[-115.99627,50.13058],[-115.99624,50.13054],[-115.99612,50.13041],[-115.99617,50.13032],[-115.99641,50.12993],[-115.99637,50.12951]]}},
{"type":"Feature","properties":{"spotId":"F-moose-atv-0043","kind":"walk","km":0.21,"climbM":2,"name":"370 m SW of Deer Creek","flags":[]},"geometry":{"type":"LineString","coordinates":[[-115.99821,50.14149],[-115.9983,50.14342]]}},
{"type":"Feature","properties":{"spotId":"F-moose-walk-0009","kind":"walk","km":1.62,"climbM":113,"name":"1.2 km S of Lavington Creek","flags":[]},"geometry":{"type":"LineString","coordinates":[[-115.93621,50.0465],[-115.95826,50.04988]]}},
{"type":"Feature","properties":{"spotId":"F-turkey-atv-0015","kind":"ride","km":3.34,"climbM":10,"name":"By Findlay Creek","flags":[]},"geometry":{"type":"LineString","coordinates":[[-115.80454,50.06973],[-115.80431,50.06994],[-115.80394,50.07023],[-115.8039,50.07027],[-115.80354,50.07054],[-115.80338,50.07069],[-115.80321,50.07091],[-115.80267,50.07141],[-115.80205,50.07213],[-115.80189,50.07239],[-115.80173,50.07271],[-115.80162,50.07286],[-115.80138,50.07308],[-115.80106,50.07326],[-115.80004,50.07374],[-115.8,50.07375],[-115.79905,50.07427],[-115.79857,50.07449],[-115.7983,50.07458],[-115.79782,50.07468],[-115.79719,50.07485],[-115.7954,50.07525],[-115.79508,50.07532],[-115.79504,50.07535],[-115.79498,50.07538],[-115.79494,50.07544],[-115.79489,50.0757],[-115.79476,50.07585],[-115.79453,50.07606],[-115.79443,50.0762],[-115.79445,50.07637],[-115.79453,50.07652],[-115.79462,50.07691],[-115.79471,50.07717],[-115.79487,50.07747],[-115.79496,50.07788],[-115.79509,50.07802],[-115.7956,50.0785],[-115.79588,50.07869],[-115.79604,50.07882],[-115.79623,50.0791],[-115.79641,50.07926],[-115.79649,50.07931],[-115.79665,50.07947],[-115.79678,50.07961],[-115.79703,50.08007],[-115.7971,50.08013],[-115.79728,50.08023],[-115.79845,50.08107],[-115.7987,50.08129],[-115.79918,50.0818],[-115.79936,50.08193],[-115.7998,50.08216],[-115.79991,50.08224],[-115.79999,50.08239],[-115.79999,50.08258],[-115.80003,50.08267],[-115.80005,50.08293],[-115.80008,50.08313],[-115.80005,50.08332],[-115.80003,50.08352],[-115.80003,50.08373],[-115.7994,50.08433],[-115.79936,50.08476],[-115.79937,50.08529],[-115.79934,50.08551],[-115.7993,50.08559],[-115.79898,50.08576],[-115.79881,50.0859],[-115.79858,50.08615],[-115.79852,50.08626],[-115.79853,50.08628],[-115.79832,50.08645],[-115.79817,50.08662],[-115.79798,50.08679],[-115.79779,50.08696],[-115.79759,50.08713],[-115.79742,50.08728],[-115.79722,50.08746],[-115.79705,50.08761],[-115.79684,50.08779],[-115.79641,50.08811],[-115.79622,50.08826],[-115.79611,50.08835],[-115.79585,50.08848],[-115.79556,50.08858],[-115.79524,50.08865],[-115.795,50.08868],[-115.79491,50.08869],[-115.79461,50.08864],[-115.79441,50.08863],[-115.79426,50.08864],[-115.79407,50.08867],[-115.79386,50.08875],[-115.79379,50.08878],[-115.79372,50.08887],[-115.79363,50.08901],[-115.7936,50.08912],[-115.79362,50.08935],[-115.79369,50.08955],[-115.79378,50.08975],[-115.79389,50.08996],[-115.79397,50.09014],[-115.79405,50.09035],[-115.79412,50.09055],[-115.79423,50.09076],[-115.79439,50.09095],[-115.79459,50.09113],[-115.79476,50.09131],[-115.79493,50.09149],[-115.79502,50.09171],[-115.79507,50.09179],[-115.79515,50.09189],[-115.79537,50.09207],[-115.79544,50.09215],[-115.79556,50.09234],[-115.79598,50.0929],[-115.79605,50.093]]}},
{"type":"Feature","properties":{"spotId":"F-turkey-atv-0015","kind":"walk","km":0.21,"climbM":1,"name":"By Findlay Creek","flags":[]},"geometry":{"type":"LineString","coordinates":[[-115.79605,50.093],[-115.79446,50.09462]]}},
{"type":"Feature","properties":{"spotId":"F-turkey-atv-0026","kind":"ride","km":1.62,"climbM":4,"name":"200 m N of Findlay Creek","flags":[]},"geometry":{"type":"LineString","coordinates":[[-115.98656,50.13173],[-115.98642,50.13154],[-115.98627,50.13134],[-115.98614,50.13117],[-115.986,50.13098],[-115.98589,50.1308],[-115.98577,50.13059],[-115.98571,50.1304],[-115.98566,50.12997],[-115.98565,50.12978],[-115.98563,50.12938],[-115.98562,50.12917],[-115.98562,50.12897],[-115.98561,50.12876],[-115.98562,50.12839],[-115.98565,50.12831],[-115.98577,50.12819],[-115.98598,50.12804],[-115.98619,50.1279],[-115.98631,50.12783],[-115.98652,50.12767],[-115.98669,50.12757],[-115.98683,50.12752],[-115.98697,50.12749],[-115.98729,50.12748],[-115.98745,50.12748],[-115.98776,50.12744],[-115.98805,50.12738],[-115.98839,50.12733],[-115.98868,50.12726],[-115.98889,50.1272],[-115.98906,50.12712],[-115.98928,50.12697],[-115.98941,50.12679],[-115.98942,50.12677],[-115.98952,50.12658],[-115.98955,50.12636],[-115.98955,50.12615],[-115.98958,50.12572],[-115.98957,50.12552],[-115.98955,50.12531],[-115.98958,50.12524],[-115.98954,50.12512],[-115.98953,50.12507],[-115.98956,50.12486],[-115.98959,50.12463],[-115.98964,50.12443],[-115.98968,50.12421],[-115.9897,50.12412],[-115.9898,50.12392],[-115.98982,50.12381],[-115.98981,50.12375],[-115.9897,50.12355],[-115.98959,50.12334],[-115.98959,50.12321],[-115.98965,50.12302],[-115.98973,50.12281],[-115.98984,50.12261],[-115.98996,50.12249],[-115.99004,50.12244],[-115.99004,50.12236],[-115.99,50.12228],[-115.98985,50.1221],[-115.98975,50.1219],[-115.98972,50.12185],[-115.98973,50.12181],[-115.98981,50.12178],[-115.99007,50.12171],[-115.99024,50.1216],[-115.99029,50.12156],[-115.99034,50.12147],[-115.99038,50.12127],[-115.99036,50.12119],[-115.99035,50.12116],[-115.99028,50.12109],[-115.99013,50.121],[-115.98999,50.12094],[-115.98975,50.12089],[-115.98961,50.12089],[-115.98932,50.12095],[-115.989,50.121],[-115.98869,50.12107],[-115.98839,50.12118],[-115.9881,50.12128],[-115.9878,50.12138],[-115.98753,50.12145]]}},
{"type":"Feature","properties":{"spotId":"F-turkey-atv-0026","kind":"walk","km":0.11,"climbM":16,"name":"200 m N of Findlay Creek","flags":[]},"geometry":{"type":"LineString","coordinates":[[-115.98753,50.12145],[-115.9874,50.12244]]}},
{"type":"Feature","properties":{"spotId":"F-turkey-atv-0032","kind":"ride","km":1.2,"climbM":1,"name":"1.4 km E of Kootenay River","flags":["Route crosses private land (ParcelMap BC, updated 2026-09-26): get permission first or go around."]},"geometry":{"type":"LineString","coordinates":[[-115.76952,50.06046],[-115.76949,50.06049],[-115.76948,50.0605],[-115.76942,50.06055],[-115.76935,50.0606],[-115.76928,50.06065],[-115.76922,50.06069],[-115.76915,50.06072],[-115.76907,50.06073],[-115.76898,50.06073],[-115.7689,50.06072],[-115.76882,50.0607],[-115.76875,50.06068],[-115.76866,50.06063],[-115.76858,50.06054],[-115.76854,50.06048],[-115.76847,50.06043],[-115.76838,50.06037],[-115.76831,50.06034],[-115.76823,50.0603],[-115.76806,50.06026],[-115.76795,50.06025],[-115.76771,50.06025],[-115.76761,50.06026],[-115.76753,50.06028],[-115.76747,50.06029],[-115.7674,50.0603],[-115.76723,50.06034],[-115.76713,50.06034],[-115.76706,50.06035],[-115.767,50.06035],[-115.76694,50.06036],[-115.76688,50.06035],[-115.76681,50.06035],[-115.7667,50.06033],[-115.76659,50.06029],[-115.76649,50.06026],[-115.7664,50.06021],[-115.76632,50.06017],[-115.76625,50.06015],[-115.76604,50.06004],[-115.76594,50.05999],[-115.76583,50.05994],[-115.76564,50.05987],[-115.76557,50.05983],[-115.76551,50.0598],[-115.76549,50.05974],[-115.76548,50.05969],[-115.76548,50.05957],[-115.76549,50.0595],[-115.76541,50.0597],[-115.76532,50.06006],[-115.76522,50.06034],[-115.76511,50.06055],[-115.76491,50.06071],[-115.76473,50.06079],[-115.76456,50.06091],[-115.76423,50.06095],[-115.76389,50.06093],[-115.76371,50.06089],[-115.76343,50.0608],[-115.76335,50.06078],[-115.76311,50.06076],[-115.76279,50.06074],[-115.76249,50.06076],[-115.76214,50.06079],[-115.76184,50.06084],[-115.76176,50.06083],[-115.76167,50.06081],[-115.7614,50.06071],[-115.76115,50.06056],[-115.76093,50.06042],[-115.76071,50.06028],[-115.76024,50.06],[-115.75998,50.05989],[-115.75967,50.05983],[-115.75941,50.05972],[-115.75931,50.05967],[-115.75911,50.05951],[-115.75889,50.05937],[-115.75878,50.05927],[-115.75867,50.05908],[-115.75862,50.05904],[-115.75845,50.05894],[-115.75837,50.05889],[-115.75825,50.05885],[-115.75812,50.05884],[-115.75798,50.05885],[-115.75788,50.0589],[-115.75787,50.0589],[-115.75756,50.05899],[-115.7575,50.05904],[-115.75744,50.05913],[-115.75744,50.05917],[-115.75743,50.05918],[-115.75742,50.05932],[-115.75741,50.05936]]}},
{"type":"Feature","properties":{"spotId":"F-turkey-atv-0032","kind":"walk","km":0.01,"climbM":0,"name":"1.4 km E of Kootenay River","flags":["Route crosses private land (ParcelMap BC, updated 2026-09-26): get permission first or go around."]},"geometry":{"type":"LineString","coordinates":[[-115.76952,50.06046],[-115.76969,50.06051]]}},
{"type":"Feature","properties":{"spotId":"F-turkey-drive-0008","kind":"walk","km":0.08,"climbM":0,"name":"By Findlay Creek","flags":[]},"geometry":{"type":"LineString","coordinates":[[-115.94656,50.13832],[-115.94586,50.1377]]}},
{"type":"Feature","properties":{"spotId":"F-turkey-drive-0009","kind":"walk","km":0.04,"climbM":0,"name":"130 m N of Mud Creek","flags":[]},"geometry":{"type":"LineString","coordinates":[[-115.77369,50.11969],[-115.77321,50.11988]]}},
{"type":"Feature","properties":{"spotId":"F-turkey-drive-0010","kind":"walk","km":0.06,"climbM":0,"name":"By Deer Creek","flags":[]},"geometry":{"type":"LineString","coordinates":[[-115.98176,50.13328],[-115.98206,50.13376]]}},
{"type":"Feature","properties":{"spotId":"F-turkey-drive-0012","kind":"walk","km":0.1,"climbM":11,"name":"By Copper Creek","flags":[]},"geometry":{"type":"LineString","coordinates":[[-115.80824,50.03328],[-115.80968,50.03336]]}},
{"type":"Feature","properties":{"spotId":"F-turkey-drive-0050","kind":"walk","km":0.04,"climbM":0,"name":"By Kootenay River","flags":[]},"geometry":{"type":"LineString","coordinates":[[-115.77177,50.15504],[-115.77228,50.15522]]}},
{"type":"Feature","properties":{"spotId":"F-turkey-drive-0051","kind":"walk","km":0.13,"climbM":0,"name":"120 m W of Findlay Creek","flags":[]},"geometry":{"type":"LineString","coordinates":[[-115.81225,50.09525],[-115.81106,50.09617]]}},
{"type":"Feature","properties":{"spotId":"F-turkey-walk-0018","kind":"walk","km":1.38,"climbM":110,"name":"By Marion Creek","flags":["Route crosses private land (ParcelMap BC, updated 2026-09-26): get permission first or go around."]},"geometry":{"type":"LineString","coordinates":[[-115.89352,50.25003],[-115.91074,50.24434]]}},
{"type":"Feature","properties":{"spotId":"F-turkey-walk-0019","kind":"walk","km":1.55,"climbM":93,"name":"By Sun Creek","flags":["Route crosses private land (ParcelMap BC, updated 2026-09-26): get permission first or go around."]},"geometry":{"type":"LineString","coordinates":[[-115.89112,50.21036],[-115.90127,50.19807]]}},
{"type":"Feature","properties":{"spotId":"F-turkey-walk-0020","kind":"walk","km":0.5,"climbM":42,"name":"By Sun Creek","flags":["Route crosses private land (ParcelMap BC, updated 2026-09-26): get permission first or go around."]},"geometry":{"type":"LineString","coordinates":[[-115.86063,50.18174],[-115.86077,50.18171],[-115.86087,50.18169],[-115.86096,50.18168],[-115.86104,50.18166],[-115.86115,50.18163],[-115.86118,50.1816],[-115.86122,50.18156],[-115.86123,50.18149],[-115.8612,50.1814],[-115.8612,50.18135],[-115.86124,50.1813],[-115.86129,50.18128],[-115.86132,50.18127],[-115.86136,50.18126],[-115.86139,50.18125],[-115.86148,50.18124],[-115.86162,50.18126],[-115.86178,50.18128],[-115.86644,50.18305]]}},
{"type":"Feature","properties":{"spotId":"F-turkey-walk-0052","kind":"walk","km":0.78,"climbM":1,"name":"150 m SW of Kootenay River","flags":["Route crosses private land (ParcelMap BC, updated 2026-09-26): get permission first or go around."]},"geometry":{"type":"LineString","coordinates":[[-115.80053,50.13487],[-115.81016,50.13151]]}},
{"type":"Feature","properties":{"spotId":"F-turkey-walk-0054","kind":"walk","km":1.43,"climbM":4,"name":"170 m N of Findlay Creek","flags":["Route enters a Motor Vehicle Closed Area: Dutch Creek and Findlay Creek. Closed Year Round. Synopsis map 1-10/23.","Route crosses private land (ParcelMap BC, updated 2026-09-26): get permission first or go around."]},"geometry":{"type":"LineString","coordinates":[[-115.81055,50.09399],[-115.79109,50.09703]]}},
{"type":"Feature","properties":{"spotId":"F-turkey-walk-0080","kind":"walk","km":0.43,"climbM":79,"name":"440 m SW of Marion Creek","flags":["Route crosses private land (ParcelMap BC, updated 2026-09-26): get permission first or go around."]},"geometry":{"type":"LineString","coordinates":[[-115.86793,50.20027],[-115.87294,50.19818]]}},
{"type":"Feature","properties":{"spotId":"F-turkey-walk-0081","kind":"walk","km":0.61,"climbM":79,"name":"570 m SE of Mud Creek","flags":["Route crosses private land (ParcelMap BC, updated 2026-09-26): get permission first or go around."]},"geometry":{"type":"LineString","coordinates":[[-115.76887,50.11585],[-115.76096,50.11783]]}},
{"type":"Feature","properties":{"spotId":"F-turkey-walk-0082","kind":"walk","km":1.12,"climbM":74,"name":"1.0 km E of Kootenay River","flags":["Route crosses private land (ParcelMap BC, updated 2026-09-26): get permission first or go around."]},"geometry":{"type":"LineString","coordinates":[[-115.75515,50.0743],[-115.77082,50.07424]]}}
]}
