{"type":"FeatureCollection","features":[
{"type":"Feature","properties":{"spotId":"F-camp-camp-0014","kind":"walk","km":0.01,"climbM":0,"name":"190 m W of Doctor Creek","flags":[]},"geometry":{"type":"LineString","coordinates":[[-116.06245,50.09661],[-116.0623,50.09659]]}},
{"type":"Feature","properties":{"spotId":"F-camp-camp-0061","kind":"walk","km":0.05,"climbM":0,"name":"4.9 km SW of Engstrom's Pond rec site","flags":[]},"geometry":{"type":"LineString","coordinates":[[-116.1013,50.11545],[-116.10189,50.11561]]}},
{"type":"Feature","properties":{"spotId":"F-deer-atv-0011","kind":"ride","km":3.03,"climbM":40,"name":"520 m SE of Doctor Creek","flags":[]},"geometry":{"type":"LineString","coordinates":[[-116.04941,50.10467],[-116.04957,50.10462],[-116.04985,50.10452],[-116.05013,50.10443],[-116.05043,50.10434],[-116.05072,50.10425],[-116.05099,50.10414],[-116.05126,50.10402],[-116.05136,50.10399],[-116.05154,50.10393],[-116.05182,50.10383],[-116.05191,50.10382],[-116.05205,50.10381],[-116.05203,50.10389],[-116.05196,50.10409],[-116.0519,50.10428],[-116.05181,50.10447],[-116.05171,50.10467],[-116.05162,50.10485],[-116.05155,50.10493],[-116.05135,50.10509],[-116.05115,50.10524],[-116.05103,50.10532],[-116.05088,50.1054],[-116.0506,50.10551],[-116.05053,50.10555],[-116.05049,50.10556],[-116.05046,50.10559],[-116.05042,50.10564],[-116.05043,50.10572],[-116.05044,50.10577],[-116.05048,50.10579],[-116.05058,50.1058],[-116.05076,50.10578],[-116.05089,50.10577],[-116.05102,50.10578],[-116.05116,50.10583],[-116.05094,50.1059],[-116.0503,50.10642],[-116.04999,50.10668],[-116.04961,50.10691],[-116.04936,50.10702],[-116.04931,50.10704],[-116.04889,50.10725],[-116.04851,50.10739],[-116.04837,50.10743],[-116.04793,50.10749],[-116.04749,50.10749],[-116.04696,50.10737],[-116.04658,50.10722],[-116.04603,50.10704],[-116.04469,50.10664],[-116.04402,50.10659],[-116.04356,50.1065],[-116.0434,50.10674],[-116.04296,50.10713],[-116.04258,50.10737],[-116.04248,50.10739],[-116.04146,50.10729],[-116.04124,50.10732],[-116.04082,50.10742],[-116.04017,50.10771],[-116.04,50.10775],[-116.03959,50.10774],[-116.03894,50.10748],[-116.03856,50.10753],[-116.03823,50.10752],[-116.03799,50.10746],[-116.03788,50.10758],[-116.0374,50.10786],[-116.03725,50.10809],[-116.03705,50.10825],[-116.03664,50.10839],[-116.03655,50.10842],[-116.03606,50.10889],[-116.03554,50.10923],[-116.03548,50.10932],[-116.03546,50.10953],[-116.03543,50.10985],[-116.03542,50.1099],[-116.03654,50.10994],[-116.03726,50.10998],[-116.03804,50.11012],[-116.03883,50.11039],[-116.0396,50.11043],[-116.03978,50.11047],[-116.04003,50.11057],[-116.04033,50.11066],[-116.0411,50.11071],[-116.04137,50.11075],[-116.04188,50.11088],[-116.04234,50.11106],[-116.04256,50.11112],[-116.04302,50.11122],[-116.04338,50.11133],[-116.04363,50.11147],[-116.04375,50.11167],[-116.04447,50.1121],[-116.04468,50.11224],[-116.04503,50.11267],[-116.04536,50.11304],[-116.04548,50.1133],[-116.04566,50.1135],[-116.04588,50.11363],[-116.046,50.11378],[-116.04604,50.1139],[-116.04605,50.11402],[-116.04606,50.11404],[-116.04602,50.11457],[-116.04604,50.11474]]}},
{"type":"Feature","properties":{"spotId":"F-deer-atv-0011","kind":"walk","km":0.17,"climbM":43,"name":"520 m SE of Doctor Creek","flags":[]},"geometry":{"type":"LineString","coordinates":[[-116.04941,50.10467],[-116.04826,50.10334]]}},
{"type":"Feature","properties":{"spotId":"F-deer-atv-0086","kind":"ride","km":2.73,"climbM":86,"name":"820 m SW of Deer Creek","flags":[]},"geometry":{"type":"LineString","coordinates":[[-115.99637,50.12951],[-115.99641,50.12993],[-115.99617,50.13032],[-115.99612,50.13041],[-115.99624,50.13054],[-115.99642,50.13056],[-115.99666,50.13058],[-115.99687,50.1306],[-115.99734,50.13062],[-115.99831,50.13069],[-115.99902,50.13075],[-115.99914,50.13076],[-115.99934,50.13079],[-115.99958,50.13084],[-115.99988,50.13088],[-116.00005,50.13089],[-116.00018,50.13092],[-116.0004,50.131],[-116.00065,50.13108],[-116.00076,50.1311],[-116.00101,50.13113],[-116.00127,50.13117],[-116.00146,50.1312],[-116.00182,50.13123],[-116.00202,50.13122],[-116.00227,50.13117],[-116.00247,50.13106],[-116.00275,50.13095],[-116.00287,50.1309],[-116.00318,50.1308],[-116.00374,50.13067],[-116.0039,50.13067],[-116.00409,50.13068],[-116.00423,50.13073],[-116.00461,50.13101],[-116.00495,50.13119],[-116.00501,50.13123],[-116.00515,50.13139],[-116.00525,50.13156],[-116.00539,50.1318],[-116.00549,50.13202],[-116.00565,50.13219],[-116.00602,50.13266],[-116.00625,50.13288],[-116.00668,50.1331],[-116.00701,50.13337],[-116.00738,50.13372],[-116.00771,50.134],[-116.00783,50.13418],[-116.00797,50.13432],[-116.00808,50.13444],[-116.00825,50.13461],[-116.00833,50.13467],[-116.00852,50.13476],[-116.00902,50.13502],[-116.00949,50.13533],[-116.00968,50.13547],[-116.00996,50.13564],[-116.01051,50.13593],[-116.01072,50.13602],[-116.011,50.13629],[-116.01119,50.13656],[-116.01129,50.13673],[-116.01144,50.13687],[-116.01204,50.13734],[-116.01217,50.13741],[-116.01222,50.13743],[-116.01232,50.13745],[-116.01263,50.1375],[-116.01302,50.13763],[-116.0132,50.1377],[-116.01404,50.13791],[-116.01435,50.138],[-116.0145,50.13804],[-116.01529,50.13822],[-116.01579,50.13833],[-116.01608,50.13843],[-116.01659,50.13856],[-116.017,50.13863],[-116.01726,50.13864],[-116.01744,50.13876],[-116.01748,50.1388],[-116.01752,50.13885],[-116.01755,50.13889],[-116.01756,50.13893],[-116.01756,50.13899],[-116.01754,50.13903],[-116.01746,50.13911],[-116.01732,50.13919],[-116.01724,50.13923],[-116.01715,50.13925],[-116.01694,50.1393],[-116.01674,50.13933],[-116.0166,50.13935],[-116.0163,50.13937],[-116.01621,50.13937],[-116.01604,50.13937],[-116.01556,50.13932],[-116.01535,50.1393],[-116.01443,50.13925],[-116.01435,50.13924],[-116.01417,50.13918],[-116.01387,50.13898],[-116.01369,50.13889],[-116.01361,50.13886],[-116.01341,50.13882],[-116.0132,50.1388],[-116.01307,50.13881],[-116.01277,50.13886],[-116.01247,50.13895],[-116.01198,50.13906],[-116.01176,50.13912],[-116.01155,50.13919],[-116.01138,50.13927],[-116.01121,50.13937],[-116.01107,50.13952],[-116.0107,50.13967],[-116.01025,50.13985],[-116.01009,50.13986],[-116.00993,50.13985],[-116.00975,50.13984]]}},
{"type":"Feature","properties":{"spotId":"F-deer-atv-0086","kind":"walk","km":0.27,"climbM":29,"name":"820 m SW of Deer Creek","flags":[]},"geometry":{"type":"LineString","coordinates":[[-116.00975,50.13984],[-116.00884,50.1422]]}},
{"type":"Feature","properties":{"spotId":"F-deer-atv-0102","kind":"ride","km":1.21,"climbM":62,"name":"740 m SW of Findlay Creek","flags":[]},"geometry":{"type":"LineString","coordinates":[[-116.0903,50.13826],[-116.09027,50.13834],[-116.09011,50.13851],[-116.09,50.1386],[-116.0897,50.13867],[-116.08949,50.13873],[-116.08925,50.13874],[-116.08895,50.13873],[-116.08882,50.13873],[-116.08864,50.13872],[-116.08855,50.13872],[-116.0885,50.13871],[-116.08841,50.13871],[-116.08819,50.1387],[-116.08806,50.13871],[-116.08776,50.13875],[-116.08771,50.13875],[-116.08738,50.13875],[-116.08701,50.13876],[-116.08704,50.13883],[-116.08717,50.13893],[-116.08728,50.13894],[-116.08777,50.13896],[-116.08784,50.13898],[-116.08799,50.13911],[-116.08845,50.13972],[-116.08856,50.13983],[-116.0886,50.13986],[-116.08869,50.13995],[-116.08892,50.1401],[-116.08909,50.14016],[-116.08967,50.14028],[-116.09023,50.1403],[-116.0911,50.1402],[-116.09187,50.14021],[-116.0919,50.14021],[-116.09208,50.14023],[-116.09226,50.1403],[-116.09275,50.14052],[-116.09291,50.14062],[-116.093,50.14069],[-116.09309,50.14078],[-116.09327,50.14083],[-116.09329,50.14084],[-116.09355,50.14095],[-116.09373,50.14104],[-116.09377,50.14105],[-116.09388,50.14109],[-116.09416,50.14117],[-116.09447,50.14125],[-116.09459,50.14126],[-116.09489,50.14124],[-116.0952,50.14121],[-116.09553,50.14118],[-116.09556,50.14118],[-116.09583,50.14113],[-116.09597,50.14111],[-116.09612,50.14108],[-116.09616,50.14107],[-116.09631,50.14106],[-116.09649,50.14106],[-116.09682,50.14105],[-116.09691,50.14104],[-116.09705,50.14105],[-116.09709,50.14105],[-116.09717,50.14106],[-116.09733,50.1411],[-116.09745,50.14115],[-116.09773,50.14126],[-116.09785,50.14134],[-116.09796,50.14143],[-116.09806,50.1415],[-116.09814,50.14153],[-116.09821,50.14153]]}},
{"type":"Feature","properties":{"spotId":"F-deer-atv-0102","kind":"walk","km":0.27,"climbM":27,"name":"740 m SW of Findlay Creek","flags":[]},"geometry":{"type":"LineString","coordinates":[[-116.0903,50.13826],[-116.09405,50.13851]]}},
{"type":"Feature","properties":{"spotId":"F-deer-atv-0106","kind":"ride","km":1.19,"climbM":7,"name":"380 m NW of Whitetail Lake","flags":[]},"geometry":{"type":"LineString","coordinates":[[-116.0483,50.22432],[-116.04827,50.22434],[-116.04826,50.22436],[-116.04824,50.2244],[-116.0482,50.22442],[-116.04813,50.22447],[-116.04809,50.22456],[-116.04806,50.22457],[-116.04802,50.22458],[-116.04799,50.22459],[-116.04795,50.22461],[-116.04776,50.22468],[-116.04766,50.2247],[-116.04749,50.22471],[-116.04737,50.22473],[-116.04727,50.22475],[-116.0472,50.22478],[-116.04708,50.22487],[-116.04697,50.22494],[-116.04686,50.22503],[-116.04681,50.22507],[-116.04677,50.22511],[-116.04656,50.22525],[-116.0465,50.22526],[-116.04629,50.22534],[-116.04614,50.22538],[-116.04605,50.22539],[-116.04595,50.22541],[-116.04583,50.22543],[-116.04576,50.22545],[-116.0457,50.22546],[-116.04567,50.22548],[-116.04561,50.22554],[-116.04551,50.22561],[-116.0455,50.22562],[-116.04549,50.22565],[-116.04548,50.22569],[-116.04547,50.22588],[-116.04545,50.226],[-116.04544,50.22603],[-116.04542,50.22604],[-116.04542,50.22605],[-116.04536,50.2261],[-116.04525,50.22624],[-116.04522,50.22624],[-116.04521,50.22623],[-116.04476,50.22622],[-116.04431,50.2262],[-116.04406,50.2262],[-116.04389,50.22619],[-116.04375,50.22618],[-116.04368,50.22618],[-116.04339,50.22616],[-116.04329,50.22616],[-116.04325,50.22617],[-116.04319,50.22618],[-116.04308,50.22625],[-116.04293,50.2263],[-116.04277,50.22637],[-116.04262,50.22644],[-116.0426,50.22645],[-116.04251,50.2265],[-116.04247,50.22653],[-116.04238,50.22656],[-116.04235,50.22658],[-116.04223,50.22664],[-116.04189,50.22675],[-116.04176,50.22678],[-116.04172,50.2268],[-116.04163,50.22686],[-116.04158,50.22689],[-116.04149,50.22691],[-116.04144,50.22694],[-116.04139,50.22696],[-116.0413,50.22697],[-116.04124,50.22698],[-116.04114,50.22703],[-116.0411,50.22704],[-116.04105,50.22706],[-116.04096,50.22714],[-116.04088,50.22718],[-116.04081,50.22719],[-116.04072,50.2272],[-116.04064,50.22723],[-116.04059,50.22726],[-116.04055,50.22728],[-116.04046,50.22732],[-116.04035,50.22734],[-116.04028,50.22737],[-116.04015,50.22743],[-116.04011,50.22746],[-116.04002,50.2275],[-116.03982,50.22759],[-116.03977,50.22761],[-116.03951,50.22767],[-116.03916,50.22779],[-116.03902,50.22788],[-116.03895,50.22792],[-116.03893,50.22794],[-116.03889,50.22796],[-116.03861,50.22805],[-116.03845,50.22811],[-116.03831,50.22815],[-116.0382,50.22816],[-116.03816,50.22817],[-116.03807,50.2282],[-116.03783,50.22831],[-116.03773,50.22838],[-116.03758,50.22844],[-116.03749,50.22849],[-116.03749,50.22852],[-116.03728,50.22865],[-116.03722,50.22874],[-116.03707,50.22885],[-116.03701,50.22888],[-116.03697,50.2289],[-116.03683,50.22893],[-116.03664,50.22895],[-116.03659,50.22895],[-116.03617,50.22894],[-116.03576,50.22893],[-116.0357,50.22892],[-116.03568,50.22891],[-116.03565,50.22891],[-116.0354,50.22882],[-116.03527,50.22878],[-116.03523,50.22877],[-116.03502,50.22875],[-116.03494,50.22874],[-116.0348,50.22869]]}},
{"type":"Feature","properties":{"spotId":"F-deer-atv-0106","kind":"walk","km":0.19,"climbM":11,"name":"380 m NW of Whitetail Lake","flags":[]},"geometry":{"type":"LineString","coordinates":[[-116.0348,50.22869],[-116.03743,50.22869]]}},
{"type":"Feature","properties":{"spotId":"F-deer-drive-0010","kind":"walk","km":0.19,"climbM":9,"name":"470 m SE of Engstrom's Pond rec site","flags":[]},"geometry":{"type":"LineString","coordinates":[[-116.03596,50.12882],[-116.03508,50.13043]]}},
{"type":"Feature","properties":{"spotId":"F-deer-drive-0014","kind":"walk","km":0.28,"climbM":8,"name":"1.7 km W of Lavington Creek","flags":[]},"geometry":{"type":"LineString","coordinates":[[-116.01125,50.10153],[-116.0145,50.103]]}},
{"type":"Feature","properties":{"spotId":"F-deer-drive-0090","kind":"walk","km":0.23,"climbM":0,"name":"380 m E of Whitetail Lake","flags":[]},"geometry":{"type":"LineString","coordinates":[[-116.01159,50.20926],[-116.01104,50.20722]]}},
{"type":"Feature","properties":{"spotId":"F-deer-walk-0011","kind":"walk","km":0.66,"climbM":1,"name":"1.5 km SW of Findlay Creek","flags":[]},"geometry":{"type":"LineString","coordinates":[[-116.01151,50.10921],[-116.00674,50.10539],[-116.00664,50.10521],[-116.0066,50.10513],[-116.00644,50.10495],[-116.00605,50.10464],[-116.00597,50.10457],[-116.00591,50.10454]]}},
{"type":"Feature","properties":{"spotId":"F-deer-walk-0063","kind":"walk","km":0.38,"climbM":0,"name":"800 m SW of Deer Creek","flags":[]},"geometry":{"type":"LineString","coordinates":[[-116.02668,50.1544],[-116.02153,50.15374]]}},
{"type":"Feature","properties":{"spotId":"F-deer-walk-0080","kind":"walk","km":0.79,"climbM":5,"name":"300 m NW of Dutch Creek","flags":[]},"geometry":{"type":"LineString","coordinates":[[-116.03592,50.24748],[-116.03626,50.24038]]}},
{"type":"Feature","properties":{"spotId":"F-deer-walk-0090","kind":"walk","km":0.92,"climbM":25,"name":"By Doctor Creek","flags":[]},"geometry":{"type":"LineString","coordinates":[[-116.04346,50.12378],[-116.04339,50.12373],[-116.04287,50.12341],[-116.04282,50.12339],[-116.04274,50.12334],[-116.04263,50.12328],[-116.04211,50.12297],[-116.04185,50.12286],[-116.04102,50.12237],[-116.0407,50.12223],[-116.04035,50.12193],[-116.04009,50.12191],[-116.04005,50.1219],[-116.0398,50.12185],[-116.03961,50.1218],[-116.03937,50.12167],[-116.03928,50.12151],[-116.03944,50.12116],[-116.03909,50.12093],[-116.03886,50.12082],[-116.03823,50.12063],[-116.03809,50.12056],[-116.0379,50.12045],[-116.03762,50.1204],[-116.03755,50.12039],[-116.03761,50.12035],[-116.03772,50.12025],[-116.03785,50.12018],[-116.03644,50.11784]]}},
{"type":"Feature","properties":{"spotId":"F-deer-walk-0107","kind":"walk","km":0.83,"climbM":165,"name":"1.0 km NW of Doctor Creek","flags":[]},"geometry":{"type":"LineString","coordinates":[[-116.12567,50.09755],[-116.13119,50.09101]]}},
{"type":"Feature","properties":{"spotId":"F-deer-walk-0139","kind":"walk","km":0.79,"climbM":28,"name":"1.9 km W of Doctor Creek","flags":[]},"geometry":{"type":"LineString","coordinates":[[-116.14724,50.06631],[-116.15744,50.06359]]}},
{"type":"Feature","properties":{"spotId":"F-deer-walk-0175","kind":"walk","km":0.61,"climbM":180,"name":"460 m W of Valentine Creek","flags":[]},"geometry":{"type":"LineString","coordinates":[[-116.11244,50.16558],[-116.12008,50.16809]]}},
{"type":"Feature","properties":{"spotId":"F-duck-drive-0007","kind":"walk","km":0.05,"climbM":0,"name":"Unnamed wetland 410 m SW of Findlay Creek","flags":[]},"geometry":{"type":"LineString","coordinates":[[-116.04904,50.12203],[-116.04936,50.12242]]}},
{"type":"Feature","properties":{"spotId":"F-duck-drive-0101","kind":"walk","km":0.07,"climbM":0,"name":"Unnamed wetland 290 m S of Whitetail Lake","flags":["Route crosses private land (ParcelMap BC, updated 2026-09-26): get permission first or go around."]},"geometry":{"type":"LineString","coordinates":[[-116.01601,50.19139],[-116.0151,50.1914]]}},
{"type":"Feature","properties":{"spotId":"F-duck-drive-0108","kind":"walk","km":0.08,"climbM":0,"name":"Unnamed wetland by Whitetail Lake","flags":["Route crosses private land (ParcelMap BC, updated 2026-09-26): get permission first or go around."]},"geometry":{"type":"LineString","coordinates":[[-116.02005,50.19987],[-116.0191,50.20024]]}},
{"type":"Feature","properties":{"spotId":"F-duck-walk-0053","kind":"walk","km":0.47,"climbM":11,"name":"Unnamed wetland 2.9 km SE of Doctor Creek","flags":[]},"geometry":{"type":"LineString","coordinates":[[-116.02244,50.0767],[-116.02265,50.07665],[-116.0227,50.07664],[-116.02309,50.07664],[-116.02322,50.07667],[-116.02354,50.07684],[-116.02366,50.07691],[-116.0239,50.07706],[-116.02406,50.0772],[-116.02413,50.07724],[-116.02431,50.07737],[-116.02786,50.07597]]}},
{"type":"Feature","properties":{"spotId":"F-elk-atv-0024","kind":"ride","km":1.12,"climbM":4,"name":"1.9 km NE of Engstrom's Pond rec site","flags":[]},"geometry":{"type":"LineString","coordinates":[[-116.03003,50.15077],[-116.03001,50.15067],[-116.02998,50.15046],[-116.02997,50.15026],[-116.02995,50.15018],[-116.02995,50.15015],[-116.0299,50.15001],[-116.02989,50.14998],[-116.02988,50.14996],[-116.02978,50.1498],[-116.02977,50.14972],[-116.02976,50.14956],[-116.02972,50.14948],[-116.02969,50.14945],[-116.02956,50.14939],[-116.02944,50.14937],[-116.02934,50.14935],[-116.02926,50.14935],[-116.02895,50.14933],[-116.02871,50.14932],[-116.02863,50.14933],[-116.02859,50.14932],[-116.02849,50.14931],[-116.02821,50.14927],[-116.02789,50.14922],[-116.02769,50.14918],[-116.02758,50.14914],[-116.02744,50.14907],[-116.02732,50.14899],[-116.02724,50.14892],[-116.02706,50.14874],[-116.02693,50.14863],[-116.02715,50.14841],[-116.02718,50.14838],[-116.02749,50.148],[-116.02793,50.14771],[-116.02812,50.14758],[-116.02823,50.14745],[-116.02827,50.14713],[-116.02827,50.14707],[-116.02817,50.14694],[-116.02798,50.14688],[-116.02778,50.14681],[-116.02734,50.14655],[-116.0272,50.14642],[-116.02711,50.14628],[-116.0271,50.14605],[-116.02671,50.14583],[-116.02661,50.14573],[-116.02667,50.14561],[-116.02684,50.1455],[-116.02704,50.14532],[-116.02712,50.14516],[-116.02685,50.14533],[-116.02658,50.14547],[-116.02644,50.14554],[-116.02615,50.14562],[-116.02587,50.14569],[-116.02559,50.14579],[-116.02531,50.14587],[-116.02504,50.14596],[-116.02476,50.14605],[-116.02451,50.14616],[-116.02424,50.14626],[-116.02404,50.14631]]}},
{"type":"Feature","properties":{"spotId":"F-elk-atv-0024","kind":"walk","km":0.29,"climbM":30,"name":"1.9 km NE of Engstrom's Pond rec site","flags":[]},"geometry":{"type":"LineString","coordinates":[[-116.02404,50.14631],[-116.02556,50.14877]]}},
{"type":"Feature","properties":{"spotId":"F-elk-drive-0008","kind":"walk","km":0.16,"climbM":5,"name":"270 m NW of Doctor Creek","flags":[]},"geometry":{"type":"LineString","coordinates":[[-116.07095,50.08982],[-116.06908,50.08909]]}},
{"type":"Feature","properties":{"spotId":"F-elk-drive-0012","kind":"walk","km":0.22,"climbM":0,"name":"1.0 km W of Lavington Creek","flags":[]},"geometry":{"type":"LineString","coordinates":[[-116.00779,50.0974],[-116.00537,50.09866]]}},
{"type":"Feature","properties":{"spotId":"F-elk-drive-0022","kind":"walk","km":0.25,"climbM":3,"name":"450 m SW of Findlay Creek","flags":[]},"geometry":{"type":"LineString","coordinates":[[-116.07799,50.13024],[-116.07702,50.13242]]}},
{"type":"Feature","properties":{"spotId":"F-elk-walk-0007","kind":"walk","km":0.41,"climbM":10,"name":"2.9 km SE of Doctor Creek","flags":[]},"geometry":{"type":"LineString","coordinates":[[-116.02244,50.0767],[-116.02265,50.07665],[-116.0227,50.07664],[-116.02309,50.07664],[-116.02322,50.07667],[-116.02354,50.07684],[-116.02366,50.07691],[-116.0239,50.07706],[-116.02406,50.0772],[-116.02413,50.07724],[-116.02431,50.07737],[-116.02432,50.07739],[-116.0246,50.07755],[-116.02485,50.07778],[-116.02502,50.07793],[-116.02512,50.07807],[-116.02676,50.07874]]}},
{"type":"Feature","properties":{"spotId":"F-elk-walk-0036","kind":"walk","km":0.4,"climbM":3,"name":"1.0 km NW of Engstrom's Pond rec site","flags":[]},"geometry":{"type":"LineString","coordinates":[[-116.05678,50.13987],[-116.05171,50.1383]]}},
{"type":"Feature","properties":{"spotId":"F-elk-walk-0039","kind":"walk","km":0.35,"climbM":0,"name":"400 m NW of Whitetail Lake","flags":[]},"geometry":{"type":"LineString","coordinates":[[-116.047,50.22582],[-116.04219,50.22639]]}},
{"type":"Feature","properties":{"spotId":"F-grouse-atv-0002","kind":"ride","km":3.81,"climbM":57,"name":"By Doctor Creek","flags":[]},"geometry":{"type":"LineString","coordinates":[[-116.11577,50.08733],[-116.11557,50.08737],[-116.11544,50.08745],[-116.11526,50.08761],[-116.11509,50.08776],[-116.11478,50.08796],[-116.11469,50.08806],[-116.11447,50.08819],[-116.11425,50.08829],[-116.11414,50.08837],[-116.11386,50.08854],[-116.11353,50.08876],[-116.11331,50.08891],[-116.11325,50.08895],[-116.11308,50.08905],[-116.11281,50.08921],[-116.11273,50.08928],[-116.11242,50.0895],[-116.11226,50.08967],[-116.11207,50.08979],[-116.11191,50.08986],[-116.11178,50.08988],[-116.11165,50.08993],[-116.1115,50.08995],[-116.11132,50.08999],[-116.11119,50.09],[-116.11099,50.09002],[-116.11064,50.09006],[-116.1105,50.09009],[-116.11035,50.09013],[-116.11017,50.09021],[-116.10986,50.09027],[-116.10977,50.0903],[-116.10965,50.09031],[-116.10937,50.09036],[-116.10904,50.09045],[-116.10887,50.09052],[-116.10866,50.09057],[-116.10849,50.09058],[-116.10831,50.09062],[-116.10805,50.09069],[-116.10774,50.0907],[-116.1074,50.0907],[-116.10698,50.0907],[-116.1069,50.09071],[-116.1061,50.0907],[-116.10598,50.09071],[-116.10568,50.09071],[-116.10533,50.09071],[-116.10514,50.09071],[-116.10491,50.09073],[-116.10466,50.09077],[-116.10439,50.09086],[-116.10407,50.09093],[-116.10394,50.09094],[-116.10393,50.09094],[-116.10365,50.09093],[-116.10344,50.09094],[-116.1029,50.09094],[-116.10264,50.09094],[-116.10235,50.09094],[-116.10214,50.09095],[-116.10174,50.09095],[-116.10171,50.09096],[-116.10165,50.09097],[-116.1015,50.09105],[-116.10138,50.09111],[-116.1012,50.09125],[-116.10109,50.0913],[-116.10095,50.09135],[-116.10075,50.09138],[-116.10046,50.09138],[-116.10032,50.09136],[-116.10008,50.09134],[-116.0999,50.09134],[-116.0996,50.09132],[-116.09934,50.0913],[-116.09918,50.0913],[-116.09864,50.0913],[-116.09853,50.09131],[-116.09762,50.0913],[-116.09727,50.09127],[-116.0972,50.09125],[-116.09716,50.09123],[-116.09684,50.09106],[-116.09678,50.09104],[-116.09655,50.09103],[-116.09621,50.09102],[-116.09595,50.09097],[-116.09589,50.09096],[-116.09584,50.09095],[-116.09568,50.09091],[-116.0954,50.09085],[-116.09522,50.09083],[-116.09489,50.09079],[-116.09405,50.09078],[-116.0937,50.09079],[-116.09341,50.09078],[-116.09315,50.09079],[-116.09307,50.0908],[-116.0928,50.09082],[-116.09266,50.09082],[-116.09232,50.09083],[-116.09213,50.09081],[-116.09197,50.09074],[-116.09191,50.09073],[-116.09173,50.09072],[-116.09166,50.09073],[-116.09163,50.09072],[-116.09137,50.09074],[-116.09113,50.09077],[-116.09097,50.09081],[-116.09074,50.09081],[-116.09068,50.09082],[-116.0906,50.0908],[-116.09025,50.09073],[-116.09007,50.09064],[-116.08983,50.09049],[-116.08976,50.09046],[-116.08968,50.09043],[-116.08962,50.09042],[-116.0894,50.09042],[-116.08904,50.09043],[-116.08867,50.0904],[-116.08862,50.09039],[-116.08835,50.09033],[-116.08819,50.09027],[-116.08808,50.09024],[-116.08774,50.09014],[-116.08733,50.09004],[-116.08698,50.08991],[-116.08687,50.08987],[-116.08653,50.08977],[-116.08634,50.08972],[-116.08599,50.08956],[-116.0859,50.08953],[-116.08556,50.08944],[-116.0853,50.08936],[-116.08507,50.08929],[-116.08475,50.0892],[-116.08449,50.08914],[-116.08434,50.0891],[-116.08425,50.08907],[-116.08398,50.08898],[-116.0838,50.08893],[-116.08367,50.08889],[-116.08334,50.08873],[-116.08305,50.08859],[-116.08276,50.08851],[-116.08243,50.08844],[-116.08237,50.08841],[-116.08206,50.08836],[-116.08195,50.0883],[-116.0818,50.08807],[-116.08172,50.08803],[-116.08148,50.08794],[-116.08147,50.08793],[-116.08127,50.0878],[-116.08102,50.08772],[-116.08068,50.08761],[-116.08048,50.08755],[-116.08019,50.08738],[-116.08007,50.0873],[-116.07984,50.08719],[-116.07959,50.08711],[-116.07937,50.08708],[-116.07914,50.08701],[-116.07894,50.08695],[-116.07868,50.08684],[-116.07862,50.08682],[-116.07836,50.08665],[-116.07812,50.08653],[-116.07808,50.08652],[-116.07782,50.08651],[-116.07776,50.0865],[-116.07746,50.08636],[-116.07717,50.08624],[-116.07704,50.08618],[-116.07687,50.08617],[-116.0767,50.08622],[-116.07648,50.08622],[-116.07624,50.08618],[-116.07598,50.08607],[-116.07584,50.086],[-116.07565,50.08591],[-116.07533,50.08579],[-116.075,50.08566],[-116.07481,50.08561],[-116.07451,50.08555],[-116.07447,50.08555],[-116.07441,50.08554],[-116.0741,50.08554],[-116.07387,50.08553],[-116.07374,50.08553],[-116.07342,50.0855],[-116.07308,50.08545],[-116.07286,50.08543],[-116.07255,50.08542],[-116.07229,50.08542],[-116.07218,50.08541],[-116.072,50.08539],[-116.07186,50.08534],[-116.07169,50.0853],[-116.07159,50.08529],[-116.07152,50.08528],[-116.07145,50.08528],[-116.0711,50.08521],[-116.07102,50.08519],[-116.07087,50.08514],[-116.07069,50.08504],[-116.07034,50.08491],[-116.07031,50.0849],[-116.0703,50.0849],[-116.07004,50.08473],[-116.0699,50.08465],[-116.06976,50.08455],[-116.06964,50.0845],[-116.06935,50.0843],[-116.06921,50.0842],[-116.0691,50.08412],[-116.06892,50.08405],[-116.06862,50.08405],[-116.06844,50.08406],[-116.06825,50.08413]]}},
{"type":"Feature","properties":{"spotId":"F-grouse-atv-0005","kind":"walk","km":0.3,"climbM":0,"name":"220 m N of Findlay Creek","flags":[]},"geometry":{"type":"LineString","coordinates":[[-116.0969,50.1519],[-116.09683,50.14919]]}},
{"type":"Feature","properties":{"spotId":"F-grouse-atv-0005","kind":"ride","km":4.97,"climbM":140,"name":"220 m N of Findlay Creek","flags":[]},"geometry":{"type":"LineString","coordinates":[[-116.09683,50.14919],[-116.09778,50.14922],[-116.09793,50.14926],[-116.09843,50.14945],[-116.09879,50.14973],[-116.0989,50.14981],[-116.09895,50.14986],[-116.0992,50.15012],[-116.09928,50.1502],[-116.09971,50.15062],[-116.09991,50.1509],[-116.10015,50.15104],[-116.10025,50.15109],[-116.10063,50.15128],[-116.10099,50.15146],[-116.10147,50.15165],[-116.10191,50.15181],[-116.10227,50.15207],[-116.10235,50.15214],[-116.10248,50.15226],[-116.10263,50.15238],[-116.10285,50.15261],[-116.10298,50.15304],[-116.1032,50.15333],[-116.10334,50.15345],[-116.10368,50.15368],[-116.10411,50.1539],[-116.10449,50.15412],[-116.10472,50.15426],[-116.105,50.15445],[-116.10509,50.15452],[-116.10542,50.15483],[-116.1056,50.1551],[-116.10568,50.15521],[-116.10597,50.15558],[-116.1061,50.1559],[-116.10633,50.15634],[-116.1065,50.15657],[-116.10672,50.15661],[-116.10728,50.15658],[-116.10746,50.15658],[-116.10773,50.15659],[-116.10794,50.15661],[-116.10901,50.15703],[-116.1095,50.15718],[-116.10958,50.15723],[-116.11012,50.15752],[-116.11065,50.15775],[-116.11098,50.15785],[-116.11168,50.15785],[-116.11226,50.15775],[-116.11247,50.15775],[-116.11304,50.15775],[-116.11335,50.15783],[-116.11396,50.1579],[-116.1141,50.15798],[-116.11425,50.15817],[-116.11436,50.15842],[-116.11458,50.15869],[-116.11482,50.15917],[-116.1151,50.15939],[-116.11521,50.15946],[-116.11529,50.15951],[-116.1158,50.15952],[-116.11603,50.15947],[-116.11655,50.15942],[-116.11668,50.15942],[-116.117,50.15941],[-116.11717,50.15946],[-116.11732,50.15956],[-116.1178,50.15996],[-116.11798,50.16007],[-116.11829,50.16012],[-116.11931,50.16014],[-116.11984,50.16013],[-116.11994,50.16016],[-116.12007,50.16019],[-116.12057,50.16047],[-116.1207,50.16062],[-116.12083,50.16078],[-116.12105,50.16096],[-116.12132,50.16125],[-116.12167,50.16149],[-116.12246,50.16186],[-116.12275,50.16195],[-116.12286,50.16196],[-116.12296,50.16197],[-116.12313,50.16198],[-116.12349,50.1621],[-116.12391,50.16209],[-116.12425,50.16198],[-116.12506,50.16185],[-116.1266,50.16214],[-116.12731,50.16244],[-116.12863,50.16275],[-116.12894,50.1628],[-116.12913,50.16283],[-116.12991,50.16302],[-116.13022,50.16317],[-116.13094,50.16353],[-116.13138,50.16381],[-116.13155,50.16399],[-116.1319,50.16417],[-116.1321,50.16434],[-116.13231,50.16451],[-116.13264,50.16464],[-116.13321,50.16488],[-116.13341,50.16497],[-116.13366,50.16503],[-116.13401,50.16506],[-116.13458,50.16496],[-116.13492,50.16491],[-116.13573,50.16491],[-116.13604,50.16489],[-116.13618,50.16488],[-116.13671,50.1648],[-116.13718,50.16464],[-116.13732,50.16458],[-116.13746,50.16456],[-116.13824,50.16457],[-116.1384,50.16463],[-116.13851,50.16469],[-116.13862,50.16479],[-116.13874,50.16499],[-116.13891,50.16518],[-116.13915,50.16543],[-116.13926,50.16563],[-116.1394,50.16581],[-116.13952,50.16599],[-116.13969,50.16619],[-116.13975,50.16626],[-116.13992,50.16643],[-116.14011,50.16668],[-116.14085,50.16747],[-116.14118,50.1677],[-116.14161,50.16796],[-116.14179,50.16811],[-116.14193,50.16832],[-116.14206,50.16876],[-116.14218,50.16902],[-116.14244,50.16941],[-116.14276,50.16982],[-116.14321,50.17035],[-116.14347,50.17058],[-116.14378,50.17083],[-116.14401,50.17094],[-116.14429,50.17103],[-116.14444,50.17106],[-116.145,50.17117],[-116.14566,50.17111],[-116.146,50.17111],[-116.14621,50.17116],[-116.14642,50.17119],[-116.14669,50.17129],[-116.14693,50.17144],[-116.14704,50.1715],[-116.14793,50.17201],[-116.14804,50.17204]]}},
{"type":"Feature","properties":{"spotId":"F-grouse-drive-0004","kind":"roadside","km":4.4,"climbM":3,"name":"160 m S of Doctor Creek","flags":[]},"geometry":{"type":"LineString","coordinates":[[-116.16935,50.03317],[-116.16921,50.03331],[-116.16898,50.03353],[-116.16892,50.03357],[-116.16877,50.03377],[-116.16872,50.03381],[-116.16867,50.03385],[-116.16858,50.03394],[-116.16837,50.03408],[-116.16816,50.03418],[-116.16786,50.03429],[-116.16778,50.03432],[-116.16767,50.03437],[-116.16734,50.03447],[-116.1672,50.03451],[-116.16694,50.03464],[-116.16689,50.03466],[-116.16672,50.03477],[-116.16648,50.03499],[-116.16627,50.03517],[-116.16596,50.03537],[-116.16566,50.03551],[-116.16536,50.03559],[-116.16524,50.03563],[-116.16513,50.03568],[-116.16479,50.0358],[-116.16471,50.03582],[-116.16461,50.03588],[-116.16443,50.03597],[-116.16434,50.03603],[-116.16412,50.03615],[-116.16395,50.03621],[-116.16375,50.03623],[-116.16354,50.03624],[-116.16343,50.03626],[-116.1633,50.0363],[-116.16295,50.03643],[-116.1626,50.03654],[-116.16229,50.03657],[-116.1621,50.03659],[-116.16176,50.03659],[-116.16157,50.0366],[-116.16134,50.03667],[-116.16122,50.03673],[-116.16088,50.03695],[-116.16064,50.03708],[-116.16057,50.03713],[-116.16047,50.03718],[-116.16017,50.03729],[-116.15985,50.03742],[-116.15974,50.03746],[-116.15946,50.03756],[-116.15922,50.03765],[-116.15892,50.03778],[-116.15881,50.03783],[-116.15848,50.03802],[-116.15822,50.03819],[-116.15805,50.03826],[-116.15779,50.03841],[-116.1575,50.03855],[-116.15741,50.0386],[-116.15713,50.03872],[-116.15689,50.03884],[-116.15684,50.03887],[-116.15661,50.03899],[-116.1566,50.03899],[-116.15624,50.03919],[-116.156,50.03932],[-116.15598,50.03936],[-116.15576,50.03946],[-116.15551,50.03953],[-116.15523,50.03955],[-116.15492,50.03959],[-116.15484,50.03961],[-116.15455,50.03964],[-116.1542,50.03964],[-116.1539,50.03964],[-116.15381,50.03965],[-116.15318,50.03964],[-116.15283,50.03965],[-116.15255,50.03965],[-116.15232,50.03968],[-116.15209,50.03981],[-116.15201,50.03986],[-116.15184,50.03998],[-116.15162,50.04015],[-116.15153,50.04021],[-116.15128,50.04036],[-116.15103,50.04047],[-116.15072,50.04061],[-116.15053,50.04065],[-116.15022,50.04076],[-116.14997,50.04089],[-116.14982,50.04094],[-116.14948,50.04099],[-116.14945,50.041],[-116.14944,50.041],[-116.1493,50.041],[-116.14896,50.041],[-116.1488,50.041],[-116.14868,50.04099],[-116.14866,50.041],[-116.14853,50.041],[-116.14842,50.04101],[-116.14832,50.04105],[-116.14819,50.04109],[-116.14797,50.0412],[-116.14786,50.04127],[-116.14773,50.04135],[-116.14742,50.04151],[-116.14721,50.04158],[-116.14696,50.04163],[-116.14662,50.04167],[-116.14655,50.04168],[-116.1462,50.04169],[-116.14609,50.04169],[-116.146,50.0417],[-116.14586,50.0417],[-116.14582,50.0417],[-116.14574,50.04172],[-116.14547,50.04184],[-116.14515,50.04202],[-116.14486,50.04221],[-116.14482,50.04224],[-116.14461,50.04237],[-116.14434,50.04252],[-116.14417,50.04259],[-116.14384,50.04271],[-116.14354,50.04279],[-116.14327,50.04285],[-116.14281,50.04294],[-116.14256,50.04302],[-116.14228,50.04314],[-116.14195,50.04328],[-116.14184,50.04333],[-116.14153,50.04343],[-116.14132,50.04351],[-116.14107,50.04358],[-116.14084,50.04365],[-116.14065,50.04375],[-116.14045,50.0439],[-116.14024,50.0441],[-116.14021,50.04413],[-116.14008,50.04424],[-116.13991,50.04446],[-116.13988,50.04448],[-116.13974,50.04455],[-116.13961,50.04456],[-116.1393,50.04465],[-116.13909,50.0447],[-116.13892,50.04478],[-116.13876,50.04484],[-116.13857,50.04494],[-116.13843,50.04504],[-116.13815,50.04518],[-116.13791,50.0453],[-116.13774,50.0454],[-116.13764,50.04557],[-116.13724,50.04598],[-116.13703,50.04618],[-116.13699,50.04622],[-116.13687,50.04635],[-116.1367,50.04653],[-116.13656,50.04664],[-116.13643,50.04678],[-116.13627,50.04699],[-116.13617,50.04712],[-116.13609,50.04719],[-116.13593,50.04738],[-116.13584,50.04753],[-116.1357,50.04771],[-116.13554,50.04792],[-116.13552,50.04796],[-116.13539,50.0481],[-116.13529,50.04822],[-116.13515,50.04835],[-116.13506,50.04853],[-116.13499,50.04868],[-116.13487,50.04891],[-116.13483,50.04903],[-116.1347,50.04924],[-116.13459,50.04939],[-116.1345,50.04957],[-116.13431,50.04979],[-116.13424,50.04989],[-116.13418,50.04999],[-116.13407,50.05018],[-116.13404,50.05022],[-116.13391,50.0504],[-116.13385,50.05047],[-116.13376,50.05066],[-116.13369,50.05084],[-116.13365,50.05092],[-116.13355,50.05107],[-116.13345,50.05124],[-116.13334,50.05141],[-116.13327,50.05151],[-116.13323,50.05168],[-116.13317,50.05183],[-116.13315,50.05189],[-116.13312,50.05197],[-116.13308,50.05205],[-116.13304,50.05216],[-116.13299,50.05225],[-116.13291,50.0524],[-116.13278,50.05259],[-116.1327,50.0528],[-116.1327,50.05286],[-116.13263,50.05306],[-116.13259,50.05316],[-116.13251,50.05326],[-116.13249,50.05331],[-116.13232,50.05348],[-116.13229,50.0535],[-116.13223,50.05355],[-116.13209,50.05366],[-116.1319,50.05379],[-116.13179,50.05389],[-116.13166,50.05411],[-116.1315,50.05429],[-116.13133,50.05448],[-116.13119,50.05465],[-116.13108,50.05481],[-116.13105,50.05485],[-116.13103,50.05487],[-116.1309,50.05504],[-116.13079,50.05521],[-116.13067,50.05542],[-116.13059,50.05557],[-116.13053,50.05567],[-116.13046,50.05585],[-116.13041,50.056],[-116.13031,50.05619],[-116.13024,50.0563],[-116.13015,50.0565],[-116.13012,50.05656],[-116.13006,50.05671],[-116.13004,50.05678],[-116.12999,50.05692],[-116.12996,50.05704],[-116.12994,50.05718],[-116.12994,50.05725],[-116.12995,50.05744],[-116.12995,50.05765],[-116.12999,50.05787],[-116.13001,50.05797],[-116.13005,50.05806],[-116.13015,50.05824],[-116.13023,50.05845],[-116.13025,50.05866],[-116.13026,50.05878],[-116.13026,50.05904],[-116.13023,50.05913]]}},
{"type":"Feature","properties":{"spotId":"F-grouse-drive-0065","kind":"roadside","km":4.4,"climbM":186,"name":"By Findlay Creek","flags":[]},"geometry":{"type":"LineString","coordinates":[[-116.04248,50.12708],[-116.04266,50.12708],[-116.04285,50.12701],[-116.0432,50.12696],[-116.04349,50.12687],[-116.04375,50.12672],[-116.04382,50.12663],[-116.04376,50.12654],[-116.04375,50.1265],[-116.04374,50.12648],[-116.04371,50.12639],[-116.0437,50.12636],[-116.04368,50.12634],[-116.04359,50.12617],[-116.04351,50.12606],[-116.04347,50.12594],[-116.04349,50.12564],[-116.04349,50.12548],[-116.04344,50.12503],[-116.0434,50.12493],[-116.04338,50.12485],[-116.04333,50.12461],[-116.04335,50.12418],[-116.04344,50.1238],[-116.04346,50.12378],[-116.0435,50.12371],[-116.04358,50.12366],[-116.04387,50.12354],[-116.04419,50.12344],[-116.04465,50.12338],[-116.04536,50.1234],[-116.04604,50.12342],[-116.0464,50.12342],[-116.04671,50.12327],[-116.04698,50.12308],[-116.04746,50.12275],[-116.04787,50.12246],[-116.04817,50.12233],[-116.04834,50.12224],[-116.04855,50.12214],[-116.04899,50.12204],[-116.04914,50.12199],[-116.04931,50.12193],[-116.04971,50.12174],[-116.04974,50.12173],[-116.05023,50.12155],[-116.05074,50.1211],[-116.05121,50.12074],[-116.05128,50.12068],[-116.05152,50.12045],[-116.05198,50.12011],[-116.05225,50.11992],[-116.05229,50.11983],[-116.05231,50.11971],[-116.05231,50.11969],[-116.05216,50.11945],[-116.05184,50.11911],[-116.05147,50.11868],[-116.05116,50.11843],[-116.05094,50.11828],[-116.0508,50.11819],[-116.05027,50.11792],[-116.04987,50.11764],[-116.04961,50.11756],[-116.04901,50.11731],[-116.04862,50.1171],[-116.04811,50.11681],[-116.04788,50.11664],[-116.04752,50.11638],[-116.04722,50.11607],[-116.04683,50.11567],[-116.04664,50.11553],[-116.04652,50.1154],[-116.04643,50.11512],[-116.04626,50.11499],[-116.04608,50.1149],[-116.04604,50.11475],[-116.04604,50.11474],[-116.04611,50.11464],[-116.0465,50.11473],[-116.0467,50.11476],[-116.04705,50.11488],[-116.04748,50.11497],[-116.04774,50.11509],[-116.04881,50.11554],[-116.04916,50.11566],[-116.04981,50.11596],[-116.04998,50.116],[-116.05027,50.11611],[-116.05064,50.1163],[-116.05086,50.11634],[-116.05091,50.11634],[-116.05139,50.11635],[-116.05157,50.11623],[-116.05161,50.11617],[-116.05163,50.11594],[-116.05158,50.1157],[-116.05148,50.11535],[-116.05151,50.11498],[-116.05173,50.11436],[-116.05184,50.1142],[-116.05212,50.1137],[-116.05215,50.11337],[-116.05194,50.113],[-116.05182,50.11277],[-116.05196,50.11248],[-116.05204,50.11226],[-116.05207,50.11192],[-116.05212,50.11154],[-116.05231,50.11125],[-116.05297,50.11034],[-116.05337,50.10994],[-116.05368,50.1097],[-116.05372,50.10967],[-116.05387,50.10939],[-116.05447,50.10877],[-116.0546,50.10855],[-116.05475,50.10843],[-116.0549,50.10835],[-116.05518,50.10808],[-116.05549,50.10796],[-116.05567,50.1079],[-116.0559,50.10783],[-116.05637,50.10783],[-116.05684,50.10781],[-116.05715,50.10768],[-116.05741,50.10757],[-116.05761,50.10742],[-116.05767,50.10738],[-116.05773,50.10725],[-116.05783,50.10708],[-116.05817,50.10658],[-116.05835,50.10623],[-116.05854,50.10601],[-116.05881,50.10563],[-116.05902,50.10545],[-116.05931,50.10524],[-116.05979,50.10503],[-116.06017,50.10481],[-116.06027,50.10476],[-116.06089,50.10444],[-116.06143,50.1041],[-116.06157,50.10401],[-116.06183,50.10365],[-116.06214,50.1033],[-116.06219,50.10307],[-116.06226,50.10295],[-116.06242,50.10261],[-116.06246,50.10216],[-116.0625,50.10159]]}},
{"type":"Feature","properties":{"spotId":"F-grouse-walk-0020","kind":"walk","km":0.92,"climbM":7,"name":"1.3 km SE of Doctor Creek","flags":[]},"geometry":{"type":"LineString","coordinates":[[-116.03134,50.09108],[-116.04341,50.08827]]}},
{"type":"Feature","properties":{"spotId":"F-grouse-walk-0020","kind":"roadside","km":3.1,"climbM":213,"name":"1.3 km SE of Doctor Creek","flags":[]},"geometry":{"type":"LineString","coordinates":[[-116.04341,50.08827],[-116.04318,50.08786],[-116.04304,50.08767],[-116.04303,50.08761],[-116.04296,50.0874],[-116.04278,50.087],[-116.04265,50.08679],[-116.04255,50.08658],[-116.04248,50.08646],[-116.04239,50.08627],[-116.04232,50.08609],[-116.04227,50.08588],[-116.04219,50.0857],[-116.04209,50.08554],[-116.04204,50.08546],[-116.04192,50.08527],[-116.04174,50.08509],[-116.04157,50.08493],[-116.04142,50.08475],[-116.04125,50.08455],[-116.04114,50.08444],[-116.04096,50.08425],[-116.04084,50.08406],[-116.04077,50.08388],[-116.04073,50.08366],[-116.04067,50.08345],[-116.04058,50.08333],[-116.04046,50.08314],[-116.04042,50.08303],[-116.04037,50.08293],[-116.04029,50.08271],[-116.04018,50.08251],[-116.04007,50.0823],[-116.03992,50.08208],[-116.03984,50.08197],[-116.03973,50.0818],[-116.03971,50.08173],[-116.03963,50.08153],[-116.0396,50.08133],[-116.03962,50.08127],[-116.03968,50.08114],[-116.03993,50.08101],[-116.04013,50.08092],[-116.0403,50.08085],[-116.04061,50.08077],[-116.04079,50.08067],[-116.04088,50.08058],[-116.04092,50.08046],[-116.04092,50.08045],[-116.041,50.08026],[-116.04104,50.08021],[-116.04115,50.08008],[-116.04134,50.07993],[-116.04159,50.07977],[-116.04183,50.07963],[-116.0421,50.07951],[-116.04238,50.07939],[-116.04261,50.07931],[-116.04268,50.07929],[-116.04297,50.07918],[-116.04326,50.07909],[-116.04358,50.07901],[-116.04385,50.07891],[-116.04413,50.07878],[-116.04433,50.07862],[-116.04453,50.07846],[-116.04472,50.07832],[-116.04496,50.07816],[-116.04515,50.07801],[-116.04538,50.07786],[-116.04545,50.07782],[-116.04565,50.07766],[-116.04586,50.07751],[-116.0461,50.07734],[-116.04626,50.07723],[-116.04648,50.07704],[-116.04663,50.07687],[-116.04678,50.07668],[-116.04695,50.07652],[-116.0471,50.07644],[-116.04724,50.07639],[-116.04745,50.07633],[-116.04774,50.07627],[-116.04804,50.07622],[-116.04812,50.07619],[-116.0482,50.07619],[-116.04841,50.07615],[-116.0485,50.07611],[-116.04858,50.07603],[-116.04863,50.07598],[-116.04869,50.07577],[-116.0487,50.07565],[-116.04869,50.07545],[-116.04868,50.07524],[-116.0487,50.07504],[-116.04875,50.07482],[-116.04872,50.07461],[-116.04871,50.07441],[-116.04879,50.0742],[-116.04899,50.07403],[-116.04917,50.07384],[-116.04934,50.07367],[-116.04956,50.07351],[-116.04978,50.07334],[-116.04994,50.07316],[-116.05008,50.07297],[-116.05024,50.07279],[-116.05037,50.07259],[-116.05047,50.07247],[-116.05047,50.07244],[-116.05052,50.07237],[-116.05056,50.07216],[-116.05055,50.07206],[-116.05047,50.07195],[-116.05036,50.07185],[-116.05003,50.07163],[-116.04982,50.0715],[-116.04929,50.07123],[-116.04921,50.07115],[-116.04907,50.07109],[-116.04887,50.07094],[-116.04869,50.07076],[-116.04848,50.0706],[-116.04829,50.07045],[-116.04808,50.07032],[-116.04799,50.07022],[-116.04785,50.07002],[-116.04773,50.06993],[-116.04763,50.06979],[-116.04755,50.06972],[-116.04744,50.06967],[-116.04731,50.06963],[-116.04705,50.06949],[-116.04684,50.06935],[-116.04665,50.06917],[-116.04657,50.06908],[-116.04649,50.06898],[-116.04639,50.06879],[-116.04633,50.06858],[-116.04633,50.06837],[-116.04639,50.0682],[-116.04647,50.068],[-116.04657,50.06779],[-116.04657,50.0677],[-116.04655,50.06748],[-116.04648,50.06728],[-116.0464,50.06708],[-116.04636,50.06698],[-116.04635,50.0669],[-116.04632,50.06679],[-116.04624,50.0666],[-116.04611,50.06641],[-116.04596,50.06622],[-116.04585,50.06609],[-116.04571,50.06592],[-116.0456,50.06583],[-116.04537,50.06569],[-116.0451,50.06557],[-116.04495,50.06547]]}},
{"type":"Feature","properties":{"spotId":"F-grouse-walk-0030","kind":"roadside","km":5.16,"climbM":372,"name":"160 m S of Doctor Creek","flags":[]},"geometry":{"type":"LineString","coordinates":[[-116.16935,50.03317],[-116.16939,50.03314],[-116.16969,50.03297],[-116.16991,50.03287],[-116.17019,50.03274],[-116.17052,50.03266],[-116.17067,50.03264],[-116.17083,50.03257],[-116.17084,50.03255],[-116.17098,50.03251],[-116.17108,50.03251],[-116.1713,50.0325],[-116.1715,50.0325],[-116.1718,50.0325],[-116.17199,50.03249],[-116.17219,50.03253],[-116.17228,50.03254],[-116.1724,50.03258],[-116.17247,50.03259],[-116.17267,50.03259],[-116.17282,50.03255],[-116.17298,50.03249],[-116.17308,50.03243],[-116.17341,50.03223],[-116.1735,50.0322],[-116.17382,50.03208],[-116.17396,50.032],[-116.174,50.03201],[-116.17417,50.03202],[-116.17432,50.03206],[-116.17438,50.03211],[-116.17449,50.03215],[-116.17464,50.03226],[-116.17477,50.0324],[-116.17494,50.03259],[-116.17501,50.03261],[-116.17504,50.03261],[-116.17513,50.03261],[-116.17535,50.03253],[-116.17548,50.03247],[-116.17558,50.0324],[-116.17577,50.03226],[-116.17582,50.03223],[-116.17594,50.03211],[-116.17606,50.03204],[-116.1764,50.03183],[-116.17668,50.03165],[-116.17675,50.03161],[-116.17706,50.03144],[-116.17726,50.03126],[-116.17731,50.03121],[-116.17747,50.03108],[-116.17775,50.03093],[-116.17781,50.03088],[-116.17782,50.03086],[-116.17809,50.03068],[-116.17837,50.03052],[-116.17864,50.03029],[-116.17883,50.03018],[-116.17902,50.03006],[-116.17911,50.03002],[-116.17919,50.02994],[-116.17929,50.02987],[-116.17933,50.02983],[-116.17955,50.02964],[-116.17984,50.02946],[-116.17988,50.02944],[-116.18029,50.02944],[-116.18058,50.02952],[-116.18073,50.02955],[-116.18083,50.02955],[-116.18118,50.02955],[-116.18127,50.02954],[-116.18141,50.02951],[-116.18155,50.02945],[-116.18159,50.02943],[-116.18207,50.02929],[-116.18222,50.0292],[-116.18225,50.02919],[-116.18233,50.02917],[-116.18252,50.02906],[-116.18274,50.02895],[-116.18291,50.0289],[-116.18306,50.02889],[-116.18354,50.0289],[-116.18408,50.0289],[-116.18429,50.02893],[-116.18458,50.02894],[-116.18461,50.02894],[-116.18479,50.02895],[-116.18548,50.02896],[-116.18581,50.02895],[-116.18622,50.02895],[-116.18634,50.02896],[-116.18713,50.02897],[-116.18718,50.02898],[-116.18726,50.02897],[-116.18747,50.02897],[-116.1878,50.02896],[-116.18824,50.02897],[-116.18842,50.02896],[-116.18943,50.02897],[-116.18978,50.02898],[-116.1899,50.02899],[-116.18996,50.02899],[-116.19053,50.02899],[-116.19082,50.02904],[-116.19112,50.02911],[-116.19127,50.02914],[-116.19152,50.02915],[-116.19172,50.02915],[-116.19183,50.02915],[-116.19212,50.02916],[-116.19243,50.02921],[-116.19254,50.02921],[-116.19282,50.02919],[-116.19308,50.02915],[-116.19335,50.0291],[-116.19348,50.02908],[-116.19378,50.02907],[-116.19422,50.02907],[-116.19429,50.02907],[-116.19458,50.02906],[-116.19491,50.02906],[-116.19518,50.02905],[-116.1955,50.02902],[-116.19573,50.02898],[-116.19587,50.02897],[-116.19613,50.0289],[-116.1964,50.02885],[-116.19668,50.02876],[-116.19675,50.02874],[-116.19685,50.0287],[-116.19717,50.02863],[-116.19735,50.02862],[-116.19781,50.02862],[-116.19799,50.02863],[-116.19831,50.02861],[-116.19843,50.02861],[-116.19867,50.02854],[-116.19874,50.02853],[-116.199,50.02841],[-116.19918,50.02835],[-116.19939,50.02831],[-116.19969,50.02819],[-116.19984,50.02815],[-116.19987,50.02815],[-116.2,50.02814],[-116.20025,50.02811],[-116.20047,50.02808],[-116.20078,50.02807],[-116.20089,50.02807],[-116.20106,50.02808],[-116.20125,50.02812],[-116.20138,50.02813],[-116.20153,50.02813],[-116.20165,50.02812],[-116.20174,50.02808],[-116.20186,50.02802],[-116.20189,50.02798],[-116.20196,50.02789],[-116.20213,50.02773],[-116.2023,50.02768],[-116.20265,50.02764],[-116.20293,50.02754],[-116.20314,50.02743],[-116.20332,50.02726],[-116.20345,50.02709],[-116.20348,50.02705],[-116.20359,50.027],[-116.20366,50.02698],[-116.20377,50.02696],[-116.20411,50.02695],[-116.20414,50.02695],[-116.20428,50.02693],[-116.20456,50.02692],[-116.20468,50.02692],[-116.20491,50.02678],[-116.20522,50.02666],[-116.20557,50.02665],[-116.20568,50.02665],[-116.20587,50.02667],[-116.20594,50.0267],[-116.206,50.02671],[-116.20624,50.02694],[-116.20641,50.02706],[-116.20649,50.02709],[-116.20665,50.02717],[-116.20695,50.02717],[-116.20727,50.02716],[-116.20736,50.02716],[-116.2075,50.02719],[-116.20755,50.02721],[-116.20759,50.02728],[-116.20776,50.02744],[-116.20788,50.02747],[-116.20793,50.02747],[-116.20837,50.02733],[-116.20856,50.02726],[-116.2087,50.02718],[-116.20875,50.02717],[-116.20914,50.02718],[-116.20927,50.02714],[-116.20941,50.02713],[-116.21004,50.02714],[-116.21036,50.0272],[-116.21069,50.0273],[-116.21086,50.02734],[-116.21115,50.0275],[-116.21134,50.02761],[-116.2115,50.02767],[-116.21165,50.02772],[-116.21187,50.02771],[-116.21242,50.02771],[-116.21252,50.0277],[-116.21314,50.02771],[-116.21345,50.02769],[-116.21398,50.0277],[-116.21409,50.02769],[-116.21415,50.02759],[-116.21429,50.02752],[-116.21445,50.02745],[-116.21449,50.02743],[-116.21496,50.02743],[-116.2151,50.02742],[-116.21513,50.02742],[-116.21526,50.02729],[-116.21548,50.02721],[-116.21568,50.02719],[-116.21581,50.02714],[-116.21611,50.027],[-116.21623,50.02696],[-116.21638,50.02688],[-116.21649,50.0268],[-116.21658,50.02673],[-116.21664,50.02664],[-116.21667,50.02661],[-116.21679,50.02651],[-116.21696,50.02643],[-116.21731,50.02636],[-116.21742,50.02633],[-116.21782,50.0262],[-116.21797,50.02614],[-116.2182,50.026],[-116.21832,50.02594],[-116.21844,50.02589],[-116.21853,50.02586],[-116.21867,50.02585],[-116.21879,50.02588],[-116.21887,50.02587],[-116.21901,50.0258],[-116.21921,50.02564],[-116.21926,50.0256],[-116.21948,50.02546],[-116.21959,50.02542],[-116.21964,50.02542],[-116.21995,50.02547],[-116.22019,50.02551],[-116.2203,50.02553],[-116.22035,50.02554],[-116.22069,50.02547],[-116.2209,50.02541],[-116.22099,50.02535],[-116.22104,50.02531],[-116.22103,50.02522],[-116.22103,50.0252],[-116.22106,50.02517],[-116.22124,50.02515],[-116.22131,50.02514],[-116.22158,50.02505],[-116.22187,50.02496],[-116.22191,50.02495],[-116.2222,50.02478],[-116.22253,50.02458],[-116.22282,50.0244],[-116.22301,50.02427],[-116.2232,50.02417],[-116.22338,50.02412],[-116.22369,50.02411],[-116.22381,50.02411],[-116.22388,50.0241],[-116.22405,50.02403],[-116.2243,50.02384],[-116.22447,50.0237],[-116.22477,50.02356],[-116.22508,50.02341],[-116.22525,50.02333],[-116.2254,50.02321],[-116.22567,50.02301],[-116.22574,50.02295],[-116.22591,50.02273],[-116.22596,50.02268],[-116.22601,50.02257],[-116.22603,50.02243],[-116.22602,50.02227],[-116.22602,50.0221],[-116.22601,50.0219],[-116.22601,50.02175],[-116.226,50.02153],[-116.22601,50.02131],[-116.22594,50.02113],[-116.22591,50.02107],[-116.22587,50.02095],[-116.22582,50.02084],[-116.22572,50.0207],[-116.2256,50.02056],[-116.22559,50.02042],[-116.22558,50.02033],[-116.22551,50.02017],[-116.22551,50.01998],[-116.22542,50.01986],[-116.22538,50.01975],[-116.22537,50.01956],[-116.22537,50.01934],[-116.22536,50.01914],[-116.22531,50.01891],[-116.22527,50.01872]]}},
{"type":"Feature","properties":{"spotId":"F-grouse-walk-0061","kind":"roadside","km":3.05,"climbM":73,"name":"180 m SW of Dutch Creek","flags":["Route enters a Motor Vehicle Closed Area: Dutch Creek and Brewer Creek. Closed Year Round. Synopsis map 1-105/23."]},"geometry":{"type":"LineString","coordinates":[[-116.05198,50.23062],[-116.05197,50.23073],[-116.05199,50.23075],[-116.05204,50.23081],[-116.05206,50.23084],[-116.05209,50.23099],[-116.05216,50.23105],[-116.05225,50.23111],[-116.05231,50.23123],[-116.05238,50.23139],[-116.05239,50.23142],[-116.05249,50.23151],[-116.05259,50.23162],[-116.05266,50.23169],[-116.05271,50.23176],[-116.05275,50.23181],[-116.05286,50.23188],[-116.05301,50.23197],[-116.05311,50.23206],[-116.05317,50.23212],[-116.05326,50.23218],[-116.05346,50.23232],[-116.05354,50.2324],[-116.05357,50.23244],[-116.05358,50.23247],[-116.05358,50.23249],[-116.05361,50.23251],[-116.05365,50.23255],[-116.05369,50.23258],[-116.05383,50.23265],[-116.05388,50.23269],[-116.05393,50.23273],[-116.05397,50.23274],[-116.05404,50.23276],[-116.05423,50.23285],[-116.05429,50.23286],[-116.05434,50.23287],[-116.05451,50.23294],[-116.05458,50.23295],[-116.05464,50.23296],[-116.05491,50.23303],[-116.05501,50.23307],[-116.0551,50.2331],[-116.05528,50.23318],[-116.05535,50.23321],[-116.05539,50.23323],[-116.05544,50.23325],[-116.05551,50.23329],[-116.05564,50.23335],[-116.05569,50.2334],[-116.05573,50.23343],[-116.05573,50.23353],[-116.0557,50.2336],[-116.05569,50.2336],[-116.05566,50.23364],[-116.05563,50.23366],[-116.05555,50.23369],[-116.05552,50.23369],[-116.0552,50.23368],[-116.05507,50.23364],[-116.05496,50.23358],[-116.0549,50.23355],[-116.05485,50.23353],[-116.05477,50.23349],[-116.0547,50.23344],[-116.05464,50.23342],[-116.05458,50.23341],[-116.05456,50.2334],[-116.05443,50.23338],[-116.05442,50.23337],[-116.05431,50.23336],[-116.05422,50.23334],[-116.05415,50.23332],[-116.0541,50.2333],[-116.05405,50.23328],[-116.05404,50.23328],[-116.05397,50.23326],[-116.05383,50.23325],[-116.05363,50.23325],[-116.05352,50.23326],[-116.05348,50.23328],[-116.05341,50.23331],[-116.05332,50.23336],[-116.05321,50.23339],[-116.0531,50.23343],[-116.0529,50.23353],[-116.05283,50.23355],[-116.0528,50.23356],[-116.05277,50.23357],[-116.05269,50.23361],[-116.05253,50.23368],[-116.05242,50.23371],[-116.05232,50.23376],[-116.05219,50.23383],[-116.05216,50.23385],[-116.05207,50.23386],[-116.052,50.23388],[-116.05198,50.23389],[-116.05192,50.23396],[-116.05187,50.234],[-116.05181,50.23402],[-116.05178,50.23404],[-116.05172,50.23411],[-116.05168,50.23422],[-116.05159,50.2343],[-116.05155,50.23434],[-116.05155,50.23436],[-116.05148,50.23455],[-116.05148,50.23456],[-116.05143,50.23462],[-116.05136,50.23468],[-116.05133,50.23474],[-116.05132,50.2348],[-116.0513,50.23494],[-116.05126,50.23502],[-116.05116,50.23511],[-116.05106,50.23519],[-116.051,50.2352],[-116.05093,50.23524],[-116.05075,50.2353],[-116.05063,50.23533],[-116.05052,50.23534],[-116.05033,50.23536],[-116.0501,50.23537],[-116.0499,50.23536],[-116.04961,50.23534],[-116.04948,50.23533],[-116.04914,50.23524],[-116.0489,50.2352],[-116.04881,50.23518],[-116.04872,50.23513],[-116.04865,50.2351],[-116.04856,50.23508],[-116.04834,50.23506],[-116.04826,50.23504],[-116.0481,50.23498],[-116.04801,50.23494],[-116.04784,50.23487],[-116.04774,50.23483],[-116.0475,50.23477],[-116.04745,50.23474],[-116.04739,50.23473],[-116.0473,50.23471],[-116.04716,50.2347],[-116.04711,50.2347],[-116.04702,50.23468],[-116.04697,50.23467],[-116.04692,50.23467],[-116.04671,50.23464],[-116.0465,50.2346],[-116.04632,50.23458],[-116.04599,50.23457],[-116.04585,50.23457],[-116.04563,50.23456],[-116.04546,50.23455],[-116.04492,50.23453],[-116.04486,50.23454],[-116.0447,50.23456],[-116.04468,50.23456],[-116.04463,50.23457],[-116.04449,50.2346],[-116.04437,50.23464],[-116.04417,50.23467],[-116.04404,50.23475],[-116.04397,50.23478],[-116.04383,50.2348],[-116.04369,50.23485],[-116.04363,50.23487],[-116.04358,50.23491],[-116.0435,50.23496],[-116.04335,50.23505],[-116.04328,50.23509],[-116.04309,50.23518],[-116.04298,50.23524],[-116.04285,50.23531],[-116.04278,50.23537],[-116.04274,50.23543],[-116.04272,50.2355],[-116.04266,50.23558],[-116.04264,50.23561],[-116.04249,50.23572],[-116.04242,50.23579],[-116.04239,50.23582],[-116.04239,50.23585],[-116.04238,50.23593],[-116.04236,50.23617],[-116.04234,50.23621],[-116.04229,50.23627],[-116.04219,50.23635],[-116.04203,50.23654],[-116.04197,50.2366],[-116.0419,50.23667],[-116.04189,50.23668],[-116.04187,50.23688],[-116.04185,50.23699],[-116.04184,50.23702],[-116.04179,50.23712],[-116.04176,50.23723],[-116.04172,50.23733],[-116.04165,50.23743],[-116.04159,50.23752],[-116.04156,50.23758],[-116.04154,50.23767],[-116.04153,50.23785],[-116.0415,50.23795],[-116.04147,50.23807],[-116.04139,50.23836],[-116.04136,50.23844],[-116.04129,50.23858],[-116.04124,50.23863],[-116.04113,50.23874],[-116.04107,50.23882],[-116.04106,50.23885],[-116.041,50.23895],[-116.04091,50.23909],[-116.04085,50.23918],[-116.04084,50.23923],[-116.04082,50.23928],[-116.04081,50.23931],[-116.04077,50.23937],[-116.04069,50.23946],[-116.04066,50.23951],[-116.04061,50.23959],[-116.04055,50.23969],[-116.04049,50.23978],[-116.04041,50.23987],[-116.04032,50.23999],[-116.04025,50.24011],[-116.04022,50.2402],[-116.0402,50.2404],[-116.0402,50.24048],[-116.04017,50.24051],[-116.04012,50.24056],[-116.04004,50.24074],[-116.03989,50.24098],[-116.03985,50.24107],[-116.03985,50.24113],[-116.03983,50.24122],[-116.03981,50.24163],[-116.03979,50.24182],[-116.03978,50.2419],[-116.03972,50.24196],[-116.03957,50.24211],[-116.03952,50.24218],[-116.03949,50.24222],[-116.03943,50.24237],[-116.03934,50.24251],[-116.03928,50.24258],[-116.03919,50.24265],[-116.03907,50.24277],[-116.03903,50.24281],[-116.03899,50.24285],[-116.03889,50.24289],[-116.03883,50.24294],[-116.03881,50.24297],[-116.0388,50.243],[-116.03877,50.24303],[-116.03871,50.24307],[-116.03861,50.24316],[-116.0384,50.24334],[-116.03829,50.24341],[-116.03822,50.24343],[-116.03816,50.24346],[-116.03814,50.24348],[-116.0381,50.24349],[-116.03797,50.24356],[-116.03783,50.24365],[-116.03779,50.24367],[-116.03773,50.24372],[-116.03768,50.24378],[-116.03762,50.24382],[-116.03739,50.24395],[-116.03735,50.24397],[-116.03724,50.24404],[-116.03719,50.24407],[-116.03707,50.24417],[-116.03701,50.24425],[-116.03692,50.24438],[-116.03682,50.24452],[-116.03673,50.2446],[-116.03668,50.24466],[-116.03663,50.24472],[-116.03659,50.2448],[-116.03657,50.24487],[-116.03654,50.24499],[-116.03651,50.24506],[-116.03649,50.2451],[-116.03644,50.24516],[-116.03637,50.24523],[-116.03631,50.24529],[-116.0363,50.24533],[-116.03637,50.24538],[-116.03636,50.24552],[-116.03635,50.24562],[-116.03633,50.24568],[-116.03632,50.24571],[-116.03629,50.24574],[-116.03628,50.24577],[-116.03623,50.24582],[-116.03622,50.24586],[-116.03619,50.24607],[-116.03617,50.24636],[-116.03615,50.24649],[-116.03615,50.24655],[-116.03612,50.2466],[-116.03609,50.24666],[-116.03607,50.24669],[-116.03603,50.24674],[-116.03599,50.24681],[-116.03597,50.24684],[-116.03595,50.24716],[-116.03594,50.24718],[-116.03592,50.24748]]}},
{"type":"Feature","properties":{"spotId":"F-moose-atv-0022","kind":"ride","km":2.33,"climbM":112,"name":"170 m N of Engstrom's Pond rec site","flags":[]},"geometry":{"type":"LineString","coordinates":[[-116.03815,50.13477],[-116.03786,50.13479],[-116.03748,50.1348],[-116.03724,50.13481],[-116.03695,50.13487],[-116.0366,50.13495],[-116.03641,50.13498],[-116.03625,50.13498],[-116.03612,50.13497],[-116.03597,50.13497],[-116.03584,50.13497],[-116.03567,50.13498],[-116.03538,50.13498],[-116.03527,50.13498],[-116.03489,50.13496],[-116.03455,50.13496],[-116.03427,50.13502],[-116.03383,50.13515],[-116.03364,50.13518],[-116.03328,50.13525],[-116.03312,50.13527],[-116.03277,50.13525],[-116.03235,50.13519],[-116.03213,50.13516],[-116.03189,50.13511],[-116.03169,50.1351],[-116.03153,50.13512],[-116.03127,50.13518],[-116.03105,50.13524],[-116.0306,50.13534],[-116.03028,50.1354],[-116.03002,50.13543],[-116.02971,50.13546],[-116.0296,50.13546],[-116.02946,50.13543],[-116.02934,50.13541],[-116.02916,50.13533],[-116.02901,50.13526],[-116.02875,50.13519],[-116.02854,50.13516],[-116.02841,50.13514],[-116.02784,50.13514],[-116.02792,50.13526],[-116.02832,50.13566],[-116.02856,50.13595],[-116.02874,50.13628],[-116.02896,50.13647],[-116.02914,50.13659],[-116.02919,50.1366],[-116.03088,50.13665],[-116.03139,50.13667],[-116.03158,50.13672],[-116.03175,50.13676],[-116.03207,50.13686],[-116.03231,50.1369],[-116.03236,50.13693],[-116.03257,50.13705],[-116.03298,50.13739],[-116.03311,50.13753],[-116.03303,50.13762],[-116.03275,50.13773],[-116.03265,50.1378],[-116.03264,50.13794],[-116.03266,50.13802],[-116.03295,50.13824],[-116.03309,50.13828],[-116.03362,50.13829],[-116.0338,50.13836],[-116.034,50.1385],[-116.03409,50.13876],[-116.03409,50.13883],[-116.03402,50.13891],[-116.03355,50.13916],[-116.03346,50.13924],[-116.03348,50.1393],[-116.03353,50.13937],[-116.03368,50.13945],[-116.03399,50.13949],[-116.03402,50.13949],[-116.03417,50.13948],[-116.03442,50.1395],[-116.03469,50.13947],[-116.03527,50.1393],[-116.03561,50.13918],[-116.03597,50.13901],[-116.03638,50.13889],[-116.03663,50.13887],[-116.03726,50.1389],[-116.03763,50.13895],[-116.03772,50.13897],[-116.03812,50.13898],[-116.03821,50.13899],[-116.03835,50.13899],[-116.03855,50.13891],[-116.03878,50.13877],[-116.03904,50.1387],[-116.03944,50.13862],[-116.03997,50.1386],[-116.04015,50.13857],[-116.0409,50.13834],[-116.04126,50.13834],[-116.04169,50.13818],[-116.04225,50.13815],[-116.04258,50.13807],[-116.04334,50.13807]]}},
{"type":"Feature","properties":{"spotId":"F-moose-atv-0022","kind":"walk","km":0.05,"climbM":10,"name":"170 m N of Engstrom's Pond rec site","flags":[]},"geometry":{"type":"LineString","coordinates":[[-116.03815,50.13477],[-116.03825,50.13526]]}},
{"type":"Feature","properties":{"spotId":"F-moose-atv-0027","kind":"ride","km":2.75,"climbM":207,"name":"2.7 km E of Doctor Creek","flags":[]},"geometry":{"type":"LineString","coordinates":[[-116.11577,50.07238],[-116.11571,50.07226],[-116.1156,50.07215],[-116.11534,50.07195],[-116.1153,50.07189],[-116.11523,50.07173],[-116.11527,50.07162],[-116.11529,50.07161],[-116.1154,50.07159],[-116.1156,50.07157],[-116.11624,50.07158],[-116.11635,50.07157],[-116.11667,50.07153],[-116.1168,50.07153],[-116.11656,50.07141],[-116.11644,50.07134],[-116.11632,50.07131],[-116.11618,50.07127],[-116.1159,50.07121],[-116.11559,50.07111],[-116.11551,50.07109],[-116.11531,50.07099],[-116.11509,50.07083],[-116.11497,50.07074],[-116.11475,50.07062],[-116.1145,50.0705],[-116.11447,50.07047],[-116.11433,50.07042],[-116.11408,50.07028],[-116.11381,50.07014],[-116.11365,50.07005],[-116.11361,50.07],[-116.11341,50.06983],[-116.11324,50.06963],[-116.11315,50.06951],[-116.11307,50.06943],[-116.11293,50.06923],[-116.11289,50.06917],[-116.11271,50.069],[-116.11252,50.06881],[-116.11233,50.06864],[-116.11212,50.06849],[-116.11165,50.0682],[-116.1115,50.0681],[-116.11147,50.06808],[-116.11133,50.06799],[-116.11117,50.06785],[-116.11106,50.06779],[-116.11081,50.06766],[-116.1107,50.0676],[-116.11053,50.06753],[-116.11032,50.06739],[-116.11009,50.06725],[-116.10982,50.0671],[-116.10959,50.06697],[-116.10949,50.06692],[-116.10934,50.06684],[-116.10909,50.06669],[-116.1088,50.06655],[-116.10868,50.06651],[-116.10852,50.06646],[-116.10824,50.06639],[-116.10815,50.06639],[-116.10801,50.06641],[-116.10781,50.06651],[-116.1077,50.06658],[-116.1075,50.06663],[-116.10725,50.06663],[-116.10715,50.06662],[-116.10684,50.06652],[-116.10657,50.06639],[-116.10629,50.06627],[-116.10603,50.06616],[-116.10593,50.06612],[-116.10565,50.06604],[-116.10539,50.06596],[-116.10526,50.06592],[-116.10512,50.06589],[-116.1051,50.06587],[-116.10486,50.06579],[-116.10461,50.06568],[-116.10438,50.06555],[-116.10411,50.0654],[-116.10397,50.06533],[-116.10377,50.06519],[-116.10366,50.06511],[-116.10342,50.06496],[-116.10317,50.06481],[-116.10305,50.06472],[-116.10304,50.0647],[-116.10275,50.06449],[-116.10257,50.06431],[-116.10236,50.06416],[-116.10229,50.0641],[-116.10224,50.06407],[-116.10185,50.06376],[-116.10165,50.06359],[-116.10158,50.06355],[-116.10145,50.06349],[-116.10138,50.06346],[-116.10122,50.06335],[-116.10101,50.06319],[-116.10098,50.06316],[-116.10072,50.06296],[-116.10069,50.06293],[-116.10049,50.06276],[-116.10028,50.06259],[-116.1002,50.06254],[-116.10007,50.06243],[-116.09994,50.06229],[-116.09975,50.06212],[-116.09952,50.06196],[-116.09929,50.0618],[-116.0991,50.06163],[-116.09885,50.06148],[-116.09846,50.06117],[-116.09824,50.06101],[-116.09808,50.06091],[-116.09787,50.06076],[-116.09769,50.0606],[-116.09747,50.06042],[-116.09732,50.0603],[-116.09713,50.06013],[-116.09695,50.06],[-116.09691,50.05998],[-116.0967,50.05981],[-116.09649,50.05965],[-116.09607,50.05937],[-116.09585,50.05921],[-116.09564,50.05903],[-116.09546,50.05885],[-116.09528,50.05868],[-116.09512,50.05852],[-116.09494,50.05834],[-116.09461,50.05798],[-116.09443,50.05781],[-116.09425,50.05765],[-116.09414,50.05756],[-116.09405,50.05746],[-116.09388,50.05727],[-116.09372,50.05708],[-116.09363,50.05688],[-116.09356,50.05668],[-116.09348,50.05649],[-116.09262,50.05602]]}},
{"type":"Feature","properties":{"spotId":"F-moose-atv-0027","kind":"walk","km":0.15,"climbM":16,"name":"2.7 km E of Doctor Creek","flags":[]},"geometry":{"type":"LineString","coordinates":[[-116.09262,50.05602],[-116.09399,50.05498]]}},
{"type":"Feature","properties":{"spotId":"F-moose-backcountry-0009","kind":"backcountry","km":5.83,"climbM":752,"name":"6.7 km N of Skookumchuck Creek rec site","flags":[]},"geometry":{"type":"LineString","coordinates":[[-116.02244,50.0767],[-116.01752,50.02441]]}},
{"type":"Feature","properties":{"spotId":"F-moose-drive-0032","kind":"walk","km":0.29,"climbM":0,"name":"1.2 km W of Doctor Creek","flags":[]},"geometry":{"type":"LineString","coordinates":[[-116.07894,50.10493],[-116.07491,50.1048]]}},
{"type":"Feature","properties":{"spotId":"F-moose-drive-0042","kind":"walk","km":0.13,"climbM":25,"name":"200 m SW of Deer Creek","flags":[]},"geometry":{"type":"LineString","coordinates":[[-116.01097,50.15497],[-116.01261,50.15445]]}},
{"type":"Feature","properties":{"spotId":"F-moose-drive-0051","kind":"walk","km":0.23,"climbM":7,"name":"190 m NW of Doctor Creek","flags":[]},"geometry":{"type":"LineString","coordinates":[[-116.06848,50.09143],[-116.06663,50.08972]]}},
{"type":"Feature","properties":{"spotId":"F-moose-walk-0040","kind":"walk","km":1.54,"climbM":473,"name":"1.6 km E of Doctor Creek","flags":[]},"geometry":{"type":"LineString","coordinates":[[-116.13515,50.04835],[-116.11469,50.04415]]}},
{"type":"Feature","properties":{"spotId":"F-turkey-drive-0011","kind":"walk","km":0.18,"climbM":0,"name":"By Findlay Creek","flags":[]},"geometry":{"type":"LineString","coordinates":[[-116.0263,50.12759],[-116.02617,50.12599]]}},
{"type":"Feature","properties":{"spotId":"F-turkey-walk-0040","kind":"walk","km":1.18,"climbM":12,"name":"By Whitetail Creek","flags":["Route enters a Motor Vehicle Closed Area: Dutch Creek and Brewer Creek. Closed Year Round. Synopsis map 1-105/23."]},"geometry":{"type":"LineString","coordinates":[[-116.03592,50.24748],[-116.02674,50.23861]]}},
{"type":"Feature","properties":{"spotId":"F-turkey-walk-0053","kind":"walk","km":0.32,"climbM":8,"name":"170 m NW of Findlay Creek","flags":[]},"geometry":{"type":"LineString","coordinates":[[-116.01717,50.12808],[-116.01786,50.12523]]}}
]}
