{"type":"FeatureCollection","features":[
{"type":"Feature","properties":{"spotId":"F-duck-drive-0144","kind":"walk","km":0.19,"climbM":0,"name":"Unnamed wetland by Dewar Creek","flags":[]},"geometry":{"type":"LineString","coordinates":[[-116.45975,49.81415],[-116.45871,49.81574]]}},
{"type":"Feature","properties":{"spotId":"F-grouse-atv-0023","kind":"ride","km":3.8,"climbM":194,"name":"250 m W of Dewar Creek","flags":[]},"geometry":{"type":"LineString","coordinates":[[-116.45888,49.82364],[-116.45877,49.82369],[-116.45867,49.8237],[-116.45855,49.82374],[-116.45846,49.82376],[-116.45841,49.82379],[-116.45832,49.82385],[-116.45824,49.82393],[-116.45815,49.82409],[-116.45812,49.82428],[-116.45814,49.82446],[-116.45815,49.82456],[-116.4582,49.82471],[-116.45826,49.82482],[-116.4583,49.82492],[-116.45831,49.82512],[-116.45825,49.82531],[-116.45815,49.82546],[-116.458,49.82561],[-116.45776,49.82579],[-116.45765,49.82587],[-116.45755,49.82596],[-116.45746,49.82613],[-116.45742,49.82628],[-116.45739,49.82638],[-116.45738,49.82649],[-116.45735,49.82666],[-116.45734,49.82687],[-116.45733,49.82699],[-116.45733,49.8272],[-116.45731,49.8274],[-116.45727,49.82749],[-116.45719,49.82773],[-116.45714,49.82798],[-116.45712,49.82808],[-116.45713,49.82829],[-116.45713,49.8285],[-116.45711,49.82867],[-116.45708,49.82888],[-116.45708,49.82904],[-116.45708,49.82929],[-116.45709,49.82944],[-116.45712,49.8295],[-116.45719,49.82964],[-116.45716,49.82993],[-116.45718,49.82998],[-116.45721,49.83005],[-116.45728,49.83016],[-116.45731,49.83022],[-116.45737,49.83033],[-116.45743,49.83047],[-116.4575,49.83064],[-116.45755,49.8308],[-116.4576,49.83096],[-116.45766,49.83115],[-116.45768,49.83133],[-116.45771,49.8316],[-116.45772,49.83175],[-116.45772,49.83187],[-116.45775,49.83197],[-116.4578,49.8321],[-116.45789,49.83226],[-116.45795,49.83238],[-116.45799,49.83253],[-116.45802,49.83268],[-116.45807,49.8328],[-116.4581,49.83292],[-116.45812,49.83299],[-116.45812,49.83304],[-116.45812,49.83308],[-116.45807,49.83319],[-116.45802,49.83324],[-116.45795,49.83329],[-116.45787,49.83335],[-116.4578,49.83339],[-116.4577,49.83345],[-116.4576,49.83356],[-116.4575,49.83369],[-116.45748,49.83373],[-116.45743,49.83381],[-116.45742,49.83389],[-116.45742,49.83394],[-116.45742,49.83401],[-116.45743,49.8341],[-116.45744,49.83417],[-116.45748,49.83426],[-116.45751,49.83446],[-116.45738,49.83477],[-116.45735,49.83502],[-116.45729,49.83525],[-116.45722,49.8355],[-116.45722,49.83579],[-116.4572,49.83604],[-116.45718,49.8364],[-116.45719,49.83668],[-116.45723,49.83694],[-116.45735,49.83723],[-116.45752,49.83744],[-116.45764,49.83734],[-116.45776,49.837],[-116.45793,49.83668],[-116.45815,49.83652],[-116.4586,49.83641],[-116.45899,49.83631],[-116.45914,49.83628],[-116.45935,49.83624],[-116.4597,49.83615],[-116.4599,49.83608],[-116.46048,49.83597],[-116.46107,49.83574],[-116.4617,49.83544],[-116.46216,49.83523],[-116.4622,49.83517],[-116.46255,49.83505],[-116.46288,49.83501],[-116.46337,49.83499],[-116.46383,49.83501],[-116.46402,49.83502],[-116.46443,49.835],[-116.4649,49.83493],[-116.46539,49.83482],[-116.46571,49.83478],[-116.46603,49.83471],[-116.46632,49.83466],[-116.46677,49.83458],[-116.46685,49.83454],[-116.46701,49.83448],[-116.46723,49.83445],[-116.46758,49.83451],[-116.46795,49.83455],[-116.46839,49.83464],[-116.46874,49.83463],[-116.46916,49.83464],[-116.46937,49.83463],[-116.46959,49.83464],[-116.47002,49.83467],[-116.47044,49.83467],[-116.47076,49.83472],[-116.4713,49.83482],[-116.47184,49.83494],[-116.47233,49.83505],[-116.4728,49.83528],[-116.47338,49.83556],[-116.47383,49.83575],[-116.47432,49.83589],[-116.47469,49.83598],[-116.47522,49.83612],[-116.47564,49.83618],[-116.47604,49.83639],[-116.47633,49.83652],[-116.4764,49.8365],[-116.47655,49.83648],[-116.47662,49.83649],[-116.4769,49.83653],[-116.47709,49.8366],[-116.47734,49.83672],[-116.47769,49.83689],[-116.4781,49.83702],[-116.47839,49.83716],[-116.47871,49.83727],[-116.47895,49.83737],[-116.47929,49.83759],[-116.47961,49.83783],[-116.48003,49.83798],[-116.48043,49.83816],[-116.4805,49.8382],[-116.48063,49.83828],[-116.48075,49.83835],[-116.48112,49.83846],[-116.48172,49.83866],[-116.48203,49.83887],[-116.48209,49.83891],[-116.48223,49.83903],[-116.48256,49.83932],[-116.48286,49.83944],[-116.48325,49.83955],[-116.48367,49.83965]]}},
{"type":"Feature","properties":{"spotId":"F-grouse-drive-0053","kind":"roadside","km":5.48,"climbM":36,"name":"By Dewar Creek","flags":[]},"geometry":{"type":"LineString","coordinates":[[-116.46712,49.88704],[-116.467,49.88675],[-116.46693,49.88648],[-116.46691,49.88639],[-116.46688,49.88632],[-116.46681,49.88622],[-116.46676,49.88613],[-116.46663,49.88603],[-116.46651,49.88591],[-116.4663,49.8857],[-116.46619,49.88563],[-116.46599,49.88549],[-116.46583,49.88537],[-116.46571,49.8853],[-116.46563,49.88527],[-116.46554,49.88521],[-116.46549,49.88516],[-116.46539,49.88508],[-116.46534,49.88498],[-116.46531,49.88494],[-116.46521,49.88479],[-116.46517,49.88459],[-116.46515,49.88453],[-116.46509,49.88448],[-116.46505,49.88444],[-116.46498,49.88439],[-116.46484,49.88429],[-116.46477,49.88423],[-116.46471,49.88415],[-116.46466,49.88408],[-116.46464,49.88404],[-116.46454,49.8839],[-116.46446,49.88381],[-116.46433,49.88369],[-116.46424,49.88359],[-116.4641,49.88345],[-116.46403,49.88337],[-116.46398,49.88331],[-116.46395,49.88326],[-116.46391,49.88317],[-116.46372,49.88291],[-116.46363,49.88278],[-116.46351,49.88258],[-116.46344,49.88246],[-116.46335,49.8823],[-116.46327,49.8822],[-116.46318,49.88204],[-116.46307,49.88187],[-116.46301,49.88175],[-116.46291,49.88158],[-116.46286,49.88141],[-116.46276,49.88112],[-116.46269,49.88098],[-116.46264,49.88068],[-116.46262,49.88056],[-116.4626,49.88033],[-116.46261,49.88021],[-116.46259,49.88004],[-116.46262,49.87997],[-116.46266,49.87989],[-116.46268,49.87978],[-116.46271,49.87963],[-116.46272,49.87954],[-116.46276,49.87927],[-116.46277,49.87921],[-116.4628,49.87914],[-116.46286,49.87902],[-116.46294,49.8788],[-116.46296,49.87872],[-116.463,49.87862],[-116.46306,49.87852],[-116.46315,49.87839],[-116.4632,49.87833],[-116.46321,49.87826],[-116.46326,49.87812],[-116.46328,49.87801],[-116.4633,49.87789],[-116.4633,49.87766],[-116.46332,49.87747],[-116.46333,49.87738],[-116.46335,49.87729],[-116.46334,49.87719],[-116.46334,49.87713],[-116.46331,49.87703],[-116.46328,49.87689],[-116.46324,49.87673],[-116.4632,49.87663],[-116.46316,49.87653],[-116.46312,49.87645],[-116.46311,49.87639],[-116.46307,49.87624],[-116.463,49.87612],[-116.46299,49.87606],[-116.46296,49.87599],[-116.46295,49.87593],[-116.46295,49.87587],[-116.46295,49.87581],[-116.46293,49.87565],[-116.46292,49.87559],[-116.46292,49.87552],[-116.46291,49.8754],[-116.46291,49.87535],[-116.4629,49.87522],[-116.46293,49.87513],[-116.46286,49.87468],[-116.46285,49.87458],[-116.46284,49.87446],[-116.46282,49.87434],[-116.4628,49.87422],[-116.46274,49.87407],[-116.46273,49.87397],[-116.46272,49.87387],[-116.46272,49.8738],[-116.46271,49.87369],[-116.46271,49.87362],[-116.46269,49.87347],[-116.46268,49.87333],[-116.46267,49.87323],[-116.46267,49.87308],[-116.46266,49.87296],[-116.46266,49.87289],[-116.46266,49.87278],[-116.46265,49.87271],[-116.46263,49.87264],[-116.46259,49.87252],[-116.46251,49.87242],[-116.46247,49.87237],[-116.46244,49.87225],[-116.4622,49.87186],[-116.46216,49.87181],[-116.4621,49.87175],[-116.46205,49.87167],[-116.46196,49.87159],[-116.46188,49.87141],[-116.46169,49.8712],[-116.46165,49.87113],[-116.46162,49.87106],[-116.46159,49.87102],[-116.46154,49.87094],[-116.46147,49.87085],[-116.46137,49.87074],[-116.46132,49.87067],[-116.46128,49.87062],[-116.46124,49.87058],[-116.46111,49.87034],[-116.46105,49.87021],[-116.46095,49.86992],[-116.46091,49.86983],[-116.4609,49.86975],[-116.46086,49.86965],[-116.46079,49.86952],[-116.46075,49.86943],[-116.46071,49.86932],[-116.4607,49.86926],[-116.46066,49.86906],[-116.4606,49.86885],[-116.46058,49.86875],[-116.46056,49.86856],[-116.46055,49.8684],[-116.46055,49.86833],[-116.46055,49.86817],[-116.46054,49.86795],[-116.46056,49.86786],[-116.46056,49.86766],[-116.46058,49.86751],[-116.46058,49.86735],[-116.46057,49.86713],[-116.46057,49.86697],[-116.46056,49.86679],[-116.46054,49.86657],[-116.46053,49.86646],[-116.46048,49.86625],[-116.46041,49.86607],[-116.46031,49.86598],[-116.46018,49.86588],[-116.46007,49.86575],[-116.45989,49.8655],[-116.45979,49.86536],[-116.45974,49.86523],[-116.45963,49.86498],[-116.45951,49.86475],[-116.4594,49.86459],[-116.45925,49.86435],[-116.45915,49.86417],[-116.45911,49.86408],[-116.45903,49.86387],[-116.45894,49.86364],[-116.45887,49.86352],[-116.45876,49.86333],[-116.45868,49.86318],[-116.45862,49.86306],[-116.45851,49.86285],[-116.45847,49.86275],[-116.45842,49.86261],[-116.45836,49.86247],[-116.45831,49.86231],[-116.45827,49.86221],[-116.45824,49.86209],[-116.45822,49.86193],[-116.45821,49.8617],[-116.45819,49.86146],[-116.45822,49.86141],[-116.45834,49.8613],[-116.45839,49.86114],[-116.45842,49.86096],[-116.45852,49.8608],[-116.45861,49.86065],[-116.45861,49.86055],[-116.4586,49.86041],[-116.45861,49.86022],[-116.45863,49.86007],[-116.45866,49.85985],[-116.45871,49.85972],[-116.45876,49.85956],[-116.45877,49.85944],[-116.4588,49.85924],[-116.45879,49.85894],[-116.45874,49.85885],[-116.45866,49.85868],[-116.45856,49.85847],[-116.45852,49.85834],[-116.4585,49.85819],[-116.45848,49.85809],[-116.45848,49.85802],[-116.45846,49.85795],[-116.45846,49.85784],[-116.45839,49.85751],[-116.45839,49.8574],[-116.45837,49.85727],[-116.45831,49.85716],[-116.45826,49.85701],[-116.45819,49.85684],[-116.45816,49.85677],[-116.45808,49.85661],[-116.45805,49.85656],[-116.45804,49.8565],[-116.458,49.85639],[-116.45796,49.85629],[-116.45793,49.85618],[-116.45791,49.8561],[-116.45789,49.85597],[-116.45788,49.85584],[-116.45788,49.85573],[-116.45787,49.85564],[-116.45787,49.85555],[-116.45786,49.85538],[-116.45781,49.85518],[-116.45785,49.85496],[-116.45789,49.85475],[-116.45788,49.85468],[-116.45787,49.85455],[-116.45783,49.85443],[-116.45779,49.85433],[-116.45775,49.85422],[-116.45769,49.85408],[-116.45765,49.85397],[-116.45763,49.85387],[-116.45759,49.85371],[-116.45752,49.85356],[-116.45746,49.8534],[-116.45737,49.85318],[-116.4573,49.85299],[-116.45723,49.85285],[-116.45717,49.8527],[-116.45708,49.85259],[-116.45704,49.85252],[-116.45699,49.85241],[-116.45691,49.85231],[-116.4568,49.85221],[-116.45666,49.85209],[-116.45651,49.852],[-116.4564,49.85193],[-116.45619,49.85183],[-116.45594,49.85172],[-116.45568,49.85162],[-116.45545,49.85151],[-116.45527,49.85143],[-116.45502,49.85131],[-116.45479,49.85117],[-116.45464,49.85105],[-116.45439,49.85085],[-116.45434,49.85079],[-116.45427,49.85073],[-116.45423,49.85068],[-116.45418,49.85063],[-116.45416,49.85058],[-116.45413,49.85052],[-116.45409,49.85043],[-116.45405,49.85036],[-116.45402,49.8503],[-116.45401,49.85023],[-116.45394,49.84999],[-116.454,49.84986],[-116.45399,49.84975],[-116.45399,49.8496],[-116.45397,49.84949],[-116.45396,49.84936],[-116.45395,49.84925],[-116.45394,49.84913],[-116.45392,49.84904],[-116.45391,49.84895],[-116.45391,49.8488],[-116.4539,49.84867],[-116.45389,49.84857],[-116.45389,49.8485],[-116.45389,49.84838],[-116.45389,49.84831],[-116.45388,49.84823],[-116.45388,49.84813],[-116.45391,49.84802],[-116.45395,49.8479],[-116.45401,49.84777],[-116.45402,49.84772],[-116.45406,49.84765],[-116.45412,49.84759],[-116.45418,49.84751],[-116.45425,49.84743],[-116.45436,49.8473],[-116.45445,49.84719],[-116.4545,49.84704],[-116.45452,49.84698],[-116.45455,49.84692],[-116.45455,49.84686],[-116.45456,49.84676],[-116.45458,49.84665],[-116.45459,49.84657],[-116.45459,49.84648],[-116.45459,49.84641],[-116.45459,49.84632],[-116.45451,49.84597],[-116.45457,49.84582],[-116.45453,49.84569],[-116.45451,49.84555],[-116.45449,49.84546],[-116.45449,49.84532],[-116.45451,49.84522],[-116.45452,49.8451],[-116.45454,49.84501],[-116.45454,49.84496],[-116.45454,49.84484],[-116.45454,49.84473],[-116.45454,49.84463],[-116.45459,49.84451],[-116.45462,49.84442],[-116.45462,49.84431],[-116.45462,49.84423],[-116.45462,49.84409],[-116.45461,49.84394],[-116.45455,49.84382],[-116.4545,49.8437],[-116.45446,49.84361],[-116.45442,49.84347],[-116.45436,49.84334],[-116.45431,49.8432],[-116.45428,49.84315],[-116.45428,49.84309],[-116.45426,49.84297],[-116.45424,49.84281],[-116.45423,49.84266],[-116.45421,49.84252],[-116.45418,49.84237],[-116.45415,49.84217],[-116.45414,49.84199],[-116.45413,49.84178],[-116.45413,49.84164],[-116.45413,49.84151],[-116.45415,49.84137],[-116.45419,49.84118],[-116.45424,49.84109],[-116.45426,49.841],[-116.45427,49.84087],[-116.45424,49.84073],[-116.45416,49.84054],[-116.45412,49.8404],[-116.45412,49.84038]]}},
{"type":"Feature","properties":{"spotId":"F-moose-walk-0051","kind":"walk","km":4.29,"climbM":986,"name":"2.4 km W of Sawtooth Peak","flags":["Route crosses private land (ParcelMap BC, updated 2026-09-26): get permission first or go around."]},"geometry":{"type":"LineString","coordinates":[[-116.27643,49.79399],[-116.25387,49.82973]]}}
]}
