{"type":"FeatureCollection","features":[
{"type":"Feature","properties":{"spotId":"F-duck-drive-0052","kind":"walk","km":0.02,"climbM":0,"name":"Rykerts Lake","flags":[]},"geometry":{"type":"LineString","coordinates":[[-116.49964,49.00004],[-116.49934,49.00013]]}},
{"type":"Feature","properties":{"spotId":"F-duck-drive-0089","kind":"walk","km":0.03,"climbM":0,"name":"Unnamed lake 650 m NE of Little Moyie River","flags":[]},"geometry":{"type":"LineString","coordinates":[[-116.26214,49.08349],[-116.26192,49.08326]]}},
{"type":"Feature","properties":{"spotId":"F-duck-drive-0142","kind":"walk","km":0.2,"climbM":0,"name":"Unnamed wetland by Little Moyie River","flags":[]},"geometry":{"type":"LineString","coordinates":[[-116.26205,49.06825],[-116.26435,49.06733]]}},
{"type":"Feature","properties":{"spotId":"F-duck-walk-0098","kind":"walk","km":0.48,"climbM":8,"name":"Unnamed wetland by Six Mile Creek","flags":[]},"geometry":{"type":"LineString","coordinates":[[-116.34563,49.18063],[-116.35216,49.18114]]}},
{"type":"Feature","properties":{"spotId":"F-grouse-atv-0010","kind":"walk","km":0.03,"climbM":10,"name":"By Goat River","flags":[]},"geometry":{"type":"LineString","coordinates":[[-116.33305,49.24711],[-116.33292,49.24737]]}},
{"type":"Feature","properties":{"spotId":"F-grouse-atv-0010","kind":"ride","km":4.04,"climbM":94,"name":"By Goat River","flags":[]},"geometry":{"type":"LineString","coordinates":[[-116.33292,49.24737],[-116.33298,49.24738],[-116.33304,49.24738],[-116.33309,49.2474],[-116.33316,49.24742],[-116.33323,49.24743],[-116.33329,49.24744],[-116.33334,49.24745],[-116.33345,49.24748],[-116.33355,49.24753],[-116.33364,49.24759],[-116.33372,49.24763],[-116.33379,49.24767],[-116.33385,49.2477],[-116.33393,49.24773],[-116.334,49.24776],[-116.33406,49.24779],[-116.33413,49.24782],[-116.3342,49.24787],[-116.33428,49.24791],[-116.33435,49.24796],[-116.33443,49.248],[-116.33451,49.24805],[-116.3346,49.24809],[-116.33468,49.24813],[-116.33475,49.24818],[-116.3348,49.24824],[-116.33487,49.24829],[-116.33491,49.24836],[-116.33496,49.24843],[-116.335,49.24849],[-116.33504,49.24856],[-116.33508,49.2486],[-116.33512,49.24865],[-116.33518,49.24871],[-116.33523,49.24877],[-116.3353,49.24882],[-116.33537,49.24887],[-116.33542,49.24893],[-116.33549,49.24898],[-116.33553,49.24905],[-116.33559,49.24912],[-116.33563,49.24918],[-116.33567,49.24924],[-116.33572,49.24932],[-116.33576,49.24938],[-116.3358,49.24944],[-116.33585,49.24951],[-116.33592,49.24958],[-116.33599,49.24965],[-116.33602,49.2497],[-116.33604,49.24973],[-116.33608,49.24978],[-116.33614,49.24985],[-116.33622,49.24991],[-116.33629,49.24999],[-116.33631,49.25002],[-116.33637,49.2501],[-116.33641,49.25018],[-116.33644,49.25023],[-116.33645,49.25026],[-116.33648,49.25035],[-116.33649,49.25038],[-116.33649,49.25043],[-116.3365,49.25047],[-116.33651,49.25052],[-116.33653,49.25056],[-116.33654,49.2506],[-116.33654,49.25064],[-116.33655,49.25068],[-116.33655,49.25072],[-116.33657,49.25077],[-116.33658,49.25081],[-116.33658,49.25085],[-116.33659,49.25089],[-116.33662,49.25093],[-116.33663,49.25099],[-116.33664,49.25103],[-116.33667,49.2511],[-116.3367,49.25117],[-116.33671,49.25121],[-116.33674,49.25128],[-116.33676,49.25133],[-116.33679,49.25137],[-116.3368,49.25142],[-116.33683,49.25146],[-116.33686,49.2515],[-116.33689,49.25155],[-116.33691,49.25159],[-116.33694,49.25164],[-116.33697,49.25169],[-116.33698,49.25173],[-116.33699,49.25178],[-116.33701,49.25182],[-116.33702,49.25188],[-116.33703,49.25191],[-116.33704,49.25196],[-116.33706,49.25205],[-116.33706,49.25209],[-116.33707,49.25217],[-116.3371,49.25224],[-116.33712,49.25231],[-116.33716,49.25238],[-116.33719,49.25246],[-116.33723,49.25253],[-116.33728,49.2526],[-116.33732,49.25266],[-116.33739,49.25271],[-116.33746,49.25275],[-116.33753,49.25281],[-116.33758,49.25285],[-116.33764,49.25293],[-116.3377,49.25298],[-116.33777,49.25304],[-116.33785,49.25312],[-116.33791,49.25319],[-116.33798,49.25326],[-116.33802,49.25331],[-116.33807,49.25336],[-116.33811,49.25342],[-116.33815,49.2535],[-116.33818,49.25355],[-116.33819,49.25362],[-116.33822,49.25368],[-116.33824,49.25377],[-116.33827,49.2538],[-116.3383,49.25387],[-116.33831,49.25395],[-116.33834,49.25402],[-116.33835,49.25405],[-116.33836,49.25411],[-116.33838,49.25415],[-116.33839,49.25419],[-116.33842,49.25424],[-116.33843,49.25429],[-116.33848,49.25435],[-116.33851,49.25442],[-116.33855,49.2545],[-116.33856,49.25454],[-116.33858,49.25459],[-116.33859,49.25462],[-116.3386,49.25469],[-116.33863,49.25473],[-116.33864,49.25478],[-116.33866,49.25483],[-116.33867,49.25487],[-116.33871,49.25494],[-116.33874,49.25501],[-116.33876,49.25508],[-116.33879,49.25515],[-116.3388,49.2552],[-116.33881,49.25523],[-116.33884,49.25531],[-116.33887,49.25539],[-116.33891,49.25546],[-116.33898,49.25553],[-116.33903,49.25561],[-116.33907,49.25564],[-116.3391,49.25569],[-116.33914,49.25573],[-116.33921,49.2558],[-116.33925,49.25584],[-116.33933,49.25589],[-116.3394,49.25595],[-116.33948,49.25602],[-116.33956,49.25608],[-116.33963,49.25613],[-116.3397,49.25619],[-116.33975,49.25625],[-116.33982,49.25629],[-116.33987,49.25634],[-116.33994,49.25639],[-116.34002,49.25645],[-116.34009,49.2565],[-116.34017,49.25657],[-116.34027,49.25664],[-116.34036,49.2567],[-116.34042,49.25674],[-116.34053,49.25682],[-116.34058,49.25686],[-116.34063,49.2569],[-116.34073,49.25697],[-116.34082,49.25704],[-116.34089,49.25711],[-116.34097,49.25718],[-116.34106,49.25724],[-116.34115,49.2573],[-116.34122,49.25736],[-116.34126,49.2574],[-116.34134,49.25747],[-116.34145,49.25753],[-116.34155,49.25762],[-116.3416,49.25765],[-116.3417,49.25772],[-116.34178,49.25778],[-116.34186,49.25784],[-116.34191,49.2579],[-116.34198,49.25796],[-116.34203,49.25801],[-116.3421,49.25808],[-116.34217,49.25814],[-116.34221,49.2582],[-116.34227,49.25824],[-116.34235,49.2583],[-116.34239,49.25834],[-116.34243,49.25839],[-116.34248,49.25845],[-116.34254,49.2585],[-116.34259,49.25854],[-116.34266,49.25858],[-116.34273,49.25862],[-116.3428,49.25867],[-116.34286,49.25872],[-116.34293,49.25878],[-116.343,49.25885],[-116.34304,49.25891],[-116.34308,49.25899],[-116.34312,49.25906],[-116.34315,49.25913],[-116.34319,49.25919],[-116.34321,49.25924],[-116.34323,49.25929],[-116.34324,49.25934],[-116.34325,49.25938],[-116.34325,49.25943],[-116.34325,49.25946],[-116.34325,49.25952],[-116.34325,49.25956],[-116.34325,49.25961],[-116.34325,49.25966],[-116.34325,49.2597],[-116.34324,49.25974],[-116.34323,49.25978],[-116.34323,49.25983],[-116.34323,49.25987],[-116.34322,49.25991],[-116.3432,49.25995],[-116.3432,49.25999],[-116.34319,49.26005],[-116.34319,49.26009],[-116.34317,49.26016],[-116.34317,49.26021],[-116.34316,49.26025],[-116.34316,49.26029],[-116.34316,49.26033],[-116.34316,49.26038],[-116.34316,49.26043],[-116.34317,49.26048],[-116.34317,49.26051],[-116.34317,49.26059],[-116.34318,49.26066],[-116.34318,49.26073],[-116.34318,49.26079],[-116.34318,49.26085],[-116.34318,49.26093],[-116.34319,49.26099],[-116.34319,49.26104],[-116.34319,49.2611],[-116.3432,49.26116],[-116.34322,49.26123],[-116.34323,49.2613],[-116.34325,49.26138],[-116.34328,49.26143],[-116.34332,49.26148],[-116.34336,49.26152],[-116.3434,49.26157],[-116.34349,49.26161],[-116.34355,49.26167],[-116.34362,49.2617],[-116.34369,49.26175],[-116.34376,49.26179],[-116.34381,49.26184],[-116.34387,49.26188],[-116.34396,49.26194],[-116.34403,49.26198],[-116.3441,49.26201],[-116.34415,49.26207],[-116.34418,49.2621],[-116.34421,49.26217],[-116.34423,49.26221],[-116.34426,49.26227],[-116.34429,49.26235],[-116.34433,49.26242],[-116.34437,49.26247],[-116.34442,49.26253],[-116.3445,49.26258],[-116.34456,49.26265],[-116.34461,49.26272],[-116.34464,49.26275],[-116.34467,49.26281],[-116.34469,49.26287],[-116.34473,49.26293],[-116.34476,49.263],[-116.3448,49.26308],[-116.34481,49.26314],[-116.34484,49.26319],[-116.34487,49.26325],[-116.34489,49.26331],[-116.34493,49.26337],[-116.34497,49.26343],[-116.34503,49.26347],[-116.3451,49.26352],[-116.34516,49.26357],[-116.34522,49.26362],[-116.34526,49.26366],[-116.34527,49.26373],[-116.3453,49.2638],[-116.34532,49.26387],[-116.34534,49.26392],[-116.34534,49.26395],[-116.34535,49.264],[-116.34538,49.26403],[-116.34538,49.26408],[-116.34539,49.26412],[-116.3454,49.26416],[-116.34543,49.2642],[-116.34544,49.26426],[-116.34547,49.26431],[-116.34548,49.26437],[-116.34551,49.2644],[-116.34552,49.26445],[-116.34554,49.26448],[-116.34558,49.26457],[-116.3456,49.26461],[-116.34563,49.26466],[-116.34566,49.2647],[-116.3457,49.26474],[-116.34574,49.26478],[-116.34579,49.26485],[-116.34585,49.26493],[-116.34589,49.26501],[-116.34591,49.26504],[-116.34595,49.26509],[-116.34598,49.26513],[-116.34602,49.26519],[-116.34605,49.26523],[-116.34608,49.26528],[-116.34612,49.26532],[-116.34613,49.26537],[-116.34614,49.26542],[-116.34616,49.26547],[-116.34617,49.26555],[-116.34617,49.26559],[-116.34617,49.26565],[-116.34618,49.2657],[-116.34617,49.26576],[-116.34616,49.26581],[-116.34616,49.26588],[-116.34616,49.26595],[-116.34616,49.266],[-116.34618,49.26604],[-116.34617,49.26611],[-116.34617,49.26617],[-116.34617,49.26624],[-116.34619,49.26628],[-116.34619,49.26632],[-116.34618,49.26637],[-116.3462,49.26645],[-116.3462,49.26649],[-116.34621,49.26654],[-116.34621,49.26659],[-116.34622,49.26664],[-116.34622,49.26667],[-116.34625,49.26675],[-116.34626,49.26679],[-116.34627,49.26686],[-116.34633,49.26693],[-116.3464,49.26698],[-116.34646,49.26704],[-116.34652,49.26709],[-116.34659,49.26714],[-116.34664,49.26722],[-116.34665,49.26726],[-116.34668,49.2673],[-116.34669,49.26734],[-116.34671,49.26739],[-116.34675,49.26747],[-116.34676,49.26752],[-116.34679,49.26759],[-116.34684,49.26767],[-116.34688,49.26774],[-116.34692,49.26781],[-116.34694,49.26786],[-116.34696,49.2679],[-116.34699,49.26797],[-116.347,49.26801],[-116.347,49.26805],[-116.34701,49.2681],[-116.34701,49.26814],[-116.34701,49.26817],[-116.34701,49.26821],[-116.34701,49.26827],[-116.34701,49.26832],[-116.34701,49.26839],[-116.34701,49.26845],[-116.34704,49.2685],[-116.34709,49.26858],[-116.34714,49.26865],[-116.34721,49.26871],[-116.34725,49.26875],[-116.34735,49.26883],[-116.34739,49.26887],[-116.34743,49.2689],[-116.3475,49.26898],[-116.34754,49.26902],[-116.34758,49.26907],[-116.34761,49.2691],[-116.34766,49.26916],[-116.34776,49.26922],[-116.3478,49.26926],[-116.34785,49.2693],[-116.34789,49.26936],[-116.34795,49.2694],[-116.348,49.26945],[-116.34805,49.2695],[-116.34811,49.26956],[-116.34816,49.26962],[-116.34822,49.26966],[-116.34826,49.26971],[-116.3483,49.26976],[-116.34834,49.26981],[-116.34838,49.26986],[-116.34842,49.26992],[-116.34843,49.26996],[-116.34846,49.27001],[-116.34849,49.27006],[-116.34851,49.27011],[-116.34854,49.27016],[-116.34857,49.27021],[-116.34859,49.27027],[-116.34862,49.27031],[-116.34866,49.27037],[-116.34869,49.27042],[-116.34872,49.27048],[-116.34876,49.27051],[-116.34878,49.27056],[-116.34882,49.27061],[-116.34885,49.27066],[-116.34888,49.27071],[-116.3489,49.27076],[-116.34892,49.27081],[-116.34894,49.27086],[-116.34897,49.27092],[-116.349,49.27097],[-116.34901,49.27103],[-116.34902,49.27107],[-116.34904,49.27112],[-116.34905,49.27119],[-116.34906,49.27123],[-116.34906,49.27127],[-116.34906,49.27131],[-116.34906,49.27135],[-116.34907,49.27139],[-116.34907,49.27143],[-116.34909,49.27148],[-116.3491,49.27152],[-116.34911,49.27157],[-116.34911,49.2716],[-116.34911,49.27166],[-116.34912,49.27174],[-116.34914,49.27182],[-116.34914,49.27185],[-116.34914,49.2719],[-116.34914,49.27194],[-116.34913,49.27202],[-116.34915,49.27209],[-116.34915,49.27212],[-116.34915,49.27217],[-116.34916,49.27224],[-116.34916,49.27229],[-116.34917,49.27236],[-116.34918,49.27243],[-116.3492,49.27247],[-116.34925,49.27255],[-116.34932,49.27259],[-116.34936,49.27265],[-116.34939,49.27269],[-116.34944,49.27275],[-116.3495,49.27279],[-116.34955,49.27284],[-116.34963,49.27289],[-116.34971,49.27295],[-116.3498,49.27301],[-116.34988,49.27306],[-116.34997,49.27311],[-116.35007,49.27316],[-116.35016,49.27322],[-116.35026,49.27326],[-116.35034,49.27331],[-116.35045,49.27335],[-116.35056,49.27341],[-116.35066,49.27345],[-116.35075,49.27349],[-116.35086,49.27352],[-116.35096,49.27355],[-116.35104,49.27357],[-116.35115,49.2736],[-116.35124,49.27363],[-116.35135,49.27367],[-116.35145,49.27373],[-116.35153,49.2738],[-116.3516,49.27386],[-116.35164,49.27392],[-116.35169,49.27398],[-116.35173,49.27405],[-116.35176,49.27409],[-116.35179,49.27416],[-116.35183,49.27424],[-116.35185,49.2743],[-116.35187,49.27435],[-116.35188,49.27439],[-116.35189,49.27443],[-116.35189,49.27448],[-116.35189,49.27452],[-116.35189,49.27458],[-116.35189,49.27462],[-116.35189,49.27468],[-116.35189,49.27471],[-116.35189,49.27479],[-116.35189,49.27483],[-116.35189,49.27487],[-116.35189,49.27492],[-116.35189,49.27498],[-116.35189,49.27505],[-116.3519,49.2751],[-116.3519,49.27513],[-116.3519,49.27518],[-116.3519,49.27524],[-116.35191,49.27531],[-116.35195,49.2754],[-116.35196,49.27544],[-116.35199,49.27549],[-116.35206,49.27556],[-116.35213,49.27562],[-116.35219,49.27568],[-116.35229,49.27574],[-116.35238,49.2758],[-116.35244,49.27585],[-116.35251,49.27588],[-116.35258,49.27594],[-116.35266,49.27599],[-116.35275,49.27605],[-116.35283,49.2761],[-116.35292,49.27616],[-116.35298,49.27621],[-116.35304,49.27626],[-116.35311,49.27629],[-116.35317,49.27634],[-116.35324,49.27638],[-116.35331,49.27643],[-116.35338,49.27647],[-116.35346,49.27654],[-116.35352,49.27658],[-116.35358,49.27663],[-116.35365,49.27667],[-116.35372,49.27672],[-116.35379,49.27677],[-116.35386,49.27684],[-116.35392,49.27689],[-116.35401,49.27694],[-116.3541,49.27698],[-116.35418,49.27703],[-116.35426,49.27708],[-116.35436,49.27714],[-116.35443,49.27715],[-116.35452,49.27719],[-116.35461,49.27722],[-116.35468,49.27724],[-116.35474,49.27725],[-116.35483,49.27726],[-116.35491,49.27727],[-116.355,49.27727],[-116.35513,49.2773],[-116.35521,49.27732],[-116.35546,49.2774],[-116.35557,49.27746],[-116.35565,49.27751],[-116.35573,49.27758],[-116.35581,49.27764],[-116.35585,49.27768],[-116.35591,49.27773],[-116.35606,49.27778],[-116.35612,49.27783],[-116.35618,49.27788],[-116.35625,49.27792],[-116.3563,49.27797],[-116.35637,49.278],[-116.35642,49.27804],[-116.35648,49.27806],[-116.35662,49.27813]]}},
{"type":"Feature","properties":{"spotId":"F-grouse-atv-0030","kind":"walk","km":0.09,"climbM":10,"name":"By Russell Creek","flags":[]},"geometry":{"type":"LineString","coordinates":[[-116.3369,49.12167],[-116.33814,49.12162]]}},
{"type":"Feature","properties":{"spotId":"F-grouse-atv-0030","kind":"ride","km":3.01,"climbM":11,"name":"By Russell Creek","flags":[]},"geometry":{"type":"LineString","coordinates":[[-116.33814,49.12162],[-116.33811,49.12176],[-116.33814,49.1219],[-116.33813,49.12207],[-116.33808,49.12222],[-116.33803,49.12236],[-116.33798,49.12249],[-116.33795,49.12266],[-116.33796,49.1228],[-116.33799,49.12294],[-116.33801,49.12308],[-116.33805,49.12323],[-116.33809,49.12339],[-116.33814,49.12352],[-116.33817,49.12367],[-116.33816,49.12385],[-116.33815,49.124],[-116.33811,49.12415],[-116.33805,49.12432],[-116.33802,49.12446],[-116.33798,49.12461],[-116.33789,49.12477],[-116.33779,49.12491],[-116.33771,49.12504],[-116.33763,49.12517],[-116.33754,49.12531],[-116.33747,49.12543],[-116.33743,49.12559],[-116.33739,49.12572],[-116.33737,49.12589],[-116.33741,49.12607],[-116.33743,49.12623],[-116.33745,49.12639],[-116.33746,49.12655],[-116.33744,49.12669],[-116.33747,49.12684],[-116.33752,49.12702],[-116.33756,49.12716],[-116.33758,49.1273],[-116.33758,49.12735],[-116.33758,49.12745],[-116.33751,49.1276],[-116.33744,49.12774],[-116.33747,49.12791],[-116.33749,49.12805],[-116.3375,49.12825],[-116.33752,49.12839],[-116.33751,49.12854],[-116.33751,49.12867],[-116.3375,49.12882],[-116.33744,49.12897],[-116.33737,49.1291],[-116.33726,49.12927],[-116.33716,49.12946],[-116.33709,49.1296],[-116.33707,49.12974],[-116.33702,49.12988],[-116.33693,49.13004],[-116.33682,49.13017],[-116.33669,49.13029],[-116.33662,49.13044],[-116.33653,49.13057],[-116.33643,49.1307],[-116.33634,49.13083],[-116.33629,49.13099],[-116.33626,49.13112],[-116.33623,49.13127],[-116.3362,49.13142],[-116.33614,49.13159],[-116.3361,49.13173],[-116.33602,49.13186],[-116.33597,49.13203],[-116.33596,49.13218],[-116.33594,49.13232],[-116.33594,49.13247],[-116.33585,49.13262],[-116.33584,49.1328],[-116.33592,49.13295],[-116.33596,49.1331],[-116.33587,49.13323],[-116.33567,49.13337],[-116.33543,49.13347],[-116.33525,49.13359],[-116.3351,49.13369],[-116.335,49.13382],[-116.33493,49.13396],[-116.33486,49.1341],[-116.33479,49.13423],[-116.33478,49.13439],[-116.33477,49.13456],[-116.33476,49.13473],[-116.33473,49.13489],[-116.33468,49.13513],[-116.33467,49.13528],[-116.33464,49.13543],[-116.33464,49.13557],[-116.33461,49.13571],[-116.33456,49.13584],[-116.33452,49.13598],[-116.33453,49.13613],[-116.33454,49.13628],[-116.3346,49.13642],[-116.33468,49.13657],[-116.3347,49.13671],[-116.33473,49.13686],[-116.33466,49.13699],[-116.33462,49.13714],[-116.3346,49.13729],[-116.33458,49.13744],[-116.33455,49.13758],[-116.33455,49.13771],[-116.33455,49.13787],[-116.33452,49.13805],[-116.33449,49.1382],[-116.33448,49.13833],[-116.33446,49.13849],[-116.33446,49.13862],[-116.3345,49.13878],[-116.33448,49.13895],[-116.33448,49.1391],[-116.33451,49.13923],[-116.33454,49.1394],[-116.33458,49.13954],[-116.33465,49.13969],[-116.33469,49.13984],[-116.33476,49.13999],[-116.33479,49.14013],[-116.33481,49.14023],[-116.33481,49.14027],[-116.33478,49.14043],[-116.3348,49.14057],[-116.3348,49.14072],[-116.33474,49.14086],[-116.33469,49.14101],[-116.33463,49.14116],[-116.3346,49.14129],[-116.33457,49.14144],[-116.33454,49.14157],[-116.33454,49.14172],[-116.33452,49.14187],[-116.33451,49.14201],[-116.33448,49.14215],[-116.33446,49.14229],[-116.33445,49.14245],[-116.33446,49.14259],[-116.33449,49.14275],[-116.33448,49.14291],[-116.33451,49.14306],[-116.33453,49.14323],[-116.33455,49.14337],[-116.33456,49.14351],[-116.3346,49.14366],[-116.33461,49.14379],[-116.33461,49.14394],[-116.33463,49.14408],[-116.33468,49.14424],[-116.33472,49.1444],[-116.33478,49.14455],[-116.33483,49.1447],[-116.33487,49.14485],[-116.33492,49.14501],[-116.33496,49.14516],[-116.33499,49.14534],[-116.33501,49.1455],[-116.33505,49.14564],[-116.33512,49.14579],[-116.33517,49.14593],[-116.3352,49.14606],[-116.33525,49.14622],[-116.33527,49.14635],[-116.3353,49.1465],[-116.33535,49.14667],[-116.33542,49.14681],[-116.33548,49.14697],[-116.33556,49.14722],[-116.3356,49.14736],[-116.33567,49.14752],[-116.33574,49.14766],[-116.33575,49.14779],[-116.33575,49.14788]]}},
{"type":"Feature","properties":{"spotId":"F-grouse-atv-0048","kind":"walk","km":3.17,"climbM":1030,"name":"1.1 km SW of Mission Creek","flags":["Route crosses private land (ParcelMap BC, updated 2026-09-26): get permission first or go around."]},"geometry":{"type":"LineString","coordinates":[[-116.42506,49.01782],[-116.38372,49.00923]]}},
{"type":"Feature","properties":{"spotId":"F-grouse-atv-0048","kind":"ride","km":4.33,"climbM":67,"name":"1.1 km SW of Mission Creek","flags":["Route crosses private land (ParcelMap BC, updated 2026-09-26): get permission first or go around."]},"geometry":{"type":"LineString","coordinates":[[-116.38372,49.00923],[-116.38355,49.00931],[-116.38324,49.00944],[-116.38318,49.00947],[-116.38308,49.0096],[-116.38298,49.00969],[-116.38286,49.00978],[-116.38275,49.00985],[-116.38269,49.00993],[-116.38265,49.01008],[-116.38258,49.01018],[-116.38256,49.01027],[-116.38253,49.01038],[-116.38256,49.01054],[-116.38258,49.01061],[-116.38261,49.01065],[-116.38265,49.01076],[-116.38269,49.01092],[-116.3827,49.01108],[-116.38273,49.01125],[-116.38276,49.01139],[-116.38275,49.01154],[-116.38276,49.01158],[-116.38275,49.01177],[-116.38263,49.01202],[-116.38257,49.01221],[-116.38249,49.01236],[-116.38231,49.0126],[-116.38228,49.01266],[-116.38206,49.01291],[-116.38202,49.013],[-116.38195,49.01307],[-116.38188,49.01318],[-116.38181,49.01331],[-116.3818,49.01347],[-116.38179,49.01354],[-116.38179,49.01362],[-116.38183,49.01368],[-116.38185,49.01371],[-116.38197,49.01384],[-116.38218,49.01403],[-116.3823,49.01421],[-116.38236,49.01433],[-116.38248,49.01448],[-116.38254,49.01457],[-116.38249,49.01471],[-116.38239,49.01483],[-116.38213,49.01485],[-116.38193,49.01481],[-116.38172,49.01472],[-116.38155,49.01464],[-116.38137,49.01449],[-116.38116,49.01438],[-116.38086,49.01418],[-116.38055,49.014],[-116.38039,49.01394],[-116.38023,49.01388],[-116.37992,49.01382],[-116.37975,49.01368],[-116.37971,49.01365],[-116.37961,49.01358],[-116.37949,49.01358],[-116.37941,49.01354],[-116.37936,49.01347],[-116.37926,49.01333],[-116.37919,49.01317],[-116.37916,49.01295],[-116.37913,49.01279],[-116.37909,49.01263],[-116.37905,49.01252],[-116.3791,49.01227],[-116.37916,49.01209],[-116.37919,49.0119],[-116.37926,49.01169],[-116.37925,49.01163],[-116.37923,49.01151],[-116.37915,49.01141],[-116.37911,49.01127],[-116.37892,49.01102],[-116.37878,49.01089],[-116.37854,49.01063],[-116.37842,49.01052],[-116.37829,49.01044],[-116.37816,49.01033],[-116.37805,49.01023],[-116.3779,49.0101],[-116.37777,49.00993],[-116.37763,49.00978],[-116.37756,49.00972],[-116.37743,49.00968],[-116.37732,49.00969],[-116.37723,49.00972],[-116.37719,49.00978],[-116.37724,49.00986],[-116.37732,49.00993],[-116.37737,49.01002],[-116.3774,49.01011],[-116.37738,49.0102],[-116.37743,49.01032],[-116.37756,49.01053],[-116.37756,49.01068],[-116.37758,49.01092],[-116.37764,49.01113],[-116.37765,49.01133],[-116.37754,49.0115],[-116.37741,49.0116],[-116.37729,49.01174],[-116.37721,49.01187],[-116.37718,49.01194],[-116.37707,49.01212],[-116.37705,49.01218],[-116.37702,49.01225],[-116.37698,49.01236],[-116.37692,49.01243],[-116.37685,49.01258],[-116.37683,49.01267],[-116.37679,49.01287],[-116.37676,49.01311],[-116.37678,49.0133],[-116.37675,49.01351],[-116.37664,49.01379],[-116.3766,49.01412],[-116.37657,49.01441],[-116.37649,49.01463],[-116.37651,49.01469],[-116.37648,49.0148],[-116.3765,49.01493],[-116.37647,49.01519],[-116.37646,49.01526],[-116.37645,49.01536],[-116.3764,49.01542],[-116.37635,49.01549],[-116.37639,49.01557],[-116.37645,49.01566],[-116.37655,49.01585],[-116.37668,49.01598],[-116.37679,49.01616],[-116.37687,49.01644],[-116.37699,49.01663],[-116.37712,49.01685],[-116.37716,49.0169],[-116.37717,49.01696],[-116.37718,49.01698],[-116.37721,49.01706],[-116.37724,49.01714],[-116.3772,49.01727],[-116.37717,49.01732],[-116.37706,49.01762],[-116.37704,49.01772],[-116.37695,49.01792],[-116.37691,49.01805],[-116.3768,49.01822],[-116.37678,49.01832],[-116.37679,49.01842],[-116.3768,49.01852],[-116.37689,49.01864],[-116.37697,49.01884],[-116.3771,49.01906],[-116.37712,49.01916],[-116.37716,49.01925],[-116.37727,49.01943],[-116.37726,49.01963],[-116.37727,49.01982],[-116.3773,49.01992],[-116.37732,49.02009],[-116.37738,49.02021],[-116.37746,49.02034],[-116.3776,49.02059],[-116.37769,49.02069],[-116.37787,49.02084],[-116.37793,49.02098],[-116.37812,49.0213],[-116.37823,49.02153],[-116.37829,49.02181],[-116.37825,49.02203],[-116.37827,49.02211],[-116.37819,49.02226],[-116.37816,49.02232],[-116.37823,49.0224],[-116.37827,49.02245],[-116.37822,49.0225],[-116.37811,49.02256],[-116.37806,49.02257],[-116.378,49.02257],[-116.3779,49.02255],[-116.37769,49.0225],[-116.3776,49.02249],[-116.37745,49.02246],[-116.37736,49.0224],[-116.3773,49.02236],[-116.37723,49.02231],[-116.3771,49.02219],[-116.37702,49.02209],[-116.37696,49.02202],[-116.37692,49.02193],[-116.37678,49.0218],[-116.37666,49.02172],[-116.37647,49.02164],[-116.37627,49.02145],[-116.37608,49.02134],[-116.37603,49.02131],[-116.37599,49.02124],[-116.37593,49.02106],[-116.37581,49.02098],[-116.37573,49.0208],[-116.37548,49.02069],[-116.37537,49.02058],[-116.37534,49.02051],[-116.37508,49.02032],[-116.3748,49.02013],[-116.37463,49.01994],[-116.37451,49.01981],[-116.37442,49.01969],[-116.37427,49.01954],[-116.37405,49.01936],[-116.37401,49.01929],[-116.37388,49.01918],[-116.37368,49.01887],[-116.37349,49.01875],[-116.37335,49.01861],[-116.37321,49.01851],[-116.37301,49.01833],[-116.37274,49.01805],[-116.37248,49.01783],[-116.37199,49.01753],[-116.37155,49.01729],[-116.37141,49.01725],[-116.37127,49.01723],[-116.37123,49.01714],[-116.37118,49.01709],[-116.37114,49.01704],[-116.37101,49.01698],[-116.37078,49.01687],[-116.37051,49.01667],[-116.37024,49.01653],[-116.36989,49.01637],[-116.36955,49.01619],[-116.36913,49.0159],[-116.36877,49.01566],[-116.36832,49.01542],[-116.36759,49.01502],[-116.36717,49.01487],[-116.36691,49.01484],[-116.3665,49.01488],[-116.36621,49.01491],[-116.36576,49.01502],[-116.36543,49.01516],[-116.36527,49.01523],[-116.36509,49.01541]]}},
{"type":"Feature","properties":{"spotId":"F-grouse-atv-0056","kind":"walk","km":0.81,"climbM":252,"name":"1.1 km E of Arrow Mountain","flags":["Route touches city limits: Town of Creston. Local firearm bylaw applies.","Route crosses private land (ParcelMap BC, updated 2026-09-26): get permission first or go around."]},"geometry":{"type":"LineString","coordinates":[[-116.46743,49.1213],[-116.47482,49.12671]]}},
{"type":"Feature","properties":{"spotId":"F-grouse-atv-0056","kind":"ride","km":6.51,"climbM":53,"name":"1.1 km E of Arrow Mountain","flags":["Route touches city limits: Town of Creston. Local firearm bylaw applies.","Route crosses private land (ParcelMap BC, updated 2026-09-26): get permission first or go around."]},"geometry":{"type":"LineString","coordinates":[[-116.47482,49.12671],[-116.47466,49.12671],[-116.4745,49.1268],[-116.47437,49.12698],[-116.47427,49.12715],[-116.47413,49.12731],[-116.47396,49.12733],[-116.47369,49.12732],[-116.47356,49.12722],[-116.47352,49.1271],[-116.47348,49.12689],[-116.47344,49.12671],[-116.47326,49.12658],[-116.4731,49.12646],[-116.47306,49.12632],[-116.47312,49.12613],[-116.47317,49.12594],[-116.47301,49.12577],[-116.47292,49.12564],[-116.47293,49.12541],[-116.47288,49.12522],[-116.47288,49.12504],[-116.47293,49.12489],[-116.47296,49.12465],[-116.47305,49.12445],[-116.47316,49.12432],[-116.47337,49.12417],[-116.47361,49.12407],[-116.47385,49.12404],[-116.47402,49.12398],[-116.47421,49.12388],[-116.47445,49.12376],[-116.47467,49.12356],[-116.47476,49.12342],[-116.47488,49.12321],[-116.47496,49.12302],[-116.47503,49.12278],[-116.4751,49.12255],[-116.47521,49.12233],[-116.47527,49.12212],[-116.47536,49.12193],[-116.47544,49.12173],[-116.47548,49.12152],[-116.47548,49.12135],[-116.47546,49.12121],[-116.47539,49.12098],[-116.47539,49.12077],[-116.47538,49.12056],[-116.47537,49.12047],[-116.47539,49.1203],[-116.47539,49.12011],[-116.47542,49.11991],[-116.47549,49.11973],[-116.47555,49.11952],[-116.47567,49.11933],[-116.47584,49.1191],[-116.47599,49.11891],[-116.47618,49.11871],[-116.47632,49.11852],[-116.47652,49.1183],[-116.47667,49.11816],[-116.47686,49.11795],[-116.47708,49.11777],[-116.47735,49.11755],[-116.47754,49.11736],[-116.47772,49.11716],[-116.4779,49.11695],[-116.47811,49.11674],[-116.47832,49.11656],[-116.47862,49.11634],[-116.47887,49.11615],[-116.47912,49.11598],[-116.47944,49.11577],[-116.47968,49.11557],[-116.47992,49.11544],[-116.48013,49.11531],[-116.48019,49.11522],[-116.48038,49.11503],[-116.48054,49.11484],[-116.48067,49.11467],[-116.4809,49.11447],[-116.48114,49.11428],[-116.48137,49.1141],[-116.48163,49.11386],[-116.48177,49.11369],[-116.48195,49.11356],[-116.48217,49.11337],[-116.48241,49.11316],[-116.48266,49.11299],[-116.48297,49.11281],[-116.48329,49.11267],[-116.48337,49.11263],[-116.48366,49.11251],[-116.4838,49.11246],[-116.48412,49.11237],[-116.48447,49.11227],[-116.48482,49.11218],[-116.4849,49.11215],[-116.48522,49.11205],[-116.48533,49.11202],[-116.48563,49.11192],[-116.48599,49.11181],[-116.48634,49.11172],[-116.4867,49.11166],[-116.48677,49.11165],[-116.4871,49.11159],[-116.48743,49.11155],[-116.48778,49.11152],[-116.48811,49.11155],[-116.48841,49.11162],[-116.48877,49.11172],[-116.48912,49.11182],[-116.48941,49.11187],[-116.48971,49.11191],[-116.48999,49.11197],[-116.49031,49.112],[-116.49053,49.11196],[-116.49088,49.11192],[-116.49107,49.11195],[-116.49134,49.11202],[-116.49162,49.112],[-116.49168,49.112],[-116.49196,49.11195],[-116.49227,49.11191],[-116.49253,49.11191],[-116.49275,49.11196],[-116.49308,49.11206],[-116.4934,49.11218],[-116.49352,49.11223],[-116.4937,49.1123],[-116.4938,49.11234],[-116.49412,49.11252],[-116.49442,49.11269],[-116.49469,49.11291],[-116.49487,49.1131],[-116.49507,49.11329],[-116.49538,49.11349],[-116.49565,49.11365],[-116.49601,49.1138],[-116.4963,49.11398],[-116.4966,49.11417],[-116.49685,49.1143],[-116.49696,49.11435],[-116.49722,49.1145],[-116.49752,49.11464],[-116.49785,49.11487],[-116.49816,49.11509],[-116.49832,49.11524],[-116.49843,49.1153],[-116.49869,49.11544],[-116.49901,49.11568],[-116.49917,49.11587],[-116.49938,49.1161],[-116.4997,49.11626],[-116.50001,49.11637],[-116.50023,49.11654],[-116.5005,49.11676],[-116.50073,49.11702],[-116.50089,49.11728],[-116.50103,49.11746],[-116.50126,49.11766],[-116.50142,49.11794],[-116.50167,49.11822],[-116.50194,49.1185],[-116.50207,49.1186],[-116.5023,49.11876],[-116.50247,49.11885],[-116.50273,49.11899],[-116.50289,49.11911],[-116.50311,49.11928],[-116.50339,49.1196],[-116.50361,49.11992],[-116.5038,49.1202],[-116.5041,49.12048],[-116.50429,49.12076],[-116.50453,49.12104],[-116.50466,49.12135],[-116.5048,49.12161],[-116.50481,49.12163],[-116.50486,49.1219],[-116.50496,49.12212],[-116.50513,49.12231],[-116.50535,49.12254],[-116.50549,49.12274],[-116.50554,49.123],[-116.50563,49.12321],[-116.50577,49.12338],[-116.506,49.12346],[-116.50626,49.12345],[-116.50655,49.1236],[-116.50679,49.12386],[-116.50703,49.1241],[-116.50731,49.12436],[-116.50759,49.12459],[-116.50779,49.12485],[-116.50792,49.12508],[-116.508,49.12531],[-116.50799,49.12559],[-116.50799,49.12577],[-116.508,49.12602],[-116.50804,49.12618],[-116.50812,49.12636],[-116.50816,49.12687],[-116.50817,49.12721],[-116.50822,49.12754],[-116.50829,49.12782],[-116.50835,49.12807],[-116.5085,49.12841],[-116.50862,49.12879],[-116.50873,49.12917],[-116.50883,49.12962],[-116.50894,49.12993],[-116.50909,49.13017],[-116.50928,49.13037],[-116.50952,49.13058],[-116.50971,49.13074],[-116.51002,49.13095],[-116.51025,49.13113],[-116.51036,49.13128],[-116.51039,49.13146],[-116.51044,49.13164],[-116.51056,49.13174],[-116.51063,49.13191],[-116.51078,49.13207],[-116.51097,49.13199],[-116.51098,49.13164],[-116.51107,49.1314],[-116.51127,49.13109],[-116.51138,49.13077],[-116.51136,49.13048],[-116.51121,49.13019],[-116.51113,49.12982],[-116.51104,49.12955],[-116.51105,49.12939],[-116.51112,49.12938],[-116.51135,49.12947],[-116.51153,49.12966],[-116.51171,49.12984],[-116.51191,49.13005],[-116.51215,49.13029],[-116.51234,49.13048],[-116.51248,49.13069],[-116.51257,49.13085],[-116.51264,49.13106],[-116.51267,49.13114],[-116.51273,49.13135],[-116.51275,49.13139],[-116.51281,49.13162],[-116.51287,49.13185],[-116.51291,49.13198],[-116.513,49.1322],[-116.51304,49.13232],[-116.51308,49.13254],[-116.51309,49.13259],[-116.51309,49.13282],[-116.51309,49.13287],[-116.51311,49.13309],[-116.51324,49.1333],[-116.51326,49.13333],[-116.51344,49.13355],[-116.51349,49.13374],[-116.51367,49.13393],[-116.51384,49.13412],[-116.51397,49.13433],[-116.51399,49.13439],[-116.51411,49.1346],[-116.51422,49.1348],[-116.51438,49.135],[-116.51453,49.13516]]}},
{"type":"Feature","properties":{"spotId":"F-grouse-drive-0038","kind":"roadside","km":5.74,"climbM":398,"name":"400 m S of Kitchener Creek","flags":[]},"geometry":{"type":"LineString","coordinates":[[-116.31349,49.1531],[-116.31338,49.15293],[-116.31318,49.1528],[-116.31286,49.15272],[-116.31232,49.15256],[-116.31182,49.15243],[-116.31152,49.15232],[-116.31132,49.15227],[-116.31107,49.15223],[-116.31085,49.15218],[-116.31054,49.1521],[-116.31033,49.15208],[-116.31011,49.15205],[-116.30994,49.15199],[-116.30973,49.15191],[-116.30956,49.15184],[-116.30932,49.1518],[-116.30909,49.15178],[-116.30887,49.15178],[-116.30861,49.15176],[-116.30839,49.15174],[-116.30817,49.1517],[-116.30793,49.15167],[-116.30771,49.15163],[-116.30745,49.15159],[-116.30724,49.15155],[-116.30689,49.15149],[-116.30667,49.15146],[-116.30623,49.15136],[-116.30594,49.15128],[-116.30556,49.15119],[-116.30535,49.15115],[-116.30516,49.1511],[-116.30499,49.15108],[-116.30478,49.15101],[-116.30466,49.15098],[-116.30433,49.15097],[-116.30408,49.15093],[-116.30392,49.15086],[-116.30378,49.15079],[-116.30371,49.15077],[-116.30361,49.15074],[-116.30339,49.15075],[-116.30317,49.1508],[-116.30289,49.15084],[-116.3026,49.15086],[-116.30231,49.15089],[-116.30204,49.15091],[-116.30183,49.15092],[-116.30164,49.15091],[-116.3014,49.15089],[-116.3009,49.1508],[-116.30045,49.1507],[-116.30004,49.15066],[-116.29959,49.15064],[-116.29936,49.15061],[-116.29903,49.15062],[-116.29868,49.15064],[-116.29846,49.15062],[-116.29827,49.1506],[-116.29792,49.15051],[-116.29785,49.15049],[-116.29729,49.15047],[-116.29682,49.15047],[-116.29633,49.15047],[-116.29594,49.15045],[-116.29531,49.15042],[-116.29501,49.15037],[-116.29472,49.15034],[-116.29452,49.15031],[-116.29397,49.15021],[-116.29368,49.15016],[-116.29348,49.15011],[-116.29318,49.15003],[-116.29299,49.14998],[-116.29281,49.14992],[-116.29262,49.14983],[-116.29246,49.14974],[-116.29225,49.14959],[-116.29198,49.14941],[-116.29194,49.14929],[-116.29194,49.14914],[-116.29197,49.14896],[-116.2921,49.14879],[-116.2922,49.14866],[-116.29242,49.14841],[-116.29259,49.14819],[-116.2928,49.14794],[-116.29301,49.14767],[-116.29318,49.14741],[-116.29332,49.14716],[-116.29337,49.14697],[-116.29346,49.1467],[-116.29346,49.14654],[-116.29345,49.1463],[-116.29341,49.14603],[-116.29349,49.14576],[-116.29359,49.14554],[-116.29363,49.14536],[-116.29367,49.14514],[-116.2937,49.14491],[-116.29375,49.14468],[-116.29379,49.1445],[-116.29384,49.14428],[-116.29384,49.14427],[-116.29389,49.14415],[-116.29396,49.14398],[-116.29401,49.14376],[-116.2941,49.14324],[-116.29413,49.14273],[-116.29418,49.14249],[-116.2942,49.14211],[-116.29415,49.14189],[-116.29411,49.14175],[-116.29405,49.14164],[-116.29407,49.1414],[-116.29409,49.1413],[-116.2941,49.14117],[-116.2941,49.141],[-116.29408,49.14085],[-116.29402,49.14078],[-116.2939,49.14073],[-116.29374,49.14071],[-116.29361,49.14073],[-116.29339,49.14079],[-116.29338,49.14081],[-116.2933,49.14089],[-116.29318,49.14124],[-116.29296,49.14166],[-116.29284,49.1418],[-116.29264,49.14199],[-116.29238,49.14227],[-116.29208,49.14259],[-116.29184,49.14286],[-116.29154,49.14313],[-116.2912,49.14344],[-116.29094,49.1437],[-116.29076,49.14393],[-116.29062,49.14417],[-116.29041,49.14439],[-116.2902,49.14459],[-116.28994,49.14474],[-116.28961,49.14488],[-116.28919,49.14505],[-116.28867,49.14526],[-116.28824,49.14533],[-116.28766,49.1454],[-116.28717,49.14548],[-116.28688,49.14551],[-116.28657,49.14551],[-116.2861,49.14549],[-116.28583,49.14546],[-116.28518,49.14542],[-116.28451,49.14539],[-116.28414,49.14541],[-116.28384,49.14541],[-116.28374,49.14541],[-116.28355,49.1454],[-116.28328,49.1454],[-116.28304,49.1454],[-116.28251,49.14539],[-116.2823,49.14533],[-116.282,49.14524],[-116.28172,49.14516],[-116.2815,49.14508],[-116.28121,49.14499],[-116.28102,49.14497],[-116.28075,49.14496],[-116.28055,49.14497],[-116.28035,49.14495],[-116.28017,49.14495],[-116.28013,49.14496],[-116.2799,49.14499],[-116.27966,49.14512],[-116.27926,49.14529],[-116.27894,49.1454],[-116.27871,49.14548],[-116.27854,49.1455],[-116.27838,49.14548],[-116.27818,49.14544],[-116.278,49.14538],[-116.27775,49.14521],[-116.27755,49.14508],[-116.27737,49.14494],[-116.2772,49.14473],[-116.27701,49.14448],[-116.27688,49.14431],[-116.27671,49.14406],[-116.27654,49.14373],[-116.27642,49.14344],[-116.27632,49.14314],[-116.27627,49.14289],[-116.27624,49.14271],[-116.27624,49.14256],[-116.27622,49.14235],[-116.27619,49.14226],[-116.27611,49.14218],[-116.27592,49.14211],[-116.27557,49.14193],[-116.27493,49.14158],[-116.27415,49.14119],[-116.27354,49.14091],[-116.27308,49.14058],[-116.2728,49.14043],[-116.27223,49.1402],[-116.2715,49.1399],[-116.27113,49.13974],[-116.2706,49.13949],[-116.27012,49.13928],[-116.26978,49.13914],[-116.26951,49.139],[-116.26924,49.13888],[-116.26876,49.13872],[-116.26857,49.13864],[-116.26839,49.13857],[-116.2682,49.1385],[-116.26798,49.13843],[-116.26776,49.13836],[-116.26757,49.1383],[-116.26734,49.13822],[-116.26715,49.13817],[-116.26692,49.13811],[-116.26667,49.13807],[-116.2664,49.138],[-116.26621,49.13794],[-116.26612,49.13791],[-116.26591,49.13785],[-116.26555,49.13772],[-116.26532,49.13765],[-116.26511,49.13759],[-116.26491,49.13753],[-116.26455,49.13744],[-116.26435,49.13739],[-116.26402,49.13737],[-116.26382,49.13735],[-116.26354,49.13734],[-116.26334,49.13733],[-116.26313,49.13731],[-116.26293,49.13724],[-116.26269,49.13719],[-116.26249,49.13713],[-116.26226,49.13708],[-116.26206,49.13703],[-116.26186,49.137]]}},
{"type":"Feature","properties":{"spotId":"F-grouse-walk-0070","kind":"roadside","km":3.23,"climbM":9,"name":"460 m N of Sullivan Creek","flags":[]},"geometry":{"type":"LineString","coordinates":[[-116.41446,49.10574],[-116.41446,49.10572],[-116.41446,49.10565],[-116.41441,49.10558],[-116.41432,49.10554],[-116.41411,49.10551],[-116.414,49.10548],[-116.41392,49.10544],[-116.41388,49.10539],[-116.41385,49.10526],[-116.41384,49.10518],[-116.41381,49.10516],[-116.41376,49.10513],[-116.41366,49.1051],[-116.41353,49.105],[-116.41343,49.10487],[-116.41334,49.10482],[-116.41307,49.10475],[-116.41268,49.10466],[-116.41214,49.10453],[-116.4117,49.10439],[-116.41104,49.10425],[-116.41053,49.10418],[-116.41032,49.10416],[-116.41,49.10414],[-116.40986,49.10411],[-116.40962,49.10409],[-116.40946,49.1041],[-116.4093,49.10409],[-116.40926,49.10406],[-116.40927,49.10402],[-116.40932,49.104],[-116.40952,49.10393],[-116.40987,49.10378],[-116.41028,49.10363],[-116.41047,49.10354],[-116.41066,49.10345],[-116.41092,49.10334],[-116.41115,49.10332],[-116.41123,49.10328],[-116.41126,49.10322],[-116.41121,49.10316],[-116.4111,49.10312],[-116.41102,49.10309],[-116.41092,49.10311],[-116.41084,49.10312],[-116.41071,49.1031],[-116.41059,49.10306],[-116.41026,49.10303],[-116.41011,49.10298],[-116.41004,49.10296],[-116.41003,49.10293],[-116.41003,49.10289],[-116.41008,49.10286],[-116.41036,49.1028],[-116.41065,49.10274],[-116.41118,49.10263],[-116.41141,49.10261],[-116.41172,49.10252],[-116.41192,49.10247],[-116.41211,49.10247],[-116.41236,49.10245],[-116.41263,49.10239],[-116.41276,49.10236],[-116.41283,49.10237],[-116.41301,49.10237],[-116.41311,49.10237],[-116.41322,49.10228],[-116.41332,49.10226],[-116.41349,49.10223],[-116.4137,49.10224],[-116.41384,49.10227],[-116.41388,49.1023],[-116.41392,49.10231],[-116.41397,49.1023],[-116.414,49.10226],[-116.4141,49.10216],[-116.41422,49.10207],[-116.41428,49.10202],[-116.41443,49.10199],[-116.41448,49.10196],[-116.41453,49.10193],[-116.41457,49.1019],[-116.41465,49.1019],[-116.41471,49.10193],[-116.41474,49.10194],[-116.41485,49.10192],[-116.41495,49.10192],[-116.41498,49.10194],[-116.41499,49.102],[-116.41501,49.10203],[-116.41502,49.10206],[-116.41503,49.1021],[-116.41504,49.10215],[-116.41507,49.10218],[-116.41509,49.10217],[-116.41512,49.10215],[-116.41514,49.10207],[-116.41516,49.10202],[-116.4152,49.10196],[-116.4152,49.10189],[-116.41517,49.10185],[-116.41518,49.10182],[-116.41519,49.1018],[-116.41521,49.10175],[-116.41521,49.1017],[-116.41518,49.10168],[-116.41511,49.10166],[-116.41501,49.10163],[-116.41491,49.10157],[-116.41484,49.10153],[-116.41485,49.1015],[-116.41487,49.1015],[-116.41496,49.10148],[-116.41501,49.10148],[-116.41516,49.10147],[-116.41533,49.10148],[-116.41545,49.1015],[-116.41555,49.10154],[-116.41561,49.1016],[-116.41565,49.10166],[-116.41568,49.10176],[-116.41569,49.10178],[-116.41572,49.10179],[-116.41577,49.10178],[-116.41583,49.10178],[-116.41592,49.10175],[-116.41601,49.10172],[-116.41607,49.1017],[-116.41612,49.10168],[-116.41619,49.10166],[-116.41625,49.10167],[-116.41632,49.10169],[-116.41635,49.10172],[-116.41636,49.10174],[-116.41634,49.10179],[-116.41636,49.10185],[-116.41637,49.10187],[-116.41639,49.10188],[-116.41647,49.10188],[-116.41652,49.10189],[-116.41656,49.10189],[-116.41662,49.10192],[-116.4167,49.10195],[-116.41677,49.10196],[-116.41681,49.10195],[-116.41679,49.10193],[-116.41672,49.10187],[-116.41668,49.10182],[-116.41665,49.1018],[-116.41664,49.10175],[-116.41664,49.10174],[-116.4167,49.10173],[-116.41682,49.10174],[-116.41699,49.10173],[-116.41718,49.10176],[-116.41735,49.10178],[-116.41759,49.10178],[-116.41791,49.10181],[-116.41801,49.10186],[-116.41807,49.10196],[-116.41816,49.10204],[-116.41828,49.10208],[-116.41848,49.10208],[-116.41878,49.10202],[-116.41892,49.10205],[-116.41907,49.10215],[-116.41929,49.10221],[-116.4196,49.10231],[-116.41977,49.10234],[-116.41988,49.10234],[-116.42004,49.10231],[-116.42012,49.10232],[-116.42025,49.10237],[-116.42045,49.10244],[-116.42052,49.10246],[-116.42056,49.1025],[-116.42063,49.10257],[-116.42067,49.1026],[-116.42069,49.10264],[-116.4207,49.10267],[-116.4207,49.10268],[-116.4207,49.1027],[-116.42067,49.10277],[-116.42066,49.10281],[-116.42068,49.10282],[-116.42072,49.10282],[-116.42073,49.10281],[-116.42074,49.10278],[-116.42077,49.10275],[-116.42081,49.10272],[-116.42083,49.10268],[-116.42085,49.10264],[-116.42086,49.10261],[-116.42085,49.10257],[-116.42085,49.10253],[-116.42084,49.10249],[-116.42083,49.10245],[-116.42082,49.10243],[-116.42083,49.10242],[-116.42086,49.10242],[-116.42087,49.10242],[-116.42088,49.10242],[-116.4209,49.10244],[-116.42092,49.10248],[-116.42093,49.10249],[-116.42097,49.10251],[-116.42098,49.10252],[-116.421,49.10256],[-116.42102,49.10261],[-116.42104,49.10263],[-116.42105,49.10267],[-116.42104,49.1027],[-116.42103,49.10274],[-116.42104,49.10276],[-116.42107,49.10278],[-116.42111,49.1028],[-116.42112,49.10283],[-116.42113,49.10284],[-116.42115,49.10284],[-116.42116,49.10282],[-116.42116,49.1028],[-116.42116,49.10279],[-116.42113,49.10277],[-116.42112,49.10274],[-116.42112,49.10271],[-116.42114,49.1027],[-116.42118,49.10265],[-116.4212,49.10259],[-116.42119,49.10253],[-116.42118,49.10247],[-116.42115,49.1024],[-116.42113,49.10235],[-116.42115,49.10234],[-116.42117,49.10233],[-116.42121,49.10233],[-116.42124,49.10233],[-116.42126,49.10234],[-116.42128,49.10235],[-116.42137,49.10241],[-116.42154,49.1025],[-116.42178,49.10266],[-116.42195,49.10274],[-116.42208,49.10281],[-116.42216,49.10292],[-116.42229,49.10306],[-116.4223,49.10315],[-116.4226,49.10324],[-116.42279,49.10331],[-116.4229,49.10334],[-116.4229,49.10346],[-116.42287,49.10362],[-116.42287,49.10375],[-116.42296,49.10381],[-116.42312,49.1038],[-116.42329,49.10382],[-116.42346,49.10388],[-116.42362,49.10391],[-116.42378,49.10397],[-116.42413,49.10404],[-116.42434,49.10415],[-116.42452,49.10425],[-116.42465,49.10427],[-116.42472,49.10419],[-116.4247,49.10409],[-116.42455,49.10394],[-116.42442,49.10383],[-116.42433,49.10371],[-116.4243,49.10363],[-116.42445,49.10365],[-116.42456,49.10373],[-116.42489,49.10379],[-116.42515,49.10386],[-116.42542,49.1039],[-116.42572,49.104],[-116.42603,49.10404],[-116.42625,49.10408],[-116.42639,49.10415],[-116.42653,49.10428],[-116.42683,49.10439],[-116.427,49.10447],[-116.42713,49.10454],[-116.42724,49.10456],[-116.42722,49.1045],[-116.42714,49.1044],[-116.427,49.10429],[-116.42698,49.1042],[-116.42708,49.10421],[-116.42722,49.10426],[-116.42749,49.1043],[-116.42788,49.10448],[-116.42809,49.10454],[-116.42823,49.10464],[-116.42837,49.10474],[-116.42854,49.10477],[-116.42857,49.10472],[-116.42846,49.1046],[-116.42841,49.10453],[-116.42834,49.10443],[-116.42813,49.10431],[-116.4281,49.10419],[-116.42829,49.1042],[-116.42844,49.10426],[-116.42857,49.10436],[-116.42884,49.10443],[-116.429,49.10442],[-116.42935,49.10456],[-116.42972,49.10467],[-116.42996,49.10475],[-116.43028,49.10487],[-116.43048,49.10494],[-116.43061,49.10495],[-116.43079,49.10494],[-116.43092,49.10492],[-116.43113,49.10482],[-116.43124,49.10476],[-116.43136,49.10474]]}},
{"type":"Feature","properties":{"spotId":"F-moose-drive-0035","kind":"walk","km":0.28,"climbM":0,"name":"370 m E of Little Moyie River","flags":[]},"geometry":{"type":"LineString","coordinates":[[-116.2595,49.07902],[-116.26323,49.07962]]}},
{"type":"Feature","properties":{"spotId":"F-moose-drive-0036","kind":"walk","km":0.09,"climbM":0,"name":"By Little Moyie River","flags":[]},"geometry":{"type":"LineString","coordinates":[[-116.25856,49.05652],[-116.2578,49.05715]]}}
]}
