{"type":"FeatureCollection","features":[
{"type":"Feature","properties":{"spotId":"F-camp-camp-0037","kind":"walk","km":0.07,"climbM":0,"name":"By Toby Creek","flags":[]},"geometry":{"type":"LineString","coordinates":[[-116.34312,50.37717],[-116.34381,50.37762]]}},
{"type":"Feature","properties":{"spotId":"F-camp-camp-0039","kind":"walk","km":0.04,"climbM":3,"name":"190 m N of Jumbo Creek","flags":[]},"geometry":{"type":"LineString","coordinates":[[-116.45733,50.36446],[-116.45724,50.36484]]}},
{"type":"Feature","properties":{"spotId":"F-deer-atv-0094","kind":"ride","km":2.31,"climbM":131,"name":"280 m S of Hopeful Creek","flags":[]},"geometry":{"type":"LineString","coordinates":[[-116.27961,50.43387],[-116.27939,50.43402],[-116.27915,50.43415],[-116.27905,50.43422],[-116.27891,50.43431],[-116.27873,50.43448],[-116.27858,50.43461],[-116.27848,50.43468],[-116.27836,50.43473],[-116.27803,50.4348],[-116.27783,50.43487],[-116.27771,50.43487],[-116.27755,50.43483],[-116.27743,50.43475],[-116.27732,50.43464],[-116.27723,50.43453],[-116.27711,50.43446],[-116.27685,50.43441],[-116.27669,50.43441],[-116.2765,50.43443],[-116.27616,50.43444],[-116.27604,50.43444],[-116.27576,50.43444],[-116.27556,50.43444],[-116.27543,50.43444],[-116.27529,50.43444],[-116.27501,50.43452],[-116.27467,50.43455],[-116.27453,50.43458],[-116.2744,50.43463],[-116.27429,50.43473],[-116.27421,50.43481],[-116.27413,50.43491],[-116.27401,50.43511],[-116.27394,50.43524],[-116.27388,50.43536],[-116.27388,50.43548],[-116.27391,50.4356],[-116.27388,50.43569],[-116.27383,50.43578],[-116.27365,50.43594],[-116.27341,50.43608],[-116.27315,50.43621],[-116.27291,50.43635],[-116.27267,50.43649],[-116.27261,50.43653],[-116.27248,50.4367],[-116.27238,50.43679],[-116.27217,50.43684],[-116.27199,50.43688],[-116.27168,50.43691],[-116.27162,50.43692],[-116.27137,50.43695],[-116.27107,50.43698],[-116.27087,50.437],[-116.27073,50.43702],[-116.27063,50.43706],[-116.27043,50.43724],[-116.27036,50.43728],[-116.27006,50.43737],[-116.26995,50.43741],[-116.26982,50.43743],[-116.26927,50.43758],[-116.26854,50.43785],[-116.26789,50.43808],[-116.26779,50.4381],[-116.26756,50.43816],[-116.26729,50.43828],[-116.26715,50.43834],[-116.26672,50.43863],[-116.26654,50.43877],[-116.26636,50.43893],[-116.26616,50.4391],[-116.26598,50.43924],[-116.26577,50.4394],[-116.2655,50.43956],[-116.26527,50.43972],[-116.26503,50.43988],[-116.26494,50.43993],[-116.26473,50.43979],[-116.26449,50.43963],[-116.26426,50.43947],[-116.26398,50.43937],[-116.26385,50.43932],[-116.26373,50.43929],[-116.26351,50.43929],[-116.26322,50.43932],[-116.26311,50.43933],[-116.26291,50.43935],[-116.2626,50.43938],[-116.26226,50.43944],[-116.26199,50.43949],[-116.26172,50.43955],[-116.2614,50.43963],[-116.26113,50.4397],[-116.261,50.43974],[-116.26076,50.43985],[-116.26052,50.43996],[-116.26029,50.44007],[-116.25984,50.4403],[-116.25962,50.44043],[-116.25942,50.44058],[-116.25923,50.4407],[-116.259,50.44085],[-116.2588,50.441],[-116.25861,50.44112],[-116.2583,50.44131],[-116.25822,50.44134],[-116.25792,50.44149],[-116.2577,50.44159],[-116.25748,50.4417],[-116.25722,50.44181],[-116.257,50.44187],[-116.25678,50.44189],[-116.25671,50.44189],[-116.25657,50.44187],[-116.25625,50.44183],[-116.25614,50.4418],[-116.25586,50.44173],[-116.25569,50.44168],[-116.25541,50.44161],[-116.25507,50.44157],[-116.25493,50.44155],[-116.25472,50.44155],[-116.25456,50.44157],[-116.25441,50.44164],[-116.25422,50.44176],[-116.25405,50.44185],[-116.25394,50.44189],[-116.25392,50.44189]]}},
{"type":"Feature","properties":{"spotId":"F-deer-atv-0094","kind":"walk","km":0.09,"climbM":0,"name":"280 m S of Hopeful Creek","flags":[]},"geometry":{"type":"LineString","coordinates":[[-116.25392,50.44189],[-116.2539,50.44267]]}},
{"type":"Feature","properties":{"spotId":"F-deer-atv-0157","kind":"ride","km":2.91,"climbM":554,"name":"1.5 km NW of Toby Creek","flags":[]},"geometry":{"type":"LineString","coordinates":[[-116.41054,50.35835],[-116.41043,50.35835],[-116.41029,50.35835],[-116.41008,50.35832],[-116.40995,50.35831],[-116.40981,50.35834],[-116.40967,50.35837],[-116.40944,50.35847],[-116.40927,50.35854],[-116.40917,50.35856],[-116.40896,50.35864],[-116.40886,50.35867],[-116.40878,50.35866],[-116.40874,50.35864],[-116.40869,50.35862],[-116.40865,50.35857],[-116.40865,50.35851],[-116.40864,50.35846],[-116.4086,50.35839],[-116.40854,50.35832],[-116.40833,50.35819],[-116.40808,50.35806],[-116.40796,50.35802],[-116.40775,50.358],[-116.40749,50.35797],[-116.4072,50.35793],[-116.40707,50.3579],[-116.40679,50.35778],[-116.40655,50.35769],[-116.40644,50.35766],[-116.40633,50.35766],[-116.40622,50.35769],[-116.4062,50.35775],[-116.40634,50.35793],[-116.40642,50.35801],[-116.40653,50.35816],[-116.40659,50.35827],[-116.40666,50.35846],[-116.40674,50.35861],[-116.40684,50.35883],[-116.40685,50.35888],[-116.40685,50.35902],[-116.4068,50.3591],[-116.40672,50.35913],[-116.40661,50.3591],[-116.40651,50.35906],[-116.40631,50.35895],[-116.40617,50.35892],[-116.40591,50.35884],[-116.40578,50.35878],[-116.40557,50.35862],[-116.40545,50.35856],[-116.40532,50.3585],[-116.40511,50.35846],[-116.40494,50.35847],[-116.40463,50.35845],[-116.40435,50.35845],[-116.40401,50.35852],[-116.40394,50.35856],[-116.40387,50.35867],[-116.40388,50.35874],[-116.40394,50.35881],[-116.40404,50.35887],[-116.40412,50.35896],[-116.40417,50.35911],[-116.4042,50.3592],[-116.40424,50.35924],[-116.40434,50.35933],[-116.40458,50.35948],[-116.40481,50.35964],[-116.40486,50.35969],[-116.40491,50.35979],[-116.40491,50.35989],[-116.40498,50.36],[-116.40515,50.36018],[-116.40521,50.36026],[-116.40531,50.36033],[-116.40548,50.36045],[-116.40548,50.36053],[-116.40539,50.36056],[-116.40528,50.36057],[-116.40506,50.36054],[-116.40494,50.36052],[-116.40493,50.36052],[-116.40479,50.36048],[-116.40445,50.36043],[-116.40437,50.36041],[-116.40408,50.36031],[-116.40399,50.36028],[-116.40367,50.36015],[-116.4036,50.36011],[-116.40339,50.36003],[-116.40325,50.35999],[-116.40302,50.35999],[-116.40286,50.36002],[-116.40279,50.36005],[-116.40256,50.36016],[-116.40245,50.36022],[-116.40235,50.36028],[-116.40232,50.36035],[-116.40232,50.36044],[-116.40236,50.36065],[-116.40226,50.36071],[-116.40213,50.36075],[-116.40179,50.36081],[-116.40171,50.36082],[-116.40145,50.36085],[-116.40128,50.36085],[-116.40117,50.36084],[-116.40098,50.36081],[-116.40089,50.3608],[-116.40078,50.36076],[-116.40068,50.36084],[-116.40057,50.36091],[-116.40027,50.36096],[-116.4,50.36098],[-116.39995,50.36099],[-116.3996,50.36103],[-116.3994,50.36108],[-116.3993,50.36115],[-116.39917,50.36122],[-116.39887,50.36136],[-116.39879,50.36139],[-116.39861,50.36145],[-116.39844,50.36151],[-116.39814,50.36169],[-116.398,50.36178],[-116.39774,50.36188],[-116.39754,50.36199],[-116.39737,50.36212],[-116.39744,50.36211],[-116.39756,50.36208],[-116.3979,50.36203],[-116.39818,50.36197],[-116.39826,50.36196],[-116.39853,50.36192],[-116.39863,50.36191],[-116.39881,50.36191],[-116.39909,50.36191],[-116.39937,50.36192],[-116.39946,50.36194],[-116.39965,50.36206],[-116.39978,50.36222],[-116.39996,50.3624],[-116.4,50.36244],[-116.40015,50.3626],[-116.40021,50.36267],[-116.40033,50.36286],[-116.40041,50.36297],[-116.40058,50.36311],[-116.40076,50.36326],[-116.4009,50.36348],[-116.40094,50.36354],[-116.40115,50.36377],[-116.40121,50.36382],[-116.40137,50.36405],[-116.4014,50.3641],[-116.40144,50.36415],[-116.40151,50.36431],[-116.40158,50.36451],[-116.40167,50.36465],[-116.40184,50.3648],[-116.40188,50.36485],[-116.40188,50.36491],[-116.40184,50.36496],[-116.40174,50.36498],[-116.40163,50.36499],[-116.40154,50.36498],[-116.4013,50.36493],[-116.40119,50.36489],[-116.40109,50.36485],[-116.40079,50.36474],[-116.40072,50.36472],[-116.40066,50.3648],[-116.40068,50.36496],[-116.40068,50.36526],[-116.40065,50.3654],[-116.40064,50.36549],[-116.40063,50.36569],[-116.4007,50.3659],[-116.40073,50.36603],[-116.40071,50.3661],[-116.40067,50.36614],[-116.40056,50.3662],[-116.40046,50.36619],[-116.40036,50.36617],[-116.4,50.36605],[-116.39991,50.36601],[-116.39983,50.36596],[-116.39963,50.36579],[-116.39952,50.36579],[-116.39945,50.36586],[-116.39944,50.36594],[-116.39945,50.36602],[-116.39949,50.36608],[-116.39952,50.36616],[-116.39959,50.36629],[-116.39961,50.36642],[-116.39957,50.3665],[-116.39943,50.36662],[-116.39931,50.36675],[-116.39926,50.36679],[-116.39918,50.36683],[-116.39909,50.36684],[-116.39902,50.36676],[-116.39896,50.36662],[-116.39887,50.36649],[-116.3988,50.36643],[-116.39853,50.36627],[-116.39827,50.36608],[-116.39817,50.36603],[-116.39794,50.36598],[-116.39768,50.36598],[-116.39765,50.36599],[-116.39749,50.36603]]}},
{"type":"Feature","properties":{"spotId":"F-deer-drive-0099","kind":"walk","km":0.12,"climbM":45,"name":"By Clearwater Creek","flags":[]},"geometry":{"type":"LineString","coordinates":[[-116.25784,50.44546],[-116.25948,50.44582]]}},
{"type":"Feature","properties":{"spotId":"F-deer-drive-0111","kind":"walk","km":0.08,"climbM":4,"name":"By Jumbo Creek","flags":[]},"geometry":{"type":"LineString","coordinates":[[-116.42041,50.3537],[-116.41962,50.35418]]}},
{"type":"Feature","properties":{"spotId":"F-deer-drive-0119","kind":"walk","km":0.14,"climbM":38,"name":"230 m NW of Toby Creek","flags":[]},"geometry":{"type":"LineString","coordinates":[[-116.39836,50.35122],[-116.39747,50.35239]]}},
{"type":"Feature","properties":{"spotId":"F-deer-drive-0162","kind":"walk","km":0.28,"climbM":8,"name":"230 m S of Toby Creek","flags":[]},"geometry":{"type":"LineString","coordinates":[[-116.27961,50.43387],[-116.27576,50.43443]]}},
{"type":"Feature","properties":{"spotId":"F-deer-walk-0131","kind":"walk","km":1.67,"climbM":814,"name":"1.1 km NE of Coppercrown Creek","flags":[]},"geometry":{"type":"LineString","coordinates":[[-116.34523,50.37431],[-116.32483,50.36689]]}},
{"type":"Feature","properties":{"spotId":"F-deer-walk-0134","kind":"walk","km":0.6,"climbM":291,"name":"620 m NW of Toby Creek","flags":[]},"geometry":{"type":"LineString","coordinates":[[-116.25394,50.45346],[-116.2616,50.45565]]}},
{"type":"Feature","properties":{"spotId":"F-duck-drive-0145","kind":"walk","km":0.16,"climbM":0,"name":"Unnamed wetland by Jumbo Creek","flags":[]},"geometry":{"type":"LineString","coordinates":[[-116.46686,50.36544],[-116.4679,50.36421]]}},
{"type":"Feature","properties":{"spotId":"F-elk-walk-0050","kind":"walk","km":0.33,"climbM":90,"name":"120 m SW of Clearwater Creek","flags":[]},"geometry":{"type":"LineString","coordinates":[[-116.26145,50.44392],[-116.26225,50.44681]]}},
{"type":"Feature","properties":{"spotId":"F-grouse-atv-0069","kind":"ride","km":5.61,"climbM":497,"name":"By Coppercrown Creek","flags":[]},"geometry":{"type":"LineString","coordinates":[[-116.34976,50.36892],[-116.34972,50.36879],[-116.34968,50.36858],[-116.3496,50.36839],[-116.34948,50.36819],[-116.34939,50.36812],[-116.34921,50.36807],[-116.34908,50.36808],[-116.349,50.3681],[-116.34887,50.36817],[-116.34871,50.36829],[-116.34869,50.36832],[-116.34837,50.3685],[-116.34817,50.36868],[-116.34812,50.36876],[-116.34803,50.36886],[-116.3478,50.36901],[-116.34718,50.36941],[-116.34698,50.36956],[-116.3468,50.36973],[-116.34663,50.3699],[-116.34644,50.37008],[-116.34628,50.37025],[-116.3461,50.37043],[-116.34593,50.3706],[-116.34574,50.37076],[-116.34549,50.37091],[-116.34532,50.37097],[-116.34499,50.37101],[-116.34492,50.37105],[-116.3447,50.37119],[-116.34447,50.37136],[-116.34438,50.37143],[-116.34425,50.3716],[-116.34405,50.37177],[-116.3439,50.37187],[-116.34376,50.37198],[-116.34371,50.37199],[-116.34361,50.37205],[-116.34342,50.37221],[-116.34334,50.37228],[-116.34326,50.37248],[-116.34317,50.37263],[-116.34301,50.3728],[-116.34299,50.37282],[-116.3428,50.37299],[-116.3426,50.37317],[-116.34229,50.37351],[-116.3421,50.37368],[-116.34202,50.37376],[-116.34199,50.37377],[-116.34185,50.3739],[-116.34172,50.37407],[-116.34157,50.37426],[-116.34152,50.37434],[-116.34115,50.37466],[-116.34095,50.37482],[-116.34071,50.37496],[-116.34059,50.37505],[-116.34045,50.37516],[-116.34039,50.37521],[-116.34024,50.3754],[-116.34006,50.37562],[-116.34004,50.37564],[-116.33992,50.37573],[-116.33986,50.37577],[-116.33961,50.37589],[-116.33931,50.37598],[-116.33919,50.37603],[-116.33895,50.37607],[-116.33874,50.37608],[-116.33862,50.37617],[-116.33841,50.37648],[-116.33802,50.37675],[-116.33782,50.3769],[-116.33763,50.37709],[-116.3374,50.37736],[-116.33696,50.37776],[-116.33664,50.37801],[-116.33634,50.37817],[-116.33621,50.37825],[-116.33609,50.37831],[-116.33567,50.37847],[-116.33545,50.37858],[-116.33533,50.37864],[-116.33513,50.37879],[-116.33495,50.37888],[-116.33478,50.37896],[-116.33467,50.37899],[-116.3343,50.37911],[-116.33402,50.37924],[-116.3338,50.37935],[-116.33351,50.37948],[-116.3332,50.37962],[-116.33294,50.37969],[-116.33264,50.37977],[-116.3324,50.37983],[-116.33223,50.37989],[-116.33192,50.38003],[-116.33151,50.38017],[-116.33122,50.38028],[-116.33091,50.38059],[-116.33041,50.38096],[-116.32997,50.38134],[-116.32943,50.38169],[-116.3288,50.38225],[-116.32833,50.38258],[-116.32779,50.38297],[-116.32736,50.38326],[-116.32679,50.38352],[-116.32633,50.3838],[-116.32576,50.38403],[-116.32525,50.38417],[-116.32489,50.38416],[-116.32425,50.38446],[-116.32367,50.38464],[-116.32354,50.38468],[-116.32325,50.38461],[-116.32311,50.38458],[-116.32302,50.38455],[-116.32273,50.38438],[-116.32249,50.3842],[-116.32232,50.38404],[-116.32216,50.38385],[-116.32203,50.38362],[-116.32177,50.38325],[-116.32157,50.38299],[-116.32142,50.38278],[-116.32125,50.38245],[-116.32114,50.38227],[-116.32101,50.38202],[-116.32092,50.38181],[-116.3208,50.38162],[-116.32075,50.38133],[-116.32065,50.38103],[-116.32062,50.3809],[-116.32056,50.38077],[-116.32055,50.38068],[-116.32045,50.38055],[-116.3204,50.38038],[-116.32039,50.38032],[-116.32037,50.38023],[-116.32012,50.37974],[-116.31997,50.3794],[-116.31998,50.37926],[-116.31998,50.37919],[-116.3199,50.37909],[-116.31983,50.37901],[-116.31985,50.37879],[-116.31974,50.37865],[-116.31968,50.37849],[-116.31956,50.37829],[-116.31943,50.37811],[-116.31936,50.37795],[-116.31921,50.37778],[-116.31912,50.37763],[-116.31893,50.37727],[-116.31885,50.37712],[-116.31884,50.37709],[-116.31881,50.37703],[-116.3187,50.37689],[-116.31859,50.37677],[-116.31851,50.3766],[-116.31829,50.37636],[-116.31805,50.37611],[-116.31791,50.37593],[-116.31786,50.37584],[-116.31778,50.37571],[-116.31754,50.37556],[-116.31734,50.37539],[-116.31721,50.37528],[-116.31706,50.37513],[-116.31693,50.37484],[-116.31676,50.37462],[-116.3166,50.3745],[-116.31663,50.37443],[-116.31649,50.37431],[-116.31633,50.37417],[-116.31608,50.37409],[-116.31589,50.37398],[-116.31573,50.37384],[-116.31559,50.37378],[-116.31541,50.37358],[-116.3152,50.37334],[-116.31516,50.37325],[-116.31519,50.3732],[-116.31514,50.37309],[-116.31497,50.37297],[-116.31489,50.37287],[-116.31478,50.3728],[-116.31455,50.37265],[-116.31463,50.37258],[-116.31477,50.37242],[-116.31481,50.37214],[-116.31463,50.3721],[-116.31446,50.37213],[-116.3142,50.37202],[-116.31398,50.372],[-116.31388,50.37201],[-116.31374,50.37194],[-116.31358,50.37182],[-116.31333,50.37163],[-116.31317,50.37154],[-116.31304,50.37147],[-116.31292,50.37145],[-116.31286,50.37135],[-116.31269,50.37128],[-116.3126,50.37122],[-116.31244,50.3711],[-116.31227,50.37104],[-116.31216,50.37098],[-116.31203,50.37092],[-116.31194,50.37084],[-116.31182,50.37074],[-116.31166,50.37067],[-116.31147,50.37056],[-116.31133,50.37051],[-116.31123,50.37042],[-116.31115,50.37033],[-116.31115,50.37028],[-116.31114,50.37012],[-116.31109,50.37005],[-116.31093,50.37005],[-116.31081,50.37006],[-116.3106,50.36996],[-116.31029,50.36997],[-116.31007,50.36991],[-116.30982,50.36984],[-116.30966,50.3697],[-116.30943,50.36955],[-116.30927,50.3694],[-116.30919,50.36932],[-116.3091,50.36922],[-116.309,50.36929],[-116.30881,50.36936],[-116.3087,50.36927],[-116.3086,50.36928],[-116.3084,50.3693],[-116.30821,50.36931],[-116.308,50.36932],[-116.3077,50.36924],[-116.30723,50.36914],[-116.30687,50.36904],[-116.30643,50.36905],[-116.30617,50.36895],[-116.30586,50.36887],[-116.30547,50.36875],[-116.30503,50.36863],[-116.30472,50.36854],[-116.30435,50.36846],[-116.30381,50.36838],[-116.30337,50.36831],[-116.30296,50.36824],[-116.30258,50.36823],[-116.30218,50.36818],[-116.3017,50.3681],[-116.30137,50.36812],[-116.30106,50.36811],[-116.30069,50.36806],[-116.30038,50.36793],[-116.30015,50.36787]]}},
{"type":"Feature","properties":{"spotId":"F-grouse-drive-0001","kind":"roadside","km":5.05,"climbM":37,"name":"By Jumbo Creek","flags":[]},"geometry":{"type":"LineString","coordinates":[[-116.48116,50.36271],[-116.48101,50.3628],[-116.48079,50.36297],[-116.48072,50.36305],[-116.48071,50.36306],[-116.48068,50.36309],[-116.48065,50.36314],[-116.48057,50.36327],[-116.48041,50.36345],[-116.48028,50.36363],[-116.48015,50.36376],[-116.47993,50.36392],[-116.4798,50.36402],[-116.4796,50.36422],[-116.47953,50.36429],[-116.47939,50.36448],[-116.47926,50.36466],[-116.47923,50.36473],[-116.47918,50.36495],[-116.47915,50.36513],[-116.47912,50.36526],[-116.47904,50.36548],[-116.47885,50.36568],[-116.4788,50.36573],[-116.47877,50.36574],[-116.47867,50.3658],[-116.47856,50.36583],[-116.47853,50.36584],[-116.4783,50.3659],[-116.47813,50.36593],[-116.47785,50.36596],[-116.47758,50.36596],[-116.47732,50.36597],[-116.47691,50.36597],[-116.47668,50.36597],[-116.47663,50.36597],[-116.47659,50.36596],[-116.47623,50.3659],[-116.47618,50.3659],[-116.47595,50.36592],[-116.47563,50.36592],[-116.47533,50.36593],[-116.47525,50.36593],[-116.47493,50.36594],[-116.47484,50.36594],[-116.4746,50.36597],[-116.47439,50.366],[-116.47424,50.366],[-116.47421,50.366],[-116.47393,50.36597],[-116.47374,50.36596],[-116.47342,50.36595],[-116.47327,50.36594],[-116.47289,50.36594],[-116.47258,50.36591],[-116.47237,50.3659],[-116.47228,50.3659],[-116.47199,50.36587],[-116.47172,50.36587],[-116.47147,50.36588],[-116.47088,50.36588],[-116.47069,50.36586],[-116.47054,50.36584],[-116.47022,50.3658],[-116.46992,50.36579],[-116.46984,50.36579],[-116.4695,50.36586],[-116.46915,50.36589],[-116.46908,50.3659],[-116.46875,50.36593],[-116.46851,50.36595],[-116.46819,50.36595],[-116.46794,50.36589],[-116.46785,50.36587],[-116.46757,50.36575],[-116.46732,50.36562],[-116.46727,50.3656],[-116.46711,50.36555],[-116.46686,50.36544],[-116.46658,50.36538],[-116.46655,50.36537],[-116.46622,50.36533],[-116.46598,50.36529],[-116.46564,50.36521],[-116.46556,50.36519],[-116.46526,50.36507],[-116.46502,50.36499],[-116.46474,50.36484],[-116.46441,50.3647],[-116.4642,50.36464],[-116.46385,50.36458],[-116.46375,50.36456],[-116.46348,50.36453],[-116.46312,50.36453],[-116.46284,50.36457],[-116.46275,50.36458],[-116.46237,50.36458],[-116.46192,50.36454],[-116.4616,50.36455],[-116.46102,50.36455],[-116.46068,50.36454],[-116.46047,50.36454],[-116.46012,50.36454],[-116.45983,50.36452],[-116.45949,50.3645],[-116.45939,50.36449],[-116.45876,50.36448],[-116.45844,50.3645],[-116.45777,50.3645],[-116.45768,50.36449],[-116.4574,50.36447],[-116.4571,50.36444],[-116.45702,50.36443],[-116.45667,50.36438],[-116.45641,50.36434],[-116.45624,50.36432],[-116.45616,50.36431],[-116.45599,50.3643],[-116.45581,50.36431],[-116.45571,50.36432],[-116.4554,50.36439],[-116.4551,50.36445],[-116.45501,50.36447],[-116.45469,50.36456],[-116.4546,50.36459],[-116.45434,50.36464],[-116.45403,50.36471],[-116.45376,50.36475],[-116.45347,50.36478],[-116.45317,50.36481],[-116.45309,50.36483],[-116.45289,50.36484],[-116.45286,50.36484],[-116.45268,50.36483],[-116.45239,50.3648],[-116.45209,50.36475],[-116.4519,50.3647],[-116.4516,50.36466],[-116.45142,50.36463],[-116.4511,50.36459],[-116.45083,50.36456],[-116.45055,50.36454],[-116.45028,50.36452],[-116.45004,50.36448],[-116.44989,50.36443],[-116.44962,50.36433],[-116.44924,50.36417],[-116.44912,50.36411],[-116.44895,50.36405],[-116.44893,50.36404],[-116.44874,50.36395],[-116.44855,50.36382],[-116.44838,50.36369],[-116.4481,50.36353],[-116.44783,50.36343],[-116.44765,50.36335],[-116.44738,50.36326],[-116.44729,50.36323],[-116.44699,50.36309],[-116.44669,50.36295],[-116.44643,50.36287],[-116.44611,50.36272],[-116.44579,50.3626],[-116.44544,50.36249],[-116.44536,50.36247],[-116.44505,50.36245],[-116.44484,50.36245],[-116.44476,50.36245],[-116.44458,50.36246],[-116.4443,50.36246],[-116.44353,50.36238],[-116.44304,50.36231],[-116.44277,50.36225],[-116.4425,50.36222],[-116.44221,50.36222],[-116.44193,50.36224],[-116.44166,50.36229],[-116.44141,50.36235],[-116.44107,50.36239],[-116.44083,50.36242],[-116.44052,50.36243],[-116.44031,50.36243],[-116.44017,50.36242],[-116.44004,50.36239],[-116.43964,50.36229],[-116.43938,50.36221],[-116.43928,50.36219],[-116.43906,50.36214],[-116.43872,50.36208],[-116.43849,50.36204],[-116.43839,50.362],[-116.43825,50.36192],[-116.43809,50.36183],[-116.43791,50.3617],[-116.43782,50.36164],[-116.43769,50.3616],[-116.43741,50.36153],[-116.43717,50.36148],[-116.43703,50.36142],[-116.43676,50.36136],[-116.4366,50.36131],[-116.43625,50.36125],[-116.43616,50.36124],[-116.43602,50.3612],[-116.43584,50.36113],[-116.43567,50.36106],[-116.43536,50.36097],[-116.43522,50.36093],[-116.43497,50.3608],[-116.43464,50.36064],[-116.43443,50.36053],[-116.43417,50.36039],[-116.43395,50.36027],[-116.43385,50.3602],[-116.43381,50.36017],[-116.43369,50.36005],[-116.4336,50.35997],[-116.43345,50.35979],[-116.4333,50.35961],[-116.43323,50.35953],[-116.43302,50.3594],[-116.43282,50.35931],[-116.43254,50.35924],[-116.43232,50.3592],[-116.43225,50.35918],[-116.43194,50.35901],[-116.43138,50.35871],[-116.43126,50.35863],[-116.43113,50.35847],[-116.43101,50.35833],[-116.43076,50.35814],[-116.43058,50.358],[-116.43041,50.35778],[-116.4303,50.35762],[-116.43016,50.35748],[-116.43006,50.35743],[-116.42996,50.3574],[-116.42973,50.35734],[-116.4295,50.35728],[-116.42936,50.35725],[-116.42901,50.35712],[-116.4287,50.35706],[-116.42837,50.35699],[-116.42828,50.35698],[-116.42793,50.3569],[-116.42761,50.35683],[-116.42753,50.35682],[-116.42729,50.35675],[-116.42715,50.35669],[-116.4265,50.35647],[-116.42632,50.35641],[-116.426,50.3563],[-116.42566,50.35617],[-116.42538,50.35608],[-116.42526,50.356],[-116.42519,50.35595],[-116.42513,50.35588],[-116.42512,50.3558],[-116.42505,50.35566],[-116.4249,50.35551],[-116.42455,50.35529],[-116.4242,50.35515],[-116.42412,50.35513],[-116.42379,50.35504],[-116.42347,50.35497],[-116.42339,50.35495],[-116.42309,50.35486],[-116.42306,50.35484],[-116.4228,50.35471],[-116.42266,50.35466],[-116.42253,50.35461],[-116.42228,50.35454],[-116.42193,50.35436],[-116.42163,50.35416],[-116.42151,50.35411],[-116.42133,50.35404],[-116.42125,50.35399],[-116.42114,50.35395],[-116.42098,50.35392],[-116.42091,50.3539],[-116.42073,50.35385],[-116.42056,50.3538],[-116.42041,50.3537],[-116.42037,50.35366],[-116.42035,50.35362]]}},
{"type":"Feature","properties":{"spotId":"F-grouse-drive-0006","kind":"roadside","km":4.84,"climbM":54,"name":"By Jumbo Creek","flags":["Route crosses private land (ParcelMap BC, updated 2026-09-26): get permission first or go around."]},"geometry":{"type":"LineString","coordinates":[[-116.40835,50.34794],[-116.40824,50.34798],[-116.40808,50.34803],[-116.40776,50.34813],[-116.4075,50.34818],[-116.40737,50.34825],[-116.40712,50.34837],[-116.40684,50.34851],[-116.40681,50.34853],[-116.40674,50.34855],[-116.4066,50.34863],[-116.4064,50.34871],[-116.40631,50.34877],[-116.40602,50.34892],[-116.40576,50.34905],[-116.40573,50.34907],[-116.40546,50.34928],[-116.40535,50.3494],[-116.40528,50.34947],[-116.40525,50.34953],[-116.40512,50.34971],[-116.40502,50.3498],[-116.40497,50.34987],[-116.40468,50.35006],[-116.40457,50.35013],[-116.40426,50.3503],[-116.40409,50.35044],[-116.40384,50.35065],[-116.4038,50.35066],[-116.40368,50.35071],[-116.40341,50.35082],[-116.40328,50.35086],[-116.40304,50.35094],[-116.403,50.35095],[-116.40281,50.35097],[-116.40272,50.35099],[-116.40252,50.35103],[-116.40228,50.35108],[-116.40215,50.35109],[-116.40189,50.35113],[-116.40174,50.35114],[-116.40141,50.35117],[-116.40127,50.35118],[-116.40096,50.3512],[-116.40065,50.35123],[-116.4006,50.35123],[-116.40028,50.35124],[-116.40015,50.35125],[-116.4,50.35126],[-116.39983,50.35128],[-116.39906,50.35128],[-116.39904,50.35128],[-116.39871,50.35127],[-116.39862,50.35126],[-116.39836,50.35122],[-116.39806,50.3511],[-116.39782,50.35103],[-116.39753,50.35095],[-116.39731,50.35084],[-116.39704,50.35075],[-116.39684,50.35072],[-116.39668,50.35074],[-116.39659,50.35078],[-116.39648,50.35088],[-116.39631,50.35099],[-116.39615,50.35111],[-116.39605,50.35126],[-116.39599,50.35132],[-116.39579,50.3515],[-116.39547,50.35158],[-116.39537,50.35161],[-116.3951,50.35165],[-116.39486,50.35172],[-116.39461,50.35179],[-116.39431,50.35197],[-116.39401,50.35214],[-116.39389,50.35219],[-116.39366,50.35231],[-116.39339,50.35244],[-116.39319,50.35259],[-116.39292,50.35273],[-116.39267,50.35288],[-116.39253,50.35294],[-116.39229,50.35304],[-116.39223,50.35306],[-116.39215,50.35308],[-116.39208,50.3531],[-116.39175,50.35317],[-116.3914,50.35325],[-116.3913,50.35327],[-116.39102,50.35331],[-116.39092,50.35334],[-116.39065,50.35341],[-116.39062,50.35342],[-116.39057,50.35344],[-116.39047,50.35352],[-116.39034,50.35357],[-116.39019,50.35365],[-116.39003,50.35376],[-116.38972,50.35394],[-116.38937,50.35409],[-116.38927,50.35412],[-116.38898,50.35421],[-116.38869,50.35424],[-116.38828,50.35424],[-116.38807,50.35422],[-116.38779,50.35418],[-116.38751,50.35415],[-116.38727,50.35415],[-116.38703,50.35419],[-116.38692,50.35422],[-116.38664,50.35429],[-116.38648,50.35433],[-116.38638,50.35437],[-116.38621,50.35446],[-116.38597,50.35454],[-116.3858,50.35469],[-116.38557,50.35485],[-116.38554,50.35496],[-116.38559,50.35506],[-116.38563,50.35521],[-116.38565,50.35528],[-116.38564,50.35538],[-116.38559,50.35543],[-116.38538,50.35565],[-116.38518,50.3558],[-116.3851,50.35583],[-116.38494,50.35591],[-116.38463,50.35605],[-116.3844,50.35613],[-116.38415,50.3562],[-116.38404,50.35622],[-116.38366,50.35621],[-116.38341,50.3562],[-116.38317,50.35618],[-116.38304,50.35619],[-116.38291,50.35622],[-116.3827,50.3563],[-116.38246,50.35648],[-116.38216,50.35669],[-116.38209,50.35671],[-116.38191,50.3568],[-116.38172,50.35686],[-116.38156,50.3569],[-116.3812,50.35696],[-116.38108,50.35699],[-116.38086,50.35703],[-116.3806,50.35707],[-116.38046,50.35708],[-116.38012,50.3571],[-116.37998,50.3571],[-116.37972,50.35711],[-116.3796,50.35713],[-116.37936,50.35716],[-116.37912,50.35722],[-116.37879,50.35736],[-116.37862,50.35744],[-116.37837,50.35757],[-116.37834,50.35759],[-116.37809,50.35776],[-116.37794,50.35793],[-116.37783,50.35813],[-116.37761,50.35832],[-116.37742,50.35845],[-116.37713,50.3586],[-116.37658,50.35883],[-116.37647,50.35889],[-116.37626,50.359],[-116.37607,50.35912],[-116.37599,50.35918],[-116.37576,50.35932],[-116.37552,50.35951],[-116.3753,50.35975],[-116.37519,50.35994],[-116.37509,50.36014],[-116.37494,50.36037],[-116.37494,50.36038],[-116.37477,50.36069],[-116.37463,50.3609],[-116.37453,50.36097],[-116.37446,50.361],[-116.37437,50.36106],[-116.3742,50.36113],[-116.37398,50.36119],[-116.37371,50.36124],[-116.37348,50.36129],[-116.3732,50.36135],[-116.37278,50.36145],[-116.37265,50.3615],[-116.3724,50.36156],[-116.37207,50.36168],[-116.3718,50.36186],[-116.37152,50.36203],[-116.37136,50.36217],[-116.37114,50.36238],[-116.37109,50.36243],[-116.37095,50.3626],[-116.37091,50.36269],[-116.37082,50.36285],[-116.37076,50.36292],[-116.37062,50.36302],[-116.37054,50.36305],[-116.37045,50.36308],[-116.37021,50.36315],[-116.37017,50.36316],[-116.36986,50.36324],[-116.36956,50.36338],[-116.36945,50.36341],[-116.36914,50.36349],[-116.36897,50.36352],[-116.3687,50.36358],[-116.36852,50.36365],[-116.36833,50.36371],[-116.36808,50.36386],[-116.36794,50.36399],[-116.36767,50.36415],[-116.36737,50.36436],[-116.36733,50.3644],[-116.36714,50.36455],[-116.36697,50.36464],[-116.36689,50.36467],[-116.36687,50.36467],[-116.36661,50.36476],[-116.36644,50.36485],[-116.36622,50.36502],[-116.36595,50.36515],[-116.36587,50.36518],[-116.36576,50.36521],[-116.3654,50.36529],[-116.36529,50.3653],[-116.36507,50.3653],[-116.36502,50.3653],[-116.36486,50.36526],[-116.36467,50.36519],[-116.36451,50.36508],[-116.36417,50.36496],[-116.36416,50.36495],[-116.36383,50.36489],[-116.3636,50.36485],[-116.36334,50.3648],[-116.36301,50.36474],[-116.36266,50.36464],[-116.3624,50.36457],[-116.36207,50.36448],[-116.36183,50.36443],[-116.3617,50.36442],[-116.3616,50.3644],[-116.3613,50.36435],[-116.36121,50.36432],[-116.36092,50.36423],[-116.36068,50.36412],[-116.36064,50.36409],[-116.36054,50.36404],[-116.36046,50.36398],[-116.36037,50.36398],[-116.36023,50.36398],[-116.36013,50.36398],[-116.35995,50.36404],[-116.35992,50.36404],[-116.35968,50.36409],[-116.35946,50.36411],[-116.35915,50.36414],[-116.35896,50.3642],[-116.35877,50.36436],[-116.35859,50.36455],[-116.35845,50.36471],[-116.35842,50.36475],[-116.35835,50.36482],[-116.35815,50.36501],[-116.35807,50.36506],[-116.35798,50.3651],[-116.35766,50.36526],[-116.35746,50.36542],[-116.35712,50.36559],[-116.35688,50.36573],[-116.35664,50.36589],[-116.35628,50.36609],[-116.35608,50.36619],[-116.35581,50.36632],[-116.3557,50.36636],[-116.35552,50.36643],[-116.3554,50.36648],[-116.35532,50.36651],[-116.35498,50.3667],[-116.35482,50.36678],[-116.35474,50.36683]]}},
{"type":"Feature","properties":{"spotId":"F-grouse-drive-0008","kind":"roadside","km":4.84,"climbM":97,"name":"By Toby Creek","flags":[]},"geometry":{"type":"LineString","coordinates":[[-116.28577,50.43431],[-116.28578,50.4343],[-116.28592,50.43425],[-116.28595,50.43423],[-116.28604,50.43419],[-116.28629,50.43401],[-116.28645,50.43388],[-116.28655,50.43378],[-116.28672,50.43365],[-116.28684,50.43354],[-116.28694,50.43341],[-116.28699,50.43336],[-116.28725,50.43315],[-116.28756,50.43299],[-116.28778,50.4328],[-116.28802,50.4326],[-116.28816,50.43252],[-116.2884,50.43239],[-116.28859,50.43231],[-116.28893,50.43213],[-116.28903,50.43209],[-116.28934,50.432],[-116.28956,50.43194],[-116.28971,50.43193],[-116.2898,50.43191],[-116.2899,50.4319],[-116.29024,50.43186],[-116.29058,50.43182],[-116.29083,50.43175],[-116.29112,50.4316],[-116.29142,50.43146],[-116.29166,50.43119],[-116.2917,50.43116],[-116.29179,50.43108],[-116.29193,50.43088],[-116.29197,50.43082],[-116.29205,50.43069],[-116.29213,50.43059],[-116.29225,50.43039],[-116.29232,50.43025],[-116.29248,50.43004],[-116.29254,50.42997],[-116.29261,50.42984],[-116.29265,50.42977],[-116.2927,50.4297],[-116.29284,50.42953],[-116.29302,50.42933],[-116.2931,50.42917],[-116.29313,50.42902],[-116.29322,50.4288],[-116.29335,50.42858],[-116.29346,50.42844],[-116.29363,50.42826],[-116.29369,50.4282],[-116.29393,50.42803],[-116.294,50.42797],[-116.2941,50.42791],[-116.29434,50.42776],[-116.29464,50.42754],[-116.29477,50.42742],[-116.29507,50.42722],[-116.29513,50.42717],[-116.2954,50.427],[-116.29547,50.42696],[-116.29577,50.42678],[-116.29587,50.42668],[-116.29601,50.42656],[-116.29618,50.42638],[-116.29637,50.42617],[-116.29654,50.42601],[-116.29677,50.42583],[-116.29688,50.42573],[-116.29691,50.42567],[-116.29699,50.42557],[-116.29708,50.42543],[-116.2972,50.42522],[-116.29727,50.4251],[-116.29733,50.42492],[-116.2974,50.42478],[-116.29756,50.42448],[-116.29759,50.42435],[-116.29768,50.42416],[-116.29772,50.42405],[-116.29784,50.42391],[-116.29799,50.42377],[-116.29812,50.42355],[-116.29814,50.42337],[-116.29814,50.42332],[-116.29821,50.42311],[-116.29827,50.42296],[-116.29837,50.42288],[-116.29849,50.42281],[-116.29861,50.42275],[-116.29868,50.42274],[-116.29894,50.42266],[-116.29926,50.42262],[-116.29954,50.42259],[-116.29985,50.42255],[-116.30015,50.42249],[-116.30032,50.42245],[-116.30035,50.42244],[-116.30059,50.42235],[-116.3007,50.42231],[-116.30099,50.42215],[-116.30117,50.42203],[-116.30124,50.42198],[-116.30141,50.4218],[-116.30156,50.42168],[-116.30171,50.42148],[-116.30191,50.42131],[-116.30206,50.42118],[-116.30224,50.42098],[-116.3023,50.42091],[-116.30243,50.4207],[-116.30244,50.42067],[-116.30253,50.42053],[-116.30257,50.42045],[-116.30262,50.42022],[-116.30262,50.42007],[-116.30263,50.41956],[-116.30262,50.41945],[-116.30255,50.41934],[-116.30221,50.41912],[-116.30213,50.41905],[-116.30209,50.41896],[-116.30209,50.4188],[-116.30222,50.41858],[-116.30249,50.4184],[-116.30251,50.41838],[-116.30262,50.41828],[-116.30283,50.41801],[-116.30301,50.41781],[-116.30316,50.41762],[-116.30331,50.4174],[-116.30337,50.41734],[-116.30344,50.41727],[-116.30348,50.41722],[-116.30362,50.41712],[-116.30389,50.41698],[-116.30423,50.41679],[-116.30447,50.41659],[-116.3048,50.41638],[-116.30504,50.41621],[-116.30513,50.41615],[-116.30534,50.41597],[-116.30551,50.41578],[-116.3057,50.41558],[-116.3059,50.41541],[-116.30624,50.41522],[-116.3064,50.41511],[-116.30645,50.41505],[-116.30681,50.41478],[-116.30706,50.41464],[-116.30725,50.41456],[-116.30746,50.41448],[-116.3078,50.41438],[-116.308,50.41432],[-116.30817,50.41424],[-116.30848,50.41413],[-116.30871,50.41406],[-116.30902,50.41394],[-116.30923,50.41387],[-116.30957,50.41367],[-116.3096,50.41365],[-116.30966,50.41363],[-116.30992,50.4135],[-116.31014,50.41342],[-116.31039,50.41335],[-116.31067,50.41326],[-116.31097,50.41315],[-116.31116,50.41308],[-116.3113,50.41299],[-116.3115,50.41277],[-116.31154,50.41272],[-116.31178,50.41252],[-116.31184,50.41246],[-116.3121,50.41225],[-116.31215,50.41219],[-116.31234,50.41184],[-116.31243,50.41166],[-116.31247,50.41159],[-116.31259,50.41149],[-116.3128,50.41135],[-116.3129,50.41124],[-116.31315,50.41108],[-116.31328,50.41101],[-116.31344,50.41097],[-116.31376,50.41092],[-116.31388,50.41088],[-116.31423,50.41067],[-116.3143,50.41061],[-116.31456,50.41047],[-116.31481,50.41028],[-116.31507,50.41013],[-116.31542,50.40998],[-116.31558,50.40991],[-116.3158,50.40983],[-116.31609,50.40973],[-116.31653,50.40946],[-116.3168,50.40926],[-116.31687,50.40921],[-116.31694,50.4091],[-116.31705,50.409],[-116.31735,50.4088],[-116.31745,50.40874],[-116.3176,50.4086],[-116.31781,50.40846],[-116.31804,50.40824],[-116.31821,50.40809],[-116.31831,50.40798],[-116.31841,50.40781],[-116.31847,50.40764],[-116.3185,50.40752],[-116.3186,50.40734],[-116.31864,50.40727],[-116.3187,50.40705],[-116.31879,50.40686],[-116.31889,50.40668],[-116.31902,50.40651],[-116.31912,50.40632],[-116.31928,50.40613],[-116.31936,50.40601],[-116.31952,50.40582],[-116.31969,50.40565],[-116.31974,50.40558],[-116.31995,50.4054],[-116.32022,50.40524],[-116.32045,50.40514],[-116.32061,50.40509],[-116.32076,50.40504],[-116.32096,50.40492],[-116.32119,50.40452],[-116.32126,50.40439],[-116.32134,50.40429],[-116.3214,50.40421],[-116.3215,50.40409],[-116.3216,50.40391],[-116.3217,50.40371],[-116.32179,50.40352],[-116.32186,50.40331],[-116.32188,50.40324],[-116.32197,50.40304],[-116.322,50.40296],[-116.32206,50.40275],[-116.32207,50.40267],[-116.32216,50.40247],[-116.32222,50.40232],[-116.32232,50.40211],[-116.32241,50.4019],[-116.32246,50.40176],[-116.32267,50.40138],[-116.32272,50.40127],[-116.32278,50.40108],[-116.32283,50.4009],[-116.32284,50.40079]]}},
{"type":"Feature","properties":{"spotId":"F-moose-atv-0032","kind":"ride","km":1.76,"climbM":10,"name":"640 m SE of Toby Creek","flags":[]},"geometry":{"type":"LineString","coordinates":[[-116.27218,50.43233],[-116.27244,50.4322],[-116.27286,50.43171],[-116.27319,50.43125],[-116.27341,50.43099],[-116.27355,50.43094],[-116.2737,50.43094],[-116.27376,50.43097],[-116.27381,50.43106],[-116.27387,50.43134],[-116.27376,50.4319],[-116.2734,50.43267],[-116.27304,50.43364],[-116.27214,50.43454],[-116.27146,50.43483],[-116.27092,50.43495],[-116.27077,50.43493],[-116.27059,50.43485],[-116.27043,50.43473],[-116.27026,50.43463],[-116.27005,50.43457],[-116.26992,50.43455],[-116.26979,50.43456],[-116.26973,50.43461],[-116.26969,50.43466],[-116.26966,50.43471],[-116.26968,50.43485],[-116.26974,50.43509],[-116.26978,50.43516],[-116.26988,50.43523],[-116.26996,50.43525],[-116.27016,50.43525],[-116.27018,50.43529],[-116.27029,50.43547],[-116.27044,50.4356],[-116.27062,50.43575],[-116.2708,50.43586],[-116.27101,50.43595],[-116.27133,50.43599],[-116.27136,50.43597],[-116.27154,50.43595],[-116.27186,50.43589],[-116.27224,50.43578],[-116.27326,50.43524],[-116.27421,50.43481],[-116.27429,50.43473],[-116.2744,50.43463],[-116.27453,50.43458],[-116.27467,50.43455],[-116.27501,50.43452],[-116.27529,50.43444],[-116.27543,50.43444],[-116.27556,50.43444],[-116.27576,50.43444],[-116.27604,50.43444],[-116.27616,50.43444],[-116.2765,50.43443],[-116.27669,50.43441],[-116.27685,50.43441],[-116.27711,50.43446],[-116.27723,50.43453],[-116.27732,50.43464],[-116.27743,50.43475],[-116.27755,50.43483],[-116.27771,50.43487],[-116.27783,50.43487],[-116.27803,50.4348],[-116.27836,50.43473],[-116.27848,50.43468],[-116.27858,50.43461],[-116.27873,50.43448],[-116.27891,50.43431],[-116.27905,50.43422],[-116.27915,50.43415],[-116.27939,50.43402],[-116.27961,50.43387]]}},
{"type":"Feature","properties":{"spotId":"F-moose-atv-0032","kind":"walk","km":0.08,"climbM":19,"name":"640 m SE of Toby Creek","flags":[]},"geometry":{"type":"LineString","coordinates":[[-116.27218,50.43233],[-116.27143,50.43174]]}},
{"type":"Feature","properties":{"spotId":"F-moose-drive-0052","kind":"walk","km":0.29,"climbM":51,"name":"By Stark Creek","flags":[]},"geometry":{"type":"LineString","coordinates":[[-116.41695,50.34112],[-116.41601,50.33858]]}}
]}
