{"type":"FeatureCollection","features":[
{"type":"Feature","properties":{"spotId":"F-duck-drive-0061","kind":"walk","km":0.09,"climbM":0,"name":"Unnamed lake by Wilds Creek","flags":[]},"geometry":{"type":"LineString","coordinates":[[-116.58953,49.19875],[-116.58843,49.19917]]}},
{"type":"Feature","properties":{"spotId":"F-duck-drive-0152","kind":"walk","km":0.06,"climbM":0,"name":"Unnamed wetland 710 m N of Boundary Creek","flags":["Route crosses private land (ParcelMap BC, updated 2026-09-26): get permission first or go around."]},"geometry":{"type":"LineString","coordinates":[[-116.56731,49.00635],[-116.56648,49.00634]]}},
{"type":"Feature","properties":{"spotId":"F-duck-walk-0094","kind":"walk","km":0.76,"climbM":0,"name":"Unnamed wetland by French Slough","flags":["Route crosses private land (ParcelMap BC, updated 2026-09-26): get permission first or go around."]},"geometry":{"type":"LineString","coordinates":[[-116.59344,49.05124],[-116.58514,49.0472]]}},
{"type":"Feature","properties":{"spotId":"F-grouse-atv-0059","kind":"walk","km":0.31,"climbM":26,"name":"230 m NW of Duck Creek","flags":["Route crosses private land (ParcelMap BC, updated 2026-09-26): get permission first or go around."]},"geometry":{"type":"LineString","coordinates":[[-116.54189,49.19625],[-116.54064,49.19892]]}},
{"type":"Feature","properties":{"spotId":"F-grouse-atv-0059","kind":"ride","km":3.91,"climbM":197,"name":"230 m NW of Duck Creek","flags":["Route crosses private land (ParcelMap BC, updated 2026-09-26): get permission first or go around."]},"geometry":{"type":"LineString","coordinates":[[-116.54064,49.19892],[-116.5404,49.19912],[-116.53999,49.19932],[-116.53952,49.1996],[-116.53931,49.19974],[-116.53902,49.2],[-116.53898,49.20003],[-116.53887,49.20017],[-116.53876,49.20035],[-116.5387,49.20044],[-116.53853,49.20067],[-116.53845,49.20078],[-116.53821,49.20098],[-116.5381,49.20113],[-116.53795,49.2013],[-116.53773,49.20148],[-116.53754,49.20164],[-116.53731,49.20179],[-116.53708,49.20195],[-116.53697,49.20205],[-116.53672,49.20226],[-116.53666,49.20241],[-116.53661,49.20259],[-116.53656,49.20273],[-116.53648,49.20293],[-116.53642,49.20305],[-116.53634,49.20321],[-116.53624,49.20336],[-116.53613,49.20352],[-116.53598,49.2037],[-116.53584,49.20384],[-116.53583,49.20392],[-116.53582,49.20402],[-116.53585,49.20417],[-116.53575,49.20434],[-116.53563,49.2045],[-116.5355,49.20466],[-116.53546,49.20474],[-116.53549,49.20484],[-116.53554,49.20497],[-116.53564,49.20512],[-116.53573,49.20524],[-116.53573,49.20529],[-116.53565,49.20533],[-116.53547,49.20541],[-116.53534,49.20544],[-116.5351,49.20562],[-116.53501,49.20576],[-116.53498,49.20593],[-116.53494,49.2061],[-116.5349,49.20626],[-116.53487,49.2064],[-116.53481,49.20656],[-116.53471,49.20674],[-116.53456,49.2069],[-116.53447,49.20702],[-116.53433,49.2072],[-116.53426,49.20739],[-116.53424,49.20755],[-116.5342,49.2077],[-116.53416,49.20785],[-116.5341,49.20803],[-116.53404,49.20816],[-116.53386,49.20833],[-116.53374,49.20839],[-116.53355,49.2085],[-116.53328,49.20864],[-116.53306,49.20881],[-116.53285,49.20898],[-116.53276,49.20913],[-116.53276,49.20928],[-116.53275,49.20943],[-116.53277,49.20961],[-116.53276,49.20976],[-116.53276,49.20992],[-116.53276,49.21009],[-116.53276,49.21024],[-116.53273,49.21033],[-116.53269,49.21056],[-116.53265,49.21073],[-116.53259,49.21089],[-116.53258,49.21091],[-116.53246,49.21102],[-116.53222,49.21121],[-116.53198,49.21132],[-116.53173,49.21143],[-116.53158,49.21152],[-116.5315,49.21169],[-116.53143,49.21185],[-116.53137,49.21202],[-116.53133,49.21217],[-116.53128,49.21232],[-116.53124,49.2124],[-116.5312,49.21247],[-116.53116,49.21257],[-116.53113,49.21264],[-116.53106,49.21281],[-116.531,49.21293],[-116.53095,49.21311],[-116.53095,49.21327],[-116.53094,49.21344],[-116.53096,49.2136],[-116.53093,49.21375],[-116.53086,49.21393],[-116.53073,49.21411],[-116.53065,49.21426],[-116.53056,49.21441],[-116.5305,49.2145],[-116.53037,49.21472],[-116.53027,49.2149],[-116.5302,49.21505],[-116.53015,49.2152],[-116.53006,49.21537],[-116.53,49.21553],[-116.52996,49.21568],[-116.52992,49.21583],[-116.52988,49.21599],[-116.52983,49.21617],[-116.52981,49.21631],[-116.52979,49.21649],[-116.52975,49.21663],[-116.52965,49.21679],[-116.52952,49.21695],[-116.52945,49.21711],[-116.52938,49.21727],[-116.52933,49.21743],[-116.5293,49.21759],[-116.52926,49.21781],[-116.52921,49.21794],[-116.5292,49.21807],[-116.5292,49.21825],[-116.52919,49.21841],[-116.52919,49.21858],[-116.52919,49.21872],[-116.52919,49.21887],[-116.52916,49.21903],[-116.52916,49.2192],[-116.52917,49.21936],[-116.52917,49.21951],[-116.52917,49.21969],[-116.52917,49.21983],[-116.52914,49.22002],[-116.52911,49.22016],[-116.52908,49.22034],[-116.52905,49.22047],[-116.52902,49.22063],[-116.52887,49.22083],[-116.5288,49.22097],[-116.52873,49.22114],[-116.5288,49.22128],[-116.52896,49.22144],[-116.52908,49.2216],[-116.52915,49.22175],[-116.52923,49.22194],[-116.52924,49.22209],[-116.52923,49.22226],[-116.52921,49.22238],[-116.52925,49.22255],[-116.52929,49.22272],[-116.52928,49.22289],[-116.52933,49.22307],[-116.5294,49.2232],[-116.52945,49.22329],[-116.52949,49.22356],[-116.52945,49.22368],[-116.52929,49.22385],[-116.52929,49.224],[-116.52941,49.22416],[-116.52943,49.22433],[-116.52938,49.22449],[-116.52942,49.22467],[-116.52946,49.2248],[-116.52952,49.22497],[-116.52957,49.22514],[-116.5296,49.22528],[-116.52962,49.22545],[-116.52963,49.22559],[-116.52965,49.22576],[-116.52959,49.22594],[-116.52956,49.22609],[-116.52955,49.22625],[-116.52952,49.22641],[-116.52941,49.22655],[-116.52939,49.22656],[-116.52925,49.22674],[-116.52916,49.22689],[-116.52911,49.22705],[-116.52913,49.2272],[-116.52915,49.22736],[-116.52916,49.22754],[-116.52912,49.22769],[-116.52908,49.22784],[-116.52912,49.228],[-116.52917,49.2281],[-116.52928,49.22832],[-116.52915,49.22844],[-116.52891,49.22843],[-116.52878,49.22848],[-116.52875,49.22864],[-116.52893,49.22881],[-116.52909,49.22897],[-116.5293,49.22914],[-116.52939,49.2293],[-116.52945,49.22949],[-116.52946,49.2296],[-116.52938,49.2297],[-116.5291,49.22966],[-116.5289,49.22952],[-116.52876,49.22943],[-116.52865,49.22935],[-116.52846,49.22925],[-116.52835,49.22912],[-116.52823,49.22894],[-116.52816,49.22883],[-116.52803,49.22871]]}},
{"type":"Feature","properties":{"spotId":"F-grouse-drive-0072","kind":"roadside","km":3.9,"climbM":341,"name":"190 m E of Okell Creek","flags":[]},"geometry":{"type":"LineString","coordinates":[[-116.50645,49.15548],[-116.50637,49.1555],[-116.50605,49.15553],[-116.50571,49.15557],[-116.50563,49.15558],[-116.5053,49.15563],[-116.50523,49.15563],[-116.50487,49.15571],[-116.50459,49.15576],[-116.50431,49.15579],[-116.50413,49.1558],[-116.50395,49.15583],[-116.50387,49.15593],[-116.50381,49.15604],[-116.50378,49.15618],[-116.50375,49.15633],[-116.50372,49.15646],[-116.50376,49.15663],[-116.50382,49.15676],[-116.50387,49.15692],[-116.50381,49.157],[-116.50365,49.15701],[-116.50349,49.1569],[-116.5033,49.1568],[-116.50297,49.15674],[-116.5028,49.15671],[-116.50268,49.1567],[-116.50249,49.15669],[-116.50223,49.15668],[-116.50187,49.15668],[-116.50164,49.15678],[-116.50161,49.1568],[-116.50141,49.15693],[-116.50118,49.15704],[-116.50092,49.15715],[-116.50068,49.15727],[-116.50034,49.15748],[-116.50002,49.1577],[-116.49975,49.15781],[-116.49942,49.15802],[-116.4991,49.15821],[-116.49875,49.15834],[-116.49844,49.15843],[-116.49839,49.15844],[-116.49835,49.15846],[-116.49804,49.15847],[-116.4977,49.15845],[-116.49755,49.15844],[-116.4972,49.15836],[-116.49689,49.15828],[-116.49678,49.15825],[-116.49645,49.15818],[-116.49619,49.15815],[-116.49583,49.15816],[-116.49559,49.15823],[-116.49535,49.15834],[-116.49508,49.15848],[-116.49516,49.15863],[-116.49527,49.1588],[-116.49536,49.15894],[-116.49545,49.15909],[-116.49552,49.15926],[-116.49559,49.15943],[-116.49574,49.15962],[-116.49586,49.15974],[-116.49598,49.15989],[-116.49612,49.16],[-116.49643,49.16018],[-116.49657,49.16029],[-116.49663,49.1604],[-116.49662,49.16054],[-116.49652,49.16067],[-116.49636,49.16083],[-116.49624,49.16104],[-116.49617,49.16126],[-116.49608,49.16139],[-116.49585,49.16153],[-116.49566,49.16158],[-116.49546,49.16163],[-116.49524,49.16169],[-116.49503,49.16179],[-116.49492,49.16193],[-116.4949,49.16204],[-116.49494,49.16217],[-116.49516,49.16239],[-116.49524,49.16257],[-116.49527,49.16268],[-116.49521,49.16276],[-116.49505,49.16282],[-116.49487,49.16286],[-116.49472,49.16296],[-116.49459,49.1631],[-116.49447,49.16323],[-116.49438,49.16336],[-116.49428,49.16351],[-116.49421,49.16365],[-116.49417,49.16379],[-116.49416,49.16393],[-116.49417,49.16408],[-116.49417,49.16423],[-116.4941,49.16433],[-116.49393,49.16445],[-116.49375,49.16459],[-116.49361,49.16474],[-116.49342,49.16488],[-116.4933,49.16503],[-116.49316,49.16521],[-116.49295,49.1653],[-116.49276,49.1654],[-116.49266,49.16554],[-116.49267,49.16569],[-116.49266,49.16588],[-116.4925,49.16603],[-116.4923,49.16617],[-116.49223,49.16618],[-116.49209,49.16621],[-116.49188,49.16626],[-116.4917,49.16637],[-116.49158,49.16652],[-116.49143,49.16667],[-116.49125,49.16679],[-116.4911,49.16681],[-116.49105,49.16681],[-116.49092,49.16669],[-116.49082,49.16657],[-116.49078,49.16642],[-116.49077,49.16629],[-116.49075,49.16612],[-116.49069,49.16601],[-116.4906,49.16583],[-116.49052,49.16568],[-116.49045,49.1655],[-116.49045,49.1653],[-116.49045,49.16511],[-116.49046,49.1649],[-116.49045,49.16464],[-116.49043,49.16444],[-116.49037,49.1643],[-116.49031,49.16417],[-116.49022,49.16405],[-116.49012,49.1641],[-116.49012,49.1643],[-116.49012,49.16445],[-116.4901,49.16467],[-116.49007,49.16485],[-116.49004,49.16503],[-116.48999,49.16525],[-116.48994,49.16547],[-116.4899,49.16564],[-116.48984,49.1658],[-116.48981,49.16602],[-116.4898,49.16608],[-116.48977,49.16626],[-116.48978,49.16645],[-116.48975,49.16664],[-116.48971,49.16687],[-116.48971,49.16689],[-116.48967,49.16709],[-116.48961,49.16728],[-116.48954,49.16749],[-116.48944,49.16762],[-116.48947,49.16774],[-116.48952,49.16792],[-116.48946,49.16805],[-116.48945,49.16823],[-116.48943,49.16838],[-116.48938,49.16848],[-116.48931,49.16863],[-116.48922,49.16873],[-116.4891,49.16872],[-116.48899,49.16865],[-116.48897,49.16854],[-116.48894,49.16842],[-116.48889,49.16824],[-116.48883,49.16808],[-116.48879,49.16789],[-116.48873,49.16772],[-116.48866,49.16757],[-116.48858,49.1674],[-116.48849,49.16719],[-116.48842,49.167],[-116.48832,49.1668],[-116.4882,49.16659],[-116.4881,49.16642],[-116.48803,49.16626],[-116.48792,49.16606],[-116.48785,49.16587],[-116.48779,49.16574],[-116.48771,49.16559],[-116.48763,49.16546],[-116.48748,49.16537],[-116.48732,49.16541],[-116.48727,49.16551],[-116.48731,49.1656],[-116.48742,49.16573],[-116.48744,49.16585],[-116.48743,49.16602],[-116.48737,49.16624],[-116.4873,49.16642],[-116.48724,49.16665],[-116.48723,49.16667],[-116.48714,49.1669],[-116.4871,49.16709],[-116.48703,49.1673],[-116.48702,49.16733],[-116.48695,49.16755],[-116.4869,49.16772],[-116.48683,49.16794],[-116.48676,49.16817],[-116.48669,49.16838],[-116.48663,49.16857],[-116.48651,49.16879],[-116.48641,49.16902],[-116.48639,49.16912]]}}
]}
