{"type":"FeatureCollection","features":[
{"type":"Feature","properties":{"spotId":"F-grouse-walk-0079","kind":"roadside","km":5.47,"climbM":213,"name":"300 m NW of Redding Creek","flags":["Route enters a Motor Vehicle Closed Area: Baribeau Creek. Closed Year Round. Synopsis map 1-63/23."]},"geometry":{"type":"LineString","coordinates":[[-116.52849,49.64453],[-116.52884,49.64444],[-116.52896,49.64444],[-116.52906,49.64448],[-116.52914,49.64451],[-116.52928,49.64455],[-116.52941,49.64459],[-116.5295,49.64462],[-116.5296,49.64466],[-116.52968,49.64467],[-116.52989,49.64468],[-116.53,49.64465],[-116.53011,49.64463],[-116.53026,49.64458],[-116.53035,49.64453],[-116.53049,49.64448],[-116.53056,49.64447],[-116.53065,49.64446],[-116.53077,49.64443],[-116.53088,49.64445],[-116.5311,49.64451],[-116.53123,49.64454],[-116.53137,49.64459],[-116.53146,49.64462],[-116.53155,49.64464],[-116.53169,49.64467],[-116.53182,49.64469],[-116.5319,49.64469],[-116.53198,49.64469],[-116.53219,49.64468],[-116.53247,49.64468],[-116.5326,49.64468],[-116.53267,49.64468],[-116.53279,49.64467],[-116.53294,49.64467],[-116.53308,49.64465],[-116.53323,49.64462],[-116.53331,49.64462],[-116.53345,49.64461],[-116.53356,49.64458],[-116.53369,49.64454],[-116.53381,49.6445],[-116.53398,49.64442],[-116.53405,49.64436],[-116.53417,49.64428],[-116.53424,49.64421],[-116.53436,49.64415],[-116.53444,49.64413],[-116.53454,49.64411],[-116.53463,49.64409],[-116.53472,49.64409],[-116.53483,49.64407],[-116.53494,49.64406],[-116.53502,49.64407],[-116.53515,49.64411],[-116.53524,49.64414],[-116.53548,49.64418],[-116.53562,49.64421],[-116.53578,49.64424],[-116.53593,49.64424],[-116.53613,49.64424],[-116.53625,49.64424],[-116.53658,49.64424],[-116.53674,49.64423],[-116.53682,49.64423],[-116.53694,49.64423],[-116.53703,49.64423],[-116.53711,49.64421],[-116.53721,49.64419],[-116.53732,49.64416],[-116.53744,49.64415],[-116.5376,49.64411],[-116.53771,49.64407],[-116.53779,49.64407],[-116.5381,49.64404],[-116.53828,49.64401],[-116.53836,49.644],[-116.5385,49.64395],[-116.5386,49.64392],[-116.53868,49.64389],[-116.53883,49.64381],[-116.53896,49.64375],[-116.53917,49.64371],[-116.5393,49.6437],[-116.5394,49.64368],[-116.53951,49.64366],[-116.53961,49.64366],[-116.53975,49.64366],[-116.53989,49.64366],[-116.54,49.64366],[-116.54016,49.64367],[-116.54025,49.64368],[-116.54034,49.6437],[-116.54045,49.64374],[-116.54069,49.64376],[-116.54092,49.64376],[-116.5411,49.64376],[-116.54123,49.64376],[-116.54133,49.64376],[-116.54142,49.64376],[-116.54152,49.64376],[-116.5416,49.64376],[-116.54173,49.64376],[-116.54184,49.64376],[-116.5421,49.64376],[-116.5423,49.64375],[-116.54245,49.64375],[-116.54255,49.64375],[-116.54266,49.64375],[-116.54279,49.64374],[-116.54292,49.64374],[-116.54309,49.64374],[-116.5432,49.64373],[-116.54331,49.64372],[-116.54337,49.64372],[-116.54354,49.64372],[-116.54378,49.64372],[-116.54388,49.64372],[-116.54401,49.64372],[-116.54411,49.64373],[-116.54428,49.64375],[-116.54436,49.64376],[-116.54451,49.64379],[-116.54472,49.64388],[-116.54493,49.64394],[-116.54505,49.64398],[-116.54524,49.64402],[-116.54545,49.64409],[-116.54552,49.64414],[-116.54559,49.6442],[-116.5457,49.64428],[-116.54581,49.64432],[-116.546,49.64438],[-116.54611,49.64441],[-116.54622,49.64447],[-116.54636,49.64454],[-116.54646,49.64458],[-116.54658,49.64462],[-116.54666,49.64463],[-116.54682,49.64465],[-116.5469,49.64467],[-116.54698,49.64469],[-116.54706,49.64484],[-116.54713,49.64492],[-116.54724,49.64495],[-116.54737,49.64496],[-116.54748,49.64495],[-116.54763,49.64495],[-116.54776,49.64495],[-116.54794,49.64495],[-116.54802,49.64495],[-116.5482,49.64498],[-116.54828,49.64504],[-116.54843,49.64512],[-116.54861,49.64517],[-116.54878,49.64526],[-116.54887,49.64531],[-116.54901,49.64539],[-116.54915,49.64543],[-116.54934,49.64547],[-116.54948,49.6455],[-116.54958,49.64552],[-116.54968,49.64556],[-116.54977,49.6456],[-116.5499,49.64565],[-116.55005,49.64571],[-116.55019,49.64576],[-116.5503,49.64581],[-116.55039,49.64584],[-116.55048,49.64588],[-116.55057,49.64589],[-116.55078,49.64596],[-116.55093,49.64603],[-116.55107,49.6461],[-116.55117,49.64615],[-116.55125,49.6462],[-116.55133,49.64625],[-116.55144,49.64632],[-116.55157,49.64639],[-116.55168,49.64646],[-116.55177,49.64651],[-116.55191,49.6466],[-116.55201,49.64665],[-116.55209,49.64671],[-116.55216,49.64677],[-116.55224,49.64679],[-116.55245,49.64689],[-116.55252,49.64695],[-116.55261,49.64702],[-116.55275,49.6471],[-116.55283,49.64716],[-116.5529,49.64722],[-116.55298,49.64727],[-116.55311,49.64734],[-116.55319,49.64739],[-116.55329,49.64742],[-116.55337,49.64747],[-116.55355,49.64758],[-116.55363,49.6476],[-116.55381,49.64768],[-116.55388,49.64773],[-116.55399,49.64781],[-116.5541,49.64789],[-116.55418,49.64794],[-116.55428,49.64799],[-116.55439,49.64806],[-116.55447,49.64811],[-116.55457,49.6482],[-116.55475,49.64825],[-116.55493,49.64834],[-116.55502,49.64842],[-116.55509,49.64849],[-116.55516,49.64855],[-116.55524,49.64859],[-116.5553,49.64865],[-116.55533,49.64871],[-116.55537,49.64877],[-116.55544,49.64885],[-116.55553,49.6489],[-116.55568,49.64896],[-116.55581,49.64903],[-116.55602,49.64916],[-116.5561,49.64921],[-116.55629,49.64932],[-116.55643,49.64939],[-116.55655,49.64947],[-116.55664,49.64951],[-116.55672,49.64958],[-116.55676,49.64964],[-116.55684,49.6497],[-116.55692,49.64976],[-116.55702,49.64983],[-116.55712,49.64991],[-116.55719,49.64998],[-116.55728,49.65003],[-116.55753,49.6502],[-116.55765,49.65031],[-116.55776,49.65039],[-116.5579,49.65047],[-116.55797,49.65052],[-116.55802,49.65059],[-116.55809,49.65068],[-116.55818,49.65074],[-116.55827,49.65084],[-116.55835,49.65092],[-116.55848,49.65102],[-116.55857,49.65109],[-116.55864,49.65114],[-116.55874,49.65124],[-116.55882,49.65132],[-116.5589,49.65139],[-116.55895,49.65144],[-116.55901,49.65151],[-116.55912,49.65154],[-116.55932,49.65163],[-116.55941,49.6517],[-116.5595,49.65177],[-116.55959,49.65183],[-116.55974,49.65193],[-116.5599,49.65202],[-116.56001,49.6521],[-116.56016,49.65219],[-116.56028,49.65227],[-116.56042,49.65234],[-116.5605,49.65238],[-116.56067,49.65248],[-116.56074,49.65254],[-116.56082,49.6526],[-116.5609,49.65269],[-116.56098,49.65277],[-116.56105,49.65284],[-116.56109,49.65289],[-116.56116,49.653],[-116.56134,49.65314],[-116.56144,49.65321],[-116.56155,49.65325],[-116.56171,49.65335],[-116.56178,49.6534],[-116.56186,49.65347],[-116.56192,49.65353],[-116.56207,49.65358],[-116.56222,49.65366],[-116.56229,49.65372],[-116.56236,49.65378],[-116.56241,49.65386],[-116.56247,49.65392],[-116.56252,49.65397],[-116.56262,49.65402],[-116.56283,49.65411],[-116.56295,49.65416],[-116.56303,49.65421],[-116.5631,49.65427],[-116.5632,49.65432],[-116.5633,49.65438],[-116.56341,49.65445],[-116.56354,49.65454],[-116.56367,49.6546],[-116.56379,49.65465],[-116.564,49.65476],[-116.56407,49.65483],[-116.56418,49.65491],[-116.5643,49.65495],[-116.56452,49.65506],[-116.56461,49.65512],[-116.56477,49.6552],[-116.56491,49.65527],[-116.56506,49.65534],[-116.56516,49.65541],[-116.56525,49.65544],[-116.56534,49.6555],[-116.56542,49.65555],[-116.56554,49.65562],[-116.56567,49.65571],[-116.56572,49.65577],[-116.56581,49.65583],[-116.56589,49.65587],[-116.56598,49.65591],[-116.56611,49.65597],[-116.56623,49.65601],[-116.56637,49.65608],[-116.56647,49.65614],[-116.56658,49.6562],[-116.5667,49.65627],[-116.56684,49.65634],[-116.56695,49.65638],[-116.56706,49.65643],[-116.56718,49.65649],[-116.56728,49.65654],[-116.56736,49.65656],[-116.56746,49.6566],[-116.56754,49.65662],[-116.56765,49.65666],[-116.56779,49.65671],[-116.56793,49.65676],[-116.56806,49.65679],[-116.56818,49.65682],[-116.56829,49.65685],[-116.56839,49.65688],[-116.56854,49.65689],[-116.56876,49.6569],[-116.56887,49.65691],[-116.56902,49.65693],[-116.56912,49.65695],[-116.56923,49.65696],[-116.56933,49.65699],[-116.56944,49.657],[-116.5696,49.65701],[-116.56978,49.65705],[-116.56985,49.65706],[-116.57001,49.65709],[-116.57013,49.65714],[-116.5703,49.6572],[-116.57056,49.65721],[-116.57066,49.65722],[-116.57077,49.65725],[-116.57085,49.65727],[-116.57099,49.65731],[-116.57107,49.65733],[-116.57115,49.65733],[-116.57124,49.65734],[-116.57132,49.65735],[-116.5714,49.65736],[-116.57154,49.6574],[-116.57164,49.65744],[-116.57167,49.65735],[-116.57175,49.65736],[-116.57193,49.65747],[-116.57207,49.6576],[-116.57215,49.65765],[-116.57223,49.65771],[-116.57233,49.65778],[-116.57244,49.65784],[-116.57253,49.65792],[-116.57262,49.65798],[-116.57275,49.65806],[-116.57322,49.65843],[-116.57337,49.65853],[-116.57351,49.65861],[-116.57361,49.65866],[-116.57377,49.65877],[-116.57384,49.65882],[-116.57391,49.65888],[-116.57397,49.65894],[-116.57406,49.659],[-116.57413,49.65905],[-116.57421,49.65913],[-116.57434,49.65924],[-116.57443,49.65933],[-116.57453,49.65938],[-116.57461,49.65946],[-116.57467,49.65952],[-116.57476,49.6596],[-116.57483,49.65966],[-116.57489,49.65972],[-116.57498,49.6598],[-116.57507,49.65987],[-116.57514,49.65995],[-116.57519,49.66002],[-116.57524,49.66008],[-116.57533,49.66019],[-116.57537,49.66024],[-116.57544,49.6603],[-116.5756,49.66036],[-116.57575,49.66043],[-116.57588,49.66049],[-116.57596,49.66054],[-116.57607,49.6606],[-116.57615,49.66065],[-116.57626,49.66074],[-116.57633,49.66079],[-116.57642,49.66086],[-116.57655,49.66097],[-116.57661,49.66102],[-116.57665,49.6611],[-116.57665,49.66116],[-116.57668,49.66122],[-116.5767,49.66129],[-116.57676,49.66137],[-116.5768,49.66148],[-116.57684,49.66154],[-116.57688,49.6616],[-116.57695,49.66167],[-116.57748,49.66234],[-116.57751,49.66239],[-116.57759,49.66249],[-116.57766,49.66257],[-116.57769,49.66262],[-116.57774,49.6627],[-116.5778,49.66277],[-116.57787,49.66285],[-116.57795,49.66292],[-116.578,49.66302],[-116.57806,49.66309],[-116.57816,49.66315],[-116.57822,49.66324],[-116.57827,49.66333],[-116.57832,49.66339],[-116.57837,49.66346],[-116.57844,49.66354],[-116.57853,49.66363],[-116.57861,49.66372],[-116.57866,49.66378],[-116.5787,49.66386],[-116.57876,49.66394],[-116.57883,49.66399],[-116.5789,49.66407],[-116.57894,49.66414],[-116.57902,49.66421],[-116.57905,49.66427],[-116.5791,49.66434],[-116.57913,49.6644],[-116.57916,49.66445],[-116.57918,49.66451],[-116.57924,49.66461],[-116.57928,49.6647],[-116.57935,49.66478],[-116.57946,49.66492],[-116.57955,49.66502],[-116.57962,49.66508],[-116.57968,49.66514],[-116.57975,49.6652],[-116.57981,49.66527],[-116.57988,49.66533],[-116.57995,49.66541],[-116.58003,49.66549],[-116.58012,49.66555],[-116.58017,49.66562],[-116.58024,49.66568],[-116.58031,49.66575],[-116.58036,49.66581],[-116.58042,49.66589],[-116.58047,49.66595],[-116.58057,49.66602],[-116.58068,49.6661],[-116.58075,49.66618],[-116.58082,49.66626],[-116.58086,49.66633],[-116.58093,49.6664],[-116.581,49.66646],[-116.58109,49.66655],[-116.58122,49.66664],[-116.58131,49.66672],[-116.58144,49.66678],[-116.58153,49.66682],[-116.58162,49.66685],[-116.58181,49.66696],[-116.58189,49.66701],[-116.58193,49.66703],[-116.58202,49.6671],[-116.58208,49.66716],[-116.58218,49.6672],[-116.58236,49.66724],[-116.58258,49.66732],[-116.58269,49.66736],[-116.58282,49.66742],[-116.58297,49.66749],[-116.58316,49.66754],[-116.58324,49.6676],[-116.58334,49.66764],[-116.58345,49.66769],[-116.58353,49.66771],[-116.58363,49.66775],[-116.58376,49.66781],[-116.58384,49.66785],[-116.58394,49.66789],[-116.58405,49.66793],[-116.58417,49.668],[-116.58431,49.66807],[-116.58447,49.66812],[-116.5846,49.66818],[-116.58468,49.6682],[-116.58479,49.66825],[-116.58497,49.66833],[-116.58505,49.66838],[-116.58515,49.6684],[-116.58528,49.66842],[-116.58544,49.66846],[-116.58554,49.66849],[-116.58568,49.66852],[-116.58579,49.66856],[-116.58594,49.66858]]}},
{"type":"Feature","properties":{"spotId":"F-moose-backcountry-0030","kind":"backcountry","km":5.13,"climbM":895,"name":"470 m NE of Baribeau Creek","flags":[]},"geometry":{"type":"LineString","coordinates":[[-116.56713,49.71784],[-116.59032,49.67426]]}}
]}
