{"type":"FeatureCollection","features":[
{"type":"Feature","properties":{"spotId":"F-grouse-atv-0050","kind":"ride","km":4.77,"climbM":401,"name":"By Farnham Creek","flags":[]},"geometry":{"type":"LineString","coordinates":[[-116.51786,50.45794],[-116.51772,50.45774],[-116.51765,50.45763],[-116.51761,50.45743],[-116.51759,50.45736],[-116.51759,50.45725],[-116.51753,50.45707],[-116.51751,50.45702],[-116.51748,50.45699],[-116.51734,50.45683],[-116.51725,50.45678],[-116.5171,50.45659],[-116.51709,50.45656],[-116.51702,50.45641],[-116.51702,50.45635],[-116.51709,50.45619],[-116.51712,50.45599],[-116.51712,50.45586],[-116.51701,50.45564],[-116.51694,50.45553],[-116.51689,50.45537],[-116.51678,50.4552],[-116.51674,50.45502],[-116.51674,50.45481],[-116.51677,50.45476],[-116.51678,50.45455],[-116.5168,50.45445],[-116.51684,50.45434],[-116.51684,50.45428],[-116.51692,50.45412],[-116.51697,50.45407],[-116.51704,50.45396],[-116.51709,50.45379],[-116.5171,50.45372],[-116.51715,50.45363],[-116.51716,50.45361],[-116.51719,50.45339],[-116.51723,50.45317],[-116.51725,50.4531],[-116.51724,50.45304],[-116.51713,50.45287],[-116.51697,50.45267],[-116.51683,50.45246],[-116.51671,50.45234],[-116.51665,50.45222],[-116.5166,50.452],[-116.51659,50.45194],[-116.51643,50.45172],[-116.51638,50.45167],[-116.51629,50.45152],[-116.51624,50.45147],[-116.51608,50.45129],[-116.51578,50.45111],[-116.51571,50.45099],[-116.51568,50.45097],[-116.51548,50.45087],[-116.51544,50.45081],[-116.51546,50.45071],[-116.51542,50.45059],[-116.5154,50.45055],[-116.51536,50.45044],[-116.51524,50.45033],[-116.51508,50.45011],[-116.51501,50.44999],[-116.51493,50.44987],[-116.51489,50.44974],[-116.51482,50.44967],[-116.51478,50.44964],[-116.51464,50.44944],[-116.51457,50.44939],[-116.51439,50.44918],[-116.51425,50.44902],[-116.51415,50.44893],[-116.51407,50.44888],[-116.5139,50.44869],[-116.51379,50.44858],[-116.51372,50.44847],[-116.51356,50.44839],[-116.51337,50.44824],[-116.51323,50.44814],[-116.51319,50.44809],[-116.51312,50.44802],[-116.51295,50.44793],[-116.51273,50.44774],[-116.51268,50.44767],[-116.51239,50.44744],[-116.51235,50.44737],[-116.51229,50.44733],[-116.51224,50.44727],[-116.51208,50.44712],[-116.51206,50.44706],[-116.51193,50.44696],[-116.51176,50.44683],[-116.51175,50.44681],[-116.51147,50.44663],[-116.5114,50.44656],[-116.51133,50.44642],[-116.51118,50.44628],[-116.51108,50.44623],[-116.51093,50.44612],[-116.5106,50.44591],[-116.51053,50.44587],[-116.51034,50.4457],[-116.51012,50.44556],[-116.50999,50.44545],[-116.50982,50.44539],[-116.50963,50.44524],[-116.50953,50.44518],[-116.50946,50.44513],[-116.50937,50.445],[-116.50915,50.44482],[-116.50907,50.44478],[-116.50887,50.44462],[-116.5088,50.44457],[-116.50875,50.44452],[-116.50866,50.44441],[-116.50858,50.44436],[-116.50847,50.44421],[-116.50833,50.44405],[-116.50831,50.444],[-116.50815,50.44382],[-116.50809,50.44376],[-116.50799,50.4436],[-116.50794,50.44355],[-116.50788,50.44349],[-116.50762,50.44338],[-116.50736,50.44325],[-116.50731,50.44319],[-116.5073,50.44314],[-116.50728,50.44311],[-116.50718,50.44295],[-116.50712,50.44284],[-116.50709,50.44274],[-116.50703,50.44263],[-116.50694,50.44255],[-116.50692,50.44253],[-116.50673,50.4424],[-116.5067,50.44238],[-116.50669,50.44219],[-116.50669,50.44202],[-116.50666,50.44193],[-116.50665,50.44176],[-116.50662,50.44171],[-116.50661,50.44165],[-116.50658,50.44151],[-116.50658,50.44147],[-116.5065,50.44137],[-116.50647,50.4413],[-116.50637,50.4412],[-116.5062,50.44114],[-116.50599,50.44103],[-116.50577,50.44088],[-116.50567,50.44084],[-116.5056,50.44079],[-116.5055,50.4407],[-116.50535,50.44048],[-116.50524,50.44033],[-116.50519,50.44013],[-116.50519,50.44011],[-116.50517,50.43995],[-116.50512,50.43975],[-116.50509,50.43971],[-116.50491,50.43952],[-116.50487,50.43947],[-116.50484,50.43942],[-116.50462,50.43926],[-116.50459,50.43922],[-116.50458,50.43911],[-116.50459,50.43888],[-116.50459,50.43877],[-116.50457,50.43871],[-116.50444,50.43856],[-116.50422,50.43839],[-116.50402,50.43826],[-116.50398,50.43822],[-116.50391,50.43815],[-116.50387,50.43812],[-116.5037,50.43789],[-116.50361,50.43777],[-116.50347,50.43766],[-116.50341,50.43759],[-116.50331,50.43756],[-116.5032,50.43746],[-116.50295,50.4373],[-116.50275,50.43714],[-116.50261,50.43698],[-116.50255,50.43676],[-116.50253,50.43671],[-116.5025,50.43661],[-116.50242,50.43646],[-116.50232,50.43634],[-116.50206,50.43611],[-116.502,50.43605],[-116.50178,50.4359],[-116.50167,50.43578],[-116.50154,50.43569],[-116.50143,50.43558],[-116.50119,50.43536],[-116.50112,50.4353],[-116.50107,50.43525],[-116.50103,50.43523],[-116.50079,50.43506],[-116.50072,50.43501],[-116.50062,50.43489],[-116.50062,50.43484],[-116.50067,50.43475],[-116.50067,50.43454],[-116.5007,50.43448],[-116.50071,50.43434],[-116.50073,50.43426],[-116.50074,50.43423],[-116.50079,50.43402],[-116.50086,50.43381],[-116.50087,50.43376],[-116.50086,50.43359],[-116.50082,50.43354],[-116.50081,50.43348],[-116.50074,50.43338],[-116.50061,50.43327],[-116.50047,50.43319],[-116.50037,50.43316],[-116.5003,50.43312],[-116.50015,50.43306],[-116.50006,50.43306],[-116.4999,50.433],[-116.4997,50.43296],[-116.49954,50.43291],[-116.49946,50.4329],[-116.49931,50.43285],[-116.49905,50.4328],[-116.49881,50.43274],[-116.49866,50.43268],[-116.49856,50.4326],[-116.49853,50.43255],[-116.49852,50.43245],[-116.49852,50.4324],[-116.49865,50.43219],[-116.49869,50.4321],[-116.49889,50.43189],[-116.49899,50.43175],[-116.49905,50.43154],[-116.49905,50.43143],[-116.49893,50.43135],[-116.49884,50.43131],[-116.49877,50.43128],[-116.4987,50.43128],[-116.49848,50.43124],[-116.49832,50.4312],[-116.49824,50.43119],[-116.49808,50.43116],[-116.49776,50.43114],[-116.49769,50.43114],[-116.49761,50.43112],[-116.49754,50.43107],[-116.49751,50.43101],[-116.49747,50.43096],[-116.49731,50.43087],[-116.49707,50.43079],[-116.49699,50.43077],[-116.49681,50.4307],[-116.49663,50.43068],[-116.49649,50.4306],[-116.49636,50.43049],[-116.4963,50.43037],[-116.49624,50.4303],[-116.49615,50.43019],[-116.49607,50.42996],[-116.49603,50.42975],[-116.49603,50.42969],[-116.49599,50.4296],[-116.49595,50.42953],[-116.49589,50.42948],[-116.49584,50.42939],[-116.49575,50.4293],[-116.49568,50.42918],[-116.4955,50.42897],[-116.49543,50.42893],[-116.49538,50.42887],[-116.49535,50.42881],[-116.49525,50.42871],[-116.49521,50.42864],[-116.49516,50.42853],[-116.49509,50.42841],[-116.49504,50.42837],[-116.49491,50.42825],[-116.49482,50.42821],[-116.49475,50.42816],[-116.49465,50.4281],[-116.49451,50.428],[-116.49436,50.42795],[-116.49426,50.42795],[-116.4942,50.428],[-116.49419,50.42813],[-116.49413,50.4283],[-116.49407,50.42842],[-116.49399,50.42851],[-116.49392,50.42868],[-116.49384,50.42877],[-116.49376,50.42879],[-116.49369,50.42876],[-116.49365,50.42866],[-116.49362,50.42854],[-116.49352,50.42838],[-116.49333,50.42823],[-116.49317,50.42817],[-116.49318,50.42806],[-116.49322,50.42796],[-116.49321,50.4278],[-116.49326,50.42769],[-116.49329,50.42754],[-116.49328,50.42748],[-116.49323,50.42739],[-116.49314,50.42723],[-116.49306,50.42701],[-116.49302,50.42695],[-116.49299,50.42685],[-116.49294,50.42674],[-116.4928,50.42658],[-116.49274,50.42652],[-116.49267,50.42649],[-116.49234,50.42635],[-116.49211,50.42627],[-116.49204,50.42621],[-116.49204,50.4261],[-116.49197,50.42594],[-116.49189,50.4259],[-116.49172,50.42585],[-116.4916,50.42575],[-116.49158,50.42569],[-116.49154,50.42563],[-116.49144,50.42553],[-116.49137,50.42546],[-116.49132,50.4254],[-116.49123,50.42536],[-116.49116,50.42532],[-116.49107,50.42517],[-116.49112,50.42514],[-116.49129,50.42514],[-116.49146,50.42518],[-116.49162,50.42519],[-116.49169,50.42521],[-116.49185,50.42526],[-116.49218,50.4254],[-116.49233,50.42551],[-116.49243,50.42555],[-116.49258,50.42558],[-116.49267,50.42559],[-116.49291,50.42557],[-116.49296,50.42555]]}},
{"type":"Feature","properties":{"spotId":"F-grouse-drive-0016","kind":"roadside","km":4.96,"climbM":48,"name":"By Farnham Creek","flags":[]},"geometry":{"type":"LineString","coordinates":[[-116.52149,50.46462],[-116.52147,50.46485],[-116.52144,50.46496],[-116.52145,50.46513],[-116.52148,50.4652],[-116.52151,50.46528],[-116.52189,50.46552],[-116.52204,50.4656],[-116.52217,50.46569],[-116.52222,50.46572],[-116.52239,50.4658],[-116.52254,50.4659],[-116.5226,50.46596],[-116.52265,50.46607],[-116.52267,50.46626],[-116.52264,50.46647],[-116.52262,50.46669],[-116.5226,50.46688],[-116.5226,50.46698],[-116.52262,50.46719],[-116.52259,50.46724],[-116.52256,50.46746],[-116.52258,50.46763],[-116.52269,50.46778],[-116.52274,50.46787],[-116.52282,50.46802],[-116.52282,50.46813],[-116.5228,50.46835],[-116.52284,50.46841],[-116.5229,50.4686],[-116.52295,50.46866],[-116.52299,50.4687],[-116.52306,50.46874],[-116.52316,50.46887],[-116.52323,50.46892],[-116.52332,50.46898],[-116.52341,50.46901],[-116.52368,50.46919],[-116.52375,50.46925],[-116.52381,50.4693],[-116.52399,50.46951],[-116.52418,50.46971],[-116.52441,50.46992],[-116.52448,50.47003],[-116.52455,50.47008],[-116.52481,50.47028],[-116.52481,50.47038],[-116.52485,50.47044],[-116.52494,50.47047],[-116.52508,50.47056],[-116.52513,50.47068],[-116.52524,50.47089],[-116.52521,50.47092],[-116.5252,50.47104],[-116.5253,50.47113],[-116.52541,50.47128],[-116.52552,50.47137],[-116.52577,50.47146],[-116.5258,50.4715],[-116.52594,50.4716],[-116.52605,50.47172],[-116.52611,50.47178],[-116.52618,50.47194],[-116.52617,50.47203],[-116.52616,50.47209],[-116.52613,50.47228],[-116.52613,50.47229],[-116.52617,50.47238],[-116.5262,50.47261],[-116.52619,50.47277],[-116.52622,50.47283],[-116.52631,50.47294],[-116.52642,50.47305],[-116.52653,50.47321],[-116.52654,50.47323],[-116.52671,50.47343],[-116.52678,50.47348],[-116.52706,50.47369],[-116.5271,50.47376],[-116.52713,50.47387],[-116.5273,50.47404],[-116.52737,50.47406],[-116.52738,50.47417],[-116.52734,50.47423],[-116.52727,50.47428],[-116.52711,50.47446],[-116.52705,50.47456],[-116.52705,50.47467],[-116.52711,50.47473],[-116.52719,50.47488],[-116.5273,50.475],[-116.52737,50.47511],[-116.52738,50.47522],[-116.52742,50.47533],[-116.52745,50.47538],[-116.52763,50.47553],[-116.52777,50.47563],[-116.52802,50.47585],[-116.52807,50.4759],[-116.52818,50.47608],[-116.52822,50.47613],[-116.52832,50.47624],[-116.52841,50.47635],[-116.52848,50.47651],[-116.52861,50.47666],[-116.52862,50.47672],[-116.52844,50.47687],[-116.52841,50.47698],[-116.52846,50.47703],[-116.52862,50.47719],[-116.52874,50.47734],[-116.52882,50.47755],[-116.52884,50.47766],[-116.52888,50.47776],[-116.52891,50.47778],[-116.52902,50.47791],[-116.52906,50.47795],[-116.52914,50.47811],[-116.5292,50.47816],[-116.52925,50.47833],[-116.52928,50.47854],[-116.52935,50.47872],[-116.52936,50.47888],[-116.52943,50.47898],[-116.52956,50.4792],[-116.52974,50.47934],[-116.52983,50.47945],[-116.52989,50.47957],[-116.5299,50.47961],[-116.52989,50.47982],[-116.52994,50.47997],[-116.52994,50.48006],[-116.52993,50.48017],[-116.52992,50.48041],[-116.52992,50.48048],[-116.52989,50.48057],[-116.52991,50.48075],[-116.52995,50.48085],[-116.53002,50.48095],[-116.53006,50.48112],[-116.53007,50.48121],[-116.53013,50.48134],[-116.53015,50.48147],[-116.53019,50.48152],[-116.53021,50.48156],[-116.53036,50.48185],[-116.53042,50.48194],[-116.53043,50.48206],[-116.53049,50.48212],[-116.53074,50.48222],[-116.53089,50.48233],[-116.53102,50.48245],[-116.53105,50.4825],[-116.53109,50.48266],[-116.53108,50.48287],[-116.53112,50.48306],[-116.53112,50.48329],[-116.53113,50.48341],[-116.53115,50.48363],[-116.53117,50.48385],[-116.53121,50.48396],[-116.53124,50.48405],[-116.53128,50.48416],[-116.53128,50.48432],[-116.53134,50.48449],[-116.53136,50.48468],[-116.53142,50.48478],[-116.53144,50.48489],[-116.5315,50.48505],[-116.53153,50.48516],[-116.53154,50.48533],[-116.53159,50.48543],[-116.53161,50.48554],[-116.53166,50.48563],[-116.53168,50.48573],[-116.53176,50.4859],[-116.53177,50.486],[-116.5318,50.48605],[-116.53183,50.48617],[-116.53185,50.48634],[-116.53192,50.48649],[-116.53194,50.48655],[-116.53193,50.48663],[-116.53193,50.48667],[-116.53206,50.48688],[-116.53223,50.48704],[-116.5323,50.48713],[-116.53245,50.48731],[-116.53262,50.48747],[-116.53269,50.48752],[-116.533,50.4877],[-116.53309,50.48777],[-116.53312,50.48779],[-116.53344,50.48801],[-116.53357,50.48812],[-116.53385,50.48832],[-116.53392,50.48835],[-116.53403,50.48845],[-116.53417,50.48864],[-116.53418,50.4887],[-116.53424,50.48883],[-116.53438,50.48902],[-116.53442,50.48912],[-116.53443,50.48927],[-116.53437,50.48948],[-116.53434,50.48969],[-116.53427,50.4898],[-116.5342,50.48993],[-116.53416,50.48999],[-116.53414,50.49004],[-116.53414,50.49008],[-116.53415,50.49028],[-116.53419,50.49044],[-116.53424,50.49054],[-116.53424,50.4906],[-116.53429,50.49073],[-116.53437,50.49094],[-116.53446,50.49105],[-116.53451,50.49117],[-116.53465,50.49131],[-116.53476,50.49147],[-116.53479,50.49152],[-116.53486,50.49172],[-116.53489,50.49185],[-116.53495,50.49202],[-116.53497,50.49204],[-116.53504,50.49222],[-116.53505,50.49225],[-116.53511,50.49239],[-116.53523,50.49256],[-116.53533,50.49264],[-116.53554,50.49282],[-116.53561,50.49289],[-116.5358,50.49311],[-116.53613,50.49332],[-116.53641,50.49352],[-116.53648,50.49361],[-116.53657,50.49376],[-116.53667,50.49386],[-116.53674,50.49397],[-116.53684,50.49415],[-116.537,50.4943],[-116.53705,50.49436],[-116.53717,50.49454],[-116.53723,50.49465],[-116.53725,50.49472],[-116.53734,50.49488],[-116.53737,50.49494],[-116.53743,50.49507],[-116.53748,50.4952],[-116.53753,50.49537],[-116.53758,50.49558],[-116.53758,50.49563],[-116.53761,50.49586],[-116.53766,50.49603],[-116.53768,50.49625],[-116.5377,50.49637],[-116.5377,50.49643],[-116.53771,50.49665],[-116.53771,50.49685],[-116.53774,50.49696],[-116.53778,50.4971],[-116.53782,50.49724],[-116.53785,50.49731],[-116.53799,50.49753],[-116.53804,50.49765],[-116.53804,50.49766],[-116.53809,50.49772],[-116.53816,50.49776],[-116.53828,50.49786],[-116.53834,50.49792],[-116.53836,50.49798],[-116.53853,50.49808],[-116.53871,50.49823],[-116.53877,50.49827],[-116.5388,50.49835],[-116.53888,50.49841],[-116.53898,50.49854],[-116.53918,50.49871],[-116.53924,50.49889],[-116.53929,50.49894],[-116.5393,50.49901],[-116.5393,50.49904],[-116.53932,50.49935],[-116.53935,50.4995],[-116.53938,50.49971],[-116.53937,50.49993],[-116.5394,50.49998],[-116.5394,50.5],[-116.53942,50.5001],[-116.53949,50.5002],[-116.53951,50.50025],[-116.53979,50.50038],[-116.54006,50.50051],[-116.54013,50.50055],[-116.54034,50.50075],[-116.54042,50.50081],[-116.54049,50.50083],[-116.54051,50.50083],[-116.54062,50.50084],[-116.54073,50.50084],[-116.54102,50.50078],[-116.54109,50.50076],[-116.54141,50.50076],[-116.5419,50.50076],[-116.54219,50.50074],[-116.54243,50.50073],[-116.54272,50.50071],[-116.54293,50.50072],[-116.54327,50.5008],[-116.54338,50.50085],[-116.54362,50.50098],[-116.54374,50.50101],[-116.54392,50.50105],[-116.54417,50.50118],[-116.5443,50.50129],[-116.54438,50.50133],[-116.54449,50.50147],[-116.54453,50.50161],[-116.54458,50.50166],[-116.54457,50.50179],[-116.54457,50.50203],[-116.54459,50.50212],[-116.5446,50.50217],[-116.54465,50.50237],[-116.54465,50.50242],[-116.54478,50.50264],[-116.54479,50.5027],[-116.54483,50.50277],[-116.54486,50.50281],[-116.5449,50.50287],[-116.54506,50.50294],[-116.54513,50.50296],[-116.54523,50.50296]]}},
{"type":"Feature","properties":{"spotId":"F-grouse-drive-0075","kind":"roadside","km":5.1,"climbM":41,"name":"320 m N of Horsethief Creek","flags":[]},"geometry":{"type":"LineString","coordinates":[[-116.61053,50.48443],[-116.61022,50.48443],[-116.6101,50.48446],[-116.60999,50.48447],[-116.6099,50.48445],[-116.60968,50.48424],[-116.60957,50.48418],[-116.60933,50.48414],[-116.60899,50.48414],[-116.60889,50.48414],[-116.60875,50.48415],[-116.6085,50.48421],[-116.60831,50.48429],[-116.60823,50.48436],[-116.60816,50.4844],[-116.60806,50.48442],[-116.60796,50.48443],[-116.60783,50.4844],[-116.60772,50.48438],[-116.60743,50.48433],[-116.60709,50.48432],[-116.607,50.48432],[-116.60665,50.4843],[-116.6065,50.48428],[-116.60634,50.48428],[-116.6063,50.48428],[-116.60602,50.48429],[-116.60578,50.4843],[-116.60542,50.4843],[-116.60523,50.48429],[-116.60487,50.48432],[-116.60479,50.48431],[-116.60449,50.48431],[-116.60438,50.48432],[-116.6042,50.48432],[-116.60389,50.48436],[-116.6037,50.48436],[-116.60341,50.48438],[-116.60318,50.4844],[-116.60286,50.4844],[-116.60276,50.4844],[-116.60248,50.48444],[-116.60236,50.48447],[-116.60231,50.48449],[-116.60197,50.48467],[-116.6019,50.48471],[-116.60174,50.48484],[-116.60161,50.48505],[-116.6015,50.48522],[-116.60143,50.48534],[-116.60137,50.48543],[-116.60135,50.48548],[-116.60123,50.48566],[-116.60118,50.48572],[-116.60115,50.48578],[-116.60108,50.48593],[-116.60105,50.48598],[-116.60093,50.48619],[-116.6009,50.48625],[-116.60078,50.48634],[-116.60047,50.48646],[-116.6003,50.48652],[-116.60001,50.4866],[-116.59994,50.48662],[-116.59977,50.48669],[-116.59951,50.48681],[-116.59933,50.48685],[-116.59923,50.48686],[-116.59896,50.48695],[-116.59886,50.48698],[-116.59852,50.48706],[-116.59832,50.48711],[-116.5981,50.48719],[-116.59797,50.48724],[-116.5979,50.48728],[-116.59762,50.48733],[-116.59752,50.48735],[-116.59741,50.48736],[-116.59707,50.48734],[-116.59684,50.48734],[-116.59657,50.48734],[-116.5964,50.48736],[-116.59633,50.48739],[-116.59616,50.48745],[-116.59604,50.48751],[-116.59591,50.48758],[-116.59572,50.48775],[-116.59567,50.48781],[-116.59553,50.48794],[-116.59544,50.48804],[-116.59528,50.48815],[-116.59506,50.48837],[-116.5949,50.48853],[-116.59487,50.48856],[-116.59474,50.48864],[-116.59445,50.48872],[-116.59436,50.48874],[-116.59407,50.48877],[-116.59387,50.48876],[-116.59367,50.48873],[-116.59353,50.48869],[-116.59324,50.48859],[-116.59296,50.48849],[-116.59284,50.48846],[-116.59262,50.4884],[-116.59231,50.48835],[-116.59213,50.48831],[-116.59189,50.48825],[-116.59163,50.4882],[-116.59146,50.48818],[-116.59111,50.48818],[-116.59096,50.48822],[-116.5909,50.48823],[-116.59064,50.48837],[-116.59053,50.48846],[-116.59033,50.48865],[-116.5901,50.48885],[-116.59005,50.48891],[-116.58989,50.48911],[-116.58975,50.48928],[-116.58966,50.48943],[-116.58962,50.48956],[-116.58959,50.48978],[-116.5895,50.48995],[-116.58939,50.49008],[-116.58929,50.49013],[-116.58916,50.49021],[-116.58906,50.49025],[-116.58885,50.49041],[-116.58869,50.49064],[-116.58867,50.49069],[-116.58858,50.49078],[-116.58844,50.49087],[-116.58837,50.4909],[-116.58804,50.49104],[-116.588,50.49105],[-116.58796,50.49107],[-116.58769,50.49111],[-116.58755,50.49112],[-116.58736,50.49113],[-116.58727,50.49113],[-116.58718,50.49115],[-116.58708,50.49118],[-116.58676,50.49134],[-116.58661,50.49141],[-116.58644,50.49147],[-116.58627,50.49156],[-116.58613,50.49167],[-116.58586,50.49187],[-116.58579,50.49192],[-116.58568,50.49202],[-116.58562,50.49207],[-116.58558,50.49214],[-116.58545,50.49225],[-116.58535,50.49235],[-116.58524,50.49254],[-116.58515,50.49263],[-116.58508,50.49271],[-116.58483,50.49292],[-116.5847,50.49304],[-116.58467,50.49306],[-116.58461,50.49309],[-116.58451,50.49313],[-116.5842,50.49317],[-116.58412,50.49318],[-116.58395,50.49322],[-116.58376,50.49328],[-116.58367,50.49336],[-116.58351,50.49358],[-116.58345,50.49363],[-116.58321,50.49379],[-116.58311,50.49387],[-116.58301,50.49395],[-116.58276,50.49405],[-116.58264,50.4941],[-116.58239,50.49412],[-116.58231,50.49411],[-116.58218,50.49412],[-116.58214,50.49413],[-116.58178,50.49413],[-116.58161,50.49412],[-116.58143,50.49409],[-116.58123,50.49407],[-116.58104,50.49404],[-116.58074,50.49403],[-116.58046,50.49405],[-116.58016,50.49409],[-116.57988,50.49411],[-116.57965,50.49412],[-116.57947,50.49416],[-116.57917,50.49427],[-116.579,50.49435],[-116.57898,50.49437],[-116.57866,50.49457],[-116.57839,50.49475],[-116.57824,50.49494],[-116.57812,50.49508],[-116.5779,50.49527],[-116.57784,50.49533],[-116.57767,50.49553],[-116.57754,50.49566],[-116.57733,50.49579],[-116.57713,50.49597],[-116.5769,50.49612],[-116.57665,50.49625],[-116.57662,50.49627],[-116.57643,50.49634],[-116.57619,50.49648],[-116.57591,50.49662],[-116.57563,50.4967],[-116.57544,50.49677],[-116.57509,50.49684],[-116.57501,50.49686],[-116.57481,50.49686],[-116.57451,50.49693],[-116.57434,50.49699],[-116.57426,50.49704],[-116.57399,50.49721],[-116.57366,50.49737],[-116.57346,50.49748],[-116.57319,50.49751],[-116.57317,50.49751],[-116.57281,50.49752],[-116.57252,50.49757],[-116.57242,50.49758],[-116.57214,50.49764],[-116.57204,50.49765],[-116.57174,50.49774],[-116.57166,50.49778],[-116.57136,50.49798],[-116.57129,50.49802],[-116.57126,50.49803],[-116.57113,50.49815],[-116.571,50.49832],[-116.57085,50.49855],[-116.5708,50.49861],[-116.57063,50.49882],[-116.5705,50.49895],[-116.57042,50.49909],[-116.57033,50.49924],[-116.57024,50.49943],[-116.57022,50.49952],[-116.57016,50.49966],[-116.5701,50.49984],[-116.57004,50.49998],[-116.57003,50.5],[-116.56993,50.50021],[-116.5699,50.50025],[-116.56987,50.50036],[-116.56986,50.50044],[-116.5698,50.50067],[-116.56972,50.50088],[-116.56972,50.5011],[-116.56973,50.50124],[-116.56979,50.50142],[-116.56987,50.50165],[-116.56989,50.50171],[-116.56997,50.50189],[-116.57001,50.50195],[-116.57004,50.50206],[-116.57004,50.5021],[-116.57004,50.50222],[-116.57001,50.50227],[-116.56982,50.50248],[-116.56972,50.50259],[-116.56947,50.50277],[-116.5693,50.50297],[-116.56925,50.50303],[-116.56898,50.50324],[-116.56881,50.50333],[-116.56866,50.50343],[-116.56835,50.50359],[-116.56816,50.50372],[-116.56799,50.50378],[-116.56792,50.50383],[-116.56759,50.50405],[-116.56752,50.5041],[-116.56738,50.50418],[-116.56711,50.50429],[-116.56698,50.50436],[-116.56677,50.50448],[-116.56649,50.50459],[-116.56616,50.50471],[-116.56606,50.50475],[-116.56582,50.50486],[-116.5656,50.50501],[-116.56545,50.5052],[-116.56535,50.50541],[-116.56533,50.50546],[-116.5652,50.50564],[-116.5651,50.50575],[-116.56507,50.50576],[-116.56474,50.50589],[-116.56449,50.50593],[-116.56425,50.50593],[-116.56394,50.50587],[-116.56366,50.50585],[-116.56335,50.50585],[-116.56311,50.50588],[-116.5628,50.50595],[-116.56265,50.50598],[-116.56253,50.50605],[-116.56227,50.50627],[-116.56203,50.50644],[-116.56182,50.50664],[-116.56167,50.50683],[-116.56155,50.50702],[-116.56137,50.50719],[-116.5613,50.50724],[-116.5611,50.50745],[-116.56106,50.50751],[-116.56095,50.5076],[-116.56082,50.50773],[-116.56072,50.50788],[-116.56065,50.50808],[-116.56056,50.50827],[-116.56053,50.50832],[-116.5605,50.50833],[-116.56048,50.50836],[-116.56046,50.50839],[-116.56046,50.5084]]}}
]}
