{"type":"FeatureCollection","features":[
{"type":"Feature","properties":{"id":"F-camp-camp-0001","kind":"Rec site","name":"Kennelly Camp 2 rec site","campsites":2,"water":"Water: Yahk River 100 m SW.","nearSpots":6,"closure":null,"spotIds":["F-deer-atv-0115","F-deer-drive-0094","F-deer-walk-0145","F-deer-walk-0147","F-grouse-atv-0034"],"note":"Official rec site"},"geometry":{"type":"Point","coordinates":[-115.73353,49.07705]}},
{"type":"Feature","properties":{"id":"F-camp-camp-0002","kind":"Rec site","name":"Hahas Lake rec site","campsites":14,"water":"Water: Hahas Lake right here.","nearSpots":8,"closure":null,"spotIds":["F-deer-drive-0062","F-deer-walk-0045","F-elk-drive-0015","F-elk-walk-0031","F-moose-drive-0003","F-moose-walk-0056","F-turkey-atv-0018","F-turkey-drive-0019"],"note":"Official rec site"},"geometry":{"type":"Point","coordinates":[-115.82235,49.74574]}},
{"type":"Feature","properties":{"id":"F-camp-camp-0003","kind":"Rec site","name":"Weary Creek rec site","campsites":2,"water":"Water: Elk River 20 m W.","nearSpots":12,"closure":null,"spotIds":["F-duck-drive-0014","F-duck-drive-0155","F-duck-walk-0074","F-duck-walk-0095","F-duck-walk-0101","F-grouse-walk-0056","F-moose-atv-0016","F-moose-drive-0017","F-moose-drive-0028","F-moose-walk-0011","F-moose-walk-0018","F-moose-walk-0046"],"note":"Official rec site"},"geometry":{"type":"Point","coordinates":[-114.92184,50.39163]}},
{"type":"Feature","properties":{"id":"F-camp-camp-0004","kind":"Rec site","name":"Sulphur Creek rec site","campsites":3,"water":"Water: Sulphur Creek 30 m S.","nearSpots":12,"closure":null,"spotIds":["F-deer-atv-0041","F-deer-atv-0120","F-deer-atv-0122","F-deer-atv-0137","F-deer-drive-0137","F-deer-walk-0125","F-deer-walk-0148","F-elk-walk-0052","F-grouse-atv-0008","F-grouse-drive-0011"],"note":"Official rec site"},"geometry":{"type":"Point","coordinates":[-115.15124,49.68039]}},
{"type":"Feature","properties":{"id":"F-camp-camp-0005","kind":"Rec site","name":"Gilnockie Creek rec site","campsites":3,"water":"Water: Ward Creek 60 m NE.","nearSpots":10,"closure":null,"spotIds":["F-deer-drive-0143","F-deer-walk-0156","F-duck-drive-0071","F-duck-walk-0090","F-grouse-atv-0046","F-moose-atv-0011","F-moose-atv-0042","F-moose-walk-0014"],"note":"Official rec site"},"geometry":{"type":"Point","coordinates":[-115.62861,49.0282]}},
{"type":"Feature","properties":{"id":"F-camp-camp-0006","kind":"Rec site","name":"White River Jct. Graves Creek rec site","campsites":3,"water":"Water: Grave Creek 50 m S.","nearSpots":6,"closure":null,"spotIds":["F-deer-drive-0030","F-elk-drive-0024","F-elk-walk-0041","F-grouse-drive-0034","F-grouse-walk-0026"],"note":"Official rec site"},"geometry":{"type":"Point","coordinates":[-115.28292,50.18394]}},
{"type":"Feature","properties":{"id":"F-camp-camp-0007","kind":"Rec site","name":"Caven/Gold Creek rec site","campsites":2,"water":"Water: Caven Creek 40 m SE.","nearSpots":28,"closure":null,"spotIds":["F-deer-atv-0002","F-deer-atv-0008","F-deer-drive-0002","F-deer-drive-0005","F-deer-drive-0009","F-deer-drive-0077","F-deer-walk-0003","F-deer-walk-0018","F-duck-drive-0018","F-duck-drive-0097","F-duck-walk-0043","F-duck-walk-0081","F-elk-atv-0009","F-elk-drive-0001","F-elk-drive-0017","F-elk-walk-0003","F-grouse-drive-0023","F-moose-atv-0012","F-moose-walk-0020","F-turkey-drive-0044","F-turkey-drive-0046","F-turkey-walk-0045","F-turkey-walk-0088","F-turkey-walk-0093"],"note":"Official rec site"},"geometry":{"type":"Point","coordinates":[-115.41767,49.19041]}},
{"type":"Feature","properties":{"id":"F-camp-camp-0008","kind":"Rec site","name":"Mt.Forsyth rec site","campsites":3,"water":"Water: White River 20 m NW.","nearSpots":9,"closure":null,"spotIds":["F-deer-backcountry-0002","F-deer-backcountry-0005","F-deer-backcountry-0006","F-deer-backcountry-0009","F-grouse-walk-0003","F-moose-backcountry-0015","F-moose-backcountry-0018"],"note":"Official rec site"},"geometry":{"type":"Point","coordinates":[-115.20052,50.27781]}},
{"type":"Feature","properties":{"id":"F-camp-camp-0009","kind":"Rec site","name":"Palliser-Albert Junction rec site","campsites":5,"water":"Water: Palliser River 50 m NW.","nearSpots":5,"closure":null,"spotIds":["F-deer-walk-0146","F-elk-walk-0044","F-grouse-drive-0007","F-grouse-walk-0016","F-grouse-walk-0024"],"note":"Official rec site"},"geometry":{"type":"Point","coordinates":[-115.57155,50.53183]}},
{"type":"Feature","properties":{"id":"F-camp-camp-0010","kind":"Rec site","name":"Horseshoe Rapids rec site","campsites":3,"water":"Water: Kootenay River 50 m NW.","nearSpots":22,"closure":null,"spotIds":["F-deer-atv-0110","F-deer-atv-0113","F-deer-atv-0123","F-deer-drive-0012","F-deer-drive-0120","F-deer-drive-0128","F-deer-walk-0020","F-deer-walk-0036","F-deer-walk-0100","F-deer-walk-0105","F-duck-drive-0148","F-elk-atv-0005","F-grouse-atv-0053","F-grouse-atv-0055","F-grouse-drive-0061","F-moose-atv-0028","F-moose-drive-0027","F-moose-drive-0047"],"note":"Official rec site"},"geometry":{"type":"Point","coordinates":[-115.76078,50.56077]}},
{"type":"Feature","properties":{"id":"F-camp-camp-0011","kind":"Rec site","name":"Maiyuk Creek rec site","campsites":2,"water":"Water: White River 30 m W.","nearSpots":5,"closure":null,"spotIds":["F-deer-backcountry-0007","F-grouse-walk-0017","F-moose-backcountry-0012","F-moose-backcountry-0015"],"note":"Official rec site"},"geometry":{"type":"Point","coordinates":[-115.20171,50.34833]}},
{"type":"Feature","properties":{"id":"F-camp-camp-0012","kind":"Crown land candidate","name":"By Kootenay River","campsites":null,"water":"Water: Kootenay River 60 m N.","nearSpots":27,"closure":null,"spotIds":["F-deer-atv-0010","F-deer-atv-0072","F-deer-drive-0011","F-deer-drive-0026","F-deer-drive-0033","F-deer-drive-0034","F-deer-walk-0025","F-deer-walk-0032","F-deer-walk-0094","F-duck-drive-0122","F-duck-walk-0087","F-elk-atv-0004","F-elk-walk-0021","F-moose-atv-0017","F-moose-atv-0030","F-moose-drive-0040","F-moose-walk-0024"],"note":"Candidate, scout it first (estimate)"},"geometry":{"type":"Point","coordinates":[-115.65614,50.32872]}},
{"type":"Feature","properties":{"id":"F-camp-camp-0013","kind":"Crown land candidate","name":"By Deer Creek","campsites":null,"water":"Water: Deer Creek 80 m SW.","nearSpots":27,"closure":null,"spotIds":["F-deer-atv-0068","F-deer-atv-0069","F-deer-atv-0086","F-deer-drive-0010","F-deer-drive-0014","F-deer-drive-0042","F-deer-walk-0011","F-deer-walk-0063","F-deer-walk-0090","F-duck-drive-0007","F-duck-drive-0096","F-elk-atv-0024","F-elk-walk-0036","F-grouse-drive-0065","F-moose-atv-0022","F-moose-atv-0043","F-moose-drive-0042","F-turkey-atv-0026","F-turkey-drive-0008","F-turkey-drive-0010","F-turkey-drive-0011","F-turkey-walk-0053"],"note":"Candidate, scout it first (estimate)"},"geometry":{"type":"Point","coordinates":[-115.99216,50.14558]}},
{"type":"Feature","properties":{"id":"F-camp-camp-0014","kind":"Crown land candidate","name":"190 m W of Doctor Creek","campsites":null,"water":"Water: Doctor Creek 190 m E.","nearSpots":33,"closure":null,"spotIds":["F-deer-atv-0011","F-deer-drive-0010","F-deer-drive-0014","F-deer-drive-0023","F-deer-drive-0132","F-deer-walk-0011","F-deer-walk-0090","F-deer-walk-0107","F-duck-drive-0007","F-duck-walk-0053","F-elk-drive-0008","F-elk-drive-0012","F-elk-drive-0022","F-elk-walk-0007","F-elk-walk-0036","F-grouse-atv-0002","F-grouse-drive-0065","F-grouse-walk-0020","F-moose-atv-0022","F-moose-drive-0032","F-moose-drive-0051","F-turkey-drive-0011","F-turkey-walk-0053"],"note":"Candidate, scout it first (estimate)"},"geometry":{"type":"Point","coordinates":[-116.0623,50.09659]}},
{"type":"Feature","properties":{"id":"F-camp-camp-0015","kind":"Crown land candidate","name":"170 m SW of Lussier River","campsites":null,"water":"Water: Lussier River 170 m NE.","nearSpots":21,"closure":null,"spotIds":["F-deer-atv-0028","F-deer-drive-0018","F-deer-drive-0019","F-deer-drive-0024","F-deer-drive-0046","F-deer-walk-0013","F-deer-walk-0126","F-duck-drive-0009","F-duck-drive-0023","F-duck-walk-0010","F-duck-walk-0096","F-duck-walk-0102","F-elk-walk-0001","F-elk-walk-0012","F-elk-walk-0049","F-moose-drive-0021","F-turkey-drive-0052","F-turkey-walk-0055","F-turkey-walk-0056"],"note":"Candidate, scout it first (estimate)"},"geometry":{"type":"Point","coordinates":[-115.65009,50.04651]}},
{"type":"Feature","properties":{"id":"F-camp-camp-0016","kind":"Crown land candidate","name":"160 m W of Pommier Creek","campsites":null,"water":"Water: Pommier Creek 160 m E.","nearSpots":17,"closure":null,"spotIds":["F-deer-atv-0077","F-deer-atv-0085","F-deer-drive-0060","F-duck-drive-0030","F-duck-walk-0014","F-duck-walk-0029","F-duck-walk-0034","F-duck-walk-0073","F-elk-drive-0040","F-grouse-drive-0041","F-moose-drive-0012","F-moose-walk-0013","F-moose-walk-0023","F-turkey-drive-0014","F-turkey-walk-0021","F-turkey-walk-0078"],"note":"Candidate, scout it first (estimate)"},"geometry":{"type":"Point","coordinates":[-115.8202,49.8799]}},
{"type":"Feature","properties":{"id":"F-camp-camp-0017","kind":"Crown land candidate","name":"By Caithness Creek","campsites":null,"water":"Water: Caithness Creek 70 m W.","nearSpots":27,"closure":null,"spotIds":["F-deer-atv-0034","F-deer-atv-0044","F-deer-atv-0088","F-deer-drive-0039","F-deer-drive-0049","F-deer-drive-0052","F-deer-drive-0054","F-deer-walk-0060","F-duck-drive-0147","F-duck-walk-0018","F-duck-walk-0027","F-elk-atv-0010","F-elk-walk-0030","F-grouse-atv-0037","F-grouse-drive-0039","F-moose-atv-0004","F-moose-drive-0006","F-moose-drive-0046","F-turkey-atv-0008","F-turkey-atv-0013","F-turkey-drive-0036","F-turkey-drive-0039","F-turkey-walk-0044","F-turkey-walk-0085"],"note":"Candidate, scout it first (estimate)"},"geometry":{"type":"Point","coordinates":[-115.17022,49.34921]}},
{"type":"Feature","properties":{"id":"F-camp-camp-0018","kind":"Crown land candidate","name":"By Bloom Creek","campsites":null,"water":"Water: Bloom Creek 30 m NW.","nearSpots":23,"closure":null,"spotIds":["F-deer-atv-0002","F-deer-atv-0008","F-deer-drive-0002","F-deer-drive-0005","F-deer-drive-0009","F-deer-drive-0077","F-deer-walk-0003","F-deer-walk-0018","F-duck-drive-0018","F-duck-drive-0097","F-duck-walk-0081","F-elk-drive-0001","F-elk-walk-0003","F-grouse-drive-0023","F-moose-atv-0012","F-moose-walk-0020","F-turkey-drive-0046","F-turkey-drive-0054","F-turkey-walk-0045"],"note":"Candidate, scout it first (estimate)"},"geometry":{"type":"Point","coordinates":[-115.44993,49.16682]}},
{"type":"Feature","properties":{"id":"F-camp-camp-0019","kind":"Crown land candidate","name":"120 m SW of Lake Koocanusa","campsites":null,"water":"Water: Lake Koocanusa 120 m NE.","nearSpots":12,"closure":null,"spotIds":["F-deer-atv-0037","F-deer-atv-0046","F-deer-drive-0065","F-deer-walk-0113","F-duck-drive-0059","F-duck-drive-0150","F-elk-atv-0012","F-elk-atv-0013","F-grouse-drive-0055","F-turkey-atv-0027","F-turkey-drive-0058","F-turkey-walk-0075"],"note":"Candidate, scout it first (estimate)"},"geometry":{"type":"Point","coordinates":[-115.21797,49.09814]}},
{"type":"Feature","properties":{"id":"F-camp-camp-0020","kind":"Crown land candidate","name":"120 m SW of Lake Koocanusa","campsites":null,"water":"Water: Lake Koocanusa 120 m NE.","nearSpots":23,"closure":null,"spotIds":["F-deer-atv-0146","F-deer-drive-0176","F-deer-drive-0177","F-deer-walk-0084","F-duck-drive-0056","F-duck-drive-0150","F-duck-drive-0153","F-elk-atv-0030","F-grouse-drive-0055","F-moose-atv-0034","F-turkey-atv-0027","F-turkey-atv-0041","F-turkey-drive-0045","F-turkey-drive-0056","F-turkey-drive-0058","F-turkey-walk-0010","F-turkey-walk-0064","F-turkey-walk-0069","F-turkey-walk-0075"],"note":"Candidate, scout it first (estimate)"},"geometry":{"type":"Point","coordinates":[-115.19302,49.05098]}},
{"type":"Feature","properties":{"id":"F-camp-camp-0021","kind":"Crown land candidate","name":"150 m N of Cochran Creek","campsites":null,"water":"Water: Cochran Creek 150 m S.","nearSpots":19,"closure":null,"spotIds":["F-deer-atv-0123","F-deer-drive-0012","F-deer-drive-0120","F-deer-drive-0128","F-deer-walk-0020","F-deer-walk-0036","F-deer-walk-0100","F-deer-walk-0105","F-duck-drive-0148","F-elk-atv-0005","F-grouse-atv-0055","F-grouse-drive-0061","F-grouse-walk-0005","F-moose-atv-0028","F-moose-drive-0027","F-moose-drive-0047"],"note":"Candidate, scout it first (estimate)"},"geometry":{"type":"Point","coordinates":[-115.75672,50.59147]}},
{"type":"Feature","properties":{"id":"F-camp-camp-0022","kind":"Crown land candidate","name":"By Bull River","campsites":null,"water":"Water: Bull River 100 m W.","nearSpots":17,"closure":null,"spotIds":["F-deer-atv-0041","F-deer-atv-0109","F-deer-atv-0119","F-deer-atv-0120","F-deer-atv-0137","F-deer-drive-0137","F-deer-drive-0140","F-deer-walk-0125","F-deer-walk-0148","F-elk-drive-0031","F-elk-drive-0037","F-elk-walk-0052","F-grouse-atv-0008","F-grouse-drive-0011"],"note":"Candidate, scout it first (estimate)"},"geometry":{"type":"Point","coordinates":[-115.15959,49.73045]}},
{"type":"Feature","properties":{"id":"F-camp-camp-0023","kind":"Crown land candidate","name":"By Brewery Creek","campsites":null,"water":"Water: Brewery Creek 50 m W.","nearSpots":11,"closure":null,"spotIds":["F-deer-atv-0059","F-deer-drive-0100","F-deer-walk-0085","F-duck-drive-0039","F-duck-drive-0130","F-duck-walk-0030","F-elk-drive-0020","F-grouse-atv-0012","F-turkey-atv-0016","F-turkey-walk-0025"],"note":"Candidate, scout it first (estimate)"},"geometry":{"type":"Point","coordinates":[-115.60672,49.67606]}},
{"type":"Feature","properties":{"id":"F-camp-camp-0024","kind":"Crown land candidate","name":"By Forsyth Creek","campsites":null,"water":"Water: Forsyth Creek 70 m NW.","nearSpots":16,"closure":null,"spotIds":["F-deer-atv-0131","F-deer-drive-0016","F-deer-drive-0108","F-deer-walk-0038","F-duck-walk-0048","F-duck-walk-0064","F-elk-drive-0005","F-elk-walk-0005","F-grouse-drive-0050","F-moose-walk-0029","F-moose-walk-0047","F-moose-walk-0052"],"note":"Candidate, scout it first (estimate)"},"geometry":{"type":"Point","coordinates":[-114.96778,50.23257]}},
{"type":"Feature","properties":{"id":"F-camp-camp-0025","kind":"Crown land candidate","name":"140 m S of Sandown Creek","campsites":null,"water":"Water: Sandown Creek 140 m N.","nearSpots":14,"closure":null,"spotIds":["F-deer-drive-0117","F-deer-drive-0127","F-duck-drive-0077","F-duck-drive-0079","F-duck-drive-0091","F-elk-drive-0028","F-elk-drive-0030","F-grouse-atv-0001","F-grouse-atv-0041","F-grouse-drive-0048","F-grouse-walk-0021","F-grouse-walk-0062","F-moose-drive-0009","F-moose-drive-0011"],"note":"Candidate, scout it first (estimate)"},"geometry":{"type":"Point","coordinates":[-115.87271,49.99745]}},
{"type":"Feature","properties":{"id":"F-camp-camp-0026","kind":"Crown land candidate","name":"130 m S of Nordstrum Creek","campsites":null,"water":"Water: Nordstrum Creek 130 m N.","nearSpots":16,"closure":null,"spotIds":["F-deer-atv-0098","F-deer-atv-0099","F-deer-atv-0105","F-deer-atv-0135","F-deer-drive-0104","F-deer-drive-0112","F-deer-drive-0113","F-deer-drive-0115","F-deer-drive-0125","F-deer-drive-0129","F-deer-walk-0122","F-deer-walk-0128","F-deer-walk-0164","F-grouse-walk-0013"],"note":"Candidate, scout it first (estimate)"},"geometry":{"type":"Point","coordinates":[-114.92736,49.85443]}},
{"type":"Feature","properties":{"id":"F-camp-camp-0027","kind":"Crown land candidate","name":"By Elk River","campsites":null,"water":"Water: Elk River 50 m NW.","nearSpots":13,"closure":null,"spotIds":["F-deer-atv-0081","F-deer-atv-0131","F-deer-drive-0096","F-deer-drive-0108","F-deer-drive-0149","F-deer-walk-0152","F-duck-walk-0048","F-grouse-atv-0040","F-moose-drive-0038","F-moose-walk-0047","F-moose-walk-0052"],"note":"Candidate, scout it first (estimate)"},"geometry":{"type":"Point","coordinates":[-114.93121,50.27164]}},
{"type":"Feature","properties":{"id":"F-camp-camp-0028","kind":"Crown land candidate","name":"190 m W of Dutch Creek","campsites":null,"water":"Water: Dutch Creek 190 m E.","nearSpots":15,"closure":null,"spotIds":["F-deer-atv-0027","F-deer-atv-0106","F-deer-drive-0118","F-deer-drive-0121","F-deer-walk-0054","F-deer-walk-0076","F-deer-walk-0080","F-elk-walk-0027","F-elk-walk-0039","F-grouse-atv-0043","F-grouse-walk-0061","F-turkey-walk-0040"],"note":"Candidate, scout it first (estimate)"},"geometry":{"type":"Point","coordinates":[-116.025,50.26568]}},
{"type":"Feature","properties":{"id":"F-camp-camp-0029","kind":"Crown land candidate","name":"By Perry Creek","campsites":null,"water":"Water: Perry Creek 20 m NW.","nearSpots":13,"closure":null,"spotIds":["F-deer-atv-0125","F-deer-drive-0148","F-deer-drive-0163","F-duck-walk-0062","F-elk-atv-0025","F-grouse-atv-0029","F-moose-atv-0033","F-moose-walk-0043","F-turkey-drive-0027","F-turkey-walk-0003"],"note":"Candidate, scout it first (estimate)"},"geometry":{"type":"Point","coordinates":[-116.02877,49.53768]}},
{"type":"Feature","properties":{"id":"F-camp-camp-0030","kind":"Crown land candidate","name":"By Bighorn Creek","campsites":null,"water":"Water: Bighorn Creek 40 m NW.","nearSpots":14,"closure":null,"spotIds":["F-deer-drive-0031","F-deer-drive-0035","F-deer-walk-0034","F-deer-walk-0187","F-duck-drive-0143","F-elk-drive-0003","F-elk-walk-0004","F-grouse-atv-0047","F-grouse-walk-0008","F-grouse-walk-0037"],"note":"Candidate, scout it first (estimate)"},"geometry":{"type":"Point","coordinates":[-114.91834,49.19319]}},
{"type":"Feature","properties":{"id":"F-camp-camp-0031","kind":"Crown land candidate","name":"By Windermere Creek","campsites":null,"water":"Water: Windermere Creek right here.","nearSpots":13,"closure":null,"spotIds":["F-deer-drive-0158","F-deer-drive-0168","F-deer-walk-0136","F-deer-walk-0138","F-deer-walk-0151","F-elk-atv-0031","F-grouse-drive-0078","F-moose-drive-0053","F-turkey-atv-0021","F-turkey-drive-0005","F-turkey-walk-0014"],"note":"Candidate, scout it first (estimate)"},"geometry":{"type":"Point","coordinates":[-115.91428,50.49432]}},
{"type":"Feature","properties":{"id":"F-camp-camp-0032","kind":"Crown land candidate","name":"By Whitney Creek","campsites":null,"water":"Water: Whitney Creek 20 m NW.","nearSpots":9,"closure":null,"spotIds":["F-deer-walk-0153","F-deer-walk-0167","F-duck-drive-0011","F-duck-walk-0011","F-grouse-drive-0024","F-moose-atv-0014","F-moose-drive-0024","F-moose-walk-0016"],"note":"Candidate, scout it first (estimate)"},"geometry":{"type":"Point","coordinates":[-115.95554,49.25456]}},
{"type":"Feature","properties":{"id":"F-camp-camp-0033","kind":"Crown land candidate","name":"By Ram Creek","campsites":null,"water":"Water: Ram Creek 20 m S.","nearSpots":9,"closure":null,"spotIds":["F-deer-atv-0028","F-deer-drive-0043","F-deer-drive-0046","F-deer-walk-0126","F-deer-walk-0133","F-elk-walk-0049","F-turkey-walk-0055"],"note":"Candidate, scout it first (estimate)"},"geometry":{"type":"Point","coordinates":[-115.58216,50.02278]}},
{"type":"Feature","properties":{"id":"F-camp-camp-0034","kind":"Crown land candidate","name":"190 m W of White River","campsites":null,"water":"Water: White River 190 m E.","nearSpots":10,"closure":null,"spotIds":["F-deer-atv-0021","F-deer-atv-0023","F-deer-drive-0068","F-deer-walk-0037","F-deer-walk-0086","F-elk-drive-0044","F-elk-walk-0023"],"note":"Candidate, scout it first (estimate)"},"geometry":{"type":"Point","coordinates":[-115.52222,50.28786]}},
{"type":"Feature","properties":{"id":"F-camp-camp-0035","kind":"Crown land candidate","name":"By Freeman Creek","campsites":null,"water":"Water: Freeman Creek 60 m W.","nearSpots":12,"closure":null,"spotIds":["F-duck-drive-0068","F-duck-drive-0072","F-duck-drive-0083","F-duck-drive-0120","F-duck-drive-0125","F-duck-walk-0080","F-grouse-atv-0017","F-grouse-drive-0014","F-moose-drive-0008","F-moose-walk-0003","F-moose-walk-0015"],"note":"Candidate, scout it first (estimate)"},"geometry":{"type":"Point","coordinates":[-115.86083,49.06103]}},
{"type":"Feature","properties":{"id":"F-camp-camp-0036","kind":"Crown land candidate","name":"By McCool Creek","campsites":null,"water":"Water: McCool Creek 80 m W.","nearSpots":10,"closure":null,"spotIds":["F-deer-atv-0107","F-deer-atv-0153","F-deer-walk-0033","F-deer-walk-0166","F-grouse-atv-0038","F-grouse-drive-0046","F-moose-atv-0041","F-moose-drive-0043","F-moose-walk-0053"],"note":"Candidate, scout it first (estimate)"},"geometry":{"type":"Point","coordinates":[-114.97065,49.67039]}},
{"type":"Feature","properties":{"id":"F-camp-camp-0037","kind":"Crown land candidate","name":"By Toby Creek","campsites":null,"water":"Water: Toby Creek 30 m W.","nearSpots":6,"closure":null,"spotIds":["F-deer-atv-0157","F-deer-drive-0119","F-deer-drive-0151","F-deer-walk-0131","F-grouse-atv-0069"],"note":"Candidate, scout it first (estimate)"},"geometry":{"type":"Point","coordinates":[-116.34381,50.37762]}},
{"type":"Feature","properties":{"id":"F-camp-camp-0038","kind":"Crown land candidate","name":"By Bull River","campsites":null,"water":"Water: Bull River 40 m NW.","nearSpots":5,"closure":null,"spotIds":["F-deer-walk-0096","F-duck-walk-0103","F-grouse-drive-0015","F-grouse-walk-0018"],"note":"Candidate, scout it first (estimate)"},"geometry":{"type":"Point","coordinates":[-115.09818,50.05733]}},
{"type":"Feature","properties":{"id":"F-camp-camp-0039","kind":"Crown land candidate","name":"190 m N of Jumbo Creek","campsites":null,"water":"Water: Jumbo Creek 190 m S.","nearSpots":8,"closure":null,"spotIds":["F-deer-atv-0157","F-deer-drive-0111","F-deer-drive-0119","F-duck-drive-0145","F-grouse-drive-0001","F-grouse-drive-0006","F-moose-drive-0052"],"note":"Candidate, scout it first (estimate)"},"geometry":{"type":"Point","coordinates":[-116.45724,50.36484]}},
{"type":"Feature","properties":{"id":"F-camp-camp-0040","kind":"Crown land candidate","name":"By Thunder Creek","campsites":null,"water":"Water: Thunder Creek 80 m W.","nearSpots":6,"closure":null,"spotIds":["F-deer-drive-0030","F-elk-drive-0024","F-grouse-drive-0032","F-grouse-drive-0034","F-grouse-walk-0026"],"note":"Candidate, scout it first (estimate)"},"geometry":{"type":"Point","coordinates":[-115.27617,50.13498]}},
{"type":"Feature","properties":{"id":"F-camp-camp-0041","kind":"Rec site","name":"Tie Lake rec site","campsites":12,"water":"Water: Tie Lake 20 m W.","nearSpots":17,"closure":null,"spotIds":["F-deer-drive-0050","F-deer-walk-0043","F-deer-walk-0097","F-duck-drive-0041","F-duck-drive-0044","F-duck-walk-0013","F-duck-walk-0023","F-duck-walk-0042","F-elk-walk-0034","F-moose-atv-0010","F-moose-drive-0005","F-moose-walk-0010","F-turkey-drive-0033","F-turkey-walk-0043"],"note":"Official rec site"},"geometry":{"type":"Point","coordinates":[-115.30285,49.41169]}},
{"type":"Feature","properties":{"id":"F-camp-camp-0042","kind":"Rec site","name":"Stockdale Creek rec site","campsites":2,"water":"Water: Horsethief Creek 80 m W.","nearSpots":1,"closure":null,"spotIds":["F-duck-drive-0134"],"note":"Official rec site"},"geometry":{"type":"Point","coordinates":[-116.49809,50.55457]}},
{"type":"Feature","properties":{"id":"F-camp-camp-0043","kind":"Rec site","name":"Blue Lake rec site","campsites":2,"water":"Water: unnamed lake right here.","nearSpots":19,"closure":null,"spotIds":["F-deer-atv-0012","F-deer-drive-0016","F-deer-drive-0114","F-deer-drive-0133","F-deer-walk-0015","F-deer-walk-0038","F-duck-walk-0064","F-duck-walk-0086","F-elk-drive-0005","F-elk-walk-0005","F-grouse-atv-0036","F-grouse-drive-0050","F-moose-atv-0031","F-moose-drive-0031"],"note":"Official rec site"},"geometry":{"type":"Point","coordinates":[-114.98502,50.18689]}},
{"type":"Feature","properties":{"id":"F-camp-camp-0044","kind":"Rec site","name":"Riverside rec site","campsites":3,"water":"Water: Elk River 60 m W.","nearSpots":2,"closure":null,"spotIds":["F-duck-drive-0115","F-duck-drive-0131"],"note":"Official rec site"},"geometry":{"type":"Point","coordinates":[-114.96536,50.47975]}},
{"type":"Feature","properties":{"id":"F-camp-camp-0045","kind":"Rec site","name":"Tobermory Creek rec site","campsites":5,"water":"Water: Tobermory Creek 20 m NW.","nearSpots":1,"closure":null,"spotIds":["F-grouse-drive-0071"],"note":"Official rec site"},"geometry":{"type":"Point","coordinates":[-115.01342,50.52318]}},
{"type":"Feature","properties":{"id":"F-camp-camp-0046","kind":"Rec site","name":"St Louis Camp rec site","campsites":1,"water":"Water: Gold Creek 40 m E.","nearSpots":13,"closure":null,"spotIds":["F-deer-atv-0020","F-deer-atv-0050","F-deer-atv-0064","F-deer-atv-0067","F-deer-drive-0067","F-deer-drive-0080","F-deer-walk-0104","F-elk-atv-0017","F-grouse-atv-0065","F-turkey-drive-0042","F-turkey-drive-0043"],"note":"Official rec site"},"geometry":{"type":"Point","coordinates":[-115.48628,49.2906]}},
{"type":"Feature","properties":{"id":"F-camp-camp-0047","kind":"Rec site","name":"Norboe Creek rec site","campsites":2,"water":"Water: Norboe Creek right here.","nearSpots":12,"closure":null,"spotIds":["F-deer-drive-0036","F-deer-drive-0081","F-deer-walk-0023","F-deer-walk-0035","F-deer-walk-0078","F-duck-walk-0107","F-elk-walk-0008","F-grouse-drive-0043","F-grouse-walk-0028","F-moose-walk-0021"],"note":"Official rec site"},"geometry":{"type":"Point","coordinates":[-115.13824,49.88969]}},
{"type":"Feature","properties":{"id":"F-camp-camp-0048","kind":"Rec site","name":"Hart Creek rec site","campsites":5,"water":"Water: West Yahk River 70 m S.","nearSpots":4,"closure":null,"spotIds":["F-duck-drive-0083","F-duck-drive-0090","F-grouse-drive-0020","F-moose-drive-0008"],"note":"Official rec site"},"geometry":{"type":"Point","coordinates":[-115.78042,49.00793]}},
{"type":"Feature","properties":{"id":"F-camp-camp-0049","kind":"Rec site","name":"Canuck Creek Site rec site","campsites":4,"water":"Water: Hawkins Creek 40 m W.","nearSpots":3,"closure":null,"spotIds":["F-duck-drive-0138","F-grouse-drive-0064","F-grouse-walk-0065"],"note":"Official rec site"},"geometry":{"type":"Point","coordinates":[-116.01995,49.04959]}},
{"type":"Feature","properties":{"id":"F-camp-camp-0050","kind":"Rec site","name":"America Creek rec site","campsites":4,"water":"Water: Hawkins Creek 40 m S.","nearSpots":2,"closure":null,"spotIds":["F-duck-drive-0138","F-grouse-drive-0064"],"note":"Official rec site"},"geometry":{"type":"Point","coordinates":[-115.99813,49.04335]}},
{"type":"Feature","properties":{"id":"F-camp-camp-0051","kind":"Rec site","name":"Fenwick Lake rec site","campsites":2,"water":"Water: unnamed wetland 30 m SW.","nearSpots":14,"closure":null,"spotIds":["F-deer-atv-0112","F-deer-atv-0121","F-deer-atv-0127","F-deer-walk-0143","F-duck-drive-0126","F-elk-drive-0033","F-elk-walk-0044","F-grouse-drive-0007","F-grouse-drive-0028","F-grouse-walk-0064","F-moose-atv-0024","F-moose-walk-0017","F-moose-walk-0032"],"note":"Official rec site"},"geometry":{"type":"Point","coordinates":[-115.61968,50.48835]}},
{"type":"Feature","properties":{"id":"F-camp-camp-0052","kind":"Rec site","name":"Kikomun Creek rec site","campsites":4,"water":"Water: Kikomun Creek 20 m N.","nearSpots":14,"closure":null,"spotIds":["F-deer-atv-0032","F-deer-atv-0092","F-deer-drive-0044","F-deer-drive-0056","F-deer-walk-0049","F-deer-walk-0101","F-duck-drive-0046","F-duck-walk-0035","F-duck-walk-0041","F-duck-walk-0099","F-elk-atv-0011","F-turkey-atv-0009","F-turkey-walk-0034"],"note":"Official rec site"},"geometry":{"type":"Point","coordinates":[-115.21947,49.2775]}},
{"type":"Feature","properties":{"id":"F-camp-camp-0053","kind":"Rec site","name":"Palmer Bar Lake rec site","campsites":3,"water":"Water: unnamed lake right here.","nearSpots":9,"closure":null,"spotIds":["F-deer-atv-0048","F-deer-drive-0059","F-deer-drive-0063","F-deer-walk-0040","F-duck-drive-0019","F-elk-walk-0037","F-grouse-drive-0052","F-turkey-atv-0007","F-turkey-walk-0070"],"note":"Official rec site"},"geometry":{"type":"Point","coordinates":[-115.92471,49.449]}},
{"type":"Feature","properties":{"id":"F-camp-camp-0054","kind":"Rec site","name":"Fish Lake rec site","campsites":1,"water":"Water: unnamed wetland 40 m W.","nearSpots":12,"closure":null,"spotIds":["F-deer-atv-0016","F-deer-atv-0018","F-deer-drive-0077","F-duck-drive-0088","F-duck-drive-0097","F-duck-walk-0066","F-duck-walk-0081","F-elk-walk-0003","F-grouse-drive-0023","F-moose-drive-0013","F-turkey-drive-0046","F-turkey-drive-0054"],"note":"Official rec site"},"geometry":{"type":"Point","coordinates":[-115.52557,49.1844]}},
{"type":"Feature","properties":{"id":"F-camp-camp-0055","kind":"Rec site","name":"Monroe Lake rec site","campsites":4,"water":"Water: Monroe Lake 40 m NW.","nearSpots":22,"closure":null,"spotIds":["F-deer-atv-0083","F-deer-drive-0079","F-deer-drive-0083","F-deer-drive-0087","F-duck-drive-0093","F-duck-drive-0094","F-duck-drive-0117","F-elk-drive-0007","F-elk-walk-0020","F-elk-walk-0038","F-moose-atv-0005","F-moose-drive-0014","F-moose-walk-0007","F-turkey-atv-0022","F-turkey-drive-0040","F-turkey-walk-0039","F-turkey-walk-0086","F-turkey-walk-0087"],"note":"Official rec site"},"geometry":{"type":"Point","coordinates":[-115.85992,49.36247]}},
{"type":"Feature","properties":{"id":"F-camp-camp-0056","kind":"Rec site","name":"White Boar Lake rec site","campsites":2,"water":"Water: White Boar Lake 40 m S.","nearSpots":3,"closure":null,"spotIds":["F-grouse-atv-0024","F-grouse-drive-0036","F-grouse-walk-0043"],"note":"Official rec site"},"geometry":{"type":"Point","coordinates":[-116.35945,49.53405]}},
{"type":"Feature","properties":{"id":"F-camp-camp-0057","kind":"Rec site","name":"Engstrom's Pond rec site","campsites":1,"water":"Water: unnamed lake right here.","nearSpots":34,"closure":null,"spotIds":["F-deer-atv-0011","F-deer-atv-0069","F-deer-atv-0086","F-deer-atv-0102","F-deer-drive-0010","F-deer-drive-0014","F-deer-drive-0132","F-deer-walk-0011","F-deer-walk-0063","F-deer-walk-0090","F-duck-drive-0007","F-duck-drive-0096","F-elk-atv-0024","F-elk-drive-0012","F-elk-drive-0022","F-elk-walk-0036","F-grouse-atv-0005","F-grouse-drive-0065","F-moose-atv-0022","F-moose-atv-0043","F-moose-drive-0032","F-moose-drive-0042","F-turkey-atv-0026","F-turkey-drive-0010","F-turkey-drive-0011","F-turkey-walk-0053"],"note":"Official rec site"},"geometry":{"type":"Point","coordinates":[-116.03896,50.13381]}},
{"type":"Feature","properties":{"id":"F-camp-camp-0058","kind":"Crown land candidate","name":"1.5 km S of Forster Creek","campsites":null,"water":"Water: unnamed wetland 130 m S.","nearSpots":17,"closure":null,"spotIds":["F-deer-atv-0093","F-deer-drive-0006","F-deer-drive-0015","F-deer-walk-0089","F-deer-walk-0092","F-deer-walk-0116","F-duck-drive-0102","F-moose-walk-0025","F-turkey-drive-0047","F-turkey-drive-0048","F-turkey-walk-0011"],"note":"Candidate, scout it first (estimate)"},"geometry":{"type":"Point","coordinates":[-116.2302,50.59982]}},
{"type":"Feature","properties":{"id":"F-camp-camp-0059","kind":"Crown land candidate","name":"790 m SE of Salt Lake Meadows","campsites":null,"water":"Water: unnamed wetland 120 m SW.","nearSpots":16,"closure":null,"spotIds":["F-deer-atv-0108","F-deer-atv-0113","F-deer-atv-0121","F-deer-atv-0126","F-deer-atv-0127","F-deer-drive-0136","F-deer-walk-0143","F-deer-walk-0149","F-duck-drive-0126","F-elk-drive-0033","F-elk-walk-0044","F-grouse-atv-0053","F-grouse-drive-0007","F-moose-atv-0024","F-moose-drive-0030"],"note":"Candidate, scout it first (estimate)"},"geometry":{"type":"Point","coordinates":[-115.67828,50.51062]}},
{"type":"Feature","properties":{"id":"F-camp-camp-0060","kind":"Crown land candidate","name":"2.3 km E of Mud Creek","campsites":null,"water":"Water: unnamed wetland 110 m NE.","nearSpots":12,"closure":null,"spotIds":["F-deer-atv-0040","F-deer-atv-0053","F-deer-drive-0041","F-deer-drive-0058","F-deer-walk-0052","F-deer-walk-0067","F-deer-walk-0070","F-duck-walk-0006","F-duck-walk-0063","F-turkey-drive-0009","F-turkey-drive-0050","F-turkey-walk-0081"],"note":"Candidate, scout it first (estimate)"},"geometry":{"type":"Point","coordinates":[-115.73498,50.13265]}},
{"type":"Feature","properties":{"id":"F-camp-camp-0061","kind":"Crown land candidate","name":"4.9 km SW of Engstrom's Pond rec site","campsites":null,"water":"Water: unnamed wetland 80 m S.","nearSpots":19,"closure":null,"spotIds":["F-deer-atv-0011","F-deer-atv-0102","F-deer-drive-0132","F-deer-walk-0090","F-deer-walk-0107","F-duck-drive-0007","F-elk-drive-0008","F-elk-drive-0022","F-elk-walk-0036","F-grouse-atv-0002","F-grouse-atv-0005","F-grouse-drive-0065","F-moose-drive-0032","F-moose-drive-0051"],"note":"Candidate, scout it first (estimate)"},"geometry":{"type":"Point","coordinates":[-116.10189,50.11561]}},
{"type":"Feature","properties":{"id":"F-camp-camp-0062","kind":"Crown land candidate","name":"450 m W of Skookumchuck Creek","campsites":null,"water":"Water: unnamed lake 190 m S.","nearSpots":18,"closure":null,"spotIds":["F-deer-drive-0060","F-deer-drive-0135","F-deer-drive-0139","F-duck-drive-0085","F-duck-drive-0095","F-duck-drive-0112","F-duck-walk-0085","F-grouse-drive-0041","F-moose-atv-0001","F-moose-walk-0001","F-moose-walk-0004","F-moose-walk-0013","F-turkey-drive-0014","F-turkey-walk-0021","F-turkey-walk-0078"],"note":"Candidate, scout it first (estimate)"},"geometry":{"type":"Point","coordinates":[-115.8784,49.89624]}},
{"type":"Feature","properties":{"id":"F-camp-camp-0063","kind":"Crown land candidate","name":"360 m NW of Wolf Creek","campsites":null,"water":"Water: unnamed wetland 180 m S.","nearSpots":27,"closure":null,"spotIds":["F-deer-atv-0145","F-deer-atv-0147","F-deer-atv-0152","F-deer-drive-0086","F-deer-walk-0160","F-duck-drive-0029","F-duck-drive-0035","F-duck-drive-0146","F-duck-walk-0016","F-duck-walk-0050","F-duck-walk-0084","F-elk-atv-0028","F-elk-drive-0004","F-grouse-walk-0071","F-moose-drive-0041","F-moose-walk-0026","F-moose-walk-0050","F-turkey-atv-0035","F-turkey-drive-0015","F-turkey-drive-0016","F-turkey-walk-0002","F-turkey-walk-0074","F-turkey-walk-0083"],"note":"Candidate, scout it first (estimate)"},"geometry":{"type":"Point","coordinates":[-115.65298,49.84867]}},
{"type":"Feature","properties":{"id":"F-camp-camp-0064","kind":"Crown land candidate","name":"1.0 km SE of Mather Creek","campsites":null,"water":"Water: unnamed wetland 140 m SE.","nearSpots":22,"closure":null,"spotIds":["F-deer-atv-0036","F-deer-atv-0130","F-deer-drive-0048","F-deer-drive-0069","F-deer-walk-0027","F-deer-walk-0045","F-deer-walk-0065","F-duck-drive-0066","F-duck-drive-0069","F-duck-drive-0098","F-duck-drive-0111","F-duck-walk-0058","F-duck-walk-0061","F-duck-walk-0068","F-duck-walk-0070","F-elk-drive-0034","F-elk-walk-0031","F-moose-atv-0002","F-moose-atv-0008","F-moose-walk-0002"],"note":"Candidate, scout it first (estimate)"},"geometry":{"type":"Point","coordinates":[-115.90921,49.79553]}},
{"type":"Feature","properties":{"id":"F-camp-camp-0065","kind":"Crown land candidate","name":"790 m W of Ta Ta Creek","campsites":null,"water":"Water: unnamed wetland 110 m NE.","nearSpots":17,"closure":null,"spotIds":["F-deer-atv-0036","F-deer-drive-0048","F-deer-drive-0062","F-deer-walk-0045","F-deer-walk-0065","F-duck-drive-0050","F-duck-drive-0111","F-duck-walk-0057","F-duck-walk-0061","F-duck-walk-0070","F-elk-drive-0015","F-elk-walk-0031","F-moose-drive-0003","F-moose-walk-0002","F-moose-walk-0056","F-turkey-drive-0019"],"note":"Candidate, scout it first (estimate)"},"geometry":{"type":"Point","coordinates":[-115.84736,49.78977]}},
{"type":"Feature","properties":{"id":"F-camp-camp-0066","kind":"Crown land candidate","name":"2.7 km E of Lone Pine Hill","campsites":null,"water":"Water: unnamed wetland 110 m NE.","nearSpots":19,"closure":null,"spotIds":["F-deer-atv-0006","F-deer-atv-0009","F-deer-atv-0014","F-deer-drive-0003","F-deer-drive-0013","F-deer-drive-0022","F-deer-walk-0019","F-deer-walk-0110","F-duck-drive-0060","F-duck-walk-0083","F-elk-walk-0015","F-grouse-atv-0044","F-turkey-walk-0004","F-turkey-walk-0027"],"note":"Candidate, scout it first (estimate)"},"geometry":{"type":"Point","coordinates":[-115.85395,49.65317]}},
{"type":"Feature","properties":{"id":"F-camp-camp-0067","kind":"Crown land candidate","name":"940 m S of St. Mary River","campsites":null,"water":"Water: unnamed lake 60 m W.","nearSpots":15,"closure":null,"spotIds":["F-deer-atv-0026","F-deer-atv-0103","F-deer-atv-0104","F-deer-drive-0074","F-deer-walk-0068","F-deer-walk-0137","F-grouse-atv-0075","F-grouse-drive-0059","F-grouse-walk-0066","F-moose-atv-0038","F-turkey-atv-0012","F-turkey-atv-0023","F-turkey-walk-0049","F-turkey-walk-0071"],"note":"Candidate, scout it first (estimate)"},"geometry":{"type":"Point","coordinates":[-115.99115,49.62052]}},
{"type":"Feature","properties":{"id":"F-camp-camp-0068","kind":"Crown land candidate","name":"3.2 km E of Isidore Canyon","campsites":null,"water":"Water: unnamed lake 80 m W.","nearSpots":16,"closure":null,"spotIds":["F-deer-drive-0103","F-deer-walk-0081","F-deer-walk-0082","F-duck-drive-0055","F-duck-walk-0003","F-duck-walk-0020","F-duck-walk-0025","F-duck-walk-0036","F-duck-walk-0047","F-duck-walk-0067","F-duck-walk-0089","F-duck-walk-0093","F-elk-atv-0015","F-turkey-drive-0026","F-turkey-walk-0060","F-turkey-walk-0061"],"note":"Candidate, scout it first (estimate)"},"geometry":{"type":"Point","coordinates":[-115.62351,49.54674]}},
{"type":"Feature","properties":{"id":"F-camp-camp-0069","kind":"Crown land candidate","name":"2.9 km W of Norbury Lakes","campsites":null,"water":"Water: unnamed lake 150 m S.","nearSpots":25,"closure":null,"spotIds":["F-deer-atv-0065","F-deer-atv-0142","F-deer-drive-0066","F-deer-drive-0174","F-deer-drive-0175","F-deer-walk-0081","F-deer-walk-0177","F-duck-drive-0028","F-duck-drive-0034","F-duck-drive-0062","F-duck-drive-0151","F-duck-walk-0047","F-elk-atv-0015","F-moose-atv-0035","F-moose-walk-0041","F-turkey-atv-0004","F-turkey-drive-0026","F-turkey-walk-0042","F-turkey-walk-0061","F-turkey-walk-0067"],"note":"Candidate, scout it first (estimate)"},"geometry":{"type":"Point","coordinates":[-115.52789,49.5375]}},
{"type":"Feature","properties":{"id":"F-camp-camp-0070","kind":"Crown land candidate","name":"2.1 km N of Kiakho Lakes","campsites":null,"water":"Water: unnamed wetland 50 m NE.","nearSpots":18,"closure":null,"spotIds":["F-deer-atv-0052","F-duck-drive-0067","F-duck-drive-0087","F-duck-walk-0045","F-duck-walk-0046","F-duck-walk-0071","F-duck-walk-0078","F-duck-walk-0092","F-moose-drive-0004","F-moose-drive-0022","F-moose-drive-0033","F-moose-walk-0005","F-moose-walk-0019","F-turkey-drive-0025","F-turkey-walk-0003"],"note":"Candidate, scout it first (estimate)"},"geometry":{"type":"Point","coordinates":[-115.9085,49.5265]}},
{"type":"Feature","properties":{"id":"F-camp-camp-0071","kind":"Crown land candidate","name":"420 m E of Pyatts Lake","campsites":null,"water":"Water: unnamed wetland 140 m E.","nearSpots":27,"closure":null,"spotIds":["F-deer-atv-0047","F-deer-atv-0060","F-deer-drive-0057","F-deer-drive-0075","F-deer-drive-0078","F-deer-walk-0056","F-deer-walk-0059","F-deer-walk-0075","F-deer-walk-0119","F-duck-drive-0076","F-duck-walk-0069","F-grouse-atv-0006","F-moose-atv-0009","F-turkey-drive-0032","F-turkey-drive-0035","F-turkey-drive-0053","F-turkey-walk-0032","F-turkey-walk-0072"],"note":"Candidate, scout it first (estimate)"},"geometry":{"type":"Point","coordinates":[-115.76035,49.47162]}},
{"type":"Feature","properties":{"id":"F-camp-camp-0072","kind":"Crown land candidate","name":"530 m NE of Kikomun Creek","campsites":null,"water":"Water: unnamed wetland 130 m SE.","nearSpots":37,"closure":null,"spotIds":["F-deer-atv-0032","F-deer-atv-0044","F-deer-atv-0092","F-deer-drive-0039","F-deer-drive-0049","F-deer-drive-0052","F-deer-drive-0054","F-deer-walk-0049","F-deer-walk-0060","F-duck-drive-0026","F-duck-drive-0147","F-duck-walk-0018","F-duck-walk-0027","F-duck-walk-0038","F-duck-walk-0040","F-duck-walk-0041","F-duck-walk-0099","F-elk-atv-0010","F-elk-atv-0020","F-elk-drive-0014","F-grouse-atv-0020","F-grouse-atv-0037","F-grouse-drive-0039","F-moose-atv-0004","F-moose-drive-0006","F-moose-drive-0046","F-moose-walk-0006","F-turkey-atv-0008","F-turkey-drive-0036","F-turkey-drive-0039","F-turkey-walk-0044","F-turkey-walk-0085"],"note":"Candidate, scout it first (estimate)"},"geometry":{"type":"Point","coordinates":[-115.19991,49.32944]}},
{"type":"Feature","properties":{"id":"F-camp-camp-0073","kind":"Crown land candidate","name":"By Gold Creek","campsites":null,"water":"Water: unnamed wetland right here.","nearSpots":15,"closure":null,"spotIds":["F-deer-atv-0096","F-deer-atv-0116","F-deer-drive-0156","F-deer-walk-0123","F-deer-walk-0130","F-deer-walk-0172","F-duck-drive-0116","F-duck-drive-0139","F-duck-drive-0140","F-elk-drive-0038","F-grouse-drive-0002","F-moose-atv-0018","F-moose-atv-0029","F-moose-drive-0023","F-moose-drive-0034"],"note":"Candidate, scout it first (estimate)"},"geometry":{"type":"Point","coordinates":[-115.65158,49.34845]}},
{"type":"Feature","properties":{"id":"F-camp-camp-0074","kind":"Crown land candidate","name":"1.7 km N of Fussee Lake","campsites":null,"water":"Water: unnamed wetland 180 m S.","nearSpots":22,"closure":null,"spotIds":["F-deer-atv-0049","F-deer-atv-0073","F-deer-atv-0082","F-deer-atv-0092","F-deer-drive-0038","F-deer-drive-0044","F-deer-drive-0056","F-deer-walk-0041","F-deer-walk-0049","F-deer-walk-0098","F-deer-walk-0101","F-duck-drive-0058","F-duck-walk-0037","F-duck-walk-0099","F-elk-atv-0011","F-elk-drive-0035","F-grouse-walk-0074","F-turkey-drive-0041","F-turkey-walk-0038","F-turkey-walk-0050"],"note":"Candidate, scout it first (estimate)"},"geometry":{"type":"Point","coordinates":[-115.1591,49.26067]}},
{"type":"Feature","properties":{"id":"F-camp-camp-0075","kind":"Crown land candidate","name":"1.6 km NE of McGillivray Range","campsites":null,"water":"Water: unnamed wetland right here.","nearSpots":11,"closure":null,"spotIds":["F-deer-atv-0018","F-deer-atv-0020","F-deer-drive-0027","F-deer-walk-0024","F-duck-drive-0121","F-elk-atv-0017","F-elk-drive-0026","F-grouse-atv-0028","F-moose-walk-0048"],"note":"Candidate, scout it first (estimate)"},"geometry":{"type":"Point","coordinates":[-115.54052,49.26217]}},
{"type":"Feature","properties":{"id":"F-camp-camp-0076","kind":"Crown land candidate","name":"770 m NE of Purcell Creek","campsites":null,"water":"Water: unnamed wetland 100 m SW.","nearSpots":22,"closure":null,"spotIds":["F-deer-atv-0046","F-deer-drive-0088","F-deer-drive-0098","F-deer-walk-0087","F-duck-drive-0043","F-duck-drive-0056","F-duck-drive-0107","F-duck-drive-0135","F-duck-drive-0136","F-duck-walk-0079","F-elk-atv-0032","F-elk-drive-0019","F-elk-drive-0021","F-grouse-atv-0031","F-grouse-drive-0055","F-grouse-walk-0042","F-moose-atv-0007","F-moose-drive-0020","F-turkey-atv-0027","F-turkey-drive-0058","F-turkey-walk-0069","F-turkey-walk-0075"],"note":"Candidate, scout it first (estimate)"},"geometry":{"type":"Point","coordinates":[-115.28622,49.06039]}},
{"type":"Feature","properties":{"id":"F-camp-camp-0077","kind":"Crown land candidate","name":"3.4 km NE of Kootenay-White Junction rec site","campsites":null,"water":"Water: unnamed wetland 130 m NE.","nearSpots":19,"closure":null,"spotIds":["F-deer-atv-0072","F-deer-atv-0111","F-deer-drive-0032","F-deer-drive-0076","F-deer-drive-0150","F-deer-walk-0032","F-deer-walk-0039","F-deer-walk-0159","F-duck-drive-0075","F-duck-drive-0122","F-grouse-atv-0042","F-moose-atv-0030","F-moose-drive-0037"],"note":"Candidate, scout it first (estimate)"},"geometry":{"type":"Point","coordinates":[-115.5813,50.3698]}},
{"type":"Feature","properties":{"id":"F-camp-camp-0078","kind":"Crown land candidate","name":"1.2 km NE of Moyie Lake","campsites":null,"water":"Water: unnamed wetland 70 m W.","nearSpots":17,"closure":null,"spotIds":["F-deer-atv-0124","F-deer-drive-0079","F-deer-drive-0083","F-deer-drive-0087","F-deer-drive-0107","F-deer-walk-0154","F-duck-drive-0093","F-duck-drive-0094","F-elk-walk-0038","F-turkey-atv-0022","F-turkey-drive-0037","F-turkey-drive-0040","F-turkey-walk-0039","F-turkey-walk-0086","F-turkey-walk-0087"],"note":"Candidate, scout it first (estimate)"},"geometry":{"type":"Point","coordinates":[-115.8094,49.37626]}},
{"type":"Feature","properties":{"id":"F-camp-camp-0079","kind":"Crown land candidate","name":"1.0 km SW of Englishman Creek","campsites":null,"water":"Water: unnamed wetland 150 m SE.","nearSpots":11,"closure":null,"spotIds":["F-duck-drive-0045","F-duck-drive-0054","F-duck-drive-0057","F-duck-walk-0019","F-elk-atv-0009","F-moose-atv-0006","F-moose-drive-0007","F-moose-walk-0008","F-turkey-atv-0043","F-turkey-drive-0059","F-turkey-walk-0090"],"note":"Candidate, scout it first (estimate)"},"geometry":{"type":"Point","coordinates":[-115.30707,49.17357]}},
{"type":"Feature","properties":{"id":"F-camp-camp-0080","kind":"Crown land candidate","name":"3.7 km SW of MacCarthy Lakes","campsites":null,"water":"Water: unnamed wetland 190 m S.","nearSpots":13,"closure":null,"spotIds":["F-deer-atv-0089","F-deer-drive-0089","F-deer-walk-0127","F-duck-drive-0118","F-duck-walk-0077","F-grouse-drive-0049","F-grouse-walk-0012","F-moose-atv-0025","F-moose-atv-0045","F-moose-drive-0055"],"note":"Candidate, scout it first (estimate)"},"geometry":{"type":"Point","coordinates":[-116.0228,50.38438]}},
{"type":"Feature","properties":{"id":"F-camp-camp-0081","kind":"Crown land candidate","name":"360 m NE of Yahk River","campsites":null,"water":"Water: unnamed wetland 140 m SW.","nearSpots":13,"closure":null,"spotIds":["F-deer-atv-0115","F-deer-drive-0094","F-deer-drive-0143","F-deer-walk-0147","F-deer-walk-0156","F-duck-drive-0071","F-duck-walk-0090","F-grouse-atv-0034","F-moose-atv-0011","F-moose-walk-0014"],"note":"Candidate, scout it first (estimate)"},"geometry":{"type":"Point","coordinates":[-115.70285,49.03862]}},
{"type":"Feature","properties":{"id":"F-camp-camp-0082","kind":"Crown land candidate","name":"170 m NW of Gopher Creek","campsites":null,"water":"Water: unnamed wetland 80 m E.","nearSpots":10,"closure":null,"spotIds":["F-deer-drive-0131","F-duck-drive-0006","F-duck-drive-0008","F-elk-walk-0058","F-grouse-atv-0077","F-grouse-drive-0012","F-grouse-drive-0060","F-moose-drive-0001","F-moose-drive-0025"],"note":"Candidate, scout it first (estimate)"},"geometry":{"type":"Point","coordinates":[-116.36721,50.56649]}},
{"type":"Feature","properties":{"id":"F-camp-camp-0083","kind":"Crown land candidate","name":"By Law Creek","campsites":null,"water":"Water: Law Creek right here.","nearSpots":3,"closure":null,"spotIds":["F-duck-drive-0006","F-grouse-atv-0049","F-moose-drive-0001"],"note":"Candidate, scout it first (estimate)"},"geometry":{"type":"Point","coordinates":[-116.32714,50.52762]}},
{"type":"Feature","properties":{"id":"F-camp-camp-0084","kind":"Crown land candidate","name":"690 m N of Brûlé Creek","campsites":null,"water":"Water: unnamed wetland 190 m E.","nearSpots":16,"closure":null,"spotIds":["F-deer-atv-0099","F-deer-atv-0105","F-deer-drive-0104","F-deer-drive-0112","F-deer-drive-0125","F-deer-drive-0129","F-deer-walk-0103","F-deer-walk-0128","F-deer-walk-0164","F-duck-drive-0129","F-duck-walk-0100","F-grouse-walk-0013","F-moose-drive-0050","F-moose-walk-0028"],"note":"Candidate, scout it first (estimate)"},"geometry":{"type":"Point","coordinates":[-114.90936,49.89356]}},
{"type":"Feature","properties":{"id":"F-camp-camp-0085","kind":"Crown land candidate","name":"840 m SW of Elk River","campsites":null,"water":"Water: unnamed wetland 170 m SE.","nearSpots":10,"closure":null,"spotIds":["F-deer-drive-0114","F-deer-walk-0015","F-deer-walk-0115","F-duck-drive-0099","F-duck-drive-0105","F-duck-drive-0119","F-grouse-drive-0019","F-moose-drive-0031","F-moose-walk-0034"],"note":"Candidate, scout it first (estimate)"},"geometry":{"type":"Point","coordinates":[-114.94918,50.12332]}},
{"type":"Feature","properties":{"id":"F-camp-camp-0086","kind":"Crown land candidate","name":"By Quinn (Queen) Creek","campsites":null,"water":"Water: Quinn (Queen) Creek right here.","nearSpots":4,"closure":null,"spotIds":["F-deer-atv-0118","F-elk-drive-0039","F-elk-walk-0045","F-grouse-drive-0027"],"note":"Candidate, scout it first (estimate)"},"geometry":{"type":"Point","coordinates":[-115.19427,49.80307]}},
{"type":"Feature","properties":{"id":"F-camp-camp-0087","kind":"Crown land candidate","name":"270 m NE of St. Mary River","campsites":null,"water":"Water: unnamed lake 170 m SE.","nearSpots":7,"closure":null,"spotIds":["F-duck-drive-0013","F-duck-drive-0020","F-duck-walk-0009","F-duck-walk-0104","F-grouse-walk-0046","F-moose-atv-0020","F-moose-walk-0042"],"note":"Candidate, scout it first (estimate)"},"geometry":{"type":"Point","coordinates":[-116.2826,49.61621]}},
{"type":"Feature","properties":{"id":"F-camp-camp-0088","kind":"Rec site","name":"North Star Lake rec site","campsites":11,"water":"Water: unnamed wetland 40 m SW.","nearSpots":24,"closure":null,"spotIds":["F-deer-atv-0032","F-deer-atv-0084","F-deer-drive-0052","F-deer-walk-0097","F-duck-drive-0025","F-duck-drive-0026","F-duck-walk-0018","F-duck-walk-0026","F-duck-walk-0033","F-duck-walk-0038","F-duck-walk-0040","F-duck-walk-0041","F-duck-walk-0075","F-elk-atv-0010","F-elk-atv-0020","F-elk-atv-0023","F-elk-drive-0014","F-grouse-atv-0020","F-moose-atv-0004","F-moose-walk-0006","F-turkey-atv-0008","F-turkey-walk-0063"],"note":"Official rec site"},"geometry":{"type":"Point","coordinates":[-115.2671,49.34536]}},
{"type":"Feature","properties":{"id":"F-camp-camp-0089","kind":"Rec site","name":"Lake Enid rec site","campsites":3,"water":"Water: Lake Enid 60 m SE.","nearSpots":24,"closure":null,"spotIds":["F-deer-atv-0066","F-deer-atv-0097","F-deer-atv-0139","F-deer-atv-0143","F-deer-drive-0070","F-deer-drive-0171","F-deer-walk-0091","F-duck-drive-0027","F-duck-drive-0047","F-duck-drive-0123","F-duck-walk-0039","F-elk-walk-0040","F-moose-drive-0002","F-moose-walk-0027","F-turkey-atv-0001","F-turkey-atv-0014","F-turkey-walk-0015","F-turkey-walk-0037","F-turkey-walk-0051","F-turkey-walk-0073"],"note":"Official rec site"},"geometry":{"type":"Point","coordinates":[-116.12704,50.54979]}},
{"type":"Feature","properties":{"id":"F-camp-camp-0090","kind":"Rec site","name":"40 Mile CAMP / BULL River rec site","campsites":5,"water":"Water: Bull River 50 m NW.","nearSpots":8,"closure":null,"spotIds":["F-deer-atv-0118","F-deer-atv-0119","F-deer-drive-0140","F-elk-drive-0031","F-elk-drive-0037","F-elk-drive-0039","F-elk-walk-0045","F-grouse-drive-0027"],"note":"Official rec site"},"geometry":{"type":"Point","coordinates":[-115.169,49.77455]}},
{"type":"Feature","properties":{"id":"F-camp-camp-0091","kind":"Rec site","name":"Munroe Lake rec site","campsites":3,"water":"Water: Munroe Lake 40 m SW.","nearSpots":2,"closure":null,"spotIds":["F-grouse-atv-0025","F-grouse-walk-0004"],"note":"Official rec site"},"geometry":{"type":"Point","coordinates":[-115.1028,50.13793]}},
{"type":"Feature","properties":{"id":"F-camp-camp-0092","kind":"Rec site","name":"Fenwick Creek rec site","campsites":4,"water":"Water: Fenwick Creek right here.","nearSpots":7,"closure":null,"spotIds":["F-deer-atv-0112","F-deer-atv-0127","F-elk-drive-0033","F-grouse-drive-0028","F-grouse-walk-0064","F-moose-walk-0017","F-moose-walk-0032"],"note":"Official rec site"},"geometry":{"type":"Point","coordinates":[-115.63342,50.45971]}},
{"type":"Feature","properties":{"id":"F-camp-camp-0093","kind":"Rec site","name":"7 Mile Lake rec site","campsites":2,"water":"Water: unnamed lake 20 m SE.","nearSpots":4,"closure":null,"spotIds":["F-deer-atv-0155","F-deer-walk-0174","F-duck-drive-0081","F-duck-drive-0088"],"note":"Official rec site"},"geometry":{"type":"Point","coordinates":[-115.56919,49.1427]}},
{"type":"Feature","properties":{"id":"F-camp-camp-0094","kind":"Rec site","name":"Wapiti Lake rec site","campsites":4,"water":"Water: Wapiti Lake 50 m W.","nearSpots":16,"closure":null,"spotIds":["F-deer-atv-0039","F-deer-atv-0056","F-deer-drive-0106","F-deer-walk-0097","F-duck-drive-0049","F-duck-walk-0012","F-duck-walk-0033","F-duck-walk-0042","F-elk-atv-0021","F-moose-atv-0010","F-moose-drive-0005","F-moose-walk-0010","F-turkey-walk-0076"],"note":"Official rec site"},"geometry":{"type":"Point","coordinates":[-115.36287,49.38603]}},
{"type":"Feature","properties":{"id":"F-camp-camp-0095","kind":"Rec site","name":"Cherry Lake rec site","campsites":10,"water":"Water: Cherry Lake 40 m SW.","nearSpots":9,"closure":null,"spotIds":["F-deer-atv-0016","F-deer-atv-0018","F-duck-drive-0081","F-duck-drive-0088","F-duck-walk-0066","F-duck-walk-0081","F-elk-atv-0006","F-moose-drive-0013","F-turkey-drive-0054"],"note":"Official rec site"},"geometry":{"type":"Point","coordinates":[-115.54156,49.18111]}},
{"type":"Feature","properties":{"id":"F-camp-camp-0096","kind":"Rec site","name":"Mazur Meadows rec site","campsites":4,"water":"Water: unnamed wetland 40 m E.","nearSpots":26,"closure":null,"spotIds":["F-deer-atv-0002","F-deer-atv-0008","F-deer-drive-0002","F-deer-drive-0005","F-deer-drive-0077","F-deer-walk-0003","F-deer-walk-0018","F-duck-drive-0018","F-duck-drive-0088","F-duck-drive-0097","F-duck-walk-0043","F-duck-walk-0066","F-duck-walk-0081","F-elk-drive-0001","F-elk-walk-0003","F-grouse-drive-0023","F-moose-atv-0012","F-moose-drive-0013","F-moose-walk-0020","F-turkey-drive-0046","F-turkey-drive-0054","F-turkey-walk-0045"],"note":"Official rec site"},"geometry":{"type":"Point","coordinates":[-115.48476,49.18289]}},
{"type":"Feature","properties":{"id":"F-camp-camp-0097","kind":"Rec site","name":"Mineral Lake rec site","campsites":2,"water":"Water: Mineral Lake 40 m S.","nearSpots":18,"closure":null,"spotIds":["F-deer-atv-0083","F-deer-drive-0079","F-deer-drive-0087","F-duck-drive-0093","F-duck-drive-0094","F-duck-drive-0117","F-elk-drive-0007","F-elk-walk-0020","F-elk-walk-0038","F-moose-atv-0005","F-moose-drive-0014","F-moose-walk-0007","F-turkey-drive-0040","F-turkey-walk-0086","F-turkey-walk-0087"],"note":"Official rec site"},"geometry":{"type":"Point","coordinates":[-115.85408,49.35039]}},
{"type":"Feature","properties":{"id":"F-camp-camp-0098","kind":"Rec site","name":"Buhl Creek rec site","campsites":1,"water":"Water: Skookumchuck Creek 60 m NW.","nearSpots":4,"closure":null,"spotIds":["F-grouse-atv-0033","F-grouse-atv-0072","F-grouse-drive-0021","F-grouse-walk-0023"],"note":"Official rec site"},"geometry":{"type":"Point","coordinates":[-116.02892,49.96305]}},
{"type":"Feature","properties":{"id":"F-camp-camp-0099","kind":"Rec site","name":"Forsyth Creek rec site","campsites":1,"water":"Water: Quarrie Creek right here.","nearSpots":10,"closure":null,"spotIds":["F-deer-atv-0081","F-deer-atv-0131","F-deer-drive-0108","F-deer-drive-0149","F-duck-walk-0064","F-moose-backcountry-0017","F-moose-walk-0029","F-moose-walk-0047","F-moose-walk-0052"],"note":"Official rec site"},"geometry":{"type":"Point","coordinates":[-114.97504,50.25915]}},
{"type":"Feature","properties":{"id":"F-camp-camp-0100","kind":"Rec site","name":"Larchwood Lake rec site","campsites":22,"water":"Water: Larchwood Lake 50 m W.","nearSpots":13,"closure":null,"spotIds":["F-deer-atv-0057","F-deer-atv-0095","F-deer-walk-0071","F-duck-drive-0031","F-duck-drive-0038","F-grouse-atv-0009","F-grouse-atv-0041","F-moose-drive-0009","F-moose-drive-0016","F-turkey-atv-0019","F-turkey-atv-0024","F-turkey-atv-0034","F-turkey-walk-0001"],"note":"Official rec site"},"geometry":{"type":"Point","coordinates":[-115.79531,49.95342]}},
{"type":"Feature","properties":{"id":"F-camp-camp-0101","kind":"Rec site","name":"Gold Creek rec site","campsites":1,"water":"Water: Gold Creek 20 m S.","nearSpots":17,"closure":null,"spotIds":["F-deer-atv-0046","F-deer-drive-0065","F-deer-drive-0072","F-deer-drive-0098","F-deer-walk-0111","F-deer-walk-0113","F-duck-drive-0045","F-duck-drive-0059","F-duck-drive-0136","F-elk-walk-0046","F-grouse-atv-0007","F-grouse-drive-0055","F-moose-atv-0007","F-turkey-atv-0027","F-turkey-atv-0043","F-turkey-drive-0058","F-turkey-walk-0075"],"note":"Official rec site"},"geometry":{"type":"Point","coordinates":[-115.27727,49.10739]}},
{"type":"Feature","properties":{"id":"F-camp-camp-0102","kind":"Rec site","name":"Englishman Creek rec site","campsites":56,"water":"Water: Lake Koocanusa 110 m E.","nearSpots":18,"closure":null,"spotIds":["F-deer-atv-0037","F-deer-atv-0087","F-deer-drive-0065","F-deer-drive-0072","F-deer-walk-0111","F-deer-walk-0113","F-duck-drive-0045","F-duck-drive-0054","F-duck-drive-0057","F-duck-drive-0059","F-duck-walk-0019","F-moose-atv-0006","F-moose-walk-0008","F-turkey-atv-0042","F-turkey-atv-0043","F-turkey-drive-0059","F-turkey-drive-0061","F-turkey-walk-0090"],"note":"Official rec site"},"geometry":{"type":"Point","coordinates":[-115.25511,49.16532]}},
{"type":"Feature","properties":{"id":"F-camp-camp-0103","kind":"Rec site","name":"Goat River Canyon rec site","campsites":6,"water":"Water: Goat River 60 m NE.","nearSpots":1,"closure":null,"spotIds":["F-grouse-atv-0010"],"note":"Official rec site"},"geometry":{"type":"Point","coordinates":[-116.33145,49.24282]}},
{"type":"Feature","properties":{"id":"F-camp-camp-0104","kind":"Rec site","name":"Edwards Lake rec site","campsites":3,"water":"Water: Edwards Lakes 60 m SW.","nearSpots":10,"closure":null,"spotIds":["F-deer-atv-0035","F-deer-drive-0110","F-deer-walk-0057","F-duck-drive-0063","F-elk-atv-0013","F-elk-walk-0026","F-moose-atv-0021","F-moose-walk-0057","F-turkey-walk-0009"],"note":"Official rec site"},"geometry":{"type":"Point","coordinates":[-115.103,49.09889]}},
{"type":"Feature","properties":{"id":"F-camp-camp-0105","kind":"Rec site","name":"Loon Lake rec site","campsites":40,"water":"Water: Loon Lake 60 m NE.","nearSpots":16,"closure":null,"spotIds":["F-deer-atv-0035","F-deer-atv-0045","F-deer-atv-0076","F-deer-drive-0110","F-deer-walk-0057","F-deer-walk-0061","F-duck-drive-0040","F-duck-drive-0063","F-elk-atv-0013","F-elk-walk-0026","F-moose-atv-0021","F-moose-drive-0056","F-moose-walk-0057","F-turkey-walk-0009","F-turkey-walk-0036"],"note":"Official rec site"},"geometry":{"type":"Point","coordinates":[-115.11056,49.11415]}},
{"type":"Feature","properties":{"id":"F-camp-camp-0106","kind":"Rec site","name":"Lazy Lake rec site","campsites":12,"water":"Water: Lazy Lake 100 m SE.","nearSpots":36,"closure":null,"spotIds":["F-deer-atv-0145","F-deer-atv-0147","F-deer-atv-0152","F-deer-drive-0082","F-deer-drive-0086","F-deer-walk-0160","F-duck-drive-0029","F-duck-drive-0035","F-duck-drive-0146","F-duck-walk-0016","F-duck-walk-0050","F-duck-walk-0084","F-elk-atv-0028","F-elk-atv-0029","F-elk-drive-0004","F-elk-walk-0013","F-grouse-walk-0031","F-grouse-walk-0039","F-moose-drive-0041","F-moose-walk-0026","F-moose-walk-0050","F-turkey-atv-0020","F-turkey-atv-0035","F-turkey-drive-0015","F-turkey-drive-0016","F-turkey-drive-0017","F-turkey-walk-0002","F-turkey-walk-0023","F-turkey-walk-0074","F-turkey-walk-0083"],"note":"Official rec site"},"geometry":{"type":"Point","coordinates":[-115.62438,49.82613]}},
{"type":"Feature","properties":{"id":"F-camp-camp-0107","kind":"Rec site","name":"Gold Creek Bay rec site","campsites":22,"water":"Water: Lake Koocanusa 40 m NE.","nearSpots":21,"closure":null,"spotIds":["F-deer-atv-0046","F-deer-drive-0098","F-deer-drive-0177","F-deer-walk-0087","F-duck-drive-0043","F-duck-drive-0056","F-duck-drive-0107","F-duck-drive-0135","F-duck-drive-0136","F-duck-drive-0150","F-grouse-drive-0055","F-moose-atv-0007","F-moose-atv-0034","F-moose-drive-0020","F-turkey-atv-0027","F-turkey-atv-0041","F-turkey-drive-0045","F-turkey-drive-0058","F-turkey-walk-0010","F-turkey-walk-0069","F-turkey-walk-0075"],"note":"Official rec site"},"geometry":{"type":"Point","coordinates":[-115.23476,49.06779]}},
{"type":"Feature","properties":{"id":"F-camp-camp-0108","kind":"Rec site","name":"Frozen Lake rec site","campsites":5,"water":"Water: Frozen Lake 40 m SW.","nearSpots":4,"closure":null,"spotIds":["F-deer-drive-0028","F-deer-walk-0142","F-grouse-atv-0068"],"note":"Official rec site"},"geometry":{"type":"Point","coordinates":[-114.6673,49.00442]}},
{"type":"Feature","properties":{"id":"F-camp-camp-0109","kind":"Rec site","name":"Hartley Lake rec site","campsites":2,"water":"Water: Hartley Lake 20 m W.","nearSpots":1,"closure":null,"spotIds":["F-grouse-walk-0040"],"note":"Official rec site"},"geometry":{"type":"Point","coordinates":[-115.05411,49.60955]}},
{"type":"Feature","properties":{"id":"F-camp-camp-0110","kind":"Rec site","name":"Horseshoe Lake rec site","campsites":17,"water":"Water: Horseshoe Lake 40 m NE.","nearSpots":18,"closure":null,"spotIds":["F-deer-atv-0140","F-deer-drive-0174","F-deer-drive-0175","F-deer-walk-0177","F-duck-drive-0028","F-duck-drive-0062","F-duck-walk-0047","F-duck-walk-0093","F-elk-atv-0015","F-elk-atv-0027","F-moose-atv-0035","F-turkey-atv-0004","F-turkey-atv-0017","F-turkey-walk-0005","F-turkey-walk-0028","F-turkey-walk-0061"],"note":"Official rec site"},"geometry":{"type":"Point","coordinates":[-115.52143,49.57134]}},
{"type":"Feature","properties":{"id":"F-camp-camp-0111","kind":"Rec site","name":"Lakit Lake rec site","campsites":2,"water":"Water: unnamed lake 40 m SE.","nearSpots":31,"closure":null,"spotIds":["F-deer-atv-0001","F-deer-atv-0003","F-deer-drive-0004","F-deer-drive-0007","F-deer-drive-0008","F-deer-walk-0004","F-deer-walk-0006","F-deer-walk-0009","F-deer-walk-0010","F-deer-walk-0022","F-deer-walk-0072","F-duck-drive-0002","F-duck-drive-0039","F-duck-drive-0042","F-duck-drive-0130","F-duck-walk-0015","F-duck-walk-0030","F-grouse-drive-0056","F-moose-walk-0035","F-turkey-atv-0036","F-turkey-atv-0037","F-turkey-atv-0038","F-turkey-drive-0020","F-turkey-drive-0021","F-turkey-walk-0025"],"note":"Official rec site"},"geometry":{"type":"Point","coordinates":[-115.64821,49.70689]}},
{"type":"Feature","properties":{"id":"F-camp-camp-0112","kind":"Rec site","name":"Johnson Lake rec site","campsites":5,"water":"Water: Johnson Lake 70 m NW.","nearSpots":10,"closure":null,"spotIds":["F-deer-atv-0057","F-deer-atv-0095","F-deer-walk-0071","F-duck-drive-0031","F-duck-drive-0038","F-moose-drive-0016","F-turkey-atv-0019","F-turkey-atv-0024","F-turkey-atv-0034","F-turkey-walk-0001"],"note":"Official rec site"},"geometry":{"type":"Point","coordinates":[-115.7623,49.9549]}},
{"type":"Feature","properties":{"id":"F-camp-camp-0113","kind":"Rec site","name":"Whitetail Lake rec site","campsites":30,"water":"Water: Whitetail Lake 50 m E.","nearSpots":14,"closure":null,"spotIds":["F-deer-atv-0106","F-deer-drive-0090","F-deer-drive-0121","F-deer-walk-0054","F-deer-walk-0080","F-duck-drive-0101","F-duck-drive-0108","F-duck-drive-0127","F-elk-walk-0039","F-grouse-atv-0043","F-grouse-walk-0061","F-turkey-walk-0040"],"note":"Official rec site"},"geometry":{"type":"Point","coordinates":[-116.03242,50.21583]}},
{"type":"Feature","properties":{"id":"F-camp-camp-0114","kind":"Rec site","name":"Suzanne Lake rec site","campsites":9,"water":"Water: unnamed wetland 50 m N.","nearSpots":23,"closure":null,"spotIds":["F-deer-atv-0032","F-duck-drive-0025","F-duck-drive-0026","F-duck-walk-0018","F-duck-walk-0026","F-duck-walk-0038","F-duck-walk-0040","F-duck-walk-0041","F-duck-walk-0075","F-elk-atv-0010","F-elk-atv-0020","F-elk-drive-0014","F-grouse-atv-0020","F-grouse-drive-0039","F-moose-atv-0004","F-moose-drive-0006","F-moose-walk-0006","F-turkey-atv-0008","F-turkey-atv-0009","F-turkey-drive-0039","F-turkey-walk-0063"],"note":"Official rec site"},"geometry":{"type":"Point","coordinates":[-115.24487,49.32007]}},
{"type":"Feature","properties":{"id":"F-camp-camp-0115","kind":"Rec site","name":"Ram-Wigwam Creek rec site","campsites":2,"water":"Water: Bighorn Creek 80 m S.","nearSpots":13,"closure":null,"spotIds":["F-deer-drive-0031","F-deer-drive-0035","F-deer-walk-0034","F-deer-walk-0187","F-duck-drive-0143","F-elk-drive-0003","F-elk-walk-0004","F-grouse-walk-0008","F-grouse-walk-0037"],"note":"Official rec site"},"geometry":{"type":"Point","coordinates":[-114.95741,49.18211]}},
{"type":"Feature","properties":{"id":"F-camp-camp-0116","kind":"Rec site","name":"Summer Lake rec site","campsites":6,"water":"Water: Summer Lake 130 m E.","nearSpots":1,"closure":null,"spotIds":["F-grouse-drive-0010"],"note":"Official rec site"},"geometry":{"type":"Point","coordinates":[-115.40776,49.76338]}},
{"type":"Feature","properties":{"id":"F-camp-camp-0117","kind":"Rec site","name":"Skookumchuck Creek rec site","campsites":2,"water":"Water: Skookumchuck Creek 30 m S.","nearSpots":3,"closure":null,"spotIds":["F-grouse-atv-0033","F-grouse-drive-0021","F-grouse-walk-0023"],"note":"Official rec site"},"geometry":{"type":"Point","coordinates":[-116.0034,49.96466]}},
{"type":"Feature","properties":{"id":"F-camp-camp-0118","kind":"Rec site","name":"Findlay Creek rec site","campsites":2,"water":"Water: Findlay Creek 40 m W.","nearSpots":12,"closure":null,"spotIds":["F-deer-atv-0068","F-deer-atv-0069","F-deer-atv-0086","F-deer-drive-0040","F-deer-drive-0042","F-deer-walk-0042","F-moose-atv-0043","F-moose-drive-0042","F-turkey-atv-0026","F-turkey-drive-0008","F-turkey-drive-0010","F-turkey-walk-0053"],"note":"Official rec site"},"geometry":{"type":"Point","coordinates":[-115.95052,50.13521]}},
{"type":"Feature","properties":{"id":"F-camp-camp-0119","kind":"Rec site","name":"Kootenay-White Junction rec site","campsites":2,"water":"Water: White River 90 m SE.","nearSpots":24,"closure":null,"spotIds":["F-deer-atv-0010","F-deer-atv-0072","F-deer-drive-0011","F-deer-drive-0032","F-deer-drive-0034","F-deer-drive-0076","F-deer-walk-0032","F-deer-walk-0039","F-deer-walk-0159","F-duck-drive-0075","F-duck-drive-0122","F-grouse-atv-0042","F-moose-atv-0030","F-moose-drive-0037"],"note":"Official rec site"},"geometry":{"type":"Point","coordinates":[-115.62264,50.35407]}},
{"type":"Feature","properties":{"id":"F-camp-camp-0120","kind":"Rec site","name":"Tamarack Lake rec site","campsites":3,"water":"Water: unnamed wetland 30 m N.","nearSpots":16,"closure":null,"spotIds":["F-deer-atv-0095","F-deer-drive-0060","F-deer-walk-0071","F-duck-drive-0031","F-duck-walk-0014","F-elk-drive-0040","F-grouse-atv-0009","F-moose-drive-0016","F-moose-walk-0013","F-turkey-atv-0019","F-turkey-atv-0034","F-turkey-drive-0014","F-turkey-walk-0001","F-turkey-walk-0021","F-turkey-walk-0078"],"note":"Official rec site"},"geometry":{"type":"Point","coordinates":[-115.80354,49.91556]}},
{"type":"Feature","properties":{"id":"F-camp-camp-0121","kind":"Rec site","name":"Doctor Creek Cabin Emergency Warming Shelter rec site","campsites":2,"water":null,"nearSpots":2,"closure":null,"spotIds":["F-grouse-drive-0004","F-grouse-walk-0030"],"note":"Official rec site"},"geometry":{"type":"Point","coordinates":[-116.17062,50.01599]}},
{"type":"Feature","properties":{"id":"F-camp-camp-0122","kind":"Rec site","name":"Ram/Cabin Pass rec site","campsites":2,"water":null,"nearSpots":2,"closure":null,"spotIds":["F-duck-drive-0132","F-grouse-drive-0063"],"note":"Official rec site"},"geometry":{"type":"Point","coordinates":[-114.75361,49.16046]}},
{"type":"Feature","properties":{"id":"F-deer-backcountry-0001-camp","kind":"Backcountry camp","name":"Camp for 340 m N of Wigwam River","campsites":null,"water":"Wigwam River 30 m NE","elev":996,"spotIds":["F-deer-backcountry-0001"],"note":"Flat ground near water from the data (estimate). Scout it first."},"geometry":{"type":"Point","coordinates":[-114.94866,49.25191]}},
{"type":"Feature","properties":{"id":"F-deer-backcountry-0002-camp","kind":"Backcountry camp","name":"Camp for 200 m NW of White River","campsites":null,"water":"White River 60 m NW","elev":1337,"spotIds":["F-deer-backcountry-0002"],"note":"Flat ground near water from the data (estimate). Scout it first."},"geometry":{"type":"Point","coordinates":[-115.20334,50.23239]}},
{"type":"Feature","properties":{"id":"F-deer-backcountry-0003-camp","kind":"Backcountry camp","name":"Camp for 600 m NW of White River","campsites":null,"water":"White River 20 m NW","elev":1318,"spotIds":["F-deer-backcountry-0003"],"note":"Flat ground near water from the data (estimate). Scout it first."},"geometry":{"type":"Point","coordinates":[-115.2254,50.2291]}},
{"type":"Feature","properties":{"id":"F-deer-backcountry-0004-camp","kind":"Backcountry camp","name":"Camp for 940 m W of Kape Creek","campsites":null,"water":"North White River 100 m E","elev":1387,"spotIds":["F-deer-backcountry-0004"],"note":"Flat ground near water from the data (estimate). Scout it first."},"geometry":{"type":"Point","coordinates":[-115.27758,50.26604]}},
{"type":"Feature","properties":{"id":"F-deer-backcountry-0005-camp","kind":"Backcountry camp","name":"Camp for 250 m NW of Klookuh Creek","campsites":null,"water":"Klookuh Creek right here","elev":1512,"spotIds":["F-deer-backcountry-0005"],"note":"Flat ground near water from the data (estimate). Scout it first."},"geometry":{"type":"Point","coordinates":[-115.17913,50.26819]}},
{"type":"Feature","properties":{"id":"F-deer-backcountry-0006-camp","kind":"Backcountry camp","name":"Camp for 1.5 km E of North White River","campsites":null,"water":"North White River 160 m SW","elev":1414,"spotIds":["F-deer-backcountry-0006"],"note":"Flat ground near water from the data (estimate). Scout it first."},"geometry":{"type":"Point","coordinates":[-115.28052,50.29542]}},
{"type":"Feature","properties":{"id":"F-deer-backcountry-0007-camp","kind":"Backcountry camp","name":"Camp for By Seeta Creek","campsites":null,"water":"White River 390 m SE","elev":1500,"spotIds":["F-deer-backcountry-0007"],"note":"Flat ground near water from the data (estimate). Scout it first."},"geometry":{"type":"Point","coordinates":[-115.20871,50.35203]}},
{"type":"Feature","properties":{"id":"F-deer-backcountry-0008-camp","kind":"Backcountry camp","name":"Camp for 700 m NE of Alexander Creek","campsites":null,"water":"Alexander Creek 250 m NW","elev":1486,"spotIds":["F-deer-backcountry-0008"],"note":"Flat ground near water from the data (estimate). Scout it first."},"geometry":{"type":"Point","coordinates":[-114.71174,49.74204]}},
{"type":"Feature","properties":{"id":"F-deer-backcountry-0009-camp","kind":"Backcountry camp","name":"Camp for 560 m N of Akanko Creek","campsites":null,"water":"Akanko Creek 210 m E","elev":2319,"spotIds":["F-deer-backcountry-0009"],"note":"Flat ground near water from the data (estimate). Scout it first."},"geometry":{"type":"Point","coordinates":[-115.24294,50.28629]}},
{"type":"Feature","properties":{"id":"F-deer-backcountry-0010-camp","kind":"Backcountry camp","name":"Camp for By Blackfoot Creek","campsites":null,"water":"Blackfoot Creek 60 m N","elev":1421,"spotIds":["F-deer-backcountry-0010"],"note":"Flat ground near water from the data (estimate). Scout it first."},"geometry":{"type":"Point","coordinates":[-115.3535,50.07707]}},
{"type":"Feature","properties":{"id":"F-deer-backcountry-0011-camp","kind":"Backcountry camp","name":"Camp for 210 m N of Nukpook Creek","campsites":null,"water":"North Galbraith Creek 40 m NW","elev":1297,"spotIds":["F-deer-backcountry-0011"],"note":"Flat ground near water from the data (estimate). Scout it first."},"geometry":{"type":"Point","coordinates":[-115.27986,49.77972]}},
{"type":"Feature","properties":{"id":"F-duck-backcountry-0001-camp","kind":"Backcountry camp","name":"Camp for Unnamed wetland 170 m N of Flathead River","campsites":null,"water":"unnamed wetland 150 m S","elev":1596,"spotIds":["F-duck-backcountry-0001"],"note":"Flat ground near water from the data (estimate). Scout it first."},"geometry":{"type":"Point","coordinates":[-114.8066,49.38478]}},
{"type":"Feature","properties":{"id":"F-duck-backcountry-0002-camp","kind":"Backcountry camp","name":"Camp for Unnamed wetland by Flathead River","campsites":null,"water":"Flathead River 190 m E","elev":1600,"spotIds":["F-duck-backcountry-0002"],"note":"Flat ground near water from the data (estimate). Scout it first."},"geometry":{"type":"Point","coordinates":[-114.79622,49.38734]}},
{"type":"Feature","properties":{"id":"F-duck-backcountry-0003-camp","kind":"Backcountry camp","name":"Camp for Unnamed wetland by Flathead River","campsites":null,"water":"unnamed wetland 40 m N","elev":1568,"spotIds":["F-duck-backcountry-0003"],"note":"Flat ground near water from the data (estimate). Scout it first."},"geometry":{"type":"Point","coordinates":[-114.77725,49.39083]}},
{"type":"Feature","properties":{"id":"F-duck-backcountry-0004-camp","kind":"Backcountry camp","name":"Camp for Unnamed wetland 240 m E of Wigwam River","campsites":null,"water":"Wigwam River 130 m W","elev":1199,"spotIds":["F-duck-backcountry-0004"],"note":"Flat ground near water from the data (estimate). Scout it first."},"geometry":{"type":"Point","coordinates":[-114.8923,49.1112]}},
{"type":"Feature","properties":{"id":"F-duck-backcountry-0005-camp","kind":"Backcountry camp","name":"Camp for Unnamed wetland by McEvoy Creek","campsites":null,"water":"McEvoy Creek 120 m NW","elev":1550,"spotIds":["F-duck-backcountry-0005"],"note":"Flat ground near water from the data (estimate). Scout it first."},"geometry":{"type":"Point","coordinates":[-114.74126,49.38979]}},
{"type":"Feature","properties":{"id":"F-duck-backcountry-0006-camp","kind":"Backcountry camp","name":"Camp for Unnamed wetland 170 m NE of Wigwam River","campsites":null,"water":"unnamed wetland right here","elev":1191,"spotIds":["F-duck-backcountry-0006"],"note":"Flat ground near water from the data (estimate). Scout it first."},"geometry":{"type":"Point","coordinates":[-114.89827,49.12094]}},
{"type":"Feature","properties":{"id":"F-elk-backcountry-0001-camp","kind":"Backcountry camp","name":"Camp for 480 m E of Bull River","campsites":null,"water":"Bull River 270 m W","elev":1416,"spotIds":["F-elk-backcountry-0001"],"note":"Flat ground near water from the data (estimate). Scout it first."},"geometry":{"type":"Point","coordinates":[-115.14193,49.96344]}},
{"type":"Feature","properties":{"id":"F-moose-backcountry-0001-camp","kind":"Backcountry camp","name":"Camp for 260 m W of Bull River","campsites":null,"water":"unnamed wetland 20 m W","elev":1367,"spotIds":["F-moose-backcountry-0001"],"note":"Flat ground near water from the data (estimate). Scout it first."},"geometry":{"type":"Point","coordinates":[-115.15466,49.9456]}},
{"type":"Feature","properties":{"id":"F-moose-backcountry-0002-camp","kind":"Backcountry camp","name":"Camp for 350 m W of Alexander Creek","campsites":null,"water":"unnamed wetland 120 m W","elev":1454,"spotIds":["F-moose-backcountry-0002"],"note":"Flat ground near water from the data (estimate). Scout it first."},"geometry":{"type":"Point","coordinates":[-114.7146,49.7305]}},
{"type":"Feature","properties":{"id":"F-moose-backcountry-0003-camp","kind":"Backcountry camp","name":"Camp for 500 m W of Wigwam River","campsites":null,"water":"Wigwam River 310 m SE","elev":1018,"spotIds":["F-moose-backcountry-0003"],"note":"Flat ground near water from the data (estimate). Scout it first."},"geometry":{"type":"Point","coordinates":[-115.03065,49.25761]}},
{"type":"Feature","properties":{"id":"F-moose-backcountry-0004-camp","kind":"Backcountry camp","name":"Camp for 1.6 km W of Bull River","campsites":null,"water":"unnamed wetland 50 m W","elev":1938,"spotIds":["F-moose-backcountry-0004"],"note":"Flat ground near water from the data (estimate). Scout it first."},"geometry":{"type":"Point","coordinates":[-115.16693,49.97685]}},
{"type":"Feature","properties":{"id":"F-moose-backcountry-0005-camp","kind":"Backcountry camp","name":"Camp for 1.3 km N of Brûlé Creek","campsites":null,"water":"unnamed wetland 240 m S","elev":1743,"spotIds":["F-moose-backcountry-0005"],"note":"Flat ground near water from the data (estimate). Scout it first."},"geometry":{"type":"Point","coordinates":[-115.07971,49.92901]}},
{"type":"Feature","properties":{"id":"F-moose-backcountry-0006-camp","kind":"Backcountry camp","name":"Camp for 1.1 km E of Sawtooth Peak","campsites":null,"water":"unnamed wetland 20 m N","elev":2080,"spotIds":["F-moose-backcountry-0006"],"note":"Flat ground near water from the data (estimate). Scout it first."},"geometry":{"type":"Point","coordinates":[-116.20416,49.83252]}},
{"type":"Feature","properties":{"id":"F-moose-backcountry-0007-camp","kind":"Backcountry camp","name":"Camp for 200 m E of Wigwam River","campsites":null,"water":"Wigwam River 130 m W","elev":1199,"spotIds":["F-moose-backcountry-0007"],"note":"Flat ground near water from the data (estimate). Scout it first."},"geometry":{"type":"Point","coordinates":[-114.8923,49.1112]}},
{"type":"Feature","properties":{"id":"F-moose-backcountry-0008-camp","kind":"Backcountry camp","name":"Camp for 1.6 km W of Skookumchuck Mountain","campsites":null,"water":"unnamed wetland 260 m NE","elev":2090,"spotIds":["F-moose-backcountry-0008"],"note":"Flat ground near water from the data (estimate). Scout it first."},"geometry":{"type":"Point","coordinates":[-116.2463,49.84539]}},
{"type":"Feature","properties":{"id":"F-moose-backcountry-0009-camp","kind":"Backcountry camp","name":"Camp for 6.7 km N of Skookumchuck Creek rec site","campsites":null,"water":"unnamed wetland 330 m S","elev":2057,"spotIds":["F-moose-backcountry-0009"],"note":"Flat ground near water from the data (estimate). Scout it first."},"geometry":{"type":"Point","coordinates":[-116.02364,50.02225]}},
{"type":"Feature","properties":{"id":"F-moose-backcountry-0010-camp","kind":"Backcountry camp","name":"Camp for 1.8 km S of Gass, Mount","campsites":null,"water":"unnamed wetland 60 m E","elev":2217,"spotIds":["F-moose-backcountry-0010"],"note":"Flat ground near water from the data (estimate). Scout it first."},"geometry":{"type":"Point","coordinates":[-114.72741,50.10976]}},
{"type":"Feature","properties":{"id":"F-moose-backcountry-0011-camp","kind":"Backcountry camp","name":"Camp for 490 m W of Albert River","campsites":null,"water":"Albert River 120 m SW","elev":1179,"spotIds":["F-moose-backcountry-0011"],"note":"Flat ground near water from the data (estimate). Scout it first."},"geometry":{"type":"Point","coordinates":[-115.5534,50.59969]}},
{"type":"Feature","properties":{"id":"F-moose-backcountry-0012-camp","kind":"Backcountry camp","name":"Camp for 750 m W of Seeta Creek","campsites":null,"water":"Seeta Creek 180 m SW","elev":1521,"spotIds":["F-moose-backcountry-0012"],"note":"Flat ground near water from the data (estimate). Scout it first."},"geometry":{"type":"Point","coordinates":[-115.22003,50.34041]}},
{"type":"Feature","properties":{"id":"F-moose-backcountry-0013-camp","kind":"Backcountry camp","name":"Camp for 150 m SW of Fenwick Creek","campsites":null,"water":"Fenwick Creek right here","elev":1264,"spotIds":["F-moose-backcountry-0013"],"note":"Flat ground near water from the data (estimate). Scout it first."},"geometry":{"type":"Point","coordinates":[-115.52734,50.46097]}},
{"type":"Feature","properties":{"id":"F-moose-backcountry-0014-camp","kind":"Backcountry camp","name":"Camp for 520 m N of Nipakoo Creek","campsites":null,"water":"Nipakoo Creek right here","elev":1495,"spotIds":["F-moose-backcountry-0014"],"note":"Flat ground near water from the data (estimate). Scout it first."},"geometry":{"type":"Point","coordinates":[-115.31027,50.32559]}},
{"type":"Feature","properties":{"id":"F-moose-backcountry-0016-camp","kind":"Backcountry camp","name":"Camp for By Kametlin Creek","campsites":null,"water":"Kametlin Creek 20 m N","elev":1501,"spotIds":["F-moose-backcountry-0016"],"note":"Flat ground near water from the data (estimate). Scout it first."},"geometry":{"type":"Point","coordinates":[-115.30616,50.30701]}},
{"type":"Feature","properties":{"id":"F-moose-backcountry-0017-camp","kind":"Backcountry camp","name":"Camp for By Forsyth Creek","campsites":null,"water":"Forsyth Creek 20 m N","elev":1536,"spotIds":["F-moose-backcountry-0017"],"note":"Flat ground near water from the data (estimate). Scout it first."},"geometry":{"type":"Point","coordinates":[-115.01421,50.26907]}},
{"type":"Feature","properties":{"id":"F-moose-backcountry-0018-camp","kind":"Backcountry camp","name":"Camp for By Klookuh Creek","campsites":null,"water":"Klookuh Creek right here","elev":1437,"spotIds":["F-moose-backcountry-0018"],"note":"Flat ground near water from the data (estimate). Scout it first."},"geometry":{"type":"Point","coordinates":[-115.19012,50.26382]}},
{"type":"Feature","properties":{"id":"F-moose-backcountry-0021-camp","kind":"Backcountry camp","name":"Camp for 590 m NE of Ewin Creek","campsites":null,"water":"Ewin Creek 150 m W","elev":1683,"spotIds":["F-moose-backcountry-0021"],"note":"Flat ground near water from the data (estimate). Scout it first."},"geometry":{"type":"Point","coordinates":[-114.74026,50.03552]}},
{"type":"Feature","properties":{"id":"F-moose-backcountry-0022-camp","kind":"Backcountry camp","name":"Camp for 710 m E of Blackfoot Creek","campsites":null,"water":"Blackfoot Creek 40 m W","elev":1581,"spotIds":["F-moose-backcountry-0022"],"note":"Flat ground near water from the data (estimate). Scout it first."},"geometry":{"type":"Point","coordinates":[-115.32508,50.01792]}},
{"type":"Feature","properties":{"id":"F-moose-backcountry-0023-camp","kind":"Backcountry camp","name":"Camp for 1.3 km E of Quinn (Queen) Creek","campsites":null,"water":"unnamed lake 130 m E","elev":1680,"spotIds":["F-moose-backcountry-0023"],"note":"Flat ground near water from the data (estimate). Scout it first."},"geometry":{"type":"Point","coordinates":[-115.28871,49.92705]}},
{"type":"Feature","properties":{"id":"F-moose-backcountry-0024-camp","kind":"Backcountry camp","name":"Camp for By Goat Creek","campsites":null,"water":"Goat Creek 30 m N","elev":1721,"spotIds":["F-moose-backcountry-0024"],"note":"Flat ground near water from the data (estimate). Scout it first."},"geometry":{"type":"Point","coordinates":[-115.33508,49.89158]}},
{"type":"Feature","properties":{"id":"F-moose-backcountry-0025-camp","kind":"Backcountry camp","name":"Camp for 310 m W of Alexander Creek","campsites":null,"water":"Alexander Creek 110 m E","elev":1500,"spotIds":["F-moose-backcountry-0025"],"note":"Flat ground near water from the data (estimate). Scout it first."},"geometry":{"type":"Point","coordinates":[-114.71922,49.76286]}},
{"type":"Feature","properties":{"id":"F-moose-backcountry-0026-camp","kind":"Backcountry camp","name":"Camp for 1.5 km SE of Lodgepole Creek","campsites":null,"water":"Wigwam River 190 m E","elev":962,"spotIds":["F-moose-backcountry-0026"],"note":"Flat ground near water from the data (estimate). Scout it first."},"geometry":{"type":"Point","coordinates":[-114.96208,49.25967]}},
{"type":"Feature","properties":{"id":"F-moose-backcountry-0027-camp","kind":"Backcountry camp","name":"Camp for 940 m SE of Wigwam River","campsites":null,"water":"Wigwam River 130 m E","elev":1032,"spotIds":["F-moose-backcountry-0027"],"note":"Flat ground near water from the data (estimate). Scout it first."},"geometry":{"type":"Point","coordinates":[-114.94808,49.24274]}},
{"type":"Feature","properties":{"id":"F-moose-backcountry-0028-camp","kind":"Backcountry camp","name":"Camp for 920 m E of Buhl Creek","campsites":null,"water":"Buhl Creek 30 m W","elev":1534,"spotIds":["F-moose-backcountry-0028"],"note":"Flat ground near water from the data (estimate). Scout it first."},"geometry":{"type":"Point","coordinates":[-116.08952,49.87571]}},
{"type":"Feature","properties":{"id":"F-moose-backcountry-0029-camp","kind":"Backcountry camp","name":"Camp for 920 m E of Middle Findlay Creek","campsites":null,"water":"unnamed wetland 180 m S","elev":2312,"spotIds":["F-moose-backcountry-0029"],"note":"Flat ground near water from the data (estimate). Scout it first."},"geometry":{"type":"Point","coordinates":[-116.26299,50.01662]}},
{"type":"Feature","properties":{"id":"F-moose-backcountry-0030-camp","kind":"Backcountry camp","name":"Camp for 470 m NE of Baribeau Creek","campsites":null,"water":"Baribeau Creek 110 m S","elev":1481,"spotIds":["F-moose-backcountry-0030"],"note":"Flat ground near water from the data (estimate). Scout it first."},"geometry":{"type":"Point","coordinates":[-116.59105,49.67069]}},
{"type":"Feature","properties":{"id":"F-moose-backcountry-0031-camp","kind":"Backcountry camp","name":"Camp for 1.6 km E of Elk Creek","campsites":null,"water":"Elk Creek 200 m NW","elev":1362,"spotIds":["F-moose-backcountry-0031"],"note":"Flat ground near water from the data (estimate). Scout it first."},"geometry":{"type":"Point","coordinates":[-115.3855,50.28381]}},
{"type":"Feature","properties":{"id":"F-moose-backcountry-0032-camp","kind":"Backcountry camp","name":"Camp for By Flathead River","campsites":null,"water":"unnamed wetland 80 m SW","elev":1552,"spotIds":["F-moose-backcountry-0032"],"note":"Flat ground near water from the data (estimate). Scout it first."},"geometry":{"type":"Point","coordinates":[-114.74332,49.39274]}},
{"type":"Feature","properties":{"id":"F-moose-backcountry-0033-camp","kind":"Backcountry camp","name":"Camp for 150 m N of Flathead River","campsites":null,"water":"Flathead River 40 m NW","elev":1570,"spotIds":["F-moose-backcountry-0033"],"note":"Flat ground near water from the data (estimate). Scout it first."},"geometry":{"type":"Point","coordinates":[-114.78263,49.38592]}},
{"type":"Feature","properties":{"id":"F-turkey-backcountry-0001-camp","kind":"Backcountry camp","name":"Camp for 870 m NW of Wigwam River","campsites":null,"water":"unnamed wetland 280 m SW","elev":1086,"spotIds":["F-turkey-backcountry-0001"],"note":"Flat ground near water from the data (estimate). Scout it first."},"geometry":{"type":"Point","coordinates":[-115.04273,49.26522]}}
]}
