{"type":"FeatureCollection","features":[
{"type":"Feature","properties":{"spotId":"A-camp-camp-0026","kind":"walk","km":0.08,"climbM":0,"name":"150 m W of Skimikin Creek","flags":[]},"geometry":{"type":"LineString","coordinates":[[-119.49047,50.77967],[-119.49101,50.77902]]}},
{"type":"Feature","properties":{"spotId":"A-camp-camp-0029","kind":"walk","km":0.17,"climbM":0,"name":"By Scotch Creek","flags":[]},"geometry":{"type":"LineString","coordinates":[[-119.46115,50.96974],[-119.45875,50.97015]]}},
{"type":"Feature","properties":{"spotId":"A-deer-atv-0036","kind":"ride","km":2.7,"climbM":382,"name":"720 m E of Scotch Creek","flags":["Route crosses private land (ParcelMap BC, updated 2026-09-25): get permission first or go around."]},"geometry":{"type":"LineString","coordinates":[[-119.42275,50.97618],[-119.42281,50.97613],[-119.42289,50.97604],[-119.42291,50.97598],[-119.42295,50.97591],[-119.423,50.97578],[-119.42301,50.9757],[-119.42301,50.97561],[-119.42302,50.97552],[-119.423,50.97544],[-119.42299,50.97535],[-119.42296,50.97519],[-119.42295,50.97516],[-119.42294,50.97512],[-119.42293,50.97506],[-119.42292,50.975],[-119.42296,50.97491],[-119.42305,50.97482],[-119.42319,50.97475],[-119.42327,50.97471],[-119.42341,50.97465],[-119.42352,50.9746],[-119.42356,50.97453],[-119.42355,50.97439],[-119.42359,50.9742],[-119.42358,50.97413],[-119.42359,50.97406],[-119.42358,50.97385],[-119.42357,50.97379],[-119.42351,50.97372],[-119.42339,50.97362],[-119.4234,50.97355],[-119.4235,50.97353],[-119.42374,50.9735],[-119.42413,50.97349],[-119.42423,50.97348],[-119.42433,50.97349],[-119.42442,50.97351],[-119.42462,50.97358],[-119.42474,50.97362],[-119.42484,50.97363],[-119.42494,50.97364],[-119.42506,50.97366],[-119.42517,50.97366],[-119.42528,50.97369],[-119.42539,50.97373],[-119.42549,50.97379],[-119.42569,50.97389],[-119.4258,50.97394],[-119.4259,50.97401],[-119.42596,50.97401],[-119.42607,50.974],[-119.42618,50.974],[-119.4263,50.97399],[-119.42638,50.97396],[-119.42648,50.97392],[-119.42662,50.97381],[-119.42667,50.97374],[-119.42671,50.97367],[-119.42675,50.97359],[-119.42676,50.97353],[-119.42674,50.97345],[-119.42672,50.97337],[-119.42666,50.97329],[-119.42659,50.97322],[-119.4265,50.97315],[-119.42644,50.97309],[-119.42637,50.97301],[-119.42637,50.97294],[-119.4264,50.97286],[-119.42641,50.97278],[-119.42643,50.9727],[-119.42645,50.9726],[-119.42646,50.97249],[-119.42647,50.97239],[-119.42647,50.97229],[-119.42646,50.97219],[-119.42646,50.97211],[-119.42647,50.97203],[-119.42643,50.97196],[-119.4264,50.97189],[-119.42638,50.97181],[-119.42637,50.97175],[-119.42636,50.97169],[-119.4264,50.97162],[-119.42654,50.97154],[-119.42662,50.97148],[-119.42671,50.97144],[-119.42676,50.97137],[-119.42681,50.97131],[-119.42687,50.97124],[-119.42693,50.97117],[-119.42699,50.9711],[-119.42703,50.97103],[-119.42708,50.97095],[-119.42712,50.97087],[-119.42716,50.97078],[-119.42718,50.97071],[-119.42719,50.97064],[-119.4272,50.97058],[-119.4272,50.97051],[-119.42717,50.97043],[-119.42715,50.97033],[-119.42717,50.97026],[-119.42733,50.97024],[-119.42741,50.97026],[-119.4275,50.97028],[-119.42766,50.97035],[-119.42775,50.97037],[-119.42785,50.97038],[-119.42796,50.97038],[-119.42809,50.97036],[-119.4282,50.97036],[-119.42832,50.97039],[-119.42843,50.97041],[-119.42853,50.97045],[-119.42864,50.97049],[-119.42878,50.97055],[-119.42888,50.97057],[-119.42897,50.9706],[-119.42907,50.97062],[-119.42916,50.97062],[-119.42924,50.9706],[-119.42933,50.9706],[-119.42941,50.97061],[-119.42953,50.97071],[-119.42964,50.97079],[-119.42978,50.97082],[-119.42991,50.97088],[-119.43006,50.97094],[-119.43016,50.97096],[-119.43024,50.97095],[-119.43036,50.97095],[-119.43046,50.97095],[-119.43056,50.97095],[-119.43067,50.97095],[-119.43078,50.97095],[-119.43088,50.97094],[-119.43097,50.97094],[-119.43111,50.97094],[-119.43127,50.97094],[-119.43137,50.97092],[-119.43145,50.97091],[-119.43153,50.97089],[-119.43163,50.97084],[-119.43174,50.97077],[-119.43185,50.97073],[-119.43198,50.97069],[-119.43206,50.97067],[-119.43215,50.97065],[-119.43223,50.97062],[-119.43236,50.9706],[-119.43247,50.97059],[-119.43257,50.97059],[-119.4326,50.9706],[-119.43269,50.97062],[-119.43282,50.97064],[-119.43292,50.97067],[-119.43306,50.97071],[-119.43321,50.97075],[-119.43328,50.97082],[-119.43339,50.9709],[-119.43355,50.97097],[-119.43374,50.97106],[-119.43383,50.97112],[-119.43391,50.97117],[-119.43394,50.97118],[-119.43394,50.97114],[-119.43395,50.97103],[-119.43392,50.97096],[-119.43387,50.97088],[-119.43375,50.97074],[-119.4337,50.97068],[-119.43366,50.97063],[-119.43348,50.97048],[-119.43342,50.9704],[-119.43333,50.97034],[-119.43325,50.97026],[-119.43319,50.97019],[-119.43307,50.97003],[-119.433,50.96996],[-119.43291,50.96989],[-119.43282,50.96983],[-119.43274,50.96976],[-119.43249,50.96959],[-119.43243,50.96954],[-119.43237,50.96946],[-119.43245,50.96939],[-119.43257,50.96938],[-119.4327,50.96939],[-119.4328,50.96941],[-119.43303,50.9695],[-119.43316,50.96954],[-119.43342,50.9696],[-119.43358,50.96962],[-119.43373,50.96963],[-119.43389,50.96964],[-119.43409,50.96966],[-119.43416,50.96968],[-119.43442,50.96969],[-119.43472,50.96969],[-119.43489,50.96966],[-119.43504,50.96963],[-119.43517,50.9696],[-119.43533,50.96956],[-119.43547,50.96952],[-119.43562,50.96949],[-119.43578,50.96945],[-119.43594,50.96942],[-119.4361,50.96938],[-119.43621,50.96936],[-119.43634,50.96933],[-119.43647,50.96931],[-119.43659,50.96927],[-119.43673,50.96924],[-119.43713,50.96911],[-119.43721,50.96907],[-119.43726,50.96901],[-119.43727,50.96894],[-119.43727,50.9688],[-119.4372,50.96864],[-119.43721,50.96858],[-119.43732,50.96851],[-119.43742,50.96848],[-119.43753,50.96847],[-119.43765,50.96846],[-119.43778,50.96847],[-119.43789,50.9685],[-119.43802,50.96851],[-119.43815,50.96852],[-119.43823,50.96851],[-119.43838,50.9685],[-119.43854,50.96841],[-119.43862,50.96834],[-119.43871,50.96828],[-119.43879,50.9682],[-119.43887,50.96811],[-119.43892,50.96803],[-119.43897,50.96795],[-119.43905,50.96788],[-119.43914,50.9678],[-119.43926,50.96772],[-119.43937,50.96765],[-119.4395,50.96759],[-119.43962,50.96753],[-119.43973,50.96749],[-119.43984,50.96744],[-119.43996,50.96739],[-119.44005,50.96735],[-119.44016,50.96731],[-119.44029,50.96725],[-119.44043,50.96718],[-119.44055,50.96712],[-119.44076,50.96702],[-119.44079,50.96701],[-119.44093,50.96697],[-119.44107,50.96694],[-119.44121,50.9669],[-119.44137,50.96685],[-119.44152,50.96679],[-119.44167,50.96673],[-119.44177,50.96663],[-119.44185,50.96657],[-119.44195,50.9665],[-119.44204,50.96646],[-119.44215,50.9664],[-119.44224,50.96634],[-119.44232,50.96627],[-119.44239,50.9662],[-119.44247,50.96614],[-119.44256,50.96609],[-119.44266,50.96604],[-119.44277,50.966],[-119.44287,50.96596],[-119.44295,50.96591]]}},
{"type":"Feature","properties":{"spotId":"A-deer-atv-0036","kind":"walk","km":0.3,"climbM":0,"name":"720 m E of Scotch Creek","flags":["Route crosses private land (ParcelMap BC, updated 2026-09-25): get permission first or go around."]},"geometry":{"type":"LineString","coordinates":[[-119.44295,50.96591],[-119.44624,50.96761]]}},
{"type":"Feature","properties":{"spotId":"A-deer-atv-0069","kind":"ride","km":1.08,"climbM":36,"name":"570 m E of Scotch Creek","flags":[]},"geometry":{"type":"LineString","coordinates":[[-119.44988,50.94104],[-119.44982,50.94126],[-119.44971,50.9414],[-119.44953,50.94143],[-119.44934,50.94135],[-119.44902,50.94119],[-119.44867,50.94105],[-119.44874,50.94126],[-119.44884,50.94147],[-119.44916,50.94181],[-119.44957,50.94219],[-119.44964,50.94243],[-119.44983,50.9428],[-119.44992,50.94305],[-119.44997,50.94322],[-119.45028,50.94367],[-119.45038,50.94391],[-119.45044,50.94411],[-119.45082,50.94456],[-119.45102,50.94484],[-119.45073,50.94514],[-119.45036,50.94538],[-119.4499,50.9456],[-119.44979,50.94562],[-119.44917,50.94563],[-119.4486,50.9457],[-119.44806,50.94587],[-119.44767,50.94613],[-119.44723,50.94643],[-119.44692,50.94668],[-119.44663,50.94704],[-119.44644,50.94725],[-119.44609,50.94753],[-119.44601,50.94758]]}},
{"type":"Feature","properties":{"spotId":"A-deer-atv-0069","kind":"walk","km":0.22,"climbM":0,"name":"570 m E of Scotch Creek","flags":[]},"geometry":{"type":"LineString","coordinates":[[-119.44988,50.94104],[-119.45303,50.94095]]}},
{"type":"Feature","properties":{"spotId":"A-deer-atv-0079","kind":"ride","km":1.74,"climbM":122,"name":"550 m S of Hilliam, Mount","flags":[]},"geometry":{"type":"LineString","coordinates":[[-119.47214,50.80932],[-119.47204,50.80941],[-119.47179,50.80948],[-119.47157,50.80954],[-119.47127,50.80959],[-119.47101,50.80961],[-119.47075,50.80961],[-119.47062,50.80958],[-119.47049,50.80957],[-119.47037,50.80955],[-119.47027,50.80951],[-119.47014,50.80949],[-119.47003,50.80946],[-119.46991,50.80944],[-119.46973,50.80944],[-119.4697,50.80943],[-119.46919,50.80927],[-119.46911,50.80924],[-119.46899,50.80923],[-119.46889,50.80922],[-119.46877,50.80928],[-119.46872,50.80933],[-119.46862,50.80938],[-119.46851,50.8094],[-119.46836,50.80939],[-119.46822,50.8094],[-119.46811,50.80941],[-119.46801,50.80941],[-119.46787,50.80941],[-119.46776,50.80942],[-119.46767,50.80942],[-119.46753,50.80944],[-119.46737,50.80946],[-119.4672,50.80945],[-119.46707,50.80942],[-119.46694,50.80939],[-119.46681,50.80936],[-119.46669,50.80936],[-119.46655,50.80936],[-119.46637,50.80936],[-119.46619,50.80938],[-119.46602,50.80941],[-119.46585,50.80944],[-119.46571,50.80947],[-119.46557,50.8095],[-119.46543,50.80956],[-119.46531,50.80963],[-119.46519,50.80968],[-119.46506,50.80974],[-119.46494,50.8098],[-119.4648,50.80985],[-119.46469,50.8099],[-119.46458,50.80996],[-119.46444,50.81003],[-119.46435,50.81009],[-119.46421,50.81006],[-119.46409,50.80999],[-119.46398,50.80992],[-119.46387,50.80986],[-119.46376,50.80977],[-119.46367,50.80972],[-119.46358,50.80967],[-119.46346,50.80963],[-119.46335,50.80961],[-119.46322,50.80962],[-119.46308,50.80964],[-119.4629,50.80965],[-119.46274,50.80965],[-119.46258,50.80962],[-119.46244,50.80963],[-119.4623,50.80966],[-119.46215,50.80969],[-119.46196,50.80971],[-119.46175,50.80972],[-119.46162,50.80973],[-119.46154,50.80973],[-119.46136,50.80974],[-119.46118,50.80973],[-119.46101,50.80974],[-119.46083,50.80973],[-119.46064,50.80973],[-119.46047,50.80972],[-119.46028,50.80972],[-119.4598,50.80957],[-119.45966,50.80957],[-119.45954,50.80957],[-119.4594,50.80956],[-119.45926,50.80957],[-119.45909,50.80956],[-119.45893,50.80956],[-119.45873,50.80956],[-119.45853,50.80955],[-119.45835,50.80956],[-119.45817,50.80955],[-119.45798,50.80956],[-119.4578,50.80955],[-119.45771,50.80955],[-119.4576,50.80956],[-119.4574,50.80955],[-119.45723,50.80956],[-119.45707,50.80957],[-119.45692,50.80957],[-119.45676,50.80957],[-119.45661,50.80959],[-119.45646,50.8096],[-119.45632,50.80962],[-119.45618,50.80964],[-119.45607,50.80968],[-119.45593,50.80971],[-119.45578,50.80974],[-119.45561,50.80976],[-119.45545,50.80977],[-119.4553,50.80978],[-119.45515,50.80979],[-119.45501,50.8098],[-119.45489,50.80982],[-119.45476,50.80984],[-119.45465,50.80986],[-119.45452,50.80986],[-119.45439,50.80984],[-119.45428,50.80984],[-119.45416,50.80986],[-119.45402,50.80988],[-119.4539,50.8099],[-119.45381,50.80991],[-119.4537,50.80991],[-119.45357,50.80991],[-119.45343,50.80992],[-119.4533,50.80993],[-119.45316,50.80996],[-119.45302,50.81003],[-119.45297,50.81009],[-119.45285,50.81018],[-119.45268,50.8102],[-119.45258,50.8102],[-119.45248,50.81022],[-119.45238,50.81026],[-119.45229,50.81031],[-119.45219,50.81036],[-119.45209,50.8104],[-119.45196,50.81041],[-119.45182,50.81043],[-119.45168,50.81047],[-119.45156,50.81051],[-119.45143,50.81054],[-119.45135,50.81059],[-119.45127,50.81064],[-119.4512,50.8107],[-119.45112,50.81076],[-119.45103,50.8108],[-119.45094,50.81084],[-119.4508,50.81086],[-119.45065,50.81087],[-119.4505,50.81088],[-119.45037,50.8109],[-119.45023,50.81093],[-119.45009,50.81095],[-119.44993,50.81096],[-119.44979,50.81097],[-119.44964,50.81097],[-119.4495,50.81099],[-119.44937,50.811],[-119.44927,50.811],[-119.44916,50.81099],[-119.44909,50.81099]]}},
{"type":"Feature","properties":{"spotId":"A-deer-atv-0079","kind":"walk","km":0.22,"climbM":0,"name":"550 m S of Hilliam, Mount","flags":[]},"geometry":{"type":"LineString","coordinates":[[-119.44909,50.81099],[-119.44659,50.8098]]}},
{"type":"Feature","properties":{"spotId":"A-deer-drive-0024","kind":"walk","km":0.06,"climbM":16,"name":"1.0 km E of Scotch Creek","flags":[]},"geometry":{"type":"LineString","coordinates":[[-119.44241,50.94899],[-119.44178,50.94931]]}},
{"type":"Feature","properties":{"spotId":"A-deer-drive-0045","kind":"walk","km":0.25,"climbM":104,"name":"1.7 km NW of Shuswap Lake","flags":[]},"geometry":{"type":"LineString","coordinates":[[-119.41687,50.94705],[-119.41896,50.94886]]}},
{"type":"Feature","properties":{"spotId":"A-deer-drive-0061","kind":"walk","km":0.1,"climbM":22,"name":"1.3 km SE of Black Mountain","flags":[]},"geometry":{"type":"LineString","coordinates":[[-119.47065,50.80773],[-119.46969,50.80834]]}},
{"type":"Feature","properties":{"spotId":"A-deer-drive-0083","kind":"walk","km":0.1,"climbM":0,"name":"By Skimikin Creek","flags":[]},"geometry":{"type":"LineString","coordinates":[[-119.47243,50.78433],[-119.47203,50.78345]]}},
{"type":"Feature","properties":{"spotId":"A-deer-walk-0054","kind":"walk","km":1.76,"climbM":809,"name":"1.2 km W of Riley, Mount","flags":["Route crosses private land (ParcelMap BC, updated 2026-09-25): get permission first or go around."]},"geometry":{"type":"LineString","coordinates":[[-119.42931,50.97966],[-119.41205,50.99117]]}},
{"type":"Feature","properties":{"spotId":"A-deer-walk-0061","kind":"walk","km":0.37,"climbM":62,"name":"180 m E of Scotch Creek","flags":[]},"geometry":{"type":"LineString","coordinates":[[-119.45834,50.95984],[-119.4531,50.9599]]}},
{"type":"Feature","properties":{"spotId":"A-deer-walk-0070","kind":"walk","km":1.32,"climbM":118,"name":"1.4 km SE of Hilliam, Mount","flags":[]},"geometry":{"type":"LineString","coordinates":[[-119.41326,50.8114],[-119.43111,50.80768]]}},
{"type":"Feature","properties":{"spotId":"A-deer-walk-0071","kind":"walk","km":0.34,"climbM":61,"name":"470 m NE of Dondaneau Creek","flags":[]},"geometry":{"type":"LineString","coordinates":[[-119.4045,50.81699],[-119.39992,50.81604]]}},
{"type":"Feature","properties":{"spotId":"A-deer-walk-0073","kind":"walk","km":0.91,"climbM":23,"name":"740 m NW of Shuswap Lake","flags":[]},"geometry":{"type":"LineString","coordinates":[[-119.41148,50.94097],[-119.4113,50.94099],[-119.41117,50.94103],[-119.41107,50.94108],[-119.41098,50.94112],[-119.41089,50.94116],[-119.41075,50.9412],[-119.41064,50.94126],[-119.41056,50.94131],[-119.41046,50.94137],[-119.41034,50.94151],[-119.41029,50.94158],[-119.41017,50.94181],[-119.41015,50.94188],[-119.41011,50.94195],[-119.41,50.94206],[-119.40986,50.9421],[-119.40977,50.94211],[-119.40968,50.94213],[-119.40945,50.94216],[-119.40934,50.94216],[-119.40911,50.9422],[-119.40897,50.94228],[-119.40882,50.94246],[-119.40876,50.94251],[-119.40856,50.94262],[-119.40845,50.94268],[-119.40834,50.94272],[-119.40826,50.94276],[-119.40817,50.9428],[-119.40808,50.94285],[-119.40798,50.94291],[-119.4079,50.94296],[-119.4078,50.94301],[-119.40769,50.94306],[-119.40748,50.94316],[-119.40731,50.94327],[-119.40716,50.94339],[-119.40688,50.94365],[-119.40683,50.94371],[-119.40675,50.94388],[-119.40665,50.94421],[-119.40661,50.9443],[-119.4066,50.94438],[-119.40658,50.94446],[-119.40653,50.94457],[-119.40645,50.94465],[-119.40632,50.94474],[-119.40624,50.94477],[-119.40614,50.94479],[-119.40605,50.94479],[-119.40596,50.94482],[-119.40587,50.94486],[-119.40575,50.94498],[-119.4057,50.94505],[-119.40558,50.94517],[-119.40551,50.94522],[-119.40539,50.94533],[-119.40529,50.94543],[-119.40528,50.94544],[-119.40234,50.94519]]}},
{"type":"Feature","properties":{"spotId":"A-deer-walk-0115","kind":"walk","km":0.72,"climbM":195,"name":"790 m N of Skimikin Creek","flags":["Route crosses private land (ParcelMap BC, updated 2026-09-25): get permission first or go around."]},"geometry":{"type":"LineString","coordinates":[[-119.47257,50.7843],[-119.47543,50.79047]]}},
{"type":"Feature","properties":{"spotId":"A-duck-drive-0065","kind":"walk","km":0.14,"climbM":0,"name":"Unnamed wetland by Skimikin Creek","flags":[]},"geometry":{"type":"LineString","coordinates":[[-119.48412,50.78105],[-119.48356,50.77981]]}},
{"type":"Feature","properties":{"spotId":"A-duck-walk-0146","kind":"walk","km":0.37,"climbM":1,"name":"Unnamed lake by Skimikin Lake","flags":[]},"geometry":{"type":"LineString","coordinates":[[-119.44257,50.78672],[-119.44331,50.78339]]}},
{"type":"Feature","properties":{"spotId":"A-grouse-atv-0049","kind":"walk","km":0.6,"climbM":194,"name":"530 m S of Ruby Creek","flags":[]},"geometry":{"type":"LineString","coordinates":[[-119.46277,50.99898],[-119.47134,50.99954]]}},
{"type":"Feature","properties":{"spotId":"A-grouse-atv-0049","kind":"ride","km":3.45,"climbM":292,"name":"530 m S of Ruby Creek","flags":[]},"geometry":{"type":"LineString","coordinates":[[-119.47134,50.99954],[-119.47107,51.00051],[-119.47076,51.00171],[-119.47074,51.00226],[-119.47083,51.00276],[-119.47057,51.004],[-119.47035,51.00456],[-119.47029,51.00511],[-119.4709,51.00585],[-119.47108,51.00639],[-119.47128,51.00669],[-119.47144,51.00693],[-119.47248,51.00884],[-119.47263,51.0116],[-119.47293,51.01221],[-119.47372,51.01379],[-119.474,51.01413],[-119.47415,51.01472],[-119.47469,51.01554],[-119.47508,51.01586],[-119.47531,51.01587],[-119.4755,51.01575],[-119.47566,51.0155],[-119.47605,51.01424],[-119.47681,51.0132],[-119.4774,51.01259],[-119.47769,51.01241],[-119.47793,51.01236],[-119.47821,51.01255],[-119.47832,51.01273],[-119.4784,51.01287],[-119.47845,51.01302],[-119.47836,51.0134],[-119.47896,51.0145],[-119.47916,51.01512],[-119.47998,51.01601],[-119.48064,51.01643],[-119.48127,51.01676],[-119.48135,51.01682],[-119.48142,51.01688],[-119.48151,51.01695],[-119.48163,51.01705],[-119.4818,51.01718],[-119.48189,51.01728],[-119.48195,51.01733],[-119.48202,51.01743],[-119.48202,51.01744],[-119.48205,51.01746],[-119.4821,51.01753],[-119.48212,51.01756],[-119.48234,51.01772],[-119.48252,51.01783],[-119.48256,51.01787],[-119.48276,51.01789],[-119.48289,51.01788],[-119.48296,51.01789],[-119.48302,51.0179],[-119.48309,51.01797],[-119.48312,51.01801],[-119.48321,51.0181],[-119.48328,51.01826],[-119.4834,51.01838],[-119.48352,51.01849],[-119.48371,51.01863],[-119.48382,51.01868],[-119.48387,51.01871],[-119.48403,51.01877],[-119.48405,51.01878],[-119.48408,51.01881],[-119.48414,51.01884],[-119.48421,51.01889],[-119.48426,51.01895],[-119.48421,51.01912],[-119.48414,51.01915],[-119.48393,51.01925],[-119.48383,51.01928],[-119.48333,51.01949],[-119.48302,51.01958],[-119.48297,51.01961],[-119.4829,51.01964],[-119.48272,51.01971],[-119.48236,51.01976],[-119.48226,51.01978],[-119.48203,51.01989]]}},
{"type":"Feature","properties":{"spotId":"A-grouse-drive-0092","kind":"roadside","km":4.46,"climbM":224,"name":"130 m N of Skimikin Creek","flags":[]},"geometry":{"type":"LineString","coordinates":[[-119.46859,50.78512],[-119.46856,50.78495],[-119.46838,50.78394],[-119.46835,50.78379],[-119.46836,50.78359],[-119.46837,50.78352],[-119.46841,50.78347],[-119.46846,50.7834],[-119.4685,50.78335],[-119.46854,50.7833],[-119.46857,50.78324],[-119.46863,50.78319],[-119.46879,50.78303],[-119.46891,50.7829],[-119.46906,50.78274],[-119.46918,50.78262],[-119.46933,50.7825],[-119.46952,50.78239],[-119.46971,50.78226],[-119.46999,50.78207],[-119.47015,50.78196],[-119.47036,50.78182],[-119.47058,50.78166],[-119.47074,50.78153],[-119.47088,50.78144],[-119.47094,50.7814],[-119.47111,50.7813],[-119.47133,50.78118],[-119.47148,50.78107],[-119.47163,50.78097],[-119.47178,50.78089],[-119.47198,50.78076],[-119.47217,50.78065],[-119.47236,50.78056],[-119.47256,50.78048],[-119.47278,50.78037],[-119.47292,50.78026],[-119.47309,50.78011],[-119.47327,50.77995],[-119.47336,50.77986],[-119.47344,50.77976],[-119.47356,50.77962],[-119.47367,50.77948],[-119.47379,50.77933],[-119.47387,50.77922],[-119.47397,50.77907],[-119.47405,50.77889],[-119.47414,50.77878],[-119.47425,50.77865],[-119.47435,50.7785],[-119.47443,50.77836],[-119.47444,50.77833],[-119.47448,50.77823],[-119.4746,50.77804],[-119.47471,50.7779],[-119.47478,50.77776],[-119.47487,50.7776],[-119.47491,50.77754],[-119.47497,50.77744],[-119.47502,50.77731],[-119.47513,50.77716],[-119.47524,50.77706],[-119.47539,50.77696],[-119.47558,50.7769],[-119.47584,50.77684],[-119.47598,50.77679],[-119.47623,50.77672],[-119.47654,50.77666],[-119.47688,50.77662],[-119.47735,50.77661],[-119.47747,50.77661],[-119.47784,50.77661],[-119.47818,50.77662],[-119.47843,50.77661],[-119.47885,50.77655],[-119.47909,50.77654],[-119.47943,50.77653],[-119.47958,50.77651],[-119.47982,50.77648],[-119.48012,50.77647],[-119.4803,50.77643],[-119.48049,50.77641],[-119.48066,50.7764],[-119.48081,50.77638],[-119.48099,50.77636],[-119.4813,50.77632],[-119.48144,50.77628],[-119.48164,50.77619],[-119.48171,50.77615],[-119.48179,50.77611],[-119.48198,50.77601],[-119.48218,50.7759],[-119.48232,50.77574],[-119.48248,50.77556],[-119.48263,50.77542],[-119.48277,50.77529],[-119.48285,50.77523],[-119.48297,50.77515],[-119.48318,50.77502],[-119.48345,50.77485],[-119.48358,50.77478],[-119.48367,50.77473],[-119.48381,50.77462],[-119.48391,50.77458],[-119.48406,50.77449],[-119.48427,50.77442],[-119.4845,50.77431],[-119.48459,50.77428],[-119.48481,50.77418],[-119.48508,50.77406],[-119.48532,50.77396],[-119.4856,50.77385],[-119.48582,50.77373],[-119.486,50.77363],[-119.48621,50.77352],[-119.48636,50.77343],[-119.48652,50.77331],[-119.48671,50.77317],[-119.48685,50.77305],[-119.48701,50.77286],[-119.48713,50.77275],[-119.48717,50.77265],[-119.48721,50.77243],[-119.48722,50.7723],[-119.48724,50.77218],[-119.48727,50.77201],[-119.48748,50.7719],[-119.48758,50.77187],[-119.48769,50.77184],[-119.48787,50.77181],[-119.48817,50.77177],[-119.48835,50.77173],[-119.48845,50.77171],[-119.48853,50.77169],[-119.4887,50.77166],[-119.48884,50.77164],[-119.48901,50.77161],[-119.48937,50.77161],[-119.48972,50.77161],[-119.48992,50.77161],[-119.4901,50.77159],[-119.49032,50.77158],[-119.49043,50.77156],[-119.49053,50.77155],[-119.49064,50.77155],[-119.49087,50.77152],[-119.49116,50.77152],[-119.49176,50.77151],[-119.49194,50.77152],[-119.4922,50.77152],[-119.49262,50.77151],[-119.49283,50.77148],[-119.49303,50.77143],[-119.4933,50.77139],[-119.49381,50.77136],[-119.49409,50.77136],[-119.49436,50.77136],[-119.49453,50.77135],[-119.49469,50.77133],[-119.49509,50.7713],[-119.49543,50.77126],[-119.49597,50.77123],[-119.49614,50.77121],[-119.49632,50.77119],[-119.49669,50.77116],[-119.49689,50.77116],[-119.49707,50.77113],[-119.49742,50.77103],[-119.49759,50.77095],[-119.49771,50.77089],[-119.49791,50.77081],[-119.49799,50.77075],[-119.49808,50.77066],[-119.49816,50.7706],[-119.4983,50.7705],[-119.49849,50.77039],[-119.49871,50.77027],[-119.49888,50.77018],[-119.49907,50.7701],[-119.49917,50.77006],[-119.49927,50.77003],[-119.49937,50.77001],[-119.49961,50.76998],[-119.49987,50.76995],[-119.50008,50.7699],[-119.50024,50.76987],[-119.50042,50.76983],[-119.50073,50.76976],[-119.50098,50.76969],[-119.50119,50.76962],[-119.50133,50.76957],[-119.50141,50.76953],[-119.50158,50.76945],[-119.50167,50.76938],[-119.50181,50.76926],[-119.50192,50.76915],[-119.502,50.76908],[-119.50206,50.76902],[-119.50215,50.76893],[-119.50221,50.76886],[-119.50225,50.76881],[-119.5024,50.76866],[-119.50245,50.76858],[-119.50252,50.76847],[-119.50256,50.76839],[-119.50262,50.76828],[-119.50267,50.7682],[-119.50274,50.76815],[-119.50281,50.76807],[-119.50296,50.76798],[-119.5031,50.76791],[-119.50324,50.76782],[-119.50333,50.76773],[-119.50347,50.76766],[-119.50363,50.76756],[-119.50376,50.76751],[-119.50402,50.76744],[-119.50425,50.76736],[-119.5044,50.7673],[-119.50454,50.76727],[-119.50472,50.76722],[-119.505,50.76715],[-119.50522,50.76707],[-119.50535,50.76704],[-119.5056,50.76694],[-119.50579,50.76686],[-119.50604,50.76678],[-119.50623,50.76671],[-119.50632,50.76669],[-119.50645,50.76666],[-119.50656,50.76664],[-119.50667,50.76663],[-119.50686,50.76664],[-119.50711,50.76664],[-119.50758,50.76664],[-119.50784,50.76664],[-119.50804,50.76663],[-119.50823,50.76662],[-119.50832,50.76662],[-119.50843,50.76661],[-119.50852,50.7666],[-119.50864,50.76661],[-119.50877,50.76661],[-119.50914,50.7666],[-119.5094,50.7666],[-119.50955,50.76661],[-119.50971,50.76661],[-119.50991,50.76662],[-119.51031,50.76666],[-119.51062,50.76672],[-119.51081,50.76675],[-119.51085,50.76676],[-119.51105,50.76683],[-119.51126,50.76689],[-119.51138,50.76691],[-119.51166,50.76696],[-119.51191,50.76699],[-119.51214,50.767],[-119.51224,50.76701],[-119.51252,50.76701],[-119.51276,50.76696],[-119.5129,50.76694],[-119.513,50.76693],[-119.51319,50.76692],[-119.51337,50.7669],[-119.5136,50.7669],[-119.51375,50.76689],[-119.51389,50.76689],[-119.51407,50.76691],[-119.51431,50.76695],[-119.51439,50.76696],[-119.51452,50.76699],[-119.51461,50.76701],[-119.51479,50.76703],[-119.51499,50.76707],[-119.51518,50.76711],[-119.51538,50.76714],[-119.51555,50.76716],[-119.51577,50.76721],[-119.51598,50.76723],[-119.51625,50.76727],[-119.51643,50.76731],[-119.51657,50.76733]]}},
{"type":"Feature","properties":{"spotId":"A-grouse-walk-0088","kind":"roadside","km":3.2,"climbM":101,"name":"By Skimikin Creek","flags":[]},"geometry":{"type":"LineString","coordinates":[[-119.46856,50.78495],[-119.46871,50.78494],[-119.46893,50.78486],[-119.46919,50.78477],[-119.46956,50.78467],[-119.46974,50.78464],[-119.47015,50.78458],[-119.47105,50.78442],[-119.47228,50.78425],[-119.47315,50.78405],[-119.47397,50.78375],[-119.47484,50.78326],[-119.47518,50.78312],[-119.47631,50.78275],[-119.47701,50.78259],[-119.4785,50.7824],[-119.47942,50.78222],[-119.48011,50.78204],[-119.48128,50.78159],[-119.48227,50.78131],[-119.48422,50.78085],[-119.4855,50.78067],[-119.48619,50.78052],[-119.48649,50.78042],[-119.48697,50.78016],[-119.48753,50.77994],[-119.48811,50.77948],[-119.48835,50.77933],[-119.48869,50.77918],[-119.48902,50.7791],[-119.48923,50.77909],[-119.48966,50.7792],[-119.49087,50.77968],[-119.49216,50.7801],[-119.49314,50.78027],[-119.49364,50.78028],[-119.49443,50.78018],[-119.49576,50.77983],[-119.4967,50.77971],[-119.49718,50.77974],[-119.49818,50.7799],[-119.4985,50.78],[-119.49916,50.78026],[-119.49949,50.78047],[-119.49975,50.78066],[-119.49984,50.78078],[-119.49986,50.78089],[-119.4998,50.78113],[-119.49932,50.78133],[-119.49922,50.78141],[-119.49919,50.78152],[-119.49934,50.78166],[-119.49989,50.78167],[-119.50022,50.78174],[-119.5004,50.78191],[-119.50046,50.78215],[-119.5004,50.78256],[-119.50027,50.78286],[-119.49987,50.78323],[-119.49938,50.78352],[-119.4993,50.78363],[-119.49927,50.78384],[-119.49943,50.78395],[-119.49978,50.78405],[-119.5,50.78417],[-119.50061,50.78439],[-119.50117,50.78475],[-119.50175,50.78492],[-119.50192,50.78509],[-119.50202,50.78542],[-119.50187,50.78561]]}},
{"type":"Feature","properties":{"spotId":"A-grouse-walk-0091","kind":"roadside","km":3.4,"climbM":22,"name":"By Picket Creek","flags":[]},"geometry":{"type":"LineString","coordinates":[[-119.41259,50.77779],[-119.41259,50.77766],[-119.41271,50.77752],[-119.41302,50.77754],[-119.41321,50.77771],[-119.41361,50.77801],[-119.41372,50.7781],[-119.41383,50.77819],[-119.41391,50.77826],[-119.41426,50.77842],[-119.41446,50.77852],[-119.41463,50.77852],[-119.41486,50.77853],[-119.41527,50.77854],[-119.41543,50.77856],[-119.41556,50.77859],[-119.41569,50.77861],[-119.41583,50.77858],[-119.41595,50.77854],[-119.41623,50.77851],[-119.41648,50.77853],[-119.41676,50.77861],[-119.41696,50.77863],[-119.41716,50.77865],[-119.41748,50.77871],[-119.41804,50.77884],[-119.41888,50.77884],[-119.41947,50.77883],[-119.41966,50.77888],[-119.42022,50.77909],[-119.42048,50.77923],[-119.4206,50.77927],[-119.42082,50.77935],[-119.42124,50.77938],[-119.42168,50.77936],[-119.4218,50.77935],[-119.42197,50.77935],[-119.42219,50.77936],[-119.42234,50.77941],[-119.42248,50.77946],[-119.42257,50.77949],[-119.42291,50.77953],[-119.42328,50.77959],[-119.42344,50.77963],[-119.42356,50.77964],[-119.42411,50.77963],[-119.42452,50.77964],[-119.42466,50.77968],[-119.42478,50.7797],[-119.4252,50.7797],[-119.42547,50.77965],[-119.42565,50.7796],[-119.42588,50.77959],[-119.42612,50.77963],[-119.42635,50.77965],[-119.42674,50.7795],[-119.42681,50.77944],[-119.42696,50.77936],[-119.42718,50.77923],[-119.42733,50.7792],[-119.4276,50.7791],[-119.42785,50.77901],[-119.42814,50.77889],[-119.42845,50.77878],[-119.42893,50.77876],[-119.42919,50.77882],[-119.4292,50.77898],[-119.42923,50.77902],[-119.42938,50.77926],[-119.42966,50.7794],[-119.42983,50.77949],[-119.43004,50.77961],[-119.4303,50.77973],[-119.43044,50.77976],[-119.43097,50.77983],[-119.43124,50.77985],[-119.43164,50.77986],[-119.43197,50.77986],[-119.43232,50.77987],[-119.43259,50.77985],[-119.43289,50.77983],[-119.43324,50.77979],[-119.43371,50.77978],[-119.43409,50.77977],[-119.43453,50.77978],[-119.43484,50.77979],[-119.43584,50.77983],[-119.43605,50.7798],[-119.43615,50.7798],[-119.43626,50.7798],[-119.4364,50.77981],[-119.43672,50.77981],[-119.43697,50.7798],[-119.43732,50.77981],[-119.43758,50.77979],[-119.43772,50.77983],[-119.43807,50.78001],[-119.4383,50.78003],[-119.43853,50.78005],[-119.43882,50.77999],[-119.43914,50.77998],[-119.43929,50.77996],[-119.43959,50.77997],[-119.43983,50.77997],[-119.43996,50.77998],[-119.44019,50.77999],[-119.44048,50.77998],[-119.44094,50.77995],[-119.44139,50.7799],[-119.4416,50.77986],[-119.44178,50.77984],[-119.44201,50.77982],[-119.44209,50.7798],[-119.44232,50.77978],[-119.44265,50.77972],[-119.44301,50.77967],[-119.44337,50.77965],[-119.44381,50.77964],[-119.44407,50.77964],[-119.44423,50.77964],[-119.44431,50.77964],[-119.44465,50.77966],[-119.44494,50.77971],[-119.44517,50.77977],[-119.44548,50.77985],[-119.44577,50.77993],[-119.44593,50.78],[-119.44631,50.78009],[-119.44645,50.78013],[-119.44676,50.78017],[-119.44718,50.78019],[-119.44746,50.78019],[-119.44767,50.78016],[-119.44788,50.78012],[-119.44812,50.78012],[-119.44848,50.78021],[-119.44902,50.78025],[-119.44927,50.78027],[-119.44939,50.78029],[-119.44949,50.7803],[-119.44962,50.7803],[-119.44992,50.78031],[-119.45002,50.7803],[-119.45023,50.78031],[-119.45041,50.78035],[-119.45052,50.78038],[-119.45064,50.78042],[-119.45074,50.78045],[-119.45085,50.7805],[-119.45093,50.78053],[-119.45108,50.78059],[-119.45125,50.78067],[-119.45136,50.78079],[-119.45148,50.78086],[-119.45169,50.78096],[-119.45189,50.78105],[-119.45212,50.78111],[-119.45226,50.78127],[-119.4523,50.78136],[-119.45241,50.78147],[-119.45259,50.78165],[-119.45275,50.78185],[-119.45286,50.78199],[-119.45301,50.78212],[-119.4531,50.78223],[-119.45328,50.78238],[-119.45347,50.7826],[-119.45356,50.78271],[-119.45367,50.78284],[-119.45381,50.78306],[-119.45387,50.78317],[-119.45394,50.7833],[-119.454,50.78339],[-119.45407,50.78347],[-119.45412,50.78356],[-119.45411,50.78371],[-119.45408,50.78396]]}},
{"type":"Feature","properties":{"spotId":"A-grouse-walk-0094","kind":"roadside","km":3.54,"climbM":38,"name":"330 m E of Fleming Lake","flags":[]},"geometry":{"type":"LineString","coordinates":[[-119.49866,50.78012],[-119.49865,50.78011],[-119.49863,50.78008],[-119.4986,50.78006],[-119.49857,50.78004],[-119.49854,50.78002],[-119.4985,50.78],[-119.49846,50.77999],[-119.49838,50.77996],[-119.49827,50.77993],[-119.49818,50.7799],[-119.49806,50.77988],[-119.4977,50.77983],[-119.4976,50.77981],[-119.49735,50.77976],[-119.49718,50.77974],[-119.49702,50.77972],[-119.49695,50.77971],[-119.49688,50.77971],[-119.49679,50.77971],[-119.4967,50.77971],[-119.4966,50.77972],[-119.4965,50.77972],[-119.4964,50.77974],[-119.49628,50.77975],[-119.49595,50.7798],[-119.49585,50.77982],[-119.49576,50.77983],[-119.49565,50.77986],[-119.49555,50.77988],[-119.49535,50.77994],[-119.49491,50.78007],[-119.4948,50.7801],[-119.4947,50.78013],[-119.49461,50.78015],[-119.49452,50.78017],[-119.49443,50.78018],[-119.49434,50.7802],[-119.49409,50.78023],[-119.49393,50.78025],[-119.49377,50.78027],[-119.49364,50.78028],[-119.4935,50.78029],[-119.49337,50.78029],[-119.49325,50.78028],[-119.49314,50.78027],[-119.49304,50.78026],[-119.49294,50.78025],[-119.49284,50.78023],[-119.49273,50.78021],[-119.49257,50.78019],[-119.49241,50.78016],[-119.49229,50.78013],[-119.49216,50.7801],[-119.49203,50.78006],[-119.49177,50.77998],[-119.49159,50.77993],[-119.49139,50.77986],[-119.49117,50.77979],[-119.49087,50.77968],[-119.49074,50.77964],[-119.49061,50.77958],[-119.49047,50.77953],[-119.49011,50.77937],[-119.48999,50.77932],[-119.48989,50.77928],[-119.48977,50.77924],[-119.48966,50.7792],[-119.48954,50.77917],[-119.48944,50.77914],[-119.48928,50.7791],[-119.48923,50.77909],[-119.48919,50.77909],[-119.48915,50.77909],[-119.48911,50.77909],[-119.48906,50.77909],[-119.48902,50.7791],[-119.48892,50.77912],[-119.48878,50.77916],[-119.48869,50.77918],[-119.4886,50.77922],[-119.4885,50.77926],[-119.48835,50.77933],[-119.48829,50.77936],[-119.48823,50.7794],[-119.48817,50.77944],[-119.48811,50.77948],[-119.48801,50.77957],[-119.48777,50.77977],[-119.48771,50.77982],[-119.48765,50.77986],[-119.48759,50.7799],[-119.48753,50.77994],[-119.48748,50.77997],[-119.48742,50.78],[-119.48732,50.78004],[-119.48708,50.78012],[-119.48702,50.78014],[-119.48697,50.78016],[-119.48691,50.78019],[-119.48685,50.78022],[-119.48667,50.78033],[-119.48661,50.78036],[-119.48655,50.78039],[-119.48649,50.78042],[-119.4864,50.78045],[-119.4863,50.78049],[-119.48619,50.78052],[-119.48606,50.78056],[-119.48598,50.78058],[-119.48588,50.7806],[-119.48563,50.78065],[-119.4855,50.78067],[-119.48536,50.78069],[-119.48521,50.78071],[-119.48477,50.78076],[-119.48463,50.78077],[-119.48451,50.78079],[-119.48437,50.78082],[-119.48422,50.78085],[-119.48407,50.78088],[-119.4839,50.78091],[-119.48357,50.78099],[-119.483,50.78113],[-119.48227,50.78131],[-119.48205,50.78137],[-119.48185,50.78142],[-119.48164,50.78148],[-119.48146,50.78154],[-119.48128,50.78159],[-119.48112,50.78165],[-119.48102,50.78169],[-119.48092,50.78173],[-119.48047,50.78192],[-119.48036,50.78196],[-119.48026,50.78199],[-119.48011,50.78204],[-119.47995,50.78209],[-119.47979,50.78213],[-119.47961,50.78218],[-119.47942,50.78222],[-119.47921,50.78227],[-119.47898,50.78231],[-119.4787,50.78237],[-119.4786,50.78239],[-119.4785,50.7824],[-119.47826,50.78244],[-119.47804,50.78246],[-119.47751,50.78252],[-119.47725,50.78255],[-119.47713,50.78257],[-119.47701,50.78259],[-119.4769,50.78261],[-119.4768,50.78263],[-119.47655,50.78269],[-119.47631,50.78275],[-119.47607,50.78282],[-119.47584,50.78289],[-119.47561,50.78296],[-119.47539,50.78304],[-119.47518,50.78312],[-119.47498,50.7832],[-119.47484,50.78326],[-119.4747,50.78334],[-119.47457,50.78342],[-119.47426,50.7836],[-119.47411,50.78368],[-119.47397,50.78375],[-119.47384,50.78381],[-119.47369,50.78387],[-119.47352,50.78393],[-119.47335,50.78399],[-119.47315,50.78405],[-119.47306,50.78408],[-119.47296,50.78411],[-119.47285,50.78414],[-119.47275,50.78416],[-119.47252,50.78421],[-119.47228,50.78425],[-119.47207,50.78429],[-119.47182,50.78432],[-119.47101,50.78443],[-119.4707,50.78447],[-119.47041,50.78452],[-119.47027,50.78454],[-119.47014,50.78456],[-119.46971,50.78465],[-119.46955,50.78468],[-119.46938,50.78472],[-119.46923,50.78475],[-119.46917,50.78477],[-119.4691,50.7848],[-119.46886,50.7849],[-119.46876,50.78493],[-119.46872,50.78495],[-119.46867,50.78496],[-119.46864,50.78496],[-119.46861,50.78496],[-119.46858,50.78496],[-119.46856,50.78495],[-119.46854,50.78494],[-119.46852,50.78492],[-119.4685,50.7849],[-119.46849,50.78488],[-119.46848,50.78485],[-119.46848,50.78482],[-119.46847,50.78475],[-119.46847,50.78468],[-119.4685,50.7844],[-119.4685,50.7843],[-119.4685,50.78421],[-119.46849,50.78414],[-119.46847,50.78407],[-119.4684,50.78392],[-119.46838,50.78386],[-119.46837,50.78382],[-119.46837,50.78379],[-119.46837,50.78376],[-119.46837,50.78373],[-119.46837,50.7837],[-119.46838,50.78367],[-119.46841,50.78359],[-119.46844,50.78352],[-119.4685,50.78341],[-119.46853,50.78337],[-119.46856,50.78333],[-119.4686,50.78328],[-119.46864,50.78323],[-119.46874,50.78314],[-119.46891,50.78298],[-119.46904,50.78285],[-119.46927,50.78266],[-119.46943,50.78253],[-119.46959,50.78239],[-119.46976,50.78226],[-119.46993,50.78212],[-119.47011,50.78199],[-119.47028,50.78186],[-119.47046,50.78173],[-119.47065,50.78161],[-119.47087,50.78147],[-119.47109,50.78133],[-119.47132,50.78119],[-119.47154,50.78106],[-119.47168,50.78098],[-119.47184,50.7809],[-119.4724,50.78061],[-119.47263,50.78049],[-119.47274,50.78043],[-119.47285,50.78037],[-119.47295,50.78031],[-119.47304,50.78025],[-119.47318,50.78015],[-119.47326,50.78008],[-119.47335,50.78],[-119.47341,50.77994],[-119.47343,50.77991],[-119.47346,50.77989],[-119.47347,50.77986],[-119.47348,50.77983],[-119.47349,50.7798],[-119.4735,50.77974],[-119.47351,50.77972],[-119.47353,50.77969],[-119.47355,50.77966],[-119.47363,50.77957],[-119.47366,50.77953],[-119.47368,50.7795],[-119.4737,50.77946],[-119.47375,50.77931],[-119.47377,50.77928],[-119.47379,50.77925],[-119.47383,50.7792],[-119.47394,50.77906],[-119.47402,50.77897],[-119.47419,50.77879],[-119.47426,50.77871],[-119.47433,50.77863],[-119.47438,50.77856],[-119.4744,50.77852],[-119.47442,50.77848],[-119.47443,50.77844],[-119.47444,50.77841],[-119.47445,50.77837],[-119.47445,50.77834],[-119.47445,50.7783],[-119.47445,50.77827],[-119.47443,50.77822],[-119.4744,50.77816],[-119.47436,50.77811],[-119.47431,50.77805],[-119.47425,50.77798],[-119.47418,50.77792],[-119.47411,50.77786],[-119.47403,50.7778],[-119.47392,50.77772],[-119.47382,50.77766],[-119.47377,50.77763],[-119.47372,50.77761],[-119.47367,50.77759],[-119.47362,50.77757],[-119.47354,50.77754],[-119.47341,50.77751],[-119.47333,50.77749],[-119.47323,50.77748],[-119.47312,50.77746],[-119.47287,50.77744],[-119.47277,50.77743],[-119.47266,50.77741],[-119.47256,50.77739],[-119.47246,50.77736],[-119.47237,50.77734],[-119.47227,50.7773],[-119.47217,50.77727],[-119.47207,50.77723],[-119.47197,50.77719],[-119.47188,50.77715],[-119.47178,50.7771],[-119.47168,50.77705],[-119.4716,50.77701],[-119.47154,50.77697],[-119.47149,50.77694],[-119.47145,50.77691],[-119.47141,50.77688],[-119.47134,50.77681],[-119.47127,50.77673],[-119.47126,50.77671]]}},
{"type":"Feature","properties":{"spotId":"A-grouse-walk-0107","kind":"walk","km":0.06,"climbM":0,"name":"1.5 km SW of Hlina Creek","flags":[]},"geometry":{"type":"LineString","coordinates":[[-119.43233,50.96045],[-119.43252,50.961]]}},
{"type":"Feature","properties":{"spotId":"A-grouse-walk-0107","kind":"roadside","km":3.07,"climbM":186,"name":"1.5 km SW of Hlina Creek","flags":[]},"geometry":{"type":"LineString","coordinates":[[-119.43252,50.961],[-119.43256,50.96105],[-119.4327,50.96116],[-119.43288,50.96125],[-119.43311,50.96135],[-119.43329,50.96142],[-119.43343,50.96147],[-119.4336,50.96151],[-119.4338,50.96153],[-119.43397,50.96152],[-119.43428,50.9615],[-119.43458,50.96152],[-119.43477,50.96155],[-119.43493,50.96161],[-119.43506,50.96177],[-119.43519,50.96189],[-119.43533,50.96201],[-119.43549,50.96215],[-119.43558,50.96227],[-119.43565,50.96238],[-119.43571,50.96249],[-119.43568,50.96272],[-119.43571,50.96285],[-119.4358,50.96297],[-119.43591,50.96306],[-119.43604,50.96317],[-119.43619,50.96327],[-119.43632,50.96333],[-119.43649,50.96336],[-119.43668,50.96337],[-119.43685,50.96341],[-119.43695,50.96343],[-119.43716,50.96351],[-119.43734,50.96357],[-119.43755,50.96365],[-119.43781,50.96369],[-119.43809,50.96378],[-119.43829,50.96386],[-119.43846,50.96391],[-119.43869,50.96397],[-119.43895,50.96402],[-119.43915,50.96409],[-119.43936,50.96417],[-119.43954,50.96426],[-119.43965,50.96436],[-119.43984,50.96449],[-119.43997,50.96457],[-119.44007,50.96457],[-119.44008,50.96456],[-119.44009,50.96448],[-119.44023,50.96437],[-119.44034,50.96434],[-119.44057,50.96434],[-119.44084,50.96435],[-119.44101,50.96429],[-119.44107,50.96424],[-119.44113,50.96416],[-119.44116,50.9641],[-119.44119,50.96398],[-119.4412,50.9639],[-119.44118,50.96375],[-119.44115,50.96359],[-119.44116,50.96349],[-119.44119,50.96337],[-119.44125,50.96326],[-119.44131,50.96319],[-119.44144,50.9631],[-119.44148,50.96303],[-119.44148,50.96295],[-119.44151,50.9629],[-119.44163,50.96279],[-119.4417,50.96269],[-119.44174,50.96259],[-119.44174,50.96251],[-119.44168,50.96241],[-119.44164,50.96233],[-119.44163,50.96223],[-119.44163,50.96215],[-119.44162,50.96201],[-119.4416,50.96194],[-119.44158,50.96187],[-119.44152,50.96176],[-119.44146,50.96169],[-119.44132,50.96161],[-119.44128,50.96157],[-119.44126,50.96151],[-119.44122,50.96149],[-119.44116,50.9615],[-119.44105,50.96148],[-119.44094,50.96143],[-119.44082,50.96136],[-119.44076,50.96127],[-119.44072,50.96119],[-119.44062,50.96107],[-119.44055,50.96103],[-119.44045,50.96096],[-119.44036,50.9609],[-119.44026,50.96082],[-119.44021,50.96071],[-119.44017,50.96066],[-119.44004,50.9606],[-119.44002,50.96058],[-119.43994,50.96047],[-119.43986,50.96034],[-119.43979,50.96022],[-119.43974,50.96011],[-119.43969,50.96001],[-119.43967,50.95996],[-119.4397,50.95989],[-119.43965,50.95985],[-119.43954,50.95979],[-119.43948,50.95975],[-119.43937,50.95968],[-119.43931,50.9596],[-119.43928,50.95953],[-119.43919,50.95946],[-119.43916,50.95942],[-119.43912,50.95935],[-119.439,50.95929],[-119.439,50.95919],[-119.43906,50.95911],[-119.43912,50.95902],[-119.43919,50.95884],[-119.43921,50.9587],[-119.4392,50.9586],[-119.43917,50.95849],[-119.43911,50.95837],[-119.43905,50.95827],[-119.43892,50.95814],[-119.43875,50.95803],[-119.43863,50.95797],[-119.43847,50.95794],[-119.43827,50.95793],[-119.43817,50.95789],[-119.43805,50.9578],[-119.43799,50.95774],[-119.43788,50.95763],[-119.43772,50.95753],[-119.43763,50.95749],[-119.43758,50.95746],[-119.43751,50.95742],[-119.43746,50.95738],[-119.4374,50.9573],[-119.43733,50.95724],[-119.43729,50.95721],[-119.43723,50.95719],[-119.43714,50.95718],[-119.43707,50.9572],[-119.43702,50.95723],[-119.43701,50.95717],[-119.437,50.95712],[-119.43703,50.95701],[-119.43708,50.95697],[-119.43718,50.95695],[-119.43725,50.95688],[-119.43726,50.9568],[-119.43725,50.95668],[-119.43719,50.95656],[-119.43715,50.95649],[-119.43705,50.95637],[-119.43693,50.95628],[-119.43688,50.95622],[-119.43687,50.95614],[-119.43686,50.95606],[-119.43683,50.95604],[-119.43675,50.95604],[-119.43671,50.95603],[-119.43666,50.95601],[-119.43659,50.95593],[-119.43657,50.95585],[-119.43651,50.95579],[-119.43642,50.95575],[-119.4363,50.95569],[-119.4362,50.95567],[-119.43607,50.95569],[-119.43598,50.95569],[-119.43594,50.95568],[-119.4359,50.95564],[-119.43591,50.9556],[-119.43593,50.95558],[-119.43601,50.95556],[-119.43606,50.95553],[-119.43609,50.95547],[-119.43609,50.95542],[-119.43606,50.95537],[-119.43599,50.9553],[-119.43588,50.95525],[-119.43574,50.95522],[-119.43565,50.95519],[-119.43556,50.95515],[-119.4355,50.9551],[-119.43545,50.95506],[-119.43545,50.955],[-119.43548,50.95492],[-119.43549,50.95488],[-119.43547,50.95484],[-119.43543,50.95476],[-119.4354,50.95469],[-119.43537,50.95462],[-119.43534,50.95455],[-119.43532,50.95448],[-119.43532,50.95443],[-119.43535,50.95439],[-119.4354,50.95438],[-119.43549,50.95436],[-119.43549,50.95433],[-119.43547,50.95428],[-119.43548,50.95423],[-119.43552,50.95416],[-119.43553,50.9541],[-119.43558,50.95403],[-119.43567,50.95398],[-119.43577,50.95393],[-119.43585,50.95385],[-119.43588,50.95377],[-119.43597,50.9537],[-119.43608,50.95365],[-119.43615,50.95364],[-119.43632,50.95367],[-119.43637,50.95368],[-119.43646,50.95367],[-119.43654,50.95363],[-119.43661,50.95358],[-119.4367,50.95347],[-119.43671,50.95341],[-119.43672,50.95337],[-119.43673,50.9533],[-119.43672,50.95324],[-119.43667,50.95316],[-119.43662,50.95311],[-119.43663,50.95308],[-119.43665,50.95302],[-119.43662,50.95295],[-119.4366,50.95289],[-119.43659,50.95281],[-119.43651,50.95275],[-119.43649,50.95273],[-119.43652,50.95268],[-119.43648,50.9526],[-119.43647,50.95259],[-119.43651,50.95251],[-119.43646,50.95242],[-119.43646,50.95239],[-119.43645,50.95232],[-119.43638,50.95229],[-119.43629,50.95227],[-119.43621,50.95224],[-119.43616,50.95219],[-119.43621,50.95214],[-119.43622,50.95209],[-119.4362,50.95205],[-119.4361,50.95198],[-119.4361,50.95193],[-119.43603,50.95183],[-119.43593,50.95178],[-119.43583,50.9518],[-119.43576,50.95187],[-119.43573,50.95196],[-119.4357,50.952],[-119.43559,50.95201],[-119.43552,50.95199],[-119.43541,50.95196],[-119.43531,50.9519],[-119.43522,50.95182],[-119.43518,50.95173],[-119.4351,50.95162],[-119.43503,50.95155],[-119.43494,50.9515],[-119.43489,50.95149],[-119.43471,50.95148],[-119.43458,50.95148],[-119.4344,50.95145],[-119.43437,50.95144],[-119.43422,50.95136],[-119.43411,50.95133],[-119.43407,50.95133],[-119.43395,50.95135],[-119.4338,50.95136],[-119.43373,50.95135],[-119.43366,50.95131],[-119.4336,50.95124],[-119.43353,50.95117],[-119.43348,50.95113],[-119.43341,50.95109],[-119.43335,50.9511],[-119.43326,50.95112],[-119.43321,50.95111],[-119.4332,50.9511],[-119.43316,50.95104],[-119.43307,50.95096],[-119.433,50.95092],[-119.43289,50.95088],[-119.43269,50.95088],[-119.43261,50.95088],[-119.43247,50.95083],[-119.4324,50.95081],[-119.43233,50.95083],[-119.43225,50.95088],[-119.43221,50.95089],[-119.43214,50.95086],[-119.43207,50.95081],[-119.43199,50.95078],[-119.43193,50.95081],[-119.43186,50.95084],[-119.43181,50.95084],[-119.43168,50.95079],[-119.43163,50.95078],[-119.43147,50.9508],[-119.4314,50.9508],[-119.43132,50.95079],[-119.43126,50.95077],[-119.43113,50.9507],[-119.43108,50.95064],[-119.43099,50.95058],[-119.43083,50.95052],[-119.43068,50.95043],[-119.4306,50.95035],[-119.43051,50.95027],[-119.43037,50.95018],[-119.43024,50.95015],[-119.43013,50.95017]]}},
{"type":"Feature","properties":{"spotId":"A-moose-atv-0007","kind":"ride","km":2.55,"climbM":49,"name":"2.7 km SW of Skimikin Lake rec site","flags":[]},"geometry":{"type":"LineString","coordinates":[[-119.47216,50.74246],[-119.47187,50.74263],[-119.4716,50.74276],[-119.47127,50.74293],[-119.47113,50.74299],[-119.47104,50.74305],[-119.47087,50.74314],[-119.47075,50.74319],[-119.47057,50.74326],[-119.47042,50.74334],[-119.47022,50.74348],[-119.47007,50.74359],[-119.46999,50.74363],[-119.46983,50.74375],[-119.46972,50.74382],[-119.46955,50.7439],[-119.46941,50.74393],[-119.4692,50.74402],[-119.46907,50.74411],[-119.46899,50.74423],[-119.46892,50.74433],[-119.46886,50.74441],[-119.4688,50.74451],[-119.46872,50.74459],[-119.46866,50.74467],[-119.4686,50.74472],[-119.46853,50.74476],[-119.46848,50.74482],[-119.4684,50.74491],[-119.46835,50.74496],[-119.46828,50.74506],[-119.46823,50.74516],[-119.46818,50.74527],[-119.46815,50.74532],[-119.46816,50.74544],[-119.46815,50.74554],[-119.4681,50.74565],[-119.46803,50.74574],[-119.46791,50.74584],[-119.46784,50.74593],[-119.46776,50.74603],[-119.46773,50.74609],[-119.46763,50.74615],[-119.46755,50.74619],[-119.46737,50.74631],[-119.46737,50.74642],[-119.46741,50.7465],[-119.46742,50.74658],[-119.46746,50.74668],[-119.46746,50.74679],[-119.46747,50.7469],[-119.46748,50.74702],[-119.46747,50.74713],[-119.46746,50.74729],[-119.46743,50.74739],[-119.46736,50.74753],[-119.46727,50.74762],[-119.46719,50.74769],[-119.46708,50.74779],[-119.46693,50.74787],[-119.46675,50.74803],[-119.46666,50.74811],[-119.46659,50.74815],[-119.46649,50.74823],[-119.46638,50.7483],[-119.46622,50.74837],[-119.46601,50.74866],[-119.46572,50.74915],[-119.46581,50.74968],[-119.46581,50.75037],[-119.46566,50.75091],[-119.4656,50.75115],[-119.46548,50.75195],[-119.46549,50.753],[-119.46547,50.75431],[-119.46537,50.75473],[-119.46518,50.755],[-119.46494,50.75512],[-119.46482,50.75524],[-119.46477,50.75535],[-119.46523,50.75566],[-119.46606,50.75618],[-119.46651,50.75654],[-119.46729,50.75713],[-119.46786,50.75764],[-119.46805,50.75806],[-119.46815,50.75851],[-119.4681,50.75872],[-119.46792,50.75923],[-119.46763,50.75956],[-119.46737,50.76002],[-119.46718,50.76048],[-119.46711,50.76076],[-119.4672,50.76107],[-119.4672,50.76134],[-119.46708,50.76163],[-119.46694,50.76188],[-119.46683,50.76218],[-119.4667,50.76236],[-119.4664,50.76264]]}},
{"type":"Feature","properties":{"spotId":"A-moose-atv-0007","kind":"walk","km":0.26,"climbM":0,"name":"2.7 km SW of Skimikin Lake rec site","flags":[]},"geometry":{"type":"LineString","coordinates":[[-119.4664,50.76264],[-119.46599,50.76493]]}},
{"type":"Feature","properties":{"spotId":"A-moose-drive-0009","kind":"walk","km":0.24,"climbM":16,"name":"By Scotch Creek","flags":[]},"geometry":{"type":"LineString","coordinates":[[-119.46321,50.94326],[-119.45986,50.94315]]}},
{"type":"Feature","properties":{"spotId":"A-moose-drive-0082","kind":"walk","km":0.25,"climbM":3,"name":"By Skimikin Creek","flags":[]},"geometry":{"type":"LineString","coordinates":[[-119.48077,50.78195],[-119.479,50.78002]]}},
{"type":"Feature","properties":{"spotId":"A-moose-walk-0008","kind":"walk","km":0.37,"climbM":4,"name":"By Skimikin Creek","flags":[]},"geometry":{"type":"LineString","coordinates":[[-119.4893,50.77927],[-119.49144,50.77621]]}},
{"type":"Feature","properties":{"spotId":"A-moose-walk-0009","kind":"walk","km":0.87,"climbM":29,"name":"920 m SW of Hlina Creek","flags":[]},"geometry":{"type":"LineString","coordinates":[[-119.41233,50.95102],[-119.40101,50.95413]]}}
]}
