{"type":"FeatureCollection","features":[
{"type":"Feature","properties":{"spotId":"A-duck-drive-0036","kind":"walk","km":0.04,"climbM":0,"name":"Unnamed wetland 920 m S of North Thompson River","flags":[]},"geometry":{"type":"LineString","coordinates":[[-119.45488,51.66484],[-119.45434,51.66493]]}},
{"type":"Feature","properties":{"spotId":"A-grouse-drive-0059","kind":"roadside","km":7.02,"climbM":23,"name":"330 m SW of Reg Christie Creek","flags":[]},"geometry":{"type":"LineString","coordinates":[[-119.46622,51.59425],[-119.46645,51.59417],[-119.46653,51.59412],[-119.46659,51.5941],[-119.46663,51.59406],[-119.46667,51.59404],[-119.46679,51.59398],[-119.46693,51.59392],[-119.46697,51.59388],[-119.467,51.59387],[-119.46702,51.59384],[-119.46717,51.59381],[-119.46728,51.59377],[-119.46739,51.59374],[-119.46749,51.59369],[-119.46754,51.59368],[-119.46764,51.59368],[-119.46774,51.59367],[-119.46805,51.59366],[-119.46808,51.59367],[-119.4681,51.59367],[-119.46814,51.5937],[-119.46816,51.5937],[-119.46829,51.59374],[-119.4683,51.59374],[-119.46841,51.59376],[-119.46849,51.59379],[-119.46851,51.59379],[-119.46854,51.5938],[-119.46864,51.5938],[-119.46902,51.59381],[-119.46909,51.59381],[-119.46916,51.59386],[-119.46922,51.59386],[-119.46934,51.59386],[-119.46941,51.59389],[-119.4695,51.59394],[-119.46972,51.59402],[-119.46976,51.59404],[-119.46979,51.59404],[-119.46985,51.59407],[-119.4699,51.59408],[-119.46993,51.59409],[-119.46998,51.59411],[-119.47007,51.59416],[-119.47013,51.59419],[-119.47016,51.5942],[-119.47025,51.59424],[-119.47038,51.5943],[-119.47047,51.59432],[-119.47053,51.59432],[-119.4706,51.59435],[-119.47072,51.59441],[-119.47081,51.59443],[-119.47088,51.59444],[-119.47093,51.59446],[-119.47101,51.59447],[-119.4711,51.59448],[-119.47112,51.59449],[-119.47118,51.59451],[-119.47122,51.59452],[-119.47126,51.59452],[-119.47128,51.59453],[-119.47136,51.59453],[-119.47145,51.59455],[-119.47157,51.59458],[-119.47164,51.59458],[-119.4717,51.59459],[-119.47176,51.5946],[-119.47187,51.59462],[-119.47208,51.59462],[-119.47226,51.59462],[-119.47242,51.5946],[-119.47245,51.5946],[-119.47251,51.59458],[-119.47257,51.59457],[-119.47267,51.59457],[-119.47271,51.59456],[-119.47314,51.59456],[-119.47323,51.59454],[-119.47333,51.59455],[-119.47343,51.59455],[-119.47347,51.59456],[-119.47353,51.59458],[-119.47355,51.5946],[-119.47361,51.59463],[-119.47365,51.59463],[-119.47367,51.59464],[-119.4737,51.59466],[-119.47374,51.59466],[-119.47396,51.59467],[-119.47403,51.59467],[-119.47407,51.59469],[-119.47409,51.59469],[-119.47415,51.59472],[-119.47422,51.59473],[-119.47435,51.59473],[-119.47462,51.59473],[-119.47471,51.59473],[-119.4748,51.59472],[-119.47487,51.5947],[-119.47488,51.5947],[-119.47501,51.59467],[-119.47505,51.59464],[-119.47511,51.59458],[-119.47514,51.59457],[-119.47525,51.5945],[-119.47529,51.59447],[-119.47533,51.59446],[-119.4754,51.59441],[-119.47544,51.59436],[-119.47557,51.59428],[-119.47562,51.59422],[-119.47565,51.59418],[-119.47568,51.59417],[-119.4757,51.59415],[-119.47572,51.59412],[-119.47576,51.5941],[-119.47577,51.5941],[-119.4758,51.59409],[-119.47596,51.59408],[-119.476,51.59409],[-119.47605,51.59412],[-119.47606,51.59413],[-119.47607,51.59415],[-119.4761,51.59421],[-119.47618,51.59431],[-119.47621,51.59436],[-119.47623,51.59444],[-119.47621,51.5945],[-119.47622,51.59457],[-119.47627,51.59467],[-119.47626,51.59473],[-119.47626,51.59489],[-119.47625,51.59495],[-119.47624,51.59498],[-119.47621,51.59501],[-119.47622,51.59504],[-119.4762,51.59508],[-119.47619,51.59511],[-119.47615,51.59515],[-119.47612,51.59523],[-119.47611,51.59524],[-119.4761,51.59526],[-119.476,51.59532],[-119.47597,51.59536],[-119.47596,51.5954],[-119.47593,51.59543],[-119.47589,51.5955],[-119.47584,51.59554],[-119.4758,51.59558],[-119.47578,51.5956],[-119.47571,51.59563],[-119.47569,51.59566],[-119.47563,51.59574],[-119.47558,51.59583],[-119.47552,51.59586],[-119.47547,51.59591],[-119.47536,51.59606],[-119.47531,51.59611],[-119.47528,51.59614],[-119.47525,51.59616],[-119.47523,51.59622],[-119.47521,51.59627],[-119.4752,51.59628],[-119.47506,51.59629],[-119.47506,51.59638],[-119.47501,51.59644],[-119.47498,51.5965],[-119.47494,51.59659],[-119.47494,51.59661],[-119.47493,51.59668],[-119.47494,51.59673],[-119.47491,51.59679],[-119.4749,51.59687],[-119.47486,51.59695],[-119.47485,51.597],[-119.47482,51.59707],[-119.47481,51.59711],[-119.4748,51.59721],[-119.47479,51.59722],[-119.47475,51.59727],[-119.47474,51.59731],[-119.47472,51.59736],[-119.47473,51.59743],[-119.47471,51.59745],[-119.47468,51.59754],[-119.47465,51.59755],[-119.4746,51.59765],[-119.47458,51.59767],[-119.4745,51.59776],[-119.47447,51.59779],[-119.47443,51.59787],[-119.47442,51.59791],[-119.4743,51.59804],[-119.47427,51.59808],[-119.47426,51.59814],[-119.47424,51.59819],[-119.47424,51.59822],[-119.4742,51.59829],[-119.47417,51.59833],[-119.47416,51.59837],[-119.47412,51.59846],[-119.47408,51.59851],[-119.47408,51.59852],[-119.47404,51.59856],[-119.47401,51.59859],[-119.474,51.59863],[-119.47392,51.59872],[-119.47385,51.59879],[-119.47374,51.59899],[-119.4737,51.59905],[-119.47369,51.59909],[-119.47369,51.59911],[-119.47364,51.59921],[-119.47363,51.59923],[-119.47363,51.59936],[-119.47362,51.5994],[-119.47362,51.59944],[-119.4736,51.59952],[-119.47359,51.59966],[-119.47361,51.59994],[-119.47362,51.59996],[-119.47368,51.6],[-119.47374,51.60004],[-119.47375,51.60012],[-119.47378,51.60013],[-119.47386,51.60013],[-119.47388,51.60014],[-119.47392,51.60018],[-119.47394,51.60018],[-119.47397,51.60019],[-119.47453,51.60018],[-119.47468,51.60019],[-119.47482,51.60019],[-119.47483,51.60019],[-119.47494,51.6002],[-119.47501,51.60023],[-119.47505,51.60023],[-119.47517,51.60023],[-119.47529,51.60025],[-119.4753,51.60026],[-119.47531,51.60026],[-119.47537,51.60027],[-119.47546,51.60029],[-119.47549,51.6003],[-119.47567,51.60041],[-119.47584,51.60041],[-119.4759,51.60042],[-119.47593,51.60044],[-119.47601,51.60047],[-119.47616,51.60048],[-119.47624,51.6005],[-119.47628,51.60051],[-119.47658,51.60051],[-119.47666,51.60049],[-119.4768,51.60047],[-119.47716,51.60046],[-119.47722,51.60045],[-119.47725,51.60045],[-119.47729,51.60044],[-119.47733,51.60045],[-119.47761,51.60043],[-119.47771,51.60042],[-119.47779,51.60043],[-119.47804,51.60042],[-119.47814,51.60043],[-119.47823,51.60046],[-119.47832,51.60049],[-119.47836,51.60049],[-119.47839,51.6005],[-119.47852,51.60052],[-119.47862,51.60054],[-119.47871,51.60054],[-119.4788,51.60054],[-119.47884,51.60055],[-119.4789,51.60056],[-119.47909,51.60057],[-119.47922,51.60057],[-119.4793,51.60058],[-119.47958,51.60058],[-119.47979,51.60058],[-119.48014,51.60058],[-119.48024,51.60058],[-119.4803,51.60056],[-119.4804,51.60053],[-119.48046,51.60053],[-119.4806,51.60051],[-119.48067,51.60051],[-119.48096,51.60051],[-119.48105,51.60051],[-119.4811,51.6005],[-119.48113,51.6005],[-119.48116,51.60048],[-119.48191,51.60047],[-119.48209,51.60047],[-119.48219,51.60046],[-119.48233,51.60044],[-119.48234,51.60043],[-119.4824,51.60043],[-119.48252,51.60042],[-119.48259,51.60042],[-119.48267,51.6004],[-119.48272,51.60038],[-119.48284,51.60031],[-119.48298,51.60027],[-119.4831,51.60023],[-119.48321,51.60015],[-119.48329,51.60011],[-119.48335,51.6001],[-119.48343,51.60005],[-119.48348,51.60003],[-119.48352,51.60002],[-119.48355,51.6],[-119.48359,51.59998],[-119.48363,51.59995],[-119.48373,51.59992],[-119.48387,51.59982],[-119.48391,51.5998],[-119.48397,51.59977],[-119.484,51.59976],[-119.48404,51.59973],[-119.48406,51.5997],[-119.48408,51.59968],[-119.48411,51.59966],[-119.48416,51.59963],[-119.48419,51.59961],[-119.4842,51.59959],[-119.48423,51.59958],[-119.48427,51.59955],[-119.48434,51.5995],[-119.48436,51.59948],[-119.48445,51.59942],[-119.48447,51.5994],[-119.48454,51.59936],[-119.48458,51.59932],[-119.48462,51.5993],[-119.48463,51.59929],[-119.48473,51.59925],[-119.48486,51.5992],[-119.48495,51.59916],[-119.48494,51.59915],[-119.48496,51.59914],[-119.485,51.59914],[-119.48509,51.59911],[-119.48526,51.59907],[-119.48539,51.59903],[-119.48544,51.59902],[-119.48547,51.59901],[-119.48602,51.599],[-119.48622,51.599],[-119.48629,51.599],[-119.4864,51.59902],[-119.48643,51.59904],[-119.48647,51.59909],[-119.48652,51.59913],[-119.48658,51.59916],[-119.48661,51.5992],[-119.48667,51.59922],[-119.48673,51.5993],[-119.48673,51.59939],[-119.48675,51.59947],[-119.48675,51.5995],[-119.48674,51.59953],[-119.48671,51.59957],[-119.4867,51.59961],[-119.48666,51.59967],[-119.48664,51.59973],[-119.48663,51.59978],[-119.48658,51.5998],[-119.48656,51.59984],[-119.48653,51.59987],[-119.4865,51.59991],[-119.48646,51.6],[-119.48645,51.60006],[-119.48645,51.60008],[-119.48641,51.60012],[-119.4864,51.60014],[-119.4864,51.60016],[-119.48639,51.6002],[-119.48639,51.60029],[-119.48639,51.60041],[-119.48639,51.60047],[-119.48646,51.60047],[-119.48659,51.6005],[-119.48667,51.60051],[-119.48672,51.60051],[-119.48681,51.60052],[-119.48693,51.60051],[-119.487,51.60052],[-119.48711,51.60055],[-119.48717,51.60056],[-119.4873,51.60057],[-119.48733,51.60058],[-119.48742,51.60058],[-119.48755,51.60059],[-119.48759,51.6006],[-119.48768,51.60064],[-119.48785,51.60071],[-119.48792,51.60074],[-119.48795,51.60074],[-119.48804,51.60074],[-119.48806,51.60075],[-119.48821,51.60082],[-119.48827,51.60086],[-119.48833,51.6009],[-119.48842,51.60091],[-119.48847,51.60096],[-119.4885,51.601],[-119.48856,51.60103],[-119.4886,51.60105],[-119.48872,51.6011],[-119.48873,51.60122],[-119.48874,51.60127],[-119.48874,51.60129],[-119.48878,51.60138],[-119.48884,51.60146],[-119.48886,51.60154],[-119.48892,51.60167],[-119.48899,51.60174],[-119.48898,51.60218],[-119.48897,51.60227],[-119.48892,51.60241],[-119.48879,51.60266],[-119.48874,51.60275],[-119.4887,51.60283],[-119.48863,51.60294],[-119.48859,51.60299],[-119.48855,51.60307],[-119.48852,51.6032],[-119.48849,51.60325],[-119.48846,51.60329],[-119.48838,51.60338],[-119.48835,51.60342],[-119.48833,51.60346],[-119.4883,51.60353],[-119.48828,51.60364],[-119.48827,51.60368],[-119.48824,51.60373],[-119.48822,51.60378],[-119.48816,51.60383],[-119.48815,51.60386],[-119.48814,51.6039],[-119.48811,51.60399],[-119.48812,51.60406],[-119.4881,51.6041],[-119.4881,51.60412],[-119.48808,51.6042],[-119.48806,51.60432],[-119.48805,51.60443],[-119.48802,51.60448],[-119.48797,51.60458],[-119.48793,51.60466],[-119.48789,51.60469],[-119.48788,51.60473],[-119.48785,51.60481],[-119.48777,51.6049],[-119.48772,51.60496],[-119.48768,51.60499],[-119.48765,51.60501],[-119.48752,51.60513],[-119.48748,51.60517],[-119.48742,51.60524],[-119.48736,51.6053],[-119.4873,51.60534],[-119.48727,51.60541],[-119.48724,51.6055],[-119.48723,51.60562],[-119.48721,51.60567],[-119.4872,51.60585],[-119.48721,51.60594],[-119.48724,51.60598],[-119.48729,51.60605],[-119.48735,51.60615],[-119.48738,51.60622],[-119.48741,51.60627],[-119.48745,51.60633],[-119.48757,51.60643],[-119.48763,51.60648],[-119.48773,51.60658],[-119.48778,51.60664],[-119.4878,51.60668],[-119.48784,51.60674],[-119.48789,51.60678],[-119.48793,51.60681],[-119.48805,51.60684],[-119.48836,51.60686],[-119.48844,51.60686],[-119.4885,51.60688],[-119.48857,51.60687],[-119.4886,51.60688],[-119.48898,51.60688],[-119.48902,51.60688],[-119.48924,51.60689],[-119.48928,51.60688],[-119.48935,51.60686],[-119.48944,51.6068],[-119.48948,51.60678],[-119.48952,51.60675],[-119.48966,51.60671],[-119.48976,51.60668],[-119.48983,51.60665],[-119.4899,51.60664],[-119.49002,51.6066],[-119.49012,51.60655],[-119.49019,51.60654],[-119.49023,51.60653],[-119.49027,51.60653],[-119.4903,51.60652],[-119.49082,51.60651],[-119.49086,51.60649],[-119.49093,51.60646],[-119.49098,51.60645],[-119.49106,51.60643],[-119.49115,51.60643],[-119.49126,51.60639],[-119.4913,51.60638],[-119.49138,51.60637],[-119.49143,51.60635],[-119.49149,51.60635],[-119.49152,51.60634],[-119.49174,51.60635],[-119.49177,51.60636],[-119.49185,51.60637],[-119.49188,51.60638],[-119.49202,51.60644],[-119.49206,51.60648],[-119.49206,51.6065],[-119.49212,51.60655],[-119.49226,51.60664],[-119.49233,51.60669],[-119.49241,51.60675],[-119.49245,51.60677],[-119.49253,51.60679],[-119.49257,51.60682],[-119.49267,51.60685],[-119.49272,51.60685],[-119.49278,51.60687],[-119.49295,51.60692],[-119.493,51.60692],[-119.4931,51.60694],[-119.49327,51.60697],[-119.49339,51.60701],[-119.49342,51.60701],[-119.49365,51.60704],[-119.49375,51.60705],[-119.4938,51.60706],[-119.4938,51.6071],[-119.49381,51.6072],[-119.49395,51.60729],[-119.49406,51.60731],[-119.49439,51.60731],[-119.49458,51.6073],[-119.49465,51.60728],[-119.4947,51.60727],[-119.49479,51.60725],[-119.49489,51.60723],[-119.495,51.60721],[-119.49519,51.60718],[-119.49549,51.60718],[-119.49568,51.60719],[-119.49573,51.60719],[-119.49577,51.60721],[-119.49607,51.60733],[-119.49609,51.60734],[-119.49618,51.60736],[-119.49633,51.60742],[-119.49654,51.60748],[-119.49657,51.60751],[-119.4966,51.60756],[-119.49666,51.60759],[-119.49672,51.60764],[-119.49678,51.60767],[-119.49687,51.60771],[-119.49704,51.60781],[-119.49719,51.60788],[-119.49728,51.60792],[-119.49741,51.60797],[-119.49768,51.60813],[-119.49783,51.60821],[-119.49794,51.60826],[-119.49802,51.60829],[-119.49807,51.6083],[-119.49813,51.60831],[-119.49816,51.60832],[-119.49827,51.60837],[-119.49841,51.60844],[-119.49845,51.60845],[-119.49865,51.60856],[-119.49887,51.60867],[-119.49906,51.60878],[-119.4993,51.60889],[-119.49948,51.60894],[-119.49953,51.60896],[-119.49964,51.60901],[-119.49976,51.60909],[-119.4998,51.60913],[-119.5,51.60923],[-119.50013,51.60931],[-119.50029,51.60937],[-119.50043,51.60945],[-119.50049,51.60949],[-119.50053,51.60951],[-119.50059,51.60951],[-119.50071,51.60952],[-119.50081,51.60954],[-119.50088,51.60956],[-119.50112,51.60966],[-119.50119,51.60969],[-119.50141,51.60978],[-119.50174,51.60989],[-119.50189,51.60996],[-119.50236,51.61015],[-119.50243,51.61018],[-119.50258,51.61025],[-119.50261,51.61028],[-119.50278,51.61038],[-119.50289,51.61043],[-119.50297,51.61047],[-119.50301,51.61049],[-119.50309,51.61053],[-119.50318,51.61057],[-119.5033,51.61063],[-119.50338,51.61068],[-119.50361,51.61078],[-119.50378,51.61086],[-119.50386,51.61091],[-119.50398,51.61096],[-119.5043,51.61109],[-119.50441,51.61112],[-119.50454,51.61117],[-119.50469,51.61122],[-119.50473,51.61122],[-119.505,51.61125],[-119.50513,51.61124],[-119.50534,51.61122],[-119.50542,51.6112],[-119.50562,51.61113],[-119.50569,51.61113],[-119.50608,51.61113],[-119.50631,51.61114],[-119.50634,51.61115],[-119.50636,51.61115],[-119.50642,51.61117],[-119.50655,51.61119],[-119.50682,51.6112],[-119.50695,51.6112],[-119.50698,51.61121],[-119.50701,51.61121],[-119.50704,51.61122],[-119.50706,51.61123],[-119.50708,51.61122],[-119.5071,51.61121],[-119.50715,51.61119],[-119.50731,51.61115],[-119.5076,51.61107],[-119.50764,51.61105],[-119.50768,51.61104],[-119.50771,51.61103],[-119.50777,51.61101],[-119.5079,51.61091],[-119.50792,51.6109],[-119.50796,51.61086],[-119.508,51.61083],[-119.50803,51.61078],[-119.50805,51.61074],[-119.50818,51.61065],[-119.50822,51.6106],[-119.50826,51.61055],[-119.50828,51.61047],[-119.5083,51.61044],[-119.50839,51.61032],[-119.50839,51.61026],[-119.5084,51.61024],[-119.50843,51.61021],[-119.50846,51.61021],[-119.50853,51.61018],[-119.50857,51.61017],[-119.50867,51.61012],[-119.50897,51.61012],[-119.5092,51.61012],[-119.50929,51.61014],[-119.50951,51.61022],[-119.50981,51.6104],[-119.50987,51.61046],[-119.50989,51.61047],[-119.50993,51.61048],[-119.51003,51.61051],[-119.51015,51.61054],[-119.51039,51.61066],[-119.51052,51.61071],[-119.51069,51.6108],[-119.51072,51.61081],[-119.51078,51.61084],[-119.51083,51.61087],[-119.51086,51.61088],[-119.511,51.61093],[-119.51107,51.61096],[-119.5111,51.61097],[-119.51132,51.61098],[-119.51161,51.61098],[-119.51165,51.61097],[-119.51172,51.61096],[-119.51181,51.61094],[-119.51188,51.61093],[-119.51201,51.61092],[-119.51204,51.61091],[-119.51209,51.61088],[-119.51212,51.61087],[-119.51222,51.61087],[-119.51235,51.61086],[-119.51243,51.61082],[-119.51249,51.6108],[-119.51261,51.61079],[-119.51263,51.61078],[-119.51269,51.61075],[-119.51275,51.61073],[-119.5128,51.61072],[-119.51289,51.61072],[-119.51296,51.6107],[-119.51308,51.61069],[-119.51322,51.61067],[-119.51334,51.61065],[-119.51339,51.61062],[-119.51361,51.61061],[-119.51387,51.61062],[-119.51414,51.61061],[-119.51424,51.61063],[-119.51435,51.61065],[-119.51452,51.61066],[-119.51459,51.61066],[-119.51465,51.61067],[-119.51471,51.61069],[-119.51478,51.61069],[-119.51499,51.61071],[-119.5151,51.61071],[-119.51516,51.61071],[-119.51525,51.61071],[-119.51535,51.61073],[-119.51544,51.61074],[-119.51554,51.61075],[-119.5157,51.61076],[-119.51579,51.61075],[-119.51583,51.61076],[-119.516,51.61075],[-119.51614,51.61076],[-119.51632,51.6108],[-119.51638,51.61082],[-119.51647,51.61085],[-119.51656,51.61089],[-119.51663,51.6109],[-119.5169,51.61089],[-119.51706,51.61089],[-119.51728,51.61089],[-119.51732,51.61088],[-119.51741,51.61088],[-119.51756,51.61085],[-119.51764,51.61084],[-119.51782,51.61081],[-119.51786,51.61079],[-119.51791,51.61078],[-119.51801,51.61076],[-119.51815,51.61072],[-119.51818,51.61069],[-119.51822,51.61066],[-119.51825,51.61063],[-119.5183,51.61061],[-119.51842,51.61056],[-119.51844,51.61054],[-119.51848,51.61051],[-119.51851,51.6105],[-119.51856,51.61049],[-119.51863,51.61048],[-119.51868,51.61047],[-119.51893,51.61047],[-119.51906,51.61047],[-119.51912,51.61048],[-119.51918,51.61049],[-119.51931,51.61051],[-119.51942,51.61052],[-119.5196,51.61056],[-119.5197,51.6106],[-119.51979,51.61062],[-119.51986,51.61064],[-119.52,51.61067],[-119.52011,51.61072],[-119.52017,51.61073],[-119.52019,51.61076],[-119.52044,51.61083],[-119.52051,51.61085],[-119.52056,51.61088],[-119.52067,51.61093],[-119.52075,51.61097],[-119.52087,51.61101],[-119.52087,51.61112],[-119.52095,51.61114],[-119.52111,51.61122],[-119.5212,51.61128],[-119.52139,51.6114],[-119.52142,51.61143],[-119.52147,51.61147],[-119.52156,51.61152],[-119.52162,51.61157],[-119.52164,51.61159],[-119.52167,51.61163],[-119.52171,51.61166],[-119.5218,51.6117],[-119.52189,51.61175],[-119.52194,51.61178],[-119.52198,51.6118],[-119.52202,51.61181],[-119.52217,51.61189],[-119.52222,51.61191],[-119.52225,51.61195],[-119.52225,51.61205],[-119.52231,51.61206],[-119.52239,51.61209],[-119.52255,51.61215],[-119.52259,51.61218],[-119.52267,51.61222],[-119.52284,51.61227],[-119.5229,51.61229],[-119.52296,51.61231],[-119.523,51.61232],[-119.52331,51.61232],[-119.52335,51.61233],[-119.52342,51.61232],[-119.52355,51.61231],[-119.52362,51.61229],[-119.52365,51.61229],[-119.52394,51.61229],[-119.52425,51.61229],[-119.52449,51.61229],[-119.52458,51.61231],[-119.52468,51.61233],[-119.52475,51.61234],[-119.5248,51.61235],[-119.52491,51.61236],[-119.52496,51.61237],[-119.52507,51.61238],[-119.52515,51.61238],[-119.52528,51.6124],[-119.52544,51.61243],[-119.52554,51.61245],[-119.52563,51.61246],[-119.52566,51.61247],[-119.52573,51.61249],[-119.52605,51.61259],[-119.52613,51.61263],[-119.52619,51.61266],[-119.52623,51.61267],[-119.52626,51.61268],[-119.5263,51.61269],[-119.52656,51.61279],[-119.52667,51.61281],[-119.52673,51.61281],[-119.52686,51.61287],[-119.52691,51.6129],[-119.52695,51.6129],[-119.52713,51.61291],[-119.52717,51.61293],[-119.5272,51.61294],[-119.5273,51.61295],[-119.52752,51.61295],[-119.52791,51.61296],[-119.52807,51.61296],[-119.52818,51.61296],[-119.52828,51.61296],[-119.52849,51.61296],[-119.52888,51.61298],[-119.52902,51.61301],[-119.52914,51.61302],[-119.52947,51.61302],[-119.52954,51.613],[-119.5296,51.61298],[-119.52963,51.61296],[-119.52993,51.61295],[-119.53012,51.61296],[-119.53029,51.61293],[-119.53032,51.61292],[-119.53046,51.6129],[-119.53056,51.61289],[-119.53062,51.61289],[-119.53068,51.61288],[-119.53075,51.61283],[-119.53077,51.6128],[-119.53079,51.6128],[-119.53082,51.61279],[-119.53096,51.61278],[-119.53122,51.61272],[-119.53133,51.61269],[-119.53142,51.61268],[-119.53146,51.61267],[-119.53152,51.61266],[-119.53179,51.61265],[-119.53185,51.61264],[-119.53188,51.61262]]}},
{"type":"Feature","properties":{"spotId":"A-grouse-walk-0120","kind":"walk","km":0.98,"climbM":76,"name":"930 m S of Reg Christie Creek","flags":[]},"geometry":{"type":"LineString","coordinates":[[-119.43736,51.59424],[-119.43686,51.58549]]}},
{"type":"Feature","properties":{"spotId":"A-grouse-walk-0120","kind":"roadside","km":5.72,"climbM":117,"name":"930 m S of Reg Christie Creek","flags":[]},"geometry":{"type":"LineString","coordinates":[[-119.43686,51.58549],[-119.43683,51.58546],[-119.43679,51.58542],[-119.43677,51.58539],[-119.43674,51.58537],[-119.43671,51.58532],[-119.43666,51.58526],[-119.43662,51.58523],[-119.43656,51.58518],[-119.43638,51.58505],[-119.43634,51.58498],[-119.43634,51.58471],[-119.43634,51.58461],[-119.43635,51.58458],[-119.43637,51.58448],[-119.43639,51.58445],[-119.4364,51.58444],[-119.43643,51.5844],[-119.43647,51.58435],[-119.43651,51.58434],[-119.43659,51.58424],[-119.43668,51.58418],[-119.4367,51.58418],[-119.43674,51.58412],[-119.43676,51.58409],[-119.43678,51.58407],[-119.43695,51.58386],[-119.437,51.58373],[-119.43704,51.58368],[-119.43707,51.58366],[-119.43708,51.58365],[-119.43711,51.58363],[-119.43714,51.5836],[-119.43721,51.58346],[-119.43723,51.58342],[-119.43724,51.58335],[-119.43723,51.58327],[-119.43717,51.58316],[-119.43715,51.58311],[-119.43715,51.58305],[-119.43712,51.583],[-119.43706,51.58293],[-119.43704,51.5829],[-119.43696,51.5828],[-119.43693,51.58278],[-119.43692,51.58274],[-119.43689,51.58271],[-119.43677,51.58272],[-119.43658,51.58271],[-119.43642,51.58273],[-119.43637,51.58273],[-119.4363,51.58276],[-119.43627,51.58276],[-119.4362,51.5828],[-119.43611,51.58286],[-119.43589,51.58294],[-119.43579,51.58299],[-119.4356,51.58305],[-119.43545,51.58311],[-119.43538,51.58313],[-119.43529,51.58314],[-119.43519,51.58316],[-119.43492,51.58317],[-119.43479,51.58315],[-119.43467,51.58315],[-119.43446,51.58315],[-119.43412,51.58315],[-119.4334,51.58316],[-119.43333,51.58317],[-119.43319,51.58322],[-119.43309,51.58326],[-119.433,51.58327],[-119.43296,51.58329],[-119.43295,51.5833],[-119.43289,51.58332],[-119.43254,51.58333],[-119.43249,51.58335],[-119.43243,51.58337],[-119.4324,51.58339],[-119.43231,51.58347],[-119.43223,51.58358],[-119.43216,51.58368],[-119.43206,51.58379],[-119.43201,51.58386],[-119.43197,51.5839],[-119.43184,51.58401],[-119.43182,51.58403],[-119.43176,51.58408],[-119.43171,51.58411],[-119.43162,51.58415],[-119.43151,51.58422],[-119.43148,51.58423],[-119.43144,51.58426],[-119.43141,51.58427],[-119.43091,51.58428],[-119.43066,51.58427],[-119.43052,51.58428],[-119.43046,51.58429],[-119.43039,51.58432],[-119.43022,51.58437],[-119.43003,51.58442],[-119.43001,51.58443],[-119.42996,51.58444],[-119.42991,51.58447],[-119.42982,51.58451],[-119.42979,51.58453],[-119.42964,51.58456],[-119.42949,51.5846],[-119.42938,51.58463],[-119.42931,51.58465],[-119.42886,51.58465],[-119.42877,51.58458],[-119.4287,51.5845],[-119.42868,51.58448],[-119.42867,51.58429],[-119.42853,51.58416],[-119.42847,51.58408],[-119.42839,51.58399],[-119.42836,51.58396],[-119.42832,51.58394],[-119.42826,51.58391],[-119.42817,51.58388],[-119.42811,51.58386],[-119.42804,51.58384],[-119.42795,51.58382],[-119.42791,51.58381],[-119.42762,51.58381],[-119.42756,51.5838],[-119.42753,51.58378],[-119.4275,51.58377],[-119.42747,51.58375],[-119.42746,51.58372],[-119.42746,51.58362],[-119.42753,51.58347],[-119.42754,51.58339],[-119.42754,51.58338],[-119.42755,51.58329],[-119.42753,51.58325],[-119.42751,51.58313],[-119.4275,51.58294],[-119.42748,51.58288],[-119.42747,51.58283],[-119.42746,51.58278],[-119.42745,51.58273],[-119.42735,51.58257],[-119.42732,51.58253],[-119.4273,51.5825],[-119.42726,51.58248],[-119.42723,51.58247],[-119.42714,51.58246],[-119.42675,51.58247],[-119.42672,51.58248],[-119.42667,51.58249],[-119.4266,51.58251],[-119.42657,51.58252],[-119.42645,51.58253],[-119.42631,51.58252],[-119.42616,51.58252],[-119.42609,51.58246],[-119.426,51.58236],[-119.42597,51.58235],[-119.42591,51.58229],[-119.42589,51.58227],[-119.42588,51.58224],[-119.42586,51.58204],[-119.42589,51.58201],[-119.42596,51.5819],[-119.42597,51.58185],[-119.42601,51.5818],[-119.42604,51.58174],[-119.42606,51.58172],[-119.42611,51.58168],[-119.42615,51.58162],[-119.42617,51.58157],[-119.42618,51.58152],[-119.42622,51.58144],[-119.42629,51.58139],[-119.42629,51.58133],[-119.4263,51.58122],[-119.42626,51.58111],[-119.42623,51.58102],[-119.42623,51.581],[-119.42621,51.58097],[-119.42615,51.58088],[-119.42609,51.5808],[-119.42604,51.58076],[-119.42598,51.58069],[-119.42593,51.58063],[-119.42589,51.58058],[-119.42587,51.58054],[-119.42583,51.5805],[-119.42576,51.58044],[-119.42563,51.58035],[-119.42561,51.58029],[-119.42561,51.5802],[-119.42562,51.5801],[-119.42561,51.58001],[-119.42563,51.57989],[-119.42562,51.57964],[-119.42563,51.57955],[-119.42562,51.57926],[-119.42563,51.57922],[-119.42563,51.57919],[-119.42564,51.57916],[-119.42567,51.57912],[-119.42566,51.57911],[-119.42567,51.579],[-119.42568,51.57894],[-119.42567,51.57866],[-119.42568,51.57849],[-119.42566,51.57845],[-119.42551,51.57833],[-119.42546,51.57827],[-119.42544,51.57823],[-119.42543,51.5782],[-119.42536,51.57806],[-119.42533,51.57803],[-119.4253,51.57799],[-119.42507,51.57788],[-119.42487,51.5778],[-119.42481,51.57778],[-119.42476,51.57775],[-119.42461,51.57769],[-119.42448,51.57765],[-119.42446,51.57764],[-119.42434,51.57761],[-119.42424,51.57758],[-119.42414,51.57757],[-119.4241,51.57757],[-119.42405,51.57757],[-119.42401,51.57756],[-119.42398,51.57756],[-119.42394,51.57754],[-119.42392,51.57752],[-119.42389,51.57751],[-119.4238,51.57741],[-119.42374,51.57737],[-119.4237,51.57736],[-119.42344,51.57724],[-119.42331,51.57719],[-119.42327,51.57718],[-119.42321,51.57715],[-119.42318,51.57713],[-119.42316,51.57713],[-119.42312,51.57711],[-119.42307,51.57709],[-119.42303,51.57708],[-119.42287,51.57709],[-119.42273,51.57708],[-119.42254,51.57709],[-119.42235,51.5771],[-119.42217,51.57711],[-119.42208,51.57713],[-119.42192,51.57714],[-119.42187,51.57715],[-119.42165,51.57722],[-119.42147,51.57725],[-119.42129,51.57725],[-119.42116,51.57723],[-119.42115,51.57723],[-119.42107,51.57719],[-119.42104,51.57716],[-119.421,51.57713],[-119.42098,51.57712],[-119.42097,51.57711],[-119.42079,51.57693],[-119.42077,51.5769],[-119.42069,51.57681],[-119.4206,51.57672],[-119.42054,51.57668],[-119.42035,51.57656],[-119.4203,51.57655],[-119.42025,51.57654],[-119.42007,51.57654],[-119.41999,51.57656],[-119.41986,51.57661],[-119.41968,51.57673],[-119.41964,51.57675],[-119.41951,51.57678],[-119.4195,51.57669],[-119.41942,51.57672],[-119.41926,51.57678],[-119.41918,51.5768],[-119.41909,51.57681],[-119.41898,51.57685],[-119.41872,51.57688],[-119.41865,51.5769],[-119.41861,51.57692],[-119.41855,51.57696],[-119.41852,51.57697],[-119.41842,51.57703],[-119.41838,51.57705],[-119.41827,51.57711],[-119.41819,51.57716],[-119.41812,51.5772],[-119.41806,51.57725],[-119.41803,51.57726],[-119.41799,51.57729],[-119.41793,51.57731],[-119.41779,51.57736],[-119.41765,51.57743],[-119.4176,51.57747],[-119.41744,51.5776],[-119.41736,51.5777],[-119.41725,51.57778],[-119.4172,51.57782],[-119.41715,51.57785],[-119.41704,51.57792],[-119.41699,51.57796],[-119.4169,51.57801],[-119.41676,51.57808],[-119.41664,51.57814],[-119.41647,51.57826],[-119.4164,51.5783],[-119.41637,51.57832],[-119.41629,51.57836],[-119.41622,51.57839],[-119.41616,51.57843],[-119.41602,51.5785],[-119.41589,51.57854],[-119.41574,51.57862],[-119.41569,51.57863],[-119.4156,51.57868],[-119.41551,51.5787],[-119.4155,51.5787],[-119.4154,51.57874],[-119.41537,51.57874],[-119.41523,51.57879],[-119.41513,51.57882],[-119.41501,51.57889],[-119.41493,51.57895],[-119.41485,51.57901],[-119.41478,51.57904],[-119.41471,51.57911],[-119.41467,51.57916],[-119.41463,51.57924],[-119.4146,51.57928],[-119.41449,51.57936],[-119.41444,51.5794],[-119.41438,51.57942],[-119.41434,51.57943],[-119.41429,51.57945],[-119.41425,51.57946],[-119.41411,51.57951],[-119.41407,51.57952],[-119.41376,51.57974],[-119.41366,51.57979],[-119.41352,51.57989],[-119.41337,51.57996],[-119.41324,51.58001],[-119.41313,51.58007],[-119.41303,51.5801],[-119.41297,51.58012],[-119.41285,51.5802],[-119.41269,51.58028],[-119.41262,51.58033],[-119.41261,51.58036],[-119.41258,51.58039],[-119.41252,51.58059],[-119.41251,51.58061],[-119.41248,51.58071],[-119.41247,51.5808],[-119.41246,51.58082],[-119.41242,51.5809],[-119.4124,51.58095],[-119.4123,51.58108],[-119.41225,51.58113],[-119.41215,51.58123],[-119.41211,51.58132],[-119.41207,51.58137],[-119.412,51.58143],[-119.41196,51.58144],[-119.4119,51.58146],[-119.41178,51.58149],[-119.41169,51.58152],[-119.4116,51.58154],[-119.41153,51.58157],[-119.41139,51.58164],[-119.41134,51.58166],[-119.41124,51.58168],[-119.41115,51.58172],[-119.41104,51.58176],[-119.41091,51.58181],[-119.41077,51.58184],[-119.41054,51.58185],[-119.41031,51.58184],[-119.41022,51.58184],[-119.41018,51.58184],[-119.41016,51.58183],[-119.41009,51.58178],[-119.41006,51.58174],[-119.41005,51.58154],[-119.41007,51.58145],[-119.41006,51.58135],[-119.41007,51.58119],[-119.41007,51.58109],[-119.41008,51.58104],[-119.4101,51.58101],[-119.41014,51.58095],[-119.41024,51.58085],[-119.4103,51.58083],[-119.41035,51.58076],[-119.41042,51.5807],[-119.41048,51.58066],[-119.41052,51.58062],[-119.41059,51.58055],[-119.4107,51.58046],[-119.41071,51.58044],[-119.41071,51.58037],[-119.41072,51.58037],[-119.41075,51.58033],[-119.41077,51.58028],[-119.41077,51.58022],[-119.41078,51.58015],[-119.41077,51.58001],[-119.41076,51.57995],[-119.41072,51.57991],[-119.41072,51.57988],[-119.41063,51.57983],[-119.41047,51.57983],[-119.41036,51.57985],[-119.4103,51.57988],[-119.41024,51.57994],[-119.41022,51.57994],[-119.41018,51.57997],[-119.41017,51.58],[-119.41008,51.58008],[-119.40999,51.58015],[-119.40997,51.58018],[-119.40992,51.58023],[-119.40986,51.58028],[-119.40981,51.5803],[-119.40967,51.58036],[-119.40957,51.58039],[-119.40943,51.58048],[-119.4093,51.58053],[-119.40924,51.58057],[-119.40919,51.5806],[-119.40909,51.58063],[-119.40885,51.58073],[-119.40879,51.58077],[-119.40871,51.58081],[-119.40862,51.58085],[-119.40858,51.58086],[-119.40825,51.58097],[-119.40784,51.58098],[-119.40771,51.58097],[-119.40765,51.58096],[-119.40753,51.58096],[-119.4075,51.58095],[-119.40743,51.5809],[-119.40741,51.58088],[-119.40739,51.58054],[-119.4074,51.58042],[-119.40737,51.58032],[-119.40735,51.58026],[-119.40735,51.58024],[-119.4073,51.5802],[-119.40729,51.5799],[-119.40729,51.57973],[-119.40728,51.57953],[-119.40726,51.57943],[-119.40725,51.57915],[-119.40726,51.57913],[-119.40727,51.57908],[-119.40733,51.57903],[-119.40733,51.57897],[-119.40733,51.57882],[-119.40732,51.57863],[-119.40729,51.57849],[-119.40727,51.57838],[-119.40725,51.57833],[-119.40719,51.57826],[-119.40714,51.57819],[-119.40713,51.57799],[-119.40718,51.57784],[-119.40722,51.57779],[-119.40725,51.57777],[-119.40728,51.57774],[-119.40733,51.57772],[-119.40742,51.57767],[-119.40746,51.57765],[-119.40754,51.57758],[-119.40761,51.5775],[-119.40762,51.57747],[-119.40763,51.57743],[-119.40771,51.57732],[-119.40787,51.57722],[-119.4079,51.57721],[-119.40807,51.57718],[-119.40814,51.57717],[-119.4082,51.57716],[-119.40823,51.57715],[-119.40832,51.57711],[-119.40844,51.57706],[-119.40853,51.57698],[-119.40858,51.57696],[-119.4086,51.57693],[-119.40863,51.57692],[-119.40869,51.57688],[-119.40884,51.57678],[-119.40897,51.57673],[-119.40926,51.5765],[-119.40944,51.57638],[-119.40951,51.57632],[-119.40968,51.57621],[-119.4098,51.57615],[-119.40987,51.57611],[-119.41002,51.57606],[-119.41021,51.576],[-119.41045,51.57589],[-119.41064,51.5758],[-119.41082,51.57573],[-119.41104,51.57559],[-119.41121,51.57546],[-119.41132,51.57534],[-119.41146,51.5752],[-119.4115,51.57517],[-119.41155,51.57514],[-119.41165,51.57506],[-119.41169,51.57501],[-119.41172,51.57497],[-119.41176,51.57492],[-119.41179,51.5749],[-119.41179,51.57488],[-119.41181,51.57481],[-119.41184,51.57478],[-119.41189,51.57472],[-119.41202,51.57462],[-119.41224,51.57438],[-119.41236,51.57426],[-119.4124,51.57424],[-119.41282,51.57391],[-119.41286,51.57388],[-119.41297,51.5738],[-119.41324,51.57366],[-119.4134,51.57351],[-119.41351,51.57344],[-119.4136,51.57337],[-119.41368,51.57327],[-119.41377,51.57311],[-119.4138,51.57309],[-119.41382,51.57305],[-119.41385,51.57304],[-119.41394,51.57296],[-119.41409,51.57279],[-119.41413,51.57273],[-119.41419,51.57267],[-119.41424,51.57263],[-119.41426,51.57261],[-119.41425,51.57226],[-119.41423,51.57224],[-119.41419,51.57213],[-119.41416,51.57205],[-119.41407,51.57194],[-119.41405,51.57187],[-119.41404,51.57186],[-119.41391,51.57165],[-119.41389,51.57159],[-119.41388,51.57128],[-119.41386,51.57126],[-119.41384,51.5712],[-119.41373,51.57102],[-119.4137,51.57099],[-119.4136,51.57092],[-119.41355,51.57085],[-119.41355,51.57079],[-119.41353,51.57075],[-119.41353,51.57073],[-119.41351,51.57069],[-119.41347,51.57063],[-119.41345,51.5706],[-119.4134,51.57055],[-119.41311,51.57046],[-119.41304,51.57043],[-119.41299,51.57038],[-119.41295,51.57035],[-119.4129,51.5703],[-119.41284,51.57017],[-119.41274,51.57007],[-119.4127,51.57001],[-119.41266,51.56993],[-119.4126,51.56984],[-119.41254,51.56978],[-119.41249,51.56971],[-119.41245,51.56963],[-119.41243,51.56957],[-119.41242,51.56942],[-119.41239,51.56933],[-119.41238,51.56929],[-119.4124,51.56924],[-119.41244,51.56915],[-119.41245,51.56912],[-119.41245,51.56907],[-119.41241,51.56903],[-119.41234,51.56894],[-119.41229,51.56891],[-119.41225,51.56886],[-119.41222,51.56882],[-119.41221,51.56875],[-119.41222,51.56856],[-119.41209,51.56843],[-119.41203,51.56841],[-119.41199,51.5684],[-119.41196,51.56838],[-119.41187,51.56835],[-119.41177,51.5683],[-119.41173,51.56828],[-119.41156,51.56823],[-119.41152,51.5682],[-119.41143,51.56812],[-119.41138,51.56811],[-119.41137,51.56809],[-119.41129,51.56804],[-119.41126,51.56801],[-119.41116,51.56794],[-119.41098,51.56787],[-119.41082,51.56787],[-119.41077,51.56789],[-119.41067,51.56794],[-119.41057,51.56796],[-119.41047,51.56799],[-119.41034,51.56805],[-119.41026,51.56811],[-119.41013,51.56815],[-119.41009,51.56816],[-119.40997,51.56815],[-119.40987,51.56811],[-119.40984,51.56808],[-119.40982,51.56807],[-119.40979,51.56797],[-119.40976,51.56794],[-119.40971,51.56789],[-119.40964,51.56783],[-119.40959,51.56777],[-119.40952,51.56772],[-119.40941,51.56767]]}}
]}
