{"type":"FeatureCollection","features":[
{"type":"Feature","properties":{"spotId":"A-camp-camp-0095","kind":"walk","km":0.12,"climbM":0,"name":"3.4 km E of Bryden Lake rec site","flags":[]},"geometry":{"type":"LineString","coordinates":[[-119.48539,50.73773],[-119.48698,50.7382]]}},
{"type":"Feature","properties":{"spotId":"A-deer-atv-0155","kind":"ride","km":2.01,"climbM":1,"name":"1.5 km W of Silvernail Lake","flags":["Route crosses private land (ParcelMap BC, updated 2026-09-25): get permission first or go around."]},"geometry":{"type":"LineString","coordinates":[[-119.4892,50.50482],[-119.48944,50.50482],[-119.48968,50.50482],[-119.48993,50.50481],[-119.49017,50.50482],[-119.49037,50.50483],[-119.49062,50.50484],[-119.49084,50.50486],[-119.49112,50.50487],[-119.49134,50.50488],[-119.49158,50.50488],[-119.49182,50.50487],[-119.49209,50.50486],[-119.49229,50.50484],[-119.49251,50.50478],[-119.49272,50.50472],[-119.49288,50.50466],[-119.49305,50.50457],[-119.49318,50.50447],[-119.49333,50.50436],[-119.49348,50.50427],[-119.49365,50.50417],[-119.4938,50.50407],[-119.49396,50.50397],[-119.49417,50.50389],[-119.49439,50.50388],[-119.49445,50.5039],[-119.49463,50.50398],[-119.49481,50.50403],[-119.49488,50.50403],[-119.49495,50.504],[-119.49513,50.50387],[-119.49512,50.50374],[-119.49513,50.50363],[-119.49513,50.50358],[-119.49514,50.50351],[-119.49512,50.50341],[-119.49508,50.5033],[-119.49505,50.5032],[-119.495,50.50313],[-119.49499,50.50306],[-119.49498,50.50294],[-119.495,50.50288],[-119.49506,50.50283],[-119.49518,50.50279],[-119.49528,50.50278],[-119.49538,50.5028],[-119.49548,50.50282],[-119.49558,50.50288],[-119.49567,50.50294],[-119.49579,50.503],[-119.49586,50.50304],[-119.49593,50.5031],[-119.49598,50.50315],[-119.49604,50.5032],[-119.4961,50.50324],[-119.49618,50.50329],[-119.49637,50.50331],[-119.49646,50.50328],[-119.49656,50.50325],[-119.49663,50.5032],[-119.49668,50.50316],[-119.49674,50.50309],[-119.49677,50.50297],[-119.49677,50.50291],[-119.49676,50.5028],[-119.49676,50.50274],[-119.49674,50.50269],[-119.49671,50.50261],[-119.49668,50.50255],[-119.49665,50.50247],[-119.49662,50.50242],[-119.4966,50.50236],[-119.49657,50.50229],[-119.49654,50.50223],[-119.49652,50.50217],[-119.4965,50.5021],[-119.49648,50.50205],[-119.49648,50.50197],[-119.49648,50.50188],[-119.49646,50.50181],[-119.49643,50.50176],[-119.49641,50.50168],[-119.4964,50.50166],[-119.49638,50.50161],[-119.49629,50.50152],[-119.4962,50.50149],[-119.49611,50.50143],[-119.49607,50.50136],[-119.49606,50.50127],[-119.49607,50.50118],[-119.49607,50.50111],[-119.49608,50.50106],[-119.49609,50.50098],[-119.4961,50.50091],[-119.4961,50.50086],[-119.49605,50.50074],[-119.49602,50.50067],[-119.49596,50.5006],[-119.49592,50.50054],[-119.49586,50.50045],[-119.4958,50.50038],[-119.49574,50.50032],[-119.49568,50.50026],[-119.49561,50.50018],[-119.49554,50.50012],[-119.49545,50.50005],[-119.49537,50.5],[-119.49532,50.49997],[-119.49517,50.49992],[-119.49507,50.49991],[-119.49499,50.49989],[-119.49486,50.49986],[-119.49473,50.49978],[-119.4947,50.49973],[-119.49462,50.49965],[-119.49455,50.49959],[-119.49446,50.49955],[-119.49432,50.49955],[-119.49421,50.49953],[-119.49408,50.49947],[-119.49401,50.49945],[-119.49389,50.4994],[-119.49385,50.49935],[-119.49383,50.49926],[-119.49375,50.49912],[-119.49369,50.49906],[-119.49362,50.499],[-119.49354,50.49895],[-119.49348,50.4989],[-119.49342,50.49885],[-119.49335,50.49875],[-119.49327,50.49866],[-119.49318,50.49856],[-119.49314,50.49852],[-119.49311,50.49847],[-119.49308,50.49841],[-119.49306,50.49835],[-119.49306,50.49827],[-119.49306,50.49817],[-119.49306,50.4981],[-119.49314,50.49805],[-119.49323,50.49802],[-119.49328,50.49801],[-119.49342,50.49801],[-119.49354,50.49804],[-119.49367,50.49811],[-119.49374,50.49815],[-119.49387,50.49823],[-119.49399,50.4983],[-119.49407,50.49832],[-119.49413,50.49836],[-119.49425,50.4984],[-119.49433,50.49842],[-119.49445,50.49847],[-119.49463,50.4985],[-119.49478,50.49852],[-119.4949,50.49854],[-119.49502,50.49857],[-119.49512,50.49859],[-119.4952,50.49861],[-119.4953,50.49863],[-119.4954,50.49863],[-119.49556,50.49865],[-119.49566,50.49866],[-119.49584,50.4987],[-119.49594,50.49872],[-119.49603,50.49875],[-119.49616,50.49878],[-119.4963,50.4988],[-119.49641,50.49883],[-119.49651,50.49884],[-119.49665,50.49886],[-119.49675,50.49889],[-119.49683,50.49892],[-119.49693,50.49895],[-119.49703,50.49899],[-119.49716,50.49901],[-119.49724,50.49902],[-119.49734,50.49903],[-119.4975,50.49904],[-119.49767,50.49904],[-119.49784,50.49907],[-119.49792,50.49908],[-119.49802,50.49909],[-119.49816,50.4991],[-119.4983,50.49909],[-119.49843,50.4991],[-119.49858,50.4991],[-119.49874,50.4991],[-119.49884,50.4991],[-119.49897,50.49909],[-119.49914,50.4991],[-119.49905,50.49891],[-119.49895,50.49884],[-119.49885,50.49878],[-119.49879,50.49874],[-119.49872,50.49866],[-119.49871,50.4986],[-119.49867,50.49848],[-119.49869,50.49843],[-119.49873,50.49839],[-119.49879,50.49836],[-119.49887,50.49832],[-119.4989,50.49831],[-119.49897,50.49829],[-119.49918,50.49827],[-119.4993,50.49825]]}},
{"type":"Feature","properties":{"spotId":"A-deer-atv-0155","kind":"walk","km":0.38,"climbM":3,"name":"1.5 km W of Silvernail Lake","flags":["Route crosses private land (ParcelMap BC, updated 2026-09-25): get permission first or go around."]},"geometry":{"type":"LineString","coordinates":[[-119.4892,50.50482],[-119.48913,50.50828]]}},
{"type":"Feature","properties":{"spotId":"A-deer-drive-0081","kind":"walk","km":0.1,"climbM":4,"name":"1.7 km S of Bolean Lake rec site","flags":[]},"geometry":{"type":"LineString","coordinates":[[-119.48779,50.51779],[-119.48705,50.51706]]}},
{"type":"Feature","properties":{"spotId":"A-duck-drive-0135","kind":"walk","km":0.04,"climbM":0,"name":"Spa Lake","flags":[]},"geometry":{"type":"LineString","coordinates":[[-119.46621,50.56228],[-119.46566,50.56242]]}},
{"type":"Feature","properties":{"spotId":"A-duck-walk-0121","kind":"walk","km":0.37,"climbM":0,"name":"Kernaghan Lake","flags":[]},"geometry":{"type":"LineString","coordinates":[[-119.47481,50.62306],[-119.46964,50.62325]]}},
{"type":"Feature","properties":{"spotId":"A-duck-walk-0129","kind":"walk","km":0.35,"climbM":3,"name":"Unnamed wetland 2.3 km E of Fly Hill","flags":[]},"geometry":{"type":"LineString","coordinates":[[-119.41357,50.73638],[-119.41722,50.73424]]}},
{"type":"Feature","properties":{"spotId":"A-grouse-atv-0112","kind":"ride","km":3.83,"climbM":91,"name":"190 m SE of Kernaghan Creek","flags":[]},"geometry":{"type":"LineString","coordinates":[[-119.44918,50.62596],[-119.4492,50.62588],[-119.44914,50.62581],[-119.44901,50.62572],[-119.44886,50.62565],[-119.44859,50.62563],[-119.44828,50.62559],[-119.44808,50.62556],[-119.44792,50.62549],[-119.44777,50.62536],[-119.44767,50.62524],[-119.44758,50.62511],[-119.4475,50.62501],[-119.44733,50.62492],[-119.44717,50.62482],[-119.44701,50.62479],[-119.44681,50.62481],[-119.44649,50.62488],[-119.44612,50.62494],[-119.44584,50.62495],[-119.44543,50.62493],[-119.44501,50.6249],[-119.44453,50.62486],[-119.44414,50.62479],[-119.44376,50.62472],[-119.44351,50.62468],[-119.44325,50.62465],[-119.44295,50.62457],[-119.44266,50.62451],[-119.44235,50.62445],[-119.44209,50.62439],[-119.44191,50.62427],[-119.44166,50.62412],[-119.4413,50.62388],[-119.44114,50.62375],[-119.44099,50.6236],[-119.44086,50.62348],[-119.44077,50.62333],[-119.44072,50.62316],[-119.44068,50.62305],[-119.4406,50.62296],[-119.44048,50.62283],[-119.44031,50.62272],[-119.44019,50.62261],[-119.44012,50.62249],[-119.44005,50.62237],[-119.43992,50.62227],[-119.43978,50.62215],[-119.4397,50.62208],[-119.43968,50.62194],[-119.43967,50.62179],[-119.43966,50.62159],[-119.4397,50.62145],[-119.43975,50.62135],[-119.43989,50.62125],[-119.44008,50.62113],[-119.44016,50.62106],[-119.44021,50.62097],[-119.44026,50.62079],[-119.4403,50.62062],[-119.44028,50.62054],[-119.44024,50.62041],[-119.44014,50.62017],[-119.44002,50.6199],[-119.43992,50.61968],[-119.43981,50.61942],[-119.43975,50.61927],[-119.43965,50.61905],[-119.43962,50.61889],[-119.43962,50.61871],[-119.4396,50.61853],[-119.43953,50.61835],[-119.43947,50.61818],[-119.4394,50.618],[-119.43939,50.61781],[-119.43942,50.61757],[-119.43948,50.61725],[-119.43955,50.61698],[-119.43961,50.61672],[-119.4397,50.61643],[-119.4398,50.6162],[-119.43983,50.61603],[-119.43989,50.61577],[-119.43993,50.61559],[-119.43989,50.61547],[-119.43982,50.61527],[-119.43967,50.61506],[-119.43948,50.61489],[-119.43907,50.61454],[-119.4387,50.61423],[-119.43832,50.61395],[-119.4381,50.61376],[-119.43796,50.61359],[-119.43782,50.61335],[-119.43773,50.61318],[-119.43768,50.61298],[-119.43765,50.61274],[-119.4376,50.61239],[-119.43753,50.61213],[-119.4373,50.61181],[-119.43696,50.61152],[-119.43666,50.6113],[-119.43652,50.61124],[-119.43634,50.61116],[-119.43606,50.61107],[-119.43586,50.61096],[-119.43564,50.61079],[-119.43544,50.61058],[-119.43524,50.61044],[-119.43504,50.61035],[-119.43481,50.61021],[-119.43462,50.61011],[-119.43445,50.61002],[-119.43434,50.60989],[-119.43426,50.6097],[-119.43414,50.60952],[-119.43396,50.60933],[-119.43381,50.60919],[-119.43364,50.60904],[-119.43368,50.60893],[-119.43378,50.60877],[-119.43393,50.60853],[-119.43409,50.6083],[-119.43418,50.60811],[-119.43422,50.60794],[-119.43431,50.60779],[-119.43434,50.60766],[-119.43431,50.60749],[-119.43425,50.60732],[-119.43419,50.60714],[-119.43417,50.60697],[-119.4342,50.60684],[-119.43424,50.60672],[-119.4343,50.6066],[-119.43441,50.60646],[-119.43448,50.60638],[-119.43452,50.60629],[-119.43454,50.60618],[-119.43452,50.60608],[-119.43442,50.60589],[-119.43436,50.60576],[-119.43433,50.60564],[-119.43431,50.60544],[-119.43427,50.60531],[-119.43416,50.60511],[-119.4341,50.605],[-119.43407,50.60491],[-119.43406,50.60473],[-119.43408,50.60451],[-119.43408,50.60437],[-119.43404,50.60413],[-119.43403,50.60394],[-119.43403,50.60378],[-119.43406,50.60362],[-119.4341,50.60345],[-119.43413,50.6033],[-119.43412,50.60318],[-119.43408,50.60304],[-119.43402,50.60289],[-119.43401,50.60271],[-119.43401,50.60256],[-119.43404,50.60234],[-119.43409,50.60222],[-119.43417,50.6021],[-119.43433,50.60199],[-119.43474,50.60181],[-119.43511,50.60164],[-119.43544,50.60154],[-119.43572,50.6014],[-119.43586,50.60127],[-119.43595,50.60113],[-119.436,50.60103],[-119.43604,50.60082],[-119.43616,50.60057],[-119.43629,50.60033],[-119.43648,50.60014],[-119.43671,50.59993],[-119.43699,50.59971],[-119.4373,50.59952],[-119.43759,50.59933],[-119.43784,50.59921],[-119.43797,50.59913],[-119.43798,50.59906],[-119.43798,50.59905],[-119.43798,50.59892],[-119.43798,50.59884],[-119.43797,50.59873],[-119.43795,50.59854],[-119.43791,50.59845]]}},
{"type":"Feature","properties":{"spotId":"A-grouse-walk-0078","kind":"roadside","km":3.93,"climbM":54,"name":"1.5 km NE of Bolean Lake","flags":[]},"geometry":{"type":"LineString","coordinates":[[-119.49733,50.55482],[-119.49727,50.55478],[-119.49718,50.55473],[-119.49706,50.55468],[-119.49699,50.55464],[-119.49686,50.55458],[-119.49678,50.55453],[-119.49671,50.55449],[-119.49657,50.55442],[-119.49641,50.55435],[-119.49634,50.55431],[-119.49613,50.55422],[-119.49602,50.55414],[-119.49589,50.55408],[-119.49581,50.55404],[-119.49574,50.554],[-119.49568,50.55396],[-119.49561,50.55389],[-119.49554,50.55384],[-119.49542,50.55377],[-119.49533,50.55373],[-119.4952,50.55368],[-119.4951,50.55364],[-119.49501,50.5536],[-119.49494,50.55358],[-119.49483,50.55354],[-119.49471,50.55352],[-119.4946,50.55349],[-119.49444,50.55347],[-119.49434,50.55346],[-119.49422,50.55345],[-119.49399,50.55343],[-119.49388,50.55344],[-119.49374,50.55344],[-119.49359,50.55345],[-119.49347,50.55346],[-119.49336,50.55349],[-119.49327,50.55351],[-119.49308,50.55353],[-119.49299,50.55355],[-119.49289,50.55355],[-119.49278,50.55355],[-119.49265,50.55355],[-119.4926,50.55355],[-119.4925,50.55356],[-119.49237,50.55354],[-119.49223,50.5535],[-119.49214,50.55345],[-119.49174,50.55337],[-119.4921,50.55318],[-119.49217,50.55313],[-119.49223,50.55308],[-119.4923,50.55303],[-119.49236,50.553],[-119.49243,50.55296],[-119.49249,50.55293],[-119.49263,50.55285],[-119.4927,50.55281],[-119.49275,50.55277],[-119.49281,50.55269],[-119.49283,50.55263],[-119.49287,50.55256],[-119.49288,50.55247],[-119.49292,50.55239],[-119.49294,50.55233],[-119.49298,50.55226],[-119.49301,50.5522],[-119.49304,50.55212],[-119.49307,50.55205],[-119.49309,50.55198],[-119.49312,50.55188],[-119.49313,50.55179],[-119.49313,50.55167],[-119.49314,50.5516],[-119.49317,50.5515],[-119.49318,50.55144],[-119.49317,50.55136],[-119.49318,50.5512],[-119.49317,50.55103],[-119.49315,50.55095],[-119.49313,50.55088],[-119.4931,50.55078],[-119.49308,50.55069],[-119.49306,50.55062],[-119.49303,50.55053],[-119.493,50.55046],[-119.49298,50.55039],[-119.49296,50.55025],[-119.49296,50.55004],[-119.49297,50.54997],[-119.49297,50.54992],[-119.49301,50.54981],[-119.49304,50.54972],[-119.49308,50.54966],[-119.49312,50.54959],[-119.4932,50.54952],[-119.49327,50.54946],[-119.49334,50.5494],[-119.49341,50.54934],[-119.49347,50.54928],[-119.49353,50.54923],[-119.49357,50.54917],[-119.49387,50.54906],[-119.49394,50.54903],[-119.49404,50.54898],[-119.49418,50.54893],[-119.49427,50.54889],[-119.49445,50.54886],[-119.49459,50.54884],[-119.49469,50.54884],[-119.49478,50.54883],[-119.49489,50.54881],[-119.49498,50.54879],[-119.49508,50.54877],[-119.49524,50.54875],[-119.49535,50.54873],[-119.49543,50.54871],[-119.49552,50.5487],[-119.4957,50.54864],[-119.49579,50.54859],[-119.49586,50.54855],[-119.49597,50.5485],[-119.49603,50.54845],[-119.49611,50.5484],[-119.49618,50.54833],[-119.49623,50.54826],[-119.49625,50.5482],[-119.49629,50.54813],[-119.49633,50.54806],[-119.49637,50.54798],[-119.49641,50.54791],[-119.49644,50.5478],[-119.49645,50.54771],[-119.49645,50.54762],[-119.49646,50.54754],[-119.49647,50.54749],[-119.49648,50.54742],[-119.49649,50.54732],[-119.49649,50.54717],[-119.49649,50.5471],[-119.49649,50.54703],[-119.4965,50.54697],[-119.49651,50.54688],[-119.49653,50.5468],[-119.49656,50.54672],[-119.49658,50.54662],[-119.4966,50.54651],[-119.49661,50.54639],[-119.4966,50.54632],[-119.49662,50.54624],[-119.49663,50.54617],[-119.49664,50.54613],[-119.49665,50.54605],[-119.49667,50.54598],[-119.4967,50.54591],[-119.49671,50.54586],[-119.49675,50.54576],[-119.49677,50.54567],[-119.49679,50.54557],[-119.49683,50.54548],[-119.49687,50.54541],[-119.49692,50.54533],[-119.49697,50.54525],[-119.497,50.54518],[-119.49704,50.54513],[-119.49709,50.54504],[-119.49711,50.54497],[-119.49713,50.54494],[-119.49714,50.54491],[-119.4972,50.54477],[-119.49722,50.54466],[-119.49722,50.54459],[-119.49723,50.54447],[-119.49722,50.54441],[-119.49719,50.54433],[-119.49715,50.54426],[-119.49706,50.54418],[-119.49698,50.54411],[-119.49694,50.54404],[-119.49688,50.54397],[-119.49682,50.5439],[-119.49676,50.54385],[-119.49668,50.54377],[-119.49661,50.54369],[-119.49655,50.54361],[-119.49646,50.54351],[-119.49635,50.54341],[-119.49631,50.54336],[-119.49626,50.54329],[-119.49617,50.5432],[-119.49613,50.54315],[-119.49607,50.5431],[-119.49599,50.54301],[-119.49592,50.54297],[-119.4958,50.54289],[-119.49573,50.54285],[-119.49567,50.54279],[-119.49558,50.54271],[-119.49554,50.54267],[-119.49546,50.54259],[-119.49542,50.54255],[-119.49537,50.54249],[-119.49533,50.54242],[-119.49524,50.54233],[-119.49519,50.54225],[-119.49512,50.54215],[-119.49507,50.5421],[-119.49501,50.54203],[-119.49491,50.54193],[-119.49482,50.54184],[-119.49477,50.54177],[-119.49472,50.54172],[-119.49467,50.54165],[-119.49459,50.54157],[-119.49453,50.54152],[-119.49443,50.54141],[-119.49423,50.54132],[-119.49411,50.54128],[-119.49401,50.54125],[-119.49392,50.54123],[-119.49382,50.5412],[-119.49376,50.54116],[-119.49374,50.54115],[-119.4936,50.54106],[-119.49352,50.54099],[-119.49346,50.54092],[-119.49341,50.54087],[-119.49335,50.54082],[-119.49329,50.54078],[-119.49323,50.54074],[-119.49312,50.54064],[-119.49298,50.54054],[-119.49291,50.54048],[-119.49284,50.54043],[-119.49271,50.54034],[-119.49262,50.54029],[-119.49256,50.54023],[-119.49248,50.54016],[-119.49242,50.5401],[-119.49238,50.54004],[-119.49232,50.53998],[-119.49225,50.53991],[-119.49219,50.53985],[-119.49208,50.53979],[-119.49195,50.53972],[-119.49185,50.53967],[-119.49178,50.53964],[-119.49169,50.53959],[-119.49162,50.53954],[-119.49153,50.5395],[-119.49147,50.53946],[-119.49133,50.53937],[-119.49121,50.53929],[-119.49114,50.53924],[-119.49106,50.5392],[-119.49099,50.53916],[-119.49092,50.53913],[-119.49082,50.53907],[-119.49073,50.53902],[-119.49061,50.53896],[-119.49043,50.53893],[-119.49038,50.5388],[-119.49036,50.53876],[-119.49036,50.53875],[-119.49032,50.53867],[-119.49026,50.53861],[-119.4902,50.53856],[-119.49014,50.5385],[-119.49009,50.53844],[-119.49002,50.53835],[-119.48997,50.53827],[-119.48992,50.5382],[-119.48987,50.53813],[-119.48983,50.53808],[-119.4898,50.538],[-119.48977,50.53793],[-119.48971,50.53787],[-119.48963,50.5378],[-119.48955,50.53773],[-119.48944,50.53766],[-119.48937,50.53763],[-119.48927,50.5376],[-119.48916,50.53754],[-119.48901,50.53747],[-119.48895,50.53742],[-119.48888,50.53737],[-119.48879,50.5373],[-119.4887,50.53719],[-119.48864,50.53711],[-119.48859,50.53706],[-119.48855,50.53701],[-119.48852,50.53696],[-119.48847,50.53683],[-119.48847,50.53677],[-119.48845,50.53666],[-119.48843,50.53661],[-119.48843,50.53653],[-119.48842,50.53645],[-119.4884,50.53639],[-119.48837,50.53632],[-119.48832,50.53622],[-119.48826,50.53613],[-119.48823,50.53608],[-119.48819,50.53601],[-119.48813,50.53594],[-119.48809,50.53589],[-119.48805,50.53583],[-119.488,50.53575],[-119.48797,50.5357],[-119.48794,50.53564],[-119.48792,50.53556],[-119.4879,50.53549],[-119.48789,50.53543],[-119.48787,50.53537],[-119.48785,50.53532],[-119.48786,50.53522],[-119.48786,50.53515],[-119.48787,50.53508],[-119.48786,50.53498],[-119.48787,50.53486],[-119.48785,50.53474],[-119.48782,50.53462],[-119.48778,50.53455],[-119.48777,50.53448],[-119.48775,50.53443],[-119.48769,50.53431],[-119.48766,50.53426],[-119.48762,50.53419],[-119.48758,50.53412],[-119.48756,50.53407],[-119.4875,50.534],[-119.48744,50.53394],[-119.4874,50.53389],[-119.48735,50.53379],[-119.48729,50.53368],[-119.48724,50.53358],[-119.48721,50.53351],[-119.48717,50.53342],[-119.48715,50.53329],[-119.48714,50.53321],[-119.48709,50.53314],[-119.48707,50.53308],[-119.48704,50.53299],[-119.48704,50.53293],[-119.48704,50.5328],[-119.48704,50.53272],[-119.48705,50.53263],[-119.48706,50.53255],[-119.48707,50.53247],[-119.48708,50.53241],[-119.48709,50.53233],[-119.48707,50.53226],[-119.48703,50.53219],[-119.48701,50.53214],[-119.48698,50.53207],[-119.48693,50.53199],[-119.48691,50.53194],[-119.48689,50.53185],[-119.48686,50.53177],[-119.48686,50.53166],[-119.48685,50.53159],[-119.48686,50.5315],[-119.48689,50.53145],[-119.48692,50.53136],[-119.48696,50.53127],[-119.48701,50.5312],[-119.48707,50.53115],[-119.48711,50.53106],[-119.48713,50.53096],[-119.48715,50.5309],[-119.48718,50.53085],[-119.48723,50.53079],[-119.4873,50.53073],[-119.48736,50.53068],[-119.48742,50.53062],[-119.4875,50.53055],[-119.48768,50.53046],[-119.48782,50.5304],[-119.48793,50.53034],[-119.48831,50.53007],[-119.48845,50.53],[-119.48853,50.52995],[-119.48861,50.52987],[-119.48865,50.5298],[-119.48869,50.52971],[-119.48871,50.52963],[-119.48875,50.5295],[-119.48878,50.52941],[-119.48889,50.52928],[-119.48894,50.52917],[-119.48897,50.52912],[-119.48902,50.52902],[-119.48906,50.52893],[-119.48911,50.52882],[-119.48916,50.52876],[-119.48924,50.52865],[-119.48934,50.52854],[-119.48944,50.52845],[-119.48956,50.52837],[-119.48973,50.52828],[-119.48984,50.52823],[-119.48992,50.52819],[-119.49004,50.52813],[-119.49015,50.5281],[-119.49032,50.52804],[-119.49057,50.52799],[-119.4908,50.52796],[-119.49099,50.52794],[-119.49116,50.52793],[-119.49129,50.52793],[-119.49143,50.52793],[-119.49158,50.52793],[-119.49175,50.52793],[-119.49185,50.52793],[-119.49198,50.52793],[-119.49208,50.52795],[-119.49219,50.52796],[-119.49232,50.52797]]}},
{"type":"Feature","properties":{"spotId":"A-grouse-walk-0083","kind":"roadside","km":3.63,"climbM":12,"name":"2.2 km NW of Spa Lake rec site","flags":[]},"geometry":{"type":"LineString","coordinates":[[-119.48547,50.58039],[-119.48565,50.58035],[-119.48575,50.58032],[-119.48587,50.58031],[-119.486,50.58028],[-119.48618,50.58024],[-119.48629,50.58021],[-119.48642,50.58018],[-119.4866,50.58014],[-119.4867,50.58013],[-119.48684,50.5801],[-119.48686,50.58009],[-119.48696,50.58007],[-119.4871,50.58003],[-119.4872,50.58],[-119.48728,50.57996],[-119.48739,50.57991],[-119.48747,50.57987],[-119.48761,50.57979],[-119.48772,50.57973],[-119.48787,50.57966],[-119.48801,50.57961],[-119.48809,50.57957],[-119.48816,50.57954],[-119.4883,50.57945],[-119.48837,50.57941],[-119.4885,50.57931],[-119.48859,50.57927],[-119.48865,50.57921],[-119.48879,50.57911],[-119.48887,50.57905],[-119.48891,50.57899],[-119.48895,50.57893],[-119.48902,50.57885],[-119.48908,50.57878],[-119.48915,50.5787],[-119.48923,50.57861],[-119.48928,50.57856],[-119.48932,50.5785],[-119.48936,50.57843],[-119.4894,50.57836],[-119.48944,50.57825],[-119.48945,50.5782],[-119.48946,50.5781],[-119.48947,50.57801],[-119.48949,50.57792],[-119.48953,50.57785],[-119.48957,50.57777],[-119.4896,50.57764],[-119.48964,50.57753],[-119.48968,50.5774],[-119.48971,50.57731],[-119.48973,50.57728],[-119.48974,50.57725],[-119.48978,50.5772],[-119.4899,50.57709],[-119.48995,50.57704],[-119.49009,50.57696],[-119.49016,50.57692],[-119.49023,50.57687],[-119.49032,50.57683],[-119.49043,50.57677],[-119.4905,50.57673],[-119.4906,50.57668],[-119.49072,50.57658],[-119.49077,50.57654],[-119.49084,50.57648],[-119.49091,50.57642],[-119.49095,50.57636],[-119.49099,50.57627],[-119.49104,50.57616],[-119.49106,50.57611],[-119.49118,50.57592],[-119.49129,50.57589],[-119.49139,50.57584],[-119.49147,50.57581],[-119.49154,50.57577],[-119.49161,50.57573],[-119.49166,50.57569],[-119.49174,50.57564],[-119.49183,50.57559],[-119.49196,50.57552],[-119.49205,50.57548],[-119.49227,50.57539],[-119.49241,50.57534],[-119.49252,50.57531],[-119.4926,50.57526],[-119.49268,50.57522],[-119.49281,50.57516],[-119.49296,50.57509],[-119.49315,50.57503],[-119.49335,50.57499],[-119.49356,50.57495],[-119.49364,50.57495],[-119.49375,50.57494],[-119.49397,50.57493],[-119.49415,50.57491],[-119.49426,50.5749],[-119.49443,50.5749],[-119.49457,50.57489],[-119.49473,50.5749],[-119.49484,50.5749],[-119.49492,50.57489],[-119.49505,50.5749],[-119.49515,50.5749],[-119.49528,50.57491],[-119.49542,50.57493],[-119.49565,50.57493],[-119.49577,50.57493],[-119.49599,50.57492],[-119.49618,50.57492],[-119.49635,50.57493],[-119.49649,50.57493],[-119.49665,50.57498],[-119.49683,50.57504],[-119.49691,50.57507],[-119.4971,50.57512],[-119.49718,50.57514],[-119.49734,50.57517],[-119.49744,50.57518],[-119.49786,50.57529],[-119.49814,50.57532],[-119.4983,50.57533],[-119.49841,50.57534],[-119.49851,50.57537],[-119.49867,50.57538],[-119.49885,50.57539],[-119.49898,50.57536],[-119.49914,50.57534],[-119.49933,50.57532],[-119.49947,50.57532],[-119.49959,50.57531],[-119.49973,50.5753],[-119.49988,50.5753],[-119.50002,50.57528],[-119.50013,50.57523],[-119.50026,50.57514],[-119.50037,50.57506],[-119.50047,50.57502],[-119.50063,50.57494],[-119.50077,50.57491],[-119.50091,50.57488],[-119.50101,50.57487],[-119.50111,50.57487],[-119.50127,50.57487],[-119.50135,50.57487],[-119.50149,50.57484],[-119.50159,50.57481],[-119.5017,50.57473],[-119.50183,50.57466],[-119.50193,50.57463],[-119.5021,50.57456],[-119.50224,50.57455],[-119.50236,50.57454],[-119.50248,50.57454],[-119.50258,50.57455],[-119.50263,50.57455],[-119.50279,50.57457],[-119.50292,50.57459],[-119.50304,50.57459],[-119.50317,50.57459],[-119.5033,50.57459],[-119.50344,50.57457],[-119.50354,50.57456],[-119.50365,50.57454],[-119.50379,50.57451],[-119.50394,50.57447],[-119.50411,50.5744],[-119.50422,50.57435],[-119.50434,50.5743],[-119.5045,50.57425],[-119.50465,50.57417],[-119.50474,50.57413],[-119.50483,50.5741],[-119.50494,50.57405],[-119.50503,50.57401],[-119.50514,50.57396],[-119.50535,50.57389],[-119.5055,50.57382],[-119.50566,50.57375],[-119.50575,50.5737],[-119.50583,50.57365],[-119.50589,50.57362],[-119.506,50.57358],[-119.50615,50.57351],[-119.50618,50.57349],[-119.50634,50.57339],[-119.50648,50.57333],[-119.50659,50.57328],[-119.50674,50.57323],[-119.50687,50.57318],[-119.50702,50.57312],[-119.50717,50.57307],[-119.50724,50.57303],[-119.50738,50.57296],[-119.5075,50.5729],[-119.50765,50.57282],[-119.50782,50.57275],[-119.50792,50.57269],[-119.50805,50.57263],[-119.5083,50.57256],[-119.50844,50.57253],[-119.50856,50.5725],[-119.50871,50.57242],[-119.50873,50.57241],[-119.50882,50.57238],[-119.50891,50.57235],[-119.50901,50.57232],[-119.50911,50.57229],[-119.50917,50.57226],[-119.50919,50.57225],[-119.50929,50.57222],[-119.50939,50.57218],[-119.5095,50.57216],[-119.50965,50.57212],[-119.50975,50.5721],[-119.50987,50.57208],[-119.51007,50.57205],[-119.51022,50.57201],[-119.51034,50.57197],[-119.51046,50.57193],[-119.5106,50.57189],[-119.51079,50.57184],[-119.511,50.57179],[-119.51124,50.57171],[-119.51139,50.57166],[-119.5116,50.5716],[-119.51168,50.57158],[-119.51181,50.57156],[-119.51196,50.57152],[-119.51215,50.57148],[-119.5123,50.57144],[-119.51244,50.57142],[-119.51258,50.57138],[-119.51272,50.57135],[-119.51286,50.57132],[-119.51302,50.57128],[-119.51314,50.57125],[-119.51325,50.57123],[-119.51337,50.5712],[-119.51347,50.57118],[-119.51358,50.57115],[-119.51371,50.57112],[-119.51382,50.5711],[-119.51399,50.57106],[-119.5141,50.57103],[-119.51421,50.571],[-119.51434,50.57097],[-119.51442,50.57096],[-119.51452,50.57095],[-119.51467,50.57092],[-119.51485,50.57088],[-119.51505,50.57085],[-119.51522,50.57082],[-119.51533,50.5708],[-119.51547,50.57076],[-119.51562,50.57073],[-119.51579,50.5707],[-119.51599,50.57068],[-119.51613,50.57066],[-119.51622,50.57064],[-119.51632,50.57063],[-119.51656,50.57058],[-119.51684,50.57055],[-119.51702,50.57051],[-119.51716,50.57049],[-119.51726,50.57047],[-119.51737,50.57044],[-119.51755,50.57041],[-119.51769,50.57039],[-119.51778,50.57037],[-119.51795,50.57035],[-119.51803,50.57034],[-119.51813,50.57032],[-119.51824,50.5703],[-119.51841,50.57028],[-119.51858,50.57025],[-119.51872,50.57021],[-119.51884,50.57017],[-119.51894,50.57015],[-119.51905,50.57012],[-119.51916,50.57008],[-119.51932,50.57006],[-119.5195,50.57003],[-119.51964,50.57],[-119.51973,50.56998],[-119.51986,50.56995],[-119.52008,50.56993],[-119.52021,50.56991],[-119.52039,50.56988],[-119.52062,50.56986],[-119.52081,50.56984],[-119.521,50.56983],[-119.52112,50.56982],[-119.52117,50.56982],[-119.52131,50.56982],[-119.52149,50.56983],[-119.52159,50.56987],[-119.52175,50.56992],[-119.52182,50.56994],[-119.52197,50.56999],[-119.52212,50.57003],[-119.52223,50.57009],[-119.52233,50.57013],[-119.52246,50.57017],[-119.52256,50.57021],[-119.52274,50.57026],[-119.52299,50.57033],[-119.52317,50.5704],[-119.52341,50.57049],[-119.52358,50.57057],[-119.5238,50.57065],[-119.5239,50.5707],[-119.52401,50.57074],[-119.52413,50.57078],[-119.52433,50.57086],[-119.52443,50.57091],[-119.52456,50.57095],[-119.52469,50.571],[-119.52496,50.57108],[-119.52518,50.57113],[-119.52528,50.57116],[-119.52541,50.5712],[-119.52555,50.57124],[-119.52564,50.57126],[-119.52575,50.57129],[-119.52584,50.5713],[-119.52598,50.57134],[-119.52606,50.57134],[-119.52623,50.57136],[-119.52635,50.57136],[-119.52646,50.57134],[-119.52664,50.57129],[-119.52671,50.57121],[-119.52675,50.57116],[-119.5268,50.57106],[-119.52684,50.57098],[-119.52697,50.57074],[-119.52699,50.57062],[-119.52702,50.5705],[-119.52703,50.57047],[-119.52707,50.57035],[-119.52717,50.57027],[-119.52739,50.57021],[-119.52767,50.57019],[-119.52794,50.57019],[-119.52809,50.57019]]}},
{"type":"Feature","properties":{"spotId":"A-grouse-walk-0104","kind":"roadside","km":3.57,"climbM":58,"name":"310 m NW of Kernaghan Creek","flags":[]},"geometry":{"type":"LineString","coordinates":[[-119.44861,50.63264],[-119.44842,50.63253],[-119.44828,50.63248],[-119.44822,50.63241],[-119.44814,50.63236],[-119.44805,50.63226],[-119.44794,50.63215],[-119.44787,50.63208],[-119.44785,50.63191],[-119.44782,50.63178],[-119.44778,50.63163],[-119.44779,50.63155],[-119.44779,50.6315],[-119.44778,50.63141],[-119.44779,50.63133],[-119.44783,50.63122],[-119.44785,50.63115],[-119.44788,50.6311],[-119.448,50.63101],[-119.44813,50.63093],[-119.44822,50.63085],[-119.4484,50.6308],[-119.44857,50.63075],[-119.44869,50.63071],[-119.44878,50.63069],[-119.44892,50.63068],[-119.44902,50.63067],[-119.44917,50.63067],[-119.44927,50.63068],[-119.44937,50.63067],[-119.44947,50.63067],[-119.44956,50.63067],[-119.44967,50.63068],[-119.44978,50.63068],[-119.4499,50.63071],[-119.45011,50.63073],[-119.45032,50.63079],[-119.45045,50.63081],[-119.45054,50.63085],[-119.45064,50.63087],[-119.45077,50.63091],[-119.45093,50.63098],[-119.45109,50.63106],[-119.45128,50.63113],[-119.45139,50.63123],[-119.45145,50.6313],[-119.4515,50.63135],[-119.45158,50.63146],[-119.45162,50.63152],[-119.45168,50.6316],[-119.45176,50.63167],[-119.4518,50.63174],[-119.45191,50.63188],[-119.45199,50.63203],[-119.45198,50.63218],[-119.45197,50.63233],[-119.45199,50.63241],[-119.45205,50.63246],[-119.45216,50.63254],[-119.4524,50.63267],[-119.45266,50.63275],[-119.45275,50.63275],[-119.45287,50.63278],[-119.45307,50.63279],[-119.4533,50.63275],[-119.45335,50.63267],[-119.45339,50.63261],[-119.45348,50.6325],[-119.45356,50.63239],[-119.45367,50.63223],[-119.45373,50.63207],[-119.45378,50.63198],[-119.45386,50.63189],[-119.45394,50.63183],[-119.45411,50.63169],[-119.45416,50.63159],[-119.45421,50.63154],[-119.45433,50.63146],[-119.45455,50.63136],[-119.45474,50.6313],[-119.455,50.63123],[-119.45517,50.63118],[-119.45528,50.63115],[-119.45538,50.63113],[-119.45562,50.6311],[-119.45576,50.63107],[-119.45588,50.63106],[-119.45598,50.63107],[-119.45608,50.63109],[-119.4563,50.63115],[-119.45643,50.63121],[-119.45657,50.63131],[-119.45666,50.63137],[-119.45672,50.63144],[-119.45691,50.63152],[-119.45704,50.63155],[-119.45715,50.63156],[-119.45734,50.63156],[-119.45746,50.63155],[-119.45759,50.63152],[-119.45771,50.63144],[-119.45784,50.63139],[-119.45803,50.63129],[-119.45818,50.63117],[-119.45826,50.63111],[-119.45839,50.63105],[-119.45845,50.63102],[-119.45858,50.63098],[-119.45872,50.63089],[-119.45883,50.63083],[-119.45889,50.63076],[-119.45906,50.63063],[-119.45918,50.63056],[-119.45932,50.63046],[-119.45945,50.63035],[-119.45952,50.63029],[-119.45956,50.63026],[-119.45976,50.6301],[-119.45991,50.63],[-119.46004,50.62992],[-119.46021,50.62978],[-119.4603,50.62972],[-119.46043,50.62963],[-119.46056,50.62956],[-119.46066,50.62947],[-119.46072,50.62942],[-119.46085,50.6293],[-119.46102,50.62922],[-119.46113,50.6292],[-119.46124,50.6292],[-119.46137,50.62919],[-119.46145,50.62917],[-119.46162,50.62913],[-119.46176,50.62911],[-119.46192,50.62908],[-119.46203,50.62907],[-119.4622,50.62906],[-119.4623,50.62906],[-119.46242,50.62906],[-119.46259,50.62906],[-119.46271,50.62906],[-119.46288,50.62904],[-119.46296,50.629],[-119.46307,50.62896],[-119.46315,50.62891],[-119.46326,50.62884],[-119.46337,50.62879],[-119.46345,50.62875],[-119.46362,50.62869],[-119.46373,50.62864],[-119.46377,50.62858],[-119.46382,50.62852],[-119.46388,50.62842],[-119.46397,50.62831],[-119.46404,50.62823],[-119.46408,50.62819],[-119.46418,50.62803],[-119.46422,50.62791],[-119.46428,50.62784],[-119.46434,50.62779],[-119.46446,50.62773],[-119.46455,50.6277],[-119.46463,50.62767],[-119.46475,50.62762],[-119.46482,50.62757],[-119.46489,50.62744],[-119.46494,50.62735],[-119.465,50.62726],[-119.46512,50.62714],[-119.46522,50.62704],[-119.46531,50.62695],[-119.46546,50.62685],[-119.46563,50.6268],[-119.46577,50.62676],[-119.46592,50.62673],[-119.46609,50.62672],[-119.46626,50.62673],[-119.46637,50.62675],[-119.46644,50.6268],[-119.46654,50.62684],[-119.46665,50.62688],[-119.46681,50.62692],[-119.46697,50.62694],[-119.46721,50.62693],[-119.46729,50.62691],[-119.46749,50.62683],[-119.46757,50.6268],[-119.46779,50.62674],[-119.46807,50.62666],[-119.46818,50.62662],[-119.46828,50.62657],[-119.4685,50.6265],[-119.46865,50.62644],[-119.46877,50.62634],[-119.46888,50.62622],[-119.46893,50.62614],[-119.469,50.62606],[-119.46906,50.62597],[-119.46913,50.62589],[-119.46918,50.62581],[-119.46925,50.62575],[-119.46938,50.62569],[-119.46953,50.62561],[-119.46962,50.62554],[-119.4698,50.62539],[-119.46987,50.62534],[-119.46992,50.62528],[-119.47011,50.62515],[-119.47035,50.62506],[-119.47053,50.62505],[-119.47087,50.625],[-119.47122,50.62496],[-119.47133,50.62497],[-119.47154,50.62498],[-119.47184,50.62501],[-119.47207,50.62501],[-119.47222,50.62498],[-119.47232,50.62495],[-119.47247,50.62492],[-119.47259,50.6249],[-119.47282,50.62485],[-119.47297,50.62485],[-119.47318,50.62485],[-119.47337,50.62482],[-119.47353,50.62481],[-119.47371,50.62478],[-119.47395,50.62467],[-119.47401,50.62457],[-119.47406,50.62448],[-119.47407,50.62441],[-119.47408,50.62434],[-119.47408,50.62426],[-119.47407,50.62415],[-119.47405,50.62404],[-119.47396,50.62391],[-119.4738,50.62354],[-119.47376,50.62347],[-119.4737,50.62342],[-119.47362,50.62337],[-119.47338,50.62325],[-119.47326,50.6232],[-119.47304,50.62309],[-119.47282,50.62294],[-119.47263,50.62281],[-119.47244,50.62261],[-119.47232,50.6225],[-119.47222,50.62243],[-119.47215,50.62225],[-119.4721,50.62217],[-119.47195,50.62194],[-119.47185,50.62174],[-119.47182,50.62159],[-119.47175,50.62142],[-119.47168,50.62115],[-119.47167,50.62088],[-119.47168,50.62078],[-119.47175,50.62052],[-119.47181,50.62008],[-119.47183,50.61997],[-119.47188,50.61976],[-119.47194,50.61959],[-119.47198,50.61935],[-119.47193,50.61919],[-119.47177,50.61902],[-119.4715,50.61884],[-119.47118,50.61857],[-119.47112,50.6185],[-119.47107,50.61839],[-119.47099,50.6182],[-119.47091,50.61808],[-119.47087,50.618],[-119.47082,50.61793],[-119.47076,50.61783],[-119.47071,50.61774],[-119.47069,50.61767],[-119.47068,50.61761],[-119.4706,50.61727]]}},
{"type":"Feature","properties":{"spotId":"A-moose-atv-0002","kind":"ride","km":1.52,"climbM":19,"name":"1.3 km N of Charcoal Creek","flags":[]},"geometry":{"type":"LineString","coordinates":[[-119.49446,50.71612],[-119.49506,50.71627],[-119.49587,50.71646],[-119.49621,50.71655],[-119.49638,50.7166],[-119.49671,50.71661],[-119.49695,50.71658],[-119.49709,50.71652],[-119.49719,50.71644],[-119.49728,50.71635],[-119.49736,50.71626],[-119.49745,50.71611],[-119.49747,50.71602],[-119.49749,50.71593],[-119.49754,50.71582],[-119.4976,50.71571],[-119.49771,50.71556],[-119.49795,50.71518],[-119.498,50.71502],[-119.49805,50.71483],[-119.49813,50.71392],[-119.49819,50.71365],[-119.49814,50.71338],[-119.49789,50.71299],[-119.49779,50.71281],[-119.49769,50.71207],[-119.49739,50.7113],[-119.49732,50.71111],[-119.49725,50.7109],[-119.4972,50.71078],[-119.49696,50.71072],[-119.49649,50.71064],[-119.49609,50.71056],[-119.49572,50.7105],[-119.49539,50.71043],[-119.49499,50.71033],[-119.49451,50.7102],[-119.49427,50.71013],[-119.494,50.71004],[-119.49358,50.70993],[-119.49307,50.70981],[-119.49269,50.70975],[-119.49214,50.70976],[-119.49198,50.70978],[-119.49157,50.70982],[-119.49138,50.70983],[-119.49101,50.70978],[-119.49059,50.70971],[-119.49026,50.70965],[-119.48991,50.70954],[-119.48951,50.70941],[-119.48933,50.70933],[-119.48916,50.70923],[-119.48903,50.70911],[-119.48886,50.70889],[-119.48881,50.70883]]}},
{"type":"Feature","properties":{"spotId":"A-moose-atv-0002","kind":"walk","km":0.23,"climbM":6,"name":"1.3 km N of Charcoal Creek","flags":[]},"geometry":{"type":"LineString","coordinates":[[-119.49446,50.71612],[-119.49252,50.71779]]}},
{"type":"Feature","properties":{"spotId":"A-moose-atv-0084","kind":"ride","km":1.32,"climbM":7,"name":"1.6 km SW of Spa Lake rec site","flags":[]},"geometry":{"type":"LineString","coordinates":[[-119.48056,50.54962],[-119.48084,50.54977],[-119.48104,50.54995],[-119.48123,50.5501],[-119.48137,50.55022],[-119.48155,50.55039],[-119.48184,50.55064],[-119.48202,50.55078],[-119.48211,50.5509],[-119.4823,50.55108],[-119.48239,50.55119],[-119.48247,50.55137],[-119.4826,50.55158],[-119.48275,50.55181],[-119.48291,50.552],[-119.48308,50.55211],[-119.48318,50.55222],[-119.48325,50.55229],[-119.48337,50.55238],[-119.48355,50.55251],[-119.48375,50.55265],[-119.48388,50.55283],[-119.48399,50.55302],[-119.48408,50.55317],[-119.48424,50.55338],[-119.48438,50.55359],[-119.48452,50.55373],[-119.48468,50.55386],[-119.48499,50.55416],[-119.4853,50.5544],[-119.48543,50.55451],[-119.48561,50.55467],[-119.48563,50.55472],[-119.48572,50.55486],[-119.48588,50.55504],[-119.48605,50.55527],[-119.48622,50.55553],[-119.4863,50.55577],[-119.48639,50.55598],[-119.48655,50.5562],[-119.48669,50.55643],[-119.48676,50.5567],[-119.48676,50.55688],[-119.4868,50.55714],[-119.48684,50.55736],[-119.48686,50.5575],[-119.48688,50.55763],[-119.48689,50.55778],[-119.4869,50.55789],[-119.48695,50.55801],[-119.48704,50.55818],[-119.48636,50.55842],[-119.48569,50.55865],[-119.48505,50.55883],[-119.48468,50.55898],[-119.48429,50.55915],[-119.48411,50.55922]]}},
{"type":"Feature","properties":{"spotId":"A-moose-atv-0084","kind":"walk","km":0.1,"climbM":0,"name":"1.6 km SW of Spa Lake rec site","flags":[]},"geometry":{"type":"LineString","coordinates":[[-119.48411,50.55922],[-119.48493,50.55999]]}},
{"type":"Feature","properties":{"spotId":"A-moose-drive-0001","kind":"walk","km":0.09,"climbM":0,"name":"3.5 km SE of Bryden Lake rec site","flags":[]},"geometry":{"type":"LineString","coordinates":[[-119.49454,50.72488],[-119.49326,50.72501]]}}
]}
