{"type":"FeatureCollection","features":[
{"type":"Feature","properties":{"spotId":"A-deer-atv-0045","kind":"ride","km":2.93,"climbM":12,"name":"690 m N of Whiteman Creek","flags":[]},"geometry":{"type":"LineString","coordinates":[[-119.54662,50.21931],[-119.5466,50.21925],[-119.54655,50.21913],[-119.54651,50.21902],[-119.54649,50.2189],[-119.54645,50.21878],[-119.54641,50.21865],[-119.54639,50.21855],[-119.54637,50.21847],[-119.54633,50.21838],[-119.54629,50.2183],[-119.54628,50.21824],[-119.54624,50.21816],[-119.54622,50.21805],[-119.54619,50.21796],[-119.54617,50.21789],[-119.54618,50.21779],[-119.54615,50.21766],[-119.54612,50.2175],[-119.54612,50.21743],[-119.54613,50.21733],[-119.54611,50.21724],[-119.54609,50.21714],[-119.54607,50.21708],[-119.54605,50.21698],[-119.54605,50.21691],[-119.54606,50.21679],[-119.54605,50.2167],[-119.54606,50.21662],[-119.54603,50.21649],[-119.54598,50.21635],[-119.54593,50.21629],[-119.54582,50.21623],[-119.54571,50.21621],[-119.54555,50.21622],[-119.54537,50.21628],[-119.54526,50.21634],[-119.54514,50.21647],[-119.54508,50.21655],[-119.54503,50.21665],[-119.54499,50.21672],[-119.5449,50.21689],[-119.54483,50.21707],[-119.54478,50.21723],[-119.54473,50.21731],[-119.54468,50.21741],[-119.54465,50.21748],[-119.54464,50.21751],[-119.54459,50.21763],[-119.54457,50.21769],[-119.54449,50.21783],[-119.54445,50.21791],[-119.5444,50.21805],[-119.54436,50.21813],[-119.54434,50.21821],[-119.54432,50.21833],[-119.54428,50.21844],[-119.54423,50.21857],[-119.54418,50.21868],[-119.54416,50.21879],[-119.54411,50.21895],[-119.54409,50.21904],[-119.54403,50.21917],[-119.54395,50.21931],[-119.54391,50.21944],[-119.54388,50.21954],[-119.54382,50.21967],[-119.54376,50.21974],[-119.54367,50.21982],[-119.5436,50.21989],[-119.54354,50.21999],[-119.54348,50.22005],[-119.5434,50.22012],[-119.54336,50.22017],[-119.54331,50.22027],[-119.54328,50.22033],[-119.54325,50.22039],[-119.54319,50.2205],[-119.54316,50.22057],[-119.54313,50.22067],[-119.54308,50.22079],[-119.54305,50.22088],[-119.54303,50.22096],[-119.54299,50.22107],[-119.54298,50.22119],[-119.54295,50.22128],[-119.5429,50.22144],[-119.54288,50.22156],[-119.54284,50.22167],[-119.5428,50.22174],[-119.54276,50.2218],[-119.54269,50.22192],[-119.54257,50.22201],[-119.54244,50.22201],[-119.54234,50.22198],[-119.54224,50.22193],[-119.54213,50.22182],[-119.54205,50.22173],[-119.54195,50.2216],[-119.54186,50.22147],[-119.54182,50.22138],[-119.54177,50.22131],[-119.54172,50.22122],[-119.54169,50.22116],[-119.54162,50.22103],[-119.54154,50.22095],[-119.54148,50.22088],[-119.54139,50.22079],[-119.54133,50.22069],[-119.54126,50.22059],[-119.54118,50.22048],[-119.54112,50.22038],[-119.54104,50.22027],[-119.54097,50.22018],[-119.54089,50.2201],[-119.54083,50.22004],[-119.54075,50.21997],[-119.54066,50.21992],[-119.54054,50.21982],[-119.54043,50.21975],[-119.54026,50.21957],[-119.54012,50.21946],[-119.54004,50.2194],[-119.53996,50.21934],[-119.53987,50.21928],[-119.53974,50.21919],[-119.53965,50.21912],[-119.53953,50.21904],[-119.53937,50.21891],[-119.53921,50.21882],[-119.53913,50.21878],[-119.53901,50.21873],[-119.53884,50.21869],[-119.53863,50.21865],[-119.53842,50.21863],[-119.53831,50.21862],[-119.53822,50.21861],[-119.53801,50.21854],[-119.53786,50.21848],[-119.53776,50.21844],[-119.53766,50.21835],[-119.53759,50.21827],[-119.53754,50.21821],[-119.53748,50.21811],[-119.53743,50.21804],[-119.53738,50.21791],[-119.53734,50.2178],[-119.53726,50.21768],[-119.5372,50.21759],[-119.53712,50.21746],[-119.53708,50.21736],[-119.53707,50.21735],[-119.53698,50.2172],[-119.53694,50.21712],[-119.53689,50.21705],[-119.53683,50.21696],[-119.53678,50.21688],[-119.53674,50.21677],[-119.5367,50.21671],[-119.53666,50.21664],[-119.5366,50.21654],[-119.53655,50.21647],[-119.53649,50.21637],[-119.53644,50.2163],[-119.5364,50.21624],[-119.53632,50.21617],[-119.53625,50.21609],[-119.53616,50.21603],[-119.53609,50.21598],[-119.536,50.2159],[-119.53589,50.21583],[-119.53577,50.21577],[-119.53563,50.21569],[-119.53548,50.2156],[-119.53542,50.21556],[-119.53532,50.21548],[-119.53518,50.21543],[-119.53508,50.21544],[-119.53498,50.21545],[-119.53489,50.21546],[-119.53479,50.2155],[-119.53474,50.21554],[-119.53468,50.2156],[-119.53466,50.21572],[-119.53465,50.21581],[-119.53466,50.21588],[-119.53467,50.21598],[-119.53472,50.21613],[-119.53476,50.21621],[-119.5348,50.21632],[-119.53484,50.21638],[-119.53488,50.21644],[-119.53491,50.21652],[-119.53499,50.21665],[-119.53505,50.21675],[-119.53508,50.21681],[-119.53514,50.21691],[-119.53518,50.21697],[-119.53522,50.21706],[-119.53527,50.21719],[-119.53529,50.21729],[-119.53528,50.21742],[-119.53527,50.21751],[-119.53527,50.2176],[-119.53524,50.21766],[-119.53515,50.21773],[-119.53503,50.21773],[-119.53492,50.21765],[-119.53491,50.21756],[-119.53491,50.21748],[-119.53492,50.21741],[-119.5349,50.21733],[-119.53488,50.21724],[-119.53486,50.21719],[-119.53481,50.21713],[-119.53473,50.21705],[-119.53467,50.21701],[-119.53457,50.21696],[-119.53448,50.21688],[-119.53443,50.21683],[-119.53439,50.21677],[-119.53434,50.21672],[-119.53425,50.21666],[-119.53412,50.21658],[-119.53405,50.21654],[-119.5339,50.21646],[-119.53386,50.21641],[-119.53381,50.21634],[-119.53375,50.21624],[-119.53366,50.21614],[-119.53357,50.21605],[-119.53351,50.21601],[-119.53345,50.21597],[-119.5333,50.21591],[-119.53321,50.21588],[-119.53311,50.21586],[-119.53301,50.21583],[-119.53287,50.2158],[-119.53276,50.21578],[-119.53266,50.21577],[-119.53255,50.21575],[-119.53239,50.21573],[-119.53228,50.21571],[-119.53219,50.2157],[-119.53207,50.21568],[-119.53197,50.21566],[-119.53188,50.21563],[-119.53177,50.21559],[-119.53165,50.21555],[-119.53159,50.21547],[-119.53137,50.21529],[-119.53129,50.21526],[-119.53115,50.21524],[-119.53099,50.21526],[-119.53084,50.2153],[-119.5307,50.21535],[-119.53054,50.21541],[-119.53041,50.21547],[-119.53028,50.21552],[-119.53017,50.21555],[-119.53006,50.21557],[-119.52996,50.21558],[-119.52975,50.21558],[-119.52962,50.21558],[-119.52952,50.21558],[-119.52938,50.21558],[-119.52924,50.21557],[-119.52912,50.21557],[-119.52902,50.21556],[-119.52893,50.21556],[-119.52882,50.21556],[-119.52865,50.21554],[-119.52851,50.21551]]}},
{"type":"Feature","properties":{"spotId":"A-deer-atv-0045","kind":"walk","km":0.29,"climbM":97,"name":"690 m N of Whiteman Creek","flags":[]},"geometry":{"type":"LineString","coordinates":[[-119.54662,50.21931],[-119.5505,50.2186]]}},
{"type":"Feature","properties":{"spotId":"A-deer-atv-0070","kind":"ride","km":4.53,"climbM":13,"name":"1.2 km SW of Bouleau Creek","flags":[]},"geometry":{"type":"LineString","coordinates":[[-119.55322,50.23279],[-119.55319,50.23271],[-119.55319,50.23264],[-119.55317,50.23256],[-119.55315,50.23249],[-119.55314,50.23239],[-119.55313,50.23233],[-119.55312,50.23228],[-119.55312,50.23221],[-119.55309,50.23213],[-119.55304,50.23203],[-119.55301,50.23194],[-119.55299,50.23188],[-119.55296,50.23181],[-119.55293,50.23172],[-119.55291,50.23163],[-119.55288,50.23155],[-119.55278,50.23126],[-119.55273,50.23116],[-119.55244,50.23053],[-119.55241,50.23047],[-119.55238,50.2304],[-119.55233,50.23035],[-119.55226,50.23028],[-119.55219,50.23021],[-119.55216,50.23016],[-119.55208,50.23005],[-119.55203,50.22998],[-119.55202,50.22991],[-119.55198,50.22983],[-119.55194,50.22972],[-119.55182,50.22957],[-119.55154,50.22944],[-119.55147,50.22938],[-119.5514,50.22934],[-119.55132,50.22929],[-119.5512,50.22923],[-119.55111,50.22919],[-119.55099,50.22911],[-119.5509,50.22902],[-119.5508,50.22893],[-119.55074,50.22886],[-119.55068,50.22879],[-119.55064,50.22874],[-119.55056,50.22864],[-119.5505,50.22857],[-119.55043,50.2285],[-119.55038,50.22837],[-119.55036,50.22825],[-119.55032,50.22814],[-119.55029,50.22808],[-119.55025,50.22799],[-119.55021,50.22792],[-119.5502,50.22786],[-119.55014,50.22779],[-119.55007,50.22768],[-119.55,50.22759],[-119.54994,50.22753],[-119.54989,50.22746],[-119.54982,50.22737],[-119.54973,50.22724],[-119.54968,50.22718],[-119.54959,50.22707],[-119.54952,50.22697],[-119.54947,50.2269],[-119.54941,50.22679],[-119.54933,50.22663],[-119.54927,50.22653],[-119.54922,50.22645],[-119.54915,50.22636],[-119.54912,50.22631],[-119.54912,50.2263],[-119.54906,50.22622],[-119.54898,50.22614],[-119.54892,50.22605],[-119.54888,50.22597],[-119.54884,50.22592],[-119.54879,50.22587],[-119.54871,50.22579],[-119.54865,50.2257],[-119.54855,50.22559],[-119.5485,50.22553],[-119.54843,50.22544],[-119.54834,50.22533],[-119.54829,50.22522],[-119.54826,50.22515],[-119.5482,50.22505],[-119.54816,50.22499],[-119.54813,50.22494],[-119.5481,50.22488],[-119.54807,50.22481],[-119.54804,50.22475],[-119.54798,50.22464],[-119.54793,50.22456],[-119.54788,50.22444],[-119.54785,50.22439],[-119.54782,50.22432],[-119.54776,50.22419],[-119.54774,50.22414],[-119.54771,50.22407],[-119.54768,50.22401],[-119.54765,50.22395],[-119.54763,50.22388],[-119.54761,50.22378],[-119.54759,50.22371],[-119.54758,50.22368],[-119.54754,50.2236],[-119.54751,50.22352],[-119.54749,50.22345],[-119.54744,50.22329],[-119.54742,50.22319],[-119.54739,50.22306],[-119.54736,50.22296],[-119.54734,50.22286],[-119.54732,50.2228],[-119.54728,50.22261],[-119.54726,50.22254],[-119.54726,50.22245],[-119.54725,50.22237],[-119.54725,50.22227],[-119.54721,50.22212],[-119.54721,50.22204],[-119.54719,50.22195],[-119.54718,50.22185],[-119.54718,50.22175],[-119.54717,50.22163],[-119.54715,50.22154],[-119.54713,50.22143],[-119.54714,50.22133],[-119.54712,50.22127],[-119.54712,50.22118],[-119.5471,50.22111],[-119.54708,50.22101],[-119.54706,50.2209],[-119.54704,50.22079],[-119.54702,50.22069],[-119.547,50.22059],[-119.547,50.22052],[-119.54697,50.22043],[-119.54692,50.22033],[-119.5469,50.22025],[-119.54685,50.22014],[-119.54679,50.21999],[-119.54677,50.21991],[-119.54674,50.21974],[-119.54671,50.21962],[-119.54668,50.21953],[-119.54666,50.21941],[-119.54663,50.21932],[-119.5466,50.21925],[-119.54655,50.21913],[-119.54651,50.21902],[-119.54649,50.2189],[-119.54645,50.21878],[-119.54641,50.21865],[-119.54639,50.21855],[-119.54637,50.21847],[-119.54633,50.21838],[-119.54629,50.2183],[-119.54628,50.21824],[-119.54624,50.21816],[-119.54622,50.21805],[-119.54619,50.21796],[-119.54617,50.21789],[-119.54618,50.21779],[-119.54615,50.21766],[-119.54612,50.2175],[-119.54612,50.21743],[-119.54613,50.21733],[-119.54611,50.21724],[-119.54609,50.21714],[-119.54607,50.21708],[-119.54605,50.21698],[-119.54605,50.21691],[-119.54606,50.21679],[-119.54605,50.2167],[-119.54606,50.21662],[-119.54603,50.21649],[-119.54598,50.21635],[-119.54593,50.21629],[-119.54582,50.21623],[-119.54571,50.21621],[-119.54555,50.21622],[-119.54537,50.21628],[-119.54526,50.21634],[-119.54514,50.21647],[-119.54508,50.21655],[-119.54503,50.21665],[-119.54499,50.21672],[-119.5449,50.21689],[-119.54483,50.21707],[-119.54478,50.21723],[-119.54473,50.21731],[-119.54468,50.21741],[-119.54465,50.21748],[-119.54464,50.21751],[-119.54459,50.21763],[-119.54457,50.21769],[-119.54449,50.21783],[-119.54445,50.21791],[-119.5444,50.21805],[-119.54436,50.21813],[-119.54434,50.21821],[-119.54432,50.21833],[-119.54428,50.21844],[-119.54423,50.21857],[-119.54418,50.21868],[-119.54416,50.21879],[-119.54411,50.21895],[-119.54409,50.21904],[-119.54403,50.21917],[-119.54395,50.21931],[-119.54391,50.21944],[-119.54388,50.21954],[-119.54382,50.21967],[-119.54376,50.21974],[-119.54367,50.21982],[-119.5436,50.21989],[-119.54354,50.21999],[-119.54348,50.22005],[-119.5434,50.22012],[-119.54336,50.22017],[-119.54331,50.22027],[-119.54328,50.22033],[-119.54325,50.22039],[-119.54319,50.2205],[-119.54316,50.22057],[-119.54313,50.22067],[-119.54308,50.22079],[-119.54305,50.22088],[-119.54303,50.22096],[-119.54299,50.22107],[-119.54298,50.22119],[-119.54295,50.22128],[-119.5429,50.22144],[-119.54288,50.22156],[-119.54284,50.22167],[-119.5428,50.22174],[-119.54276,50.2218],[-119.54269,50.22192],[-119.54257,50.22201],[-119.54244,50.22201],[-119.54234,50.22198],[-119.54224,50.22193],[-119.54213,50.22182],[-119.54205,50.22173],[-119.54195,50.2216],[-119.54186,50.22147],[-119.54182,50.22138],[-119.54177,50.22131],[-119.54172,50.22122],[-119.54169,50.22116],[-119.54162,50.22103],[-119.54154,50.22095],[-119.54148,50.22088],[-119.54139,50.22079],[-119.54133,50.22069],[-119.54126,50.22059],[-119.54118,50.22048],[-119.54112,50.22038],[-119.54104,50.22027],[-119.54097,50.22018],[-119.54089,50.2201],[-119.54083,50.22004],[-119.54075,50.21997],[-119.54066,50.21992],[-119.54054,50.21982],[-119.54043,50.21975],[-119.54026,50.21957],[-119.54012,50.21946],[-119.54004,50.2194],[-119.53996,50.21934],[-119.53987,50.21928],[-119.53974,50.21919],[-119.53965,50.21912],[-119.53953,50.21904],[-119.53937,50.21891],[-119.53921,50.21882],[-119.53913,50.21878],[-119.53901,50.21873],[-119.53884,50.21869],[-119.53863,50.21865],[-119.53842,50.21863],[-119.53831,50.21862],[-119.53822,50.21861],[-119.53801,50.21854],[-119.53786,50.21848],[-119.53776,50.21844],[-119.53766,50.21835],[-119.53759,50.21827],[-119.53754,50.21821],[-119.53748,50.21811],[-119.53743,50.21804],[-119.53738,50.21791],[-119.53734,50.2178],[-119.53726,50.21768],[-119.5372,50.21759],[-119.53712,50.21746],[-119.53708,50.21736],[-119.53707,50.21735],[-119.53698,50.2172],[-119.53694,50.21712],[-119.53689,50.21705],[-119.53683,50.21696],[-119.53678,50.21688],[-119.53674,50.21677],[-119.5367,50.21671],[-119.53666,50.21664],[-119.5366,50.21654],[-119.53655,50.21647],[-119.53649,50.21637],[-119.53644,50.2163],[-119.5364,50.21624],[-119.53632,50.21617],[-119.53625,50.21609],[-119.53616,50.21603],[-119.53609,50.21598],[-119.536,50.2159],[-119.53589,50.21583],[-119.53577,50.21577],[-119.53563,50.21569],[-119.53548,50.2156],[-119.53542,50.21556],[-119.53532,50.21548],[-119.53518,50.21543],[-119.53508,50.21544],[-119.53498,50.21545],[-119.53489,50.21546],[-119.53479,50.2155],[-119.53474,50.21554],[-119.53468,50.2156],[-119.53466,50.21572],[-119.53465,50.21581],[-119.53466,50.21588],[-119.53467,50.21598],[-119.53472,50.21613],[-119.53476,50.21621],[-119.5348,50.21632],[-119.53484,50.21638],[-119.53488,50.21644],[-119.53491,50.21652],[-119.53499,50.21665],[-119.53505,50.21675],[-119.53508,50.21681],[-119.53514,50.21691],[-119.53518,50.21697],[-119.53522,50.21706],[-119.53527,50.21719],[-119.53529,50.21729],[-119.53528,50.21742],[-119.53527,50.21751],[-119.53527,50.2176],[-119.53524,50.21766],[-119.53515,50.21773],[-119.53503,50.21773],[-119.53492,50.21765],[-119.53491,50.21756],[-119.53491,50.21748],[-119.53492,50.21741],[-119.5349,50.21733],[-119.53488,50.21724],[-119.53486,50.21719],[-119.53481,50.21713],[-119.53473,50.21705],[-119.53467,50.21701],[-119.53457,50.21696],[-119.53448,50.21688],[-119.53443,50.21683],[-119.53439,50.21677],[-119.53434,50.21672],[-119.53425,50.21666],[-119.53412,50.21658],[-119.53405,50.21654],[-119.5339,50.21646],[-119.53386,50.21641],[-119.53381,50.21634],[-119.53375,50.21624],[-119.53366,50.21614],[-119.53357,50.21605],[-119.53351,50.21601],[-119.53345,50.21597],[-119.5333,50.21591],[-119.53321,50.21588],[-119.53311,50.21586],[-119.53301,50.21583],[-119.53287,50.2158],[-119.53276,50.21578],[-119.53266,50.21577],[-119.53255,50.21575],[-119.53239,50.21573],[-119.53228,50.21571],[-119.53219,50.2157],[-119.53207,50.21568],[-119.53197,50.21566],[-119.53188,50.21563],[-119.53177,50.21559],[-119.53165,50.21555],[-119.53159,50.21547],[-119.53137,50.21529],[-119.53129,50.21526],[-119.53115,50.21524],[-119.53099,50.21526],[-119.53084,50.2153],[-119.5307,50.21535],[-119.53054,50.21541],[-119.53041,50.21547],[-119.53028,50.21552],[-119.53017,50.21555],[-119.53006,50.21557],[-119.52996,50.21558],[-119.52975,50.21558],[-119.52962,50.21558],[-119.52952,50.21558],[-119.52938,50.21558],[-119.52924,50.21557],[-119.52912,50.21557],[-119.52902,50.21556],[-119.52893,50.21556],[-119.52882,50.21556],[-119.52865,50.21554],[-119.52851,50.21551]]}},
{"type":"Feature","properties":{"spotId":"A-deer-atv-0070","kind":"walk","km":0.27,"climbM":97,"name":"1.2 km SW of Bouleau Creek","flags":[]},"geometry":{"type":"LineString","coordinates":[[-119.55322,50.23279],[-119.55696,50.23251]]}},
{"type":"Feature","properties":{"spotId":"A-deer-drive-0023","kind":"walk","km":0.02,"climbM":4,"name":"280 m NW of Whiteman Creek","flags":[]},"geometry":{"type":"LineString","coordinates":[[-119.5292,50.219],[-119.52931,50.21916]]}},
{"type":"Feature","properties":{"spotId":"A-deer-drive-0114","kind":"walk","km":0.14,"climbM":28,"name":"120 m SE of Whiteman Creek","flags":[]},"geometry":{"type":"LineString","coordinates":[[-119.64971,50.22431],[-119.64834,50.22338]]}},
{"type":"Feature","properties":{"spotId":"A-deer-walk-0062","kind":"walk","km":0.9,"climbM":548,"name":"940 m N of Whiteman Creek","flags":[]},"geometry":{"type":"LineString","coordinates":[[-119.5614,50.21503],[-119.55697,50.22259]]}},
{"type":"Feature","properties":{"spotId":"A-deer-walk-0100","kind":"walk","km":1.05,"climbM":364,"name":"1.2 km SW of Sugarloaf Mountain","flags":["Route crosses private land (ParcelMap BC, updated 2026-09-25): get permission first or go around."]},"geometry":{"type":"LineString","coordinates":[[-119.50664,50.1964],[-119.51918,50.20141]]}},
{"type":"Feature","properties":{"spotId":"A-deer-walk-0124","kind":"walk","km":0.58,"climbM":244,"name":"480 m S of Whiteman Creek","flags":[]},"geometry":{"type":"LineString","coordinates":[[-119.6428,50.22469],[-119.64325,50.21948]]}},
{"type":"Feature","properties":{"spotId":"A-duck-walk-0128","kind":"walk","km":0.34,"climbM":3,"name":"Unnamed wetland by Whiteman Creek","flags":[]},"geometry":{"type":"LineString","coordinates":[[-119.73741,50.22683],[-119.73427,50.2291]]}},
{"type":"Feature","properties":{"spotId":"A-grouse-atv-0082","kind":"ride","km":5.6,"climbM":627,"name":"By Whiteman Creek","flags":[]},"geometry":{"type":"LineString","coordinates":[[-119.52851,50.21551],[-119.52865,50.21554],[-119.52882,50.21556],[-119.52893,50.21556],[-119.52902,50.21556],[-119.52912,50.21557],[-119.52924,50.21557],[-119.52938,50.21558],[-119.52952,50.21558],[-119.52962,50.21558],[-119.52975,50.21558],[-119.52996,50.21558],[-119.53006,50.21557],[-119.53017,50.21555],[-119.53028,50.21552],[-119.53041,50.21547],[-119.53054,50.21541],[-119.5307,50.21535],[-119.53084,50.2153],[-119.53099,50.21526],[-119.53115,50.21524],[-119.53129,50.21526],[-119.53137,50.21529],[-119.53159,50.21547],[-119.53165,50.21555],[-119.53177,50.21559],[-119.53188,50.21563],[-119.53197,50.21566],[-119.53207,50.21568],[-119.53219,50.2157],[-119.53228,50.21571],[-119.53239,50.21573],[-119.53255,50.21575],[-119.53266,50.21577],[-119.53276,50.21578],[-119.53287,50.2158],[-119.53301,50.21583],[-119.53311,50.21586],[-119.53321,50.21588],[-119.5333,50.21591],[-119.53345,50.21597],[-119.53351,50.21601],[-119.53357,50.21605],[-119.53366,50.21614],[-119.53375,50.21624],[-119.53381,50.21634],[-119.53386,50.21641],[-119.5339,50.21646],[-119.53405,50.21654],[-119.53412,50.21658],[-119.53425,50.21666],[-119.53434,50.21672],[-119.53439,50.21677],[-119.53443,50.21683],[-119.53448,50.21688],[-119.53457,50.21696],[-119.53467,50.21701],[-119.53473,50.21705],[-119.53481,50.21713],[-119.53486,50.21719],[-119.53488,50.21724],[-119.5349,50.21733],[-119.53492,50.21741],[-119.53491,50.21748],[-119.53491,50.21756],[-119.53492,50.21765],[-119.53503,50.21773],[-119.53515,50.21773],[-119.53524,50.21766],[-119.53527,50.2176],[-119.53527,50.21751],[-119.53528,50.21742],[-119.53529,50.21729],[-119.53527,50.21719],[-119.53522,50.21706],[-119.53518,50.21697],[-119.53514,50.21691],[-119.53508,50.21681],[-119.53505,50.21675],[-119.53499,50.21665],[-119.53491,50.21652],[-119.53488,50.21644],[-119.53484,50.21638],[-119.5348,50.21632],[-119.53476,50.21621],[-119.53472,50.21613],[-119.53467,50.21598],[-119.53466,50.21588],[-119.53465,50.21581],[-119.53466,50.21572],[-119.53468,50.2156],[-119.53474,50.21554],[-119.53479,50.2155],[-119.53489,50.21546],[-119.53498,50.21545],[-119.53508,50.21544],[-119.53518,50.21543],[-119.53532,50.21548],[-119.53542,50.21556],[-119.53548,50.2156],[-119.53563,50.21569],[-119.53577,50.21577],[-119.53589,50.21583],[-119.536,50.2159],[-119.53609,50.21598],[-119.53616,50.21603],[-119.53625,50.21609],[-119.53632,50.21617],[-119.5364,50.21624],[-119.53644,50.2163],[-119.53649,50.21637],[-119.53655,50.21647],[-119.5366,50.21654],[-119.53666,50.21664],[-119.5367,50.21671],[-119.53674,50.21677],[-119.53678,50.21688],[-119.53683,50.21696],[-119.53689,50.21705],[-119.53694,50.21712],[-119.53698,50.2172],[-119.53707,50.21735],[-119.53708,50.21736],[-119.53712,50.21746],[-119.5372,50.21759],[-119.53726,50.21768],[-119.53734,50.2178],[-119.53738,50.21791],[-119.53743,50.21804],[-119.53748,50.21811],[-119.53754,50.21821],[-119.53759,50.21827],[-119.53766,50.21835],[-119.53776,50.21844],[-119.53786,50.21848],[-119.53801,50.21854],[-119.53822,50.21861],[-119.53831,50.21862],[-119.53842,50.21863],[-119.53863,50.21865],[-119.53884,50.21869],[-119.53901,50.21873],[-119.53913,50.21878],[-119.53921,50.21882],[-119.53937,50.21891],[-119.53953,50.21904],[-119.53965,50.21912],[-119.53974,50.21919],[-119.53987,50.21928],[-119.53996,50.21934],[-119.54004,50.2194],[-119.54012,50.21946],[-119.54026,50.21957],[-119.54043,50.21975],[-119.54054,50.21982],[-119.54066,50.21992],[-119.54075,50.21997],[-119.54083,50.22004],[-119.54089,50.2201],[-119.54097,50.22018],[-119.54104,50.22027],[-119.54112,50.22038],[-119.54118,50.22048],[-119.54126,50.22059],[-119.54133,50.22069],[-119.54139,50.22079],[-119.54148,50.22088],[-119.54154,50.22095],[-119.54162,50.22103],[-119.54169,50.22116],[-119.54172,50.22122],[-119.54177,50.22131],[-119.54182,50.22138],[-119.54186,50.22147],[-119.54195,50.2216],[-119.54205,50.22173],[-119.54213,50.22182],[-119.54224,50.22193],[-119.54234,50.22198],[-119.54244,50.22201],[-119.54257,50.22201],[-119.54269,50.22192],[-119.54276,50.2218],[-119.5428,50.22174],[-119.54284,50.22167],[-119.54288,50.22156],[-119.5429,50.22144],[-119.54295,50.22128],[-119.54298,50.22119],[-119.54299,50.22107],[-119.54303,50.22096],[-119.54305,50.22088],[-119.54308,50.22079],[-119.54313,50.22067],[-119.54316,50.22057],[-119.54319,50.2205],[-119.54325,50.22039],[-119.54328,50.22033],[-119.54331,50.22027],[-119.54336,50.22017],[-119.5434,50.22012],[-119.54348,50.22005],[-119.54354,50.21999],[-119.5436,50.21989],[-119.54367,50.21982],[-119.54376,50.21974],[-119.54382,50.21967],[-119.54388,50.21954],[-119.54391,50.21944],[-119.54395,50.21931],[-119.54403,50.21917],[-119.54409,50.21904],[-119.54411,50.21895],[-119.54416,50.21879],[-119.54418,50.21868],[-119.54423,50.21857],[-119.54428,50.21844],[-119.54432,50.21833],[-119.54434,50.21821],[-119.54436,50.21813],[-119.5444,50.21805],[-119.54445,50.21791],[-119.54449,50.21783],[-119.54457,50.21769],[-119.54459,50.21763],[-119.54464,50.21751],[-119.54465,50.21748],[-119.54468,50.21741],[-119.54473,50.21731],[-119.54478,50.21723],[-119.54483,50.21707],[-119.5449,50.21689],[-119.54499,50.21672],[-119.54503,50.21665],[-119.54508,50.21655],[-119.54514,50.21647],[-119.54526,50.21634],[-119.54537,50.21628],[-119.54555,50.21622],[-119.54571,50.21621],[-119.54582,50.21623],[-119.54593,50.21629],[-119.54598,50.21635],[-119.54603,50.21649],[-119.54606,50.21662],[-119.54605,50.2167],[-119.54606,50.21679],[-119.54605,50.21691],[-119.54605,50.21698],[-119.54607,50.21708],[-119.54609,50.21714],[-119.54611,50.21724],[-119.54613,50.21733],[-119.54612,50.21743],[-119.54612,50.2175],[-119.54615,50.21766],[-119.54618,50.21779],[-119.54617,50.21789],[-119.54619,50.21796],[-119.54622,50.21805],[-119.54624,50.21816],[-119.54628,50.21824],[-119.54629,50.2183],[-119.54633,50.21838],[-119.54637,50.21847],[-119.54639,50.21855],[-119.54641,50.21865],[-119.54645,50.21878],[-119.54649,50.2189],[-119.54651,50.21902],[-119.54655,50.21913],[-119.5466,50.21925],[-119.54663,50.21932],[-119.54666,50.21941],[-119.54668,50.21953],[-119.54671,50.21962],[-119.54674,50.21974],[-119.54677,50.21991],[-119.54679,50.21999],[-119.54685,50.22014],[-119.5469,50.22025],[-119.54692,50.22033],[-119.54697,50.22043],[-119.547,50.22052],[-119.547,50.22059],[-119.54702,50.22069],[-119.54704,50.22079],[-119.54706,50.2209],[-119.54708,50.22101],[-119.5471,50.22111],[-119.54712,50.22118],[-119.54712,50.22127],[-119.54714,50.22133],[-119.54713,50.22143],[-119.54715,50.22154],[-119.54717,50.22163],[-119.54718,50.22175],[-119.54718,50.22185],[-119.54719,50.22195],[-119.54721,50.22204],[-119.54721,50.22212],[-119.54725,50.22227],[-119.54725,50.22237],[-119.54726,50.22245],[-119.54726,50.22254],[-119.54728,50.22261],[-119.54732,50.2228],[-119.54734,50.22286],[-119.54736,50.22296],[-119.54739,50.22306],[-119.54742,50.22319],[-119.54744,50.22329],[-119.54749,50.22345],[-119.54751,50.22352],[-119.54754,50.2236],[-119.54758,50.22368],[-119.54759,50.22371],[-119.54761,50.22378],[-119.54763,50.22388],[-119.54765,50.22395],[-119.54768,50.22401],[-119.54771,50.22407],[-119.54774,50.22414],[-119.54776,50.22419],[-119.54782,50.22432],[-119.54785,50.22439],[-119.54788,50.22444],[-119.54793,50.22456],[-119.54798,50.22464],[-119.54804,50.22475],[-119.54807,50.22481],[-119.5481,50.22488],[-119.54813,50.22494],[-119.54816,50.22499],[-119.5482,50.22505],[-119.54826,50.22515],[-119.54829,50.22522],[-119.54834,50.22533],[-119.54843,50.22544],[-119.5485,50.22553],[-119.54855,50.22559],[-119.54865,50.2257],[-119.54871,50.22579],[-119.54879,50.22587],[-119.54884,50.22592],[-119.54888,50.22597],[-119.54892,50.22605],[-119.54898,50.22614],[-119.54906,50.22622],[-119.54912,50.2263],[-119.54912,50.22631],[-119.54915,50.22636],[-119.54922,50.22645],[-119.54927,50.22653],[-119.54933,50.22663],[-119.54941,50.22679],[-119.54947,50.2269],[-119.54952,50.22697],[-119.54959,50.22707],[-119.54968,50.22718],[-119.54973,50.22724],[-119.54982,50.22737],[-119.54989,50.22746],[-119.54994,50.22753],[-119.55,50.22759],[-119.55007,50.22768],[-119.55014,50.22779],[-119.5502,50.22786],[-119.55021,50.22792],[-119.55025,50.22799],[-119.55029,50.22808],[-119.55032,50.22814],[-119.55036,50.22825],[-119.55038,50.22837],[-119.55043,50.2285],[-119.5505,50.22857],[-119.55056,50.22864],[-119.55064,50.22874],[-119.55068,50.22879],[-119.55074,50.22886],[-119.5508,50.22893],[-119.5509,50.22902],[-119.55099,50.22911],[-119.55111,50.22919],[-119.5512,50.22923],[-119.55132,50.22929],[-119.5514,50.22934],[-119.55147,50.22938],[-119.55154,50.22944],[-119.55182,50.22957],[-119.55194,50.22972],[-119.55198,50.22983],[-119.55202,50.22991],[-119.55203,50.22998],[-119.55208,50.23005],[-119.55216,50.23016],[-119.55219,50.23021],[-119.55226,50.23028],[-119.55233,50.23035],[-119.55238,50.2304],[-119.55241,50.23047],[-119.55244,50.23053],[-119.55273,50.23116],[-119.55278,50.23126],[-119.55288,50.23155],[-119.55291,50.23163],[-119.55293,50.23172],[-119.55296,50.23181],[-119.55299,50.23188],[-119.55301,50.23194],[-119.55304,50.23203],[-119.55309,50.23213],[-119.55312,50.23221],[-119.55312,50.23228],[-119.55313,50.23233],[-119.55314,50.23239],[-119.55315,50.23249],[-119.55317,50.23256],[-119.55319,50.23264],[-119.55319,50.23271],[-119.55322,50.23279],[-119.55323,50.23286],[-119.55324,50.23293],[-119.55325,50.23307],[-119.55324,50.23315],[-119.55323,50.2332],[-119.55323,50.23329],[-119.55325,50.23336],[-119.55327,50.23343],[-119.5533,50.23353],[-119.55335,50.23365],[-119.5534,50.23374],[-119.55343,50.2338],[-119.55346,50.23387],[-119.55352,50.23396],[-119.55361,50.23406],[-119.55366,50.23413],[-119.5537,50.23418],[-119.55375,50.23424],[-119.55379,50.23429],[-119.55385,50.23437],[-119.5539,50.23442],[-119.55396,50.23447],[-119.554,50.23452],[-119.55409,50.2346],[-119.55424,50.23472],[-119.55433,50.23481],[-119.55433,50.23484],[-119.55434,50.23489],[-119.55435,50.23499],[-119.55433,50.23509],[-119.55432,50.23516],[-119.55431,50.23525],[-119.55431,50.23531],[-119.55432,50.2354],[-119.55432,50.23551],[-119.55434,50.23557],[-119.55444,50.23567],[-119.55456,50.23575],[-119.55466,50.23581],[-119.55478,50.23587],[-119.55486,50.23593],[-119.55502,50.23601],[-119.55511,50.23607],[-119.5552,50.23612],[-119.55527,50.23616],[-119.55537,50.23622],[-119.55545,50.23624],[-119.55565,50.23625],[-119.55579,50.23626],[-119.55595,50.23626],[-119.55603,50.23626],[-119.55614,50.23627],[-119.55624,50.23627],[-119.55637,50.23628],[-119.55652,50.2363],[-119.55666,50.23633],[-119.55678,50.23634],[-119.55692,50.23636],[-119.55706,50.23636],[-119.55716,50.23636],[-119.55733,50.23637],[-119.55752,50.23634],[-119.55767,50.23632],[-119.55784,50.2363],[-119.55797,50.23628],[-119.55805,50.23626],[-119.55813,50.23624],[-119.55824,50.23623],[-119.55842,50.23619],[-119.55855,50.23618],[-119.55869,50.23617],[-119.55884,50.23613],[-119.55897,50.23611],[-119.55905,50.23608],[-119.55916,50.23607],[-119.5594,50.23603],[-119.5595,50.23601],[-119.55963,50.23599],[-119.55975,50.23597],[-119.55991,50.23596],[-119.56,50.23594],[-119.56012,50.23591],[-119.56026,50.23586],[-119.56031,50.23578],[-119.56039,50.23569],[-119.56047,50.2356],[-119.56055,50.23557],[-119.56058,50.23556],[-119.56077,50.23554],[-119.56084,50.23555],[-119.56096,50.23561],[-119.56103,50.23566],[-119.56109,50.23573],[-119.56117,50.23583],[-119.56123,50.23591],[-119.56129,50.23602],[-119.56135,50.23607],[-119.56142,50.23611],[-119.56155,50.23617],[-119.56162,50.23619],[-119.56178,50.23623],[-119.56186,50.23626],[-119.56194,50.23629],[-119.56201,50.23633],[-119.56208,50.23636],[-119.56214,50.23641],[-119.56223,50.23646],[-119.5623,50.2365],[-119.56241,50.23657],[-119.56254,50.23661],[-119.56267,50.23664],[-119.56278,50.23664],[-119.56291,50.23665],[-119.56301,50.23665],[-119.56313,50.23664]]}},
{"type":"Feature","properties":{"spotId":"A-grouse-drive-0075","kind":"roadside","km":5.15,"climbM":141,"name":"170 m SE of Whiteman Creek","flags":[]},"geometry":{"type":"LineString","coordinates":[[-119.69952,50.22287],[-119.69952,50.22288],[-119.69965,50.22293],[-119.69975,50.22296],[-119.69983,50.22299],[-119.69995,50.22299],[-119.70005,50.22301],[-119.70016,50.22301],[-119.70028,50.22298],[-119.70041,50.22295],[-119.70057,50.22287],[-119.70072,50.2228],[-119.70094,50.22275],[-119.70125,50.22269],[-119.70139,50.22266],[-119.70155,50.22263],[-119.70176,50.22258],[-119.70198,50.22253],[-119.70212,50.2225],[-119.70226,50.22248],[-119.70237,50.22245],[-119.70251,50.22241],[-119.70269,50.22234],[-119.70278,50.22231],[-119.70291,50.22226],[-119.70303,50.22219],[-119.7031,50.22215],[-119.70316,50.22209],[-119.70327,50.22202],[-119.7033,50.222],[-119.70341,50.22195],[-119.70355,50.2219],[-119.70368,50.22186],[-119.70386,50.22183],[-119.704,50.2218],[-119.7041,50.22178],[-119.70424,50.22176],[-119.70436,50.22173],[-119.70452,50.2217],[-119.7047,50.22166],[-119.70478,50.22164],[-119.70488,50.22162],[-119.70503,50.2216],[-119.70514,50.22157],[-119.70526,50.22155],[-119.70537,50.22151],[-119.70548,50.22145],[-119.70561,50.22139],[-119.7057,50.22133],[-119.70582,50.22125],[-119.70593,50.2212],[-119.706,50.22117],[-119.70611,50.22116],[-119.70625,50.22113],[-119.70628,50.22112],[-119.70643,50.22106],[-119.70673,50.22094],[-119.70688,50.22103],[-119.70698,50.22107],[-119.70708,50.22114],[-119.70719,50.22122],[-119.70725,50.22127],[-119.70734,50.22132],[-119.70741,50.22135],[-119.7075,50.22138],[-119.70761,50.22138],[-119.70778,50.2214],[-119.70792,50.2214],[-119.70806,50.22142],[-119.70823,50.22143],[-119.70837,50.22147],[-119.70847,50.22151],[-119.70859,50.22155],[-119.70866,50.22157],[-119.70873,50.22162],[-119.70882,50.22167],[-119.70891,50.22178],[-119.709,50.2219],[-119.70909,50.222],[-119.70915,50.22208],[-119.70921,50.22216],[-119.70924,50.22222],[-119.70927,50.22228],[-119.7093,50.22234],[-119.70935,50.22241],[-119.70941,50.22247],[-119.70953,50.22254],[-119.70961,50.22258],[-119.70971,50.22262],[-119.70981,50.22265],[-119.7099,50.22267],[-119.71002,50.22268],[-119.71014,50.22268],[-119.71029,50.22267],[-119.71037,50.22264],[-119.71044,50.2226],[-119.71052,50.22256],[-119.71059,50.2225],[-119.71068,50.22244],[-119.71081,50.2224],[-119.71093,50.22238],[-119.71102,50.22237],[-119.71112,50.22237],[-119.71124,50.22238],[-119.71138,50.22238],[-119.71148,50.22239],[-119.71163,50.22239],[-119.71179,50.22236],[-119.71193,50.22234],[-119.71204,50.22233],[-119.71212,50.22232],[-119.71225,50.22229],[-119.71238,50.22225],[-119.71252,50.22221],[-119.71268,50.22219],[-119.7128,50.22217],[-119.7129,50.22215],[-119.71376,50.22192],[-119.71418,50.22179],[-119.71432,50.22178],[-119.71441,50.22179],[-119.71455,50.22183],[-119.71463,50.22185],[-119.71472,50.22186],[-119.71487,50.22184],[-119.71498,50.22182],[-119.71507,50.22182],[-119.71519,50.22179],[-119.71529,50.22176],[-119.7154,50.22172],[-119.71549,50.22168],[-119.7156,50.22164],[-119.7157,50.22162],[-119.7158,50.2216],[-119.71589,50.22159],[-119.71599,50.22161],[-119.71609,50.22162],[-119.7162,50.2216],[-119.7163,50.22158],[-119.71642,50.22153],[-119.71652,50.22149],[-119.71667,50.22143],[-119.71674,50.2214],[-119.71682,50.22137],[-119.7169,50.22136],[-119.71699,50.22134],[-119.71715,50.2213],[-119.71729,50.2213],[-119.71748,50.22131],[-119.71763,50.22132],[-119.71779,50.22133],[-119.71787,50.22133],[-119.71797,50.22134],[-119.71807,50.22135],[-119.71818,50.22135],[-119.71832,50.22136],[-119.71845,50.22136],[-119.71853,50.22137],[-119.71863,50.22137],[-119.71876,50.22137],[-119.71884,50.22135],[-119.71895,50.22131],[-119.71904,50.22128],[-119.71918,50.22126],[-119.7193,50.22125],[-119.71941,50.22123],[-119.71953,50.22124],[-119.71965,50.22124],[-119.71977,50.22124],[-119.71991,50.22125],[-119.72005,50.22125],[-119.72021,50.22125],[-119.72033,50.22125],[-119.72043,50.22124],[-119.72051,50.22123],[-119.7206,50.22122],[-119.72074,50.22122],[-119.72089,50.22123],[-119.72099,50.22123],[-119.7211,50.22124],[-119.72126,50.22125],[-119.72136,50.22126],[-119.72151,50.22128],[-119.7216,50.22131],[-119.72171,50.22134],[-119.72176,50.22139],[-119.72179,50.22146],[-119.72182,50.22154],[-119.72183,50.22162],[-119.72182,50.22172],[-119.72185,50.2218],[-119.72187,50.22185],[-119.72189,50.22193],[-119.7219,50.222],[-119.72194,50.22207],[-119.72198,50.22218],[-119.72206,50.22224],[-119.72215,50.22229],[-119.72246,50.22242],[-119.72259,50.22249],[-119.72275,50.22254],[-119.72289,50.22256],[-119.72299,50.22257],[-119.72309,50.22258],[-119.72324,50.22258],[-119.72337,50.22259],[-119.72358,50.2226],[-119.72382,50.22261],[-119.72399,50.22262],[-119.72416,50.22262],[-119.72431,50.22263],[-119.72448,50.22263],[-119.72472,50.22265],[-119.72484,50.22265],[-119.72494,50.22265],[-119.72505,50.22265],[-119.72529,50.22264],[-119.72542,50.22264],[-119.72556,50.22261],[-119.72569,50.22258],[-119.72582,50.22256],[-119.72593,50.22255],[-119.72606,50.22253],[-119.72614,50.22252],[-119.72631,50.22249],[-119.72642,50.22247],[-119.72653,50.22243],[-119.72669,50.22239],[-119.72693,50.22233],[-119.72716,50.22227],[-119.7273,50.22224],[-119.72743,50.22221],[-119.72757,50.22219],[-119.72768,50.22218],[-119.72783,50.22217],[-119.72794,50.22216],[-119.72811,50.22215],[-119.72832,50.22212],[-119.72851,50.22206],[-119.72866,50.22201],[-119.72875,50.22199],[-119.72888,50.22196],[-119.72901,50.22195],[-119.72922,50.22196],[-119.72943,50.22192],[-119.72968,50.22187],[-119.72991,50.22182],[-119.73018,50.22177],[-119.73043,50.22173],[-119.73058,50.22169],[-119.73073,50.22166],[-119.7309,50.2216],[-119.73103,50.22156],[-119.73119,50.22151],[-119.73131,50.22148],[-119.73142,50.22146],[-119.73156,50.22143],[-119.73167,50.22144],[-119.73183,50.22145],[-119.73196,50.22148],[-119.73208,50.22151],[-119.73218,50.22153],[-119.73233,50.22157],[-119.73241,50.22159],[-119.73251,50.22163],[-119.7326,50.22165],[-119.7327,50.22169],[-119.73281,50.22172],[-119.73292,50.22175],[-119.73307,50.22178],[-119.73315,50.22178],[-119.73344,50.22186],[-119.73358,50.22187],[-119.73383,50.2219],[-119.7339,50.22193],[-119.734,50.22196],[-119.7342,50.22204],[-119.73429,50.22209],[-119.73436,50.22212],[-119.73446,50.2222],[-119.73454,50.22224],[-119.7346,50.22228],[-119.73471,50.22237],[-119.73477,50.22241],[-119.73483,50.22246],[-119.73489,50.22252],[-119.73495,50.22257],[-119.73501,50.22261],[-119.73507,50.22266],[-119.73511,50.2227],[-119.73518,50.22277],[-119.73522,50.22282],[-119.73535,50.22295],[-119.73541,50.223],[-119.73545,50.22302],[-119.73557,50.22311],[-119.73567,50.22319],[-119.7358,50.22325],[-119.73589,50.22329],[-119.73599,50.22334],[-119.73612,50.22338],[-119.73622,50.22341],[-119.73636,50.22345],[-119.73654,50.22348],[-119.73664,50.2235],[-119.7368,50.22351],[-119.7369,50.22352],[-119.73701,50.22354],[-119.73709,50.22355],[-119.73722,50.22358],[-119.73735,50.22362],[-119.73744,50.22364],[-119.73752,50.22368],[-119.73765,50.22375],[-119.73773,50.22381],[-119.73778,50.22387],[-119.73785,50.22397],[-119.73788,50.22405],[-119.7379,50.22411],[-119.73793,50.22423],[-119.73794,50.2243],[-119.73794,50.2244],[-119.73795,50.22449],[-119.73795,50.22459],[-119.73793,50.22472],[-119.73792,50.2248],[-119.73789,50.22489],[-119.73785,50.22494],[-119.73774,50.22504],[-119.73765,50.2251],[-119.73758,50.22516],[-119.73748,50.22523],[-119.73736,50.2253],[-119.73723,50.22537],[-119.73716,50.22541],[-119.73707,50.22551],[-119.73699,50.22561],[-119.73696,50.22568],[-119.73695,50.22578],[-119.73695,50.22586],[-119.73694,50.22598],[-119.73693,50.22603],[-119.73693,50.22611],[-119.73695,50.22618],[-119.73704,50.22627],[-119.73707,50.22634],[-119.7371,50.22639],[-119.73715,50.2265],[-119.73723,50.22662],[-119.73729,50.22671],[-119.73735,50.22678],[-119.73741,50.22683],[-119.73748,50.22686],[-119.73758,50.22689],[-119.73769,50.22691],[-119.73786,50.22693],[-119.73803,50.22694],[-119.73814,50.22694],[-119.73827,50.22693],[-119.73842,50.22692],[-119.73858,50.2269],[-119.7387,50.2269],[-119.7388,50.22689],[-119.7389,50.22687],[-119.73906,50.22685],[-119.73919,50.22684],[-119.7394,50.22681],[-119.73952,50.22678],[-119.73965,50.22676],[-119.73981,50.22672],[-119.73995,50.22671],[-119.74005,50.22669],[-119.74026,50.22665],[-119.74044,50.22664],[-119.74062,50.22663],[-119.7408,50.22658],[-119.74095,50.22652],[-119.74109,50.22647],[-119.74123,50.22641],[-119.74136,50.22634],[-119.74148,50.22628],[-119.74164,50.22622],[-119.74183,50.22614],[-119.74198,50.22608],[-119.74209,50.22603],[-119.74218,50.22601],[-119.74231,50.22598],[-119.74239,50.22596],[-119.74249,50.22593],[-119.74256,50.2259],[-119.74268,50.22586],[-119.74279,50.22583],[-119.7429,50.22581],[-119.74305,50.22579],[-119.74318,50.22577],[-119.7433,50.22573],[-119.74392,50.22564],[-119.74404,50.22562],[-119.74412,50.2256],[-119.74424,50.2256],[-119.74435,50.22559],[-119.7444,50.22557],[-119.74452,50.22558],[-119.74464,50.22558],[-119.74474,50.22558],[-119.74485,50.22559],[-119.74496,50.22559],[-119.74508,50.22559],[-119.74526,50.2256],[-119.74536,50.22561],[-119.74551,50.22561],[-119.74563,50.22562],[-119.74572,50.22562],[-119.74585,50.22561],[-119.74598,50.22561],[-119.7461,50.22559],[-119.74629,50.22556],[-119.74648,50.22553],[-119.74662,50.22552],[-119.74673,50.2255],[-119.74684,50.22548],[-119.74698,50.22545],[-119.7471,50.22544],[-119.74721,50.22543],[-119.74734,50.22542],[-119.74742,50.2254],[-119.74759,50.22541],[-119.7477,50.22542],[-119.74779,50.22544],[-119.74789,50.22546],[-119.74799,50.22549],[-119.7481,50.22553],[-119.7482,50.22557],[-119.74829,50.22559],[-119.74837,50.22563],[-119.74843,50.22568],[-119.74849,50.22571],[-119.74861,50.22581],[-119.74868,50.22587],[-119.7488,50.22597],[-119.7489,50.22606],[-119.74899,50.22616],[-119.74908,50.22625],[-119.74917,50.22632],[-119.74929,50.22643],[-119.74935,50.22649],[-119.74944,50.22653],[-119.74958,50.22656],[-119.7497,50.22656],[-119.74985,50.2266],[-119.74999,50.2266],[-119.75016,50.22663],[-119.75033,50.22666],[-119.75043,50.22668],[-119.75051,50.2267],[-119.75064,50.22673],[-119.75074,50.22677],[-119.75083,50.22681],[-119.75096,50.22688],[-119.75102,50.22693],[-119.75111,50.22708],[-119.75117,50.22718],[-119.75122,50.22725],[-119.75129,50.22736],[-119.75138,50.22747],[-119.75147,50.22757],[-119.75158,50.22769],[-119.75168,50.22778],[-119.7518,50.22788],[-119.75193,50.22795],[-119.75201,50.22798],[-119.75209,50.22802],[-119.75225,50.22808],[-119.75235,50.22812],[-119.75249,50.22817],[-119.75258,50.22822],[-119.75273,50.22826],[-119.75294,50.22826],[-119.7531,50.22826],[-119.75322,50.22824],[-119.75347,50.22823],[-119.75361,50.22822],[-119.75384,50.22822],[-119.75395,50.22822],[-119.75405,50.22822],[-119.7542,50.22821],[-119.75437,50.22822],[-119.75455,50.22822],[-119.75472,50.22823],[-119.75485,50.22821],[-119.75501,50.22817],[-119.75521,50.22813],[-119.75537,50.22808],[-119.7555,50.22802],[-119.75556,50.22796],[-119.75568,50.22784],[-119.75579,50.22773],[-119.75587,50.22765],[-119.75592,50.22761],[-119.75596,50.22755],[-119.75598,50.22744],[-119.75597,50.22734],[-119.75594,50.22725],[-119.75591,50.22718],[-119.75591,50.22713],[-119.7559,50.22707],[-119.75591,50.227],[-119.75592,50.22692],[-119.75602,50.22685],[-119.75608,50.2268],[-119.75618,50.22676],[-119.75623,50.22674]]}},
{"type":"Feature","properties":{"spotId":"A-grouse-drive-0101","kind":"roadside","km":4.63,"climbM":122,"name":"By Whiteman Creek","flags":["Route crosses private land (ParcelMap BC, updated 2026-09-25): get permission first or go around."]},"geometry":{"type":"LineString","coordinates":[[-119.51649,50.21774],[-119.51624,50.21778],[-119.51614,50.2178],[-119.51596,50.21782],[-119.51583,50.21783],[-119.51571,50.21786],[-119.5156,50.21788],[-119.51551,50.2179],[-119.5154,50.21792],[-119.51531,50.21795],[-119.51521,50.21797],[-119.5151,50.21799],[-119.51503,50.21802],[-119.51492,50.21804],[-119.51482,50.21808],[-119.5147,50.21816],[-119.51463,50.2182],[-119.51456,50.21824],[-119.5145,50.2183],[-119.51444,50.21834],[-119.51435,50.21841],[-119.5143,50.21846],[-119.51423,50.21852],[-119.51416,50.21858],[-119.51412,50.21865],[-119.51409,50.21873],[-119.51405,50.21881],[-119.51399,50.21887],[-119.5139,50.21897],[-119.51383,50.21903],[-119.51377,50.21909],[-119.51367,50.21916],[-119.51358,50.21923],[-119.51351,50.21927],[-119.51343,50.21931],[-119.51336,50.21936],[-119.51325,50.21943],[-119.51312,50.2195],[-119.51298,50.21958],[-119.51284,50.21963],[-119.51276,50.21966],[-119.51268,50.21968],[-119.51255,50.21973],[-119.51247,50.21977],[-119.51236,50.21982],[-119.51225,50.21988],[-119.51214,50.21994],[-119.51206,50.21998],[-119.51198,50.22002],[-119.51186,50.22008],[-119.51175,50.22013],[-119.51166,50.22015],[-119.51154,50.22018],[-119.51133,50.22021],[-119.51122,50.22023],[-119.51105,50.22026],[-119.51094,50.22028],[-119.51078,50.22032],[-119.51064,50.22037],[-119.51051,50.22041],[-119.51042,50.22043],[-119.51028,50.22048],[-119.5102,50.22053],[-119.51009,50.22058],[-119.51001,50.22061],[-119.50994,50.22064],[-119.50987,50.22069],[-119.50973,50.22076],[-119.5096,50.2208],[-119.50951,50.22082],[-119.50937,50.22085],[-119.50929,50.22088],[-119.50918,50.22091],[-119.50911,50.22095],[-119.50902,50.22098],[-119.50895,50.22102],[-119.50885,50.22107],[-119.50877,50.22112],[-119.50863,50.22118],[-119.50854,50.22123],[-119.50846,50.22127],[-119.50838,50.22132],[-119.50827,50.22137],[-119.50817,50.22141],[-119.50802,50.22146],[-119.50789,50.22147],[-119.50774,50.22148],[-119.50752,50.22151],[-119.50739,50.22152],[-119.50728,50.22152],[-119.50717,50.22151],[-119.50705,50.22151],[-119.50693,50.2215],[-119.50681,50.22149],[-119.50672,50.22149],[-119.5066,50.22147],[-119.50649,50.22145],[-119.50633,50.22143],[-119.50621,50.22141],[-119.50612,50.22139],[-119.50599,50.22138],[-119.50577,50.22135],[-119.50569,50.22136],[-119.50559,50.22135],[-119.50546,50.22134],[-119.50536,50.22134],[-119.50521,50.22134],[-119.50508,50.22133],[-119.50498,50.22133],[-119.50479,50.22132],[-119.50456,50.22133],[-119.50442,50.22133],[-119.50427,50.22135],[-119.50414,50.22136],[-119.50391,50.2214],[-119.5037,50.22143],[-119.50359,50.22145],[-119.50341,50.22149],[-119.50307,50.22156],[-119.50284,50.22158],[-119.5026,50.22156],[-119.50248,50.22155],[-119.50237,50.22155],[-119.50226,50.22156],[-119.50208,50.22157],[-119.50194,50.22163],[-119.50188,50.22169],[-119.50174,50.22177],[-119.50167,50.22186],[-119.50158,50.22197],[-119.5015,50.22205],[-119.50138,50.22213],[-119.50126,50.22219],[-119.50116,50.22222],[-119.50105,50.22223],[-119.5009,50.22228],[-119.50083,50.22232],[-119.50066,50.2224],[-119.5006,50.22244],[-119.50054,50.22248],[-119.50048,50.22254],[-119.50041,50.22261],[-119.50039,50.22274],[-119.50037,50.22285],[-119.50037,50.22291],[-119.50036,50.22303],[-119.50035,50.22311],[-119.50024,50.22318],[-119.50014,50.22315],[-119.50004,50.22307],[-119.49998,50.22303],[-119.49988,50.2229],[-119.49986,50.22284],[-119.49981,50.22276],[-119.49975,50.22268],[-119.49968,50.22258],[-119.4996,50.22248],[-119.49956,50.22239],[-119.49955,50.22232],[-119.49953,50.22223],[-119.4995,50.22212],[-119.49951,50.22204],[-119.49958,50.2218],[-119.49961,50.22176],[-119.49967,50.22166],[-119.49972,50.22155],[-119.49976,50.22139],[-119.49977,50.22133],[-119.4997,50.2212],[-119.49971,50.22111],[-119.49974,50.22103],[-119.49983,50.22092],[-119.4999,50.22087],[-119.49996,50.22081],[-119.50009,50.22076],[-119.5002,50.22068],[-119.50028,50.2206],[-119.50037,50.2205],[-119.50046,50.22043],[-119.50055,50.22039],[-119.50067,50.22036],[-119.50089,50.22033],[-119.50103,50.2203],[-119.50117,50.22024],[-119.50133,50.22014],[-119.5014,50.22009],[-119.50148,50.21997],[-119.50149,50.21988],[-119.50141,50.21977],[-119.50126,50.21967],[-119.50111,50.2196],[-119.50092,50.21956],[-119.50084,50.2195],[-119.50071,50.21943],[-119.5006,50.21938],[-119.50052,50.21933],[-119.50043,50.21928],[-119.50034,50.21921],[-119.50029,50.21917],[-119.50021,50.21907],[-119.50016,50.21897],[-119.50017,50.21886],[-119.50013,50.21868],[-119.5001,50.21853],[-119.50007,50.21845],[-119.50005,50.21838],[-119.5,50.21829],[-119.49994,50.2182],[-119.49988,50.21811],[-119.49983,50.21801],[-119.4998,50.21795],[-119.49974,50.21783],[-119.49971,50.21776],[-119.49969,50.21766],[-119.49967,50.21753],[-119.49963,50.21738],[-119.49961,50.21723],[-119.49962,50.2171],[-119.4996,50.21699],[-119.49958,50.21688],[-119.49954,50.21678],[-119.4995,50.21666],[-119.49946,50.2166],[-119.49944,50.21649],[-119.49941,50.21638],[-119.49936,50.21627],[-119.49929,50.21616],[-119.49921,50.21603],[-119.49916,50.21595],[-119.49912,50.21589],[-119.49897,50.21575],[-119.49886,50.21568],[-119.49877,50.21559],[-119.49869,50.21554],[-119.49861,50.21548],[-119.4985,50.21541],[-119.49842,50.21533],[-119.49833,50.21528],[-119.49821,50.2152],[-119.49807,50.21512],[-119.49796,50.21501],[-119.49787,50.21487],[-119.49781,50.21477],[-119.49774,50.21465],[-119.49767,50.21455],[-119.49754,50.21433],[-119.49751,50.21416],[-119.49749,50.21404],[-119.49749,50.21394],[-119.49751,50.21379],[-119.49752,50.21366],[-119.49752,50.21364],[-119.49754,50.2135],[-119.49752,50.21338],[-119.49748,50.21328],[-119.49741,50.21318],[-119.4973,50.21305],[-119.49727,50.21297],[-119.49719,50.2128],[-119.49716,50.21272],[-119.49711,50.21261],[-119.49706,50.21253],[-119.49693,50.21232],[-119.49685,50.21212],[-119.49681,50.21197],[-119.49679,50.2119],[-119.49676,50.21183],[-119.49673,50.21169],[-119.49666,50.21148],[-119.49663,50.21137],[-119.4966,50.21121],[-119.49658,50.21105],[-119.49656,50.2109],[-119.49653,50.2108],[-119.49649,50.21065],[-119.49643,50.21049],[-119.49639,50.21039],[-119.49636,50.21029],[-119.49635,50.21021],[-119.49637,50.21016],[-119.49637,50.21003],[-119.49638,50.2099],[-119.49639,50.20978],[-119.49638,50.2097],[-119.49639,50.20958],[-119.4964,50.20949],[-119.49637,50.2094],[-119.4963,50.20923],[-119.49629,50.20915],[-119.49629,50.20899],[-119.4963,50.2088],[-119.49629,50.20862],[-119.49625,50.20855],[-119.49623,50.20844],[-119.4962,50.20836],[-119.49618,50.20828],[-119.49615,50.20818],[-119.4961,50.20808],[-119.4961,50.20795],[-119.49609,50.20788],[-119.4961,50.2078],[-119.49611,50.20774],[-119.4961,50.20768],[-119.49608,50.20762],[-119.49604,50.20749],[-119.49602,50.20735],[-119.49601,50.20729],[-119.49599,50.2072],[-119.49597,50.20714],[-119.49589,50.207],[-119.49585,50.20696],[-119.49575,50.20693],[-119.49545,50.20692],[-119.49539,50.20701],[-119.49534,50.20712],[-119.4953,50.20721],[-119.49526,50.2073],[-119.49519,50.20751],[-119.49514,50.20763],[-119.49509,50.20771],[-119.49505,50.20778],[-119.49497,50.20789],[-119.49492,50.20805],[-119.49489,50.20815],[-119.49476,50.20837],[-119.49465,50.2085],[-119.4946,50.2086],[-119.49457,50.20869],[-119.49451,50.20879],[-119.49449,50.2089],[-119.49444,50.20898],[-119.49439,50.20901],[-119.49418,50.20906],[-119.49403,50.20899],[-119.49406,50.20889],[-119.49408,50.20873],[-119.49409,50.20867],[-119.4941,50.2086],[-119.49411,50.20849],[-119.49412,50.20842],[-119.49411,50.20835],[-119.49408,50.20829],[-119.49404,50.2082],[-119.494,50.2081],[-119.49393,50.20799],[-119.49382,50.2079],[-119.49373,50.2078],[-119.49364,50.20767],[-119.49353,50.20758],[-119.49344,50.20755],[-119.49324,50.20748],[-119.49301,50.20742],[-119.49288,50.20736],[-119.49267,50.20725],[-119.49237,50.20712],[-119.49221,50.20703],[-119.49215,50.20698],[-119.49203,50.2069],[-119.4919,50.20678],[-119.49181,50.20674],[-119.49166,50.20667],[-119.49154,50.2066],[-119.49145,50.20655],[-119.49138,50.20651],[-119.49113,50.20644],[-119.49093,50.20644],[-119.49071,50.2065],[-119.49059,50.20661],[-119.49052,50.20667],[-119.49041,50.20671],[-119.49023,50.20674],[-119.49008,50.20678],[-119.4899,50.20683],[-119.48969,50.20691],[-119.48958,50.20693],[-119.48946,50.20697],[-119.48933,50.20701],[-119.48927,50.20704],[-119.48899,50.20709],[-119.48875,50.2072],[-119.48852,50.20729],[-119.48841,50.20738],[-119.48836,50.20743],[-119.48828,50.20748],[-119.48816,50.20754],[-119.48801,50.2076],[-119.4879,50.20766],[-119.48766,50.20779],[-119.48757,50.20781],[-119.48741,50.20781],[-119.4872,50.20779],[-119.48703,50.2078],[-119.48688,50.20782],[-119.48672,50.20787],[-119.48651,50.20791],[-119.48632,50.20799],[-119.48616,50.20805],[-119.48605,50.20808],[-119.48584,50.20807],[-119.48569,50.20808],[-119.48555,50.20809],[-119.48535,50.20812],[-119.48523,50.20817],[-119.48513,50.2082],[-119.48499,50.2082],[-119.48489,50.20821],[-119.48479,50.20822],[-119.48461,50.20819]]}},
{"type":"Feature","properties":{"spotId":"A-moose-atv-0059","kind":"ride","km":1.51,"climbM":32,"name":"310 m E of Seaton Lake","flags":[]},"geometry":{"type":"LineString","coordinates":[[-119.73957,50.23341],[-119.73907,50.23359],[-119.73893,50.23364],[-119.73884,50.23367],[-119.73866,50.23373],[-119.73855,50.23377],[-119.73847,50.2338],[-119.73838,50.23383],[-119.7383,50.23387],[-119.73818,50.2339],[-119.73808,50.23392],[-119.7379,50.23394],[-119.73777,50.23396],[-119.73766,50.23397],[-119.73756,50.23398],[-119.73741,50.23398],[-119.73728,50.23397],[-119.73707,50.23396],[-119.7369,50.23396],[-119.73678,50.23395],[-119.73664,50.23394],[-119.73652,50.23391],[-119.73649,50.2339],[-119.73641,50.23389],[-119.73628,50.23388],[-119.73619,50.23389],[-119.73607,50.2339],[-119.73589,50.2339],[-119.73572,50.23388],[-119.73541,50.23389],[-119.73528,50.23392],[-119.73512,50.23397],[-119.735,50.23401],[-119.73492,50.23403],[-119.73482,50.23406],[-119.73472,50.2341],[-119.73454,50.23414],[-119.73441,50.23415],[-119.73427,50.23416],[-119.73415,50.23416],[-119.73398,50.23411],[-119.7339,50.23407],[-119.73374,50.23403],[-119.73364,50.23393],[-119.73356,50.23389],[-119.73347,50.23382],[-119.73343,50.23376],[-119.73336,50.23371],[-119.73327,50.23361],[-119.73315,50.23352],[-119.73302,50.23341],[-119.7329,50.23331],[-119.73281,50.23326],[-119.73275,50.23318],[-119.73271,50.23313],[-119.73259,50.23305],[-119.73255,50.2331],[-119.7325,50.23315],[-119.73244,50.23322],[-119.73241,50.23329],[-119.73237,50.23338],[-119.73236,50.23347],[-119.73237,50.23359],[-119.73237,50.23368],[-119.73236,50.23378],[-119.73232,50.23391],[-119.73224,50.23398],[-119.73213,50.23407],[-119.73208,50.23412],[-119.73198,50.23421],[-119.7319,50.23429],[-119.73185,50.2344],[-119.73184,50.23448],[-119.73183,50.23456],[-119.73182,50.23464],[-119.73181,50.23471],[-119.73176,50.2348],[-119.73159,50.23494],[-119.73143,50.23491],[-119.73132,50.23489],[-119.73119,50.23482],[-119.73108,50.23478],[-119.73093,50.23472],[-119.73077,50.23465],[-119.73066,50.23462],[-119.73053,50.23459],[-119.7304,50.23455],[-119.73024,50.23448],[-119.73013,50.23443],[-119.73006,50.23438],[-119.72993,50.23432],[-119.72973,50.23423],[-119.72954,50.23417],[-119.72943,50.23413],[-119.72933,50.23411],[-119.72917,50.23407],[-119.72897,50.23398],[-119.72872,50.23389],[-119.72858,50.23389],[-119.72848,50.23384],[-119.72841,50.2338],[-119.72834,50.23376],[-119.72824,50.23373],[-119.72817,50.23369],[-119.72808,50.23365],[-119.72799,50.23363],[-119.72791,50.2336],[-119.72781,50.23357],[-119.72769,50.23352],[-119.72758,50.23348],[-119.72751,50.23344],[-119.72743,50.23341],[-119.72729,50.23333],[-119.72717,50.23328],[-119.72706,50.23323],[-119.72694,50.23318],[-119.7268,50.23312],[-119.72669,50.23308],[-119.72661,50.23305],[-119.72648,50.23298],[-119.72637,50.23291],[-119.72615,50.2328],[-119.72605,50.23275],[-119.72592,50.2327],[-119.72569,50.23262],[-119.72563,50.23257],[-119.72556,50.23253],[-119.72543,50.23246],[-119.7253,50.2324],[-119.72511,50.23232],[-119.72497,50.23226],[-119.72488,50.23221],[-119.7248,50.23217],[-119.72473,50.23213],[-119.72462,50.23209],[-119.7245,50.23206],[-119.72439,50.23208],[-119.7243,50.23213],[-119.72424,50.23216],[-119.72408,50.23221],[-119.72387,50.23221],[-119.72378,50.23222],[-119.72365,50.23223],[-119.72357,50.23226],[-119.72345,50.23233],[-119.72333,50.23242]]}},
{"type":"Feature","properties":{"spotId":"A-moose-atv-0059","kind":"walk","km":0.32,"climbM":0,"name":"310 m E of Seaton Lake","flags":[]},"geometry":{"type":"LineString","coordinates":[[-119.73957,50.23341],[-119.73832,50.23065]]}}
]}
