{"type":"FeatureCollection","features":[
{"type":"Feature","properties":{"spotId":"A-camp-camp-0024","kind":"walk","km":0.18,"climbM":0,"name":"By Cain Creek","flags":[]},"geometry":{"type":"LineString","coordinates":[[-119.72074,50.35943],[-119.72071,50.36107]]}},
{"type":"Feature","properties":{"spotId":"A-camp-camp-0027","kind":"walk","km":0.07,"climbM":0,"name":"By Ingram Creek","flags":[]},"geometry":{"type":"LineString","coordinates":[[-119.71743,50.4012],[-119.7165,50.40142]]}},
{"type":"Feature","properties":{"spotId":"A-deer-atv-0013","kind":"ride","km":2.67,"climbM":2,"name":"790 m NW of Ingram Creek","flags":[]},"geometry":{"type":"LineString","coordinates":[[-119.73708,50.3943],[-119.73693,50.39439],[-119.7368,50.3945],[-119.73666,50.3946],[-119.73654,50.39471],[-119.73644,50.39483],[-119.73635,50.39496],[-119.73636,50.39501],[-119.7364,50.39505],[-119.73649,50.3952],[-119.7365,50.39524],[-119.73651,50.3954],[-119.73652,50.39553],[-119.73653,50.39568],[-119.73651,50.39583],[-119.73652,50.39597],[-119.7365,50.39612],[-119.73648,50.39627],[-119.73643,50.39641],[-119.73634,50.39653],[-119.73621,50.39666],[-119.7361,50.3967],[-119.73603,50.39672],[-119.73582,50.39674],[-119.73559,50.39677],[-119.73537,50.39678],[-119.7353,50.39676],[-119.73517,50.39674],[-119.73506,50.39685],[-119.73493,50.39698],[-119.7348,50.39711],[-119.73471,50.39724],[-119.73463,50.39737],[-119.73457,50.3975],[-119.73454,50.39754],[-119.73439,50.39765],[-119.73421,50.39773],[-119.73402,50.39779],[-119.73381,50.39786],[-119.73359,50.3979],[-119.7334,50.39796],[-119.73322,50.39803],[-119.73301,50.39812],[-119.73293,50.39817],[-119.73281,50.39829],[-119.73272,50.39843],[-119.73264,50.39855],[-119.7326,50.39858],[-119.73255,50.39861],[-119.73232,50.39865],[-119.73212,50.39869],[-119.73192,50.39873],[-119.73171,50.39881],[-119.73149,50.39887],[-119.7314,50.39891],[-119.73132,50.39896],[-119.73122,50.39908],[-119.73115,50.39922],[-119.73111,50.39936],[-119.73105,50.39948],[-119.73093,50.39961],[-119.73082,50.39973],[-119.73068,50.39984],[-119.73051,50.39993],[-119.73033,50.4],[-119.73025,50.40007],[-119.73005,50.40017],[-119.72987,50.40024],[-119.72969,50.40033],[-119.72953,50.40044],[-119.72939,50.40055],[-119.72933,50.40063],[-119.72928,50.40076],[-119.72928,50.40083],[-119.72934,50.401],[-119.7293,50.40114],[-119.72922,50.40127],[-119.72923,50.4014],[-119.72908,50.40143],[-119.72902,50.40143],[-119.7288,50.40143],[-119.72873,50.40144],[-119.72867,50.40146],[-119.72865,50.40151],[-119.72859,50.40153],[-119.72835,50.40156],[-119.72816,50.40162],[-119.72797,50.4017],[-119.72777,50.40176],[-119.72772,50.40177],[-119.72749,50.40179],[-119.72744,50.40179],[-119.72732,50.40176],[-119.72715,50.40167],[-119.72694,50.40161],[-119.72685,50.40157],[-119.7268,50.40154],[-119.72669,50.40153],[-119.72644,50.40153],[-119.72637,50.40154],[-119.72627,50.40155],[-119.72608,50.40161],[-119.72602,50.40163],[-119.72593,50.40172],[-119.72585,50.40185],[-119.7258,50.40198],[-119.72572,50.40202],[-119.72565,50.40203],[-119.72551,50.40211],[-119.72538,50.40223],[-119.72529,50.40234],[-119.72525,50.40241],[-119.72525,50.40245],[-119.7251,50.40255],[-119.72506,50.40258],[-119.72489,50.40269],[-119.72478,50.40276],[-119.72473,50.40284],[-119.72456,50.40296],[-119.72447,50.40302],[-119.72443,50.40308],[-119.72437,50.4032],[-119.72432,50.40334],[-119.72426,50.40348],[-119.72417,50.40361],[-119.72405,50.40374],[-119.72394,50.40388],[-119.72382,50.40401],[-119.72377,50.40405],[-119.7237,50.40412],[-119.72357,50.40422],[-119.72348,50.40435],[-119.72334,50.40449],[-119.72322,50.4046],[-119.72305,50.4047],[-119.72287,50.40479],[-119.72268,50.40488],[-119.7225,50.40496],[-119.72243,50.40499],[-119.72231,50.40512],[-119.72225,50.40526],[-119.7222,50.4054],[-119.72217,50.40546],[-119.72213,50.4055],[-119.72197,50.4056],[-119.72193,50.40563],[-119.72174,50.40569],[-119.72149,50.40574],[-119.72126,50.40579],[-119.72109,50.40586],[-119.72091,50.40592],[-119.7207,50.40599],[-119.72064,50.40601],[-119.72042,50.40603],[-119.72035,50.40604],[-119.72014,50.40613],[-119.7201,50.40615],[-119.71988,50.40617],[-119.71966,50.40621],[-119.7195,50.40625],[-119.71945,50.40626],[-119.71943,50.40627],[-119.71923,50.40633],[-119.71905,50.4064],[-119.71894,50.40643],[-119.71876,50.40653],[-119.71858,50.40662],[-119.71837,50.40669],[-119.71818,50.40676],[-119.71802,50.40687],[-119.7179,50.40697],[-119.71779,50.40708],[-119.7177,50.40714],[-119.7176,50.40717],[-119.71752,50.40719],[-119.71729,50.40719],[-119.71721,50.40719],[-119.71713,50.40718],[-119.71708,50.40716],[-119.71693,50.40706],[-119.71689,50.40703],[-119.71669,50.40699],[-119.71665,50.40698],[-119.7165,50.40694],[-119.71629,50.40688],[-119.71622,50.40687],[-119.71615,50.40687],[-119.71607,50.40684],[-119.71597,50.40683],[-119.71574,50.40682],[-119.71553,50.40685],[-119.71551,50.40685],[-119.71541,50.40686],[-119.71518,50.40692],[-119.715,50.40698],[-119.71481,50.40706],[-119.71475,50.40709],[-119.71454,50.40712],[-119.71433,50.40718],[-119.71413,50.40726],[-119.71389,50.40732],[-119.71368,50.40737],[-119.71346,50.4074],[-119.71325,50.40742],[-119.71306,50.40747],[-119.71282,50.40753],[-119.71278,50.40754],[-119.71258,50.40754],[-119.71236,50.40755],[-119.71213,50.40757],[-119.71192,50.40759]]}},
{"type":"Feature","properties":{"spotId":"A-deer-atv-0013","kind":"walk","km":0.12,"climbM":0,"name":"790 m NW of Ingram Creek","flags":[]},"geometry":{"type":"LineString","coordinates":[[-119.73708,50.3943],[-119.73596,50.39351]]}},
{"type":"Feature","properties":{"spotId":"A-deer-atv-0038","kind":"ride","km":2.11,"climbM":8,"name":"1.0 km NE of Browns Creek","flags":["Route crosses private land (ParcelMap BC, updated 2026-09-25): get permission first or go around."]},"geometry":{"type":"LineString","coordinates":[[-119.50359,50.26183],[-119.50357,50.26177],[-119.50358,50.26165],[-119.5036,50.26148],[-119.50359,50.26138],[-119.5036,50.26128],[-119.50359,50.2612],[-119.5036,50.26106],[-119.50362,50.26092],[-119.50363,50.26079],[-119.50364,50.26067],[-119.50365,50.26057],[-119.50366,50.26048],[-119.50359,50.26036],[-119.50355,50.26028],[-119.50346,50.26015],[-119.50338,50.26006],[-119.50333,50.25999],[-119.50329,50.25992],[-119.50324,50.25984],[-119.50321,50.25973],[-119.50318,50.25963],[-119.50313,50.25952],[-119.50308,50.25947],[-119.50301,50.25941],[-119.50288,50.25932],[-119.50276,50.25928],[-119.50269,50.25926],[-119.50254,50.25926],[-119.50238,50.25926],[-119.50222,50.2593],[-119.50198,50.25939],[-119.50176,50.25948],[-119.50164,50.25951],[-119.50153,50.25955],[-119.50142,50.25961],[-119.50125,50.25966],[-119.5011,50.25968],[-119.50085,50.25969],[-119.50071,50.25967],[-119.50061,50.25962],[-119.50049,50.25959],[-119.50042,50.25956],[-119.50028,50.25953],[-119.50016,50.25948],[-119.50004,50.25941],[-119.49983,50.25933],[-119.49972,50.25929],[-119.49956,50.25925],[-119.49946,50.25924],[-119.49925,50.25923],[-119.49914,50.25923],[-119.49903,50.25924],[-119.49892,50.25925],[-119.49882,50.25927],[-119.49864,50.2593],[-119.49854,50.25931],[-119.49843,50.25932],[-119.49832,50.25934],[-119.49822,50.25936],[-119.49815,50.25939],[-119.49798,50.25949],[-119.49789,50.25953],[-119.49777,50.25957],[-119.49764,50.25959],[-119.49748,50.25964],[-119.49737,50.25969],[-119.4972,50.25975],[-119.49704,50.25981],[-119.49676,50.25981],[-119.4966,50.25982],[-119.49645,50.25982],[-119.49635,50.25981],[-119.49621,50.25978],[-119.49608,50.25975],[-119.49591,50.25969],[-119.49582,50.25964],[-119.49578,50.25954],[-119.49579,50.25946],[-119.49582,50.25928],[-119.49583,50.25921],[-119.49574,50.25908],[-119.49557,50.25902],[-119.49544,50.259],[-119.49534,50.25898],[-119.49519,50.25897],[-119.49506,50.25898],[-119.49496,50.25897],[-119.49479,50.25893],[-119.49461,50.25888],[-119.49442,50.25876],[-119.4943,50.25869],[-119.49416,50.25861],[-119.49404,50.25856],[-119.4939,50.2585],[-119.49375,50.25842],[-119.49361,50.25839],[-119.49346,50.2584],[-119.49335,50.25842],[-119.49321,50.25848],[-119.49306,50.25849],[-119.4929,50.25849],[-119.49285,50.25839],[-119.49284,50.25831],[-119.49283,50.25823],[-119.49284,50.25814],[-119.49289,50.25795],[-119.49292,50.25782],[-119.49299,50.25771],[-119.49299,50.2576],[-119.49302,50.25736],[-119.49305,50.25729],[-119.49314,50.25717],[-119.49319,50.25709],[-119.49323,50.25702],[-119.49329,50.25689],[-119.49333,50.25674],[-119.49334,50.25671],[-119.49339,50.25661],[-119.49342,50.25656],[-119.49341,50.25638],[-119.49323,50.25611],[-119.49309,50.25602],[-119.49302,50.25588],[-119.49301,50.25578],[-119.49301,50.25569],[-119.49299,50.2556],[-119.49298,50.25551],[-119.49298,50.25539],[-119.49297,50.2552],[-119.49295,50.25506],[-119.49291,50.25489],[-119.49283,50.2547],[-119.4928,50.25461],[-119.49273,50.2545],[-119.49267,50.25429],[-119.49263,50.25415],[-119.49263,50.25406],[-119.49264,50.25394],[-119.49263,50.2539],[-119.49251,50.25398],[-119.49244,50.25399],[-119.49237,50.25403],[-119.49227,50.25419],[-119.49218,50.25435],[-119.49202,50.25449],[-119.49201,50.25455],[-119.49192,50.25471],[-119.49181,50.25478],[-119.49173,50.25479],[-119.49146,50.25475],[-119.49122,50.25471],[-119.49097,50.25463],[-119.4909,50.25463],[-119.49081,50.25462],[-119.49055,50.25458],[-119.49056,50.25455],[-119.49047,50.25441],[-119.49034,50.25427],[-119.49024,50.25411],[-119.49023,50.25395],[-119.4902,50.25389],[-119.49018,50.25373],[-119.4901,50.25358],[-119.49007,50.25352],[-119.49002,50.25349],[-119.48977,50.25345],[-119.48951,50.25348],[-119.48926,50.25348],[-119.48909,50.2535],[-119.48902,50.25353],[-119.48878,50.25348],[-119.48872,50.2534]]}},
{"type":"Feature","properties":{"spotId":"A-deer-atv-0038","kind":"walk","km":0.23,"climbM":0,"name":"1.0 km NE of Browns Creek","flags":["Route crosses private land (ParcelMap BC, updated 2026-09-25): get permission first or go around."]},"geometry":{"type":"LineString","coordinates":[[-119.50359,50.26183],[-119.50055,50.26259]]}},
{"type":"Feature","properties":{"spotId":"A-deer-atv-0040","kind":"ride","km":1.97,"climbM":11,"name":"450 m SW of Browns Creek","flags":["Route crosses private land (ParcelMap BC, updated 2026-09-25): get permission first or go around."]},"geometry":{"type":"LineString","coordinates":[[-119.52181,50.26253],[-119.52171,50.26248],[-119.52154,50.26248],[-119.52144,50.26253],[-119.52136,50.26256],[-119.52128,50.26259],[-119.5212,50.26262],[-119.52106,50.26268],[-119.52098,50.26271],[-119.52091,50.26274],[-119.52081,50.26278],[-119.5207,50.26282],[-119.52056,50.26287],[-119.52048,50.26288],[-119.5203,50.26292],[-119.5201,50.26291],[-119.52,50.2629],[-119.51985,50.26289],[-119.51971,50.26285],[-119.51959,50.26283],[-119.51945,50.2628],[-119.51934,50.26278],[-119.5192,50.26278],[-119.519,50.26278],[-119.51886,50.26277],[-119.51872,50.26278],[-119.51859,50.26278],[-119.51843,50.2628],[-119.51834,50.26281],[-119.5182,50.2628],[-119.51809,50.26277],[-119.51803,50.26271],[-119.51801,50.26265],[-119.51801,50.26258],[-119.518,50.26249],[-119.51797,50.26241],[-119.51794,50.26234],[-119.51792,50.26227],[-119.51775,50.26219],[-119.5176,50.26212],[-119.51753,50.26206],[-119.51741,50.26197],[-119.51734,50.26193],[-119.51717,50.2619],[-119.51703,50.26189],[-119.51689,50.26182],[-119.5168,50.26176],[-119.51674,50.26169],[-119.5167,50.26152],[-119.51669,50.26146],[-119.51668,50.26139],[-119.51668,50.26132],[-119.51661,50.26116],[-119.51653,50.26097],[-119.51646,50.26085],[-119.51636,50.26078],[-119.51625,50.26072],[-119.51615,50.26067],[-119.51605,50.26061],[-119.51598,50.26051],[-119.51591,50.26039],[-119.51583,50.26033],[-119.51571,50.26022],[-119.51566,50.26011],[-119.51564,50.25999],[-119.51562,50.25991],[-119.51555,50.25979],[-119.51547,50.25972],[-119.51557,50.25964],[-119.51566,50.25953],[-119.51571,50.25947],[-119.51574,50.25941],[-119.51577,50.25934],[-119.51581,50.25928],[-119.51587,50.2592],[-119.5159,50.25914],[-119.51596,50.25906],[-119.51596,50.25895],[-119.51593,50.25885],[-119.5159,50.25876],[-119.51588,50.25866],[-119.51589,50.25852],[-119.51589,50.2584],[-119.51594,50.25827],[-119.51601,50.25818],[-119.51609,50.2581],[-119.51611,50.25803],[-119.51612,50.25796],[-119.51619,50.25784],[-119.5162,50.25777],[-119.51626,50.25761],[-119.51632,50.25753],[-119.51643,50.25746],[-119.5165,50.25743],[-119.51661,50.25741],[-119.51677,50.25737],[-119.51678,50.25736],[-119.51693,50.25725],[-119.51706,50.25709],[-119.51725,50.25695],[-119.51726,50.25694],[-119.51742,50.25679],[-119.51754,50.25663],[-119.51764,50.25647],[-119.51769,50.25629],[-119.51777,50.25612],[-119.51784,50.25595],[-119.51784,50.25594],[-119.51793,50.25579],[-119.51803,50.25561],[-119.51815,50.25546],[-119.51826,50.25532],[-119.51827,50.2553],[-119.51832,50.25512],[-119.51838,50.25495],[-119.51844,50.25477],[-119.51847,50.2546],[-119.5186,50.25444],[-119.51868,50.25428],[-119.51874,50.2541],[-119.51875,50.25408],[-119.51878,50.25401],[-119.5188,50.25394],[-119.5189,50.25378],[-119.51898,50.25361],[-119.51906,50.25345],[-119.51912,50.25328],[-119.51916,50.2531],[-119.51921,50.25293],[-119.51924,50.25276],[-119.51929,50.2526],[-119.51936,50.25253],[-119.51927,50.25246],[-119.51921,50.25242],[-119.51914,50.25237],[-119.51901,50.25228],[-119.51891,50.25219],[-119.51883,50.2521],[-119.51881,50.25203],[-119.51879,50.25192],[-119.5188,50.25174],[-119.5188,50.25162],[-119.51881,50.2515],[-119.51882,50.25141],[-119.51884,50.25127],[-119.51887,50.25117],[-119.51888,50.25109],[-119.51887,50.25096],[-119.51883,50.25084],[-119.51881,50.25071],[-119.51878,50.25061],[-119.51875,50.25056],[-119.51865,50.25045],[-119.51854,50.25038],[-119.51846,50.25035],[-119.51833,50.25031],[-119.5182,50.25026],[-119.51804,50.25021],[-119.51793,50.25018],[-119.51784,50.25017],[-119.51766,50.25014],[-119.51756,50.25013],[-119.51743,50.25012],[-119.51727,50.25012],[-119.51715,50.25012],[-119.51702,50.25011],[-119.5169,50.2501],[-119.51678,50.2501],[-119.51675,50.2501],[-119.51657,50.25007]]}},
{"type":"Feature","properties":{"spotId":"A-deer-atv-0040","kind":"walk","km":0.2,"climbM":48,"name":"450 m SW of Browns Creek","flags":["Route crosses private land (ParcelMap BC, updated 2026-09-25): get permission first or go around."]},"geometry":{"type":"LineString","coordinates":[[-119.52181,50.26253],[-119.52456,50.2622]]}},
{"type":"Feature","properties":{"spotId":"A-deer-atv-0044","kind":"ride","km":1.11,"climbM":6,"name":"1.2 km N of Bouleau Creek","flags":[]},"geometry":{"type":"LineString","coordinates":[[-119.5714,50.26156],[-119.57135,50.26169],[-119.57133,50.26175],[-119.57115,50.26189],[-119.57102,50.26203],[-119.57096,50.2622],[-119.57086,50.26235],[-119.5708,50.2624],[-119.57067,50.26255],[-119.57055,50.26271],[-119.57038,50.26285],[-119.57014,50.26294],[-119.56997,50.26307],[-119.56988,50.26324],[-119.56973,50.26339],[-119.5695,50.26348],[-119.5693,50.26359],[-119.56912,50.26371],[-119.56905,50.26377],[-119.56896,50.26385],[-119.56887,50.26402],[-119.56884,50.26408],[-119.56884,50.26425],[-119.56885,50.26443],[-119.56891,50.2646],[-119.56895,50.26478],[-119.56895,50.26495],[-119.56889,50.26512],[-119.56892,50.26529],[-119.56902,50.26545],[-119.56912,50.26563],[-119.56916,50.26568],[-119.56916,50.26586],[-119.56915,50.26605],[-119.5691,50.26622],[-119.56905,50.26639],[-119.56904,50.26644],[-119.56887,50.26658],[-119.5687,50.26663],[-119.5686,50.26664],[-119.56835,50.26668],[-119.56819,50.26672],[-119.56792,50.26681],[-119.56771,50.26691],[-119.56753,50.26705],[-119.56734,50.26716],[-119.56718,50.2673],[-119.56713,50.26747],[-119.56714,50.26764],[-119.56723,50.26769],[-119.56742,50.26779],[-119.56758,50.26795],[-119.56764,50.26801],[-119.5677,50.26809],[-119.56774,50.26816],[-119.56778,50.26826],[-119.56783,50.26843],[-119.56783,50.26849],[-119.56782,50.2686],[-119.56787,50.26872],[-119.56788,50.2688],[-119.56788,50.2689],[-119.56789,50.26899],[-119.56788,50.26905],[-119.56788,50.26912],[-119.56789,50.26921],[-119.56792,50.26936],[-119.56797,50.26949],[-119.56802,50.2696],[-119.56806,50.26967],[-119.56813,50.26981],[-119.56817,50.26986],[-119.56821,50.26994],[-119.56828,50.27007]]}},
{"type":"Feature","properties":{"spotId":"A-deer-atv-0044","kind":"walk","km":0.26,"climbM":0,"name":"1.2 km N of Bouleau Creek","flags":[]},"geometry":{"type":"LineString","coordinates":[[-119.5714,50.26156],[-119.56866,50.25995]]}},
{"type":"Feature","properties":{"spotId":"A-deer-atv-0065","kind":"ride","km":2.89,"climbM":13,"name":"1.0 km E of Falkland Creek","flags":["Route crosses private land (ParcelMap BC, updated 2026-09-25): get permission first or go around."]},"geometry":{"type":"LineString","coordinates":[[-119.55992,50.48453],[-119.55992,50.4846],[-119.55993,50.48468],[-119.55993,50.48477],[-119.55992,50.48486],[-119.55987,50.48495],[-119.55981,50.48504],[-119.5597,50.48511],[-119.55964,50.48515],[-119.55956,50.48518],[-119.55948,50.4852],[-119.55939,50.48522],[-119.55927,50.48524],[-119.55914,50.48526],[-119.55899,50.48526],[-119.5588,50.48528],[-119.55868,50.4853],[-119.55854,50.48531],[-119.5584,50.48531],[-119.5583,50.4853],[-119.55817,50.4853],[-119.55801,50.48528],[-119.55779,50.48526],[-119.55767,50.48524],[-119.55759,50.48522],[-119.55749,50.4852],[-119.55742,50.48517],[-119.55729,50.48513],[-119.55719,50.4851],[-119.55708,50.48503],[-119.55701,50.48499],[-119.55694,50.48495],[-119.55682,50.48489],[-119.55672,50.48484],[-119.55659,50.48479],[-119.55652,50.48476],[-119.55643,50.48473],[-119.55633,50.48467],[-119.55623,50.48463],[-119.55611,50.48458],[-119.55601,50.48453],[-119.55591,50.48448],[-119.55583,50.48444],[-119.55574,50.48441],[-119.55561,50.48434],[-119.55549,50.48429],[-119.55538,50.48424],[-119.55528,50.48421],[-119.55519,50.48419],[-119.55509,50.48416],[-119.55498,50.48415],[-119.55486,50.48412],[-119.55478,50.4841],[-119.55468,50.48408],[-119.55448,50.48406],[-119.55435,50.48404],[-119.55415,50.48404],[-119.55403,50.48404],[-119.55397,50.48411],[-119.55404,50.48419],[-119.55417,50.48431],[-119.55431,50.48439],[-119.55443,50.48448],[-119.55449,50.48454],[-119.55457,50.48463],[-119.55469,50.48475],[-119.55479,50.48482],[-119.55486,50.48488],[-119.55498,50.48495],[-119.55505,50.485],[-119.55514,50.48504],[-119.55521,50.48508],[-119.55528,50.48512],[-119.55542,50.48521],[-119.5556,50.48529],[-119.55578,50.48536],[-119.55591,50.48541],[-119.55604,50.48547],[-119.55615,50.48553],[-119.55625,50.48558],[-119.55641,50.48564],[-119.55658,50.48569],[-119.55674,50.48575],[-119.55686,50.4858],[-119.55693,50.48584],[-119.55706,50.4859],[-119.55712,50.48593],[-119.55721,50.48599],[-119.55729,50.48603],[-119.55738,50.48608],[-119.55755,50.48617],[-119.55767,50.48622],[-119.55774,50.48626],[-119.55784,50.4863],[-119.55797,50.48635],[-119.55806,50.48638],[-119.5582,50.48643],[-119.55835,50.48647],[-119.55846,50.4865],[-119.55858,50.48654],[-119.5587,50.48657],[-119.55883,50.48662],[-119.55891,50.48666],[-119.5589,50.48675],[-119.55883,50.48679],[-119.55872,50.48681],[-119.55855,50.4868],[-119.55831,50.48679],[-119.55819,50.48678],[-119.55801,50.48678],[-119.55793,50.48678],[-119.55769,50.48678],[-119.55757,50.48676],[-119.55743,50.48674],[-119.55725,50.48671],[-119.55705,50.48669],[-119.55693,50.48667],[-119.55678,50.48663],[-119.55666,50.48662],[-119.55653,50.48659],[-119.55641,50.48657],[-119.55628,50.48655],[-119.55615,50.48658],[-119.55613,50.48667],[-119.55613,50.48674],[-119.55622,50.48682],[-119.55634,50.48689],[-119.5565,50.48698],[-119.5566,50.48703],[-119.55674,50.48708],[-119.55684,50.48711],[-119.55696,50.48715],[-119.5571,50.48724],[-119.55718,50.48729],[-119.55722,50.48735],[-119.55723,50.48743],[-119.55722,50.4875],[-119.55721,50.4876],[-119.55713,50.4877],[-119.55705,50.48777],[-119.55701,50.48781],[-119.5569,50.48786],[-119.55692,50.48794],[-119.55691,50.48801],[-119.55685,50.48807],[-119.55679,50.48814],[-119.55669,50.48822],[-119.55661,50.48828],[-119.55653,50.48837],[-119.55649,50.48844],[-119.55643,50.48852],[-119.55638,50.48866],[-119.55638,50.48873],[-119.55637,50.48885],[-119.55636,50.48892],[-119.55638,50.48902],[-119.55647,50.48911],[-119.55658,50.48922],[-119.55672,50.48931],[-119.55687,50.4894],[-119.55696,50.48946],[-119.55709,50.48954],[-119.55715,50.48959],[-119.55726,50.48968],[-119.55747,50.48979],[-119.5576,50.48986],[-119.55773,50.4899],[-119.55783,50.48995],[-119.55793,50.49],[-119.55813,50.49007],[-119.55829,50.49014],[-119.55843,50.4902],[-119.55861,50.49027],[-119.55875,50.49032],[-119.55888,50.49039],[-119.559,50.49044],[-119.55914,50.49053],[-119.55922,50.49056],[-119.55928,50.49064],[-119.55932,50.49068],[-119.55938,50.49072],[-119.55947,50.49078],[-119.55956,50.49087],[-119.55963,50.49094],[-119.55983,50.49091],[-119.5601,50.49095],[-119.56031,50.49099],[-119.56044,50.49103],[-119.56047,50.49107],[-119.56059,50.49117],[-119.56066,50.49122],[-119.56095,50.49129],[-119.56099,50.49131],[-119.56114,50.4914],[-119.56125,50.49152],[-119.56133,50.49164],[-119.56158,50.49185],[-119.5616,50.4919],[-119.56161,50.49204],[-119.56156,50.49237],[-119.56156,50.49252],[-119.56154,50.49285],[-119.56155,50.493],[-119.56151,50.49315],[-119.56148,50.49326],[-119.56161,50.49316],[-119.56182,50.49289],[-119.56193,50.49277],[-119.56201,50.49264],[-119.56207,50.49251],[-119.56211,50.49222],[-119.56212,50.49207],[-119.56215,50.49192],[-119.56219,50.49187],[-119.56241,50.49174],[-119.56278,50.49159],[-119.56296,50.49153],[-119.56314,50.49146],[-119.56329,50.49137],[-119.56354,50.49134],[-119.56364,50.49134],[-119.56382,50.49138],[-119.564,50.4914],[-119.56445,50.49139],[-119.56452,50.49141],[-119.56469,50.49151],[-119.56488,50.49156],[-119.56488,50.4916],[-119.56486,50.49164],[-119.5648,50.49167],[-119.56473,50.49171],[-119.56475,50.49176],[-119.56478,50.4918],[-119.5649,50.4919],[-119.56516,50.49196],[-119.56524,50.49196],[-119.56588,50.49204],[-119.56591,50.49208],[-119.56598,50.49207],[-119.56607,50.49209],[-119.56627,50.49215],[-119.56638,50.49227],[-119.56649,50.49239],[-119.56651,50.49245],[-119.56653,50.49259],[-119.56654,50.49273],[-119.56653,50.49288],[-119.56652,50.49301],[-119.56652,50.49316],[-119.56651,50.4933],[-119.56651,50.49344],[-119.56653,50.4936],[-119.56655,50.4937]]}},
{"type":"Feature","properties":{"spotId":"A-deer-atv-0065","kind":"walk","km":0.04,"climbM":0,"name":"1.0 km E of Falkland Creek","flags":["Route crosses private land (ParcelMap BC, updated 2026-09-25): get permission first or go around."]},"geometry":{"type":"LineString","coordinates":[[-119.55992,50.48453],[-119.56052,50.48448]]}},
{"type":"Feature","properties":{"spotId":"A-deer-atv-0101","kind":"ride","km":1.61,"climbM":5,"name":"930 m SW of Ingram Creek","flags":[]},"geometry":{"type":"LineString","coordinates":[[-119.70594,50.43549],[-119.70586,50.43536],[-119.70586,50.43533],[-119.70585,50.43518],[-119.70584,50.43499],[-119.7058,50.43484],[-119.7058,50.43469],[-119.70579,50.43455],[-119.70575,50.43441],[-119.70567,50.43427],[-119.70564,50.43418],[-119.70564,50.43413],[-119.7056,50.434],[-119.70551,50.43387],[-119.70544,50.43386],[-119.70523,50.43385],[-119.70499,50.43384],[-119.70492,50.43385],[-119.70485,50.43388],[-119.70479,50.43392],[-119.70475,50.43397],[-119.70473,50.43401],[-119.70474,50.43413],[-119.70474,50.43416],[-119.70472,50.4343],[-119.70473,50.43444],[-119.70476,50.4345],[-119.70484,50.43464],[-119.70493,50.43476],[-119.70493,50.43479],[-119.7049,50.43495],[-119.70482,50.43511],[-119.70476,50.43526],[-119.70475,50.4354],[-119.70476,50.43556],[-119.70478,50.43572],[-119.70481,50.43588],[-119.70482,50.43604],[-119.70482,50.43608],[-119.70483,50.43626],[-119.70488,50.43642],[-119.70496,50.43656],[-119.70505,50.43669],[-119.70505,50.43671],[-119.70509,50.43685],[-119.7051,50.437],[-119.70507,50.43703],[-119.70496,50.43714],[-119.70491,50.43716],[-119.70485,50.43718],[-119.7048,50.43719],[-119.70459,50.43718],[-119.70454,50.43717],[-119.70427,50.43712],[-119.70409,50.43705],[-119.70391,50.43696],[-119.70376,50.43686],[-119.70362,50.43675],[-119.70344,50.43664],[-119.70325,50.43654],[-119.70304,50.43647],[-119.70282,50.43642],[-119.70258,50.4364],[-119.70237,50.43639],[-119.70233,50.43638],[-119.70213,50.43635],[-119.7019,50.43631],[-119.70169,50.43626],[-119.70148,50.43625],[-119.70144,50.4363],[-119.70147,50.43635],[-119.70153,50.43649],[-119.70161,50.43661],[-119.7017,50.43674],[-119.70181,50.43687],[-119.70188,50.43699],[-119.70194,50.43714],[-119.70199,50.43728],[-119.70199,50.43743],[-119.702,50.43757],[-119.70201,50.4377],[-119.70198,50.43785],[-119.70191,50.438],[-119.70183,50.43808],[-119.70178,50.43811],[-119.70161,50.43819],[-119.70142,50.43827],[-119.70135,50.43828],[-119.70113,50.43829],[-119.7009,50.43829],[-119.70068,50.43827],[-119.70046,50.43823],[-119.70025,50.43822],[-119.70004,50.43822],[-119.69983,50.43826],[-119.69971,50.43831],[-119.69965,50.43835],[-119.69959,50.43844],[-119.69959,50.43848],[-119.69961,50.43865],[-119.6996,50.43865],[-119.69956,50.43867],[-119.69949,50.43871],[-119.69946,50.43876],[-119.6994,50.43888],[-119.69938,50.43902],[-119.69939,50.43917],[-119.69941,50.43933],[-119.69943,50.43937],[-119.69946,50.43941],[-119.69963,50.43953],[-119.69978,50.43964],[-119.69993,50.43976],[-119.70002,50.43989],[-119.70011,50.44002],[-119.70009,50.44007],[-119.70002,50.44009],[-119.69988,50.44012],[-119.69967,50.44014],[-119.69946,50.44012],[-119.69925,50.44013],[-119.69902,50.44016],[-119.69894,50.44018],[-119.69889,50.44022],[-119.69878,50.44035],[-119.69877,50.44039],[-119.69873,50.44052]]}},
{"type":"Feature","properties":{"spotId":"A-deer-atv-0101","kind":"walk","km":0.1,"climbM":0,"name":"930 m SW of Ingram Creek","flags":[]},"geometry":{"type":"LineString","coordinates":[[-119.70594,50.43549],[-119.70467,50.43592]]}},
{"type":"Feature","properties":{"spotId":"A-deer-drive-0046","kind":"walk","km":0.07,"climbM":19,"name":"250 m NE of Ewer Creek","flags":[]},"geometry":{"type":"LineString","coordinates":[[-119.5007,50.36749],[-119.5008,50.36815]]}},
{"type":"Feature","properties":{"spotId":"A-deer-drive-0074","kind":"walk","km":0.04,"climbM":0,"name":"170 m NE of Pinaus Lake","flags":[]},"geometry":{"type":"LineString","coordinates":[[-119.58097,50.42711],[-119.58146,50.42705]]}},
{"type":"Feature","properties":{"spotId":"A-deer-drive-0080","kind":"walk","km":0.06,"climbM":0,"name":"940 m N of Will Creek","flags":[]},"geometry":{"type":"LineString","coordinates":[[-119.66579,50.45206],[-119.66524,50.45245]]}},
{"type":"Feature","properties":{"spotId":"A-deer-drive-0134","kind":"walk","km":0.09,"climbM":23,"name":"460 m SW of Ingram Creek","flags":[]},"geometry":{"type":"LineString","coordinates":[[-119.69277,50.43536],[-119.6938,50.43494]]}},
{"type":"Feature","properties":{"spotId":"A-deer-walk-0025","kind":"walk","km":0.36,"climbM":69,"name":"600 m W of Ingram Creek","flags":["Route crosses private land (ParcelMap BC, updated 2026-09-25): get permission first or go around."]},"geometry":{"type":"LineString","coordinates":[[-119.73067,50.38902],[-119.7308,50.38901],[-119.73091,50.389],[-119.73102,50.38899],[-119.73112,50.38897],[-119.73129,50.3889],[-119.73142,50.38886],[-119.73152,50.38883],[-119.7317,50.38878],[-119.7318,50.38876],[-119.73194,50.38876],[-119.73206,50.38875],[-119.73223,50.38873],[-119.73236,50.38873],[-119.73256,50.38874],[-119.73267,50.38876],[-119.73277,50.38879],[-119.73506,50.38985]]}},
{"type":"Feature","properties":{"spotId":"A-deer-walk-0049","kind":"walk","km":0.91,"climbM":21,"name":"500 m SW of Browns Creek","flags":[]},"geometry":{"type":"LineString","coordinates":[[-119.54484,50.26973],[-119.53397,50.26547]]}},
{"type":"Feature","properties":{"spotId":"A-deer-walk-0108","kind":"walk","km":0.31,"climbM":0,"name":"1.5 km SW of Connaught, Mount","flags":[]},"geometry":{"type":"LineString","coordinates":[[-119.50263,50.47502],[-119.50681,50.47412]]}},
{"type":"Feature","properties":{"spotId":"A-deer-walk-0117","kind":"walk","km":0.79,"climbM":1,"name":"By Ewer Creek","flags":[]},"geometry":{"type":"LineString","coordinates":[[-119.51717,50.37463],[-119.52247,50.36834]]}},
{"type":"Feature","properties":{"spotId":"A-deer-walk-0187","kind":"walk","km":0.79,"climbM":120,"name":"1.2 km N of Cain Creek","flags":["Route crosses private land (ParcelMap BC, updated 2026-09-25): get permission first or go around."]},"geometry":{"type":"LineString","coordinates":[[-119.73247,50.37744],[-119.7381,50.37127]]}},
{"type":"Feature","properties":{"spotId":"A-deer-walk-0191","kind":"walk","km":0.54,"climbM":0,"name":"By Cain Creek","flags":[]},"geometry":{"type":"LineString","coordinates":[[-119.73874,50.35759],[-119.74627,50.35753]]}},
{"type":"Feature","properties":{"spotId":"A-duck-drive-0107","kind":"walk","km":0.01,"climbM":0,"name":"Little Bouleau Lake","flags":[]},"geometry":{"type":"LineString","coordinates":[[-119.6931,50.28441],[-119.69296,50.28444]]}},
{"type":"Feature","properties":{"spotId":"A-duck-drive-0132","kind":"walk","km":0.07,"climbM":0,"name":"Lady King Lake","flags":[]},"geometry":{"type":"LineString","coordinates":[[-119.62285,50.43078],[-119.62244,50.43019]]}},
{"type":"Feature","properties":{"spotId":"A-duck-walk-0062","kind":"walk","km":0.32,"climbM":1,"name":"Unnamed wetland 1.4 km NW of Naswhito Creek","flags":[]},"geometry":{"type":"LineString","coordinates":[[-119.67352,50.33971],[-119.67714,50.33796]]}},
{"type":"Feature","properties":{"spotId":"A-grouse-atv-0015","kind":"ride","km":4.45,"climbM":247,"name":"By Salmon River","flags":[]},"geometry":{"type":"LineString","coordinates":[[-119.74221,50.30389],[-119.74224,50.30368],[-119.74231,50.3036],[-119.74244,50.30354],[-119.74273,50.30331],[-119.74284,50.30329],[-119.74293,50.30329],[-119.74306,50.30328],[-119.74334,50.30329],[-119.74343,50.30331],[-119.74354,50.30334],[-119.74363,50.30336],[-119.74378,50.30341],[-119.74388,50.30343],[-119.74404,50.30348],[-119.74424,50.30351],[-119.74442,50.30355],[-119.74451,50.30356],[-119.74481,50.30357],[-119.74496,50.30353],[-119.74504,50.30346],[-119.74516,50.30337],[-119.74521,50.3033],[-119.74525,50.30324],[-119.74537,50.30307],[-119.7454,50.30301],[-119.7455,50.30289],[-119.74556,50.30283],[-119.74559,50.30277],[-119.74565,50.3027],[-119.74574,50.30267],[-119.74583,50.30264],[-119.74606,50.30263],[-119.74624,50.30259],[-119.74632,50.3026],[-119.74642,50.30264],[-119.74649,50.30267],[-119.74664,50.30277],[-119.74673,50.30283],[-119.74683,50.30289],[-119.74695,50.30294],[-119.74709,50.30298],[-119.74723,50.30303],[-119.74744,50.30307],[-119.74764,50.30309],[-119.74774,50.30312],[-119.74785,50.30312],[-119.74807,50.30317],[-119.74849,50.30334],[-119.74856,50.3034],[-119.7486,50.30345],[-119.74866,50.30352],[-119.74889,50.3036],[-119.74909,50.30382],[-119.74919,50.30385],[-119.74925,50.30388],[-119.74933,50.30391],[-119.74943,50.30392],[-119.74956,50.30393],[-119.74982,50.30391],[-119.7503,50.30393],[-119.75053,50.30398],[-119.75073,50.304],[-119.75094,50.30402],[-119.75119,50.30404],[-119.75145,50.30401],[-119.75171,50.30399],[-119.75193,50.30396],[-119.75199,50.30396],[-119.75227,50.30394],[-119.75255,50.30393],[-119.7528,50.30393],[-119.75308,50.30393],[-119.75338,50.30394],[-119.75367,50.30392],[-119.75394,50.30388],[-119.75419,50.30379],[-119.75436,50.30367],[-119.75455,50.30356],[-119.7548,50.30348],[-119.75505,50.30341],[-119.75531,50.30333],[-119.75557,50.30325],[-119.75582,50.30318],[-119.75608,50.30311],[-119.75635,50.30306],[-119.7566,50.303],[-119.7569,50.30294],[-119.75717,50.30289],[-119.75742,50.30284],[-119.75767,50.30278],[-119.7579,50.30272],[-119.75815,50.30264],[-119.75841,50.30256],[-119.75865,50.30247],[-119.7587,50.30244],[-119.75887,50.3024],[-119.75913,50.30234],[-119.75938,50.30226],[-119.75961,50.30217],[-119.75986,50.30206],[-119.76002,50.30193],[-119.76016,50.30178],[-119.76028,50.30166],[-119.76032,50.30162],[-119.76048,50.30148],[-119.76062,50.30134],[-119.76076,50.3012],[-119.76095,50.30107],[-119.76116,50.30095],[-119.7613,50.30081],[-119.76143,50.30075],[-119.76153,50.3007],[-119.76178,50.30062],[-119.76203,50.30054],[-119.76228,50.30046],[-119.76247,50.30041],[-119.76275,50.30034],[-119.76301,50.30031],[-119.76328,50.30028],[-119.76354,50.30024],[-119.76378,50.30018],[-119.76403,50.30013],[-119.76431,50.30009],[-119.76474,50.3],[-119.76489,50.29998],[-119.76511,50.29995],[-119.76534,50.29991],[-119.76555,50.29987],[-119.76578,50.29981],[-119.76599,50.29977],[-119.7662,50.29973],[-119.76642,50.2997],[-119.76664,50.29966],[-119.76689,50.29961],[-119.76711,50.29955],[-119.76735,50.29949],[-119.76761,50.29945],[-119.76784,50.29942],[-119.76807,50.29938],[-119.76832,50.29935],[-119.76853,50.29931],[-119.76873,50.29928],[-119.76895,50.29924],[-119.76916,50.29919],[-119.76938,50.29914],[-119.76957,50.29908],[-119.76978,50.29903],[-119.77,50.29898],[-119.77025,50.29895],[-119.77048,50.29892],[-119.7707,50.29888],[-119.77091,50.29884],[-119.77117,50.2988],[-119.77152,50.29875],[-119.77177,50.29867],[-119.77199,50.29861],[-119.7722,50.29856],[-119.77243,50.29852],[-119.77264,50.29848],[-119.77285,50.2984],[-119.77304,50.29833],[-119.77322,50.29825],[-119.77328,50.2982],[-119.7733,50.29818],[-119.77336,50.29804],[-119.77344,50.29791],[-119.77351,50.29775],[-119.77357,50.29762],[-119.77368,50.29748],[-119.7738,50.29734],[-119.7739,50.29723],[-119.77401,50.29708],[-119.7741,50.29692],[-119.77417,50.2968],[-119.77432,50.29667],[-119.77433,50.29665],[-119.77441,50.2966],[-119.77462,50.2965],[-119.77463,50.29644],[-119.77466,50.29626],[-119.77471,50.29613],[-119.77478,50.29595],[-119.77482,50.29579],[-119.77473,50.29557],[-119.77468,50.29542],[-119.77466,50.29512],[-119.77466,50.29507],[-119.77468,50.29492],[-119.77475,50.29462],[-119.77478,50.29446],[-119.77481,50.29432],[-119.77484,50.29428],[-119.77488,50.29425],[-119.77506,50.29416],[-119.77525,50.2941],[-119.77544,50.29402],[-119.77564,50.29397],[-119.77586,50.2939],[-119.77606,50.29385],[-119.77629,50.2938],[-119.7765,50.29377],[-119.77672,50.29373],[-119.77683,50.29367],[-119.777,50.29359],[-119.77707,50.29357],[-119.7773,50.29352],[-119.77752,50.29348],[-119.77773,50.29345],[-119.77791,50.2934],[-119.77811,50.29334],[-119.77832,50.2933],[-119.77851,50.29324],[-119.77872,50.29314],[-119.77887,50.29305],[-119.77891,50.293],[-119.779,50.29285],[-119.77912,50.29273],[-119.77921,50.29257],[-119.7793,50.29235],[-119.77942,50.29221],[-119.77948,50.29219],[-119.77966,50.2921],[-119.77983,50.292],[-119.77997,50.29189],[-119.78007,50.29176],[-119.78008,50.29171],[-119.78012,50.29167],[-119.78015,50.29162],[-119.78022,50.29147],[-119.78028,50.29133],[-119.78037,50.29114],[-119.78039,50.291],[-119.78044,50.29085],[-119.78043,50.29072],[-119.78043,50.29066],[-119.78043,50.29064],[-119.78043,50.29061],[-119.78043,50.29047],[-119.78042,50.29033],[-119.78037,50.29019],[-119.78032,50.29006],[-119.78022,50.28993],[-119.78011,50.28981],[-119.78006,50.2897],[-119.78006,50.28967],[-119.78005,50.28954],[-119.78005,50.2895],[-119.78005,50.2894],[-119.78008,50.28925],[-119.78012,50.28921],[-119.78022,50.28908],[-119.78026,50.289],[-119.78031,50.28893],[-119.78042,50.28879],[-119.78058,50.28865],[-119.7807,50.28854],[-119.78083,50.28843],[-119.78096,50.2883],[-119.7811,50.28817],[-119.78122,50.28805],[-119.78123,50.28803],[-119.78133,50.28785],[-119.78138,50.28771],[-119.78147,50.28758],[-119.78159,50.28746],[-119.78169,50.28734],[-119.78183,50.28723],[-119.78195,50.28711],[-119.78204,50.28696],[-119.78213,50.28681],[-119.78223,50.28669],[-119.78235,50.28657],[-119.78247,50.28645],[-119.78258,50.28631],[-119.78269,50.28618],[-119.78283,50.28606],[-119.78297,50.28593],[-119.78307,50.28581],[-119.78308,50.28575],[-119.78309,50.2857],[-119.7831,50.28561],[-119.78305,50.28547],[-119.78302,50.28531],[-119.783,50.28515],[-119.78296,50.28502],[-119.78294,50.28483],[-119.78293,50.28466],[-119.78292,50.28451],[-119.78292,50.28435],[-119.78293,50.28421],[-119.78295,50.28407],[-119.78301,50.28397]]}},
{"type":"Feature","properties":{"spotId":"A-grouse-atv-0019","kind":"walk","km":0.47,"climbM":29,"name":"730 m E of Blackjack Creek","flags":[]},"geometry":{"type":"LineString","coordinates":[[-119.7259,50.35458],[-119.72379,50.35061]]}},
{"type":"Feature","properties":{"spotId":"A-grouse-atv-0019","kind":"ride","km":4.57,"climbM":15,"name":"730 m E of Blackjack Creek","flags":[]},"geometry":{"type":"LineString","coordinates":[[-119.72379,50.35061],[-119.72393,50.35061],[-119.72412,50.3506],[-119.72432,50.3506],[-119.72445,50.35062],[-119.72468,50.35068],[-119.72476,50.3507],[-119.7249,50.35071],[-119.72503,50.35072],[-119.72516,50.35072],[-119.72534,50.35075],[-119.72548,50.35078],[-119.72564,50.35082],[-119.7258,50.35085],[-119.7259,50.35088],[-119.72604,50.35092],[-119.72625,50.35094],[-119.72641,50.35095],[-119.72663,50.35094],[-119.72681,50.35094],[-119.72698,50.35095],[-119.72713,50.35097],[-119.72722,50.35097],[-119.72731,50.35096],[-119.7274,50.35093],[-119.72749,50.35089],[-119.72757,50.35084],[-119.72762,50.35079],[-119.72767,50.35071],[-119.72777,50.35062],[-119.72782,50.35056],[-119.72794,50.35051],[-119.72807,50.35049],[-119.72818,50.35049],[-119.72826,50.3505],[-119.72835,50.3505],[-119.72843,50.35051],[-119.72853,50.35053],[-119.72868,50.35055],[-119.72883,50.35057],[-119.72902,50.35068],[-119.72909,50.35072],[-119.72917,50.35078],[-119.72927,50.35087],[-119.72934,50.35094],[-119.7294,50.35099],[-119.72955,50.35107],[-119.72962,50.3511],[-119.72978,50.35115],[-119.72993,50.35118],[-119.73013,50.35119],[-119.73036,50.35118],[-119.73062,50.35115],[-119.7308,50.35114],[-119.73104,50.35111],[-119.73128,50.35107],[-119.73143,50.35105],[-119.73153,50.35105],[-119.73164,50.35105],[-119.73185,50.35108],[-119.73212,50.35111],[-119.73225,50.35112],[-119.73238,50.35112],[-119.7325,50.35114],[-119.73267,50.35113],[-119.73284,50.35113],[-119.73295,50.35113],[-119.73312,50.3511],[-119.73321,50.35109],[-119.73332,50.35108],[-119.73344,50.35106],[-119.73355,50.35104],[-119.73369,50.35102],[-119.73385,50.35099],[-119.73397,50.35097],[-119.7341,50.35095],[-119.73419,50.35093],[-119.73433,50.35091],[-119.73454,50.3509],[-119.73475,50.35087],[-119.73491,50.35086],[-119.735,50.35084],[-119.73514,50.35081],[-119.73531,50.35078],[-119.73543,50.35074],[-119.73556,50.35071],[-119.73574,50.35066],[-119.73585,50.35063],[-119.73595,50.3506],[-119.73606,50.35057],[-119.7362,50.35053],[-119.73631,50.35049],[-119.73639,50.35047],[-119.73657,50.35039],[-119.73666,50.35036],[-119.73676,50.35033],[-119.73687,50.35027],[-119.73698,50.35019],[-119.73707,50.35014],[-119.73716,50.3501],[-119.73725,50.35007],[-119.73738,50.35004],[-119.73749,50.35004],[-119.7376,50.35004],[-119.73773,50.35004],[-119.73791,50.35005],[-119.73808,50.35007],[-119.73836,50.35007],[-119.73869,50.35006],[-119.73894,50.35004],[-119.73902,50.35003],[-119.73917,50.35001],[-119.73959,50.34997],[-119.73973,50.34992],[-119.73984,50.34988],[-119.73994,50.34984],[-119.74003,50.34978],[-119.74013,50.34973],[-119.74023,50.3497],[-119.74031,50.34967],[-119.74039,50.34964],[-119.74049,50.34961],[-119.74057,50.34959],[-119.74074,50.34956],[-119.74085,50.34954],[-119.74093,50.34952],[-119.74101,50.3495],[-119.74124,50.34946],[-119.74145,50.34945],[-119.74156,50.34944],[-119.7417,50.34941],[-119.74181,50.34939],[-119.74193,50.34935],[-119.74202,50.34933],[-119.7421,50.34929],[-119.7422,50.34925],[-119.74232,50.3492],[-119.74248,50.34915],[-119.74259,50.34911],[-119.74277,50.34906],[-119.74289,50.34904],[-119.74298,50.34902],[-119.74308,50.34901],[-119.74328,50.34901],[-119.74338,50.34901],[-119.74352,50.34901],[-119.74362,50.349],[-119.74371,50.34899],[-119.74385,50.34899],[-119.74401,50.34899],[-119.74412,50.34899],[-119.74423,50.34901],[-119.74432,50.34902],[-119.74441,50.34908],[-119.74447,50.34913],[-119.74454,50.34918],[-119.74467,50.34924],[-119.74483,50.34931],[-119.74496,50.34936],[-119.74504,50.34939],[-119.74511,50.34941],[-119.74526,50.34945],[-119.74539,50.34948],[-119.74551,50.34952],[-119.74567,50.34957],[-119.74586,50.3496],[-119.74597,50.34961],[-119.74606,50.34964],[-119.7462,50.34966],[-119.74631,50.34968],[-119.74644,50.34968],[-119.74652,50.3497],[-119.74669,50.34971],[-119.74678,50.34972],[-119.74692,50.34974],[-119.74702,50.34976],[-119.74713,50.34977],[-119.74726,50.3498],[-119.7474,50.34981],[-119.7477,50.34989],[-119.74789,50.34992],[-119.74801,50.34995],[-119.74817,50.34997],[-119.74835,50.35001],[-119.74855,50.35005],[-119.74875,50.35008],[-119.74891,50.35015],[-119.74903,50.3502],[-119.74915,50.35023],[-119.74927,50.35025],[-119.74944,50.3503],[-119.74961,50.35035],[-119.74971,50.35037],[-119.74985,50.35042],[-119.75006,50.35049],[-119.75023,50.35058],[-119.75047,50.35068],[-119.75065,50.35074],[-119.75073,50.35079],[-119.75088,50.35082],[-119.751,50.35085],[-119.7511,50.35088],[-119.75123,50.35092],[-119.7515,50.35098],[-119.7516,50.35099],[-119.75188,50.351],[-119.75214,50.35105],[-119.75233,50.3511],[-119.7524,50.35113],[-119.75253,50.3512],[-119.75264,50.35126],[-119.75278,50.35135],[-119.75292,50.3514],[-119.75304,50.35147],[-119.75317,50.35154],[-119.75327,50.35163],[-119.75337,50.35171],[-119.75349,50.35181],[-119.75362,50.35191],[-119.75373,50.35197],[-119.75381,50.35202],[-119.7539,50.35207],[-119.75397,50.35212],[-119.75408,50.35221],[-119.75414,50.35227],[-119.75421,50.35232],[-119.75428,50.35238],[-119.75439,50.35244],[-119.75453,50.3525],[-119.75463,50.35255],[-119.75472,50.35259],[-119.75482,50.35263],[-119.75489,50.35267],[-119.75498,50.35269],[-119.75508,50.35274],[-119.75515,50.35279],[-119.75527,50.35283],[-119.75534,50.35286],[-119.75543,50.35291],[-119.75559,50.353],[-119.75566,50.35303],[-119.75577,50.35308],[-119.75597,50.35315],[-119.75612,50.35321],[-119.75622,50.35327],[-119.75631,50.35334],[-119.75637,50.35339],[-119.75644,50.35347],[-119.75647,50.35354],[-119.75651,50.35359],[-119.75657,50.35371],[-119.75675,50.35376],[-119.75698,50.35378],[-119.75714,50.35378],[-119.75735,50.3538],[-119.75748,50.35383],[-119.75767,50.35385],[-119.7578,50.35384],[-119.75794,50.35381],[-119.75812,50.35373],[-119.75829,50.35365],[-119.75845,50.3536],[-119.75853,50.35357],[-119.75868,50.35354],[-119.75879,50.3535],[-119.75901,50.35341],[-119.75918,50.35336],[-119.75937,50.35329],[-119.75958,50.35322],[-119.75972,50.35318],[-119.75999,50.35311],[-119.76032,50.35301],[-119.76053,50.35296],[-119.76074,50.35291],[-119.76088,50.3529],[-119.76103,50.35288],[-119.76115,50.35288],[-119.76138,50.35287],[-119.7615,50.35286],[-119.76179,50.35279],[-119.762,50.35277],[-119.76221,50.35274],[-119.76244,50.35271],[-119.76267,50.35266],[-119.76287,50.3526],[-119.76301,50.35252],[-119.76314,50.35241],[-119.76328,50.35228],[-119.76338,50.35217],[-119.76347,50.35206],[-119.76361,50.35194],[-119.76372,50.35185],[-119.76386,50.3517],[-119.76398,50.3516],[-119.76412,50.35148],[-119.76422,50.35138],[-119.76441,50.35124],[-119.76454,50.35112],[-119.76465,50.35102],[-119.76477,50.35092],[-119.76495,50.35079],[-119.76514,50.35068],[-119.76527,50.35059],[-119.76548,50.35048],[-119.7656,50.35044],[-119.76571,50.35039],[-119.76579,50.35035],[-119.76586,50.35032],[-119.76597,50.35027],[-119.76609,50.3502],[-119.76623,50.35011],[-119.76634,50.35005],[-119.76645,50.34998],[-119.7666,50.34992],[-119.76674,50.34987],[-119.76693,50.34981],[-119.76708,50.34978],[-119.76721,50.34975],[-119.7673,50.34972],[-119.76748,50.34966],[-119.76773,50.34949],[-119.76783,50.34937],[-119.76791,50.34926],[-119.76803,50.34914],[-119.76818,50.34902],[-119.76839,50.34888],[-119.76854,50.3488],[-119.76869,50.34872],[-119.76891,50.34861],[-119.7691,50.34852],[-119.76927,50.34845],[-119.76942,50.34835],[-119.76966,50.34823],[-119.76988,50.34813],[-119.77013,50.34804],[-119.77025,50.34801],[-119.77035,50.34797],[-119.77055,50.34786],[-119.77072,50.34776],[-119.77088,50.34765],[-119.77108,50.34754],[-119.77122,50.34747],[-119.77133,50.3474],[-119.77148,50.34733],[-119.77153,50.34729],[-119.77167,50.34719],[-119.77178,50.34714],[-119.77191,50.34707],[-119.77205,50.34701],[-119.77227,50.34693],[-119.7724,50.34689],[-119.77248,50.34686],[-119.7726,50.3468],[-119.77267,50.34677],[-119.7729,50.34668],[-119.7731,50.34659],[-119.77326,50.34653],[-119.7734,50.34647],[-119.77351,50.34642],[-119.77363,50.34637],[-119.77382,50.3463],[-119.77402,50.34624],[-119.7742,50.3462],[-119.77431,50.34616],[-119.77439,50.34613],[-119.77449,50.34609],[-119.77467,50.34603],[-119.7748,50.34598],[-119.77494,50.34593],[-119.77511,50.34588],[-119.77523,50.34582],[-119.77544,50.34575],[-119.77564,50.34565],[-119.77585,50.34554],[-119.77595,50.34546],[-119.77605,50.34538],[-119.77616,50.34532],[-119.77632,50.34521],[-119.7764,50.34517],[-119.77651,50.34514],[-119.77666,50.34509],[-119.77652,50.34496],[-119.77639,50.34492],[-119.77624,50.34488],[-119.77606,50.34482],[-119.77583,50.34474],[-119.7757,50.34468],[-119.77554,50.34463],[-119.77542,50.34457],[-119.77527,50.34451],[-119.77519,50.34447],[-119.77508,50.3444],[-119.77495,50.34435]]}},
{"type":"Feature","properties":{"spotId":"A-grouse-atv-0056","kind":"ride","km":4.42,"climbM":295,"name":"280 m SE of Bishop Creek","flags":["Route crosses private land (ParcelMap BC, updated 2026-09-25): get permission first or go around."]},"geometry":{"type":"LineString","coordinates":[[-119.51436,50.43795],[-119.51448,50.43808],[-119.51454,50.43818],[-119.51461,50.43824],[-119.51468,50.43834],[-119.51474,50.43837],[-119.51504,50.43845],[-119.51529,50.43849],[-119.51561,50.43864],[-119.51577,50.43873],[-119.51607,50.43878],[-119.51633,50.43882],[-119.51671,50.43892],[-119.51687,50.43908],[-119.5171,50.4393],[-119.51724,50.4395],[-119.51764,50.44007],[-119.51777,50.4402],[-119.518,50.4403],[-119.51812,50.4404],[-119.51846,50.44078],[-119.51886,50.44118],[-119.51898,50.44132],[-119.51939,50.4416],[-119.5201,50.44212],[-119.5209,50.44272],[-119.52139,50.4431],[-119.52169,50.44338],[-119.52212,50.44372],[-119.52277,50.44416],[-119.52331,50.44442],[-119.5237,50.44461],[-119.52408,50.44471],[-119.52448,50.44483],[-119.52472,50.44494],[-119.52492,50.44512],[-119.52512,50.44533],[-119.52541,50.44558],[-119.52573,50.44582],[-119.52607,50.44601],[-119.52633,50.44609],[-119.52662,50.44616],[-119.52702,50.4463],[-119.52741,50.44648],[-119.5278,50.44666],[-119.52814,50.4468],[-119.52854,50.44701],[-119.52905,50.44718],[-119.52954,50.44744],[-119.52985,50.44765],[-119.52993,50.44774],[-119.53011,50.44784],[-119.53072,50.44805],[-119.53154,50.44842],[-119.5318,50.44851],[-119.53207,50.44865],[-119.53249,50.44873],[-119.53266,50.44881],[-119.53293,50.44899],[-119.53343,50.44932],[-119.53398,50.44956],[-119.53419,50.44963],[-119.53466,50.44972],[-119.53542,50.44979],[-119.53618,50.44992],[-119.53672,50.44998],[-119.53764,50.45012],[-119.53803,50.45019],[-119.53887,50.45039],[-119.5391,50.45052],[-119.53941,50.45084],[-119.53984,50.45115],[-119.54024,50.45155],[-119.54074,50.45208],[-119.54124,50.4525],[-119.54148,50.45266],[-119.5419,50.45281],[-119.54227,50.45302],[-119.54308,50.45359],[-119.54442,50.45449],[-119.54593,50.45537],[-119.54674,50.45591],[-119.54756,50.45649],[-119.5482,50.45687],[-119.54854,50.45699],[-119.5488,50.4572],[-119.54891,50.45734],[-119.54892,50.45747],[-119.54886,50.4576],[-119.54874,50.45765],[-119.54856,50.45771],[-119.54839,50.45778],[-119.54833,50.45788],[-119.54836,50.45797],[-119.54836,50.4581],[-119.54827,50.4582],[-119.54809,50.45828],[-119.54784,50.45832],[-119.54756,50.45839],[-119.54738,50.45849],[-119.54713,50.45868],[-119.5472,50.459],[-119.54732,50.45928],[-119.54751,50.45952],[-119.54837,50.46056],[-119.54851,50.4609],[-119.54864,50.46115],[-119.54891,50.46148],[-119.54932,50.4622],[-119.54968,50.46269],[-119.54994,50.46313],[-119.55052,50.46379],[-119.55067,50.46389],[-119.55089,50.46414],[-119.55122,50.46453],[-119.55153,50.46495],[-119.55181,50.46523],[-119.55197,50.46547]]}},
{"type":"Feature","properties":{"spotId":"A-grouse-atv-0079","kind":"ride","km":5.56,"climbM":327,"name":"1.8 km N of Pringle Creek","flags":[]},"geometry":{"type":"LineString","coordinates":[[-119.72347,50.49176],[-119.72334,50.49172],[-119.72324,50.49172],[-119.7231,50.49174],[-119.72276,50.49168],[-119.72259,50.49168],[-119.7225,50.49166],[-119.72247,50.49165],[-119.72232,50.49164],[-119.72213,50.49162],[-119.72189,50.49161],[-119.72167,50.49161],[-119.7215,50.4916],[-119.72136,50.49163],[-119.72122,50.49168],[-119.72113,50.49175],[-119.721,50.49182],[-119.72083,50.49193],[-119.72077,50.49195],[-119.72062,50.49203],[-119.72039,50.49212],[-119.72021,50.49216],[-119.72011,50.49218],[-119.71992,50.49217],[-119.7197,50.49215],[-119.71954,50.49214],[-119.71931,50.49212],[-119.71919,50.49212],[-119.71906,50.49215],[-119.71892,50.49219],[-119.7188,50.49219],[-119.71863,50.49219],[-119.71843,50.49222],[-119.71815,50.49222],[-119.71788,50.49225],[-119.71772,50.49228],[-119.71755,50.49232],[-119.71737,50.49236],[-119.71719,50.49237],[-119.717,50.49237],[-119.71683,50.49237],[-119.71669,50.49238],[-119.71654,50.49241],[-119.7164,50.49246],[-119.71624,50.49255],[-119.71611,50.49261],[-119.71605,50.49266],[-119.71597,50.49275],[-119.71594,50.49283],[-119.71595,50.49292],[-119.71595,50.49301],[-119.71597,50.49311],[-119.71599,50.49319],[-119.71598,50.49332],[-119.71599,50.49347],[-119.716,50.49362],[-119.71599,50.49374],[-119.716,50.49382],[-119.71601,50.49393],[-119.71598,50.49402],[-119.71592,50.49409],[-119.71583,50.49415],[-119.71572,50.49419],[-119.71555,50.49427],[-119.71546,50.49431],[-119.71531,50.49437],[-119.71523,50.49439],[-119.71509,50.49442],[-119.71496,50.49446],[-119.71487,50.49449],[-119.71476,50.49452],[-119.71459,50.49455],[-119.71443,50.49457],[-119.71434,50.49457],[-119.71424,50.49455],[-119.71415,50.49456],[-119.71403,50.49458],[-119.71391,50.4946],[-119.71376,50.49463],[-119.71364,50.49466],[-119.71355,50.49469],[-119.71341,50.49472],[-119.71321,50.49477],[-119.71304,50.49481],[-119.71296,50.49483],[-119.71283,50.49487],[-119.71273,50.49492],[-119.71258,50.49496],[-119.71243,50.49501],[-119.71221,50.49506],[-119.71205,50.49512],[-119.71194,50.49516],[-119.71184,50.49523],[-119.71174,50.49529],[-119.71166,50.49537],[-119.71151,50.49546],[-119.71141,50.49548],[-119.71133,50.49549],[-119.71123,50.49552],[-119.71107,50.49556],[-119.71091,50.4956],[-119.71076,50.49563],[-119.71059,50.49567],[-119.7104,50.49573],[-119.71024,50.49577],[-119.71005,50.49581],[-119.70991,50.49584],[-119.7098,50.49586],[-119.70969,50.49586],[-119.70954,50.49586],[-119.70935,50.49585],[-119.70932,50.49585],[-119.70912,50.49583],[-119.70895,50.4958],[-119.70884,50.49579],[-119.70868,50.49578],[-119.70855,50.49577],[-119.70827,50.49579],[-119.70812,50.49582],[-119.70794,50.49589],[-119.70773,50.49599],[-119.7075,50.49608],[-119.7073,50.49614],[-119.70715,50.49617],[-119.70703,50.49619],[-119.70688,50.4962],[-119.7067,50.49621],[-119.70656,50.49622],[-119.70639,50.49626],[-119.70624,50.4963],[-119.70613,50.49632],[-119.70593,50.49634],[-119.70584,50.49636],[-119.70574,50.49637],[-119.7056,50.49639],[-119.70544,50.4964],[-119.70533,50.49642],[-119.70522,50.49644],[-119.70507,50.4965],[-119.70495,50.49659],[-119.70487,50.49666],[-119.70481,50.49672],[-119.70476,50.4968],[-119.70471,50.49689],[-119.70467,50.49697],[-119.70467,50.49709],[-119.70466,50.49717],[-119.70466,50.49724],[-119.70465,50.49732],[-119.70465,50.49739],[-119.70466,50.49747],[-119.70471,50.49755],[-119.70477,50.49762],[-119.70483,50.49769],[-119.70489,50.49775],[-119.70496,50.49783],[-119.70501,50.49791],[-119.70497,50.49799],[-119.70484,50.49814],[-119.70477,50.49818],[-119.70467,50.49819],[-119.70459,50.4982],[-119.70443,50.49818],[-119.70433,50.49815],[-119.70423,50.49811],[-119.70414,50.49809],[-119.70402,50.49805],[-119.70392,50.49803],[-119.70376,50.49802],[-119.70362,50.49801],[-119.70345,50.49802],[-119.70335,50.49801],[-119.70325,50.49801],[-119.70308,50.49801],[-119.70297,50.49801],[-119.70283,50.49799],[-119.70268,50.49797],[-119.70254,50.49795],[-119.70231,50.4979],[-119.70219,50.49788],[-119.70194,50.49783],[-119.7018,50.49782],[-119.70159,50.49781],[-119.70123,50.49776],[-119.70086,50.49771],[-119.70068,50.4977],[-119.70065,50.4977],[-119.70057,50.4977],[-119.70046,50.4977],[-119.70044,50.4977],[-119.70029,50.49769],[-119.70016,50.49768],[-119.70002,50.49766],[-119.69982,50.49765],[-119.69966,50.49763],[-119.69955,50.4976],[-119.6994,50.49757],[-119.6993,50.49752],[-119.69924,50.49748],[-119.69914,50.49745],[-119.699,50.4974],[-119.69881,50.49736],[-119.69866,50.4973],[-119.69851,50.49724],[-119.69844,50.49718],[-119.69836,50.49713],[-119.69825,50.49703],[-119.69817,50.49697],[-119.69808,50.49691],[-119.69799,50.49684],[-119.69789,50.49678],[-119.69788,50.49677],[-119.6978,50.49663],[-119.69768,50.49651],[-119.69755,50.49639],[-119.69749,50.49636],[-119.69729,50.4963],[-119.69706,50.49626],[-119.69685,50.49623],[-119.69662,50.49619],[-119.6964,50.49615],[-119.69618,50.49617],[-119.69597,50.49616],[-119.69574,50.49609],[-119.69568,50.49606],[-119.69558,50.49604],[-119.69542,50.49599],[-119.69532,50.49596],[-119.69524,50.49594],[-119.69515,50.49591],[-119.69505,50.49588],[-119.69492,50.49585],[-119.69482,50.49581],[-119.69471,50.49578],[-119.69456,50.49573],[-119.69443,50.49569],[-119.69429,50.49563],[-119.69413,50.49556],[-119.69398,50.4955],[-119.69384,50.49545],[-119.6937,50.49539],[-119.69361,50.49535],[-119.69359,50.49534],[-119.69338,50.49534],[-119.69333,50.49532],[-119.6931,50.49528],[-119.69287,50.49525],[-119.69264,50.49525],[-119.69243,50.49526],[-119.69221,50.49524],[-119.69198,50.49526],[-119.69177,50.49532],[-119.69158,50.49538],[-119.6914,50.49545],[-119.69132,50.49545],[-119.69125,50.49547],[-119.69104,50.49553],[-119.69086,50.49561],[-119.69083,50.49562],[-119.69068,50.4957],[-119.6905,50.4958],[-119.69045,50.49584],[-119.69041,50.49588],[-119.69032,50.49595],[-119.6902,50.49609],[-119.69017,50.49616],[-119.6901,50.4963],[-119.69006,50.49634],[-119.69,50.49637],[-119.68979,50.49642],[-119.6896,50.49647],[-119.68958,50.49647],[-119.68933,50.49649],[-119.68909,50.4965],[-119.68903,50.4965],[-119.68879,50.49649],[-119.68857,50.4965],[-119.6885,50.4965],[-119.68846,50.4965],[-119.68841,50.4965],[-119.68834,50.4965],[-119.68829,50.4965],[-119.6882,50.49651],[-119.68813,50.49651],[-119.68808,50.49651],[-119.68801,50.49651],[-119.68795,50.49651],[-119.68789,50.49651],[-119.68781,50.49652],[-119.68755,50.49651],[-119.68733,50.49646],[-119.68713,50.49641],[-119.68691,50.49636],[-119.6867,50.49633],[-119.68648,50.49626],[-119.68627,50.4962],[-119.68607,50.49614],[-119.68587,50.49607],[-119.68568,50.49599],[-119.68559,50.49597],[-119.68552,50.49597],[-119.68545,50.49595],[-119.68525,50.49589],[-119.68505,50.49581],[-119.68487,50.49573],[-119.68473,50.4957],[-119.68452,50.49567],[-119.6844,50.49567],[-119.68413,50.49564],[-119.68392,50.49564],[-119.68371,50.49567],[-119.68364,50.49568],[-119.6835,50.49571],[-119.68331,50.49577],[-119.6831,50.49582],[-119.68292,50.49592],[-119.68287,50.49593],[-119.6828,50.49597],[-119.68262,50.49606],[-119.68246,50.49615],[-119.68226,50.49623],[-119.68207,50.49631],[-119.682,50.49632],[-119.68179,50.49636],[-119.68161,50.49644],[-119.68157,50.49647],[-119.68144,50.49659],[-119.68126,50.49668],[-119.68121,50.4967],[-119.68097,50.4967],[-119.68074,50.49671],[-119.68068,50.49669],[-119.68046,50.49665],[-119.68037,50.49665],[-119.68015,50.49668],[-119.68013,50.49668],[-119.67994,50.4967],[-119.67986,50.49668],[-119.67964,50.49665],[-119.67957,50.49662],[-119.67937,50.49658],[-119.67914,50.49657],[-119.67893,50.49657],[-119.67872,50.49657],[-119.67848,50.49658],[-119.67827,50.49658],[-119.67818,50.49658],[-119.67815,50.49659],[-119.6779,50.49659],[-119.67769,50.49662],[-119.67747,50.49668],[-119.67726,50.49675],[-119.67706,50.4968],[-119.67687,50.49684],[-119.67679,50.49685],[-119.67656,50.49683],[-119.6765,50.4968],[-119.67633,50.49673],[-119.67611,50.49668],[-119.6759,50.49665],[-119.67567,50.49663],[-119.67559,50.49663],[-119.67548,50.49663],[-119.67545,50.49663],[-119.67527,50.49666],[-119.67523,50.49669],[-119.6751,50.49674],[-119.67502,50.49675],[-119.67495,50.49673],[-119.67473,50.49671],[-119.67449,50.49671],[-119.67427,50.4967],[-119.67401,50.49669],[-119.67379,50.49667],[-119.67356,50.49666],[-119.67342,50.49668],[-119.67318,50.49674],[-119.67296,50.49679],[-119.67277,50.49684],[-119.67254,50.49685],[-119.67232,50.49689],[-119.67211,50.49692],[-119.67191,50.49697],[-119.67169,50.49701],[-119.67148,50.49704],[-119.67126,50.49707],[-119.67105,50.4971],[-119.67084,50.49715],[-119.67064,50.49723],[-119.67044,50.49731],[-119.67027,50.4974],[-119.67012,50.49751],[-119.66996,50.49763],[-119.66986,50.49775],[-119.66968,50.49787],[-119.66954,50.49797],[-119.66938,50.49808],[-119.66926,50.49819],[-119.66908,50.49831],[-119.66901,50.49833],[-119.66883,50.49839],[-119.66864,50.49847],[-119.66846,50.49856],[-119.66827,50.49864],[-119.66811,50.49872],[-119.66793,50.49884],[-119.66778,50.49893],[-119.66764,50.499],[-119.6676,50.49902],[-119.66744,50.49913],[-119.66715,50.49923],[-119.66694,50.4993],[-119.6669,50.49933],[-119.66673,50.49941],[-119.66653,50.4995],[-119.66635,50.49957],[-119.66614,50.49966],[-119.66605,50.49972],[-119.66599,50.49975],[-119.66587,50.49979],[-119.66569,50.49988],[-119.66549,50.49994],[-119.66541,50.49999],[-119.6654,50.5],[-119.66537,50.50002],[-119.66522,50.50012],[-119.66517,50.50015],[-119.66496,50.5002],[-119.66475,50.50023],[-119.66453,50.50025],[-119.66432,50.50029],[-119.66405,50.50031],[-119.66384,50.50033],[-119.6636,50.50035],[-119.66339,50.50041],[-119.6632,50.50045],[-119.66302,50.50052],[-119.66299,50.50055],[-119.66293,50.5007],[-119.66285,50.50084],[-119.66272,50.50097],[-119.66268,50.50099],[-119.66247,50.50107],[-119.66228,50.50113],[-119.66204,50.50123],[-119.66196,50.50128],[-119.66193,50.5013],[-119.66189,50.50134],[-119.66188,50.50138],[-119.66187,50.50152],[-119.6619,50.50167],[-119.66195,50.50182],[-119.66204,50.50197],[-119.6621,50.5021],[-119.66211,50.50222],[-119.66208,50.50223],[-119.66199,50.50236],[-119.6619,50.50251],[-119.66188,50.50264],[-119.66189,50.50281],[-119.66192,50.50287],[-119.66204,50.50301],[-119.66215,50.50313],[-119.66223,50.50327],[-119.66228,50.50343],[-119.6623,50.50358],[-119.66236,50.50371],[-119.66241,50.50376],[-119.66256,50.50388],[-119.66269,50.50398]]}},
{"type":"Feature","properties":{"spotId":"A-grouse-drive-0007","kind":"roadside","km":4.74,"climbM":119,"name":"By Salmon River","flags":[]},"geometry":{"type":"LineString","coordinates":[[-119.74221,50.30389],[-119.74201,50.30383],[-119.74187,50.30381],[-119.74173,50.30382],[-119.74157,50.30382],[-119.74145,50.30382],[-119.74122,50.30384],[-119.74109,50.30386],[-119.74099,50.30388],[-119.74084,50.30392],[-119.7407,50.30396],[-119.74057,50.30402],[-119.74045,50.30406],[-119.74042,50.30407],[-119.74026,50.3041],[-119.74008,50.30414],[-119.73984,50.30418],[-119.7397,50.30421],[-119.7396,50.30423],[-119.73949,50.30427],[-119.73931,50.30432],[-119.73919,50.30437],[-119.73905,50.30441],[-119.73887,50.30445],[-119.73872,50.30448],[-119.73829,50.3046],[-119.73792,50.30466],[-119.73783,50.30469],[-119.73769,50.30473],[-119.73747,50.30479],[-119.73732,50.3048],[-119.73714,50.30482],[-119.73696,50.30483],[-119.73673,50.30484],[-119.73668,50.30484],[-119.7366,50.30483],[-119.73625,50.30478],[-119.73562,50.30483],[-119.73547,50.30484],[-119.7354,50.30485],[-119.73523,50.30489],[-119.73505,50.30495],[-119.73493,50.30499],[-119.73478,50.30502],[-119.73462,50.30503],[-119.73431,50.30503],[-119.73413,50.30501],[-119.734,50.30501],[-119.73392,50.30501],[-119.73376,50.30499],[-119.73349,50.30496],[-119.73327,50.30494],[-119.73308,50.30492],[-119.73287,50.30491],[-119.73266,50.3049],[-119.73252,50.30488],[-119.73239,50.30486],[-119.73228,50.30484],[-119.73208,50.30484],[-119.732,50.30483],[-119.73161,50.30466],[-119.7311,50.30428],[-119.73102,50.30417],[-119.7309,50.30406],[-119.73077,50.30397],[-119.73059,50.30386],[-119.73048,50.3038],[-119.73028,50.30373],[-119.73,50.30358],[-119.72987,50.30351],[-119.72974,50.30344],[-119.72957,50.30335],[-119.72945,50.30329],[-119.72934,50.30326],[-119.72908,50.30315],[-119.72882,50.30303],[-119.72865,50.30297],[-119.72852,50.30293],[-119.72829,50.30288],[-119.72809,50.30283],[-119.72791,50.3028],[-119.72778,50.30278],[-119.72764,50.30275],[-119.7275,50.30274],[-119.72734,50.30268],[-119.72725,50.30265],[-119.72714,50.30261],[-119.72698,50.30255],[-119.72688,50.30248],[-119.72674,50.30237],[-119.72667,50.30232],[-119.7266,50.30229],[-119.72648,50.30222],[-119.7264,50.30219],[-119.72625,50.30214],[-119.7261,50.3021],[-119.72586,50.3019],[-119.72581,50.30183],[-119.72574,50.30173],[-119.72566,50.30163],[-119.72559,50.30153],[-119.72548,50.30139],[-119.72536,50.30132],[-119.72523,50.30122],[-119.72513,50.30112],[-119.72501,50.30105],[-119.72489,50.30096],[-119.72468,50.30083],[-119.72449,50.30074],[-119.72429,50.30062],[-119.72426,50.3006],[-119.7241,50.3005],[-119.72388,50.30038],[-119.72373,50.30032],[-119.72356,50.30028],[-119.72338,50.30026],[-119.72321,50.30024],[-119.72311,50.30024],[-119.72296,50.30023],[-119.72269,50.30023],[-119.72246,50.30021],[-119.72227,50.30021],[-119.72211,50.3002],[-119.72196,50.3002],[-119.72182,50.30018],[-119.72166,50.30014],[-119.7215,50.30011],[-119.72127,50.30004],[-119.7211,50.3],[-119.72096,50.29996],[-119.72058,50.29987],[-119.72017,50.29961],[-119.72007,50.29957],[-119.71994,50.29953],[-119.71981,50.29951],[-119.71971,50.29952],[-119.71957,50.29954],[-119.71946,50.29956],[-119.71934,50.29959],[-119.71916,50.29962],[-119.71895,50.29963],[-119.71885,50.29963],[-119.71867,50.29962],[-119.71858,50.29959],[-119.71847,50.29956],[-119.71839,50.29954],[-119.71828,50.29948],[-119.71821,50.29944],[-119.71811,50.29939],[-119.718,50.29931],[-119.71793,50.29926],[-119.71784,50.29921],[-119.71767,50.29908],[-119.71747,50.29886],[-119.71744,50.2988],[-119.71739,50.29873],[-119.71732,50.29865],[-119.71723,50.29857],[-119.71711,50.29851],[-119.71692,50.29849],[-119.71682,50.2985],[-119.71668,50.29852],[-119.71656,50.29856],[-119.71646,50.29863],[-119.71641,50.29869],[-119.71639,50.29878],[-119.71636,50.29891],[-119.71627,50.29902],[-119.71614,50.29912],[-119.71603,50.29918],[-119.71592,50.2992],[-119.71586,50.2992],[-119.71582,50.2992],[-119.71572,50.29919],[-119.71559,50.29916],[-119.71546,50.29911],[-119.71535,50.29904],[-119.71529,50.299],[-119.71522,50.29895],[-119.71516,50.29891],[-119.71501,50.29878],[-119.7146,50.29857],[-119.71452,50.29855],[-119.7144,50.2985],[-119.71428,50.29847],[-119.71413,50.29845],[-119.71395,50.29843],[-119.71378,50.29843],[-119.71366,50.29843],[-119.7135,50.29843],[-119.71342,50.29843],[-119.71322,50.29842],[-119.71302,50.29841],[-119.71285,50.29841],[-119.71268,50.29839],[-119.71256,50.29838],[-119.71247,50.29837],[-119.71222,50.29836],[-119.71201,50.29816],[-119.71195,50.29809],[-119.71186,50.29801],[-119.71174,50.29792],[-119.71166,50.29785],[-119.71155,50.2978],[-119.7114,50.29777],[-119.71117,50.29775],[-119.71102,50.29774],[-119.71081,50.2977],[-119.71063,50.29766],[-119.71048,50.29763],[-119.71028,50.29761],[-119.71007,50.2976],[-119.70994,50.2976],[-119.7098,50.29762],[-119.70961,50.29765],[-119.70947,50.29768],[-119.70939,50.2977],[-119.70923,50.29768],[-119.70912,50.29765],[-119.70903,50.29762],[-119.70896,50.29757],[-119.70884,50.29748],[-119.70864,50.29737],[-119.70847,50.29734],[-119.70837,50.29732],[-119.70824,50.29732],[-119.70813,50.29732],[-119.708,50.29731],[-119.7079,50.2973],[-119.7078,50.29729],[-119.70769,50.29729],[-119.70754,50.29726],[-119.70722,50.29719],[-119.70712,50.29715],[-119.70699,50.29712],[-119.70681,50.2971],[-119.70666,50.29708],[-119.70643,50.29704],[-119.7063,50.29702],[-119.70612,50.29699],[-119.70597,50.29697],[-119.70536,50.29684],[-119.70485,50.29664],[-119.70466,50.29659],[-119.70452,50.29655],[-119.70445,50.29652],[-119.70432,50.29648],[-119.70418,50.29644],[-119.70402,50.29644],[-119.70377,50.29643],[-119.70366,50.29643],[-119.70351,50.29643],[-119.70339,50.29642],[-119.70329,50.29642],[-119.7031,50.29637],[-119.70299,50.29632],[-119.70289,50.29624],[-119.70283,50.29616],[-119.70276,50.29602],[-119.70274,50.29588],[-119.7027,50.29574],[-119.70261,50.2956],[-119.70248,50.29552],[-119.70232,50.29546],[-119.70215,50.29541],[-119.70201,50.29538],[-119.70183,50.29538],[-119.70174,50.29538],[-119.70166,50.29537],[-119.70153,50.29535],[-119.70141,50.2953],[-119.70118,50.29519],[-119.70111,50.29513],[-119.70099,50.29505],[-119.70091,50.29501],[-119.70082,50.29498],[-119.70069,50.29493],[-119.70059,50.29489],[-119.70045,50.29484],[-119.70023,50.2948],[-119.70013,50.29477],[-119.70004,50.29475],[-119.6998,50.2946],[-119.69959,50.2944],[-119.69955,50.29433],[-119.69949,50.29426],[-119.69943,50.2942],[-119.69934,50.29412],[-119.69925,50.29405],[-119.69913,50.29397],[-119.69903,50.2939],[-119.6989,50.29386],[-119.69875,50.29385],[-119.69854,50.29386],[-119.69836,50.29388],[-119.69816,50.2939],[-119.69799,50.2939],[-119.69765,50.29396],[-119.69737,50.29362],[-119.69728,50.29353],[-119.69722,50.29347],[-119.69715,50.29341],[-119.69712,50.29335],[-119.6971,50.29322],[-119.6971,50.29308],[-119.69711,50.29293],[-119.69707,50.2928],[-119.697,50.29267],[-119.69693,50.29252],[-119.69691,50.29245],[-119.69688,50.29236],[-119.69686,50.29225],[-119.69686,50.29217],[-119.69685,50.29211],[-119.69684,50.29206],[-119.6968,50.29192],[-119.69672,50.29173],[-119.69663,50.2916],[-119.69655,50.29152],[-119.69649,50.29146],[-119.69633,50.29138],[-119.69617,50.29129],[-119.69603,50.29121],[-119.69593,50.29115],[-119.69587,50.2911],[-119.69577,50.29104],[-119.69568,50.29098],[-119.69558,50.29092],[-119.69548,50.29084],[-119.6954,50.29078],[-119.69533,50.29074],[-119.69518,50.29062],[-119.69512,50.29054],[-119.69506,50.29045],[-119.69501,50.29037],[-119.69497,50.29026],[-119.69494,50.29007],[-119.69499,50.28971],[-119.69507,50.28941],[-119.695,50.28898],[-119.69495,50.28838],[-119.69497,50.28794],[-119.69496,50.28788],[-119.69494,50.28781],[-119.69492,50.28774],[-119.6949,50.28766],[-119.69488,50.28757],[-119.69489,50.28746],[-119.69489,50.2874],[-119.69488,50.28732],[-119.69489,50.28724],[-119.69488,50.28718],[-119.6949,50.2871],[-119.69489,50.287],[-119.69488,50.28694],[-119.69487,50.28686],[-119.69484,50.28676],[-119.69483,50.2867],[-119.69483,50.28656],[-119.69478,50.28649],[-119.69476,50.28643],[-119.69475,50.28638],[-119.69472,50.28624],[-119.69462,50.28608],[-119.69457,50.28601],[-119.6945,50.28593]]}},
{"type":"Feature","properties":{"spotId":"A-grouse-drive-0055","kind":"roadside","km":4.39,"climbM":21,"name":"1.9 km NE of Ingram Creek","flags":[]},"geometry":{"type":"LineString","coordinates":[[-119.65169,50.38988],[-119.65223,50.39049],[-119.6525,50.39056],[-119.65304,50.39044],[-119.65337,50.39033],[-119.65382,50.39004],[-119.6543,50.3898],[-119.65517,50.38923],[-119.65536,50.38908],[-119.65609,50.38832],[-119.6565,50.38803],[-119.6567,50.38793],[-119.65689,50.38785],[-119.6572,50.38774],[-119.65772,50.38747],[-119.65815,50.3872],[-119.65826,50.38719],[-119.65827,50.38706],[-119.65877,50.38696],[-119.65907,50.38684],[-119.65961,50.38679],[-119.65985,50.3867],[-119.66013,50.38679],[-119.66148,50.38679],[-119.66208,50.38672],[-119.6627,50.38671],[-119.66293,50.38662],[-119.66411,50.38648],[-119.66444,50.3864],[-119.66557,50.38599],[-119.66594,50.3858],[-119.66721,50.38533],[-119.67093,50.38405],[-119.67156,50.38389],[-119.67198,50.38384],[-119.67242,50.38373],[-119.67265,50.38364],[-119.6733,50.3832],[-119.6733,50.38311],[-119.67389,50.3828],[-119.67425,50.38255],[-119.67481,50.38248],[-119.67524,50.3825],[-119.67546,50.38246],[-119.67584,50.38245],[-119.6761,50.38239],[-119.67635,50.38223],[-119.67658,50.38195],[-119.67685,50.38145],[-119.67698,50.38109],[-119.67714,50.38089],[-119.67778,50.38041],[-119.67843,50.38006],[-119.67886,50.37974],[-119.6795,50.3791],[-119.67969,50.37887],[-119.68034,50.37804],[-119.68078,50.37746],[-119.68131,50.37704],[-119.68185,50.37677],[-119.68255,50.37631],[-119.68308,50.37588],[-119.68379,50.37485],[-119.68385,50.37465],[-119.68383,50.37452],[-119.68329,50.37386],[-119.68321,50.37346],[-119.68324,50.37328],[-119.68345,50.37305],[-119.68392,50.3729],[-119.68462,50.37287],[-119.68508,50.3729],[-119.68573,50.37285],[-119.68575,50.37282],[-119.68595,50.37277],[-119.68625,50.37273],[-119.68732,50.37272],[-119.68821,50.37261],[-119.68872,50.37249],[-119.68921,50.37231],[-119.68965,50.3722],[-119.69038,50.37195],[-119.69049,50.37194],[-119.69061,50.37196],[-119.69078,50.37207],[-119.69082,50.37222],[-119.69077,50.37239],[-119.69062,50.37267],[-119.69024,50.37316],[-119.69015,50.37336],[-119.69018,50.37354],[-119.69002,50.37371],[-119.6899,50.37392],[-119.68988,50.37447],[-119.68995,50.37486],[-119.69012,50.37527],[-119.69022,50.37551],[-119.69026,50.3758],[-119.69051,50.37643]]}},
{"type":"Feature","properties":{"spotId":"A-grouse-drive-0095","kind":"roadside","km":5.8,"climbM":477,"name":"170 m N of McGregor Creek","flags":[]},"geometry":{"type":"LineString","coordinates":[[-119.50474,50.35285],[-119.50484,50.35286],[-119.50507,50.35285],[-119.50521,50.35283],[-119.50535,50.35283],[-119.50547,50.35282],[-119.50563,50.35279],[-119.50575,50.35277],[-119.50595,50.35275],[-119.50605,50.35272],[-119.50613,50.35266],[-119.50618,50.3526],[-119.50629,50.35253],[-119.50638,50.35247],[-119.50649,50.3524],[-119.50659,50.35233],[-119.50666,50.35229],[-119.50672,50.35224],[-119.50678,50.35219],[-119.50684,50.35214],[-119.50695,50.35209],[-119.50706,50.35203],[-119.50716,50.352],[-119.50733,50.35197],[-119.50747,50.35198],[-119.50759,50.35208],[-119.50763,50.35213],[-119.50768,50.35223],[-119.50774,50.35233],[-119.5078,50.35246],[-119.50782,50.35254],[-119.50786,50.35267],[-119.50792,50.35277],[-119.50794,50.35289],[-119.50794,50.35301],[-119.50797,50.35318],[-119.50797,50.35326],[-119.50798,50.35348],[-119.50795,50.35363],[-119.50789,50.35379],[-119.50786,50.35388],[-119.5078,50.3541],[-119.50777,50.35415],[-119.50775,50.35417],[-119.50772,50.35426],[-119.50774,50.35439],[-119.5078,50.35449],[-119.5079,50.35463],[-119.50798,50.3547],[-119.50805,50.35478],[-119.50813,50.35485],[-119.50822,50.35495],[-119.50832,50.35507],[-119.5084,50.35516],[-119.50843,50.35522],[-119.5085,50.35529],[-119.50862,50.35537],[-119.50885,50.3555],[-119.50897,50.3556],[-119.50916,50.35576],[-119.50925,50.35583],[-119.50939,50.35592],[-119.50953,50.35598],[-119.50966,50.35602],[-119.50988,50.35607],[-119.51,50.35608],[-119.51013,50.35611],[-119.51026,50.35614],[-119.51045,50.35624],[-119.51052,50.35629],[-119.51067,50.35644],[-119.51069,50.35654],[-119.51074,50.35668],[-119.51083,50.35681],[-119.51096,50.35694],[-119.51104,50.357],[-119.5112,50.35707],[-119.51135,50.35716],[-119.51156,50.35724],[-119.51169,50.35732],[-119.51178,50.35742],[-119.51182,50.35751],[-119.51186,50.3576],[-119.51187,50.35767],[-119.51189,50.35775],[-119.51192,50.35783],[-119.51197,50.35796],[-119.51199,50.35807],[-119.51202,50.35829],[-119.51207,50.35838],[-119.51221,50.35851],[-119.51227,50.35856],[-119.51236,50.35866],[-119.51245,50.35878],[-119.51256,50.35892],[-119.51261,50.359],[-119.51264,50.35907],[-119.51267,50.35915],[-119.51273,50.35923],[-119.51286,50.35932],[-119.51294,50.35941],[-119.51297,50.35946],[-119.513,50.35953],[-119.51302,50.35961],[-119.51304,50.35969],[-119.51311,50.35977],[-119.51331,50.35987],[-119.51352,50.35999],[-119.5138,50.36013],[-119.51399,50.36021],[-119.51413,50.36027],[-119.51425,50.36033],[-119.51439,50.36039],[-119.51452,50.36045],[-119.51483,50.36046],[-119.51511,50.36036],[-119.51515,50.36031],[-119.51514,50.36021],[-119.51512,50.3601],[-119.51509,50.35999],[-119.51507,50.35989],[-119.51529,50.35974],[-119.51536,50.35958],[-119.51537,50.35953],[-119.51538,50.3594],[-119.51539,50.35928],[-119.51534,50.35911],[-119.51531,50.35903],[-119.51527,50.35887],[-119.51526,50.35874],[-119.51532,50.35867],[-119.51539,50.35857],[-119.51547,50.35848],[-119.51555,50.35824],[-119.51556,50.358],[-119.51534,50.35785],[-119.51525,50.35776],[-119.51511,50.35768],[-119.51504,50.35764],[-119.51489,50.35756],[-119.51479,50.35751],[-119.51456,50.35737],[-119.51443,50.3573],[-119.51434,50.35727],[-119.51428,50.3572],[-119.51418,50.35709],[-119.51406,50.35695],[-119.51402,50.35683],[-119.51399,50.35675],[-119.51395,50.35669],[-119.51391,50.35658],[-119.51389,50.3565],[-119.51387,50.3564],[-119.51387,50.35629],[-119.51385,50.35623],[-119.51384,50.35608],[-119.51389,50.35594],[-119.51393,50.35582],[-119.514,50.35553],[-119.51403,50.3554],[-119.51404,50.35534],[-119.51405,50.35527],[-119.51408,50.35521],[-119.51406,50.35515],[-119.51412,50.35501],[-119.5142,50.3549],[-119.51426,50.35485],[-119.51435,50.35478],[-119.51452,50.35472],[-119.51461,50.35466],[-119.51469,50.3546],[-119.51473,50.35451],[-119.51474,50.35443],[-119.51477,50.35438],[-119.51478,50.35431],[-119.5148,50.35423],[-119.51486,50.3541],[-119.51489,50.35404],[-119.51493,50.35399],[-119.51501,50.35392],[-119.51513,50.35378],[-119.51518,50.35372],[-119.51534,50.35363],[-119.51545,50.35356],[-119.51552,50.35349],[-119.5156,50.35336],[-119.51568,50.35328],[-119.51591,50.35319],[-119.51616,50.35306],[-119.51628,50.353],[-119.51636,50.35291],[-119.51641,50.35286],[-119.51648,50.35279],[-119.51675,50.35263],[-119.51695,50.35255],[-119.51714,50.35247],[-119.51729,50.35236],[-119.51734,50.35232],[-119.51742,50.35224],[-119.51744,50.35214],[-119.51748,50.35203],[-119.51752,50.35178],[-119.51752,50.35171],[-119.51748,50.35157],[-119.51738,50.35147],[-119.51721,50.35137],[-119.51709,50.35133],[-119.51699,50.3513],[-119.51678,50.35123],[-119.5166,50.35114],[-119.51653,50.35111],[-119.51646,50.35105],[-119.51643,50.35098],[-119.51639,50.3509],[-119.51636,50.35084],[-119.51637,50.35076],[-119.51645,50.35057],[-119.51655,50.35047],[-119.51658,50.35044],[-119.51663,50.35038],[-119.51666,50.35032],[-119.51666,50.35024],[-119.51665,50.35018],[-119.51665,50.35013],[-119.51663,50.35006],[-119.5166,50.34998],[-119.51658,50.34992],[-119.51659,50.34985],[-119.5166,50.34979],[-119.51665,50.3497],[-119.51673,50.34959],[-119.5168,50.34949],[-119.51682,50.34943],[-119.51685,50.34936],[-119.5169,50.34927],[-119.51696,50.34919],[-119.51701,50.34907],[-119.51708,50.34892],[-119.51713,50.34884],[-119.51715,50.34878],[-119.51719,50.34863],[-119.5172,50.34855],[-119.51717,50.34847],[-119.51715,50.34842],[-119.51712,50.34835],[-119.51707,50.34828],[-119.51704,50.34821],[-119.517,50.34816],[-119.51696,50.34808],[-119.51693,50.34794],[-119.51692,50.34785],[-119.51692,50.34778],[-119.5169,50.34768],[-119.51688,50.34761],[-119.51686,50.34754],[-119.51686,50.34742],[-119.51685,50.34731],[-119.51687,50.34718],[-119.51695,50.34697],[-119.51698,50.3469],[-119.51701,50.34684],[-119.51706,50.34673],[-119.51715,50.34664],[-119.51722,50.34659],[-119.51732,50.34651],[-119.51737,50.34647],[-119.51742,50.34642],[-119.51749,50.34637],[-119.51756,50.34631],[-119.51764,50.34625],[-119.51771,50.3462],[-119.51779,50.34615],[-119.51789,50.34613],[-119.518,50.34614],[-119.51803,50.34621],[-119.51802,50.34629],[-119.518,50.34637],[-119.51796,50.34646],[-119.51792,50.34654],[-119.51787,50.34661],[-119.51785,50.34671],[-119.51789,50.34684],[-119.51795,50.34689],[-119.51801,50.3469],[-119.51808,50.3469],[-119.51821,50.34687],[-119.51831,50.34674],[-119.51836,50.34668],[-119.51839,50.34664],[-119.51847,50.34653],[-119.51858,50.34644],[-119.51863,50.34637],[-119.51865,50.34631],[-119.51866,50.34618],[-119.51868,50.34608],[-119.51872,50.34602],[-119.51882,50.34593],[-119.51894,50.34585],[-119.51906,50.34581],[-119.51915,50.34578],[-119.51921,50.34574],[-119.51927,50.34566],[-119.5193,50.34557],[-119.51934,50.34551],[-119.51941,50.34543],[-119.5195,50.34537],[-119.51964,50.34532],[-119.51972,50.34528],[-119.51982,50.34526],[-119.5199,50.34523],[-119.51999,50.34519],[-119.52012,50.34514],[-119.52021,50.3451],[-119.52028,50.34507],[-119.52037,50.34503],[-119.52052,50.34497],[-119.52063,50.34492],[-119.52077,50.34487],[-119.52085,50.34486],[-119.52095,50.34486],[-119.5211,50.34496],[-119.52119,50.34505],[-119.52121,50.34512],[-119.52125,50.34518],[-119.52131,50.34521],[-119.52142,50.34521],[-119.52152,50.34522],[-119.52165,50.34522],[-119.52176,50.34523],[-119.52189,50.34525],[-119.52203,50.34526],[-119.52211,50.34528],[-119.52223,50.3453],[-119.52237,50.34533],[-119.52246,50.34537],[-119.52259,50.34543],[-119.52276,50.34549],[-119.5229,50.34552],[-119.5231,50.34557],[-119.52321,50.34559],[-119.52331,50.34561],[-119.5235,50.34564],[-119.52361,50.34568],[-119.52373,50.34577],[-119.52382,50.34583],[-119.52392,50.34592],[-119.52402,50.34598],[-119.52412,50.34604],[-119.5242,50.3461],[-119.52427,50.34618],[-119.52435,50.34626],[-119.52443,50.34637],[-119.52449,50.34643],[-119.52457,50.34651],[-119.52473,50.34664],[-119.5248,50.34669],[-119.5249,50.34671],[-119.525,50.34673],[-119.52513,50.3468],[-119.52528,50.34686],[-119.52538,50.34691],[-119.52554,50.347],[-119.52568,50.34708],[-119.52581,50.3471],[-119.52595,50.34715],[-119.52607,50.3472],[-119.52618,50.34728],[-119.52623,50.34733],[-119.52637,50.34742],[-119.52649,50.3475],[-119.52661,50.34756],[-119.52674,50.34761],[-119.52692,50.34763],[-119.52703,50.34763],[-119.52706,50.34763],[-119.52716,50.34761],[-119.52724,50.3476],[-119.52738,50.34758],[-119.52749,50.34756],[-119.52766,50.34755],[-119.52773,50.34753],[-119.52784,50.34751],[-119.52803,50.34742],[-119.52809,50.34737],[-119.5283,50.34717],[-119.52836,50.34699],[-119.52843,50.34689],[-119.52848,50.34681],[-119.52853,50.34674],[-119.52857,50.34667],[-119.52862,50.3466],[-119.52867,50.34652],[-119.52875,50.34639],[-119.52884,50.34629],[-119.52894,50.34624],[-119.52904,50.34618],[-119.52914,50.34611],[-119.52923,50.34608],[-119.52941,50.34603],[-119.52953,50.34601],[-119.52963,50.346],[-119.52973,50.34598],[-119.52988,50.34595],[-119.53001,50.34592],[-119.53014,50.34589],[-119.53062,50.34583],[-119.53079,50.3458],[-119.53093,50.34578],[-119.53109,50.34574],[-119.53118,50.34571],[-119.53129,50.34568],[-119.53147,50.34566],[-119.53158,50.3457],[-119.53163,50.34575],[-119.53174,50.34582],[-119.53179,50.34588],[-119.53185,50.34592],[-119.53192,50.34599],[-119.53202,50.34606],[-119.53217,50.34613],[-119.53228,50.34617],[-119.53244,50.34619],[-119.53257,50.3462],[-119.53269,50.34621],[-119.53285,50.3462],[-119.53301,50.34618],[-119.53317,50.34619],[-119.53334,50.34621],[-119.5335,50.34627],[-119.53358,50.34631],[-119.53371,50.34636],[-119.53396,50.34647],[-119.53414,50.34656],[-119.53432,50.34664],[-119.53445,50.3467],[-119.53459,50.34678],[-119.53485,50.34691],[-119.53504,50.34698],[-119.53517,50.34704],[-119.53524,50.34707],[-119.53554,50.34716],[-119.53574,50.34724],[-119.53591,50.34731],[-119.53601,50.34735],[-119.53616,50.3474],[-119.5363,50.34746],[-119.5364,50.34749],[-119.5365,50.34752],[-119.53659,50.34755],[-119.53669,50.34758],[-119.53677,50.34763],[-119.53685,50.34767],[-119.53698,50.34775],[-119.53714,50.34781],[-119.53731,50.34785],[-119.53746,50.34786],[-119.5376,50.34788],[-119.53774,50.34791],[-119.53793,50.34794],[-119.53811,50.34796],[-119.53821,50.34799],[-119.53828,50.34801],[-119.53841,50.34806],[-119.53849,50.34811],[-119.53855,50.34816],[-119.53865,50.34824],[-119.53874,50.34832],[-119.53884,50.3484],[-119.53891,50.34847],[-119.539,50.34853],[-119.5391,50.3486],[-119.53918,50.34863],[-119.53931,50.3487],[-119.53934,50.34881],[-119.53957,50.34891],[-119.53969,50.34897],[-119.53975,50.34904],[-119.53981,50.34917],[-119.53988,50.34928],[-119.54009,50.34938],[-119.54033,50.34947],[-119.54052,50.34952],[-119.54065,50.34958],[-119.54081,50.34967],[-119.54098,50.34977],[-119.54105,50.34985],[-119.54111,50.34991],[-119.54119,50.35003],[-119.54122,50.35012],[-119.54127,50.35027],[-119.54133,50.35046],[-119.54137,50.35054],[-119.54143,50.35063],[-119.54151,50.35069],[-119.54159,50.35074],[-119.54171,50.35078],[-119.54185,50.35081],[-119.54205,50.35088],[-119.54224,50.35092],[-119.5425,50.35096],[-119.5427,50.351],[-119.54292,50.35105],[-119.54317,50.3511],[-119.54334,50.35113],[-119.5435,50.35114],[-119.54373,50.35119],[-119.54383,50.35124],[-119.54391,50.35129]]}},
{"type":"Feature","properties":{"spotId":"A-grouse-walk-0059","kind":"walk","km":0.39,"climbM":3,"name":"1.5 km SE of Blackjack Creek","flags":["Route enters a Motor Vehicle Closed Area: Thompson, Cariboo and Okanagan Alpines. Closed Year Round. Exemption: Snowmobiles exempt year round (January 1 to December 31). Synopsis map 1-82/24."]},"geometry":{"type":"LineString","coordinates":[[-119.71659,50.3388],[-119.72194,50.33958]]}},
{"type":"Feature","properties":{"spotId":"A-grouse-walk-0059","kind":"roadside","km":6.15,"climbM":119,"name":"1.5 km SE of Blackjack Creek","flags":["Route enters a Motor Vehicle Closed Area: Thompson, Cariboo and Okanagan Alpines. Closed Year Round. Exemption: Snowmobiles exempt year round (January 1 to December 31). Synopsis map 1-82/24."]},"geometry":{"type":"LineString","coordinates":[[-119.72194,50.33958],[-119.72227,50.33965],[-119.72242,50.33965],[-119.7225,50.33964],[-119.72268,50.33958],[-119.72276,50.33954],[-119.72285,50.33954],[-119.72298,50.33948],[-119.72309,50.33941],[-119.72323,50.3393],[-119.72334,50.33928],[-119.72343,50.33928],[-119.72359,50.33925],[-119.72366,50.3392],[-119.72376,50.33915],[-119.72385,50.33914],[-119.72432,50.33923],[-119.72448,50.3392],[-119.72462,50.33924],[-119.72476,50.33931],[-119.72497,50.33936],[-119.72521,50.33937],[-119.72563,50.33945],[-119.72582,50.33946],[-119.72615,50.33944],[-119.7263,50.33946],[-119.72644,50.33947],[-119.72651,50.33946],[-119.72657,50.33947],[-119.72669,50.33955],[-119.72712,50.33962],[-119.72739,50.33962],[-119.7276,50.33964],[-119.72797,50.33964],[-119.72839,50.33968],[-119.72853,50.33967],[-119.72875,50.33965],[-119.72895,50.33967],[-119.72911,50.33966],[-119.72958,50.3396],[-119.72975,50.33961],[-119.72984,50.33968],[-119.72995,50.33974],[-119.73041,50.33992],[-119.73062,50.33993],[-119.7308,50.33988],[-119.73126,50.33968],[-119.73194,50.33954],[-119.73221,50.33947],[-119.73264,50.33942],[-119.73334,50.33946],[-119.73357,50.33944],[-119.73372,50.33941],[-119.73376,50.33936],[-119.73384,50.33931],[-119.73394,50.33926],[-119.73409,50.33913],[-119.7342,50.33905],[-119.73423,50.33895],[-119.73432,50.33885],[-119.73441,50.33879],[-119.73488,50.3387],[-119.73498,50.33871],[-119.73534,50.33879],[-119.73588,50.33878],[-119.73622,50.3388],[-119.73637,50.3388],[-119.73646,50.33878],[-119.73665,50.33872],[-119.73674,50.33868],[-119.73681,50.33863],[-119.73687,50.33852],[-119.73697,50.33848],[-119.7371,50.33844],[-119.7374,50.33841],[-119.73759,50.3384],[-119.73781,50.33835],[-119.73803,50.33835],[-119.73846,50.33839],[-119.73872,50.33837],[-119.73891,50.33834],[-119.73913,50.33834],[-119.73932,50.33831],[-119.73949,50.33831],[-119.7397,50.33835],[-119.73987,50.3384],[-119.7402,50.33846],[-119.74035,50.33851],[-119.74056,50.33854],[-119.7408,50.33855],[-119.74105,50.33859],[-119.74119,50.33862],[-119.74143,50.33876],[-119.74185,50.33885],[-119.74223,50.33898],[-119.74247,50.33904],[-119.74262,50.33907],[-119.74278,50.33906],[-119.74299,50.33904],[-119.74328,50.339],[-119.74352,50.33897],[-119.74374,50.33893],[-119.74389,50.33893],[-119.74418,50.33893],[-119.74482,50.33891],[-119.74526,50.3389],[-119.74561,50.33891],[-119.74612,50.33883],[-119.74652,50.33871],[-119.747,50.33856],[-119.74742,50.33847],[-119.7479,50.33837],[-119.74831,50.33828],[-119.7486,50.3382],[-119.74863,50.33819],[-119.74908,50.33801],[-119.74932,50.3379],[-119.74959,50.33776],[-119.75,50.33756],[-119.75044,50.33732],[-119.75058,50.33721],[-119.75089,50.33694],[-119.75131,50.33678],[-119.75162,50.33658],[-119.75181,50.33642],[-119.75201,50.33621],[-119.75226,50.33604],[-119.7526,50.33583],[-119.75288,50.33563],[-119.75304,50.3355],[-119.75322,50.33525],[-119.75348,50.33508],[-119.75376,50.33486],[-119.75406,50.33473],[-119.75427,50.3345],[-119.7544,50.33429],[-119.75447,50.33414],[-119.75471,50.3339],[-119.75495,50.33369],[-119.75526,50.33343],[-119.75549,50.33326],[-119.75571,50.33309],[-119.75574,50.333],[-119.75567,50.33282],[-119.75565,50.33257],[-119.75561,50.33241],[-119.75562,50.33226],[-119.75567,50.33212],[-119.75567,50.33194],[-119.75574,50.33179],[-119.75575,50.33168],[-119.7557,50.33159],[-119.75565,50.33155],[-119.7555,50.33152],[-119.7552,50.33149],[-119.7549,50.33148],[-119.75461,50.3315],[-119.7544,50.3315],[-119.75418,50.33148],[-119.75399,50.33144],[-119.75371,50.33138],[-119.75344,50.33132],[-119.75315,50.3313],[-119.75291,50.33126],[-119.75261,50.33119],[-119.75242,50.33111],[-119.75233,50.33106],[-119.75212,50.33105],[-119.75185,50.33107],[-119.75157,50.331],[-119.7513,50.33095],[-119.75122,50.3309],[-119.75119,50.33084],[-119.75123,50.33075],[-119.75126,50.33069],[-119.75135,50.33063],[-119.75148,50.33058],[-119.7516,50.33046],[-119.75162,50.33031],[-119.75157,50.33025],[-119.75145,50.33019],[-119.75128,50.33009],[-119.75103,50.32997],[-119.7509,50.32983],[-119.75082,50.32963],[-119.75075,50.32951],[-119.75067,50.32945],[-119.75047,50.32939],[-119.75024,50.32937],[-119.7499,50.32926],[-119.74958,50.32923],[-119.74926,50.32919],[-119.74884,50.32909],[-119.74836,50.32912],[-119.74794,50.32908],[-119.74768,50.329],[-119.74758,50.3289],[-119.74733,50.3287],[-119.74705,50.32852],[-119.74669,50.32834],[-119.74639,50.32823],[-119.74609,50.32821],[-119.74539,50.3283],[-119.74501,50.32833],[-119.74472,50.32836],[-119.74441,50.32833],[-119.74399,50.32829],[-119.74366,50.3283],[-119.74318,50.32832],[-119.74255,50.32834],[-119.7421,50.32826],[-119.7416,50.32813],[-119.7413,50.32811],[-119.74101,50.32816],[-119.74062,50.32827],[-119.74048,50.32828],[-119.74024,50.32825],[-119.74005,50.32817],[-119.73989,50.32806],[-119.73979,50.32804],[-119.73965,50.32805],[-119.73944,50.32798],[-119.73918,50.32795],[-119.73887,50.32801],[-119.73862,50.32807],[-119.73832,50.32808],[-119.73792,50.32804],[-119.73759,50.32801],[-119.7372,50.32796],[-119.73691,50.32801],[-119.73672,50.32807],[-119.73659,50.32815],[-119.73646,50.32832],[-119.73634,50.32847],[-119.73625,50.32862],[-119.73627,50.3288],[-119.73631,50.32899],[-119.73622,50.32918],[-119.7363,50.32934],[-119.73633,50.32952],[-119.7364,50.32967],[-119.7364,50.32982],[-119.73637,50.32995],[-119.73631,50.3301],[-119.73628,50.33035],[-119.73617,50.33056],[-119.73614,50.3307],[-119.73614,50.33083],[-119.7362,50.33099],[-119.73632,50.33119],[-119.73648,50.33135],[-119.73663,50.33156],[-119.73677,50.33169],[-119.73706,50.33185],[-119.73722,50.33193],[-119.73746,50.33211],[-119.73772,50.33233],[-119.73809,50.33265],[-119.73835,50.33289],[-119.73839,50.33296],[-119.73856,50.3332],[-119.73868,50.33337],[-119.73867,50.33338],[-119.73867,50.33341],[-119.7388,50.33356],[-119.73888,50.3337],[-119.73902,50.33388],[-119.73907,50.33396],[-119.73907,50.33407],[-119.73905,50.33438],[-119.73903,50.33455],[-119.739,50.33473],[-119.73903,50.33493],[-119.73901,50.33511],[-119.739,50.33531],[-119.73897,50.33548],[-119.73896,50.33558],[-119.73892,50.33567],[-119.73881,50.33581],[-119.73875,50.33594],[-119.73863,50.33607],[-119.73855,50.33616],[-119.73842,50.33625],[-119.73822,50.33631],[-119.73807,50.33635],[-119.73802,50.33643],[-119.7379,50.33649],[-119.73782,50.3366],[-119.73773,50.33667],[-119.73756,50.33671],[-119.73741,50.33677],[-119.73722,50.33686],[-119.73717,50.33693],[-119.73709,50.33698],[-119.73695,50.33702],[-119.7368,50.33707],[-119.7366,50.33717],[-119.73644,50.33728],[-119.73638,50.33733],[-119.73621,50.3374],[-119.73598,50.33752],[-119.73583,50.33756],[-119.73574,50.33757],[-119.7356,50.33766],[-119.7355,50.33776],[-119.73536,50.33782],[-119.73524,50.33787],[-119.73513,50.33793],[-119.73491,50.33802],[-119.73478,50.33804],[-119.73469,50.33812],[-119.73458,50.33822],[-119.73453,50.33831],[-119.73426,50.33848],[-119.73414,50.33855],[-119.73398,50.33864],[-119.73391,50.3387],[-119.73377,50.33886],[-119.7337,50.33892],[-119.73357,50.33902],[-119.73349,50.33911],[-119.73335,50.33919],[-119.73307,50.3393],[-119.73274,50.3394]]}},
{"type":"Feature","properties":{"spotId":"A-grouse-walk-0116","kind":"roadside","km":4.55,"climbM":362,"name":"1.3 km SW of Tuktakamin Mountain","flags":[]},"geometry":{"type":"LineString","coordinates":[[-119.59672,50.45865],[-119.59674,50.45883],[-119.59683,50.45892],[-119.59677,50.45906],[-119.59669,50.45914],[-119.59641,50.45922],[-119.59627,50.45931],[-119.59616,50.45947],[-119.59599,50.45949],[-119.59593,50.45941],[-119.59593,50.45931],[-119.59569,50.45922],[-119.59555,50.4593],[-119.59537,50.45928],[-119.59533,50.45932],[-119.59544,50.45939],[-119.59545,50.45948],[-119.59554,50.45957],[-119.59544,50.45967],[-119.59523,50.45971],[-119.59509,50.45965],[-119.5949,50.45968],[-119.59466,50.45967],[-119.59456,50.45964],[-119.59424,50.45965],[-119.59422,50.45968],[-119.5943,50.45971],[-119.59435,50.45983],[-119.59418,50.45989],[-119.59412,50.45989],[-119.59415,50.45996],[-119.59404,50.46005],[-119.59423,50.46013],[-119.59427,50.46018],[-119.59422,50.46027],[-119.59408,50.46037],[-119.59406,50.46044],[-119.59398,50.46045],[-119.59399,50.46077],[-119.59389,50.46096],[-119.59392,50.461],[-119.59385,50.46101],[-119.59381,50.46107],[-119.59389,50.46125],[-119.59372,50.46144],[-119.59372,50.46162],[-119.5935,50.46176],[-119.59355,50.46188],[-119.59331,50.46217],[-119.5932,50.46223],[-119.59311,50.46243],[-119.59301,50.4625],[-119.593,50.46263],[-119.59273,50.46282],[-119.59269,50.46289],[-119.59264,50.46287],[-119.59258,50.46291],[-119.59248,50.46304],[-119.59233,50.46307],[-119.59221,50.46303],[-119.5921,50.46304],[-119.59165,50.46315],[-119.59154,50.4632],[-119.59122,50.46322],[-119.59108,50.46316],[-119.59092,50.46318],[-119.5907,50.4631],[-119.59053,50.46316],[-119.59029,50.4632],[-119.58996,50.46338],[-119.58982,50.46365],[-119.58963,50.46384],[-119.58961,50.46393],[-119.58948,50.46405],[-119.58933,50.4641],[-119.58924,50.46421],[-119.58907,50.46424],[-119.5889,50.46439],[-119.58861,50.46454],[-119.58846,50.4645],[-119.58834,50.46456],[-119.58819,50.46456],[-119.58812,50.46464],[-119.58785,50.46462],[-119.5877,50.46467],[-119.58761,50.46466],[-119.58748,50.46471],[-119.58743,50.46466],[-119.58735,50.46471],[-119.58712,50.46463],[-119.58706,50.46465],[-119.58695,50.4646],[-119.58683,50.4646],[-119.58659,50.46449],[-119.58645,50.4645],[-119.58635,50.46458],[-119.58622,50.46461],[-119.58614,50.46455],[-119.58615,50.46452],[-119.58595,50.46454],[-119.58576,50.46451],[-119.58575,50.46448],[-119.58564,50.46445],[-119.58565,50.46437],[-119.58551,50.46434],[-119.58531,50.46439],[-119.58499,50.46442],[-119.58481,50.46453],[-119.5846,50.46449],[-119.58442,50.46454],[-119.58426,50.46463],[-119.58414,50.46459],[-119.58385,50.46464],[-119.58375,50.46473],[-119.58364,50.46476],[-119.58338,50.46474],[-119.58324,50.46475],[-119.58304,50.4647],[-119.5826,50.46482],[-119.58219,50.4648],[-119.58209,50.46483],[-119.58206,50.46478],[-119.58221,50.46463],[-119.58218,50.46459],[-119.58223,50.46444],[-119.5822,50.46438],[-119.58206,50.4643],[-119.58202,50.46423],[-119.58174,50.46419],[-119.58155,50.46424],[-119.5812,50.46421],[-119.58102,50.46427],[-119.58098,50.46426],[-119.5812,50.46415],[-119.58131,50.4641],[-119.58146,50.46414],[-119.58173,50.4641],[-119.58203,50.46386],[-119.58209,50.46361],[-119.58232,50.4633],[-119.58225,50.46324],[-119.58228,50.46316],[-119.58222,50.46303],[-119.582,50.46292],[-119.58183,50.46291],[-119.58187,50.46276],[-119.58198,50.46265],[-119.582,50.46245],[-119.58211,50.46241],[-119.58203,50.46237],[-119.58204,50.46229],[-119.58214,50.46217],[-119.58221,50.46214],[-119.58201,50.46198],[-119.58216,50.46184],[-119.58234,50.46175],[-119.58247,50.46178],[-119.58263,50.46173],[-119.58281,50.46177],[-119.58289,50.46174],[-119.58297,50.46163],[-119.58297,50.46144],[-119.5828,50.46127],[-119.5828,50.46119],[-119.58275,50.46114],[-119.58269,50.46115],[-119.58273,50.4611],[-119.5827,50.46107],[-119.58284,50.46092],[-119.58295,50.4609],[-119.58304,50.46083],[-119.58316,50.46081],[-119.58333,50.46067],[-119.58342,50.46068],[-119.58352,50.4607],[-119.5836,50.46073],[-119.58374,50.46074],[-119.58383,50.4607],[-119.58391,50.46066],[-119.58406,50.4606],[-119.58411,50.4606],[-119.58419,50.46008],[-119.5843,50.45999],[-119.58444,50.45992],[-119.58449,50.45993],[-119.58452,50.45989],[-119.58462,50.45987],[-119.58476,50.45988],[-119.58485,50.4598],[-119.58497,50.45977],[-119.5853,50.45945],[-119.58528,50.45916],[-119.58539,50.45891],[-119.58538,50.45875],[-119.58532,50.45879],[-119.5853,50.45875],[-119.58536,50.45866],[-119.58535,50.45858],[-119.58544,50.45847],[-119.58553,50.45808],[-119.5855,50.45795],[-119.58571,50.45781],[-119.58571,50.45777],[-119.58584,50.45763],[-119.58575,50.45757],[-119.58567,50.45711],[-119.58583,50.45704],[-119.58596,50.45707],[-119.58612,50.45701],[-119.58628,50.45699],[-119.58647,50.45707],[-119.58651,50.45705],[-119.58643,50.45699],[-119.58632,50.45691],[-119.58648,50.4568],[-119.58658,50.45657],[-119.58672,50.45647],[-119.5868,50.45645],[-119.587,50.45647],[-119.58725,50.45644],[-119.58757,50.45645],[-119.58773,50.45646],[-119.58795,50.45653],[-119.58802,50.45651],[-119.58803,50.45653],[-119.58818,50.45653],[-119.58833,50.45653],[-119.58864,50.45643],[-119.58944,50.45647],[-119.5895,50.45645],[-119.58953,50.45633],[-119.58965,50.45628],[-119.59025,50.45629],[-119.59096,50.45624],[-119.59135,50.45613],[-119.59156,50.45617],[-119.59163,50.45629],[-119.59169,50.45626],[-119.59173,50.45619],[-119.59187,50.45616],[-119.59192,50.45613],[-119.59202,50.45589],[-119.59201,50.45568],[-119.5921,50.45555],[-119.59229,50.45546],[-119.59246,50.45544],[-119.5925,50.4554],[-119.59278,50.4554],[-119.59288,50.45532],[-119.59303,50.45528],[-119.59323,50.45526],[-119.59359,50.45537],[-119.59392,50.45537],[-119.59404,50.45541],[-119.5942,50.45537],[-119.59435,50.45545],[-119.59462,50.45553],[-119.59465,50.45559],[-119.59475,50.45561],[-119.59482,50.45557],[-119.59493,50.45558],[-119.5952,50.45566],[-119.59534,50.4558],[-119.59536,50.45588],[-119.59541,50.45587],[-119.59554,50.45591],[-119.59603,50.45587],[-119.59619,50.45602],[-119.59636,50.45603],[-119.59696,50.45613],[-119.59716,50.45613],[-119.5973,50.4562],[-119.59746,50.45621],[-119.59764,50.45619],[-119.598,50.45631],[-119.59831,50.4563],[-119.59849,50.45633],[-119.59878,50.45629],[-119.59934,50.45631],[-119.59968,50.45645],[-119.59986,50.45645],[-119.60003,50.45652],[-119.60024,50.45651],[-119.60039,50.45656],[-119.60055,50.45629],[-119.60076,50.45619],[-119.60096,50.45618],[-119.60137,50.45627],[-119.60153,50.45636],[-119.60168,50.4565],[-119.60171,50.45675],[-119.6016,50.45703],[-119.60128,50.4575],[-119.60122,50.45766],[-119.60125,50.45786],[-119.60121,50.458]]}},
{"type":"Feature","properties":{"spotId":"A-moose-atv-0072","kind":"ride","km":2.34,"climbM":4,"name":"1.1 km SE of Hailstone, Mount","flags":[]},"geometry":{"type":"LineString","coordinates":[[-119.57445,50.33938],[-119.5745,50.33942],[-119.57456,50.3395],[-119.57464,50.33966],[-119.57473,50.33979],[-119.57482,50.33993],[-119.57487,50.34008],[-119.57492,50.34022],[-119.57501,50.34034],[-119.57512,50.34049],[-119.57519,50.34063],[-119.57527,50.34076],[-119.57533,50.34083],[-119.57546,50.34095],[-119.57558,50.34107],[-119.5756,50.34112],[-119.57564,50.34126],[-119.57564,50.3414],[-119.57565,50.34155],[-119.57563,50.34174],[-119.57553,50.34192],[-119.57546,50.34209],[-119.5754,50.34226],[-119.57536,50.34244],[-119.57533,50.34261],[-119.57527,50.34278],[-119.57524,50.34298],[-119.57523,50.34316],[-119.57537,50.34332],[-119.57557,50.34344],[-119.5758,50.34351],[-119.57606,50.34357],[-119.5763,50.34365],[-119.57645,50.34379],[-119.57649,50.34379],[-119.57648,50.34382],[-119.5764,50.34398],[-119.57636,50.34402],[-119.57633,50.3442],[-119.57633,50.34421],[-119.57631,50.34437],[-119.57627,50.34442],[-119.57626,50.34446],[-119.57622,50.34452],[-119.57617,50.34469],[-119.5761,50.34485],[-119.57602,50.34502],[-119.57597,50.34512],[-119.57587,50.34529],[-119.57583,50.34533],[-119.5757,50.34549],[-119.57566,50.34555],[-119.57552,50.34569],[-119.57543,50.34585],[-119.57535,50.34603],[-119.5753,50.34614],[-119.57526,50.34625],[-119.57525,50.34641],[-119.57525,50.3466],[-119.5753,50.34674],[-119.57535,50.34691],[-119.57542,50.34708],[-119.57545,50.34725],[-119.57546,50.34743],[-119.57552,50.3476],[-119.57559,50.34777],[-119.57567,50.34794],[-119.57568,50.34802],[-119.5757,50.34811],[-119.57579,50.34819],[-119.57591,50.34833],[-119.57601,50.34845],[-119.57619,50.34862],[-119.57638,50.34882],[-119.57656,50.34901],[-119.57657,50.34908],[-119.57613,50.34936],[-119.57612,50.34939],[-119.57601,50.34949],[-119.57596,50.34954],[-119.57577,50.3497],[-119.57569,50.34979],[-119.57558,50.3499],[-119.57544,50.35008],[-119.57533,50.3502],[-119.57519,50.35042],[-119.57511,50.35053],[-119.5751,50.35058],[-119.57512,50.35073],[-119.57523,50.35089],[-119.57523,50.35096],[-119.57524,50.35107],[-119.57524,50.35114],[-119.57526,50.35119],[-119.57537,50.3514],[-119.57516,50.35142],[-119.57499,50.35148],[-119.57486,50.35155],[-119.57471,50.35165],[-119.5746,50.35194],[-119.57453,50.35204],[-119.5746,50.3522],[-119.57462,50.35227],[-119.57465,50.35238],[-119.57467,50.35251],[-119.57466,50.3526],[-119.57467,50.35272],[-119.57465,50.35284],[-119.57469,50.35295],[-119.57476,50.35313],[-119.57478,50.3532],[-119.57481,50.35332],[-119.57486,50.35346],[-119.57488,50.35357],[-119.57487,50.35366],[-119.57485,50.35375],[-119.5748,50.35383],[-119.57469,50.35396],[-119.5746,50.35406],[-119.57451,50.35413],[-119.57444,50.3542],[-119.57437,50.35427],[-119.57422,50.3544],[-119.57408,50.35455],[-119.57403,50.35462],[-119.57396,50.35472],[-119.57394,50.35478],[-119.57393,50.35485],[-119.57389,50.35498],[-119.57382,50.35506],[-119.57367,50.35514],[-119.57349,50.3552],[-119.57338,50.35524],[-119.57312,50.35533],[-119.57293,50.35539],[-119.57272,50.35548],[-119.57253,50.35558],[-119.57246,50.35561],[-119.57235,50.35565],[-119.57225,50.35567],[-119.57206,50.35574],[-119.5719,50.3558],[-119.57172,50.35588],[-119.5715,50.35596],[-119.57132,50.35605],[-119.57111,50.35616],[-119.57103,50.35621],[-119.571,50.35622],[-119.57085,50.3564],[-119.57085,50.35641],[-119.57085,50.35647],[-119.57085,50.35655],[-119.57084,50.35663],[-119.57086,50.35673],[-119.57091,50.35684],[-119.57093,50.35694],[-119.57104,50.35712],[-119.57105,50.35725],[-119.57106,50.35733],[-119.57122,50.35759]]}},
{"type":"Feature","properties":{"spotId":"A-moose-atv-0072","kind":"walk","km":0.12,"climbM":1,"name":"1.1 km SE of Hailstone, Mount","flags":[]},"geometry":{"type":"LineString","coordinates":[[-119.57445,50.33938],[-119.57578,50.33875]]}}
]}
