{"type":"FeatureCollection","features":[
{"type":"Feature","properties":{"spotId":"A-deer-atv-0130","kind":"ride","km":2.08,"climbM":23,"name":"630 m E of Louis Creek","flags":["Route crosses private land (ParcelMap BC, updated 2026-09-25): get permission first or go around."]},"geometry":{"type":"LineString","coordinates":[[-119.97905,50.88583],[-119.97906,50.88573],[-119.97902,50.88561],[-119.97899,50.88552],[-119.97892,50.88542],[-119.97886,50.88532],[-119.97877,50.88522],[-119.97869,50.88511],[-119.97863,50.885],[-119.97858,50.88492],[-119.97854,50.88484],[-119.97851,50.88475],[-119.97848,50.88467],[-119.97844,50.88459],[-119.97841,50.88452],[-119.97834,50.88447],[-119.97822,50.88444],[-119.97803,50.8844],[-119.97794,50.88436],[-119.97786,50.8843],[-119.97774,50.88423],[-119.97778,50.88416],[-119.97788,50.88406],[-119.97789,50.88401],[-119.97805,50.88394],[-119.97817,50.88394],[-119.97831,50.88391],[-119.97844,50.88388],[-119.97856,50.88383],[-119.97868,50.88378],[-119.97877,50.88372],[-119.97887,50.88365],[-119.97893,50.88359],[-119.97899,50.88353],[-119.97903,50.88347],[-119.97906,50.88342],[-119.97912,50.88336],[-119.97917,50.88331],[-119.97924,50.88325],[-119.97933,50.8832],[-119.97943,50.88313],[-119.97954,50.88306],[-119.97965,50.883],[-119.97976,50.88294],[-119.9799,50.88289],[-119.98004,50.88284],[-119.98015,50.88282],[-119.98026,50.88279],[-119.98037,50.88269],[-119.98048,50.88259],[-119.98057,50.88253],[-119.98067,50.88246],[-119.98075,50.88238],[-119.98079,50.88231],[-119.98084,50.88223],[-119.98085,50.88216],[-119.98084,50.88209],[-119.98085,50.88202],[-119.98086,50.88196],[-119.98089,50.88189],[-119.9809,50.88183],[-119.98091,50.88174],[-119.98093,50.88163],[-119.98097,50.88158],[-119.98099,50.88153],[-119.98106,50.88143],[-119.98121,50.8814],[-119.98133,50.88142],[-119.98144,50.88147],[-119.98156,50.88154],[-119.98169,50.88159],[-119.98185,50.88163],[-119.98199,50.88165],[-119.98214,50.88167],[-119.98229,50.88166],[-119.98242,50.88166],[-119.98253,50.88162],[-119.98261,50.88156],[-119.98265,50.88149],[-119.98269,50.88143],[-119.98273,50.88136],[-119.98277,50.88131],[-119.98294,50.88125],[-119.98305,50.88126],[-119.98315,50.88125],[-119.98328,50.88124],[-119.98339,50.88123],[-119.9835,50.88124],[-119.98362,50.88126],[-119.98366,50.88128],[-119.98374,50.88132],[-119.98384,50.88139],[-119.98392,50.88148],[-119.98399,50.88157],[-119.98409,50.88167],[-119.98418,50.88176],[-119.98427,50.88186],[-119.98436,50.88196],[-119.98456,50.88219],[-119.98462,50.88227],[-119.98467,50.88238],[-119.98471,50.88247],[-119.98473,50.88257],[-119.98476,50.88267],[-119.98478,50.88276],[-119.98478,50.88277],[-119.98483,50.88287],[-119.98488,50.88297],[-119.9849,50.88308],[-119.98492,50.88318],[-119.98493,50.88323],[-119.98494,50.88329],[-119.98495,50.88335],[-119.98495,50.88342],[-119.98494,50.88349],[-119.98493,50.88353],[-119.98493,50.88356],[-119.98494,50.88366],[-119.98494,50.88374],[-119.98498,50.88382],[-119.98501,50.8839],[-119.98507,50.88397],[-119.98516,50.88403],[-119.98526,50.88408],[-119.98538,50.88412],[-119.98551,50.88415],[-119.98565,50.88419],[-119.98579,50.88423],[-119.98592,50.88427],[-119.98605,50.88433],[-119.98619,50.88438],[-119.98634,50.88441],[-119.98648,50.88444],[-119.9866,50.88449],[-119.98667,50.88454],[-119.98675,50.88459],[-119.98678,50.88466],[-119.98681,50.88474],[-119.98685,50.88483],[-119.9869,50.88493],[-119.98696,50.885],[-119.98701,50.88508],[-119.98705,50.88517],[-119.98708,50.88527],[-119.9871,50.88536],[-119.9871,50.88543],[-119.98713,50.88548],[-119.98716,50.88554],[-119.98721,50.88562],[-119.98727,50.88568],[-119.98735,50.88574],[-119.98741,50.8858],[-119.98748,50.88586],[-119.98756,50.88592],[-119.98765,50.88598],[-119.98775,50.88603],[-119.98787,50.88607],[-119.98798,50.88615],[-119.988,50.88623],[-119.98805,50.8863],[-119.98811,50.88636],[-119.98826,50.88642],[-119.98832,50.88653],[-119.98831,50.88661],[-119.98833,50.88668],[-119.98835,50.88671],[-119.98843,50.88696],[-119.98856,50.88697],[-119.98868,50.887],[-119.98882,50.88703],[-119.98892,50.88704],[-119.98902,50.88706],[-119.98911,50.88707],[-119.98923,50.88709],[-119.98925,50.88709],[-119.98935,50.8871],[-119.9895,50.88711],[-119.98958,50.88712],[-119.98974,50.88713],[-119.9899,50.88715],[-119.98998,50.88716],[-119.99011,50.8872],[-119.99023,50.88723],[-119.99036,50.88727],[-119.99048,50.88732],[-119.99058,50.88738],[-119.99067,50.88743],[-119.99079,50.88747],[-119.99089,50.88748],[-119.991,50.88746],[-119.99112,50.88743],[-119.99122,50.88741],[-119.99132,50.8874],[-119.99142,50.88738],[-119.99153,50.88739],[-119.99165,50.88739],[-119.99176,50.88739],[-119.99188,50.88743],[-119.99198,50.88747],[-119.99207,50.8875],[-119.99218,50.88753],[-119.99227,50.88757],[-119.99237,50.8876],[-119.99245,50.88766],[-119.99248,50.88768],[-119.99252,50.88772],[-119.9926,50.88778],[-119.99267,50.88783],[-119.99275,50.88789],[-119.99285,50.88793],[-119.99294,50.88797],[-119.99305,50.88802],[-119.99317,50.88803],[-119.99328,50.88804],[-119.99339,50.88803],[-119.99355,50.888],[-119.99369,50.88799],[-119.99382,50.88798],[-119.99392,50.88795],[-119.99401,50.88792],[-119.99411,50.88789],[-119.99422,50.88784],[-119.9943,50.8878],[-119.99436,50.88777],[-119.99443,50.88775]]}},
{"type":"Feature","properties":{"spotId":"A-deer-atv-0130","kind":"walk","km":0.23,"climbM":0,"name":"630 m E of Louis Creek","flags":["Route crosses private land (ParcelMap BC, updated 2026-09-25): get permission first or go around."]},"geometry":{"type":"LineString","coordinates":[[-119.97905,50.88583],[-119.98234,50.88592]]}},
{"type":"Feature","properties":{"spotId":"A-deer-drive-0147","kind":"walk","km":0.11,"climbM":36,"name":"360 m NW of Christian Creek","flags":[]},"geometry":{"type":"LineString","coordinates":[[-119.98293,50.84741],[-119.98429,50.84797]]}},
{"type":"Feature","properties":{"spotId":"A-deer-walk-0182","kind":"walk","km":0.53,"climbM":171,"name":"590 m SE of Christian Creek","flags":["Route crosses private land (ParcelMap BC, updated 2026-09-25): get permission first or go around."]},"geometry":{"type":"LineString","coordinates":[[-119.9731,50.84694],[-119.97398,50.8422]]}},
{"type":"Feature","properties":{"spotId":"A-duck-drive-0046","kind":"walk","km":0.14,"climbM":0,"name":"Eileen Lake","flags":[]},"geometry":{"type":"LineString","coordinates":[[-119.9142,50.79018],[-119.91276,50.79104]]}},
{"type":"Feature","properties":{"spotId":"A-duck-drive-0129","kind":"walk","km":0.05,"climbM":0,"name":"Unnamed lake 1.8 km SE of Rhoda Lake","flags":[]},"geometry":{"type":"LineString","coordinates":[[-119.91238,50.76558],[-119.91181,50.76528]]}},
{"type":"Feature","properties":{"spotId":"A-duck-walk-0033","kind":"walk","km":0.42,"climbM":6,"name":"Unnamed wetland 700 m SW of Skmana Creek","flags":[]},"geometry":{"type":"LineString","coordinates":[[-119.76397,50.86687],[-119.76145,50.87032]]}},
{"type":"Feature","properties":{"spotId":"A-grouse-atv-0039","kind":"ride","km":6.68,"climbM":353,"name":"By Bush Creek","flags":[]},"geometry":{"type":"LineString","coordinates":[[-119.75037,50.99187],[-119.7504,50.99186],[-119.75047,50.99184],[-119.75056,50.9918],[-119.75071,50.99172],[-119.75084,50.99164],[-119.75093,50.99161],[-119.75102,50.99156],[-119.75112,50.99151],[-119.75122,50.99146],[-119.75131,50.99141],[-119.75141,50.99134],[-119.75152,50.99129],[-119.75162,50.99122],[-119.75171,50.99115],[-119.75179,50.99107],[-119.75189,50.99099],[-119.752,50.9909],[-119.75213,50.99081],[-119.75227,50.99073],[-119.75241,50.99064],[-119.75255,50.99055],[-119.7527,50.99049],[-119.75285,50.99042],[-119.75303,50.99036],[-119.7532,50.9903],[-119.75337,50.99024],[-119.75354,50.9902],[-119.75369,50.99017],[-119.75382,50.99014],[-119.75393,50.9901],[-119.75428,50.99005],[-119.75447,50.99002],[-119.75464,50.99],[-119.75481,50.98999],[-119.75498,50.98999],[-119.75518,50.98999],[-119.75541,50.98999],[-119.75559,50.98999],[-119.75575,50.99001],[-119.75591,50.99002],[-119.75605,50.99003],[-119.75618,50.99004],[-119.75638,50.99006],[-119.75649,50.99005],[-119.75658,50.99005],[-119.75678,50.99006],[-119.75695,50.99006],[-119.75712,50.99006],[-119.75731,50.99006],[-119.75753,50.99006],[-119.75776,50.99004],[-119.75796,50.99004],[-119.75807,50.99003],[-119.75816,50.99003],[-119.75834,50.99002],[-119.75856,50.99002],[-119.75881,50.99003],[-119.75904,50.99002],[-119.75924,50.99003],[-119.75944,50.99002],[-119.75965,50.99002],[-119.75978,50.99001],[-119.75988,50.99],[-119.76011,50.98998],[-119.76031,50.98995],[-119.76049,50.98992],[-119.76067,50.98987],[-119.76087,50.98982],[-119.76101,50.98979],[-119.7614,50.98969],[-119.76157,50.98965],[-119.76171,50.98961],[-119.76185,50.98959],[-119.76198,50.98958],[-119.76209,50.98956],[-119.7622,50.98952],[-119.7623,50.98945],[-119.7624,50.98937],[-119.76249,50.98928],[-119.76257,50.98919],[-119.76264,50.9891],[-119.7627,50.98901],[-119.76277,50.98892],[-119.76282,50.98884],[-119.76287,50.98877],[-119.7629,50.9887],[-119.76295,50.9886],[-119.76299,50.98851],[-119.76302,50.98841],[-119.76305,50.98832],[-119.76308,50.98823],[-119.76312,50.98812],[-119.76317,50.98803],[-119.76324,50.98793],[-119.76329,50.98783],[-119.76337,50.98774],[-119.76345,50.98765],[-119.76357,50.98757],[-119.7637,50.98749],[-119.76381,50.98741],[-119.76392,50.98734],[-119.76401,50.98726],[-119.76412,50.98721],[-119.76425,50.98714],[-119.76437,50.98708],[-119.76451,50.98702],[-119.76462,50.98697],[-119.7648,50.98687],[-119.76487,50.98681],[-119.76492,50.98674],[-119.76496,50.98666],[-119.76497,50.98657],[-119.76498,50.9865],[-119.765,50.98643],[-119.76503,50.98636],[-119.76513,50.98626],[-119.76523,50.98616],[-119.76528,50.98611],[-119.76531,50.98604],[-119.76532,50.98595],[-119.76533,50.98588],[-119.76534,50.9858],[-119.76536,50.98573],[-119.76541,50.98566],[-119.76551,50.98563],[-119.76562,50.98561],[-119.76574,50.98558],[-119.76586,50.98558],[-119.76596,50.98559],[-119.76615,50.98563],[-119.76625,50.98565],[-119.76634,50.98568],[-119.76646,50.98571],[-119.76659,50.98574],[-119.76675,50.9858],[-119.7669,50.98584],[-119.76705,50.98587],[-119.76718,50.98591],[-119.76731,50.98594],[-119.76744,50.98597],[-119.76757,50.986],[-119.76771,50.98603],[-119.76787,50.98607],[-119.76805,50.9861],[-119.7682,50.98611],[-119.76836,50.98613],[-119.7685,50.98614],[-119.76866,50.98615],[-119.76882,50.98615],[-119.769,50.98616],[-119.76919,50.98615],[-119.76936,50.98616],[-119.76953,50.98615],[-119.76969,50.98615],[-119.76986,50.98614],[-119.77003,50.98612],[-119.77014,50.98611],[-119.77021,50.9861],[-119.77041,50.98609],[-119.77058,50.98607],[-119.77074,50.98605],[-119.77086,50.98603],[-119.771,50.98601],[-119.77115,50.98599],[-119.77129,50.98596],[-119.77143,50.98591],[-119.77155,50.98586],[-119.77166,50.9858],[-119.77188,50.98566],[-119.77199,50.98559],[-119.7721,50.98553],[-119.77223,50.98547],[-119.77235,50.9854],[-119.77248,50.98535],[-119.77261,50.98529],[-119.77274,50.98523],[-119.77288,50.98518],[-119.77303,50.98515],[-119.77318,50.98512],[-119.77332,50.98511],[-119.77349,50.9851],[-119.77366,50.98508],[-119.7738,50.98505],[-119.77394,50.98501],[-119.77406,50.98497],[-119.77418,50.98493],[-119.77426,50.9849],[-119.77434,50.98489],[-119.77446,50.98489],[-119.77454,50.98487],[-119.77467,50.98487],[-119.77483,50.98488],[-119.77499,50.98489],[-119.77516,50.98491],[-119.7753,50.98494],[-119.77543,50.98496],[-119.77558,50.98499],[-119.77569,50.98502],[-119.7758,50.98502],[-119.77593,50.98499],[-119.77606,50.98497],[-119.77621,50.98495],[-119.77637,50.98495],[-119.77651,50.98496],[-119.77667,50.98498],[-119.77683,50.98499],[-119.77697,50.98502],[-119.77713,50.98505],[-119.7773,50.98507],[-119.77745,50.98509],[-119.77759,50.98509],[-119.77772,50.98508],[-119.77784,50.98506],[-119.77796,50.98503],[-119.77808,50.985],[-119.77823,50.985],[-119.77834,50.98502],[-119.77846,50.98506],[-119.77861,50.98515],[-119.77871,50.9852],[-119.77883,50.98526],[-119.77893,50.98529],[-119.77904,50.98534],[-119.77919,50.98538],[-119.77933,50.98543],[-119.77949,50.98547],[-119.77965,50.98553],[-119.77979,50.98559],[-119.77992,50.98564],[-119.78005,50.98568],[-119.78021,50.98572],[-119.78041,50.98574],[-119.78064,50.98576],[-119.78085,50.98576],[-119.78105,50.98576],[-119.78123,50.98575],[-119.78145,50.98575],[-119.78166,50.98574],[-119.78179,50.98574],[-119.78189,50.98574],[-119.78209,50.98573],[-119.78227,50.98572],[-119.78246,50.98571],[-119.78266,50.98569],[-119.78287,50.98568],[-119.78305,50.98566],[-119.78319,50.98563],[-119.78332,50.98561],[-119.78343,50.98561],[-119.78352,50.98561],[-119.78366,50.9856],[-119.78381,50.98562],[-119.78396,50.98563],[-119.78412,50.98566],[-119.78427,50.98571],[-119.78438,50.98568],[-119.78449,50.98568],[-119.78464,50.98568],[-119.78478,50.98569],[-119.78491,50.9857],[-119.78499,50.98571],[-119.78508,50.98572],[-119.78517,50.98572],[-119.78529,50.98573],[-119.78545,50.98573],[-119.78559,50.98574],[-119.78572,50.98574],[-119.78582,50.98573],[-119.78599,50.98574],[-119.78612,50.98574],[-119.78625,50.98574],[-119.78635,50.98575],[-119.78651,50.98575],[-119.78666,50.98577],[-119.78681,50.98577],[-119.78692,50.98577],[-119.78703,50.98577],[-119.78712,50.98577],[-119.78725,50.98577],[-119.78735,50.98578],[-119.78748,50.98578],[-119.78764,50.9858],[-119.78779,50.98581],[-119.78796,50.98583],[-119.78811,50.98583],[-119.78824,50.98583],[-119.78838,50.98583],[-119.78852,50.98583],[-119.78869,50.98582],[-119.78888,50.98581],[-119.78906,50.9858],[-119.78923,50.98579],[-119.78937,50.98577],[-119.78953,50.98574],[-119.78968,50.98572],[-119.78984,50.9857],[-119.79002,50.9857],[-119.79018,50.9857],[-119.79034,50.98571],[-119.79048,50.98571],[-119.79061,50.98572],[-119.79072,50.98573],[-119.79082,50.98575],[-119.79093,50.98576],[-119.79105,50.98578],[-119.79116,50.9858],[-119.79133,50.98585],[-119.7915,50.9859],[-119.79162,50.98593],[-119.79172,50.98602],[-119.79186,50.9861],[-119.7919,50.98615],[-119.79194,50.98621],[-119.79197,50.98627],[-119.792,50.98634],[-119.79205,50.98642],[-119.79209,50.98648],[-119.79216,50.98655],[-119.79223,50.98661],[-119.7923,50.98667],[-119.79241,50.98671],[-119.79252,50.98675],[-119.79263,50.98679],[-119.79273,50.98682],[-119.79281,50.98684],[-119.7929,50.98686],[-119.793,50.98688],[-119.79309,50.9869],[-119.79322,50.98692],[-119.79338,50.98695],[-119.79352,50.98697],[-119.79363,50.98699],[-119.79375,50.98701],[-119.79387,50.98705],[-119.79397,50.98709],[-119.79407,50.98713],[-119.79416,50.98717],[-119.79425,50.9872],[-119.79435,50.98724],[-119.79454,50.9873],[-119.79455,50.98731],[-119.7946,50.98736],[-119.7946,50.98741],[-119.79459,50.98749],[-119.79458,50.98755],[-119.79458,50.98758],[-119.79457,50.98761],[-119.7946,50.9877],[-119.79471,50.98772],[-119.79485,50.98774],[-119.79498,50.98773],[-119.7951,50.98772],[-119.7952,50.98771],[-119.79529,50.9877],[-119.7954,50.98769],[-119.79556,50.98768],[-119.79571,50.98766],[-119.79587,50.98765],[-119.79598,50.98763],[-119.79608,50.98763],[-119.79618,50.98762],[-119.79629,50.98761],[-119.79641,50.98758],[-119.79655,50.98756],[-119.79673,50.98754],[-119.7969,50.98751],[-119.79704,50.98749],[-119.79717,50.98748],[-119.79728,50.98746],[-119.79742,50.98744],[-119.79755,50.98743],[-119.79769,50.9874],[-119.79788,50.98735],[-119.79806,50.98731],[-119.79821,50.98726],[-119.79834,50.98722],[-119.79848,50.98718],[-119.79859,50.98717],[-119.79873,50.98717],[-119.79888,50.98717],[-119.79905,50.98717],[-119.79922,50.98718],[-119.79938,50.9872],[-119.79953,50.98721],[-119.79966,50.98723],[-119.79981,50.98722],[-119.79996,50.98723],[-119.80001,50.98723],[-119.80015,50.98723],[-119.80032,50.98723],[-119.80049,50.98724],[-119.80065,50.98727],[-119.80081,50.98728],[-119.80095,50.98731],[-119.80112,50.98733],[-119.8013,50.98736],[-119.80148,50.98739],[-119.80166,50.98743],[-119.8018,50.98748],[-119.80193,50.98754],[-119.80208,50.9876],[-119.80223,50.98766],[-119.80237,50.98772],[-119.80252,50.98778],[-119.80266,50.98783],[-119.8028,50.98789],[-119.8029,50.98793],[-119.803,50.98799],[-119.8031,50.98804],[-119.80332,50.98813],[-119.80345,50.98818],[-119.8036,50.98823],[-119.80373,50.98829],[-119.80386,50.98834],[-119.80394,50.98837],[-119.80399,50.98839],[-119.80411,50.98845],[-119.80423,50.9885],[-119.80435,50.98856],[-119.80448,50.98862],[-119.80465,50.98868],[-119.80484,50.98874],[-119.80497,50.98877],[-119.80518,50.98883],[-119.80535,50.98887],[-119.80551,50.98892],[-119.80567,50.98896],[-119.8057,50.98897],[-119.80591,50.989],[-119.80611,50.98903],[-119.80629,50.98904],[-119.80646,50.98904],[-119.80663,50.98906],[-119.80676,50.98908],[-119.80693,50.98911],[-119.8071,50.98915],[-119.80728,50.98917],[-119.80743,50.98917],[-119.80758,50.98917],[-119.80769,50.98917],[-119.80779,50.98916],[-119.80787,50.98916],[-119.80802,50.98914],[-119.80818,50.9891],[-119.80834,50.98903],[-119.80848,50.98897],[-119.8086,50.98889],[-119.80872,50.98883],[-119.80881,50.98879],[-119.80882,50.98877],[-119.80893,50.98871],[-119.80901,50.98863],[-119.80909,50.98855],[-119.8092,50.98849],[-119.80931,50.98845],[-119.80943,50.98843],[-119.80952,50.9884],[-119.80962,50.98838],[-119.80972,50.98838],[-119.80989,50.98839],[-119.80998,50.98842],[-119.81007,50.98845],[-119.81014,50.9885],[-119.81022,50.98856],[-119.81035,50.98861],[-119.81049,50.98865],[-119.81064,50.98869],[-119.81077,50.98872],[-119.8109,50.98874],[-119.811,50.98875],[-119.81113,50.98877],[-119.81123,50.98877],[-119.8114,50.98875],[-119.81161,50.98871],[-119.81181,50.98866],[-119.81196,50.98861],[-119.81211,50.98855],[-119.8123,50.98851],[-119.81245,50.98849],[-119.81266,50.98845],[-119.81286,50.98841],[-119.81306,50.98835],[-119.81321,50.9883],[-119.81332,50.98827],[-119.81358,50.98823],[-119.81368,50.98823],[-119.81387,50.98821],[-119.81406,50.98818],[-119.8142,50.98814],[-119.81434,50.9881],[-119.81449,50.98804],[-119.81457,50.98802],[-119.81467,50.98797],[-119.81478,50.98792],[-119.81492,50.98787],[-119.81506,50.98783],[-119.81517,50.9878],[-119.81527,50.98779],[-119.81537,50.98775],[-119.81546,50.98774],[-119.81558,50.98774],[-119.81567,50.98771],[-119.81578,50.98766],[-119.81587,50.9876],[-119.81599,50.98755],[-119.81611,50.98749],[-119.81624,50.98744],[-119.81636,50.9874],[-119.81649,50.98738],[-119.8166,50.98737],[-119.81679,50.98737],[-119.81717,50.98736],[-119.81723,50.98736],[-119.81736,50.98738],[-119.8175,50.98739],[-119.81762,50.98741],[-119.81773,50.98741],[-119.81783,50.98741],[-119.81793,50.98741],[-119.81804,50.98743],[-119.81813,50.98748],[-119.81826,50.98753],[-119.81842,50.98757],[-119.81858,50.98762],[-119.81872,50.98769],[-119.81885,50.98775],[-119.81898,50.98781],[-119.81912,50.98785],[-119.81924,50.98789],[-119.81937,50.98794],[-119.8195,50.988],[-119.81964,50.98806],[-119.81975,50.98812],[-119.81986,50.98819],[-119.81998,50.98825],[-119.82006,50.98831],[-119.82017,50.98838],[-119.82023,50.98844],[-119.82029,50.98849],[-119.82034,50.98856],[-119.82034,50.98861],[-119.82033,50.98866],[-119.82036,50.98873],[-119.82044,50.9888],[-119.82055,50.98885],[-119.82067,50.9889],[-119.82077,50.98896],[-119.82086,50.98901],[-119.82092,50.98907],[-119.82097,50.98913],[-119.82106,50.98918],[-119.82116,50.98922],[-119.82126,50.98925],[-119.8214,50.98934],[-119.82146,50.9894],[-119.8215,50.98947],[-119.82155,50.98956],[-119.8216,50.98963],[-119.82166,50.9897],[-119.82175,50.98978],[-119.82186,50.98987],[-119.82199,50.98994],[-119.82211,50.99],[-119.82225,50.99005],[-119.82237,50.99009],[-119.8225,50.99012],[-119.82261,50.99016],[-119.82272,50.99021],[-119.82286,50.99025],[-119.82301,50.99031],[-119.82315,50.99037],[-119.82329,50.99044],[-119.82342,50.99051],[-119.82354,50.9906],[-119.82367,50.99067],[-119.82379,50.99073],[-119.82391,50.99079],[-119.82402,50.99085],[-119.82413,50.99091],[-119.82419,50.99097],[-119.82422,50.99103],[-119.82432,50.9911],[-119.82449,50.99118],[-119.82462,50.99125],[-119.82475,50.99132],[-119.8249,50.99139],[-119.82503,50.99145],[-119.8252,50.99151],[-119.82538,50.99156],[-119.82553,50.99163],[-119.82566,50.99172],[-119.82576,50.9918],[-119.82584,50.99187],[-119.82591,50.99194],[-119.82599,50.992],[-119.82606,50.99207],[-119.8262,50.99215],[-119.82636,50.99222],[-119.82655,50.99228],[-119.82669,50.99233],[-119.82685,50.99239],[-119.82699,50.99245],[-119.82712,50.99251],[-119.82722,50.99256],[-119.8274,50.99262],[-119.82754,50.99268],[-119.82769,50.99275],[-119.82781,50.99283],[-119.82791,50.99291],[-119.828,50.99298],[-119.82809,50.99305],[-119.82821,50.99313],[-119.82834,50.99321],[-119.82849,50.99329],[-119.82867,50.99335],[-119.82885,50.9934],[-119.82907,50.99345],[-119.82919,50.99348],[-119.82934,50.9935],[-119.82949,50.99352],[-119.82966,50.99357],[-119.82984,50.99364],[-119.83001,50.99372],[-119.83019,50.9938],[-119.83038,50.99388],[-119.83054,50.99396],[-119.8307,50.99402],[-119.83085,50.99408],[-119.83099,50.99414],[-119.83118,50.99421]]}},
{"type":"Feature","properties":{"spotId":"A-grouse-atv-0060","kind":"ride","km":3.38,"climbM":252,"name":"380 m S of McGillivray Creek","flags":["Route touches city limits: Sun Peaks Mountain Resort Municipality. Local firearm bylaw applies."]},"geometry":{"type":"LineString","coordinates":[[-119.95855,50.85884],[-119.95847,50.85883],[-119.95835,50.85883],[-119.95824,50.85884],[-119.95813,50.85887],[-119.95802,50.85892],[-119.95787,50.85901],[-119.95774,50.85904],[-119.9576,50.85908],[-119.95746,50.85912],[-119.95735,50.85916],[-119.95723,50.8592],[-119.95711,50.85925],[-119.95703,50.85931],[-119.95694,50.85938],[-119.95681,50.85943],[-119.9567,50.85947],[-119.95662,50.8595],[-119.95657,50.85957],[-119.9565,50.85962],[-119.95642,50.85969],[-119.95631,50.85975],[-119.95623,50.8598],[-119.95614,50.85986],[-119.95605,50.8599],[-119.95593,50.85992],[-119.95585,50.85996],[-119.95576,50.86001],[-119.95567,50.86007],[-119.95556,50.86011],[-119.95544,50.86014],[-119.95528,50.86017],[-119.95514,50.8602],[-119.955,50.86023],[-119.95486,50.86027],[-119.95474,50.86031],[-119.9546,50.86035],[-119.95449,50.8604],[-119.95439,50.86047],[-119.95427,50.86053],[-119.95411,50.86058],[-119.95397,50.86062],[-119.95386,50.86063],[-119.95376,50.86063],[-119.95364,50.86067],[-119.95352,50.86069],[-119.9534,50.86071],[-119.95326,50.86072],[-119.95311,50.86073],[-119.95297,50.86075],[-119.95283,50.86078],[-119.95272,50.86083],[-119.9526,50.86088],[-119.95247,50.86093],[-119.95235,50.86096],[-119.95219,50.86098],[-119.95201,50.86101],[-119.95193,50.86102],[-119.9518,50.86104],[-119.95162,50.86107],[-119.95145,50.8611],[-119.95128,50.86112],[-119.9511,50.86116],[-119.9509,50.86119],[-119.95072,50.86122],[-119.95063,50.86123],[-119.95053,50.86126],[-119.95042,50.86129],[-119.95021,50.86137],[-119.95003,50.86143],[-119.94985,50.8615],[-119.94967,50.86158],[-119.94948,50.86166],[-119.94929,50.86175],[-119.94912,50.86184],[-119.94895,50.86192],[-119.94879,50.862],[-119.94862,50.86206],[-119.94845,50.8621],[-119.94829,50.86216],[-119.94805,50.86224],[-119.94788,50.8623],[-119.94776,50.86233],[-119.94762,50.86236],[-119.94725,50.86243],[-119.94713,50.86246],[-119.94702,50.86251],[-119.94691,50.86256],[-119.94682,50.8626],[-119.94674,50.86267],[-119.94668,50.86275],[-119.9466,50.86284],[-119.9465,50.86291],[-119.94638,50.86297],[-119.94625,50.86302],[-119.94611,50.86305],[-119.94597,50.86306],[-119.94584,50.86305],[-119.94571,50.86302],[-119.94558,50.86299],[-119.94544,50.86296],[-119.94528,50.86296],[-119.94513,50.86299],[-119.945,50.86304],[-119.94488,50.8631],[-119.94477,50.86318],[-119.94467,50.86324],[-119.94457,50.86331],[-119.94447,50.86336],[-119.94436,50.8634],[-119.94423,50.86343],[-119.94408,50.86346],[-119.94392,50.86349],[-119.94374,50.86352],[-119.94359,50.86354],[-119.94347,50.86355],[-119.94339,50.86356],[-119.94322,50.86364],[-119.94308,50.86369],[-119.94294,50.86374],[-119.94279,50.86379],[-119.94264,50.86385],[-119.94247,50.86388],[-119.94231,50.86391],[-119.94216,50.86391],[-119.94206,50.86391],[-119.94183,50.86393],[-119.94164,50.86396],[-119.94144,50.86399],[-119.94126,50.86402],[-119.94109,50.86404],[-119.94093,50.86407],[-119.94076,50.86409],[-119.94059,50.86409],[-119.94041,50.86411],[-119.94024,50.8641],[-119.9401,50.8641],[-119.93999,50.86407],[-119.93985,50.864],[-119.93976,50.864],[-119.93968,50.86403],[-119.93963,50.86408],[-119.93959,50.86415],[-119.93958,50.86423],[-119.93957,50.86431],[-119.93956,50.86439],[-119.93955,50.86447],[-119.93956,50.86456],[-119.93956,50.86463],[-119.93954,50.8647],[-119.93945,50.86475],[-119.93934,50.86482],[-119.93922,50.86487],[-119.93908,50.86495],[-119.93899,50.865],[-119.93889,50.86504],[-119.93878,50.86513],[-119.93869,50.86518],[-119.93856,50.86524],[-119.93838,50.8653],[-119.9382,50.86536],[-119.93802,50.8654],[-119.93793,50.86542],[-119.93785,50.86544],[-119.93767,50.86547],[-119.9375,50.8655],[-119.93741,50.86551],[-119.9373,50.86553],[-119.93712,50.86558],[-119.93694,50.86565],[-119.93685,50.86568],[-119.93674,50.86571],[-119.93658,50.86578],[-119.93641,50.86584],[-119.93623,50.86591],[-119.93602,50.86599],[-119.93581,50.86607],[-119.93548,50.8662],[-119.93527,50.8663],[-119.93514,50.86639],[-119.93498,50.86647],[-119.93483,50.86653],[-119.93467,50.86662],[-119.93454,50.8667],[-119.93447,50.86679],[-119.93441,50.86687],[-119.93435,50.86698],[-119.93425,50.86706],[-119.93413,50.86713],[-119.93401,50.86718],[-119.93387,50.86723],[-119.93374,50.86729],[-119.93365,50.86735],[-119.93355,50.86743],[-119.93346,50.86751],[-119.93337,50.86761],[-119.93333,50.86768],[-119.93331,50.86771],[-119.93326,50.86779],[-119.9332,50.86786],[-119.9331,50.86791],[-119.93298,50.86797],[-119.9329,50.86806],[-119.93283,50.86817],[-119.9328,50.86828],[-119.93278,50.8684],[-119.93271,50.86851],[-119.93262,50.86859],[-119.93247,50.86869],[-119.93232,50.86878],[-119.93217,50.86887],[-119.93202,50.86898],[-119.93187,50.86907],[-119.93173,50.86916],[-119.93158,50.86923],[-119.93142,50.86931],[-119.93125,50.86939],[-119.93104,50.86948],[-119.93097,50.86952],[-119.93086,50.86957],[-119.93071,50.86967],[-119.93063,50.86972],[-119.9305,50.86977],[-119.93038,50.86984],[-119.93025,50.86991],[-119.9301,50.86999],[-119.92994,50.87007],[-119.92976,50.87017],[-119.92966,50.87022],[-119.92959,50.87026],[-119.92943,50.87036],[-119.92926,50.87045],[-119.92909,50.87054],[-119.92889,50.87063],[-119.92867,50.87073],[-119.92859,50.87076],[-119.92848,50.87082],[-119.9283,50.87091],[-119.92811,50.87101],[-119.92802,50.87106],[-119.92791,50.87111],[-119.92774,50.87123],[-119.92756,50.87133],[-119.92739,50.87143],[-119.92722,50.87154],[-119.92705,50.87165],[-119.92687,50.87176],[-119.92679,50.87181],[-119.9267,50.87187],[-119.9265,50.87198],[-119.92631,50.87207],[-119.92624,50.87211],[-119.92613,50.87216],[-119.92597,50.87224],[-119.92579,50.87233],[-119.92561,50.8724],[-119.92541,50.87248],[-119.92522,50.87257],[-119.92505,50.87265],[-119.92487,50.87273],[-119.92472,50.8728],[-119.92454,50.87288],[-119.92435,50.87295],[-119.92425,50.87298],[-119.92414,50.87302],[-119.92394,50.87307],[-119.92379,50.87311],[-119.92365,50.87313],[-119.92349,50.87313],[-119.92335,50.87313],[-119.92318,50.87314],[-119.92301,50.87318],[-119.92283,50.87325],[-119.92269,50.87332],[-119.92254,50.8734],[-119.92237,50.87346],[-119.92219,50.87351],[-119.922,50.87357],[-119.92169,50.87365],[-119.92147,50.87371],[-119.92137,50.87375],[-119.92126,50.87378],[-119.92113,50.87382],[-119.92096,50.87387],[-119.9208,50.87391],[-119.9207,50.87394],[-119.92061,50.87394],[-119.92053,50.87396],[-119.92045,50.874],[-119.92035,50.87404],[-119.92024,50.87409],[-119.92011,50.87412],[-119.91997,50.87416],[-119.91985,50.8742]]}},
{"type":"Feature","properties":{"spotId":"A-grouse-atv-0066","kind":"ride","km":7.48,"climbM":144,"name":"260 m W of Niskonlith Creek","flags":[]},"geometry":{"type":"LineString","coordinates":[[-119.83553,50.80226],[-119.83579,50.80231],[-119.83735,50.80243],[-119.83798,50.80253],[-119.83847,50.80253],[-119.83892,50.80238],[-119.84003,50.80212],[-119.8403,50.80198],[-119.84081,50.80151],[-119.84116,50.80141],[-119.84137,50.80138],[-119.84202,50.8014],[-119.84239,50.80159],[-119.84262,50.80163],[-119.84341,50.80141],[-119.84474,50.80087],[-119.84496,50.80085],[-119.84546,50.80088],[-119.84572,50.80094],[-119.84602,50.80106],[-119.84695,50.80146],[-119.84713,50.80172],[-119.84722,50.80177],[-119.84736,50.80178],[-119.84782,50.80176],[-119.84794,50.80172],[-119.84853,50.80108],[-119.84896,50.80072],[-119.84947,50.80039],[-119.85042,50.8],[-119.85078,50.79978],[-119.8514,50.79954],[-119.85228,50.79926],[-119.85261,50.79908],[-119.8534,50.79876],[-119.85385,50.79844],[-119.85456,50.79777],[-119.85468,50.79768],[-119.85494,50.79757],[-119.85508,50.79753],[-119.85545,50.7975],[-119.85626,50.7975],[-119.85698,50.79774],[-119.85724,50.79775],[-119.85747,50.79774],[-119.8583,50.79752],[-119.85847,50.79743],[-119.85895,50.79701],[-119.85984,50.79662],[-119.86059,50.79615],[-119.86061,50.79598],[-119.86027,50.79572],[-119.86025,50.79565],[-119.8603,50.79539],[-119.86039,50.79524],[-119.86058,50.79512],[-119.8613,50.79491],[-119.86175,50.79491],[-119.86194,50.79494],[-119.86275,50.7951],[-119.86345,50.79517],[-119.86382,50.79518],[-119.86396,50.79515],[-119.86424,50.79499],[-119.86472,50.79459],[-119.86512,50.79435],[-119.8655,50.79424],[-119.86616,50.79415],[-119.86653,50.79402],[-119.86724,50.79355],[-119.86762,50.79336],[-119.86778,50.79323],[-119.86782,50.79271],[-119.86796,50.79251],[-119.86822,50.79231],[-119.86915,50.79175],[-119.86939,50.79154],[-119.86956,50.79131],[-119.86951,50.79063],[-119.86952,50.79034],[-119.86959,50.7902],[-119.87033,50.78977],[-119.87112,50.78948],[-119.87154,50.78929],[-119.87174,50.78909],[-119.87185,50.78902],[-119.87195,50.78882],[-119.87198,50.78834],[-119.87186,50.78785],[-119.87176,50.78763],[-119.87154,50.7873],[-119.87133,50.78711],[-119.87125,50.78696],[-119.87123,50.78676],[-119.87131,50.7865],[-119.87179,50.78578],[-119.87188,50.7856],[-119.87211,50.78539],[-119.87224,50.78519],[-119.87321,50.78444],[-119.87387,50.78398],[-119.87438,50.78378],[-119.87486,50.78354],[-119.87536,50.78334],[-119.87605,50.78299],[-119.87669,50.78278],[-119.87716,50.78268],[-119.87759,50.78251],[-119.87827,50.78201],[-119.87848,50.78177],[-119.87909,50.78149],[-119.87965,50.78131],[-119.88023,50.78126],[-119.88071,50.78137],[-119.88109,50.78149],[-119.88194,50.78162],[-119.88364,50.78226],[-119.88391,50.78239],[-119.88441,50.7828],[-119.88472,50.78328],[-119.885,50.78344],[-119.88566,50.78363],[-119.88623,50.78385],[-119.88663,50.78411],[-119.88692,50.78438],[-119.88741,50.78498],[-119.8876,50.78541],[-119.88769,50.78633],[-119.88755,50.78663],[-119.88761,50.78711],[-119.88766,50.78755],[-119.88763,50.78798],[-119.88748,50.7885],[-119.88754,50.78879],[-119.88804,50.78948],[-119.88823,50.78989],[-119.88904,50.79052],[-119.88994,50.7915],[-119.8902,50.79164],[-119.89043,50.7917],[-119.89053,50.79186],[-119.89081,50.79202],[-119.89099,50.79207],[-119.89127,50.79211],[-119.89199,50.79208],[-119.89223,50.7921],[-119.89361,50.79253],[-119.89529,50.79298],[-119.89616,50.79324],[-119.89712,50.79357],[-119.89778,50.79389],[-119.89819,50.79417],[-119.89913,50.7947],[-119.89948,50.79502],[-119.89955,50.79527],[-119.89967,50.79532],[-119.89992,50.79534],[-119.90026,50.79517],[-119.90062,50.79491],[-119.90093,50.79465],[-119.90114,50.79454],[-119.9015,50.79443],[-119.90184,50.79442],[-119.9021,50.79443],[-119.90233,50.79448],[-119.90361,50.79496],[-119.90523,50.79619]]}},
{"type":"Feature","properties":{"spotId":"A-grouse-atv-0070","kind":"walk","km":0.66,"climbM":123,"name":"2.6 km N of Pemberton Hill","flags":[]},"geometry":{"type":"LineString","coordinates":[[-119.90778,50.76048],[-119.89841,50.76059]]}},
{"type":"Feature","properties":{"spotId":"A-grouse-atv-0070","kind":"ride","km":4.23,"climbM":144,"name":"2.6 km N of Pemberton Hill","flags":[]},"geometry":{"type":"LineString","coordinates":[[-119.89841,50.76059],[-119.89816,50.76044],[-119.89806,50.76034],[-119.89798,50.76026],[-119.8978,50.76015],[-119.89763,50.76003],[-119.89754,50.75994],[-119.89747,50.75984],[-119.89742,50.75974],[-119.89738,50.75963],[-119.89733,50.75943],[-119.89734,50.75936],[-119.89735,50.75922],[-119.89736,50.75916],[-119.8974,50.75907],[-119.89743,50.75896],[-119.89751,50.7588],[-119.89752,50.75873],[-119.89753,50.75868],[-119.89759,50.75853],[-119.89763,50.75844],[-119.89773,50.7583],[-119.89782,50.75826],[-119.89791,50.75817],[-119.89803,50.75804],[-119.89808,50.75797],[-119.89816,50.75784],[-119.89822,50.75774],[-119.89826,50.75761],[-119.89828,50.75753],[-119.89837,50.75742],[-119.89844,50.7573],[-119.89849,50.75717],[-119.89851,50.75707],[-119.89853,50.75691],[-119.89856,50.75674],[-119.89865,50.75665],[-119.89869,50.75658],[-119.89877,50.75648],[-119.89877,50.75633],[-119.89871,50.7562],[-119.89862,50.75607],[-119.89858,50.75598],[-119.89855,50.75587],[-119.89856,50.75577],[-119.89858,50.75572],[-119.89868,50.75569],[-119.89885,50.75569],[-119.89905,50.75575],[-119.8992,50.75586],[-119.89947,50.75608],[-119.89967,50.75616],[-119.89992,50.75623],[-119.90018,50.75632],[-119.90052,50.75637],[-119.90079,50.75643],[-119.90113,50.75652],[-119.90149,50.75663],[-119.90174,50.75666],[-119.90189,50.75666],[-119.90203,50.75667],[-119.90224,50.75667],[-119.9025,50.7567],[-119.90271,50.7567],[-119.90292,50.7567],[-119.90302,50.7567],[-119.90315,50.75669],[-119.90331,50.7567],[-119.90341,50.75671],[-119.90368,50.75671],[-119.90386,50.75676],[-119.90414,50.75685],[-119.90442,50.75698],[-119.90458,50.75707],[-119.90477,50.75719],[-119.9049,50.75726],[-119.90505,50.75736],[-119.9052,50.75749],[-119.90523,50.75755],[-119.90531,50.75767],[-119.90537,50.75781],[-119.90546,50.75799],[-119.90554,50.75817],[-119.90562,50.75833],[-119.90573,50.75846],[-119.90591,50.75864],[-119.906,50.75878],[-119.9061,50.75902],[-119.9062,50.75923],[-119.90624,50.75938],[-119.90627,50.75951],[-119.90631,50.75964],[-119.90637,50.75973],[-119.90647,50.75986],[-119.90659,50.76001],[-119.90669,50.7601],[-119.9068,50.7602],[-119.90696,50.76028],[-119.90709,50.76033],[-119.90702,50.76035],[-119.90683,50.76043],[-119.90665,50.76058],[-119.90658,50.76077],[-119.90651,50.76096],[-119.90648,50.76099],[-119.90631,50.76127],[-119.90627,50.76133],[-119.90609,50.7616],[-119.90605,50.76178],[-119.90603,50.7619],[-119.90597,50.76212],[-119.90589,50.76226],[-119.90573,50.76235],[-119.90566,50.76239],[-119.90557,50.76251],[-119.90557,50.76252],[-119.90518,50.76288],[-119.9051,50.76293],[-119.90496,50.76304],[-119.90491,50.76308],[-119.90483,50.76314],[-119.90469,50.76325],[-119.90439,50.7635],[-119.90401,50.76373],[-119.90398,50.76375],[-119.90369,50.76385],[-119.90327,50.76395],[-119.90326,50.76396],[-119.90304,50.76408],[-119.90301,50.76411],[-119.90288,50.76422],[-119.90282,50.76427],[-119.90269,50.76438],[-119.90233,50.76468],[-119.90226,50.76474],[-119.90193,50.76496],[-119.90168,50.76508],[-119.90136,50.76507],[-119.90117,50.76506],[-119.90085,50.76497],[-119.90064,50.76492],[-119.90058,50.76488],[-119.9003,50.76472],[-119.90011,50.76466],[-119.89972,50.76455],[-119.89971,50.76454],[-119.89956,50.76453],[-119.89941,50.76452],[-119.89911,50.7645],[-119.89868,50.76443],[-119.89859,50.76441],[-119.89823,50.76431],[-119.89822,50.7643],[-119.89782,50.76407],[-119.89769,50.76399],[-119.89766,50.76397],[-119.8974,50.76369],[-119.89717,50.76361],[-119.89694,50.76364],[-119.89687,50.76366],[-119.89658,50.76377],[-119.89645,50.76386],[-119.89634,50.76395],[-119.89623,50.76404],[-119.89602,50.76431],[-119.89602,50.76432],[-119.89599,50.76436],[-119.89594,50.76442],[-119.89594,50.76443],[-119.89587,50.76481],[-119.89561,50.76505],[-119.8955,50.7651],[-119.89532,50.76516],[-119.89514,50.76516],[-119.89482,50.76517],[-119.89417,50.7651],[-119.89415,50.76509],[-119.89404,50.76509],[-119.89395,50.76508],[-119.89346,50.76497],[-119.89338,50.76495],[-119.89319,50.76489],[-119.89261,50.76472],[-119.89258,50.76471],[-119.89231,50.76459],[-119.89228,50.76458],[-119.89228,50.76434],[-119.89232,50.76393],[-119.89235,50.76375],[-119.89226,50.76365],[-119.89211,50.7634],[-119.89203,50.76334],[-119.8916,50.76303],[-119.89157,50.76301],[-119.89129,50.76267],[-119.89125,50.76262],[-119.89123,50.76255],[-119.89103,50.7621],[-119.89094,50.76194],[-119.89083,50.76177],[-119.89073,50.76163],[-119.89077,50.76123],[-119.89078,50.76119],[-119.89068,50.76103],[-119.89056,50.76085],[-119.89037,50.7605],[-119.8903,50.76039],[-119.89031,50.76032],[-119.89033,50.76017],[-119.8905,50.75992],[-119.89075,50.75982],[-119.89078,50.7598],[-119.8908,50.75979],[-119.89092,50.75974],[-119.89128,50.75964],[-119.89133,50.75962],[-119.89136,50.75961],[-119.89146,50.75957],[-119.8915,50.75955],[-119.89165,50.75949],[-119.89172,50.75946],[-119.8918,50.75943],[-119.89194,50.75938],[-119.89208,50.75924],[-119.89218,50.75914],[-119.89222,50.75908],[-119.89226,50.75901],[-119.89237,50.7589],[-119.89241,50.75887],[-119.89249,50.75878],[-119.89254,50.75873],[-119.89268,50.75865],[-119.89277,50.75859],[-119.89277,50.75858],[-119.89306,50.75846],[-119.89313,50.75845],[-119.8934,50.75839],[-119.89369,50.75845],[-119.8938,50.75846],[-119.89419,50.75852],[-119.89454,50.75845],[-119.89457,50.75845],[-119.89462,50.7584],[-119.89466,50.75835],[-119.89474,50.75829],[-119.89471,50.75823],[-119.89464,50.75808],[-119.89449,50.75785],[-119.89433,50.75763],[-119.89431,50.7576],[-119.89422,50.75746],[-119.89419,50.75742],[-119.89392,50.7572],[-119.89386,50.75719],[-119.89337,50.75715],[-119.89326,50.75714],[-119.89319,50.75714],[-119.89309,50.75713],[-119.89281,50.7571],[-119.89262,50.75709],[-119.89257,50.75708],[-119.89251,50.75708],[-119.89244,50.75708],[-119.8917,50.75702],[-119.89164,50.75702]]}},
{"type":"Feature","properties":{"spotId":"A-grouse-atv-0092","kind":"ride","km":3.02,"climbM":112,"name":"950 m NE of McKnight Creek","flags":[]},"geometry":{"type":"LineString","coordinates":[[-119.98201,50.99466],[-119.98229,50.99479],[-119.98252,50.99482],[-119.98284,50.99488],[-119.98294,50.99489],[-119.98316,50.99493],[-119.98357,50.99494],[-119.98375,50.99495],[-119.98383,50.99495],[-119.98411,50.99496],[-119.98417,50.99497],[-119.98452,50.99503],[-119.98496,50.99508],[-119.98522,50.99508],[-119.98543,50.99509],[-119.98572,50.99508],[-119.98614,50.99506],[-119.98627,50.99502],[-119.98636,50.99498],[-119.98639,50.99497],[-119.98649,50.9949],[-119.98666,50.99485],[-119.98688,50.99484],[-119.98715,50.99497],[-119.9874,50.99509],[-119.98746,50.99512],[-119.98771,50.99529],[-119.98786,50.99536],[-119.98811,50.99551],[-119.98852,50.99565],[-119.98869,50.99568],[-119.98892,50.99574],[-119.98895,50.99575],[-119.98902,50.99577],[-119.98922,50.99586],[-119.98927,50.99588],[-119.98952,50.99599],[-119.9896,50.99601],[-119.98996,50.99616],[-119.98998,50.99618],[-119.99027,50.99628],[-119.99037,50.99633],[-119.99067,50.99649],[-119.99075,50.99652],[-119.99097,50.99661],[-119.99112,50.99667],[-119.99117,50.9967],[-119.99134,50.99675],[-119.99182,50.9969],[-119.99189,50.99695],[-119.99197,50.99702],[-119.992,50.99704],[-119.99203,50.99706],[-119.99206,50.99708],[-119.99207,50.9971],[-119.9921,50.99712],[-119.99213,50.99713],[-119.99218,50.99717],[-119.99232,50.99736],[-119.99247,50.99754],[-119.99253,50.99759],[-119.99262,50.99766],[-119.99264,50.99768],[-119.99273,50.99772],[-119.99285,50.99778],[-119.99289,50.9978],[-119.99297,50.99787],[-119.993,50.99791],[-119.99301,50.99797],[-119.99311,50.99814],[-119.99313,50.99818],[-119.99314,50.99821],[-119.99316,50.99823],[-119.99319,50.99828],[-119.99319,50.99829],[-119.99322,50.99833],[-119.99324,50.99838],[-119.99326,50.99844],[-119.99329,50.99851],[-119.99321,50.99863],[-119.99302,50.99879],[-119.99293,50.99887],[-119.99281,50.99893],[-119.99272,50.99898],[-119.99269,50.9991],[-119.9925,50.9991],[-119.99217,50.99901],[-119.99186,50.99892],[-119.99182,50.99891],[-119.99142,50.99885],[-119.99136,50.99884],[-119.99102,50.99883],[-119.99081,50.99889],[-119.99072,50.99891],[-119.99058,50.99896],[-119.99056,50.99898],[-119.99047,50.99902],[-119.99043,50.99904],[-119.99028,50.99908],[-119.99004,50.9991],[-119.98988,50.99909],[-119.98976,50.99908],[-119.98961,50.99906],[-119.98953,50.99905],[-119.98921,50.99905],[-119.98901,50.99904],[-119.98885,50.99903],[-119.98865,50.99904],[-119.98846,50.99902],[-119.98825,50.99899],[-119.98793,50.99889],[-119.98767,50.99879],[-119.98752,50.99875],[-119.98736,50.99873],[-119.98709,50.99869],[-119.98697,50.99869],[-119.98685,50.99868],[-119.98672,50.99868],[-119.98632,50.99869],[-119.98615,50.99869],[-119.98609,50.99869],[-119.98599,50.99869],[-119.98583,50.9987],[-119.98575,50.9987],[-119.98569,50.99869],[-119.98563,50.99869],[-119.98553,50.9987],[-119.98545,50.9987],[-119.98539,50.9987],[-119.98535,50.9987],[-119.98499,50.99871],[-119.98467,50.99883],[-119.98465,50.99885],[-119.98458,50.99895],[-119.98446,50.99913],[-119.98443,50.99918],[-119.98429,50.99947],[-119.98417,50.99964],[-119.98413,50.99971],[-119.98407,50.99982],[-119.98406,50.99985],[-119.98399,51.0],[-119.98399,51.00002],[-119.98389,51.00013],[-119.98373,51.00027],[-119.9836,51.00037],[-119.98349,51.00054],[-119.98339,51.00056],[-119.98335,51.0006],[-119.98331,51.00064],[-119.98322,51.00078],[-119.98323,51.00082],[-119.98324,51.00099],[-119.98315,51.0011],[-119.98304,51.00118],[-119.98295,51.00124],[-119.98286,51.00126],[-119.98279,51.00128],[-119.98247,51.00129],[-119.98237,51.00139],[-119.98234,51.00141],[-119.98215,51.0015],[-119.98198,51.00154],[-119.98172,51.00164],[-119.98169,51.00165],[-119.98154,51.00177],[-119.98142,51.00189],[-119.98113,51.00205],[-119.98061,51.0021],[-119.98021,51.00206],[-119.97997,51.00202],[-119.97969,51.00188],[-119.97926,51.00156],[-119.97903,51.00147],[-119.97871,51.00147],[-119.97838,51.00154],[-119.97825,51.00154],[-119.97793,51.00149],[-119.97758,51.00136],[-119.97743,51.00124],[-119.97726,51.001],[-119.97719,51.00081],[-119.97702,51.00061],[-119.97678,51.00039],[-119.9761,50.99986],[-119.97588,50.99966],[-119.97551,50.99932],[-119.97535,50.99921],[-119.97511,50.99909],[-119.97489,50.99895],[-119.97481,50.99876],[-119.97474,50.99856],[-119.97462,50.99836],[-119.97459,50.99822],[-119.97444,50.998],[-119.97426,50.99784],[-119.97403,50.99774],[-119.97375,50.99765],[-119.97346,50.99757],[-119.97307,50.99748],[-119.97259,50.99734],[-119.97225,50.9973]]}},
{"type":"Feature","properties":{"spotId":"A-grouse-drive-0087","kind":"roadside","km":5.04,"climbM":26,"name":"330 m N of McGillivray Lake","flags":["Route touches city limits: Sun Peaks Mountain Resort Municipality. Local firearm bylaw applies."]},"geometry":{"type":"LineString","coordinates":[[-119.83734,50.86666],[-119.83742,50.86645],[-119.83862,50.86427],[-119.8395,50.86266],[-119.84077,50.86044],[-119.84111,50.86012],[-119.84178,50.8597],[-119.84205,50.85947],[-119.84236,50.85905],[-119.84378,50.85677],[-119.84391,50.85646],[-119.844,50.85626],[-119.84519,50.8534],[-119.84528,50.85298],[-119.84533,50.85099],[-119.8453,50.85052],[-119.84518,50.85004],[-119.84406,50.84748],[-119.84379,50.8471],[-119.84167,50.84484],[-119.84058,50.84367],[-119.84055,50.84362],[-119.84038,50.84334],[-119.84033,50.84305],[-119.84039,50.84279],[-119.84059,50.84247],[-119.84068,50.84239],[-119.84129,50.84186],[-119.84148,50.84155],[-119.84154,50.84126],[-119.84146,50.84101],[-119.84118,50.84063],[-119.84104,50.84032],[-119.84095,50.83984],[-119.84096,50.83964],[-119.84124,50.839],[-119.84129,50.83874],[-119.84115,50.8371],[-119.84104,50.83672],[-119.8408,50.83635],[-119.84056,50.83563],[-119.84031,50.83529],[-119.83952,50.83451],[-119.83936,50.83435],[-119.83915,50.83397],[-119.83906,50.83366],[-119.83908,50.83338],[-119.83919,50.83318],[-119.83933,50.83291],[-119.83935,50.83271],[-119.83923,50.83253],[-119.83875,50.83215],[-119.83783,50.83169],[-119.83753,50.83143],[-119.8372,50.831],[-119.8371,50.83053],[-119.83615,50.82901],[-119.83547,50.82859],[-119.83523,50.8283],[-119.83519,50.82809],[-119.8353,50.8276],[-119.83531,50.82733],[-119.83523,50.82712],[-119.83505,50.82691],[-119.8348,50.82676],[-119.83441,50.82667],[-119.83287,50.82658],[-119.83162,50.82627]]}},
{"type":"Feature","properties":{"spotId":"A-grouse-drive-0088","kind":"roadside","km":5.04,"climbM":279,"name":"300 m S of Niskonlith Creek","flags":[]},"geometry":{"type":"LineString","coordinates":[[-119.80901,50.76697],[-119.80911,50.76689],[-119.80948,50.76671],[-119.80977,50.7665],[-119.81003,50.76622],[-119.81015,50.76599],[-119.81018,50.76579],[-119.81,50.76532],[-119.81001,50.76512],[-119.81084,50.76362],[-119.81093,50.76332],[-119.81097,50.76289],[-119.81087,50.76198],[-119.81084,50.76127],[-119.81075,50.76091],[-119.81044,50.76049],[-119.81041,50.76034],[-119.81047,50.7602],[-119.81063,50.76009],[-119.81083,50.76005],[-119.8109,50.76007],[-119.81104,50.7601],[-119.81116,50.76023],[-119.81115,50.76082],[-119.81162,50.76205],[-119.81172,50.76267],[-119.81175,50.76347],[-119.81184,50.76371],[-119.81217,50.76408],[-119.81248,50.76465],[-119.81252,50.7649],[-119.81231,50.76575],[-119.81235,50.76586],[-119.8125,50.76594],[-119.8127,50.76598],[-119.81344,50.76598],[-119.81382,50.76603],[-119.8143,50.7662],[-119.8152,50.76666],[-119.8157,50.76703],[-119.81579,50.76715],[-119.81597,50.76737],[-119.81607,50.76775],[-119.81608,50.76921],[-119.81554,50.77048],[-119.81559,50.77084],[-119.81604,50.77257],[-119.81615,50.773],[-119.81659,50.77365],[-119.81674,50.77419],[-119.81678,50.77489],[-119.81697,50.77534],[-119.81703,50.77575],[-119.8169,50.77633],[-119.81707,50.77679],[-119.81776,50.77822],[-119.81798,50.77849],[-119.81837,50.77882],[-119.81861,50.77912],[-119.81877,50.77949],[-119.81897,50.78091],[-119.81931,50.7818],[-119.81932,50.78203],[-119.81924,50.78223],[-119.81871,50.78275],[-119.81856,50.783],[-119.81852,50.78331],[-119.8186,50.78465],[-119.81878,50.7852],[-119.81887,50.7855],[-119.81913,50.78593],[-119.81934,50.7867],[-119.81988,50.78773],[-119.81993,50.78799],[-119.81993,50.79007],[-119.82002,50.79059],[-119.82025,50.79125],[-119.82048,50.79166],[-119.82076,50.79203],[-119.82089,50.79221],[-119.82097,50.79285],[-119.82109,50.79315],[-119.82239,50.79468],[-119.82248,50.79491],[-119.82247,50.79514],[-119.82245,50.79516]]}},
{"type":"Feature","properties":{"spotId":"A-grouse-walk-0051","kind":"roadside","km":4.62,"climbM":143,"name":"160 m E of Niskonlith Creek","flags":[]},"geometry":{"type":"LineString","coordinates":[[-119.83374,50.82663],[-119.8343,50.82665],[-119.83478,50.82676],[-119.83507,50.82695],[-119.83529,50.82721],[-119.83526,50.82754],[-119.8352,50.82787],[-119.83516,50.8282],[-119.83535,50.82847],[-119.83567,50.82874],[-119.83608,50.82894],[-119.83629,50.82916],[-119.8366,50.82969],[-119.8369,50.83019],[-119.83704,50.83048],[-119.83717,50.8307],[-119.83718,50.83094],[-119.83739,50.83123],[-119.83761,50.83148],[-119.8378,50.83168],[-119.8382,50.83184],[-119.83863,50.83205],[-119.83894,50.83226],[-119.83933,50.83256],[-119.83933,50.83289],[-119.83918,50.83314],[-119.83904,50.83339],[-119.83905,50.83369],[-119.83921,50.8341],[-119.83939,50.83444],[-119.83976,50.83473],[-119.84004,50.83497],[-119.84025,50.83518],[-119.84047,50.83546],[-119.84061,50.83571],[-119.84066,50.83599],[-119.84073,50.83621],[-119.84091,50.83652],[-119.84112,50.83681],[-119.84114,50.83716],[-119.84109,50.83751],[-119.8412,50.83796],[-119.84126,50.83855],[-119.84127,50.83896],[-119.8411,50.83927],[-119.84091,50.83966],[-119.84095,50.84],[-119.84103,50.84029],[-119.84126,50.84076],[-119.84156,50.84119],[-119.84144,50.84167],[-119.84108,50.84203],[-119.84057,50.84251],[-119.84028,50.84291],[-119.84028,50.84329],[-119.84044,50.84353],[-119.84065,50.84379],[-119.84129,50.84451],[-119.84188,50.84516],[-119.843,50.8463],[-119.84388,50.84718],[-119.84412,50.8477],[-119.84419,50.84781],[-119.84449,50.8484],[-119.84468,50.84896],[-119.84496,50.84952],[-119.84534,50.85059],[-119.8453,50.85062],[-119.84533,50.85107],[-119.84532,50.85155],[-119.84532,50.85234],[-119.84526,50.85292],[-119.84521,50.85334],[-119.84508,50.85362],[-119.845,50.85384],[-119.8448,50.85428],[-119.84444,50.85522],[-119.84386,50.85655],[-119.8438,50.85671],[-119.84356,50.85707],[-119.84336,50.8574],[-119.84303,50.85793],[-119.84282,50.85819],[-119.84257,50.85864],[-119.84213,50.85929],[-119.842,50.85949],[-119.84179,50.85967],[-119.84152,50.85984],[-119.84106,50.8601],[-119.8408,50.86038],[-119.84037,50.86116],[-119.8398,50.8621],[-119.83965,50.86239],[-119.83951,50.86272],[-119.83928,50.86309],[-119.83917,50.8633],[-119.83895,50.8636],[-119.83875,50.86391],[-119.83854,50.86426]]}},
{"type":"Feature","properties":{"spotId":"A-grouse-walk-0074","kind":"walk","km":0.6,"climbM":41,"name":"4.5 km SE of Cahilty, Mount","flags":[]},"geometry":{"type":"LineString","coordinates":[[-119.82242,50.93353],[-119.82852,50.92972]]}},
{"type":"Feature","properties":{"spotId":"A-grouse-walk-0074","kind":"roadside","km":3.79,"climbM":32,"name":"4.5 km SE of Cahilty, Mount","flags":[]},"geometry":{"type":"LineString","coordinates":[[-119.82852,50.92972],[-119.8287,50.92973],[-119.8289,50.92977],[-119.82917,50.92983],[-119.82938,50.92996],[-119.8296,50.93004],[-119.82984,50.93014],[-119.83024,50.93019],[-119.83058,50.93019],[-119.83102,50.9302],[-119.8313,50.93019],[-119.83176,50.93018],[-119.83227,50.9302],[-119.83284,50.93021],[-119.83333,50.9301],[-119.83382,50.93013],[-119.83411,50.93016],[-119.83448,50.93016],[-119.83475,50.93006],[-119.83496,50.9299],[-119.83507,50.92966],[-119.83511,50.92939],[-119.83514,50.92913],[-119.83518,50.92904],[-119.83528,50.9289],[-119.83545,50.92873],[-119.83565,50.92856],[-119.83594,50.92832],[-119.83621,50.92808],[-119.83659,50.92778],[-119.83686,50.92754],[-119.83712,50.92729],[-119.83728,50.92708],[-119.83781,50.92664],[-119.83795,50.92652],[-119.83805,50.92636],[-119.83818,50.92612],[-119.83836,50.92588],[-119.8386,50.92568],[-119.83886,50.92549],[-119.83905,50.92526],[-119.83939,50.92492],[-119.83979,50.92446],[-119.84034,50.92397],[-119.84058,50.92376],[-119.84085,50.92355],[-119.84131,50.92331],[-119.84188,50.92306],[-119.84223,50.92297],[-119.84262,50.92292],[-119.84306,50.9228],[-119.84362,50.92269],[-119.84416,50.92256],[-119.84431,50.92247],[-119.84451,50.92234],[-119.84467,50.92223],[-119.84489,50.9221],[-119.84517,50.92194],[-119.84549,50.92183],[-119.84583,50.92177],[-119.84614,50.92174],[-119.8464,50.92167],[-119.84699,50.92153],[-119.84753,50.92143],[-119.84825,50.92138],[-119.84895,50.9214],[-119.84943,50.92144],[-119.85045,50.92134],[-119.85128,50.92129],[-119.85214,50.92127],[-119.85281,50.92132],[-119.85403,50.9215],[-119.85528,50.92173],[-119.85556,50.92177],[-119.85602,50.9218],[-119.85689,50.9219],[-119.85765,50.92196],[-119.85866,50.9221],[-119.85955,50.9222],[-119.86034,50.92229],[-119.86074,50.9223],[-119.86114,50.92227],[-119.86149,50.92222],[-119.86197,50.9222],[-119.86229,50.92221],[-119.86279,50.92232],[-119.86327,50.92245],[-119.86365,50.92258],[-119.86401,50.92259],[-119.86432,50.92255],[-119.86453,50.92254],[-119.86488,50.92248],[-119.86536,50.92239],[-119.86585,50.92224],[-119.86645,50.92208],[-119.86699,50.92193],[-119.86728,50.92181],[-119.86743,50.92161],[-119.8676,50.92148],[-119.86775,50.92138],[-119.86796,50.92129],[-119.86826,50.92129],[-119.86863,50.92136],[-119.86915,50.92147],[-119.86963,50.92154],[-119.87,50.92155],[-119.87041,50.92152],[-119.87092,50.92148],[-119.8714,50.92143],[-119.87177,50.92135],[-119.87219,50.92128],[-119.87255,50.92119],[-119.87295,50.92113],[-119.87332,50.92107],[-119.8737,50.92094],[-119.87399,50.92081]]}},
{"type":"Feature","properties":{"spotId":"A-grouse-walk-0077","kind":"roadside","km":4.62,"climbM":233,"name":"190 m NE of Niskonlith Creek","flags":[]},"geometry":{"type":"LineString","coordinates":[[-119.8221,50.80013],[-119.82208,50.8002],[-119.8221,50.8004],[-119.82212,50.80065],[-119.82224,50.80096],[-119.82239,50.80118],[-119.82273,50.80137],[-119.82317,50.80161],[-119.82349,50.80191],[-119.82374,50.80226],[-119.82391,50.80246],[-119.82416,50.80263],[-119.82451,50.80284],[-119.82494,50.80311],[-119.82553,50.80345],[-119.82597,50.80373],[-119.82633,50.80399],[-119.82671,50.80429],[-119.82705,50.80459],[-119.82728,50.80485],[-119.82751,50.80513],[-119.82771,50.80554],[-119.82775,50.80586],[-119.82778,50.80626],[-119.82781,50.80662],[-119.82779,50.80679],[-119.82784,50.80705],[-119.8279,50.80735],[-119.82789,50.80784],[-119.82788,50.80819],[-119.82783,50.80861],[-119.82776,50.80898],[-119.82772,50.8093],[-119.82762,50.80976],[-119.82761,50.81009],[-119.82761,50.81052],[-119.82758,50.81098],[-119.82757,50.81121],[-119.8276,50.8115],[-119.82765,50.81182],[-119.82764,50.81211],[-119.82763,50.81242],[-119.8276,50.81273],[-119.82767,50.81302],[-119.82775,50.81333],[-119.82777,50.81376],[-119.82782,50.81415],[-119.82783,50.81445],[-119.82779,50.81479],[-119.82767,50.81506],[-119.8275,50.81536],[-119.82728,50.8155],[-119.82665,50.81591],[-119.82626,50.8162],[-119.82608,50.81641],[-119.82574,50.81684],[-119.8254,50.81727],[-119.82509,50.81774],[-119.82474,50.81805],[-119.82416,50.81839],[-119.82376,50.81863],[-119.82369,50.81891],[-119.82383,50.81911],[-119.82428,50.81925],[-119.82489,50.81938],[-119.82587,50.81941],[-119.8263,50.81947],[-119.82657,50.81962],[-119.82669,50.81977],[-119.8269,50.81993],[-119.82717,50.82014],[-119.82747,50.82033],[-119.82788,50.82055],[-119.82834,50.82064],[-119.82876,50.82059],[-119.82923,50.82051],[-119.82984,50.8205],[-119.8304,50.82055],[-119.83076,50.82064],[-119.83103,50.82074],[-119.83139,50.82096],[-119.83174,50.82108],[-119.83205,50.82116],[-119.83225,50.82132],[-119.83237,50.82147],[-119.83234,50.82165],[-119.83215,50.82178],[-119.83129,50.82188],[-119.83067,50.82194],[-119.8297,50.82202],[-119.82891,50.82219],[-119.82758,50.82245],[-119.82686,50.82273],[-119.82631,50.82294],[-119.82604,50.82305],[-119.82566,50.82316],[-119.82522,50.82329],[-119.82465,50.82347],[-119.82423,50.82366],[-119.82397,50.82382],[-119.82382,50.82403],[-119.82375,50.82431],[-119.82372,50.82461],[-119.82379,50.82494],[-119.82401,50.82515],[-119.82436,50.82538],[-119.82478,50.82566],[-119.82527,50.8258],[-119.82586,50.8258],[-119.82628,50.82576],[-119.82682,50.82569],[-119.82754,50.82559],[-119.82835,50.82555],[-119.82911,50.82559],[-119.83003,50.82579],[-119.83125,50.82616],[-119.8318,50.82631],[-119.83299,50.8266],[-119.8336,50.82663],[-119.83374,50.82663]]}},
{"type":"Feature","properties":{"spotId":"A-grouse-walk-0089","kind":"walk","km":0.33,"climbM":33,"name":"140 m SW of Cahilty Creek","flags":[]},"geometry":{"type":"LineString","coordinates":[[-119.94258,50.95334],[-119.94543,50.95096]]}},
{"type":"Feature","properties":{"spotId":"A-grouse-walk-0089","kind":"roadside","km":5.17,"climbM":58,"name":"140 m SW of Cahilty Creek","flags":[]},"geometry":{"type":"LineString","coordinates":[[-119.94543,50.95096],[-119.9456,50.95111],[-119.94574,50.95123],[-119.94612,50.95148],[-119.94634,50.95167],[-119.94659,50.95189],[-119.94688,50.95211],[-119.94721,50.95229],[-119.94778,50.95249],[-119.94821,50.9526],[-119.94848,50.95279],[-119.94879,50.95293],[-119.94904,50.95306],[-119.94955,50.9531],[-119.9498,50.95306],[-119.95011,50.95297],[-119.9504,50.95291],[-119.9507,50.95282],[-119.95107,50.95273],[-119.95136,50.95264],[-119.95158,50.95243],[-119.9517,50.95219],[-119.95178,50.95192],[-119.95202,50.95167],[-119.95224,50.95164],[-119.95236,50.95174],[-119.95253,50.95198],[-119.95262,50.9522],[-119.95272,50.95248],[-119.95279,50.95271],[-119.95292,50.95281],[-119.95319,50.95288],[-119.95344,50.95288],[-119.95363,50.95284],[-119.9538,50.95269],[-119.95409,50.95252],[-119.95434,50.95237],[-119.95473,50.95225],[-119.95498,50.95225],[-119.95526,50.95237],[-119.95546,50.9525],[-119.95581,50.95266],[-119.95611,50.95267],[-119.95645,50.95259],[-119.9567,50.95243],[-119.95705,50.95218],[-119.95735,50.95201],[-119.95765,50.95201],[-119.95791,50.95208],[-119.95815,50.95224],[-119.95849,50.95248],[-119.95877,50.95253],[-119.95914,50.95251],[-119.95954,50.95248],[-119.95982,50.95251],[-119.96013,50.95259],[-119.96038,50.95273],[-119.96063,50.95283],[-119.96093,50.95286],[-119.96119,50.9528],[-119.9615,50.95271],[-119.96189,50.95259],[-119.96236,50.95247],[-119.9627,50.95235],[-119.96286,50.9522],[-119.96298,50.95197],[-119.96318,50.95174],[-119.96341,50.95161],[-119.96373,50.95151],[-119.96404,50.95148],[-119.96441,50.95159],[-119.96458,50.95176],[-119.96484,50.95202],[-119.96502,50.95229],[-119.96521,50.95246],[-119.96546,50.95262],[-119.96582,50.95288],[-119.96607,50.9531],[-119.96631,50.95341],[-119.96635,50.95361],[-119.96633,50.95385],[-119.96634,50.95407],[-119.96648,50.95419],[-119.96677,50.9543],[-119.96713,50.95443],[-119.96768,50.95452],[-119.96815,50.95456],[-119.96872,50.95465],[-119.96908,50.95483],[-119.96959,50.95498],[-119.96995,50.95508],[-119.97048,50.9551],[-119.97071,50.95499],[-119.971,50.95482],[-119.97127,50.95471],[-119.97152,50.95456],[-119.97175,50.95445],[-119.97213,50.95436],[-119.9725,50.95431],[-119.97292,50.9542],[-119.97323,50.9541],[-119.97351,50.95389],[-119.9737,50.95377],[-119.97391,50.95363],[-119.97419,50.95358],[-119.9746,50.95359],[-119.97507,50.95362],[-119.97553,50.95364],[-119.97595,50.95363],[-119.97641,50.95349],[-119.97678,50.95332],[-119.97711,50.95315],[-119.97725,50.95295],[-119.97746,50.95274],[-119.97774,50.95261],[-119.97807,50.95248],[-119.97863,50.95231],[-119.97916,50.95215],[-119.97947,50.95209],[-119.97995,50.95193],[-119.98028,50.95177],[-119.98057,50.95161],[-119.98089,50.95147],[-119.98126,50.95128],[-119.98149,50.95107],[-119.98193,50.95071],[-119.98215,50.9506],[-119.98241,50.95045],[-119.98272,50.95025],[-119.98301,50.95003],[-119.98325,50.94987],[-119.98363,50.9497],[-119.98413,50.9495],[-119.98482,50.94919],[-119.98538,50.94894],[-119.98583,50.94871],[-119.98615,50.94844],[-119.98642,50.94815],[-119.98665,50.94785],[-119.98695,50.94744],[-119.98709,50.94715],[-119.98745,50.94673],[-119.98773,50.94634],[-119.98785,50.94586],[-119.9879,50.94543],[-119.98788,50.94483],[-119.98785,50.9443],[-119.98789,50.94394],[-119.98795,50.94368],[-119.98797,50.94348],[-119.98801,50.94307],[-119.98804,50.94275],[-119.988,50.94244],[-119.98795,50.94207],[-119.98801,50.94185],[-119.98814,50.94178],[-119.98845,50.94185],[-119.98878,50.94221],[-119.98901,50.94251],[-119.98932,50.94281],[-119.9897,50.94319],[-119.98994,50.94343],[-119.99032,50.94375],[-119.99073,50.94409],[-119.99098,50.94432],[-119.99131,50.94473],[-119.99162,50.94513],[-119.99187,50.94537],[-119.99216,50.94565],[-119.99244,50.94595],[-119.99266,50.9463]]}},
{"type":"Feature","properties":{"spotId":"A-grouse-walk-0090","kind":"walk","km":0.5,"climbM":19,"name":"3.0 km N of Morrisey Lake West rec site","flags":["Route enters a Motor Vehicle Closed Area: Thompson, Cariboo and Okanagan Alpines. Closed Year Round. Exemption: Snowmobiles exempt year round (January 1 to December 31). Synopsis map 1-82/24.","Route touches city limits: Sun Peaks Mountain Resort Municipality. Local firearm bylaw applies."]},"geometry":{"type":"LineString","coordinates":[[-119.83339,50.88994],[-119.84043,50.88934]]}},
{"type":"Feature","properties":{"spotId":"A-grouse-walk-0090","kind":"roadside","km":3.23,"climbM":233,"name":"3.0 km N of Morrisey Lake West rec site","flags":["Route enters a Motor Vehicle Closed Area: Thompson, Cariboo and Okanagan Alpines. Closed Year Round. Exemption: Snowmobiles exempt year round (January 1 to December 31). Synopsis map 1-82/24.","Route touches city limits: Sun Peaks Mountain Resort Municipality. Local firearm bylaw applies."]},"geometry":{"type":"LineString","coordinates":[[-119.84043,50.88934],[-119.84034,50.88945],[-119.84033,50.88954],[-119.84042,50.88972],[-119.84048,50.88985],[-119.8405,50.88996],[-119.84054,50.89017],[-119.84054,50.89039],[-119.84055,50.89055],[-119.84045,50.89076],[-119.84033,50.89094],[-119.84023,50.8911],[-119.84015,50.89124],[-119.84008,50.89136],[-119.83997,50.8915],[-119.83986,50.8917],[-119.8397,50.89196],[-119.83961,50.89209],[-119.83956,50.89224],[-119.83956,50.89241],[-119.83972,50.89265],[-119.83981,50.8929],[-119.83983,50.89315],[-119.83985,50.89337],[-119.83984,50.89374],[-119.8398,50.89394],[-119.83974,50.89413],[-119.83968,50.89429],[-119.83962,50.89441],[-119.83955,50.8946],[-119.83941,50.89476],[-119.83929,50.89492],[-119.83921,50.8951],[-119.83918,50.89524],[-119.83928,50.89542],[-119.83931,50.89561],[-119.83925,50.89583],[-119.83911,50.89603],[-119.839,50.89623],[-119.83887,50.89642],[-119.83872,50.89661],[-119.83855,50.8968],[-119.83848,50.89695],[-119.83845,50.89705],[-119.83835,50.89727],[-119.83827,50.89754],[-119.83821,50.89777],[-119.83812,50.89797],[-119.83797,50.8982],[-119.83788,50.89841],[-119.83778,50.89881],[-119.83776,50.89896],[-119.8378,50.89928],[-119.83789,50.8995],[-119.83788,50.89964],[-119.83782,50.89978],[-119.83764,50.89994],[-119.83739,50.90012],[-119.83718,50.90026],[-119.83703,50.90041],[-119.83685,50.9006],[-119.83679,50.90076],[-119.83677,50.90095],[-119.83673,50.90123],[-119.83665,50.90161],[-119.83663,50.90185],[-119.83665,50.90204],[-119.83665,50.90227],[-119.83667,50.90237],[-119.83675,50.90257],[-119.8368,50.90275],[-119.83686,50.9029],[-119.83698,50.90306],[-119.83718,50.90321],[-119.83753,50.90339],[-119.83788,50.90354],[-119.83806,50.90367],[-119.83819,50.90383],[-119.83821,50.90404],[-119.83826,50.90428],[-119.8383,50.90453],[-119.8383,50.90478],[-119.83833,50.90507],[-119.83836,50.90522],[-119.83842,50.90545],[-119.83846,50.90573],[-119.83851,50.90594],[-119.83865,50.9061],[-119.83889,50.90621],[-119.83918,50.90632],[-119.83949,50.90646],[-119.8397,50.90661],[-119.83988,50.90685],[-119.83994,50.90716],[-119.8401,50.90747],[-119.84031,50.90774],[-119.84053,50.90799],[-119.84074,50.9082],[-119.84087,50.90831],[-119.84105,50.90849],[-119.84137,50.90888],[-119.84164,50.90921],[-119.84192,50.90952],[-119.84213,50.90976],[-119.84234,50.91002],[-119.84237,50.91021],[-119.84224,50.91052],[-119.84215,50.91076],[-119.84201,50.91093],[-119.8418,50.91107],[-119.84167,50.9112],[-119.84165,50.91134],[-119.84156,50.9115],[-119.84155,50.91164],[-119.84164,50.91178],[-119.84176,50.91196],[-119.84193,50.91218],[-119.8421,50.91241],[-119.84216,50.91268],[-119.84225,50.9129],[-119.84239,50.9131],[-119.8426,50.91328],[-119.84281,50.91348],[-119.84293,50.9136],[-119.84308,50.91389],[-119.84323,50.91413],[-119.84337,50.91428],[-119.84353,50.91451],[-119.8436,50.9148],[-119.84363,50.91508],[-119.8436,50.91539],[-119.84359,50.91565],[-119.84356,50.9159],[-119.84345,50.91615]]}},
{"type":"Feature","properties":{"spotId":"A-grouse-walk-0097","kind":"walk","km":0.03,"climbM":1,"name":"3.0 km SE of Cahilty, Mount","flags":[]},"geometry":{"type":"LineString","coordinates":[[-119.84501,50.93917],[-119.84458,50.93913]]}},
{"type":"Feature","properties":{"spotId":"A-grouse-walk-0097","kind":"roadside","km":3.03,"climbM":7,"name":"3.0 km SE of Cahilty, Mount","flags":[]},"geometry":{"type":"LineString","coordinates":[[-119.84458,50.93913],[-119.84477,50.93916],[-119.84507,50.93916],[-119.84548,50.9391],[-119.84583,50.93903],[-119.84612,50.93897],[-119.84644,50.93896],[-119.84679,50.93896],[-119.84718,50.93892],[-119.84739,50.93886],[-119.84761,50.93874],[-119.84782,50.93863],[-119.84803,50.93854],[-119.84837,50.93847],[-119.84881,50.93833],[-119.84907,50.93823],[-119.8492,50.93815],[-119.84941,50.93801],[-119.84965,50.93785],[-119.84985,50.93771],[-119.85007,50.93753],[-119.85023,50.9374],[-119.85041,50.93727],[-119.85054,50.9372],[-119.85066,50.93711],[-119.85088,50.93698],[-119.85107,50.93682],[-119.85125,50.93664],[-119.85137,50.93642],[-119.85148,50.93627],[-119.8517,50.93612],[-119.85199,50.93598],[-119.8523,50.93586],[-119.85259,50.93575],[-119.85296,50.93572],[-119.85329,50.93565],[-119.85368,50.9355],[-119.85396,50.93532],[-119.85404,50.93526],[-119.85417,50.93512],[-119.85435,50.93493],[-119.85455,50.9348],[-119.8548,50.93468],[-119.85497,50.93456],[-119.85503,50.93439],[-119.85502,50.9341],[-119.85492,50.93391],[-119.85488,50.9338],[-119.85476,50.93361],[-119.85453,50.93327],[-119.85431,50.93305],[-119.85422,50.93291],[-119.8542,50.93278],[-119.85425,50.93266],[-119.85439,50.93255],[-119.85453,50.9324],[-119.85464,50.93221],[-119.85487,50.93209],[-119.85516,50.932],[-119.85521,50.93198],[-119.85533,50.93195],[-119.85547,50.93191],[-119.85562,50.93185],[-119.8558,50.93183],[-119.85594,50.93184],[-119.85621,50.93179],[-119.85639,50.9317],[-119.85659,50.93161],[-119.85686,50.93157],[-119.85714,50.93158],[-119.85752,50.93162],[-119.85772,50.93164],[-119.85801,50.93163],[-119.85835,50.93158],[-119.85862,50.9315],[-119.8589,50.93137],[-119.85915,50.93126],[-119.85949,50.93115],[-119.8599,50.93109],[-119.86024,50.9311],[-119.86064,50.93112],[-119.86097,50.93119],[-119.86116,50.93127],[-119.8614,50.93129],[-119.86166,50.93133],[-119.86189,50.93134],[-119.86215,50.93137],[-119.86252,50.93146],[-119.86274,50.93152],[-119.86304,50.93161],[-119.86333,50.9317],[-119.86364,50.93172],[-119.86406,50.93174],[-119.86439,50.93178],[-119.86476,50.93187],[-119.86515,50.93199],[-119.86558,50.93212],[-119.86602,50.93219],[-119.86647,50.93225],[-119.86694,50.93229],[-119.86738,50.93231],[-119.86773,50.93233],[-119.86797,50.93231],[-119.86815,50.93232],[-119.86853,50.93232],[-119.86897,50.93234],[-119.86922,50.93234],[-119.8695,50.93232],[-119.86979,50.93226],[-119.87005,50.93222],[-119.87033,50.93223],[-119.87076,50.93231],[-119.87118,50.93237],[-119.87153,50.93239],[-119.87171,50.93238],[-119.87194,50.93233],[-119.87223,50.93228],[-119.87261,50.93223],[-119.8728,50.9322],[-119.873,50.9321],[-119.87322,50.93195],[-119.87339,50.93187],[-119.87363,50.93182],[-119.87388,50.93179],[-119.87403,50.93177],[-119.8742,50.93174],[-119.87445,50.93168],[-119.87476,50.93158],[-119.87504,50.93148],[-119.87527,50.9314],[-119.87548,50.93132],[-119.87573,50.9312],[-119.876,50.93107],[-119.87622,50.93093],[-119.87635,50.93082],[-119.8765,50.9307],[-119.87656,50.93059],[-119.87662,50.93044],[-119.87675,50.93026],[-119.87686,50.93012],[-119.87694,50.93003],[-119.87706,50.92995],[-119.87728,50.92994],[-119.87754,50.92997],[-119.87772,50.92995],[-119.87785,50.92995]]}},
{"type":"Feature","properties":{"spotId":"A-moose-atv-0045","kind":"ride","km":3.57,"climbM":49,"name":"340 m NE of Louis Creek","flags":[]},"geometry":{"type":"LineString","coordinates":[[-119.91546,50.80001],[-119.91562,50.80006],[-119.91576,50.80011],[-119.91593,50.80024],[-119.91597,50.80027],[-119.91597,50.80028],[-119.91599,50.80028],[-119.91599,50.80029],[-119.91599,50.8003],[-119.916,50.8003],[-119.916,50.80031],[-119.91602,50.80031],[-119.91605,50.80034],[-119.91606,50.80038],[-119.91619,50.80059],[-119.91622,50.80079],[-119.91623,50.801],[-119.91623,50.80101],[-119.91623,50.80106],[-119.91625,50.80124],[-119.91625,50.80128],[-119.91622,50.80136],[-119.91636,50.80141],[-119.91666,50.80148],[-119.91733,50.80175],[-119.91769,50.80213],[-119.91805,50.80242],[-119.91824,50.80269],[-119.91843,50.80288],[-119.91867,50.80303],[-119.91896,50.80328],[-119.91982,50.80391],[-119.92018,50.80423],[-119.92032,50.80439],[-119.92039,50.80462],[-119.92054,50.80477],[-119.92087,50.80486],[-119.92148,50.80512],[-119.92231,50.80557],[-119.92224,50.80544],[-119.92219,50.80532],[-119.92216,50.80523],[-119.92211,50.80514],[-119.92206,50.80503],[-119.92203,50.80495],[-119.92198,50.80488],[-119.92192,50.80483],[-119.92186,50.80476],[-119.9218,50.80471],[-119.92174,50.80466],[-119.92169,50.8046],[-119.92167,50.80453],[-119.92167,50.80445],[-119.92165,50.80436],[-119.92163,50.80427],[-119.92161,50.80418],[-119.92158,50.80409],[-119.92154,50.804],[-119.92149,50.80392],[-119.92145,50.80386],[-119.92145,50.80385],[-119.92137,50.8038],[-119.92125,50.80368],[-119.92122,50.80361],[-119.9212,50.80352],[-119.92118,50.80344],[-119.92116,50.80335],[-119.92114,50.80327],[-119.92112,50.80317],[-119.9211,50.80307],[-119.92108,50.80298],[-119.92106,50.8029],[-119.92107,50.80285],[-119.92112,50.80275],[-119.92115,50.80269],[-119.92114,50.80262],[-119.92111,50.80255],[-119.92108,50.80248],[-119.92109,50.80242],[-119.92111,50.80236],[-119.92115,50.80228],[-119.92117,50.8022],[-119.92118,50.8021],[-119.92118,50.80201],[-119.92116,50.80193],[-119.92114,50.80183],[-119.9211,50.80173],[-119.92107,50.80164],[-119.92103,50.80155],[-119.92097,50.80145],[-119.92091,50.80137],[-119.92083,50.80129],[-119.92077,50.80123],[-119.92067,50.80118],[-119.92058,50.80114],[-119.92045,50.80108],[-119.92034,50.80106],[-119.92022,50.80104],[-119.92012,50.801],[-119.92002,50.80097],[-119.9199,50.80095],[-119.91977,50.80091],[-119.91966,50.80089],[-119.91954,50.80086],[-119.91943,50.80082],[-119.91931,50.80078],[-119.91918,50.80072],[-119.91906,50.80066],[-119.91894,50.8006],[-119.91881,50.80055],[-119.91868,50.8005],[-119.91857,50.80047],[-119.91848,50.80042],[-119.91837,50.80032],[-119.91833,50.80026],[-119.91828,50.8002],[-119.91815,50.80012],[-119.91799,50.80002],[-119.91796,50.8],[-119.91769,50.79985],[-119.91765,50.79981],[-119.91759,50.79975],[-119.91753,50.79969],[-119.91746,50.7996],[-119.91742,50.79952],[-119.91735,50.79943],[-119.91726,50.79934],[-119.91724,50.79928],[-119.91718,50.79921],[-119.91712,50.79915],[-119.91691,50.799],[-119.91684,50.79893],[-119.91672,50.79884],[-119.91663,50.79877],[-119.91653,50.79869],[-119.91635,50.79858],[-119.91626,50.79853],[-119.91611,50.79845],[-119.91601,50.79842],[-119.91588,50.79838],[-119.91572,50.79834],[-119.91559,50.7983],[-119.91553,50.79825],[-119.91538,50.7981],[-119.91526,50.79798],[-119.91513,50.79785],[-119.91505,50.79778],[-119.91499,50.79772],[-119.91488,50.79763],[-119.91481,50.79756],[-119.9147,50.79745],[-119.91461,50.79735],[-119.91455,50.79729],[-119.91449,50.7972],[-119.91443,50.79712],[-119.91439,50.79703],[-119.91436,50.79696],[-119.91434,50.79687],[-119.91432,50.79678],[-119.9143,50.7967],[-119.91425,50.79659],[-119.91419,50.79647],[-119.91415,50.79638],[-119.91416,50.79621],[-119.91418,50.79606],[-119.91418,50.79595],[-119.91423,50.79585],[-119.91434,50.79579],[-119.91435,50.7957],[-119.91433,50.79562],[-119.91427,50.79556],[-119.91419,50.79553],[-119.91396,50.7955],[-119.91376,50.7955],[-119.9136,50.79549],[-119.91346,50.79548],[-119.91314,50.79536],[-119.91289,50.79523],[-119.91274,50.79512],[-119.91255,50.79497],[-119.9124,50.79485],[-119.91218,50.79469],[-119.912,50.79453],[-119.91189,50.79439],[-119.91178,50.79424],[-119.91173,50.79414],[-119.91167,50.79405],[-119.91157,50.79389],[-119.91143,50.79373],[-119.91139,50.79363],[-119.91135,50.79353],[-119.91129,50.79339],[-119.91124,50.79328],[-119.91111,50.7931],[-119.91102,50.79296],[-119.91087,50.79282],[-119.91079,50.79276],[-119.91066,50.79264],[-119.91059,50.79255],[-119.9105,50.79242],[-119.91044,50.7923],[-119.91042,50.79225],[-119.91036,50.79218],[-119.91021,50.79201],[-119.91003,50.79189],[-119.90973,50.79169],[-119.90954,50.79152],[-119.90945,50.79143],[-119.90931,50.79131],[-119.90924,50.79124],[-119.90915,50.79115],[-119.909,50.79105],[-119.90886,50.79095],[-119.90879,50.79086],[-119.90871,50.79073],[-119.90866,50.79063],[-119.90861,50.79051],[-119.90853,50.79043],[-119.90841,50.79025],[-119.90828,50.79009],[-119.90819,50.78998],[-119.90809,50.78985],[-119.90798,50.78971],[-119.90792,50.78962],[-119.90787,50.78957],[-119.90769,50.78942],[-119.90766,50.78935],[-119.90755,50.78923],[-119.90747,50.78915],[-119.90728,50.789],[-119.90719,50.78893],[-119.90714,50.78885],[-119.9071,50.78875],[-119.90708,50.78866],[-119.90703,50.78859],[-119.90697,50.7885],[-119.90683,50.78839],[-119.90653,50.78816],[-119.90642,50.7881],[-119.9062,50.78803],[-119.90598,50.78799],[-119.90581,50.78791],[-119.90559,50.78782],[-119.90544,50.7877],[-119.90523,50.78755],[-119.90515,50.78743],[-119.90509,50.78735],[-119.90504,50.78725],[-119.90496,50.78709],[-119.90488,50.78696],[-119.90476,50.7868],[-119.90467,50.78666],[-119.90456,50.78652],[-119.90452,50.7864],[-119.9045,50.78625],[-119.90442,50.78606],[-119.90432,50.78592],[-119.90423,50.78579],[-119.90414,50.7857],[-119.90391,50.78551],[-119.90387,50.78547]]}},
{"type":"Feature","properties":{"spotId":"A-moose-atv-0045","kind":"walk","km":0.31,"climbM":49,"name":"340 m NE of Louis Creek","flags":[]},"geometry":{"type":"LineString","coordinates":[[-119.90387,50.78547],[-119.90009,50.78697]]}},
{"type":"Feature","properties":{"spotId":"A-moose-atv-0067","kind":"ride","km":1.64,"climbM":60,"name":"1.5 km N of Morrisey Lake East rec site","flags":[]},"geometry":{"type":"LineString","coordinates":[[-119.82149,50.86802],[-119.82146,50.86804],[-119.82135,50.86808],[-119.82124,50.86808],[-119.82107,50.8681],[-119.8209,50.86811],[-119.82081,50.86811],[-119.82072,50.8681],[-119.82064,50.86811],[-119.82047,50.8681],[-119.82035,50.86809],[-119.82024,50.86806],[-119.82014,50.86806],[-119.82004,50.86806],[-119.81991,50.86805],[-119.81981,50.86809],[-119.81976,50.86818],[-119.81974,50.86825],[-119.81973,50.86835],[-119.81973,50.8684],[-119.81968,50.86849],[-119.81966,50.8686],[-119.81963,50.86866],[-119.81961,50.86872],[-119.81958,50.86879],[-119.81956,50.86884],[-119.81953,50.86891],[-119.81951,50.86896],[-119.8195,50.86902],[-119.81952,50.86911],[-119.81955,50.86917],[-119.81958,50.8692],[-119.81961,50.86926],[-119.81964,50.86931],[-119.81971,50.86937],[-119.81974,50.86943],[-119.81977,50.86949],[-119.81976,50.86959],[-119.81977,50.86969],[-119.81978,50.86975],[-119.81978,50.86982],[-119.81978,50.86988],[-119.81977,50.86994],[-119.81977,50.86999],[-119.81977,50.87005],[-119.81975,50.87014],[-119.81967,50.87023],[-119.81959,50.87034],[-119.81957,50.87039],[-119.81953,50.87044],[-119.81946,50.8705],[-119.81941,50.87057],[-119.81934,50.87068],[-119.81932,50.87073],[-119.81929,50.87079],[-119.81927,50.87088],[-119.81923,50.87097],[-119.81921,50.87103],[-119.8192,50.87108],[-119.81919,50.87115],[-119.81918,50.87121],[-119.81915,50.87126],[-119.81911,50.87137],[-119.81909,50.87142],[-119.81906,50.87148],[-119.81903,50.87154],[-119.81896,50.87163],[-119.81895,50.87169],[-119.81888,50.87179],[-119.81886,50.8719],[-119.81884,50.87196],[-119.81881,50.87203],[-119.81879,50.87209],[-119.81878,50.87215],[-119.81874,50.87223],[-119.81866,50.87234],[-119.81861,50.8724],[-119.81854,50.87246],[-119.81849,50.87251],[-119.81843,50.87257],[-119.8183,50.87266],[-119.8182,50.87273],[-119.8181,50.87277],[-119.81795,50.87281],[-119.81782,50.87284],[-119.81771,50.87285],[-119.81761,50.87286],[-119.8175,50.87286],[-119.81741,50.87287],[-119.81733,50.87289],[-119.8172,50.87291],[-119.81712,50.87292],[-119.817,50.87293],[-119.8169,50.87296],[-119.8168,50.87298],[-119.81669,50.87301],[-119.81658,50.87306],[-119.81646,50.8731],[-119.81632,50.87317],[-119.81622,50.87327],[-119.81622,50.87338],[-119.81621,50.87345],[-119.8162,50.87353],[-119.8162,50.87359],[-119.81619,50.87367],[-119.81619,50.87369],[-119.81618,50.87375],[-119.81617,50.87384],[-119.81612,50.87392],[-119.81604,50.87398],[-119.81591,50.87401],[-119.81576,50.87403],[-119.81566,50.87405],[-119.81556,50.87406],[-119.81548,50.87407],[-119.81541,50.87408],[-119.81532,50.87409],[-119.81515,50.87414],[-119.81508,50.87416],[-119.81499,50.87418],[-119.81485,50.87424],[-119.81472,50.87431],[-119.81457,50.87442],[-119.81444,50.87451],[-119.81431,50.8746],[-119.81419,50.87469],[-119.8141,50.87474],[-119.81403,50.8748],[-119.81395,50.87485],[-119.81386,50.87491],[-119.81376,50.87499],[-119.81364,50.87503],[-119.81355,50.87505],[-119.81346,50.87508],[-119.81338,50.87511],[-119.81329,50.87512],[-119.81318,50.87512],[-119.81308,50.8751],[-119.81299,50.87507],[-119.81289,50.87504],[-119.81282,50.87499],[-119.81271,50.87494],[-119.81257,50.87484],[-119.81243,50.87476],[-119.81229,50.87468],[-119.81218,50.87462],[-119.81215,50.8746],[-119.81208,50.87455],[-119.81195,50.87445],[-119.81183,50.87437],[-119.81174,50.87434],[-119.81162,50.87429],[-119.81152,50.87426],[-119.81136,50.87423],[-119.81128,50.87422],[-119.81112,50.8742],[-119.81102,50.8742],[-119.81093,50.87418],[-119.81086,50.87415],[-119.81071,50.87408],[-119.81067,50.87403],[-119.81051,50.87418],[-119.81046,50.87439],[-119.81059,50.8746],[-119.81055,50.87473],[-119.81032,50.8749],[-119.81021,50.87509],[-119.81019,50.87523],[-119.81024,50.87536],[-119.81033,50.87548],[-119.81055,50.87566],[-119.81079,50.87583],[-119.81101,50.87597],[-119.81123,50.87605]]}},
{"type":"Feature","properties":{"spotId":"A-moose-atv-0067","kind":"walk","km":0.06,"climbM":0,"name":"1.5 km N of Morrisey Lake East rec site","flags":[]},"geometry":{"type":"LineString","coordinates":[[-119.81123,50.87605],[-119.81089,50.87656]]}},
{"type":"Feature","properties":{"spotId":"A-moose-drive-0062","kind":"walk","km":0.16,"climbM":0,"name":"150 m N of Morrisey Lake","flags":[]},"geometry":{"type":"LineString","coordinates":[[-119.82094,50.86776],[-119.82088,50.8663]]}},
{"type":"Feature","properties":{"spotId":"A-moose-drive-0064","kind":"walk","km":0.19,"climbM":0,"name":"1.1 km NE of Paul Creek","flags":[]},"geometry":{"type":"LineString","coordinates":[[-119.93779,50.76432],[-119.93675,50.7627]]}},
{"type":"Feature","properties":{"spotId":"A-moose-walk-0098","kind":"walk","km":0.87,"climbM":12,"name":"330 m NE of Louis Creek","flags":[]},"geometry":{"type":"LineString","coordinates":[[-119.90659,50.79304],[-119.90638,50.79303],[-119.90615,50.79297],[-119.90599,50.79292],[-119.90573,50.79285],[-119.90533,50.79276],[-119.90511,50.79271],[-119.90502,50.79266],[-119.90489,50.79261],[-119.90476,50.79256],[-119.9046,50.7925],[-119.90437,50.79243],[-119.9042,50.79237],[-119.90388,50.79227],[-119.90379,50.79223],[-119.90367,50.79217],[-119.90353,50.79211],[-119.90344,50.79206],[-119.90331,50.792],[-119.90313,50.79193],[-119.90305,50.79189],[-119.90296,50.79186],[-119.90287,50.79182],[-119.90261,50.79173],[-119.90233,50.79154],[-119.902,50.79133],[-119.90192,50.79127],[-119.90184,50.79121],[-119.90178,50.79116],[-119.90174,50.79112],[-119.90166,50.79103],[-119.90158,50.79097],[-119.90144,50.79087],[-119.90133,50.7908],[-119.90123,50.79074],[-119.90116,50.79071],[-119.90104,50.79067],[-119.90093,50.79063],[-119.90068,50.78726]]}}
]}
