{"type":"FeatureCollection","features":[
{"type":"Feature","properties":{"spotId":"A-camp-camp-0111","kind":"walk","km":0.06,"climbM":0,"name":"920 m NE of Birk Creek","flags":[]},"geometry":{"type":"LineString","coordinates":[[-119.95292,51.35615],[-119.95289,51.35561]]}},
{"type":"Feature","properties":{"spotId":"A-duck-drive-0053","kind":"walk","km":0.15,"climbM":0,"name":"Unnamed wetland 440 m E of North Barrière Lake","flags":[]},"geometry":{"type":"LineString","coordinates":[[-119.7925,51.35011],[-119.79204,51.34879]]}},
{"type":"Feature","properties":{"spotId":"A-duck-drive-0145","kind":"walk","km":0.08,"climbM":0,"name":"Unnamed wetland 1.0 km NE of Birk Creek","flags":[]},"geometry":{"type":"LineString","coordinates":[[-119.94746,51.35268],[-119.94728,51.35339]]}},
{"type":"Feature","properties":{"spotId":"A-duck-walk-0003","kind":"walk","km":0.48,"climbM":0,"name":"Unnamed wetland by Barrière River","flags":["Route crosses private land (ParcelMap BC, updated 2026-09-25): get permission first or go around."]},"geometry":{"type":"LineString","coordinates":[[-119.80185,51.34935],[-119.80023,51.3452]]}},
{"type":"Feature","properties":{"spotId":"A-grouse-atv-0017","kind":"walk","km":0.04,"climbM":0,"name":"By Sprague Creek","flags":[]},"geometry":{"type":"LineString","coordinates":[[-119.99766,51.28672],[-119.99786,51.28642]]}},
{"type":"Feature","properties":{"spotId":"A-grouse-atv-0017","kind":"ride","km":4.97,"climbM":34,"name":"By Sprague Creek","flags":[]},"geometry":{"type":"LineString","coordinates":[[-119.99786,51.28642],[-119.99803,51.2864],[-119.99832,51.28643],[-119.99843,51.28654],[-119.99853,51.28653],[-119.99862,51.28651],[-119.99872,51.28648],[-119.99877,51.28647],[-119.99895,51.28641],[-119.99919,51.28643],[-119.99942,51.28645],[-119.99959,51.2864],[-119.99961,51.28629],[-119.99957,51.28625],[-119.99946,51.28618],[-119.99932,51.28604],[-119.99919,51.28589],[-119.99906,51.2857],[-119.99883,51.28555],[-119.99863,51.28543],[-119.99842,51.28532],[-119.9981,51.28524],[-119.99772,51.28511],[-119.99749,51.2849],[-119.9974,51.28469],[-119.99737,51.2844],[-119.99728,51.28415],[-119.99728,51.28388],[-119.99729,51.28363],[-119.99742,51.28339],[-119.99763,51.28321],[-119.99771,51.2829],[-119.99765,51.28263],[-119.99763,51.28233],[-119.99796,51.28204],[-119.99814,51.28178],[-119.9982,51.2814],[-119.99823,51.28128],[-119.99819,51.281],[-119.99816,51.28064],[-119.99818,51.28038],[-119.9983,51.28],[-119.99849,51.27968],[-119.99874,51.27948],[-119.99909,51.27929],[-119.99949,51.27911],[-119.99985,51.27907],[-120.0,51.27907],[-120.00028,51.27907],[-120.0005,51.27905],[-120.00073,51.27903],[-120.00089,51.27901],[-120.00117,51.27896],[-120.00142,51.27897],[-120.00159,51.27903],[-120.00181,51.27913],[-120.00198,51.27917],[-120.00221,51.27916],[-120.00245,51.27909],[-120.00249,51.27907],[-120.00273,51.27897],[-120.00293,51.27888],[-120.00313,51.27879],[-120.00329,51.27869],[-120.00343,51.27855],[-120.00357,51.27842],[-120.00371,51.27828],[-120.00384,51.27816],[-120.00397,51.27802],[-120.00408,51.27787],[-120.00417,51.27773],[-120.00427,51.27757],[-120.00433,51.27743],[-120.00442,51.27728],[-120.00448,51.2771],[-120.00455,51.27693],[-120.00466,51.27682],[-120.00469,51.27679],[-120.00478,51.27672],[-120.00495,51.27659],[-120.00498,51.27654],[-120.00503,51.27645],[-120.00511,51.27628],[-120.00519,51.27615],[-120.00532,51.276],[-120.00548,51.2759],[-120.00567,51.27582],[-120.00586,51.27573],[-120.0059,51.27566],[-120.00589,51.27549],[-120.0059,51.27535],[-120.00592,51.27526],[-120.00606,51.27514],[-120.00623,51.27503],[-120.00638,51.2749],[-120.00644,51.27475],[-120.00654,51.27461],[-120.00663,51.27448],[-120.00679,51.27431],[-120.00712,51.2741],[-120.00717,51.27394],[-120.00724,51.2738],[-120.00739,51.27362],[-120.00755,51.27347],[-120.00771,51.27334],[-120.00783,51.27321],[-120.008,51.27306],[-120.00814,51.27292],[-120.00818,51.27287],[-120.00825,51.27277],[-120.00834,51.27272],[-120.00859,51.27265],[-120.00886,51.27263],[-120.00911,51.27261],[-120.00934,51.27257],[-120.00956,51.27253],[-120.00979,51.27242],[-120.00981,51.2724],[-120.00981,51.27238],[-120.00982,51.27223],[-120.00983,51.27206],[-120.00994,51.27198],[-120.01014,51.27192],[-120.01039,51.27191],[-120.01063,51.27191],[-120.01092,51.27192],[-120.01117,51.27192],[-120.01143,51.27191],[-120.01171,51.2719],[-120.01193,51.27191],[-120.01213,51.27195],[-120.01233,51.27205],[-120.01266,51.27228],[-120.01285,51.27242],[-120.01305,51.27255],[-120.01327,51.27261],[-120.01341,51.27264],[-120.01358,51.27268],[-120.01379,51.27266],[-120.01388,51.27263],[-120.0141,51.27253],[-120.01431,51.27247],[-120.01454,51.2724],[-120.01476,51.27234],[-120.01492,51.27226],[-120.01504,51.27217],[-120.01505,51.272],[-120.01509,51.27184],[-120.01515,51.2717],[-120.01524,51.27155],[-120.01542,51.2714],[-120.01564,51.27132],[-120.01586,51.27125],[-120.01595,51.2712],[-120.01601,51.27116],[-120.01605,51.27101],[-120.01606,51.27087],[-120.01609,51.27071],[-120.01612,51.27055],[-120.01619,51.27039],[-120.01632,51.27023],[-120.01645,51.2701],[-120.01659,51.26994],[-120.01676,51.26979],[-120.01694,51.26967],[-120.0171,51.2696],[-120.01734,51.26953],[-120.01757,51.26949],[-120.01782,51.26939],[-120.01806,51.26929],[-120.01817,51.26913],[-120.01833,51.26902],[-120.01854,51.26888],[-120.0187,51.26878],[-120.01874,51.26871],[-120.01875,51.26855],[-120.01875,51.26854],[-120.01873,51.26837],[-120.01871,51.26824],[-120.01868,51.26811],[-120.01867,51.26795],[-120.0187,51.26777],[-120.0187,51.26769],[-120.01879,51.26754],[-120.01881,51.26735],[-120.01885,51.2672],[-120.01892,51.26704],[-120.01901,51.26687],[-120.01908,51.26673],[-120.01915,51.26658],[-120.01919,51.26641],[-120.01924,51.26624],[-120.01932,51.26609],[-120.01942,51.26593],[-120.01952,51.26577],[-120.01961,51.26562],[-120.01974,51.2655],[-120.01993,51.26533],[-120.02014,51.26519],[-120.02038,51.26506],[-120.02057,51.26497],[-120.02081,51.26487],[-120.02099,51.26477],[-120.02117,51.26464],[-120.02132,51.2645],[-120.02147,51.26435],[-120.02157,51.2642],[-120.02166,51.26405],[-120.02177,51.26392],[-120.02188,51.26376],[-120.02202,51.2636],[-120.02232,51.26346],[-120.02254,51.26337],[-120.02279,51.2633],[-120.02305,51.26327],[-120.02324,51.26323],[-120.02346,51.26314],[-120.02375,51.26309],[-120.02398,51.26307],[-120.02428,51.26311],[-120.02452,51.26314],[-120.02475,51.26315],[-120.02501,51.26311],[-120.0253,51.26308],[-120.02553,51.26305],[-120.02583,51.263],[-120.02609,51.26297],[-120.02637,51.26295],[-120.02662,51.26294],[-120.02694,51.26297],[-120.02721,51.26299],[-120.02743,51.26305],[-120.02766,51.26309],[-120.02792,51.26311],[-120.0281,51.26313],[-120.02833,51.26311],[-120.02862,51.26307],[-120.02884,51.263],[-120.02903,51.26297],[-120.02912,51.26296],[-120.02936,51.26296],[-120.02943,51.26297],[-120.02963,51.26308],[-120.02976,51.26322],[-120.02995,51.26336],[-120.03006,51.26341],[-120.03031,51.26341],[-120.03036,51.26341],[-120.03055,51.2634],[-120.03079,51.26341],[-120.03102,51.26344],[-120.0313,51.26353],[-120.0315,51.26362],[-120.03169,51.2637],[-120.03192,51.26378],[-120.03211,51.26386],[-120.03234,51.26391],[-120.03257,51.26394],[-120.03278,51.26394],[-120.03282,51.26395],[-120.03305,51.26393],[-120.03338,51.26392],[-120.03354,51.26391],[-120.03378,51.2638],[-120.03397,51.26371],[-120.03419,51.2636],[-120.0344,51.26354],[-120.03466,51.26352],[-120.03489,51.26354],[-120.03509,51.26354],[-120.03529,51.26356],[-120.03556,51.26357],[-120.03563,51.26359],[-120.03581,51.26363],[-120.0359,51.26366],[-120.03604,51.26369],[-120.03616,51.26376],[-120.0364,51.2638],[-120.03664,51.26384],[-120.03691,51.26389],[-120.03717,51.2639],[-120.03728,51.26392]]}},
{"type":"Feature","properties":{"spotId":"A-grouse-atv-0051","kind":"ride","km":6.57,"climbM":34,"name":"By Harper Creek","flags":[]},"geometry":{"type":"LineString","coordinates":[[-119.86182,51.43446],[-119.8622,51.43318],[-119.86232,51.43302],[-119.86307,51.43192],[-119.8634,51.43096],[-119.86385,51.4301],[-119.86401,51.42903],[-119.86416,51.42843],[-119.86439,51.42778],[-119.86439,51.42684],[-119.8646,51.42648],[-119.86507,51.42591],[-119.86531,51.42527],[-119.86563,51.42496],[-119.86581,51.42466],[-119.8658,51.42451],[-119.86555,51.42414],[-119.86542,51.42376],[-119.86538,51.42277],[-119.86575,51.42206],[-119.86601,51.42167],[-119.86762,51.42035],[-119.86787,51.42006],[-119.86801,51.41966],[-119.86804,51.41892],[-119.86801,51.41875],[-119.86788,51.41846],[-119.86781,51.41802],[-119.86784,51.41786],[-119.86806,51.41743],[-119.86818,51.41698],[-119.86815,51.41652],[-119.86806,51.41635],[-119.86798,51.41594],[-119.86797,51.41551],[-119.86805,51.41494],[-119.868,51.41444],[-119.86812,51.41401],[-119.86806,51.41301],[-119.86817,51.41277],[-119.86852,51.41237],[-119.86863,51.41212],[-119.86862,51.41161],[-119.86871,51.41132],[-119.86888,51.41107],[-119.86927,51.41081],[-119.86947,51.41056],[-119.86957,51.41035],[-119.86987,51.40997],[-119.86996,51.40966],[-119.86997,51.40929],[-119.86981,51.40887],[-119.86976,51.4083],[-119.86995,51.40795],[-119.87,51.40731],[-119.87012,51.40696],[-119.87049,51.40645],[-119.87088,51.4055],[-119.87129,51.40472],[-119.87143,51.40377],[-119.87142,51.40327],[-119.87162,51.40291],[-119.87167,51.40259],[-119.87168,51.4022],[-119.87138,51.4013],[-119.87136,51.40096],[-119.87146,51.40054],[-119.87148,51.40022],[-119.87163,51.4],[-119.87165,51.39984],[-119.87159,51.39965],[-119.87137,51.39937],[-119.87133,51.399],[-119.87169,51.39864],[-119.87184,51.3984],[-119.87183,51.39769],[-119.87219,51.39728],[-119.87231,51.39707],[-119.87265,51.39675],[-119.87282,51.39652],[-119.87309,51.39607],[-119.87311,51.3959],[-119.87324,51.39568],[-119.87328,51.39539],[-119.87365,51.3948],[-119.87371,51.39453],[-119.87356,51.39396],[-119.87335,51.3936],[-119.87335,51.39324],[-119.87352,51.39305],[-119.87361,51.39282],[-119.87385,51.3925],[-119.87402,51.39236],[-119.87433,51.39202],[-119.87446,51.39174],[-119.87442,51.39132],[-119.87462,51.39106],[-119.87491,51.3909],[-119.87509,51.39072],[-119.87526,51.3903],[-119.87531,51.38999],[-119.87546,51.38978],[-119.87573,51.38955],[-119.87589,51.38928],[-119.87591,51.38869],[-119.87586,51.38834],[-119.87609,51.38785],[-119.87615,51.38726],[-119.87591,51.38659],[-119.87552,51.38623],[-119.87541,51.38606],[-119.87522,51.3859],[-119.87511,51.38576],[-119.87499,51.38509],[-119.875,51.38474],[-119.87501,51.38467],[-119.87518,51.3845],[-119.87529,51.3843],[-119.87535,51.38392],[-119.87535,51.38348],[-119.87544,51.38337],[-119.87595,51.38302],[-119.87613,51.38281],[-119.87645,51.38259],[-119.87664,51.38233],[-119.87664,51.38152],[-119.87706,51.38091],[-119.87708,51.38008],[-119.87695,51.37948],[-119.87711,51.37892],[-119.87714,51.37839]]}},
{"type":"Feature","properties":{"spotId":"A-grouse-drive-0067","kind":"roadside","km":5.08,"climbM":35,"name":"By Harper Creek","flags":["Route crosses private land (ParcelMap BC, updated 2026-09-25): get permission first or go around."]},"geometry":{"type":"LineString","coordinates":[[-119.89092,51.32634],[-119.89112,51.32619],[-119.89133,51.32585],[-119.89146,51.32555],[-119.89147,51.32552],[-119.89154,51.32523],[-119.89156,51.32384],[-119.89163,51.32364],[-119.89165,51.32362],[-119.89179,51.32346],[-119.89208,51.3233],[-119.89244,51.32319],[-119.89356,51.32293],[-119.89491,51.32262],[-119.8973,51.32207],[-119.89768,51.322],[-119.89804,51.32197],[-119.89817,51.32197],[-119.89845,51.32197],[-119.89893,51.32204],[-119.89956,51.32212],[-119.89992,51.32209],[-119.90022,51.322],[-119.90048,51.32185],[-119.90205,51.32056],[-119.90233,51.3203],[-119.90276,51.31975],[-119.90304,51.31951],[-119.90377,51.31905],[-119.90456,51.31859],[-119.90521,51.31832],[-119.90668,51.31789],[-119.90736,51.3176],[-119.90787,51.31729],[-119.90919,51.31649],[-119.91075,51.31555],[-119.91115,51.31527],[-119.91141,51.31501],[-119.91205,51.31413],[-119.9124,51.31384],[-119.9142,51.31274],[-119.9168,51.31123],[-119.91705,51.31108],[-119.91742,51.31081],[-119.91767,51.31053],[-119.91787,51.31022],[-119.91859,51.30789],[-119.91875,51.30716],[-119.91874,51.30662],[-119.91874,51.30601],[-119.91882,51.30558],[-119.91923,51.30478],[-119.91941,51.3043],[-119.91999,51.30159],[-119.92027,51.30097],[-119.92041,51.30077],[-119.92065,51.30045],[-119.92139,51.29967],[-119.92301,51.29835],[-119.92335,51.298],[-119.92502,51.29522],[-119.92534,51.29468],[-119.92591,51.29412],[-119.9264,51.29378],[-119.92723,51.2934],[-119.92988,51.29171]]}},
{"type":"Feature","properties":{"spotId":"A-grouse-walk-0006","kind":"roadside","km":5.66,"climbM":26,"name":"By Harper Creek","flags":[]},"geometry":{"type":"LineString","coordinates":[[-119.84966,51.46778],[-119.84986,51.46754],[-119.84997,51.46733],[-119.85013,51.46707],[-119.85023,51.46683],[-119.85037,51.46648],[-119.8504,51.46624],[-119.85041,51.46597],[-119.85026,51.46549],[-119.85017,51.46514],[-119.84996,51.46484],[-119.84987,51.46448],[-119.84983,51.46409],[-119.84986,51.46368],[-119.84992,51.46335],[-119.85014,51.46299],[-119.85036,51.46257],[-119.85055,51.46232],[-119.85074,51.46201],[-119.85107,51.46149],[-119.8513,51.46114],[-119.85145,51.46094],[-119.85165,51.46075],[-119.8518,51.46053],[-119.85193,51.46027],[-119.85207,51.45999],[-119.85218,51.45982],[-119.85248,51.45966],[-119.85303,51.4594],[-119.85332,51.45926],[-119.85371,51.45898],[-119.85404,51.45871],[-119.85432,51.45853],[-119.85446,51.45835],[-119.8545,51.4582],[-119.85466,51.45798],[-119.85495,51.45769],[-119.85514,51.4575],[-119.85543,51.45729],[-119.85573,51.45708],[-119.85607,51.45686],[-119.85629,51.45665],[-119.8566,51.45646],[-119.85703,51.45623],[-119.85729,51.45609],[-119.85753,51.4559],[-119.85772,51.45566],[-119.85787,51.45549],[-119.8582,51.45527],[-119.85839,51.45511],[-119.85859,51.45495],[-119.85887,51.45481],[-119.8591,51.45464],[-119.8593,51.45441],[-119.85941,51.45416],[-119.85965,51.45389],[-119.85992,51.45366],[-119.86022,51.45343],[-119.8605,51.45321],[-119.86075,51.45296],[-119.86099,51.4526],[-119.86111,51.45244],[-119.86129,51.45229],[-119.86155,51.45205],[-119.86182,51.45173],[-119.86201,51.45149],[-119.86219,51.45126],[-119.86236,51.4511],[-119.86244,51.45091],[-119.86254,51.45071],[-119.86264,51.45058],[-119.86283,51.45045],[-119.86296,51.45028],[-119.863,51.45004],[-119.86303,51.44976],[-119.86309,51.44956],[-119.86307,51.4494],[-119.86304,51.44919],[-119.86309,51.44894],[-119.86321,51.44873],[-119.8634,51.44848],[-119.86361,51.44825],[-119.86374,51.44811],[-119.86381,51.44791],[-119.86383,51.44764],[-119.8638,51.44731],[-119.86376,51.44708],[-119.86368,51.44675],[-119.86345,51.44603],[-119.86318,51.44518],[-119.86305,51.44476],[-119.86285,51.44423],[-119.8628,51.44387],[-119.86275,51.44342],[-119.8627,51.44309],[-119.86277,51.44271],[-119.86276,51.44237],[-119.86267,51.442],[-119.86255,51.44167],[-119.86243,51.44141],[-119.86235,51.44121],[-119.86236,51.44095],[-119.86237,51.44068],[-119.86243,51.44049],[-119.86265,51.44024],[-119.8629,51.44003],[-119.86314,51.43972],[-119.86329,51.43935],[-119.86343,51.43905],[-119.86351,51.43873],[-119.86352,51.43837],[-119.86348,51.43809],[-119.86342,51.43766],[-119.86323,51.43724],[-119.86301,51.43694],[-119.8626,51.4366],[-119.86225,51.43634],[-119.86203,51.43617],[-119.86187,51.43596],[-119.8618,51.43578],[-119.86174,51.43542],[-119.86176,51.43518],[-119.86177,51.43491],[-119.86179,51.43463],[-119.86183,51.43433],[-119.86187,51.43412],[-119.86203,51.43376],[-119.86213,51.43344],[-119.86229,51.43315],[-119.86242,51.43283],[-119.86278,51.43234],[-119.86304,51.4319],[-119.86321,51.43153],[-119.86339,51.43121],[-119.86349,51.43083],[-119.86367,51.43045],[-119.86385,51.43003],[-119.86393,51.42967],[-119.864,51.4293],[-119.86404,51.429],[-119.8641,51.42873],[-119.86423,51.42824],[-119.86431,51.42791],[-119.8644,51.42762],[-119.86444,51.42719],[-119.86443,51.42691],[-119.86462,51.42658],[-119.86484,51.42629],[-119.86498,51.42611],[-119.86508,51.42591],[-119.86516,51.42569],[-119.86527,51.42547],[-119.8654,51.42523],[-119.86551,51.42507],[-119.86564,51.42487],[-119.8657,51.42472],[-119.86572,51.42453],[-119.86567,51.4244],[-119.86556,51.42419],[-119.86549,51.42404],[-119.86543,51.42368],[-119.8654,51.42341],[-119.86536,51.42317],[-119.86538,51.42285],[-119.86541,51.42262],[-119.86553,51.4224],[-119.86569,51.4221],[-119.86589,51.42185],[-119.86619,51.42154],[-119.86649,51.42133],[-119.86679,51.42109],[-119.86689,51.421]]}},
{"type":"Feature","properties":{"spotId":"A-grouse-walk-0028","kind":"roadside","km":3.48,"climbM":145,"name":"1.3 km W of Bear Creek","flags":["Route enters a Motor Vehicle Closed Area: Thompson, Cariboo and Okanagan Alpines. Closed Year Round. Exemption: Snowmobiles exempt year round (January 1 to December 31). Synopsis map 1-82/24."]},"geometry":{"type":"LineString","coordinates":[[-119.79344,51.3816],[-119.79377,51.38181],[-119.7941,51.38204],[-119.79441,51.38231],[-119.79481,51.38255],[-119.79534,51.38284],[-119.79584,51.38304],[-119.79642,51.3832],[-119.79744,51.3835],[-119.7983,51.38382],[-119.79892,51.38411],[-119.79961,51.38439],[-119.80031,51.3847],[-119.80072,51.38491],[-119.80126,51.38517],[-119.80166,51.38529],[-119.80223,51.38552],[-119.80305,51.38593],[-119.80373,51.3863],[-119.80452,51.38666],[-119.80483,51.38681],[-119.80514,51.38697],[-119.80556,51.38723],[-119.8059,51.38743],[-119.80625,51.38771],[-119.80649,51.38802],[-119.80692,51.38821],[-119.80728,51.38823],[-119.80773,51.38818],[-119.80833,51.38821],[-119.80877,51.38824],[-119.80937,51.38825],[-119.80995,51.38826],[-119.81058,51.38837],[-119.81112,51.38849],[-119.81147,51.38875],[-119.81177,51.38903],[-119.81193,51.38928],[-119.81199,51.38946],[-119.81196,51.38971],[-119.81184,51.38995],[-119.81172,51.39024],[-119.81157,51.39051],[-119.81137,51.39075],[-119.81114,51.39106],[-119.81103,51.3913],[-119.81079,51.39155],[-119.81063,51.39188],[-119.8105,51.39225],[-119.81048,51.39261],[-119.8105,51.39297],[-119.81047,51.39324],[-119.81049,51.39349],[-119.81056,51.39373],[-119.81062,51.39403],[-119.8107,51.39442],[-119.81075,51.39486],[-119.8108,51.39501],[-119.81085,51.3953],[-119.81095,51.39558],[-119.8109,51.39588],[-119.81077,51.3961],[-119.81065,51.39636],[-119.8106,51.39658],[-119.81056,51.39684],[-119.81054,51.39709],[-119.81059,51.39731],[-119.81059,51.39759],[-119.81063,51.39784],[-119.81076,51.39809],[-119.81088,51.39835],[-119.8109,51.39855],[-119.81105,51.39874],[-119.81132,51.39903],[-119.81141,51.3992],[-119.81153,51.3994],[-119.8116,51.3998],[-119.81165,51.40005],[-119.81174,51.40036],[-119.81185,51.40078],[-119.81195,51.401],[-119.81226,51.40125],[-119.81261,51.40138],[-119.813,51.40151],[-119.81346,51.40166],[-119.81366,51.40186],[-119.8139,51.40202],[-119.81418,51.40226],[-119.81451,51.4025],[-119.81471,51.40277],[-119.8148,51.40301],[-119.81493,51.40323],[-119.81496,51.40342],[-119.81496,51.40376],[-119.81499,51.40404],[-119.81499,51.40432],[-119.81518,51.40467],[-119.81551,51.40476]]}},
{"type":"Feature","properties":{"spotId":"A-grouse-walk-0040","kind":"roadside","km":4.3,"climbM":112,"name":"1.4 km W of Vermelin Creek","flags":["Route enters a Motor Vehicle Closed Area: Thompson, Cariboo and Okanagan Alpines. Closed Year Round. Exemption: Snowmobiles exempt year round (January 1 to December 31). Synopsis map 1-82/24."]},"geometry":{"type":"LineString","coordinates":[[-119.82895,51.42084],[-119.82914,51.42045],[-119.82922,51.41999],[-119.82945,51.41956],[-119.82984,51.4192],[-119.83002,51.41887],[-119.83013,51.41852],[-119.83017,51.41813],[-119.83036,51.41762],[-119.83059,51.41697],[-119.83093,51.41632],[-119.83101,51.41587],[-119.83112,51.41545],[-119.83118,51.4151],[-119.83127,51.41433],[-119.83138,51.41391],[-119.83156,51.41337],[-119.83177,51.41301],[-119.83186,51.41248],[-119.83189,51.412],[-119.83179,51.4113],[-119.83135,51.41033],[-119.83129,51.40979],[-119.83119,51.4095],[-119.83109,51.40926],[-119.83091,51.4089],[-119.83078,51.40849],[-119.83071,51.40813],[-119.83053,51.4079],[-119.82957,51.40681],[-119.82921,51.40584],[-119.82886,51.40526],[-119.8286,51.40459],[-119.82826,51.40412],[-119.82792,51.40394],[-119.82754,51.40381],[-119.82711,51.4037],[-119.82677,51.40368],[-119.82664,51.40363],[-119.82638,51.4035],[-119.82605,51.40342],[-119.82538,51.40337],[-119.8247,51.40338],[-119.8242,51.40352],[-119.82387,51.40363],[-119.82336,51.40383],[-119.82286,51.40394],[-119.82213,51.40408],[-119.82156,51.40417],[-119.82056,51.40423],[-119.8199,51.40445],[-119.81963,51.40465],[-119.81943,51.40492],[-119.81933,51.40524],[-119.81923,51.40549],[-119.81889,51.40572],[-119.81867,51.40587],[-119.81835,51.40588],[-119.81793,51.40583],[-119.81752,51.40576],[-119.81715,51.40566],[-119.81676,51.40549],[-119.81655,51.40529],[-119.81613,51.40502],[-119.81572,51.40485],[-119.81545,51.40485],[-119.81502,51.40467],[-119.81485,51.40366],[-119.8148,51.40325],[-119.81475,51.40278],[-119.81393,51.40205],[-119.81353,51.40182],[-119.81291,51.40145],[-119.81272,51.40137],[-119.81204,51.40109],[-119.81165,51.4],[-119.8116,51.3998],[-119.81154,51.3996],[-119.81143,51.3994],[-119.81136,51.39919],[-119.81125,51.39903],[-119.81114,51.39888],[-119.81105,51.39878],[-119.811,51.39872],[-119.81087,51.39856],[-119.81082,51.39839],[-119.81083,51.39825],[-119.81078,51.39814],[-119.81071,51.39806],[-119.81055,51.39767],[-119.81058,51.39734],[-119.81053,51.39714],[-119.81051,51.39705],[-119.81048,51.39686],[-119.81052,51.39671],[-119.81052,51.39661],[-119.81063,51.39646],[-119.8107,51.39624],[-119.81077,51.39611],[-119.81089,51.39596],[-119.81092,51.39581],[-119.81094,51.39561],[-119.81089,51.39546],[-119.81084,51.39535],[-119.81082,51.39528],[-119.81075,51.39515],[-119.81073,51.395],[-119.81068,51.39473],[-119.81064,51.39456],[-119.81061,51.39441]]}},
{"type":"Feature","properties":{"spotId":"A-grouse-walk-0041","kind":"roadside","km":5.66,"climbM":215,"name":"By Harper Creek","flags":["Route crosses private land (ParcelMap BC, updated 2026-09-25): get permission first or go around."]},"geometry":{"type":"LineString","coordinates":[[-119.88907,51.32652],[-119.88905,51.32669],[-119.88904,51.32693],[-119.88905,51.32719],[-119.88915,51.32745],[-119.88925,51.32764],[-119.88946,51.32783],[-119.8897,51.32797],[-119.88997,51.32804],[-119.89021,51.32813],[-119.89041,51.32829],[-119.89045,51.32847],[-119.89055,51.32879],[-119.89062,51.329],[-119.89066,51.32924],[-119.89064,51.32951],[-119.89061,51.32972],[-119.89053,51.32989],[-119.89042,51.33004],[-119.89022,51.3302],[-119.89004,51.33038],[-119.88982,51.33051],[-119.8896,51.33062],[-119.88931,51.33071],[-119.88914,51.33077],[-119.88899,51.33082],[-119.88862,51.33102],[-119.88838,51.33118],[-119.8882,51.33143],[-119.88801,51.33162],[-119.88774,51.33178],[-119.88745,51.33195],[-119.88714,51.33212],[-119.88691,51.33237],[-119.88674,51.3325],[-119.88656,51.33264],[-119.88633,51.33274],[-119.88604,51.33285],[-119.88583,51.33298],[-119.88563,51.33314],[-119.88536,51.3333],[-119.88497,51.33364],[-119.88438,51.33405],[-119.88385,51.33453],[-119.88346,51.3348],[-119.88296,51.33525],[-119.88258,51.33547],[-119.88226,51.33568],[-119.88202,51.33588],[-119.88172,51.33616],[-119.88134,51.33648],[-119.881,51.33681],[-119.88075,51.33702],[-119.8804,51.33732],[-119.88015,51.33758],[-119.87998,51.33776],[-119.87979,51.33798],[-119.87969,51.33813],[-119.87951,51.3383],[-119.87933,51.33843],[-119.87892,51.33863],[-119.87861,51.33884],[-119.87843,51.33899],[-119.87823,51.33921],[-119.87809,51.33944],[-119.8779,51.33966],[-119.87773,51.33985],[-119.87754,51.34005],[-119.87733,51.34027],[-119.87713,51.34044],[-119.87698,51.34067],[-119.87692,51.34081],[-119.87667,51.34101],[-119.87639,51.34125],[-119.87613,51.34143],[-119.876,51.34168],[-119.87592,51.34191],[-119.87579,51.3423],[-119.8756,51.3425],[-119.87545,51.3428],[-119.87534,51.34295],[-119.87522,51.3431],[-119.87503,51.34327],[-119.87472,51.34348],[-119.87455,51.34364],[-119.8745,51.34379],[-119.87456,51.34388],[-119.87478,51.34402],[-119.8749,51.34429],[-119.87507,51.34467],[-119.87519,51.34508],[-119.87524,51.34544],[-119.87528,51.34565],[-119.87555,51.34586],[-119.87578,51.34613],[-119.87595,51.34635],[-119.87609,51.34666],[-119.87623,51.34699],[-119.87638,51.34734],[-119.8765,51.34764],[-119.87652,51.34793],[-119.87657,51.34814],[-119.8766,51.34835],[-119.8767,51.34862],[-119.87674,51.34872],[-119.87683,51.34888],[-119.87704,51.34913],[-119.87719,51.3494],[-119.8774,51.34962],[-119.87773,51.34998],[-119.878,51.35027],[-119.8783,51.3506],[-119.87845,51.35087],[-119.8785,51.35115],[-119.87855,51.35143],[-119.87859,51.35163],[-119.87859,51.35181],[-119.87866,51.35217],[-119.87866,51.35252],[-119.87872,51.35288],[-119.87874,51.3531],[-119.87879,51.35338],[-119.87892,51.35364],[-119.87892,51.35386],[-119.87888,51.35418],[-119.87891,51.35437],[-119.87898,51.35456],[-119.87904,51.35483],[-119.87907,51.35511],[-119.87914,51.3554],[-119.87922,51.3557],[-119.87934,51.35592],[-119.87947,51.35625],[-119.8795,51.35647],[-119.87953,51.35676],[-119.87947,51.35702],[-119.87949,51.35727],[-119.87958,51.35748],[-119.87975,51.35783],[-119.87987,51.35811],[-119.87998,51.35836],[-119.88008,51.35858],[-119.88013,51.35882],[-119.88012,51.35905],[-119.8801,51.35927],[-119.88004,51.35951],[-119.88001,51.3597],[-119.88001,51.35986],[-119.8801,51.36011],[-119.88018,51.36045],[-119.88029,51.36074],[-119.88047,51.36096],[-119.88055,51.36112],[-119.88057,51.36133],[-119.88053,51.36159],[-119.88046,51.36184],[-119.88046,51.36205],[-119.88049,51.36226],[-119.88048,51.36244],[-119.88042,51.36268],[-119.8804,51.36283],[-119.88043,51.36327],[-119.88038,51.36353],[-119.88027,51.36375],[-119.88017,51.36399],[-119.88008,51.36422],[-119.88004,51.36444],[-119.88002,51.36467],[-119.88008,51.36497],[-119.88009,51.3652],[-119.88017,51.36555],[-119.88018,51.36585],[-119.8801,51.36614],[-119.88003,51.3664],[-119.87996,51.36657],[-119.8798,51.36682],[-119.87964,51.367],[-119.87933,51.36735],[-119.87911,51.36766],[-119.879,51.36776],[-119.87878,51.36798],[-119.8785,51.36826],[-119.87833,51.3685],[-119.87829,51.36872],[-119.87826,51.36899],[-119.87825,51.36928],[-119.87821,51.36949],[-119.87816,51.36971],[-119.87808,51.36987],[-119.87798,51.37007],[-119.87797,51.37027],[-119.87799,51.37057],[-119.87795,51.37087],[-119.87792,51.37113],[-119.87793,51.37132],[-119.87795,51.37167],[-119.878,51.37186],[-119.87808,51.37204],[-119.87813,51.3723],[-119.87813,51.37234]]}},
{"type":"Feature","properties":{"spotId":"A-grouse-walk-0052","kind":"roadside","km":5.66,"climbM":193,"name":"130 m NE of Harper Creek","flags":[]},"geometry":{"type":"LineString","coordinates":[[-119.87813,51.37234],[-119.87817,51.37252],[-119.87821,51.37277],[-119.87824,51.37304],[-119.87829,51.37329],[-119.87827,51.37354],[-119.87824,51.37375],[-119.87818,51.37397],[-119.87824,51.3742],[-119.87826,51.37441],[-119.87822,51.37463],[-119.87812,51.37483],[-119.87809,51.37505],[-119.87808,51.37533],[-119.8781,51.37554],[-119.87813,51.37578],[-119.8781,51.37597],[-119.87795,51.37616],[-119.87786,51.37628],[-119.87776,51.3764],[-119.87771,51.37655],[-119.87772,51.37675],[-119.87773,51.37699],[-119.8777,51.37724],[-119.87763,51.37745],[-119.87744,51.37763],[-119.87729,51.3778],[-119.87715,51.37798],[-119.87711,51.37816],[-119.87715,51.37842],[-119.87712,51.37861],[-119.87706,51.37885],[-119.87702,51.37902],[-119.87696,51.37923],[-119.87693,51.37945],[-119.87695,51.37966],[-119.87703,51.37984],[-119.87706,51.3801],[-119.87708,51.38039],[-119.87704,51.38071],[-119.877,51.38089],[-119.87683,51.38115],[-119.87668,51.3814],[-119.87662,51.3816],[-119.8766,51.3818],[-119.87663,51.38205],[-119.8766,51.3823],[-119.87645,51.38255],[-119.87622,51.38276],[-119.87605,51.38292],[-119.87586,51.38307],[-119.87565,51.38322],[-119.87548,51.38333],[-119.87538,51.38347],[-119.87536,51.38369],[-119.87533,51.38386],[-119.8753,51.38406],[-119.87526,51.38424],[-119.87519,51.38442],[-119.87508,51.3846],[-119.875,51.38473],[-119.87499,51.38497],[-119.87503,51.38523],[-119.87504,51.38545],[-119.87505,51.38562],[-119.87519,51.38584],[-119.87538,51.38605],[-119.87547,51.38616],[-119.87572,51.38637],[-119.87594,51.38664],[-119.87605,51.38695],[-119.8761,51.38723],[-119.87614,51.38744],[-119.87612,51.38757],[-119.87608,51.38774],[-119.87595,51.388],[-119.87584,51.38824],[-119.87579,51.38842],[-119.87581,51.38866],[-119.87585,51.38883],[-119.87584,51.38904],[-119.8758,51.38926],[-119.87574,51.38945],[-119.87564,51.3896],[-119.87547,51.38978],[-119.87534,51.38994],[-119.87525,51.39017],[-119.87519,51.39031],[-119.87522,51.39044],[-119.87512,51.39065],[-119.87492,51.39083],[-119.87465,51.39101],[-119.87442,51.39125],[-119.8744,51.39142],[-119.87437,51.39166],[-119.87434,51.39186],[-119.87418,51.39214],[-119.87402,51.39228],[-119.87384,51.39249],[-119.87368,51.39265],[-119.87352,51.39297],[-119.87343,51.39312],[-119.87339,51.39332],[-119.87339,51.39358],[-119.87344,51.39376],[-119.87356,51.394],[-119.87369,51.39427],[-119.87371,51.39454],[-119.87362,51.3948],[-119.87343,51.39508],[-119.87336,51.39527],[-119.87325,51.39555],[-119.87313,51.39586],[-119.8731,51.396],[-119.87293,51.39637],[-119.87276,51.39658],[-119.87251,51.39684],[-119.87238,51.39704],[-119.87218,51.39725],[-119.87204,51.3974],[-119.87192,51.3976],[-119.87189,51.39779],[-119.8719,51.398],[-119.87188,51.3982],[-119.87184,51.39844],[-119.87166,51.39864],[-119.87146,51.3989],[-119.87128,51.39909],[-119.87127,51.39923],[-119.87134,51.39938],[-119.87142,51.39954],[-119.87151,51.39977],[-119.87156,51.4],[-119.8715,51.40015],[-119.87147,51.40034],[-119.87143,51.4006],[-119.8714,51.40083],[-119.87136,51.40116],[-119.87145,51.40144],[-119.87152,51.40177],[-119.87161,51.40203],[-119.87168,51.40235],[-119.87162,51.40268],[-119.87159,51.4029],[-119.87152,51.40314],[-119.87143,51.40331],[-119.87137,51.40344],[-119.87141,51.40358],[-119.87141,51.40379],[-119.87137,51.40399],[-119.87131,51.40429],[-119.87127,51.40454],[-119.87123,51.40481],[-119.87117,51.40504],[-119.87101,51.40531],[-119.8709,51.40551],[-119.87081,51.40574],[-119.87065,51.40604],[-119.87056,51.40628],[-119.8704,51.40657],[-119.87023,51.4068],[-119.87016,51.40695],[-119.87004,51.40721],[-119.87001,51.40745],[-119.86999,51.40766],[-119.86996,51.40787],[-119.86987,51.40812],[-119.86979,51.40829],[-119.86978,51.40848],[-119.86982,51.40864],[-119.86984,51.40885],[-119.86986,51.40901],[-119.86993,51.40921],[-119.86995,51.40944],[-119.86995,51.40967],[-119.86987,51.40985],[-119.86977,51.41014],[-119.86955,51.41047],[-119.86939,51.41072],[-119.86902,51.411],[-119.86875,51.41129],[-119.86867,51.41143],[-119.86864,51.41166],[-119.86861,51.41186],[-119.86858,51.41203],[-119.86856,51.41222],[-119.86848,51.41241],[-119.86832,51.41262],[-119.86811,51.41288],[-119.86805,51.41313],[-119.8681,51.41339],[-119.86815,51.41374],[-119.8681,51.41408],[-119.86807,51.41429],[-119.86805,51.41457],[-119.86807,51.41476],[-119.86804,51.41504],[-119.868,51.41526],[-119.86799,51.41541],[-119.86797,51.41569],[-119.86797,51.41592],[-119.86802,51.41617],[-119.8681,51.41647],[-119.8682,51.41672],[-119.86817,51.41704],[-119.86814,51.41726],[-119.86803,51.41752],[-119.86788,51.41776],[-119.86782,51.41797],[-119.8678,51.41817],[-119.86783,51.41837],[-119.86791,51.41856],[-119.86799,51.41876],[-119.86807,51.41899],[-119.86805,51.4192],[-119.86804,51.41938],[-119.86805,51.41954],[-119.86802,51.41979],[-119.86784,51.42003],[-119.86763,51.42032],[-119.86744,51.42053],[-119.8671,51.42084],[-119.86693,51.42096],[-119.86689,51.421]]}},
{"type":"Feature","properties":{"spotId":"A-moose-atv-0040","kind":"ride","km":4.53,"climbM":6,"name":"By Slate Creek","flags":[]},"geometry":{"type":"LineString","coordinates":[[-119.98934,51.31515],[-119.98906,51.315],[-119.98888,51.31484],[-119.98876,51.3146],[-119.98868,51.31437],[-119.98866,51.31416],[-119.98864,51.31398],[-119.98845,51.31374],[-119.98811,51.31349],[-119.98767,51.3132],[-119.98759,51.31313],[-119.9875,51.31294],[-119.98714,51.31239],[-119.98686,51.31201],[-119.9864,51.31126],[-119.98616,51.3109],[-119.98604,51.31063],[-119.98601,51.31036],[-119.98552,51.30972],[-119.98476,51.30891],[-119.98447,51.30866],[-119.98412,51.30853],[-119.98331,51.30824],[-119.98269,51.30799],[-119.98244,51.30787],[-119.98231,51.30782],[-119.98216,51.30773],[-119.98209,51.30764],[-119.98207,51.30762],[-119.9817,51.30703],[-119.98147,51.30677],[-119.98106,51.30644],[-119.98073,51.30617],[-119.98043,51.30598],[-119.98,51.30596],[-119.97983,51.30595],[-119.97955,51.30596],[-119.97929,51.306],[-119.97874,51.30602],[-119.97828,51.30606],[-119.97783,51.30609],[-119.9776,51.30617],[-119.97722,51.30634],[-119.97692,51.30645],[-119.97664,51.30664],[-119.97645,51.30685],[-119.97629,51.30708],[-119.97604,51.30743],[-119.97522,51.30809],[-119.97407,51.30876],[-119.97325,51.30938],[-119.97315,51.30961],[-119.97291,51.30994],[-119.9728,51.30996],[-119.97246,51.31009],[-119.97218,51.3102],[-119.97199,51.31031],[-119.97174,51.31044],[-119.97155,51.31059],[-119.97136,51.3108],[-119.97117,51.31098],[-119.97103,51.31117],[-119.97097,51.31135],[-119.97088,51.31152],[-119.97076,51.31171],[-119.97052,51.31193],[-119.97009,51.31194],[-119.96982,51.312],[-119.96931,51.31221],[-119.96894,51.31242],[-119.96852,51.31263],[-119.96818,51.31284],[-119.96777,51.31297],[-119.9677,51.31292],[-119.96766,51.31288],[-119.96757,51.31279],[-119.96751,51.31272],[-119.96746,51.31264],[-119.96743,51.31257],[-119.96741,51.31248],[-119.96737,51.3124],[-119.96738,51.31232],[-119.9673,51.31216],[-119.96727,51.31212],[-119.96722,51.31196],[-119.96717,51.31187],[-119.96715,51.31176],[-119.96713,51.31144],[-119.96709,51.31129],[-119.96703,51.31111],[-119.96703,51.31106],[-119.96704,51.31094],[-119.96702,51.31088],[-119.96693,51.31069],[-119.9669,51.31063],[-119.96685,51.31048],[-119.96681,51.3103],[-119.96677,51.31021],[-119.96676,51.31014],[-119.96677,51.3101],[-119.96678,51.30965],[-119.96679,51.3094],[-119.96676,51.30933],[-119.9667,51.30925],[-119.96668,51.30919],[-119.96668,51.30915],[-119.9667,51.30885],[-119.9667,51.30879],[-119.9667,51.30869],[-119.96676,51.3086],[-119.96681,51.30854],[-119.96683,51.30845],[-119.96685,51.30822],[-119.96686,51.30818],[-119.96689,51.30814],[-119.96693,51.30812],[-119.96697,51.30805],[-119.96697,51.30798],[-119.96698,51.30781],[-119.967,51.30768],[-119.967,51.30753],[-119.96699,51.30751],[-119.96698,51.30746],[-119.96697,51.30742],[-119.96684,51.30727],[-119.96677,51.30709],[-119.96664,51.30685],[-119.96662,51.3067],[-119.9666,51.30664],[-119.96655,51.30652],[-119.96655,51.30635],[-119.96657,51.30617],[-119.96658,51.3058],[-119.96659,51.30572],[-119.96661,51.30524],[-119.96661,51.30498],[-119.96662,51.30494],[-119.96671,51.30479],[-119.96678,51.3047],[-119.96683,51.30464],[-119.96688,51.30454],[-119.96688,51.3045],[-119.96693,51.30445],[-119.96696,51.30439],[-119.96697,51.30435],[-119.967,51.30429],[-119.96705,51.30423],[-119.96709,51.30417],[-119.9671,51.30414],[-119.96711,51.30411],[-119.96711,51.30389],[-119.96712,51.30378],[-119.96711,51.30367],[-119.96709,51.30355],[-119.96707,51.30346],[-119.96705,51.30334],[-119.96703,51.30324],[-119.96702,51.30318],[-119.96701,51.30313],[-119.967,51.3031],[-119.96702,51.30289],[-119.96703,51.30262],[-119.96703,51.30255],[-119.96701,51.30247],[-119.96701,51.30238],[-119.96701,51.30229],[-119.96703,51.30223],[-119.96706,51.30219],[-119.96707,51.30217],[-119.96712,51.30208],[-119.96716,51.30202],[-119.96723,51.30192],[-119.96724,51.30188],[-119.96724,51.3017],[-119.96724,51.30148],[-119.96726,51.30133],[-119.96727,51.30115],[-119.96728,51.30114],[-119.96729,51.30112],[-119.96729,51.3011],[-119.9673,51.30105],[-119.96729,51.30102],[-119.96726,51.30099],[-119.96714,51.30099],[-119.96695,51.30098],[-119.96698,51.30095],[-119.96701,51.30093],[-119.96712,51.30084],[-119.96721,51.30077],[-119.96732,51.30069],[-119.96736,51.30067],[-119.9675,51.30055],[-119.96768,51.30039],[-119.96776,51.30031],[-119.96781,51.30025],[-119.96786,51.3002],[-119.96795,51.30014],[-119.96803,51.30004],[-119.96805,51.30001],[-119.96815,51.29994],[-119.9685,51.2996],[-119.96887,51.29917],[-119.96943,51.29864],[-119.97001,51.29826],[-119.97062,51.29783],[-119.97133,51.29742],[-119.97154,51.29734],[-119.97197,51.29718],[-119.97279,51.29695],[-119.97306,51.2969]]}},
{"type":"Feature","properties":{"spotId":"A-moose-atv-0040","kind":"walk","km":0.22,"climbM":10,"name":"By Slate Creek","flags":[]},"geometry":{"type":"LineString","coordinates":[[-119.98934,51.31515],[-119.98865,51.31712]]}},
{"type":"Feature","properties":{"spotId":"A-moose-atv-0064","kind":"ride","km":4.23,"climbM":89,"name":"450 m S of Barrière River","flags":[]},"geometry":{"type":"LineString","coordinates":[[-119.77047,51.34379],[-119.76992,51.34376],[-119.76943,51.34374],[-119.76916,51.34375],[-119.76912,51.34376],[-119.76869,51.34378],[-119.76836,51.34385],[-119.76798,51.3439],[-119.76795,51.3439],[-119.76769,51.34396],[-119.76741,51.34397],[-119.76715,51.34394],[-119.76706,51.34394],[-119.76688,51.34391],[-119.76674,51.34391],[-119.76638,51.34389],[-119.76616,51.34388],[-119.76582,51.34388],[-119.76575,51.34389],[-119.76561,51.34392],[-119.7655,51.34394],[-119.76529,51.34398],[-119.76492,51.34412],[-119.76479,51.34417],[-119.76461,51.34421],[-119.76442,51.34425],[-119.76398,51.34432],[-119.76395,51.34433],[-119.76362,51.34436],[-119.76348,51.34435],[-119.76322,51.34435],[-119.76281,51.34442],[-119.76268,51.34445],[-119.76241,51.34452],[-119.76231,51.34455],[-119.76196,51.34465],[-119.76182,51.34471],[-119.76162,51.3448],[-119.76142,51.34494],[-119.76112,51.34508],[-119.76099,51.34516],[-119.76093,51.3452],[-119.7607,51.34535],[-119.76059,51.34544],[-119.76024,51.34559],[-119.76005,51.34567],[-119.75998,51.3457],[-119.75972,51.34584],[-119.75931,51.34594],[-119.75908,51.34601],[-119.75881,51.34605],[-119.75856,51.3461],[-119.75846,51.34611],[-119.75831,51.34612],[-119.75806,51.34615],[-119.75784,51.34616],[-119.75776,51.34617],[-119.75744,51.34615],[-119.75725,51.34614],[-119.75688,51.34612],[-119.75658,51.34609],[-119.75653,51.34609],[-119.75612,51.3461],[-119.75593,51.3461],[-119.75572,51.34615],[-119.75566,51.34616],[-119.75541,51.34622],[-119.75508,51.34636],[-119.75494,51.34637],[-119.75478,51.34638],[-119.75432,51.34638],[-119.75427,51.34639],[-119.75399,51.34638],[-119.75397,51.34639],[-119.75385,51.34642],[-119.75384,51.34645],[-119.75381,51.34648],[-119.75379,51.34653],[-119.75375,51.34669],[-119.75363,51.34683],[-119.75361,51.34686],[-119.75361,51.34688],[-119.75355,51.34692],[-119.75347,51.34698],[-119.75343,51.34702],[-119.75305,51.34716],[-119.75296,51.34717],[-119.75278,51.34719],[-119.75262,51.3472],[-119.75243,51.34719],[-119.75227,51.34717],[-119.75194,51.34712],[-119.75156,51.34706],[-119.75148,51.34705],[-119.75113,51.34706],[-119.75092,51.34708],[-119.75083,51.34708],[-119.75065,51.3471],[-119.75036,51.34713],[-119.75025,51.34715],[-119.74987,51.34716],[-119.74979,51.34717],[-119.74953,51.3472],[-119.74945,51.34721],[-119.74923,51.34724],[-119.74919,51.34724],[-119.74878,51.34731],[-119.74859,51.34729],[-119.74819,51.34728],[-119.74807,51.34728],[-119.74767,51.34726],[-119.74725,51.34725],[-119.74708,51.34726],[-119.74692,51.34724],[-119.74683,51.34724],[-119.74659,51.34721],[-119.74642,51.34721],[-119.74577,51.34718],[-119.7456,51.34717],[-119.74538,51.34718],[-119.74504,51.34718],[-119.74464,51.34722],[-119.74446,51.34724],[-119.74392,51.34725],[-119.74369,51.34726],[-119.74348,51.34726],[-119.74309,51.34728],[-119.74283,51.34728],[-119.74219,51.34732],[-119.74194,51.34733],[-119.7418,51.34734],[-119.74128,51.34729],[-119.74114,51.34728],[-119.74052,51.34725],[-119.74043,51.34725],[-119.74016,51.34724],[-119.73956,51.34715],[-119.73933,51.34712],[-119.73914,51.34708],[-119.73897,51.34705],[-119.73859,51.34698],[-119.73849,51.34696],[-119.73795,51.34692],[-119.73781,51.34691],[-119.73751,51.34688],[-119.7373,51.34686],[-119.73719,51.34685],[-119.73662,51.34676],[-119.73651,51.34672],[-119.73627,51.34666],[-119.73578,51.34655],[-119.73572,51.34654],[-119.73545,51.34652],[-119.7354,51.34651],[-119.73504,51.34651],[-119.73483,51.34651],[-119.73451,51.34652],[-119.73425,51.34654],[-119.73423,51.34655],[-119.73381,51.34658],[-119.73312,51.3466],[-119.73297,51.34661],[-119.73279,51.34661],[-119.73198,51.34664],[-119.73185,51.34664],[-119.73163,51.34665],[-119.73127,51.34666],[-119.73112,51.34669],[-119.73105,51.34672],[-119.73086,51.34675],[-119.73082,51.34675],[-119.73039,51.3468],[-119.73015,51.34686],[-119.72997,51.34691],[-119.7295,51.34701],[-119.72943,51.34703],[-119.72896,51.34711],[-119.72876,51.34712],[-119.72847,51.34714],[-119.72806,51.34721],[-119.72795,51.34723],[-119.72752,51.34732],[-119.72741,51.34736],[-119.72723,51.34741],[-119.72696,51.34749],[-119.7266,51.34767],[-119.72627,51.34777],[-119.72616,51.34782],[-119.72567,51.348],[-119.7255,51.34807],[-119.7252,51.34815],[-119.72499,51.3482],[-119.72492,51.34822],[-119.72461,51.34834],[-119.72443,51.34842],[-119.72436,51.34846],[-119.72421,51.34858],[-119.72403,51.34877],[-119.7239,51.34889],[-119.72387,51.34891],[-119.72383,51.34893],[-119.7238,51.34894],[-119.72366,51.34901],[-119.72344,51.34901],[-119.72333,51.34903],[-119.72297,51.34907],[-119.72263,51.34914],[-119.72252,51.34916],[-119.72241,51.3492],[-119.72221,51.34927],[-119.72197,51.34936],[-119.72166,51.34942],[-119.72147,51.34946],[-119.72113,51.34955],[-119.72058,51.34968],[-119.72051,51.3497],[-119.7203,51.34974],[-119.72013,51.34978],[-119.71969,51.34985],[-119.71956,51.34987],[-119.71919,51.34996],[-119.71878,51.35012],[-119.71873,51.35016],[-119.71864,51.3502],[-119.71848,51.35031],[-119.71833,51.35047],[-119.71821,51.35058],[-119.71817,51.35067],[-119.71817,51.3507],[-119.71814,51.35081],[-119.71807,51.35097],[-119.71804,51.35106],[-119.71802,51.35108],[-119.71801,51.3511],[-119.71796,51.35119],[-119.71792,51.35124],[-119.71792,51.35126],[-119.71779,51.35135],[-119.71777,51.35137],[-119.71774,51.3514],[-119.71767,51.35144],[-119.71763,51.35147],[-119.7176,51.35148],[-119.71753,51.35152],[-119.71742,51.35159],[-119.71738,51.35162],[-119.71732,51.35167],[-119.71728,51.35169],[-119.71719,51.35179],[-119.71694,51.35203],[-119.71688,51.35224],[-119.7169,51.35229],[-119.71691,51.35236],[-119.71694,51.35252],[-119.71698,51.35273],[-119.71717,51.35287],[-119.71721,51.35288],[-119.7174,51.35297]]}},
{"type":"Feature","properties":{"spotId":"A-moose-atv-0064","kind":"walk","km":0.34,"climbM":0,"name":"450 m S of Barrière River","flags":[]},"geometry":{"type":"LineString","coordinates":[[-119.77047,51.34379],[-119.77106,51.34686]]}},
{"type":"Feature","properties":{"spotId":"A-moose-drive-0040","kind":"walk","km":0.06,"climbM":0,"name":"2.1 km SW of Harp Mountain","flags":[]},"geometry":{"type":"LineString","coordinates":[[-119.83458,51.43125],[-119.83542,51.4312]]}},
{"type":"Feature","properties":{"spotId":"A-moose-walk-0069","kind":"walk","km":0.99,"climbM":552,"name":"1.0 km E of Harper Creek","flags":[]},"geometry":{"type":"LineString","coordinates":[[-119.86281,51.44409],[-119.84859,51.44511]]}},
{"type":"Feature","properties":{"spotId":"A-moose-walk-0079","kind":"walk","km":1.29,"climbM":2,"name":"720 m NW of Slate Creek","flags":[]},"geometry":{"type":"LineString","coordinates":[[-119.99627,51.32021],[-119.99687,51.32387],[-119.99681,51.3239],[-119.99677,51.32393],[-119.99673,51.32396],[-119.99661,51.32402],[-119.99657,51.32405],[-119.99651,51.32409],[-119.99623,51.32444],[-119.99618,51.32453],[-119.99614,51.32457],[-119.99607,51.32462],[-119.99599,51.3247],[-119.99592,51.32475],[-119.99587,51.32482],[-119.99576,51.32497],[-119.99573,51.32505],[-119.99567,51.32523],[-119.99564,51.32527],[-119.99564,51.32545],[-119.99565,51.32567],[-119.99562,51.32577],[-119.99559,51.32582],[-119.99553,51.326],[-119.99549,51.32605],[-119.99541,51.32614],[-119.99533,51.32621],[-119.99526,51.3263],[-119.99523,51.32631],[-119.99521,51.32633],[-119.99514,51.32636],[-119.99507,51.3264],[-119.99496,51.32643],[-119.99493,51.32645],[-119.99485,51.32654],[-119.99483,51.32655],[-119.99474,51.32662],[-119.99468,51.32667],[-119.99461,51.3267],[-119.9945,51.32676],[-119.99445,51.32679],[-119.99439,51.32683],[-119.99437,51.32685],[-119.99425,51.32704],[-119.99419,51.32707],[-119.99418,51.32709],[-119.99417,51.32709],[-119.99417,51.32712],[-119.99417,51.32715],[-119.99422,51.3272],[-119.99422,51.32724],[-119.99423,51.32727],[-119.99427,51.32736],[-119.99429,51.32746],[-119.99431,51.32769],[-119.99431,51.32776],[-119.99433,51.32779],[-119.99436,51.32784],[-119.9944,51.3279],[-119.99445,51.32797],[-119.99453,51.32808],[-119.99455,51.32811],[-119.99455,51.32814],[-119.99455,51.32817],[-119.99455,51.32819],[-119.99454,51.32822],[-119.99449,51.32825],[-119.99444,51.32828],[-119.99439,51.32832],[-119.99426,51.32836],[-119.99416,51.32839],[-119.99412,51.3284],[-119.99399,51.32842],[-119.99394,51.32843],[-119.99385,51.32846],[-119.99367,51.32847],[-119.9936,51.32849],[-119.99353,51.32852],[-119.99349,51.32855],[-119.99344,51.32857],[-119.9934,51.32861],[-119.99339,51.32863],[-119.99335,51.32871],[-119.99333,51.32879],[-119.99329,51.32883],[-119.99317,51.32895],[-119.99313,51.32898],[-119.9931,51.32901],[-119.99303,51.32907],[-119.99292,51.32915],[-119.99289,51.32917],[-119.99284,51.3292],[-119.9928,51.32923],[-119.99266,51.32938],[-119.99262,51.32942],[-119.99251,51.3295],[-119.9924,51.32957],[-119.99235,51.3296],[-119.99232,51.32961],[-119.99228,51.32965],[-119.99222,51.32968],[-119.99221,51.32972],[-119.9922,51.32982],[-119.99214,51.32987],[-119.99207,51.32991],[-119.99201,51.32994],[-119.99198,51.32996],[-119.99189,51.33],[-119.99181,51.33],[-119.99154,51.32999],[-119.99144,51.32999],[-119.99138,51.33002],[-119.99132,51.33005]]}}
]}
