{"type":"FeatureCollection","features":[
{"type":"Feature","properties":{"spotId":"A-camp-camp-0036","kind":"walk","km":0.12,"climbM":0,"name":"By Rennie Creek","flags":[]},"geometry":{"type":"LineString","coordinates":[[-120.07641,51.56662],[-120.07734,51.56755]]}},
{"type":"Feature","properties":{"spotId":"A-camp-camp-0110","kind":"walk","km":0.02,"climbM":1,"name":"1.8 km E of Russell Lake","flags":[]},"geometry":{"type":"LineString","coordinates":[[-120.01478,51.5902],[-120.01479,51.59039]]}},
{"type":"Feature","properties":{"spotId":"A-deer-atv-0132","kind":"ride","km":3.02,"climbM":413,"name":"500 m N of Lemieux Lake","flags":["Route crosses private land (ParcelMap BC, updated 2026-09-25): get permission first or go around."]},"geometry":{"type":"LineString","coordinates":[[-120.16474,51.56471],[-120.16477,51.56477],[-120.16479,51.56482],[-120.16485,51.56487],[-120.16493,51.56508],[-120.16494,51.5651],[-120.16495,51.56513],[-120.16502,51.5653],[-120.16508,51.56533],[-120.16531,51.56537],[-120.16553,51.56545],[-120.1656,51.56553],[-120.16558,51.5657],[-120.16554,51.56587],[-120.16552,51.56596],[-120.16551,51.56599],[-120.16543,51.5662],[-120.16543,51.56626],[-120.16542,51.56629],[-120.16538,51.56636],[-120.16534,51.56647],[-120.16534,51.56649],[-120.16533,51.56658],[-120.16535,51.56672],[-120.16541,51.5667],[-120.16556,51.56662],[-120.16589,51.56641],[-120.16595,51.56641],[-120.16624,51.56635],[-120.16651,51.56628],[-120.16686,51.56614],[-120.16704,51.56608],[-120.1672,51.56607],[-120.16734,51.56603],[-120.16763,51.56591],[-120.16798,51.56578],[-120.16805,51.56576],[-120.16813,51.56577],[-120.16842,51.56584],[-120.16857,51.56584],[-120.16863,51.56583],[-120.16867,51.56582],[-120.1687,51.56579],[-120.1687,51.56578],[-120.16872,51.56567],[-120.16872,51.56565],[-120.16871,51.5655],[-120.16869,51.56532],[-120.16871,51.56523],[-120.16878,51.56518],[-120.16903,51.5651],[-120.16911,51.56509],[-120.16935,51.56508],[-120.16954,51.56504],[-120.16972,51.56498],[-120.16982,51.56493],[-120.1699,51.5649],[-120.16997,51.56487],[-120.16998,51.5648],[-120.16974,51.5646],[-120.16972,51.56456],[-120.16967,51.56441],[-120.16971,51.56435],[-120.16979,51.5643],[-120.17012,51.56428],[-120.17036,51.56415],[-120.1705,51.56396],[-120.17059,51.56378],[-120.17064,51.56369],[-120.17071,51.56363],[-120.17081,51.56363],[-120.17087,51.56364],[-120.17093,51.56367],[-120.17113,51.56386],[-120.17128,51.56407],[-120.17134,51.56414],[-120.17146,51.56434],[-120.17155,51.5645],[-120.17173,51.56469],[-120.17189,51.56487],[-120.17196,51.56491],[-120.172,51.56492],[-120.17205,51.56491],[-120.17214,51.56483],[-120.17223,51.56467],[-120.17229,51.56455],[-120.17233,51.56436],[-120.17233,51.56428],[-120.17239,51.5641],[-120.1724,51.56404],[-120.17247,51.56395],[-120.17253,51.5639],[-120.17259,51.5639],[-120.17266,51.56409],[-120.17271,51.56421],[-120.17283,51.5644],[-120.17293,51.56459],[-120.17307,51.56473],[-120.17317,51.56477],[-120.17321,51.56476],[-120.1733,51.56469],[-120.17333,51.56463],[-120.17337,51.56451],[-120.17338,51.56433],[-120.17338,51.56427],[-120.17342,51.56417],[-120.17353,51.56396],[-120.17361,51.56384],[-120.17375,51.56366],[-120.17386,51.56357],[-120.1741,51.56341],[-120.17424,51.56333],[-120.17431,51.56331],[-120.17443,51.56328],[-120.17451,51.56328],[-120.17451,51.56331],[-120.1745,51.56336],[-120.17446,51.56339],[-120.17461,51.56341],[-120.17465,51.56341],[-120.17479,51.56341],[-120.17499,51.56336],[-120.17529,51.56332],[-120.17538,51.56332],[-120.17543,51.56333],[-120.17566,51.56342],[-120.17577,51.5635],[-120.17585,51.56359],[-120.17605,51.56359],[-120.17614,51.56359],[-120.17645,51.56365],[-120.17648,51.56367],[-120.17657,51.56369],[-120.17661,51.56376],[-120.17666,51.56389],[-120.17669,51.56407],[-120.17673,51.56428],[-120.17681,51.5645],[-120.17682,51.56454],[-120.17685,51.56456],[-120.17696,51.56472],[-120.17709,51.56481],[-120.17723,51.56485],[-120.17755,51.56485],[-120.17784,51.56485],[-120.17814,51.56486],[-120.17837,51.56485],[-120.17869,51.56483],[-120.17901,51.56481],[-120.17925,51.56479],[-120.17938,51.5648],[-120.17973,51.56478],[-120.17999,51.56477],[-120.18012,51.56477],[-120.18045,51.56478],[-120.18067,51.56477],[-120.18097,51.56475],[-120.18128,51.56472],[-120.18147,51.56471],[-120.18179,51.56467],[-120.18212,51.56466],[-120.18237,51.56466],[-120.18265,51.56465],[-120.18291,51.56465],[-120.1832,51.56464],[-120.18348,51.56462],[-120.18381,51.5646],[-120.18416,51.56458],[-120.18426,51.56457],[-120.18454,51.56454],[-120.18464,51.56453],[-120.185,51.56451],[-120.1851,51.5645],[-120.18528,51.56448],[-120.1856,51.56439],[-120.1857,51.56436],[-120.18582,51.56435],[-120.18608,51.56428],[-120.18617,51.56427],[-120.18642,51.56423],[-120.18677,51.56415],[-120.18709,51.56406],[-120.18746,51.56399],[-120.18776,51.56393],[-120.18807,51.56387],[-120.18817,51.56385],[-120.18848,51.56375],[-120.18854,51.5637],[-120.18886,51.56354],[-120.18904,51.56345],[-120.18934,51.56325],[-120.18965,51.56304],[-120.18973,51.56298],[-120.19008,51.56281],[-120.19039,51.56261],[-120.19046,51.56256],[-120.19073,51.56243],[-120.19095,51.5623],[-120.19101,51.56225],[-120.19118,51.56216],[-120.19141,51.56198],[-120.19165,51.56181],[-120.19201,51.5616],[-120.1921,51.56154],[-120.19241,51.56138],[-120.19271,51.56121],[-120.19299,51.56107]]}},
{"type":"Feature","properties":{"spotId":"A-deer-atv-0132","kind":"walk","km":0.26,"climbM":46,"name":"500 m N of Lemieux Lake","flags":["Route crosses private land (ParcelMap BC, updated 2026-09-25): get permission first or go around."]},"geometry":{"type":"LineString","coordinates":[[-120.19299,51.56107],[-120.19537,51.56283]]}},
{"type":"Feature","properties":{"spotId":"A-deer-drive-0106","kind":"walk","km":0.1,"climbM":0,"name":"920 m NW of Axel Creek","flags":[]},"geometry":{"type":"LineString","coordinates":[[-120.13371,51.52536],[-120.13514,51.52552]]}},
{"type":"Feature","properties":{"spotId":"A-deer-drive-0110","kind":"walk","km":0.24,"climbM":0,"name":"1.4 km S of Mosquito Flats","flags":[]},"geometry":{"type":"LineString","coordinates":[[-120.13522,51.55464],[-120.13874,51.55459]]}},
{"type":"Feature","properties":{"spotId":"A-deer-drive-0148","kind":"walk","km":0.18,"climbM":43,"name":"870 m NW of Hallamore Lake","flags":[]},"geometry":{"type":"LineString","coordinates":[[-120.13909,51.51247],[-120.14093,51.51128]]}},
{"type":"Feature","properties":{"spotId":"A-deer-walk-0154","kind":"walk","km":0.65,"climbM":30,"name":"1.1 km E of North Thompson River","flags":["Route crosses private land (ParcelMap BC, updated 2026-09-25): get permission first or go around."]},"geometry":{"type":"LineString","coordinates":[[-120.15308,51.53099],[-120.1441,51.5294]]}},
{"type":"Feature","properties":{"spotId":"A-duck-drive-0016","kind":"walk","km":0.08,"climbM":0,"name":"Reflector Lake","flags":[]},"geometry":{"type":"LineString","coordinates":[[-120.21017,51.72604],[-120.21042,51.72537]]}},
{"type":"Feature","properties":{"spotId":"A-duck-drive-0136","kind":"walk","km":0.06,"climbM":0,"name":"Unnamed wetland by Russell Creek","flags":[]},"geometry":{"type":"LineString","coordinates":[[-120.0368,51.58702],[-120.03758,51.5873]]}},
{"type":"Feature","properties":{"spotId":"A-duck-walk-0108","kind":"walk","km":0.32,"climbM":0,"name":"Unnamed lake 470 m W of Lolo Lake","flags":[]},"geometry":{"type":"LineString","coordinates":[[-120.19035,51.62949],[-120.18962,51.6267]]}},
{"type":"Feature","properties":{"spotId":"A-duck-walk-0133","kind":"walk","km":0.31,"climbM":0,"name":"Unnamed wetland 1.3 km NE of Axel Lake","flags":[]},"geometry":{"type":"LineString","coordinates":[[-120.02972,51.54595],[-120.03412,51.54628]]}},
{"type":"Feature","properties":{"spotId":"A-grouse-atv-0058","kind":"ride","km":6.37,"climbM":98,"name":"By Grizzly Lakes","flags":[]},"geometry":{"type":"LineString","coordinates":[[-120.24222,51.72948],[-120.24218,51.72945],[-120.24214,51.72942],[-120.24209,51.72932],[-120.24206,51.7292],[-120.24207,51.72907],[-120.24215,51.72893],[-120.24223,51.72881],[-120.24233,51.7287],[-120.24251,51.72853],[-120.2426,51.72844],[-120.24276,51.72825],[-120.24294,51.72809],[-120.24311,51.72791],[-120.24337,51.72773],[-120.24343,51.72769],[-120.24354,51.72757],[-120.24355,51.72746],[-120.24346,51.72728],[-120.24342,51.7272],[-120.24331,51.72705],[-120.24326,51.7269],[-120.2432,51.72673],[-120.24315,51.72657],[-120.24312,51.72643],[-120.24307,51.72625],[-120.24301,51.72606],[-120.24296,51.72583],[-120.24288,51.72568],[-120.24271,51.72548],[-120.24257,51.72535],[-120.24237,51.72518],[-120.24231,51.72514],[-120.24222,51.72515],[-120.24205,51.72513],[-120.24186,51.72511],[-120.24158,51.72509],[-120.24137,51.72508],[-120.24111,51.72507],[-120.24077,51.72506],[-120.24058,51.72507],[-120.24042,51.72505],[-120.24013,51.72504],[-120.23994,51.72502],[-120.23964,51.72498],[-120.23935,51.72495],[-120.2391,51.72491],[-120.23878,51.72485],[-120.23854,51.72479],[-120.23842,51.72476],[-120.23822,51.72474],[-120.23805,51.7247],[-120.23791,51.72465],[-120.2378,51.72462],[-120.23765,51.72457],[-120.23736,51.72448],[-120.23707,51.72438],[-120.23694,51.72433],[-120.23669,51.72422],[-120.23647,51.72408],[-120.23612,51.72389],[-120.23582,51.72371],[-120.23561,51.72365],[-120.23551,51.72365],[-120.23548,51.72366],[-120.23541,51.72368],[-120.23523,51.72375],[-120.23511,51.72384],[-120.23506,51.72389],[-120.23499,51.72402],[-120.23497,51.72412],[-120.23497,51.72422],[-120.23496,51.72432],[-120.23499,51.72452],[-120.235,51.72468],[-120.23491,51.72485],[-120.23469,51.72499],[-120.23442,51.72507],[-120.2341,51.72512],[-120.23379,51.72517],[-120.23365,51.72521],[-120.2334,51.72529],[-120.23308,51.72547],[-120.23295,51.72552],[-120.23265,51.72562],[-120.23234,51.72571],[-120.23219,51.72576],[-120.23187,51.72588],[-120.23162,51.72593],[-120.23158,51.72593],[-120.23146,51.72596],[-120.23121,51.72602],[-120.23087,51.72605],[-120.23067,51.72601],[-120.2304,51.72592],[-120.23017,51.72577],[-120.22992,51.72561],[-120.22963,51.72547],[-120.22931,51.72534],[-120.22901,51.72522],[-120.22889,51.72515],[-120.22865,51.72502],[-120.2284,51.7249],[-120.2283,51.72484],[-120.22823,51.72477],[-120.22819,51.72469],[-120.22816,51.72454],[-120.22813,51.72451],[-120.22803,51.72444],[-120.22785,51.72435],[-120.22766,51.72434],[-120.22756,51.72435],[-120.22734,51.72436],[-120.22707,51.72438],[-120.2268,51.7244],[-120.22656,51.72436],[-120.22647,51.72435],[-120.22629,51.72429],[-120.22598,51.72413],[-120.22586,51.72403],[-120.22565,51.72386],[-120.2254,51.72371],[-120.22504,51.72361],[-120.22469,51.72351],[-120.22439,51.72344],[-120.22403,51.72332],[-120.22368,51.72318],[-120.22332,51.72306],[-120.22297,51.72297],[-120.22266,51.72285],[-120.22249,51.72279],[-120.22216,51.72267],[-120.22181,51.72255],[-120.22161,51.7225],[-120.22142,51.72244],[-120.22135,51.72242],[-120.22124,51.72238],[-120.22109,51.72233],[-120.22105,51.72232],[-120.22087,51.72226],[-120.22068,51.72221],[-120.22032,51.72213],[-120.22018,51.72209],[-120.21994,51.72197],[-120.21968,51.72185],[-120.21952,51.72179],[-120.21939,51.72172],[-120.21913,51.72159],[-120.21887,51.72147],[-120.21864,51.72132],[-120.2183,51.72111],[-120.21805,51.72101],[-120.21786,51.72096],[-120.21766,51.72093],[-120.21745,51.7209],[-120.21723,51.72086],[-120.21705,51.72082],[-120.21684,51.72079],[-120.21664,51.72078],[-120.21646,51.72076],[-120.21627,51.72075],[-120.21607,51.72075],[-120.21588,51.72076],[-120.21569,51.72076],[-120.21548,51.72078],[-120.2153,51.72079],[-120.21497,51.72085],[-120.21462,51.7209],[-120.21427,51.72092],[-120.21391,51.72093],[-120.21355,51.72091],[-120.21322,51.72084],[-120.21305,51.72078],[-120.21291,51.72072],[-120.21266,51.7206],[-120.21243,51.72047],[-120.21239,51.72045],[-120.21233,51.72043],[-120.21218,51.7204],[-120.21213,51.7204],[-120.21203,51.7204],[-120.21179,51.7204],[-120.2116,51.72041],[-120.21124,51.72041],[-120.21108,51.72042],[-120.21074,51.72039],[-120.21057,51.72036],[-120.21027,51.7203],[-120.21011,51.7203],[-120.20979,51.72032],[-120.20945,51.72031],[-120.20926,51.72029],[-120.20907,51.72026],[-120.20886,51.72023],[-120.20867,51.72021],[-120.20838,51.72014],[-120.20834,51.72012],[-120.20814,51.71994],[-120.2079,51.71974],[-120.20765,51.71958],[-120.20734,51.71942],[-120.20719,51.71937],[-120.20702,51.7193],[-120.2069,51.71926],[-120.20685,51.71925],[-120.20649,51.71919],[-120.2062,51.71914],[-120.20596,51.71907],[-120.20565,51.71899],[-120.20536,51.71893],[-120.20524,51.71889],[-120.2052,51.71888],[-120.20488,51.71876],[-120.20474,51.7187],[-120.2045,51.71856],[-120.20434,51.71842],[-120.20427,51.71833],[-120.20409,51.71814],[-120.20393,51.71793],[-120.20388,51.71785],[-120.20379,51.71767],[-120.20368,51.71754],[-120.20361,51.71742],[-120.20355,51.7173],[-120.20348,51.71718],[-120.20329,51.71699],[-120.20312,51.71681],[-120.20305,51.71671],[-120.20289,51.71651],[-120.20278,51.71639],[-120.20263,51.71626],[-120.20252,51.71614],[-120.20241,51.71602],[-120.20222,51.7158],[-120.20205,51.71562],[-120.20193,51.71543],[-120.20183,51.71521],[-120.20179,51.71507],[-120.20173,51.71496],[-120.20168,51.71483],[-120.20164,51.7147],[-120.2016,51.71457],[-120.20157,51.71443],[-120.20148,51.71424],[-120.20134,51.71411],[-120.20115,51.7139],[-120.20109,51.71379],[-120.20096,51.71358],[-120.20083,51.71335],[-120.20077,51.71324],[-120.20066,51.71302],[-120.20056,51.71292],[-120.20036,51.71275],[-120.20023,51.71266],[-120.2001,51.7126],[-120.20001,51.71255],[-120.19982,51.71247],[-120.1997,51.71241],[-120.19945,51.71226],[-120.19916,51.71213],[-120.19888,51.71202],[-120.19874,51.71194],[-120.1985,51.7118],[-120.19834,51.71165],[-120.19826,51.71156],[-120.19822,51.71153],[-120.19811,51.71141],[-120.19805,51.71137],[-120.19793,51.71129],[-120.19767,51.71123],[-120.19744,51.71116],[-120.19719,51.71103],[-120.19702,51.71098],[-120.19688,51.71091],[-120.19666,51.71077],[-120.19651,51.71063],[-120.19647,51.71056],[-120.19638,51.71047],[-120.19629,51.71039],[-120.19606,51.71018],[-120.196,51.71011],[-120.19583,51.70991],[-120.19573,51.70983],[-120.19553,51.70963],[-120.19542,51.70953],[-120.19521,51.70933],[-120.19498,51.70915],[-120.19476,51.70897],[-120.19458,51.70879],[-120.19437,51.7086],[-120.19429,51.70851],[-120.19417,51.70831],[-120.19408,51.70816],[-120.19389,51.70798],[-120.19374,51.70781],[-120.19356,51.70764],[-120.19337,51.70744],[-120.19317,51.70729],[-120.19314,51.70727],[-120.19288,51.70714],[-120.19277,51.70707],[-120.19266,51.70699],[-120.19258,51.70689],[-120.19247,51.70679],[-120.1924,51.70674],[-120.19214,51.70655],[-120.19183,51.70642],[-120.19155,51.7063],[-120.19141,51.70625],[-120.19108,51.70616],[-120.19091,51.70613],[-120.19056,51.70605],[-120.19041,51.70601],[-120.19025,51.70598],[-120.19006,51.70594],[-120.18972,51.70588],[-120.18953,51.70586],[-120.18935,51.70584],[-120.18925,51.70582],[-120.18916,51.7058],[-120.18883,51.70571],[-120.18848,51.70563],[-120.18843,51.70562],[-120.18831,51.7056],[-120.18798,51.70553],[-120.18765,51.70547],[-120.18745,51.70544],[-120.18732,51.70541],[-120.18702,51.70537],[-120.18669,51.70534],[-120.18637,51.70533],[-120.18622,51.70531],[-120.1861,51.70528],[-120.18597,51.70523],[-120.18569,51.70513],[-120.18536,51.70504],[-120.18522,51.70499],[-120.18495,51.7049],[-120.18474,51.70481],[-120.1844,51.70467],[-120.18406,51.70452],[-120.1839,51.70445],[-120.18375,51.70437],[-120.18361,51.7043],[-120.18345,51.70423],[-120.18331,51.70416],[-120.1831,51.70402],[-120.18305,51.70398],[-120.1828,51.70379],[-120.18258,51.70358],[-120.18238,51.70339],[-120.18225,51.70328],[-120.18199,51.70309],[-120.18188,51.70299],[-120.18168,51.70279],[-120.18144,51.70264],[-120.1812,51.7025],[-120.18106,51.70245],[-120.18078,51.70232],[-120.18065,51.70224],[-120.1805,51.70216],[-120.18022,51.70203],[-120.17995,51.7019],[-120.1797,51.70178],[-120.17944,51.70169],[-120.17928,51.70159],[-120.17917,51.70149],[-120.17905,51.70142],[-120.1788,51.70128]]}},
{"type":"Feature","properties":{"spotId":"A-grouse-drive-0006","kind":"roadside","km":4.69,"climbM":23,"name":"330 m E of Grizzly Lakes","flags":[]},"geometry":{"type":"LineString","coordinates":[[-120.21894,51.73072],[-120.21824,51.73058],[-120.21797,51.73037],[-120.21734,51.72976],[-120.21707,51.72961],[-120.2163,51.72899],[-120.2152,51.72841],[-120.21417,51.72802],[-120.21376,51.72778],[-120.21326,51.72735],[-120.21292,51.72718],[-120.21259,51.72707],[-120.21163,51.72692],[-120.21133,51.72681],[-120.21084,51.72651],[-120.21025,51.72605],[-120.20995,51.72601],[-120.20956,51.72602],[-120.20935,51.72606],[-120.20836,51.72646],[-120.20808,51.7265],[-120.20779,51.72644],[-120.20726,51.72613],[-120.20655,51.7259],[-120.20614,51.7258],[-120.20491,51.72561],[-120.20459,51.7255],[-120.20426,51.7253],[-120.20421,51.72521],[-120.20407,51.72513],[-120.20348,51.72458],[-120.20318,51.7242],[-120.20284,51.72407],[-120.20259,51.72389],[-120.20229,51.7236],[-120.20211,51.72351],[-120.20154,51.72332],[-120.2008,51.72319],[-120.20001,51.72311],[-120.19888,51.7231],[-120.1985,51.72305],[-120.19765,51.72254],[-120.19733,51.72242],[-120.19678,51.7223],[-120.19654,51.72228],[-120.19584,51.72231],[-120.19534,51.72229],[-120.19429,51.72203],[-120.19396,51.72199],[-120.1935,51.72203],[-120.1931,51.7222],[-120.19269,51.72244],[-120.19174,51.72284],[-120.19142,51.72301],[-120.19124,51.72313],[-120.19067,51.72366],[-120.19004,51.72406],[-120.18974,51.72431],[-120.18914,51.72503],[-120.18852,51.7254],[-120.18815,51.72577],[-120.18746,51.72623],[-120.18689,51.7267],[-120.18642,51.72691],[-120.18496,51.72729],[-120.18426,51.72757],[-120.1836,51.72772],[-120.18335,51.7278],[-120.18231,51.728],[-120.18175,51.72808],[-120.18105,51.72825],[-120.18044,51.72845],[-120.17982,51.72861],[-120.17849,51.72884],[-120.17785,51.72893],[-120.17651,51.72899],[-120.17536,51.72896],[-120.17264,51.729],[-120.17161,51.72892],[-120.17104,51.72878],[-120.16975,51.72822],[-120.16941,51.7281],[-120.16883,51.72776],[-120.16872,51.72765],[-120.1683,51.72706],[-120.16795,51.72617],[-120.16791,51.72576],[-120.16817,51.72521],[-120.16798,51.7249],[-120.16792,51.72471],[-120.16722,51.72381],[-120.16719,51.72378]]}},
{"type":"Feature","properties":{"spotId":"A-grouse-drive-0028","kind":"roadside","km":3.81,"climbM":64,"name":"1.7 km E of Russell Lake","flags":[]},"geometry":{"type":"LineString","coordinates":[[-120.01625,51.58619],[-120.01634,51.58675],[-120.01646,51.58713],[-120.01653,51.58731],[-120.01665,51.58742],[-120.01684,51.58753],[-120.01719,51.58768],[-120.0177,51.58785],[-120.01803,51.58805],[-120.01821,51.58824],[-120.01825,51.58838],[-120.01825,51.5885],[-120.01817,51.58866],[-120.01786,51.58883],[-120.01754,51.58909],[-120.01747,51.58925],[-120.01718,51.58949],[-120.01708,51.58977],[-120.01715,51.59001],[-120.01701,51.59036],[-120.01686,51.59067],[-120.01664,51.59086],[-120.0163,51.5911],[-120.01595,51.59138],[-120.01581,51.59163],[-120.01581,51.59178],[-120.01585,51.59191],[-120.0159,51.59201],[-120.01598,51.59213],[-120.01609,51.5925],[-120.01617,51.59284],[-120.01632,51.59333],[-120.0164,51.59346],[-120.01653,51.59356],[-120.01675,51.59366],[-120.01682,51.59367],[-120.01693,51.59366],[-120.017,51.59363],[-120.01708,51.59361],[-120.0172,51.59363],[-120.01725,51.59367],[-120.01731,51.59373],[-120.01739,51.59379],[-120.01747,51.59381],[-120.01758,51.5938],[-120.01772,51.59373],[-120.01782,51.59366],[-120.01791,51.59359],[-120.01812,51.59337],[-120.01829,51.59315],[-120.01832,51.59311],[-120.0186,51.59263],[-120.01866,51.59243],[-120.01886,51.59229],[-120.01934,51.59225],[-120.01978,51.59235],[-120.02011,51.59239],[-120.0205,51.59237],[-120.02084,51.59233],[-120.02118,51.59226],[-120.02172,51.59218],[-120.02221,51.59201],[-120.02264,51.59178],[-120.02346,51.59161],[-120.02398,51.59146],[-120.02447,51.59129],[-120.02482,51.59115],[-120.02498,51.59104],[-120.02518,51.59076],[-120.02539,51.59051],[-120.02559,51.59033],[-120.02581,51.59025],[-120.02607,51.59019],[-120.02632,51.59027],[-120.02662,51.59035],[-120.02694,51.59039],[-120.0272,51.59041],[-120.0275,51.5904],[-120.02777,51.59033],[-120.02795,51.59023],[-120.02809,51.59012],[-120.02812,51.58992],[-120.02815,51.58957],[-120.02828,51.58933],[-120.02843,51.58909],[-120.02873,51.58878],[-120.02897,51.58862],[-120.02948,51.58832],[-120.02983,51.58805],[-120.03003,51.58782],[-120.03017,51.58774],[-120.03034,51.58767],[-120.03062,51.58759],[-120.03113,51.58744],[-120.03154,51.58729],[-120.03284,51.5867],[-120.033,51.58633],[-120.0332,51.58607],[-120.03353,51.5858],[-120.03373,51.58546],[-120.03374,51.58505],[-120.03369,51.58478],[-120.03371,51.58446],[-120.03372,51.58419],[-120.03392,51.58392],[-120.03417,51.58378],[-120.03464,51.58369],[-120.03513,51.58376],[-120.03579,51.58377],[-120.03598,51.58371],[-120.0363,51.58366],[-120.0365,51.58356],[-120.03684,51.58345],[-120.03716,51.58333],[-120.03755,51.58317],[-120.03796,51.58313],[-120.03831,51.58319],[-120.03859,51.58334],[-120.03873,51.58353],[-120.03877,51.58378],[-120.03879,51.58403],[-120.03884,51.58429],[-120.03903,51.58448],[-120.03935,51.58466],[-120.03972,51.58484],[-120.04011,51.58498],[-120.0406,51.58504],[-120.04116,51.58508],[-120.0416,51.58503],[-120.04185,51.58496],[-120.04202,51.58491],[-120.0422,51.58489],[-120.04251,51.585],[-120.04275,51.58499],[-120.04315,51.58513],[-120.04378,51.58545],[-120.04408,51.58555],[-120.04433,51.58559],[-120.04463,51.58557],[-120.04488,51.58554],[-120.04527,51.5856],[-120.04539,51.58562]]}},
{"type":"Feature","properties":{"spotId":"A-grouse-drive-0036","kind":"roadside","km":3.12,"climbM":43,"name":"1.6 km NW of Skwilatin Mountain","flags":[]},"geometry":{"type":"LineString","coordinates":[[-120.216,51.59541],[-120.21654,51.59494],[-120.21718,51.59404],[-120.21749,51.59365],[-120.21766,51.59348],[-120.21784,51.59341],[-120.21804,51.59337],[-120.21827,51.59338],[-120.21864,51.59332],[-120.21902,51.59321],[-120.21947,51.59306],[-120.21983,51.5929],[-120.22012,51.59271],[-120.22028,51.59251],[-120.22035,51.59228],[-120.22036,51.59203],[-120.22029,51.59176],[-120.22026,51.59143],[-120.22031,51.59119],[-120.22039,51.59099],[-120.22052,51.59081],[-120.22069,51.59067],[-120.22079,51.59063],[-120.22121,51.59055],[-120.22168,51.59047],[-120.22236,51.59045],[-120.2234,51.59047],[-120.22386,51.5905],[-120.22391,51.5905],[-120.2244,51.59051],[-120.22521,51.59054],[-120.22555,51.59063],[-120.22587,51.59076],[-120.22612,51.59099],[-120.22644,51.59135],[-120.22667,51.59156],[-120.22708,51.59173],[-120.22748,51.59199],[-120.22799,51.59247],[-120.22814,51.59294],[-120.22851,51.59335],[-120.22889,51.59369],[-120.22907,51.59401],[-120.22908,51.59428],[-120.22914,51.59454],[-120.22914,51.59457],[-120.22915,51.59487],[-120.22931,51.59532],[-120.22947,51.59583],[-120.22974,51.59625],[-120.22999,51.59651],[-120.23018,51.59682],[-120.23014,51.59719],[-120.2301,51.59755],[-120.23021,51.59782],[-120.23031,51.59802],[-120.23078,51.59863],[-120.23099,51.59902],[-120.23114,51.5996],[-120.23118,51.5999],[-120.23117,51.60019],[-120.23114,51.60055],[-120.2311,51.60107],[-120.2311,51.60142],[-120.23118,51.60177],[-120.23128,51.60202],[-120.2314,51.60219],[-120.2316,51.60238],[-120.23189,51.6026],[-120.23214,51.60277],[-120.23239,51.60286],[-120.23306,51.60296],[-120.23341,51.60303],[-120.23374,51.60314],[-120.23394,51.60331],[-120.23406,51.60345],[-120.23403,51.6038],[-120.23402,51.60418],[-120.23394,51.6045],[-120.23382,51.60478],[-120.23354,51.6053],[-120.23327,51.60571],[-120.23293,51.60626],[-120.23261,51.60671],[-120.23246,51.60695],[-120.2323,51.60715],[-120.23221,51.6073]]}},
{"type":"Feature","properties":{"spotId":"A-grouse-walk-0014","kind":"roadside","km":4.56,"climbM":200,"name":"1.3 km NE of Axel Lake","flags":["Route enters a Motor Vehicle Closed Area: Thompson, Cariboo and Okanagan Alpines. Closed Year Round. Exemption: Snowmobiles exempt year round (January 1 to December 31). Synopsis map 1-82/24."]},"geometry":{"type":"LineString","coordinates":[[-120.0418,51.55182],[-120.03988,51.55174],[-120.03857,51.55161],[-120.03772,51.55142],[-120.03662,51.55127],[-120.03547,51.55113],[-120.03442,51.55137],[-120.03334,51.55147],[-120.03243,51.55177],[-120.03177,51.55227],[-120.031,51.55256],[-120.03033,51.55257],[-120.02971,51.55242],[-120.02926,51.55216],[-120.02897,51.55176],[-120.029,51.55139],[-120.02919,51.55094],[-120.02944,51.55024],[-120.02941,51.5495],[-120.02891,51.54896],[-120.02896,51.54789],[-120.02839,51.54748],[-120.02752,51.5476],[-120.02671,51.54753],[-120.02577,51.54708],[-120.02538,51.54661],[-120.02474,51.54648],[-120.0243,51.54656],[-120.02345,51.5474],[-120.02183,51.54791],[-120.02106,51.54767],[-120.02092,51.54703],[-120.02084,51.54675],[-120.02064,51.54635],[-120.02018,51.54629],[-120.01977,51.54629],[-120.01972,51.54602],[-120.01989,51.54567],[-120.01995,51.5451],[-120.01938,51.54488],[-120.01872,51.54469],[-120.01828,51.54461],[-120.01763,51.54476],[-120.01669,51.54486],[-120.01613,51.54466],[-120.01563,51.54472],[-120.01508,51.54494],[-120.01434,51.54523],[-120.01368,51.54519],[-120.01287,51.54488],[-120.0121,51.5449],[-120.01141,51.54513],[-120.00945,51.547],[-120.00808,51.54787],[-120.00735,51.54788],[-120.00692,51.54735],[-120.00656,51.54679],[-120.00635,51.54683],[-120.00605,51.54723],[-120.00563,51.54733],[-120.00487,51.54673],[-120.00406,51.54646],[-120.00307,51.54617],[-120.00061,51.54627],[-120.00033,51.54651],[-120.00026,51.54688],[-120.00037,51.54734],[-120.00004,51.54798],[-119.99896,51.54898],[-119.99852,51.54923]]}},
{"type":"Feature","properties":{"spotId":"A-moose-atv-0017","kind":"ride","km":2.87,"climbM":54,"name":"By Wyllie Creek","flags":[]},"geometry":{"type":"LineString","coordinates":[[-120.1436,51.73969],[-120.14358,51.73972],[-120.14355,51.73978],[-120.14342,51.7398],[-120.14325,51.73985],[-120.14318,51.73994],[-120.14308,51.74012],[-120.14307,51.74016],[-120.14303,51.74037],[-120.14303,51.74038],[-120.14307,51.7405],[-120.14316,51.74063],[-120.14328,51.74083],[-120.14332,51.74087],[-120.1435,51.74107],[-120.14356,51.74111],[-120.14364,51.74122],[-120.14383,51.74144],[-120.14384,51.7415],[-120.14388,51.7417],[-120.14387,51.74183],[-120.1439,51.74203],[-120.14391,51.74224],[-120.14397,51.74246],[-120.14402,51.74267],[-120.14408,51.74282],[-120.14409,51.7429],[-120.14404,51.74304],[-120.14392,51.74314],[-120.14381,51.74328],[-120.14362,51.74344],[-120.14347,51.74354],[-120.14336,51.74365],[-120.14328,51.74383],[-120.14323,51.74391],[-120.14317,51.74394],[-120.14299,51.74403],[-120.14293,51.74411],[-120.14292,51.74421],[-120.14285,51.74439],[-120.14284,51.7445],[-120.14273,51.7447],[-120.14252,51.74481],[-120.1424,51.74488],[-120.14225,51.74494],[-120.14218,51.74499],[-120.14201,51.74507],[-120.14186,51.74516],[-120.14171,51.74529],[-120.14152,51.74549],[-120.14132,51.7457],[-120.14119,51.74584],[-120.14113,51.746],[-120.141,51.74622],[-120.14096,51.74628],[-120.14089,51.74634],[-120.14073,51.74654],[-120.14052,51.7467],[-120.14024,51.74689],[-120.14014,51.74697],[-120.14002,51.74707],[-120.13985,51.7472],[-120.13969,51.7474],[-120.1395,51.7476],[-120.13933,51.74778],[-120.13922,51.74798],[-120.13917,51.74804],[-120.13907,51.74825],[-120.13897,51.74847],[-120.13882,51.74863],[-120.13862,51.74874],[-120.1384,51.74878],[-120.13831,51.7488],[-120.13799,51.74883],[-120.13787,51.74885],[-120.13773,51.7489],[-120.1376,51.74899],[-120.13748,51.74918],[-120.1374,51.74929],[-120.1372,51.74948],[-120.13715,51.74953],[-120.13703,51.74961],[-120.1369,51.74966],[-120.13667,51.74979],[-120.13664,51.7498],[-120.13654,51.7498],[-120.13644,51.74977],[-120.13627,51.74975],[-120.13601,51.74969],[-120.13569,51.74967],[-120.13552,51.74969],[-120.13524,51.74977],[-120.13512,51.74979],[-120.13503,51.74983],[-120.13497,51.74987],[-120.13479,51.75004],[-120.1346,51.75021],[-120.13446,51.75032],[-120.13431,51.7505],[-120.13418,51.75064],[-120.13397,51.75072],[-120.13376,51.75073],[-120.13346,51.75079],[-120.1331,51.75087],[-120.13302,51.75089],[-120.13279,51.75093],[-120.13248,51.75092],[-120.13231,51.7509],[-120.13197,51.75079],[-120.13174,51.75072],[-120.13152,51.75062],[-120.1313,51.75057],[-120.13109,51.75054],[-120.13074,51.75047],[-120.13039,51.75042],[-120.1302,51.75039],[-120.12985,51.75037],[-120.12965,51.75037],[-120.12946,51.75042],[-120.12937,51.75046],[-120.12919,51.75061],[-120.12894,51.75074],[-120.12882,51.75084],[-120.12851,51.751],[-120.12836,51.75108],[-120.12824,51.75112],[-120.128,51.75118],[-120.12783,51.75123],[-120.12752,51.75129],[-120.1274,51.75129],[-120.12737,51.75128],[-120.12729,51.75118],[-120.12726,51.75108],[-120.12722,51.75096],[-120.12715,51.75078],[-120.12713,51.75059],[-120.12708,51.75038],[-120.12707,51.75032],[-120.12709,51.7501],[-120.12708,51.74991],[-120.1271,51.74973],[-120.12711,51.74951],[-120.12711,51.74928],[-120.12712,51.74917],[-120.12708,51.749],[-120.12704,51.74878],[-120.12698,51.74855],[-120.12695,51.74838],[-120.12695,51.74817],[-120.12696,51.74806],[-120.12691,51.74795],[-120.12677,51.74778],[-120.12652,51.74759],[-120.12634,51.74744],[-120.12614,51.74723],[-120.12585,51.747],[-120.12579,51.74696],[-120.12567,51.74682],[-120.12555,51.74674],[-120.12537,51.7466],[-120.12526,51.74648],[-120.125,51.74625],[-120.12485,51.74607],[-120.12465,51.74588],[-120.12454,51.74578],[-120.12441,51.74565],[-120.12437,51.74564],[-120.12429,51.74558],[-120.12421,51.74549],[-120.12408,51.74539],[-120.12392,51.74517],[-120.12375,51.74498]]}},
{"type":"Feature","properties":{"spotId":"A-moose-atv-0017","kind":"walk","km":0.28,"climbM":7,"name":"By Wyllie Creek","flags":[]},"geometry":{"type":"LineString","coordinates":[[-120.12375,51.74498],[-120.12733,51.74372]]}},
{"type":"Feature","properties":{"spotId":"A-moose-drive-0022","kind":"walk","km":0.13,"climbM":0,"name":"1.7 km N of Grizzly Lakes","flags":[]},"geometry":{"type":"LineString","coordinates":[[-120.24389,51.74664],[-120.24209,51.74703]]}},
{"type":"Feature","properties":{"spotId":"A-moose-drive-0029","kind":"walk","km":0.24,"climbM":6,"name":"250 m SW of Colborne Lake","flags":[]},"geometry":{"type":"LineString","coordinates":[[-120.18603,51.61106],[-120.1872,51.61305]]}},
{"type":"Feature","properties":{"spotId":"A-moose-drive-0031","kind":"walk","km":0.17,"climbM":1,"name":"400 m W of Russell Creek","flags":[]},"geometry":{"type":"LineString","coordinates":[[-120.04371,51.59999],[-120.04405,51.60151]]}},
{"type":"Feature","properties":{"spotId":"A-moose-walk-0047","kind":"walk","km":0.39,"climbM":25,"name":"240 m W of Wyllie Creek","flags":[]},"geometry":{"type":"LineString","coordinates":[[-120.13219,51.73387],[-120.12946,51.73694]]}},
{"type":"Feature","properties":{"spotId":"A-moose-walk-0059","kind":"walk","km":0.68,"climbM":88,"name":"1.2 km NW of Russell Lake","flags":[]},"geometry":{"type":"LineString","coordinates":[[-120.06958,51.59349],[-120.05979,51.59381]]}}
]}
