{"type":"FeatureCollection","features":[
{"type":"Feature","properties":{"spotId":"A-duck-drive-0021","kind":"walk","km":0.02,"climbM":0,"name":"Moira Lake","flags":[]},"geometry":{"type":"LineString","coordinates":[[-120.23078,51.78531],[-120.23087,51.78549]]}},
{"type":"Feature","properties":{"spotId":"A-duck-walk-0035","kind":"walk","km":0.47,"climbM":0,"name":"Unnamed wetland by Trout Creek","flags":["Route crosses private land (ParcelMap BC, updated 2026-09-25): get permission first or go around."]},"geometry":{"type":"LineString","coordinates":[[-120.02443,51.88701],[-120.03132,51.88704]]}},
{"type":"Feature","properties":{"spotId":"A-duck-walk-0064","kind":"walk","km":0.43,"climbM":0,"name":"Unnamed wetland 2.6 km N of Johnston Lake","flags":[]},"geometry":{"type":"LineString","coordinates":[[-120.18083,51.85557],[-120.18629,51.85364]]}},
{"type":"Feature","properties":{"spotId":"A-duck-walk-0105","kind":"walk","km":0.32,"climbM":4,"name":"Unnamed wetland 2.4 km NE of Efdee Lake","flags":[]},"geometry":{"type":"LineString","coordinates":[[-120.14072,51.82631],[-120.14306,51.82883]]}},
{"type":"Feature","properties":{"spotId":"A-grouse-atv-0040","kind":"walk","km":0.87,"climbM":110,"name":"1.1 km N of Gates Creek","flags":[]},"geometry":{"type":"LineString","coordinates":[[-120.10187,51.77419],[-120.1101,51.76828]]}},
{"type":"Feature","properties":{"spotId":"A-grouse-atv-0040","kind":"ride","km":3.05,"climbM":51,"name":"1.1 km N of Gates Creek","flags":[]},"geometry":{"type":"LineString","coordinates":[[-120.1101,51.76828],[-120.11044,51.76828],[-120.11067,51.76826],[-120.11093,51.76827],[-120.11129,51.76827],[-120.11165,51.76828],[-120.11202,51.76828],[-120.11238,51.76828],[-120.11274,51.76828],[-120.11283,51.76827],[-120.11294,51.76815],[-120.1132,51.76797],[-120.11342,51.7678],[-120.11366,51.76766],[-120.11383,51.76757],[-120.11403,51.76744],[-120.11437,51.76731],[-120.11441,51.76729],[-120.1145,51.76727],[-120.11478,51.76723],[-120.11515,51.76708],[-120.11537,51.76699],[-120.11566,51.76683],[-120.11577,51.76675],[-120.1158,51.76669],[-120.11581,51.76646],[-120.11582,51.76631],[-120.11588,51.7661],[-120.11593,51.76601],[-120.11622,51.76579],[-120.11633,51.76567],[-120.11639,51.76565],[-120.11661,51.76559],[-120.11687,51.76554],[-120.1171,51.76543],[-120.11734,51.76529],[-120.1174,51.76522],[-120.11751,51.76508],[-120.11754,51.76506],[-120.11779,51.76487],[-120.11797,51.76476],[-120.11815,51.76461],[-120.11833,51.76453],[-120.11836,51.76448],[-120.11845,51.76426],[-120.11847,51.76418],[-120.11848,51.76401],[-120.11847,51.76386],[-120.11862,51.76365],[-120.11874,51.76352],[-120.11885,51.76342],[-120.1189,51.76335],[-120.11891,51.76319],[-120.11891,51.76299],[-120.11892,51.76281],[-120.11891,51.76265],[-120.11892,51.76253],[-120.11893,51.76238],[-120.11892,51.76224],[-120.11894,51.76207],[-120.11894,51.76192],[-120.11894,51.76172],[-120.11895,51.76156],[-120.11895,51.76134],[-120.11896,51.76117],[-120.11892,51.76099],[-120.11889,51.76091],[-120.1188,51.76081],[-120.11873,51.76078],[-120.1186,51.76077],[-120.11839,51.76081],[-120.11815,51.76093],[-120.11809,51.76098],[-120.11795,51.76117],[-120.11787,51.76125],[-120.11767,51.76137],[-120.11754,51.76144],[-120.11723,51.76151],[-120.11701,51.76159],[-120.11692,51.76161],[-120.11681,51.7616],[-120.11667,51.76161],[-120.11643,51.7616],[-120.11618,51.7616],[-120.11605,51.76159],[-120.11591,51.76158],[-120.11555,51.76152],[-120.11535,51.76151],[-120.11513,51.76149],[-120.11499,51.76144],[-120.11485,51.76132],[-120.11453,51.76112],[-120.11449,51.7611],[-120.11438,51.76107],[-120.11407,51.76101],[-120.11379,51.76094],[-120.11351,51.76077],[-120.11324,51.76072],[-120.11312,51.76068],[-120.11278,51.76048],[-120.11265,51.7604],[-120.11266,51.76022],[-120.11266,51.76001],[-120.11266,51.75995],[-120.11265,51.75978],[-120.1125,51.75962],[-120.11242,51.75953],[-120.11232,51.75945],[-120.11222,51.75939],[-120.11202,51.75934],[-120.11181,51.75932],[-120.1115,51.75929],[-120.1112,51.75925],[-120.11101,51.75922],[-120.11082,51.75915],[-120.11066,51.75907],[-120.11058,51.75898],[-120.11052,51.75886],[-120.11045,51.75869],[-120.11042,51.75857],[-120.11033,51.75839],[-120.11026,51.75828],[-120.11009,51.75806],[-120.11002,51.75798],[-120.10986,51.75775],[-120.10978,51.75764],[-120.10965,51.75743],[-120.10959,51.75732],[-120.10949,51.75716],[-120.10938,51.75693],[-120.10936,51.75679],[-120.10934,51.7566],[-120.10929,51.75643],[-120.10928,51.75635],[-120.1093,51.75616],[-120.10936,51.75602],[-120.10952,51.75582],[-120.10959,51.75562],[-120.10959,51.75545],[-120.1096,51.75536],[-120.10955,51.75519],[-120.1095,51.755],[-120.10948,51.75493],[-120.10946,51.75479],[-120.10947,51.75463],[-120.10948,51.75451],[-120.10949,51.75444],[-120.10964,51.75424],[-120.10964,51.75416],[-120.10955,51.75394],[-120.10949,51.75384],[-120.10927,51.75363],[-120.10919,51.75356],[-120.10904,51.75334],[-120.10895,51.75318],[-120.10893,51.75306],[-120.10894,51.7529],[-120.10894,51.75269],[-120.10895,51.75249],[-120.10895,51.75231],[-120.10896,51.75213],[-120.10898,51.75201],[-120.10899,51.7519],[-120.10904,51.75175],[-120.1091,51.75155],[-120.1091,51.75137],[-120.10903,51.75102],[-120.10902,51.75073],[-120.10906,51.75056],[-120.10918,51.75034],[-120.10922,51.75028],[-120.10948,51.75014],[-120.10962,51.75003],[-120.10974,51.74985],[-120.10982,51.74972]]}},
{"type":"Feature","properties":{"spotId":"A-grouse-drive-0015","kind":"roadside","km":5.26,"climbM":59,"name":"3.3 km NW of Johnston Lake","flags":[]},"geometry":{"type":"LineString","coordinates":[[-120.22895,51.84759],[-120.22898,51.84772],[-120.22899,51.84789],[-120.22904,51.84803],[-120.22914,51.84822],[-120.22922,51.84834],[-120.22933,51.84847],[-120.22948,51.84866],[-120.2296,51.84882],[-120.2297,51.84901],[-120.2297,51.84924],[-120.22972,51.84946],[-120.22971,51.84961],[-120.22971,51.84979],[-120.2296,51.84997],[-120.22958,51.85004],[-120.22956,51.8502],[-120.22957,51.8503],[-120.22952,51.8505],[-120.22949,51.85062],[-120.22949,51.85064],[-120.22948,51.85082],[-120.22948,51.85094],[-120.22949,51.85114],[-120.22949,51.8513],[-120.22948,51.85139],[-120.22956,51.85156],[-120.22968,51.8517],[-120.22992,51.85192],[-120.23001,51.85201],[-120.23011,51.85216],[-120.23021,51.85235],[-120.23027,51.85256],[-120.23027,51.85279],[-120.23026,51.85291],[-120.23017,51.85305],[-120.23014,51.85309],[-120.22996,51.85327],[-120.22984,51.85339],[-120.22973,51.85353],[-120.22969,51.85368],[-120.22967,51.85379],[-120.22966,51.85392],[-120.22965,51.85413],[-120.22967,51.85424],[-120.22976,51.85442],[-120.22991,51.85465],[-120.22994,51.85468],[-120.23003,51.85488],[-120.23005,51.85489],[-120.23016,51.85501],[-120.23018,51.85516],[-120.23025,51.85528],[-120.23038,51.85547],[-120.23031,51.85565],[-120.23024,51.85587],[-120.23022,51.85592],[-120.23024,51.85615],[-120.23024,51.85633],[-120.23023,51.85645],[-120.23026,51.85653],[-120.2303,51.85656],[-120.23036,51.85669],[-120.23042,51.85692],[-120.23043,51.85708],[-120.23047,51.85729],[-120.23059,51.85751],[-120.2306,51.85753],[-120.23065,51.85771],[-120.23072,51.85791],[-120.23079,51.85809],[-120.23081,51.85816],[-120.23086,51.85838],[-120.23091,51.85849],[-120.23097,51.85869],[-120.231,51.85883],[-120.231,51.85903],[-120.23101,51.85924],[-120.231,51.85928],[-120.23097,51.85937],[-120.23087,51.85952],[-120.23076,51.85971],[-120.23069,51.85988],[-120.23069,51.86006],[-120.23069,51.86013],[-120.2307,51.86023],[-120.2307,51.86041],[-120.2307,51.86042],[-120.2307,51.86061],[-120.23071,51.8607],[-120.23069,51.86078],[-120.23059,51.86088],[-120.23029,51.86104],[-120.23016,51.86114],[-120.23002,51.86132],[-120.22994,51.86153],[-120.22987,51.86171],[-120.22974,51.86189],[-120.22972,51.86197],[-120.22964,51.86203],[-120.22965,51.8622],[-120.22965,51.8624],[-120.22966,51.86252],[-120.22991,51.86271],[-120.23017,51.86292],[-120.23025,51.86297],[-120.23043,51.86297],[-120.23064,51.863],[-120.23094,51.86316],[-120.23119,51.86329],[-120.23126,51.86334],[-120.23147,51.86355],[-120.23155,51.86365],[-120.23157,51.8638],[-120.23156,51.86399],[-120.23155,51.86409],[-120.23152,51.86416],[-120.23136,51.86438],[-120.23123,51.86456],[-120.23117,51.86464],[-120.23101,51.86477],[-120.23092,51.86492],[-120.23077,51.86505],[-120.2307,51.86524],[-120.23068,51.86529],[-120.23058,51.86544],[-120.23055,51.86552],[-120.23054,51.86571],[-120.23053,51.86582],[-120.23053,51.86602],[-120.23054,51.86618],[-120.23054,51.86641],[-120.23054,51.86663],[-120.23055,51.86673],[-120.23049,51.86695],[-120.23044,51.86711],[-120.23043,51.86727],[-120.23041,51.86745],[-120.2304,51.86752],[-120.23036,51.86759],[-120.23028,51.86769],[-120.23019,51.86781],[-120.23009,51.86795],[-120.23009,51.86808],[-120.23009,51.86825],[-120.23004,51.86827],[-120.22979,51.8684],[-120.2297,51.8684],[-120.22937,51.86841],[-120.22904,51.86834],[-120.22891,51.86832],[-120.2286,51.8683],[-120.22839,51.86827],[-120.22808,51.86828],[-120.22778,51.86828],[-120.2276,51.8683],[-120.22754,51.8683],[-120.22744,51.86832],[-120.22721,51.86835],[-120.22702,51.86835],[-120.22686,51.86837],[-120.22677,51.86841],[-120.22667,51.8685],[-120.22643,51.86865],[-120.22633,51.8687],[-120.22609,51.86878],[-120.22576,51.8688],[-120.22557,51.86881],[-120.22543,51.86883],[-120.22523,51.86885],[-120.22511,51.86885],[-120.2249,51.86885],[-120.22459,51.86887],[-120.22437,51.86887],[-120.22404,51.86886],[-120.22388,51.86876],[-120.22364,51.86865],[-120.22338,51.86844],[-120.22333,51.86839],[-120.22309,51.86823],[-120.22295,51.86806],[-120.22275,51.86787],[-120.22269,51.86782],[-120.22251,51.86766],[-120.22244,51.86759],[-120.22229,51.86749],[-120.22199,51.86739],[-120.22192,51.86738],[-120.22179,51.86736],[-120.22149,51.86736],[-120.22137,51.86735],[-120.22128,51.86734],[-120.22101,51.86728],[-120.22088,51.86723],[-120.22085,51.86722],[-120.2207,51.86716],[-120.22045,51.86699],[-120.22039,51.86694],[-120.22025,51.86674],[-120.22018,51.86667],[-120.22,51.86651],[-120.21996,51.86647],[-120.21983,51.86639],[-120.21973,51.86635],[-120.21962,51.86634],[-120.2194,51.86634],[-120.21907,51.86629],[-120.21878,51.8662],[-120.21858,51.86614],[-120.21849,51.86605],[-120.21835,51.86586],[-120.21831,51.86579],[-120.21828,51.86562],[-120.21826,51.86554],[-120.21814,51.86532],[-120.21806,51.86516],[-120.21793,51.86498],[-120.21787,51.86492],[-120.21763,51.86479],[-120.21745,51.86474],[-120.21732,51.86473],[-120.21696,51.86474],[-120.21684,51.86472],[-120.21663,51.86461],[-120.21656,51.8646],[-120.21633,51.86456],[-120.21627,51.86455],[-120.21604,51.86448],[-120.21598,51.86447],[-120.21591,51.86445],[-120.21563,51.86439],[-120.21543,51.86434],[-120.21524,51.86429],[-120.21504,51.86425],[-120.21491,51.86425],[-120.21458,51.8642],[-120.21435,51.86418],[-120.21408,51.8641],[-120.2138,51.86404],[-120.21357,51.86397],[-120.21339,51.86392],[-120.21316,51.86388],[-120.21296,51.86385],[-120.21281,51.86381],[-120.21252,51.86368],[-120.2122,51.86358],[-120.21216,51.86356],[-120.21212,51.86355],[-120.21178,51.86345],[-120.21169,51.86343],[-120.21134,51.8633],[-120.21131,51.86329],[-120.21122,51.86328],[-120.21091,51.86319],[-120.21079,51.86316],[-120.21058,51.8631],[-120.21022,51.86299],[-120.20992,51.86294],[-120.2096,51.86286],[-120.20949,51.86283],[-120.20914,51.8627],[-120.20903,51.86269],[-120.2088,51.86268],[-120.20853,51.86268],[-120.20821,51.86267],[-120.20808,51.86267],[-120.20795,51.86265],[-120.20778,51.8626],[-120.20766,51.86258],[-120.20743,51.86255],[-120.20724,51.86254],[-120.20688,51.86249],[-120.20682,51.86248],[-120.20659,51.86246],[-120.20657,51.86244],[-120.20641,51.86239],[-120.20614,51.86227],[-120.20597,51.86222],[-120.20577,51.86217],[-120.20564,51.86216],[-120.20541,51.86211],[-120.20506,51.86206],[-120.20498,51.86203],[-120.20494,51.86201],[-120.20472,51.86192],[-120.20449,51.86171],[-120.20436,51.86163],[-120.20425,51.86156],[-120.20421,51.86153],[-120.2041,51.86148],[-120.20398,51.86143],[-120.20363,51.86136],[-120.2036,51.86135],[-120.20334,51.86134],[-120.20297,51.86134],[-120.20277,51.86134],[-120.20253,51.86129],[-120.20234,51.86127],[-120.20218,51.86126],[-120.20187,51.86126],[-120.20169,51.86123],[-120.20133,51.86119],[-120.20111,51.8612],[-120.2009,51.8612],[-120.2007,51.86121],[-120.20047,51.86122],[-120.20035,51.86123],[-120.20028,51.86124],[-120.20009,51.8613],[-120.2,51.86131],[-120.19977,51.86131],[-120.19943,51.86131],[-120.19929,51.86131],[-120.19897,51.86125],[-120.19887,51.86124],[-120.19859,51.86125],[-120.19849,51.86124],[-120.19837,51.86126],[-120.19816,51.86137],[-120.19806,51.86147],[-120.19793,51.86167],[-120.19789,51.86172],[-120.19772,51.86192],[-120.1975,51.86195],[-120.1972,51.86196],[-120.19712,51.86197],[-120.19681,51.86196],[-120.19646,51.86189],[-120.1963,51.86187],[-120.19601,51.86188],[-120.19568,51.86188],[-120.19544,51.86188]]}},
{"type":"Feature","properties":{"spotId":"A-moose-atv-0009","kind":"ride","km":2.23,"climbM":7,"name":"2.9 km NW of Johnston Lake","flags":[]},"geometry":{"type":"LineString","coordinates":[[-120.19891,51.83562],[-120.19893,51.83565],[-120.19915,51.83588],[-120.19928,51.83608],[-120.19942,51.83627],[-120.1996,51.83644],[-120.19969,51.83661],[-120.19976,51.83684],[-120.19982,51.83699],[-120.19996,51.83715],[-120.2,51.83722],[-120.20005,51.83731],[-120.20008,51.83748],[-120.20011,51.8377],[-120.20012,51.83776],[-120.20013,51.83792],[-120.20012,51.83799],[-120.20012,51.83801],[-120.20017,51.83822],[-120.20019,51.8384],[-120.20019,51.83861],[-120.20018,51.83866],[-120.20027,51.83884],[-120.20033,51.83906],[-120.20041,51.8392],[-120.20046,51.8393],[-120.20048,51.83948],[-120.20049,51.83964],[-120.20049,51.83977],[-120.2005,51.83989],[-120.20049,51.84009],[-120.20049,51.84012],[-120.20033,51.84029],[-120.20023,51.84045],[-120.20015,51.84062],[-120.20007,51.84072],[-120.20009,51.84093],[-120.20006,51.8411],[-120.20004,51.84118],[-120.2,51.84122],[-120.19985,51.84139],[-120.19975,51.84152],[-120.19965,51.84164],[-120.19957,51.84175],[-120.19957,51.84182],[-120.19963,51.84204],[-120.19978,51.84219],[-120.19992,51.84228],[-120.2,51.84229],[-120.2001,51.84231],[-120.20046,51.84237],[-120.20071,51.84241],[-120.20085,51.84244],[-120.20117,51.84243],[-120.20153,51.84243],[-120.20178,51.84242],[-120.20214,51.84242],[-120.20236,51.84243],[-120.20247,51.84246],[-120.20267,51.84256],[-120.20292,51.84278],[-120.20295,51.84281],[-120.20298,51.8429],[-120.20299,51.84305],[-120.203,51.84317],[-120.20306,51.84331],[-120.20314,51.84346],[-120.20321,51.84365],[-120.20322,51.84386],[-120.20322,51.84408],[-120.20322,51.84419],[-120.2032,51.84437],[-120.20298,51.84458],[-120.20291,51.84465],[-120.20282,51.84469],[-120.20252,51.84478],[-120.20236,51.84483],[-120.20201,51.84505],[-120.20196,51.84507],[-120.20186,51.84513],[-120.20172,51.84528],[-120.2016,51.8454],[-120.20152,51.8455],[-120.20145,51.84567],[-120.20139,51.84586],[-120.20135,51.84603],[-120.20134,51.84617],[-120.20135,51.84635],[-120.20134,51.84641],[-120.20165,51.84659],[-120.20197,51.84678],[-120.20208,51.84688],[-120.20221,51.84703],[-120.20234,51.8472],[-120.20253,51.84735],[-120.20267,51.84748],[-120.20279,51.8476],[-120.20293,51.84781],[-120.20297,51.84788],[-120.20303,51.84795],[-120.20319,51.84808],[-120.20338,51.84823],[-120.2035,51.8484],[-120.20365,51.84863],[-120.20371,51.84877],[-120.20373,51.84891],[-120.20367,51.84897],[-120.20362,51.84906],[-120.20361,51.84916],[-120.20366,51.84933],[-120.20373,51.84937],[-120.204,51.84946],[-120.20423,51.84954],[-120.20431,51.84957],[-120.20455,51.84975],[-120.2049,51.84988],[-120.20499,51.84996],[-120.20503,51.85013],[-120.2051,51.85023],[-120.20532,51.85037],[-120.20556,51.85057],[-120.20573,51.85069],[-120.20582,51.85075],[-120.20609,51.85087],[-120.2063,51.85097],[-120.20652,51.85106],[-120.20669,51.85113],[-120.20705,51.85118],[-120.20712,51.8512],[-120.20746,51.85123],[-120.20764,51.85127],[-120.20795,51.85132]]}},
{"type":"Feature","properties":{"spotId":"A-moose-atv-0009","kind":"walk","km":0.28,"climbM":2,"name":"2.9 km NW of Johnston Lake","flags":[]},"geometry":{"type":"LineString","coordinates":[[-120.20795,51.85132],[-120.20831,51.8538]]}},
{"type":"Feature","properties":{"spotId":"A-moose-drive-0011","kind":"walk","km":0.2,"climbM":0,"name":"600 m W of Trout Creek","flags":[]},"geometry":{"type":"LineString","coordinates":[[-120.03476,51.89713],[-120.03201,51.89759]]}},
{"type":"Feature","properties":{"spotId":"A-moose-drive-0014","kind":"walk","km":0.23,"climbM":49,"name":"5.7 km E of East Maury Lake rec site","flags":[]},"geometry":{"type":"LineString","coordinates":[[-120.20587,51.8862],[-120.2043,51.88436]]}},
{"type":"Feature","properties":{"spotId":"A-moose-walk-0038","kind":"walk","km":0.3,"climbM":61,"name":"5.7 km E of East Maury Lake rec site","flags":[]},"geometry":{"type":"LineString","coordinates":[[-120.20587,51.8862],[-120.20475,51.8836]]}}
]}
