{"type":"FeatureCollection","features":[
{"type":"Feature","properties":{"spotId":"A-deer-atv-0113","kind":"ride","km":3.94,"climbM":5,"name":"3.0 km NE of Heffley Lake rec site","flags":["Route crosses private land (ParcelMap BC, updated 2026-09-25): get permission first or go around."]},"geometry":{"type":"LineString","coordinates":[[-120.0053,50.85553],[-120.0052,50.85541],[-120.00496,50.8552],[-120.00472,50.85498],[-120.0046,50.85485],[-120.00451,50.85471],[-120.00443,50.85457],[-120.00447,50.85445],[-120.00454,50.85435],[-120.00475,50.85426],[-120.00487,50.85416],[-120.00489,50.85402],[-120.00483,50.85388],[-120.00473,50.85381],[-120.0045,50.85375],[-120.0043,50.85368],[-120.00402,50.85364],[-120.00379,50.85364],[-120.00354,50.85364],[-120.00331,50.85365],[-120.00306,50.8537],[-120.00276,50.85375],[-120.00251,50.85376],[-120.00232,50.85373],[-120.0022,50.85364],[-120.00219,50.85353],[-120.00222,50.85339],[-120.00233,50.85325],[-120.00237,50.85319],[-120.0024,50.85312],[-120.00243,50.8531],[-120.00248,50.85303],[-120.00266,50.85288],[-120.00288,50.85275],[-120.00309,50.85266],[-120.00328,50.85256],[-120.0035,50.85248],[-120.0037,50.85239],[-120.00382,50.85234],[-120.00405,50.85224],[-120.00419,50.85212],[-120.00414,50.85203],[-120.00403,50.85194],[-120.00376,50.85192],[-120.00345,50.85194],[-120.00312,50.85195],[-120.00279,50.85197],[-120.00245,50.85199],[-120.00212,50.85201],[-120.00192,50.85203],[-120.00172,50.85205],[-120.00155,50.85202],[-120.0014,50.85201],[-120.00123,50.85198],[-120.00107,50.85194],[-120.00091,50.8519],[-120.00075,50.85183],[-120.00056,50.85171],[-120.00036,50.85161],[-120.00017,50.85157],[-119.99999,50.85153],[-119.99997,50.85153],[-119.99988,50.85154],[-119.99978,50.85153],[-119.99965,50.85152],[-119.99954,50.8515],[-119.99941,50.85148],[-119.99929,50.85143],[-119.99919,50.85142],[-119.99909,50.85141],[-119.99898,50.85141],[-119.99888,50.85141],[-119.99874,50.85141],[-119.99864,50.85142],[-119.99848,50.85144],[-119.99833,50.85144],[-119.99818,50.85145],[-119.99808,50.85145],[-119.99797,50.85145],[-119.99787,50.85144],[-119.99776,50.85145],[-119.99767,50.85147],[-119.99758,50.85149],[-119.99749,50.8515],[-119.99734,50.85153],[-119.99725,50.85154],[-119.99717,50.85156],[-119.99708,50.85157],[-119.997,50.85158],[-119.9969,50.8516],[-119.99674,50.8516],[-119.99662,50.85158],[-119.99647,50.85154],[-119.99637,50.85152],[-119.99625,50.85148],[-119.99617,50.85144],[-119.99607,50.85142],[-119.99598,50.85139],[-119.99589,50.85137],[-119.99572,50.85133],[-119.99556,50.85131],[-119.99548,50.85131],[-119.99539,50.8513],[-119.99526,50.8513],[-119.99516,50.85129],[-119.99508,50.85129],[-119.99493,50.85129],[-119.99483,50.85129],[-119.99474,50.85129],[-119.99464,50.85128],[-119.99454,50.85129],[-119.99442,50.8513],[-119.99428,50.85133],[-119.99417,50.85135],[-119.99407,50.85138],[-119.99398,50.85141],[-119.99389,50.85144],[-119.99381,50.85147],[-119.99373,50.85151],[-119.99355,50.85156],[-119.99344,50.85163],[-119.99334,50.8517],[-119.99323,50.85177],[-119.99313,50.85181],[-119.99305,50.85183],[-119.99294,50.85185],[-119.99283,50.85187],[-119.99273,50.85189],[-119.99263,50.85191],[-119.99253,50.85192],[-119.99245,50.85194],[-119.99236,50.85195],[-119.99228,50.85197],[-119.99219,50.85199],[-119.99211,50.85201],[-119.99196,50.85205],[-119.99186,50.85207],[-119.9917,50.85212],[-119.99161,50.85213],[-119.99145,50.85214],[-119.9913,50.85216],[-119.99116,50.85218],[-119.991,50.85221],[-119.99087,50.85224],[-119.99073,50.85228],[-119.9906,50.85232],[-119.99049,50.8523],[-119.99038,50.85233],[-119.99027,50.85237],[-119.99017,50.85241],[-119.99008,50.85245],[-119.99,50.8525],[-119.98989,50.85257],[-119.9898,50.85261],[-119.98968,50.85266],[-119.98956,50.85272],[-119.98942,50.85277],[-119.98931,50.85282],[-119.9892,50.85288],[-119.98909,50.85294],[-119.98895,50.853],[-119.98882,50.85306],[-119.9887,50.85313],[-119.98854,50.85321],[-119.9884,50.85331],[-119.98822,50.85342],[-119.98813,50.85349],[-119.98805,50.85357],[-119.98797,50.85364],[-119.98789,50.85372],[-119.98781,50.8538],[-119.98774,50.85387],[-119.98767,50.85395],[-119.98761,50.85404],[-119.98753,50.85414],[-119.98743,50.85423],[-119.98731,50.85432],[-119.98719,50.85443],[-119.98708,50.85452],[-119.98699,50.8546],[-119.98691,50.85469],[-119.98682,50.85479],[-119.98671,50.85487],[-119.9866,50.85495],[-119.98649,50.85503],[-119.98641,50.85511],[-119.98633,50.85519],[-119.98625,50.85527],[-119.98617,50.85533],[-119.98606,50.85539],[-119.98596,50.85545],[-119.98581,50.85554],[-119.98571,50.85563],[-119.98558,50.85569],[-119.9855,50.85574],[-119.98542,50.85579],[-119.98534,50.85588],[-119.98529,50.85596],[-119.98523,50.85604],[-119.98518,50.85611],[-119.98517,50.85619],[-119.98516,50.85625],[-119.98507,50.85632],[-119.98493,50.85638],[-119.98489,50.85644],[-119.98488,50.85651],[-119.98487,50.8566],[-119.98488,50.85668],[-119.98488,50.85675],[-119.98486,50.85682],[-119.98481,50.85689],[-119.98473,50.857],[-119.98465,50.85706],[-119.98456,50.8571],[-119.98457,50.85718],[-119.98456,50.8573],[-119.98456,50.85743],[-119.98455,50.85757],[-119.98456,50.8577],[-119.98455,50.8578],[-119.98456,50.85793],[-119.98458,50.85807],[-119.98459,50.85822],[-119.9846,50.85828],[-119.98462,50.85836],[-119.98462,50.85849],[-119.98463,50.85862],[-119.98465,50.85867],[-119.98466,50.85877],[-119.98467,50.85893],[-119.98468,50.85908],[-119.98469,50.85913],[-119.98473,50.85924],[-119.98472,50.85936],[-119.98473,50.85952],[-119.98475,50.8596],[-119.98476,50.85969],[-119.98479,50.85983],[-119.98477,50.85997],[-119.98478,50.86003],[-119.9848,50.86013],[-119.9848,50.8603],[-119.98481,50.86046],[-119.98481,50.86052],[-119.98482,50.8606],[-119.98482,50.86075],[-119.98482,50.86092],[-119.98483,50.861],[-119.98482,50.8611],[-119.98483,50.86125],[-119.98484,50.86138],[-119.98484,50.86144],[-119.98485,50.86153],[-119.98484,50.8617],[-119.98485,50.86186],[-119.98486,50.86192],[-119.98488,50.862],[-119.9849,50.86213],[-119.98492,50.86227],[-119.98494,50.86234],[-119.98495,50.86244],[-119.98499,50.86261],[-119.98501,50.86275],[-119.98501,50.8628],[-119.98503,50.86288],[-119.98504,50.86304],[-119.98507,50.86321],[-119.98507,50.86328],[-119.98509,50.86337],[-119.98511,50.8635],[-119.98514,50.86364],[-119.98514,50.86371],[-119.98515,50.86381],[-119.98516,50.86398],[-119.98518,50.86403],[-119.98518,50.86412],[-119.9852,50.86417],[-119.98522,50.86425],[-119.98526,50.86438],[-119.98529,50.86453],[-119.9853,50.86459],[-119.98532,50.86468],[-119.98537,50.86482],[-119.9854,50.86493],[-119.98544,50.86505],[-119.98548,50.86518],[-119.9855,50.86531],[-119.98552,50.86539],[-119.98555,50.86545],[-119.98557,50.86552],[-119.98562,50.8656],[-119.98565,50.86569],[-119.9857,50.86577],[-119.98572,50.86584],[-119.98574,50.86596],[-119.98576,50.86603],[-119.98576,50.86609],[-119.98584,50.86617],[-119.98589,50.86623],[-119.98593,50.8663],[-119.98601,50.86637],[-119.98607,50.86645],[-119.98613,50.86655],[-119.98617,50.86669],[-119.98617,50.86674],[-119.98618,50.86681],[-119.98616,50.86692],[-119.98612,50.86701],[-119.98605,50.86709],[-119.98599,50.86716],[-119.98589,50.86722],[-119.98567,50.86732],[-119.98553,50.86736],[-119.98541,50.86739],[-119.98526,50.8674],[-119.98512,50.86741],[-119.98498,50.86743],[-119.98485,50.86744],[-119.98474,50.86745],[-119.98466,50.86744],[-119.98456,50.86745],[-119.9844,50.86744],[-119.9843,50.86744],[-119.9842,50.86744],[-119.98407,50.86744],[-119.98402,50.86744],[-119.98402,50.8675],[-119.98401,50.86757],[-119.98401,50.86764],[-119.98401,50.86775],[-119.98398,50.86782],[-119.98393,50.86791],[-119.9839,50.86801],[-119.98386,50.86811],[-119.98384,50.86821],[-119.9838,50.8683],[-119.98374,50.86839],[-119.98364,50.86848],[-119.98353,50.86855],[-119.98341,50.86861],[-119.9833,50.86866],[-119.9832,50.8687],[-119.9831,50.86876],[-119.98299,50.86881],[-119.9829,50.86886],[-119.9828,50.86889],[-119.98269,50.86893],[-119.98261,50.86897],[-119.98247,50.86907],[-119.9824,50.86914],[-119.98234,50.8692],[-119.98226,50.86927],[-119.98213,50.86934],[-119.98203,50.86937],[-119.98195,50.86938],[-119.98191,50.86939]]}},
{"type":"Feature","properties":{"spotId":"A-deer-atv-0113","kind":"walk","km":0.04,"climbM":2,"name":"3.0 km NE of Heffley Lake rec site","flags":["Route crosses private land (ParcelMap BC, updated 2026-09-25): get permission first or go around."]},"geometry":{"type":"LineString","coordinates":[[-120.0053,50.85553],[-120.00579,50.85536]]}},
{"type":"Feature","properties":{"spotId":"A-deer-atv-0128","kind":"ride","km":1.62,"climbM":78,"name":"1.2 km SW of Louis Creek","flags":[]},"geometry":{"type":"LineString","coordinates":[[-120.01755,50.88091],[-120.01736,50.88105],[-120.01727,50.88115],[-120.01716,50.88128],[-120.01705,50.88142],[-120.01696,50.88159],[-120.01683,50.88176],[-120.01665,50.88191],[-120.01637,50.88207],[-120.01631,50.8821],[-120.01612,50.88226],[-120.01597,50.88242],[-120.0158,50.88261],[-120.01564,50.88282],[-120.01547,50.88298],[-120.01526,50.88315],[-120.01522,50.88318],[-120.01494,50.88337],[-120.01473,50.88352],[-120.01455,50.88369],[-120.01434,50.88383],[-120.0141,50.88397],[-120.01392,50.88409],[-120.01372,50.88424],[-120.01349,50.88437],[-120.01345,50.8844],[-120.01313,50.88456],[-120.01282,50.88467],[-120.01253,50.88472],[-120.01223,50.88477],[-120.01188,50.88486],[-120.01155,50.88496],[-120.01141,50.88501],[-120.01107,50.88515],[-120.01077,50.88532],[-120.01069,50.88538],[-120.01036,50.88559],[-120.01006,50.8858],[-120.00979,50.88602],[-120.00973,50.88607],[-120.00951,50.88623],[-120.00924,50.88638],[-120.00896,50.88653],[-120.0087,50.88664],[-120.00846,50.88676],[-120.00837,50.88682],[-120.00814,50.88697],[-120.0079,50.88711],[-120.00772,50.88729],[-120.00769,50.88731],[-120.00778,50.88746],[-120.0078,50.88762],[-120.00779,50.8877],[-120.00777,50.88775],[-120.00758,50.88783],[-120.00749,50.88791],[-120.00746,50.888],[-120.00745,50.88812],[-120.00749,50.88826],[-120.00758,50.88837],[-120.00765,50.8884],[-120.00773,50.88839],[-120.00791,50.88829],[-120.00799,50.88812],[-120.00803,50.88792],[-120.00811,50.88781],[-120.00826,50.88765],[-120.00844,50.88751],[-120.00867,50.88734],[-120.00889,50.88719],[-120.00913,50.88702],[-120.00937,50.88686],[-120.00963,50.8867],[-120.00994,50.88659],[-120.01007,50.88657],[-120.01018,50.88658],[-120.01024,50.88662],[-120.01026,50.88667],[-120.01024,50.88675],[-120.01019,50.88684],[-120.0099,50.88702],[-120.00984,50.88708],[-120.00974,50.88723],[-120.00973,50.8874],[-120.00976,50.88744],[-120.00982,50.8875],[-120.00992,50.88752],[-120.00998,50.88751],[-120.01014,50.88747],[-120.01043,50.88737],[-120.01067,50.88735],[-120.0107,50.88735]]}},
{"type":"Feature","properties":{"spotId":"A-deer-atv-0128","kind":"walk","km":0.01,"climbM":3,"name":"1.2 km SW of Louis Creek","flags":[]},"geometry":{"type":"LineString","coordinates":[[-120.0107,50.88735],[-120.01069,50.88744]]}},
{"type":"Feature","properties":{"spotId":"A-deer-drive-0140","kind":"walk","km":0.05,"climbM":10,"name":"2.5 km NE of Heffley Lake rec site","flags":[]},"geometry":{"type":"LineString","coordinates":[[-120.01886,50.85629],[-120.01839,50.85657]]}},
{"type":"Feature","properties":{"spotId":"A-deer-walk-0179","kind":"walk","km":0.46,"climbM":152,"name":"790 m N of Christian Creek","flags":["Route crosses private land (ParcelMap BC, updated 2026-09-25): get permission first or go around."]},"geometry":{"type":"LineString","coordinates":[[-120.00666,50.84265],[-120.00477,50.84656]]}},
{"type":"Feature","properties":{"spotId":"A-duck-drive-0039","kind":"walk","km":0.02,"climbM":0,"name":"Unnamed lake 1.1 km SE of Strawberry Hill","flags":[]},"geometry":{"type":"LineString","coordinates":[[-120.22552,50.7977],[-120.22553,50.79788]]}},
{"type":"Feature","properties":{"spotId":"A-duck-drive-0115","kind":"walk","km":0.01,"climbM":0,"name":"Knouff Lake","flags":[]},"geometry":{"type":"LineString","coordinates":[[-120.12576,50.99324],[-120.12558,50.99324]]}},
{"type":"Feature","properties":{"spotId":"A-duck-drive-0123","kind":"walk","km":0.05,"climbM":0,"name":"Community Lake","flags":[]},"geometry":{"type":"LineString","coordinates":[[-120.07081,50.92569],[-120.07028,50.92604]]}},
{"type":"Feature","properties":{"spotId":"A-duck-drive-0150","kind":"walk","km":0.01,"climbM":0,"name":"Lyons Lake","flags":[]},"geometry":{"type":"LineString","coordinates":[[-120.19182,50.89082],[-120.19166,50.89082]]}},
{"type":"Feature","properties":{"spotId":"A-duck-walk-0018","kind":"walk","km":0.48,"climbM":6,"name":"Orchard Lake","flags":["Route crosses private land (ParcelMap BC, updated 2026-09-25): get permission first or go around."]},"geometry":{"type":"LineString","coordinates":[[-120.18183,50.99362],[-120.18445,50.99761]]}},
{"type":"Feature","properties":{"spotId":"A-duck-walk-0034","kind":"walk","km":0.44,"climbM":11,"name":"Unnamed lake 1.3 km W of Huff Lake","flags":[]},"geometry":{"type":"LineString","coordinates":[[-120.20197,50.95262],[-120.20204,50.95283],[-120.2021,50.95301],[-120.20212,50.95314],[-120.20215,50.9533],[-120.20217,50.95346],[-120.20217,50.9536],[-120.20219,50.95378],[-120.20219,50.95384],[-120.20415,50.95623]]}},
{"type":"Feature","properties":{"spotId":"A-duck-walk-0120","kind":"walk","km":0.33,"climbM":0,"name":"Unnamed wetland 300 m S of Devick Creek","flags":[]},"geometry":{"type":"LineString","coordinates":[[-120.07773,50.88701],[-120.0816,50.88867]]}},
{"type":"Feature","properties":{"spotId":"A-grouse-atv-0109","kind":"ride","km":4.74,"climbM":247,"name":"650 m SE of Knouff Creek","flags":[]},"geometry":{"type":"LineString","coordinates":[[-120.20257,50.92034],[-120.20251,50.92027],[-120.20246,50.92022],[-120.20242,50.92009],[-120.2024,50.92004],[-120.2024,50.92003],[-120.20239,50.91998],[-120.20238,50.91994],[-120.20237,50.91986],[-120.20237,50.91982],[-120.20237,50.91981],[-120.20239,50.91976],[-120.2024,50.91974],[-120.20241,50.91972],[-120.20243,50.91967],[-120.20246,50.91963],[-120.20249,50.91961],[-120.20252,50.91957],[-120.20259,50.9195],[-120.20264,50.91948],[-120.20273,50.91942],[-120.20283,50.91938],[-120.20292,50.91934],[-120.20304,50.91927],[-120.20315,50.91922],[-120.20326,50.91918],[-120.2033,50.91916],[-120.20338,50.91913],[-120.20347,50.91909],[-120.20358,50.91906],[-120.20364,50.91904],[-120.20384,50.91898],[-120.20396,50.91895],[-120.2041,50.91892],[-120.20421,50.91889],[-120.2043,50.91885],[-120.20441,50.91881],[-120.20452,50.91875],[-120.20455,50.91873],[-120.20459,50.91872],[-120.20467,50.91868],[-120.20483,50.91861],[-120.20495,50.91856],[-120.20504,50.91851],[-120.20515,50.91846],[-120.20524,50.91843],[-120.20534,50.91838],[-120.20543,50.91832],[-120.20554,50.9183],[-120.20558,50.91829],[-120.20573,50.91824],[-120.20585,50.91819],[-120.20594,50.91812],[-120.20602,50.91805],[-120.20609,50.91799],[-120.20617,50.91791],[-120.20619,50.91788],[-120.20625,50.9178],[-120.2063,50.91773],[-120.20644,50.91755],[-120.20644,50.91754],[-120.2065,50.91746],[-120.20654,50.91738],[-120.20656,50.91735],[-120.2066,50.91727],[-120.20662,50.91722],[-120.20665,50.91718],[-120.2067,50.91708],[-120.2067,50.91707],[-120.2067,50.91701],[-120.20668,50.91692],[-120.20664,50.91689],[-120.20645,50.91678],[-120.20642,50.91676],[-120.2063,50.91671],[-120.20618,50.91671],[-120.20605,50.91672],[-120.20589,50.91675],[-120.20577,50.9168],[-120.20571,50.91681],[-120.20562,50.91685],[-120.20554,50.91687],[-120.20549,50.91688],[-120.20545,50.9169],[-120.20532,50.91693],[-120.2052,50.91696],[-120.20507,50.91699],[-120.20497,50.91701],[-120.20485,50.91703],[-120.20472,50.91706],[-120.20457,50.91708],[-120.20446,50.9171],[-120.20431,50.91714],[-120.20417,50.91716],[-120.20409,50.91716],[-120.20395,50.91718],[-120.20377,50.91719],[-120.20366,50.9172],[-120.20348,50.91723],[-120.20339,50.91723],[-120.20328,50.91724],[-120.2032,50.91725],[-120.20308,50.91725],[-120.20297,50.91726],[-120.2028,50.91729],[-120.2027,50.9173],[-120.20256,50.91731],[-120.20242,50.91733],[-120.20234,50.91734],[-120.20225,50.91736],[-120.20215,50.91737],[-120.20205,50.91737],[-120.20191,50.91738],[-120.20178,50.91738],[-120.20169,50.91738],[-120.20156,50.91737],[-120.20146,50.91737],[-120.20131,50.91735],[-120.20116,50.91731],[-120.20109,50.91729],[-120.20097,50.91726],[-120.20085,50.91721],[-120.20075,50.91717],[-120.20064,50.91714],[-120.20053,50.9171],[-120.20045,50.91707],[-120.20034,50.91702],[-120.20026,50.91699],[-120.20016,50.91694],[-120.20011,50.91692],[-120.20002,50.91688],[-120.2,50.91687],[-120.19989,50.91683],[-120.1998,50.91679],[-120.19971,50.91675],[-120.19962,50.91671],[-120.19956,50.91667],[-120.19948,50.91662],[-120.19938,50.91658],[-120.19928,50.91653],[-120.19918,50.91647],[-120.19911,50.91643],[-120.19902,50.91638],[-120.19892,50.91632],[-120.19886,50.91628],[-120.19881,50.91625],[-120.19874,50.91618],[-120.19867,50.91613],[-120.19858,50.91606],[-120.19853,50.91601],[-120.19841,50.91591],[-120.19832,50.91584],[-120.19825,50.91577],[-120.19816,50.91566],[-120.19811,50.91563],[-120.19802,50.91556],[-120.19801,50.91555],[-120.19797,50.9155],[-120.1979,50.91543],[-120.19784,50.91538],[-120.1978,50.91535],[-120.19773,50.91527],[-120.19769,50.9152],[-120.19766,50.91513],[-120.19761,50.91504],[-120.19752,50.91498],[-120.19745,50.91491],[-120.19737,50.91484],[-120.1973,50.91479],[-120.19726,50.91474],[-120.19722,50.91469],[-120.19717,50.91461],[-120.1971,50.91453],[-120.19706,50.91449],[-120.19694,50.91434],[-120.19689,50.91426],[-120.19686,50.91417],[-120.19684,50.91412],[-120.19682,50.91405],[-120.19681,50.91398],[-120.1968,50.91395],[-120.19679,50.91389],[-120.19679,50.91384],[-120.19678,50.91377],[-120.19677,50.91371],[-120.19676,50.91365],[-120.19685,50.91356],[-120.19696,50.91351],[-120.1971,50.91351],[-120.19722,50.91353],[-120.19724,50.91353],[-120.19732,50.91357],[-120.19742,50.91364],[-120.19747,50.91367],[-120.19755,50.91373],[-120.19756,50.91374],[-120.19763,50.91379],[-120.19775,50.91389],[-120.1978,50.91392],[-120.1979,50.91395],[-120.198,50.91398],[-120.19815,50.91397],[-120.1982,50.91396],[-120.19825,50.91394],[-120.1983,50.91389],[-120.19835,50.91384],[-120.19841,50.91376],[-120.19843,50.91372],[-120.19846,50.91361],[-120.19846,50.91353],[-120.19848,50.91347],[-120.19849,50.91342],[-120.19849,50.91339],[-120.19854,50.91327],[-120.19856,50.91321],[-120.19859,50.91312],[-120.19861,50.91304],[-120.19861,50.91296],[-120.19861,50.91287],[-120.1986,50.91285],[-120.19861,50.91277],[-120.19861,50.91269],[-120.19861,50.91261],[-120.19859,50.91251],[-120.19858,50.91244],[-120.19857,50.91236],[-120.19855,50.91228],[-120.19853,50.91219],[-120.19852,50.91213],[-120.1985,50.91203],[-120.19848,50.91196],[-120.19849,50.91189],[-120.19852,50.91181],[-120.19855,50.91174],[-120.19861,50.91167],[-120.19863,50.91164],[-120.19864,50.91155],[-120.19866,50.91146],[-120.19865,50.91137],[-120.19864,50.91128],[-120.1987,50.91121],[-120.19871,50.9112],[-120.19876,50.91115],[-120.1989,50.91109],[-120.199,50.91105],[-120.1991,50.91102],[-120.19922,50.91098],[-120.19939,50.91092],[-120.19944,50.9109],[-120.19954,50.91085],[-120.19967,50.91079],[-120.19977,50.91076],[-120.19991,50.91077],[-120.2,50.91081],[-120.20001,50.91081],[-120.20004,50.91082],[-120.20019,50.91086],[-120.20025,50.91089],[-120.20034,50.91092],[-120.20044,50.91098],[-120.20048,50.91099],[-120.20065,50.91106],[-120.20067,50.91107],[-120.2008,50.91114],[-120.20088,50.91119],[-120.20101,50.91123],[-120.20113,50.91125],[-120.2012,50.91127],[-120.20132,50.91127],[-120.20142,50.91124],[-120.20151,50.91117],[-120.20159,50.91109],[-120.20163,50.91098],[-120.20164,50.91095],[-120.20164,50.91086],[-120.20163,50.91077],[-120.20163,50.91069],[-120.20164,50.91061],[-120.20164,50.91051],[-120.20165,50.91047],[-120.20165,50.91043],[-120.20166,50.91038],[-120.20165,50.91027],[-120.20165,50.91024],[-120.20162,50.91016],[-120.2016,50.91011],[-120.2016,50.9101],[-120.20159,50.91007],[-120.20149,50.90986],[-120.20146,50.90979],[-120.20141,50.90973],[-120.20133,50.90965],[-120.20125,50.9096],[-120.20117,50.90956],[-120.20113,50.90954],[-120.20102,50.9095],[-120.20094,50.90945],[-120.20084,50.9094],[-120.20076,50.90935],[-120.20069,50.90929],[-120.20061,50.90922],[-120.20056,50.90914],[-120.20054,50.90906],[-120.20055,50.90901],[-120.2006,50.90894],[-120.20068,50.90887],[-120.20078,50.90881],[-120.20083,50.90878],[-120.20092,50.90874],[-120.20103,50.90868],[-120.20115,50.90863],[-120.20128,50.90859],[-120.20136,50.90857],[-120.20143,50.90855],[-120.20145,50.90855],[-120.20157,50.90857],[-120.20167,50.90859],[-120.20176,50.90862],[-120.20187,50.90865],[-120.20195,50.90868],[-120.20209,50.90873],[-120.20219,50.90877],[-120.2023,50.90881],[-120.2024,50.90885],[-120.20249,50.90888],[-120.2026,50.90893],[-120.20271,50.90897],[-120.20274,50.90898],[-120.20287,50.909],[-120.20293,50.90903],[-120.203,50.90907],[-120.20307,50.9091],[-120.2031,50.90915],[-120.2031,50.90917],[-120.20314,50.90919],[-120.20322,50.90926],[-120.20329,50.90929],[-120.20344,50.90932],[-120.20355,50.90934],[-120.20368,50.90934],[-120.20372,50.90934],[-120.20387,50.90934],[-120.20398,50.90933],[-120.20404,50.90933],[-120.2041,50.90934],[-120.20419,50.90937],[-120.20425,50.90937],[-120.20434,50.90937],[-120.20445,50.90935],[-120.20457,50.90935],[-120.20469,50.90935],[-120.2048,50.90935],[-120.20491,50.90934],[-120.20502,50.90934],[-120.20506,50.90933],[-120.20517,50.90932],[-120.20532,50.90931],[-120.20543,50.90929],[-120.20557,50.90927],[-120.2057,50.90924],[-120.20582,50.90921],[-120.20591,50.90918],[-120.20608,50.90914],[-120.20611,50.90912],[-120.20621,50.90909],[-120.20633,50.90905],[-120.20645,50.909],[-120.20654,50.90894],[-120.20662,50.9089],[-120.20673,50.90885],[-120.2068,50.90881],[-120.20688,50.90873],[-120.20692,50.90869],[-120.20698,50.90861],[-120.20703,50.90854],[-120.20709,50.90847],[-120.20716,50.9083],[-120.2072,50.90823],[-120.20731,50.90806],[-120.20738,50.90797],[-120.20745,50.9079],[-120.20751,50.90784],[-120.20759,50.90778],[-120.20764,50.90775],[-120.20771,50.90769],[-120.2078,50.90763],[-120.20786,50.9076],[-120.20791,50.90758],[-120.20803,50.90753],[-120.20808,50.90751],[-120.20815,50.9075],[-120.20821,50.90749],[-120.20823,50.90748],[-120.20831,50.90747],[-120.20841,50.90746],[-120.20854,50.90744],[-120.20864,50.90743],[-120.20882,50.90742],[-120.20899,50.9074],[-120.20912,50.90738],[-120.20917,50.90737],[-120.20927,50.90736],[-120.20928,50.90736],[-120.20934,50.90735],[-120.2094,50.90735],[-120.20946,50.90736],[-120.2095,50.90737],[-120.20957,50.90739],[-120.20967,50.90742],[-120.20979,50.90747],[-120.20989,50.90752],[-120.20998,50.90758],[-120.21007,50.90762],[-120.21013,50.90764],[-120.21018,50.90766],[-120.21022,50.90766],[-120.21024,50.90767],[-120.21028,50.90767],[-120.21038,50.90768],[-120.21053,50.90768],[-120.21061,50.90768],[-120.21072,50.90767],[-120.21083,50.90766],[-120.21092,50.90766],[-120.21104,50.90766],[-120.21123,50.90765],[-120.21136,50.90764],[-120.21142,50.90764],[-120.21147,50.90764],[-120.21151,50.90764],[-120.21162,50.90763],[-120.21171,50.90762],[-120.21182,50.90762],[-120.21195,50.90762],[-120.21203,50.90762],[-120.21212,50.90762],[-120.2122,50.90762],[-120.21228,50.90761],[-120.21239,50.9076],[-120.21253,50.90759],[-120.21267,50.90757],[-120.21278,50.90756],[-120.21293,50.90753],[-120.21303,50.90751],[-120.21321,50.90748],[-120.21331,50.90746],[-120.21341,50.90744],[-120.21353,50.90741],[-120.21365,50.90739],[-120.21379,50.90735],[-120.21389,50.90733],[-120.21399,50.9073],[-120.21411,50.90726],[-120.21423,50.90722],[-120.21438,50.90715],[-120.21445,50.90712],[-120.21449,50.90711],[-120.21465,50.90703],[-120.21477,50.90699],[-120.21487,50.90695],[-120.21498,50.9069],[-120.21512,50.90685],[-120.2152,50.90683],[-120.21534,50.90681],[-120.21547,50.90681],[-120.21556,50.90682],[-120.21566,50.90682],[-120.21575,50.90683],[-120.21588,50.90682],[-120.21603,50.90679],[-120.21612,50.90674],[-120.21619,50.90669],[-120.21622,50.90666],[-120.21626,50.90662],[-120.21629,50.90658],[-120.21636,50.90647],[-120.21639,50.9064],[-120.21642,50.90632],[-120.21644,50.90626],[-120.21644,50.9062],[-120.21644,50.90612],[-120.21643,50.90607],[-120.21643,50.90604],[-120.21643,50.90599],[-120.2164,50.90591],[-120.21637,50.90586],[-120.21632,50.90579],[-120.21627,50.9057],[-120.21622,50.90562],[-120.21619,50.90556],[-120.21616,50.90549],[-120.21615,50.90542],[-120.21615,50.90534],[-120.21614,50.90525],[-120.2161,50.90517],[-120.21607,50.90513],[-120.21603,50.90507],[-120.21599,50.90501],[-120.21597,50.90497],[-120.21595,50.90493],[-120.21589,50.90484],[-120.21584,50.90478],[-120.21578,50.90471],[-120.21575,50.90467],[-120.21569,50.90462],[-120.21564,50.90457],[-120.21561,50.90454],[-120.21556,50.90451],[-120.2155,50.90445],[-120.21545,50.9044],[-120.21541,50.90435],[-120.21533,50.90428],[-120.21526,50.90422],[-120.21516,50.90413],[-120.21511,50.90408],[-120.21504,50.90402],[-120.21499,50.90398],[-120.21496,50.90394],[-120.2149,50.9039],[-120.21483,50.90385],[-120.21479,50.90381],[-120.21473,50.90374],[-120.21471,50.90369],[-120.21471,50.90362],[-120.21472,50.90355],[-120.21474,50.9035],[-120.21477,50.90344],[-120.21483,50.90337],[-120.21488,50.90333],[-120.21493,50.9033],[-120.21495,50.90328],[-120.21501,50.90325],[-120.21506,50.90321],[-120.21509,50.90318],[-120.21518,50.90311],[-120.21524,50.90305],[-120.21533,50.90298],[-120.2154,50.90293],[-120.21546,50.90289],[-120.21551,50.90285],[-120.21558,50.90279],[-120.21563,50.90275],[-120.21572,50.9027],[-120.21577,50.90269],[-120.21584,50.90268],[-120.21596,50.90269],[-120.21603,50.90271],[-120.21615,50.90275],[-120.21624,50.90279],[-120.21632,50.90283],[-120.21638,50.90285],[-120.21644,50.90289],[-120.21651,50.90295],[-120.21655,50.903],[-120.21659,50.90304],[-120.21663,50.90308],[-120.21664,50.90309],[-120.21667,50.90314],[-120.21672,50.90319],[-120.21677,50.90325],[-120.21683,50.90329],[-120.21687,50.90331],[-120.21691,50.90333],[-120.21695,50.90335],[-120.21701,50.90338],[-120.21708,50.90341],[-120.21716,50.90344],[-120.21727,50.90349],[-120.21734,50.90353],[-120.21744,50.90358],[-120.21752,50.90363],[-120.21759,50.90367],[-120.21764,50.90371],[-120.21769,50.90375],[-120.21776,50.90381],[-120.21781,50.90386],[-120.21786,50.90391],[-120.21792,50.90397],[-120.21792,50.90398],[-120.21796,50.90403],[-120.21797,50.90407],[-120.21798,50.9041],[-120.21798,50.90416],[-120.21799,50.90424],[-120.21799,50.90427],[-120.218,50.90431],[-120.21804,50.90437],[-120.2181,50.90447],[-120.21817,50.90454],[-120.21825,50.9046],[-120.21832,50.90465],[-120.21837,50.90468],[-120.21842,50.90469],[-120.21852,50.90473],[-120.21863,50.90475],[-120.21869,50.90476],[-120.21875,50.90476],[-120.21883,50.90476],[-120.21891,50.90474],[-120.21901,50.9047],[-120.21907,50.90466],[-120.21916,50.9046],[-120.21922,50.90453],[-120.21929,50.90446],[-120.21933,50.90441],[-120.21934,50.90436],[-120.21934,50.90429],[-120.21934,50.90421],[-120.21934,50.90413],[-120.21933,50.90404],[-120.21932,50.90395],[-120.2193,50.90386],[-120.21929,50.90381],[-120.21927,50.90371],[-120.21927,50.90363],[-120.21926,50.90357],[-120.21927,50.90349],[-120.21927,50.90345],[-120.21929,50.90341],[-120.21931,50.90338],[-120.21936,50.90333],[-120.21938,50.90328]]}},
{"type":"Feature","properties":{"spotId":"A-grouse-drive-0033","kind":"roadside","km":3.75,"climbM":0,"name":"1.3 km SW of Devick Lake","flags":[]},"geometry":{"type":"LineString","coordinates":[[-120.09575,50.89378],[-120.09574,50.89397],[-120.09572,50.89412],[-120.09567,50.89426],[-120.0956,50.89441],[-120.09553,50.89456],[-120.09544,50.89472],[-120.09542,50.89473],[-120.09533,50.89487],[-120.09522,50.895],[-120.09514,50.89515],[-120.09512,50.89528],[-120.09511,50.89544],[-120.0951,50.8956],[-120.0951,50.89575],[-120.09511,50.89593],[-120.09517,50.89608],[-120.09527,50.89623],[-120.09531,50.89638],[-120.09534,50.89655],[-120.09534,50.8967],[-120.09535,50.89686],[-120.09534,50.89703],[-120.09534,50.89719],[-120.09533,50.89732],[-120.09534,50.89747],[-120.09529,50.89761],[-120.09525,50.89775],[-120.09517,50.89791],[-120.09503,50.89808],[-120.09491,50.89822],[-120.0948,50.89835],[-120.09466,50.89852],[-120.09458,50.89868],[-120.09456,50.89883],[-120.09453,50.89901],[-120.09445,50.89913],[-120.09432,50.89921],[-120.09408,50.89933],[-120.09387,50.89939],[-120.09365,50.89946],[-120.09361,50.89947],[-120.09339,50.89954],[-120.09316,50.8996],[-120.09294,50.89966],[-120.09268,50.89972],[-120.09245,50.89977],[-120.09227,50.89984],[-120.09199,50.9],[-120.09193,50.90004],[-120.09184,50.90019],[-120.0918,50.90035],[-120.09178,50.90051],[-120.09177,50.90065],[-120.09176,50.9008],[-120.09176,50.90097],[-120.09176,50.90104],[-120.09175,50.90112],[-120.09175,50.90115],[-120.09174,50.90128],[-120.09175,50.90146],[-120.09173,50.90168],[-120.09172,50.90184],[-120.09173,50.90201],[-120.09172,50.90216],[-120.09172,50.90231],[-120.09171,50.90249],[-120.09171,50.9027],[-120.09172,50.90288],[-120.0917,50.90306],[-120.09171,50.90325],[-120.09171,50.9034],[-120.09173,50.90357],[-120.09175,50.90377],[-120.09178,50.90397],[-120.09179,50.90411],[-120.09181,50.90429],[-120.09186,50.90445],[-120.09193,50.90463],[-120.09202,50.90479],[-120.09214,50.90498],[-120.09227,50.90512],[-120.09238,50.90528],[-120.09247,50.90543],[-120.09256,50.90556],[-120.09266,50.90575],[-120.09273,50.90595],[-120.09282,50.90613],[-120.09291,50.90627],[-120.093,50.90645],[-120.09305,50.90659],[-120.09311,50.90676],[-120.09317,50.90691],[-120.09325,50.90706],[-120.09334,50.9072],[-120.0935,50.90737],[-120.09368,50.9075],[-120.09384,50.90759],[-120.09388,50.90762],[-120.09406,50.90775],[-120.09428,50.90786],[-120.09443,50.908],[-120.09453,50.90814],[-120.09456,50.90819],[-120.09464,50.9083],[-120.09477,50.90843],[-120.0949,50.90855],[-120.09505,50.90869],[-120.09519,50.90881],[-120.09534,50.90894],[-120.09554,50.90908],[-120.09572,50.9092],[-120.09592,50.90934],[-120.09607,50.90949],[-120.0963,50.90965],[-120.09649,50.90977],[-120.0967,50.90992],[-120.09704,50.91015],[-120.09724,50.9103],[-120.09742,50.91047],[-120.09755,50.9106],[-120.09771,50.91077],[-120.09783,50.9109],[-120.09794,50.91105],[-120.09804,50.91121],[-120.09811,50.91137],[-120.09822,50.91152],[-120.09828,50.91165],[-120.0983,50.91167],[-120.09838,50.91187],[-120.09849,50.91204],[-120.0986,50.91221],[-120.09871,50.91237],[-120.09883,50.91251],[-120.09892,50.91265],[-120.09904,50.9128],[-120.09918,50.91296],[-120.09933,50.91313],[-120.09949,50.91328],[-120.09953,50.91333],[-120.09961,50.91343],[-120.09978,50.91361],[-120.0999,50.91374],[-120.10005,50.91394],[-120.10018,50.91412],[-120.10028,50.91427],[-120.10042,50.91441],[-120.10053,50.91456],[-120.10067,50.91473],[-120.1008,50.91487],[-120.10097,50.91507],[-120.10112,50.91519],[-120.1013,50.91534],[-120.10146,50.91548],[-120.10161,50.9156],[-120.10167,50.91568],[-120.10174,50.91574],[-120.10193,50.91588],[-120.10214,50.916],[-120.10236,50.9161],[-120.10254,50.91621],[-120.10272,50.91631],[-120.10293,50.91646],[-120.10314,50.91662],[-120.10336,50.91674],[-120.10354,50.91686],[-120.10371,50.91699],[-120.1039,50.91711],[-120.10405,50.91724],[-120.10419,50.91735],[-120.10432,50.91747],[-120.10443,50.91762],[-120.10455,50.91775],[-120.10485,50.91799],[-120.10497,50.91811],[-120.10516,50.91827],[-120.10533,50.91845],[-120.10546,50.91857],[-120.10561,50.91871],[-120.10575,50.91883],[-120.10589,50.91898],[-120.10592,50.91903],[-120.106,50.91915],[-120.10612,50.91928],[-120.10624,50.91941],[-120.10637,50.91959],[-120.10649,50.91973],[-120.10667,50.91983],[-120.10676,50.91995],[-120.10692,50.9201],[-120.10704,50.92022],[-120.10717,50.92038],[-120.10726,50.92053],[-120.10735,50.92071],[-120.10744,50.92085],[-120.1075,50.92092],[-120.10753,50.92099],[-120.10764,50.92116],[-120.10775,50.92135],[-120.10786,50.92151],[-120.10795,50.9217],[-120.10795,50.92184],[-120.10793,50.92199],[-120.10784,50.92218],[-120.10778,50.92235],[-120.10768,50.92252],[-120.1076,50.92267],[-120.10753,50.92284],[-120.10751,50.92299],[-120.10751,50.92314],[-120.10753,50.92319]]}},
{"type":"Feature","properties":{"spotId":"A-grouse-drive-0042","kind":"roadside","km":5.24,"climbM":154,"name":"180 m W of Lloyd Creek","flags":[]},"geometry":{"type":"LineString","coordinates":[[-120.03847,50.76822],[-120.03874,50.7683],[-120.03902,50.76835],[-120.03945,50.76836],[-120.04046,50.76832],[-120.04064,50.7683],[-120.04108,50.7682],[-120.04145,50.76807],[-120.04218,50.76786],[-120.04261,50.76785],[-120.043,50.7679],[-120.04361,50.76807],[-120.04405,50.76823],[-120.04486,50.76848],[-120.04542,50.7686],[-120.04561,50.76862],[-120.04569,50.76861],[-120.04579,50.7686],[-120.04593,50.76859],[-120.04604,50.7686],[-120.04615,50.76862],[-120.04636,50.76869],[-120.04612,50.76873],[-120.04587,50.76882],[-120.04551,50.7689],[-120.04528,50.76895],[-120.04502,50.76908],[-120.04467,50.76922],[-120.04431,50.76932],[-120.04401,50.76939],[-120.04383,50.76947],[-120.04369,50.76952],[-120.04345,50.7696],[-120.04328,50.76968],[-120.04293,50.76987],[-120.04276,50.76995],[-120.04266,50.76998],[-120.04231,50.77017],[-120.04215,50.77028],[-120.04195,50.77048],[-120.04185,50.77057],[-120.04171,50.77074],[-120.04164,50.77089],[-120.04159,50.77111],[-120.04154,50.7713],[-120.04152,50.77148],[-120.04151,50.77169],[-120.04149,50.77177],[-120.04145,50.77195],[-120.04136,50.77214],[-120.04145,50.7723],[-120.04143,50.77242],[-120.04144,50.77248],[-120.04143,50.77262],[-120.04147,50.77275],[-120.04168,50.77298],[-120.04173,50.77306],[-120.04183,50.77313],[-120.04201,50.77322],[-120.04232,50.77333],[-120.04242,50.77337],[-120.04272,50.77351],[-120.04292,50.77362],[-120.04313,50.77379],[-120.04324,50.77388],[-120.0434,50.77402],[-120.04355,50.77421],[-120.04358,50.77426],[-120.04365,50.77439],[-120.04374,50.77455],[-120.04378,50.77472],[-120.04383,50.77487],[-120.04387,50.77495],[-120.04398,50.77516],[-120.04403,50.77527],[-120.04419,50.77546],[-120.04436,50.77566],[-120.04452,50.77585],[-120.04457,50.77592],[-120.04475,50.77611],[-120.04488,50.77625],[-120.04512,50.77644],[-120.04528,50.77656],[-120.04543,50.77672],[-120.04551,50.77678],[-120.04573,50.77687],[-120.04605,50.777],[-120.0463,50.77712],[-120.04656,50.77728],[-120.04674,50.77736],[-120.04682,50.77741],[-120.04712,50.77756],[-120.04734,50.77768],[-120.04756,50.77778],[-120.04789,50.77796],[-120.04818,50.7781],[-120.04836,50.77821],[-120.04866,50.77832],[-120.04886,50.77839],[-120.04913,50.77853],[-120.04927,50.77859],[-120.04952,50.77867],[-120.0497,50.77874],[-120.04998,50.77887],[-120.05022,50.77898],[-120.05044,50.77913],[-120.05071,50.77934],[-120.05085,50.77945],[-120.05101,50.77963],[-120.05114,50.77981],[-120.0513,50.78],[-120.05136,50.78007],[-120.05148,50.78017],[-120.05159,50.78029],[-120.0518,50.78048],[-120.05189,50.78054],[-120.05207,50.78075],[-120.05219,50.78088],[-120.05241,50.78106],[-120.05257,50.78117],[-120.0527,50.78139],[-120.05284,50.78159],[-120.05291,50.78165],[-120.0531,50.78182],[-120.05316,50.78187],[-120.05335,50.78207],[-120.05349,50.78219],[-120.05358,50.7823],[-120.05371,50.78245],[-120.0539,50.78265],[-120.05406,50.78282],[-120.05417,50.78297],[-120.05424,50.78309],[-120.05428,50.78316],[-120.05432,50.78337],[-120.05433,50.78343],[-120.05439,50.78357],[-120.05445,50.78378],[-120.05452,50.78398],[-120.05456,50.78412],[-120.05462,50.78425],[-120.0547,50.78432],[-120.0548,50.78451],[-120.05482,50.78459],[-120.0549,50.78469],[-120.05506,50.78492],[-120.05513,50.78506],[-120.05522,50.78522],[-120.05535,50.78544],[-120.05542,50.78554],[-120.05553,50.78572],[-120.0556,50.78579],[-120.05564,50.78587],[-120.05567,50.786],[-120.05567,50.78621],[-120.05566,50.78641],[-120.05565,50.78656],[-120.05565,50.78677],[-120.05563,50.78689],[-120.05563,50.78706],[-120.05563,50.78727],[-120.05563,50.78733],[-120.05566,50.78753],[-120.05567,50.7876],[-120.05572,50.78777],[-120.05574,50.78783],[-120.05588,50.78804],[-120.05594,50.7881],[-120.05612,50.78828],[-120.05622,50.78835],[-120.0563,50.78846],[-120.05638,50.78857],[-120.05642,50.78874],[-120.05646,50.78883],[-120.05662,50.78905],[-120.05668,50.78914],[-120.05676,50.7893],[-120.05681,50.78951],[-120.05684,50.78961],[-120.05684,50.78984],[-120.05685,50.78991],[-120.0568,50.7901],[-120.05674,50.79028],[-120.05669,50.7904],[-120.05659,50.79055],[-120.05643,50.79069],[-120.05632,50.79081],[-120.05624,50.79093],[-120.05605,50.79108],[-120.05596,50.79115],[-120.05564,50.79143],[-120.05558,50.79156],[-120.05542,50.79175],[-120.05527,50.79201],[-120.0552,50.7921],[-120.05502,50.79232],[-120.05485,50.79252],[-120.0548,50.79259],[-120.05469,50.7928],[-120.05454,50.79299],[-120.05444,50.79318],[-120.05438,50.79326],[-120.05422,50.79347],[-120.05411,50.79368],[-120.05408,50.79372],[-120.05397,50.79388],[-120.05391,50.79396],[-120.05385,50.79402],[-120.05371,50.79411],[-120.05363,50.79417],[-120.05333,50.79429],[-120.05313,50.7944],[-120.05287,50.79449],[-120.05271,50.79453],[-120.05253,50.7946],[-120.05217,50.79471],[-120.05191,50.79476],[-120.0518,50.79477],[-120.0517,50.79478],[-120.05143,50.79475],[-120.05128,50.79472],[-120.05096,50.79463],[-120.05063,50.79455],[-120.05042,50.79454],[-120.05032,50.79454],[-120.05009,50.79459],[-120.05001,50.79464],[-120.04993,50.79471],[-120.04982,50.79484],[-120.0498,50.79493],[-120.04978,50.79511],[-120.04977,50.7952],[-120.04968,50.79536],[-120.0496,50.79548],[-120.04954,50.79567],[-120.04947,50.79587],[-120.04938,50.79597],[-120.04916,50.79615],[-120.04902,50.79625],[-120.04883,50.79633],[-120.04849,50.79636],[-120.04838,50.79638],[-120.04828,50.7964],[-120.04811,50.79651],[-120.04786,50.79667],[-120.0478,50.79682],[-120.04765,50.79703],[-120.04755,50.79713],[-120.0474,50.79723],[-120.04705,50.79737],[-120.04695,50.7974],[-120.04686,50.79743],[-120.04665,50.79748],[-120.0464,50.79757],[-120.04628,50.79761],[-120.04608,50.79764],[-120.04596,50.79764],[-120.04572,50.79761],[-120.04541,50.79759],[-120.04528,50.79758],[-120.04507,50.79748],[-120.04477,50.79737],[-120.04456,50.79727],[-120.04434,50.79714],[-120.04413,50.79694],[-120.04406,50.79688],[-120.04395,50.79679],[-120.04363,50.79645],[-120.04319,50.79592],[-120.04292,50.79559],[-120.04279,50.7954],[-120.04228,50.79499],[-120.04212,50.79496],[-120.04209,50.79492]]}},
{"type":"Feature","properties":{"spotId":"A-grouse-drive-0113","kind":"roadside","km":3.08,"climbM":228,"name":"1.3 km SW of Sullivan Lake","flags":[]},"geometry":{"type":"LineString","coordinates":[[-120.12948,50.94489],[-120.12891,50.94474],[-120.12826,50.9447],[-120.12736,50.94484],[-120.12699,50.94499],[-120.1267,50.94511],[-120.12629,50.94543],[-120.12564,50.94576],[-120.12427,50.94587],[-120.1223,50.94602],[-120.12181,50.94604],[-120.1209,50.94582],[-120.11952,50.94543],[-120.11906,50.94548],[-120.11837,50.94567],[-120.11763,50.94592],[-120.11702,50.94606],[-120.11613,50.94627],[-120.11517,50.94646],[-120.11407,50.94669],[-120.11323,50.9469],[-120.11289,50.94713],[-120.11264,50.94733],[-120.11242,50.94764],[-120.1124,50.94785],[-120.1123,50.94812],[-120.1123,50.94844],[-120.11227,50.94873],[-120.11215,50.94889],[-120.11171,50.94918],[-120.11139,50.94949],[-120.11134,50.94971],[-120.111,50.94993],[-120.11075,50.9501],[-120.1105,50.9503],[-120.11031,50.95058],[-120.11031,50.95085],[-120.11001,50.95105],[-120.10959,50.95117],[-120.10915,50.9513],[-120.10854,50.95136],[-120.10804,50.95119],[-120.10763,50.95092],[-120.10711,50.95046],[-120.10672,50.94994],[-120.10657,50.94949],[-120.10632,50.94909],[-120.10622,50.94869],[-120.10612,50.94844],[-120.10563,50.94837],[-120.10534,50.94839],[-120.10509,50.94855],[-120.10485,50.94884],[-120.10487,50.94915],[-120.10482,50.95012],[-120.10482,50.951],[-120.10504,50.95136],[-120.10524,50.95179],[-120.10524,50.95192],[-120.10512,50.95224],[-120.1048,50.95283],[-120.10497,50.95319],[-120.10514,50.95347],[-120.10541,50.95355],[-120.10583,50.95355],[-120.10627,50.95358],[-120.1065,50.95377],[-120.10672,50.95402],[-120.10699,50.95423]]}},
{"type":"Feature","properties":{"spotId":"A-grouse-walk-0117","kind":"walk","km":0.15,"climbM":27,"name":"240 m NE of Louis Creek","flags":["Route crosses private land (ParcelMap BC, updated 2026-09-25): get permission first or go around."]},"geometry":{"type":"LineString","coordinates":[[-120.01866,50.94581],[-120.01659,50.94627]]}},
{"type":"Feature","properties":{"spotId":"A-grouse-walk-0117","kind":"roadside","km":5.17,"climbM":624,"name":"240 m NE of Louis Creek","flags":["Route crosses private land (ParcelMap BC, updated 2026-09-25): get permission first or go around."]},"geometry":{"type":"LineString","coordinates":[[-120.01659,50.94627],[-120.01655,50.94628],[-120.01608,50.94632],[-120.01562,50.94627],[-120.01536,50.94617],[-120.01508,50.94605],[-120.01471,50.94592],[-120.0141,50.9458],[-120.01366,50.94572],[-120.01314,50.94557],[-120.01279,50.9455],[-120.01247,50.94554],[-120.01214,50.94563],[-120.01187,50.94579],[-120.01167,50.94599],[-120.01156,50.94626],[-120.01142,50.94654],[-120.01125,50.9468],[-120.01115,50.94698],[-120.01108,50.94712],[-120.01079,50.9477],[-120.01057,50.94814],[-120.0104,50.94853],[-120.01012,50.94908],[-120.00992,50.94957],[-120.0097,50.95004],[-120.00954,50.95043],[-120.00941,50.95074],[-120.00936,50.95106],[-120.00926,50.95148],[-120.00927,50.95186],[-120.00942,50.95219],[-120.00948,50.95251],[-120.00968,50.95295],[-120.0097,50.95332],[-120.00975,50.9536],[-120.00979,50.95378],[-120.00973,50.95405],[-120.00969,50.95437],[-120.00974,50.95469],[-120.00979,50.95499],[-120.00983,50.95523],[-120.00981,50.95547],[-120.00961,50.9556],[-120.0094,50.9556],[-120.00923,50.95546],[-120.00927,50.9552],[-120.0092,50.95498],[-120.00913,50.95474],[-120.00895,50.95445],[-120.00869,50.95409],[-120.00847,50.95385],[-120.00811,50.95358],[-120.00772,50.95331],[-120.00736,50.95299],[-120.00698,50.9527],[-120.00663,50.95245],[-120.00625,50.95217],[-120.00597,50.95202],[-120.00571,50.95187],[-120.00554,50.95174],[-120.00526,50.95142],[-120.00509,50.95105],[-120.00498,50.95071],[-120.00473,50.95043],[-120.00434,50.9501],[-120.00402,50.94985],[-120.00347,50.94949],[-120.00304,50.94922],[-120.00245,50.94896],[-120.00181,50.94861],[-120.00148,50.94845],[-120.00128,50.94833],[-120.00098,50.94807],[-120.00079,50.94768],[-120.00069,50.94737],[-120.00067,50.947],[-120.00061,50.94674],[-120.00045,50.94656],[-120.00023,50.94655],[-120.00012,50.94679],[-120.00005,50.94718],[-120.00002,50.94739],[-119.99997,50.94775],[-119.99993,50.94817],[-119.99992,50.94851],[-119.99991,50.94888],[-119.99992,50.94915],[-119.9999,50.94948],[-119.99993,50.94978],[-119.99995,50.94998],[-119.99999,50.95015],[-120.00007,50.95037],[-120.00027,50.95069],[-120.00038,50.95097],[-120.00054,50.95132],[-120.00061,50.95159],[-120.00067,50.95184],[-120.00075,50.95212],[-120.00075,50.95236],[-120.00081,50.95266],[-120.00086,50.95291],[-120.00096,50.95315],[-120.00107,50.95338],[-120.00119,50.95365],[-120.00103,50.9539],[-120.00032,50.95411],[-119.99972,50.95432],[-119.99891,50.95448],[-119.99814,50.95452],[-119.99737,50.95457],[-119.99676,50.95457],[-119.99619,50.95455],[-119.99569,50.95462],[-119.99504,50.95475],[-119.9945,50.95479],[-119.99418,50.95478],[-119.99407,50.95466],[-119.99415,50.95447],[-119.99463,50.95422],[-119.99504,50.95402],[-119.99534,50.95383],[-119.99558,50.95361],[-119.99592,50.95348],[-119.9962,50.9534],[-119.99632,50.95328],[-119.99613,50.95311],[-119.99584,50.95303],[-119.99554,50.95293],[-119.99528,50.95272],[-119.99511,50.95256],[-119.99496,50.95228],[-119.99486,50.95208],[-119.99466,50.95154],[-119.99439,50.9511],[-119.9941,50.95067],[-119.99392,50.95034],[-119.99381,50.95],[-119.99375,50.9496],[-119.99367,50.94924],[-119.99366,50.94896],[-119.99348,50.94825],[-119.99331,50.94768],[-119.99314,50.94709],[-119.99289,50.94673],[-119.99268,50.94634],[-119.99266,50.9463]]}},
{"type":"Feature","properties":{"spotId":"A-moose-atv-0083","kind":"ride","km":2.98,"climbM":102,"name":"1.1 km SE of Dans Creek","flags":["Route crosses private land (ParcelMap BC, updated 2026-09-25): get permission first or go around."]},"geometry":{"type":"MultiLineString","coordinates":[[[-120.14601,50.83227],[-120.14581,50.83231],[-120.14551,50.83233],[-120.14526,50.83233],[-120.14501,50.83232],[-120.14477,50.83226],[-120.14458,50.83217],[-120.14446,50.83203],[-120.14435,50.83188],[-120.14424,50.83171],[-120.14409,50.83156],[-120.14393,50.83142],[-120.1438,50.83135],[-120.14374,50.83132],[-120.14351,50.83122],[-120.14332,50.83114],[-120.14305,50.83111],[-120.14276,50.83107],[-120.14222,50.83104],[-120.14173,50.83107],[-120.14032,50.8315],[-120.13927,50.8319],[-120.13851,50.83201],[-120.1374,50.8323],[-120.1369,50.83227],[-120.1364,50.83215],[-120.13613,50.83213],[-120.13587,50.83216],[-120.13524,50.83267],[-120.13491,50.83285],[-120.1338,50.83321],[-120.13333,50.8337],[-120.13185,50.83475],[-120.13049,50.83631],[-120.12955,50.83697],[-120.1278,50.83778],[-120.1274,50.83812],[-120.12717,50.83821],[-120.12649,50.83822],[-120.12619,50.83835],[-120.12605,50.83859],[-120.12571,50.83882],[-120.12535,50.83892]],[[-120.14606,50.82318],[-120.14673,50.82354],[-120.14725,50.82421],[-120.14764,50.82487],[-120.14804,50.82578],[-120.14817,50.82669],[-120.14817,50.82769],[-120.14798,50.82848],[-120.14765,50.82932],[-120.14733,50.83003],[-120.1473,50.8301],[-120.14726,50.83018],[-120.14686,50.83076],[-120.14659,50.83147],[-120.14621,50.83192],[-120.14601,50.83227]]]}},
{"type":"Feature","properties":{"spotId":"A-moose-atv-0083","kind":"walk","km":0.07,"climbM":0,"name":"1.1 km SE of Dans Creek","flags":["Route crosses private land (ParcelMap BC, updated 2026-09-25): get permission first or go around."]},"geometry":{"type":"LineString","coordinates":[[-120.14606,50.82318],[-120.14618,50.82253]]}},
{"type":"Feature","properties":{"spotId":"A-moose-drive-0060","kind":"walk","km":0.08,"climbM":0,"name":"1.3 km SE of Community Lake","flags":[]},"geometry":{"type":"LineString","coordinates":[[-120.05996,50.91675],[-120.06049,50.91608]]}},
{"type":"Feature","properties":{"spotId":"A-moose-walk-0097","kind":"walk","km":0.42,"climbM":2,"name":"By Devick Lake","flags":[]},"geometry":{"type":"LineString","coordinates":[[-120.07521,50.90043],[-120.08112,50.90036]]}}
]}
