{"type":"FeatureCollection","features":[
{"type":"Feature","properties":{"spotId":"A-deer-atv-0163","kind":"ride","km":4.42,"climbM":81,"name":"1.5 km W of Rush Lake","flags":["Route crosses private land (ParcelMap BC, updated 2026-09-25): get permission first or go around."]},"geometry":{"type":"LineString","coordinates":[[-120.05746,50.22892],[-120.05805,50.2288],[-120.05853,50.22861],[-120.05879,50.22853],[-120.05908,50.22845],[-120.0594,50.22839],[-120.05975,50.22838],[-120.06008,50.22838],[-120.0604,50.22841],[-120.0607,50.22841],[-120.06102,50.22841],[-120.06128,50.22833],[-120.06154,50.22818],[-120.0618,50.22808],[-120.06208,50.22803],[-120.06241,50.22792],[-120.0627,50.22773],[-120.06294,50.22757],[-120.06322,50.22751],[-120.06349,50.2274],[-120.06378,50.22733],[-120.06403,50.22725],[-120.06435,50.22714],[-120.06459,50.22704],[-120.06485,50.22695],[-120.06501,50.22689],[-120.0651,50.22684],[-120.06542,50.22676],[-120.06572,50.22674],[-120.066,50.22671],[-120.06634,50.22668],[-120.06662,50.22667],[-120.06692,50.22665],[-120.06721,50.22665],[-120.06744,50.22668],[-120.06749,50.22669],[-120.06775,50.22677],[-120.06795,50.22692],[-120.06813,50.22706],[-120.06827,50.22722],[-120.06838,50.22733],[-120.06844,50.2274],[-120.06852,50.22751],[-120.06861,50.22761],[-120.06878,50.22779],[-120.06905,50.22791],[-120.06945,50.22804],[-120.06974,50.22812],[-120.07006,50.22817],[-120.07066,50.22825],[-120.07107,50.22826],[-120.07134,50.22835],[-120.07155,50.22848],[-120.07169,50.22867],[-120.07185,50.22883],[-120.07196,50.22888],[-120.07226,50.22891],[-120.07251,50.22901],[-120.07265,50.22917],[-120.07287,50.2293],[-120.07318,50.22944],[-120.07339,50.22958],[-120.07362,50.22969],[-120.07379,50.22986],[-120.07388,50.23003],[-120.07395,50.23014],[-120.07419,50.23025],[-120.07446,50.23039],[-120.07471,50.2306],[-120.07486,50.23075],[-120.07497,50.23094],[-120.07506,50.23113],[-120.07517,50.23135],[-120.07527,50.23154],[-120.0753,50.23173],[-120.07532,50.23216],[-120.07536,50.23234],[-120.07541,50.23253],[-120.07553,50.23275],[-120.07557,50.23278],[-120.07589,50.23289],[-120.07624,50.23295],[-120.07626,50.23297],[-120.07646,50.23318],[-120.07659,50.23332],[-120.07663,50.23337],[-120.07685,50.23352],[-120.07716,50.23369],[-120.07743,50.23387],[-120.07849,50.23442],[-120.07928,50.23481],[-120.07945,50.23492],[-120.07961,50.23504],[-120.07977,50.23518],[-120.08019,50.23568],[-120.08031,50.23577],[-120.08051,50.23586],[-120.08072,50.23594],[-120.08163,50.23605],[-120.08184,50.2361],[-120.08194,50.23627],[-120.08193,50.23643],[-120.08189,50.23662],[-120.08188,50.2368],[-120.08195,50.23695],[-120.08207,50.23709],[-120.08231,50.23732],[-120.08244,50.2374],[-120.08283,50.23756],[-120.08307,50.23763],[-120.08331,50.23776],[-120.08352,50.23789],[-120.08342,50.23797],[-120.08323,50.23813],[-120.08309,50.23832],[-120.083,50.23841],[-120.08293,50.23847],[-120.08288,50.23852],[-120.08275,50.23867],[-120.08251,50.23882],[-120.08238,50.23887],[-120.08207,50.23888],[-120.08195,50.23887],[-120.08171,50.23891],[-120.08139,50.239],[-120.08116,50.23906],[-120.08092,50.23917],[-120.08066,50.23925],[-120.08047,50.23936],[-120.0802,50.23944],[-120.07999,50.23947],[-120.07982,50.23949],[-120.0796,50.23949],[-120.07936,50.2395],[-120.07909,50.23954],[-120.07881,50.23955],[-120.07869,50.23955],[-120.07847,50.23957],[-120.0782,50.23958],[-120.07805,50.23959],[-120.07782,50.2396],[-120.07755,50.23963],[-120.07724,50.23965],[-120.07694,50.23963],[-120.07683,50.23957],[-120.07664,50.23941],[-120.07648,50.23932],[-120.07619,50.23921],[-120.07609,50.23918],[-120.07591,50.23912],[-120.07551,50.23895],[-120.07458,50.23924],[-120.0742,50.2394],[-120.07398,50.23955],[-120.07379,50.23973],[-120.07368,50.23983],[-120.07324,50.24038],[-120.07309,50.2405],[-120.07278,50.2408],[-120.07273,50.24091],[-120.07268,50.2413],[-120.07276,50.2419],[-120.07265,50.24253],[-120.07264,50.24271],[-120.07275,50.2433],[-120.07303,50.24388],[-120.0732,50.24422],[-120.07336,50.2444],[-120.07365,50.24466],[-120.07374,50.24483],[-120.0742,50.24542],[-120.07457,50.24581],[-120.07487,50.24605],[-120.07595,50.24678],[-120.07637,50.24713],[-120.07641,50.2473],[-120.07636,50.24748],[-120.07615,50.24771]]}},
{"type":"Feature","properties":{"spotId":"A-deer-atv-0163","kind":"walk","km":0.14,"climbM":4,"name":"1.5 km W of Rush Lake","flags":["Route crosses private land (ParcelMap BC, updated 2026-09-25): get permission first or go around."]},"geometry":{"type":"LineString","coordinates":[[-120.07615,50.24771],[-120.07423,50.24802]]}},
{"type":"Feature","properties":{"spotId":"A-deer-walk-0096","kind":"walk","km":2.72,"climbM":57,"name":"1.1 km E of Range Creek","flags":["Route crosses private land (ParcelMap BC, updated 2026-09-25): get permission first or go around."]},"geometry":{"type":"LineString","coordinates":[[-120.08142,50.2207],[-120.09587,50.24329]]}}
]}
