{"type":"FeatureCollection","features":[
{"type":"Feature","properties":{"spotId":"A-camp-camp-0103","kind":"walk","km":0.19,"climbM":1,"name":"2.9 km NE of Swayback Ridge","flags":[]},"geometry":{"type":"LineString","coordinates":[[-120.25139,51.85128],[-120.25012,51.85279]]}},
{"type":"Feature","properties":{"spotId":"A-duck-drive-0072","kind":"walk","km":0.02,"climbM":0,"name":"Sicily Lake","flags":[]},"geometry":{"type":"LineString","coordinates":[[-120.41399,51.79763],[-120.41419,51.7977]]}},
{"type":"Feature","properties":{"spotId":"A-duck-drive-0120","kind":"walk","km":0.25,"climbM":0,"name":"Unnamed lake 1.6 km E of East Maury Lake rec site","flags":[]},"geometry":{"type":"LineString","coordinates":[[-120.26537,51.8877],[-120.26563,51.88991]]}},
{"type":"Feature","properties":{"spotId":"A-duck-walk-0066","kind":"walk","km":0.42,"climbM":9,"name":"Unnamed lake 1.4 km E of Italia Lake","flags":[]},"geometry":{"type":"LineString","coordinates":[[-120.3675,51.83751],[-120.36409,51.8406]]}},
{"type":"Feature","properties":{"spotId":"A-grouse-atv-0062","kind":"ride","km":3.16,"climbM":119,"name":"1.6 km NW of Mann Creek","flags":[]},"geometry":{"type":"LineString","coordinates":[[-120.33661,51.75475],[-120.33675,51.75497],[-120.33687,51.75515],[-120.3369,51.75522],[-120.33695,51.75539],[-120.33699,51.75547],[-120.33711,51.75562],[-120.33733,51.75581],[-120.33758,51.75601],[-120.33767,51.75609],[-120.33792,51.75627],[-120.33818,51.75646],[-120.33846,51.7566],[-120.33873,51.75674],[-120.33883,51.7568],[-120.33909,51.75701],[-120.33922,51.75717],[-120.33931,51.75725],[-120.33941,51.75743],[-120.33953,51.7576],[-120.33977,51.75781],[-120.33985,51.75785],[-120.34019,51.75794],[-120.34031,51.75799],[-120.34056,51.75807],[-120.34071,51.75812],[-120.34096,51.75822],[-120.34109,51.75827],[-120.34133,51.75837],[-120.34158,51.75848],[-120.34171,51.75854],[-120.34195,51.75867],[-120.34223,51.75879],[-120.34236,51.75884],[-120.34261,51.75896],[-120.3429,51.75905],[-120.34322,51.75914],[-120.34338,51.75918],[-120.34367,51.75924],[-120.34387,51.75925],[-120.34397,51.75927],[-120.34411,51.75933],[-120.34435,51.75947],[-120.34459,51.75964],[-120.34484,51.75981],[-120.34514,51.76004],[-120.34541,51.76026],[-120.3457,51.76044],[-120.34584,51.76049],[-120.3461,51.7605],[-120.34617,51.76051],[-120.3464,51.76059],[-120.3466,51.76066],[-120.34689,51.76085],[-120.34714,51.76107],[-120.34724,51.76113],[-120.34748,51.76124],[-120.3476,51.7613],[-120.34789,51.7614],[-120.34817,51.7615],[-120.34843,51.76163],[-120.34859,51.76179],[-120.34867,51.76189],[-120.34882,51.76209],[-120.34897,51.7623],[-120.34909,51.76247],[-120.34922,51.76264],[-120.34936,51.76282],[-120.34952,51.76299],[-120.34967,51.76316],[-120.34975,51.76327],[-120.34976,51.76341],[-120.34976,51.76362],[-120.34977,51.76374],[-120.34983,51.76396],[-120.34985,51.76405],[-120.34994,51.76426],[-120.35001,51.76446],[-120.35015,51.76463],[-120.35028,51.76483],[-120.3504,51.76501],[-120.35047,51.76513],[-120.35047,51.76529],[-120.35046,51.76551],[-120.35045,51.76563],[-120.35043,51.76576],[-120.3504,51.76598],[-120.35038,51.76619],[-120.35035,51.76637],[-120.35033,51.76655],[-120.35032,51.76664],[-120.35026,51.76687],[-120.35026,51.76689],[-120.35024,51.76698],[-120.35023,51.76702],[-120.35017,51.76719],[-120.3501,51.76738],[-120.35009,51.76745],[-120.35008,51.76761],[-120.35007,51.76769],[-120.35015,51.76776],[-120.35041,51.76786],[-120.35064,51.76792],[-120.35077,51.76794],[-120.35096,51.76794],[-120.3512,51.76789],[-120.35149,51.76777],[-120.35167,51.7676],[-120.35176,51.76754],[-120.35197,51.76744],[-120.35234,51.76729],[-120.35264,51.76719],[-120.35287,51.76712],[-120.35304,51.76701],[-120.35312,51.76693],[-120.35326,51.76673],[-120.35342,51.76652],[-120.35356,51.76631],[-120.3537,51.76613],[-120.35383,51.76596],[-120.35413,51.76574],[-120.35422,51.76567],[-120.35455,51.76551],[-120.35481,51.76546],[-120.35494,51.76544],[-120.35523,51.76545],[-120.35551,51.76549],[-120.35584,51.76555],[-120.35615,51.7656],[-120.35642,51.76564],[-120.35647,51.76565],[-120.35655,51.76566],[-120.35668,51.76567],[-120.35693,51.76567],[-120.35703,51.76565],[-120.35728,51.76564],[-120.35739,51.76565],[-120.35749,51.76568],[-120.35759,51.76573],[-120.35789,51.76583],[-120.35796,51.76584],[-120.35819,51.76592],[-120.35839,51.76595],[-120.35872,51.76596],[-120.35886,51.76595],[-120.35912,51.76589],[-120.35925,51.76585],[-120.35961,51.76569],[-120.35998,51.76557],[-120.3601,51.76552],[-120.36046,51.76546],[-120.36073,51.76541],[-120.36106,51.76542],[-120.36136,51.76543],[-120.3615,51.76543],[-120.36164,51.76545],[-120.3619,51.76551],[-120.36213,51.76556],[-120.36244,51.76568],[-120.36257,51.76571],[-120.36262,51.76572],[-120.36286,51.76572],[-120.36314,51.76573],[-120.36343,51.76572],[-120.36371,51.76572],[-120.36385,51.76572],[-120.364,51.76571],[-120.3643,51.76572],[-120.36464,51.76572],[-120.36493,51.76573],[-120.3652,51.76574],[-120.36545,51.76574],[-120.36558,51.76575],[-120.36578,51.76569],[-120.3661,51.76552]]}},
{"type":"Feature","properties":{"spotId":"A-grouse-atv-0106","kind":"walk","km":0.19,"climbM":9,"name":"1.4 km S of Sicily Lake South rec site","flags":[]},"geometry":{"type":"LineString","coordinates":[[-120.40481,51.78671],[-120.4076,51.78652]]}},
{"type":"Feature","properties":{"spotId":"A-grouse-atv-0106","kind":"ride","km":4.09,"climbM":8,"name":"1.4 km S of Sicily Lake South rec site","flags":[]},"geometry":{"type":"LineString","coordinates":[[-120.4076,51.78652],[-120.40766,51.78649],[-120.40779,51.78642],[-120.40791,51.78633],[-120.40817,51.78617],[-120.40845,51.78604],[-120.40875,51.78588],[-120.40891,51.78581],[-120.40918,51.78566],[-120.40929,51.7856],[-120.4095,51.78544],[-120.40959,51.78535],[-120.40976,51.78521],[-120.40992,51.78511],[-120.41007,51.78505],[-120.41039,51.78489],[-120.4107,51.78473],[-120.411,51.78457],[-120.4111,51.7845],[-120.41127,51.7844],[-120.41156,51.78419],[-120.41185,51.78397],[-120.41213,51.78377],[-120.41241,51.78357],[-120.41264,51.78335],[-120.41276,51.78322],[-120.41282,51.7831],[-120.41282,51.78308],[-120.4129,51.78295],[-120.41299,51.78279],[-120.41308,51.78261],[-120.41312,51.7825],[-120.41314,51.78235],[-120.41316,51.78221],[-120.4132,51.78206],[-120.41324,51.78191],[-120.41328,51.78173],[-120.41331,51.78161],[-120.41335,51.78148],[-120.41339,51.78135],[-120.41342,51.78123],[-120.41346,51.78109],[-120.41353,51.78088],[-120.41358,51.78078],[-120.41368,51.78058],[-120.41381,51.78038],[-120.41389,51.78026],[-120.41398,51.78012],[-120.41407,51.77998],[-120.41413,51.77987],[-120.41419,51.77973],[-120.41426,51.7796],[-120.41434,51.77942],[-120.41442,51.77921],[-120.41454,51.77903],[-120.41463,51.7789],[-120.41472,51.77876],[-120.41481,51.77862],[-120.41484,51.77856],[-120.4149,51.77846],[-120.41497,51.77835],[-120.415,51.77828],[-120.41505,51.77819],[-120.41511,51.77804],[-120.41519,51.77791],[-120.41526,51.77779],[-120.41531,51.77767],[-120.41537,51.77755],[-120.41547,51.77743],[-120.41558,51.77731],[-120.41568,51.77722],[-120.4157,51.7772],[-120.41585,51.77707],[-120.41596,51.77696],[-120.41608,51.77681],[-120.41621,51.77669],[-120.41631,51.77658],[-120.41633,51.77656],[-120.41644,51.77645],[-120.41655,51.77631],[-120.41669,51.77614],[-120.41675,51.77602],[-120.41685,51.7759],[-120.41694,51.77577],[-120.41705,51.77564],[-120.41713,51.77551],[-120.41721,51.77536],[-120.41726,51.77521],[-120.41735,51.77502],[-120.41736,51.77481],[-120.41737,51.77466],[-120.41733,51.77454],[-120.41728,51.77441],[-120.41724,51.77429],[-120.41721,51.77416],[-120.41715,51.77404],[-120.4171,51.77392],[-120.41701,51.77379],[-120.41696,51.7737],[-120.41681,51.77348],[-120.4167,51.7733],[-120.41666,51.77325],[-120.41652,51.77302],[-120.41637,51.77284],[-120.41622,51.77265],[-120.41604,51.77248],[-120.41579,51.77225],[-120.41557,51.77205],[-120.41586,51.77205],[-120.41615,51.77206],[-120.41627,51.77206],[-120.41641,51.7721],[-120.4165,51.77211],[-120.4168,51.77212],[-120.41695,51.77208],[-120.41715,51.77201],[-120.41732,51.77191],[-120.4174,51.77185],[-120.41759,51.77169],[-120.41768,51.77164],[-120.41795,51.77152],[-120.41807,51.77143],[-120.4181,51.77141],[-120.41827,51.77125],[-120.41856,51.77104],[-120.4188,51.77094],[-120.41908,51.77087],[-120.41922,51.77085],[-120.41953,51.77079],[-120.41981,51.77072],[-120.42007,51.77063],[-120.42031,51.77051],[-120.42058,51.77038],[-120.42073,51.77033],[-120.421,51.77023],[-120.42136,51.77012],[-120.42144,51.77011],[-120.42155,51.77011],[-120.4216,51.77011],[-120.42167,51.77013],[-120.42184,51.77019],[-120.42211,51.77027],[-120.42241,51.77038],[-120.42269,51.77048],[-120.42272,51.77048],[-120.42293,51.77062],[-120.42314,51.77078],[-120.42332,51.77094],[-120.42339,51.77102],[-120.42355,51.77119],[-120.42373,51.77137],[-120.42389,51.77154],[-120.42396,51.77165],[-120.424,51.77168],[-120.42409,51.77182],[-120.42437,51.772],[-120.42469,51.77223],[-120.42485,51.77229],[-120.42499,51.77235],[-120.42513,51.77242],[-120.42528,51.77247],[-120.42535,51.7725],[-120.42553,51.7726],[-120.4257,51.77274],[-120.42576,51.77284],[-120.42579,51.77293],[-120.42586,51.7731],[-120.42593,51.77318],[-120.42609,51.77336],[-120.4262,51.77348],[-120.42624,51.77353],[-120.42637,51.77363],[-120.42659,51.7738],[-120.42662,51.77384],[-120.42666,51.7739],[-120.42673,51.7741],[-120.42673,51.77419],[-120.42672,51.7744],[-120.42671,51.77459],[-120.42674,51.77476],[-120.42683,51.77496],[-120.42693,51.77518],[-120.42696,51.7753],[-120.42701,51.77541],[-120.42714,51.77562],[-120.42719,51.77575],[-120.42721,51.77584],[-120.42727,51.77594],[-120.42736,51.77614],[-120.42743,51.77635],[-120.42751,51.77658],[-120.42753,51.77671],[-120.42753,51.77693],[-120.42752,51.77716],[-120.4275,51.77728],[-120.42748,51.77751],[-120.42745,51.77762],[-120.42741,51.77774],[-120.42736,51.77791],[-120.42729,51.77806],[-120.4273,51.7782],[-120.42732,51.77827],[-120.42743,51.77838],[-120.42749,51.77839],[-120.42752,51.77841],[-120.42762,51.77842],[-120.42771,51.77842],[-120.42775,51.77842],[-120.42803,51.77841],[-120.42817,51.77839],[-120.4283,51.77837],[-120.42854,51.77832],[-120.42863,51.77829],[-120.4288,51.77829],[-120.42886,51.77831],[-120.429,51.77842],[-120.42909,51.77862],[-120.42915,51.77879],[-120.42915,51.77897],[-120.42914,51.77915],[-120.42914,51.7792],[-120.42915,51.77926],[-120.42915,51.77928],[-120.42911,51.77944],[-120.42911,51.77954],[-120.42918,51.77973],[-120.42919,51.77994],[-120.42916,51.78007],[-120.42916,51.7802],[-120.42913,51.78035],[-120.4291,51.78048],[-120.42905,51.78061],[-120.42898,51.78073],[-120.42879,51.78094],[-120.42854,51.78113],[-120.4283,51.78131],[-120.42819,51.78142],[-120.42809,51.78154],[-120.428,51.78165],[-120.42791,51.78178],[-120.42781,51.78189],[-120.4277,51.78202],[-120.42769,51.78205],[-120.42763,51.78213],[-120.42738,51.78235],[-120.42717,51.78257],[-120.42709,51.78266],[-120.42685,51.7828],[-120.42673,51.78288],[-120.4267,51.78291]]}},
{"type":"Feature","properties":{"spotId":"A-grouse-atv-0113","kind":"walk","km":0.55,"climbM":17,"name":"240 m S of Mahood Lake","flags":[]},"geometry":{"type":"LineString","coordinates":[[-120.4,51.89876],[-120.39205,51.89869]]}},
{"type":"Feature","properties":{"spotId":"A-grouse-atv-0113","kind":"ride","km":4.2,"climbM":410,"name":"240 m S of Mahood Lake","flags":[]},"geometry":{"type":"LineString","coordinates":[[-120.39205,51.89869],[-120.392,51.89866],[-120.39197,51.89864],[-120.39176,51.89849],[-120.39148,51.89833],[-120.39106,51.89816],[-120.3906,51.898],[-120.39044,51.89794],[-120.39041,51.89793],[-120.39032,51.89789],[-120.39015,51.89783],[-120.39004,51.8978],[-120.3899,51.89776],[-120.38949,51.89764],[-120.38898,51.8975],[-120.38863,51.89751],[-120.38851,51.89752],[-120.38804,51.89751],[-120.38762,51.8975],[-120.38749,51.8975],[-120.38737,51.89747],[-120.38726,51.89745],[-120.3872,51.89744],[-120.38702,51.89737],[-120.38695,51.89734],[-120.38673,51.89726],[-120.38672,51.89726],[-120.38642,51.89707],[-120.38641,51.89706],[-120.38633,51.89704],[-120.38596,51.89696],[-120.38576,51.89677],[-120.38557,51.8966],[-120.38531,51.89635],[-120.38523,51.89625],[-120.38511,51.89601],[-120.38508,51.89595],[-120.38508,51.89594],[-120.38498,51.89576],[-120.38495,51.89572],[-120.38487,51.89565],[-120.38486,51.89564],[-120.3848,51.89558],[-120.38458,51.89547],[-120.38448,51.89542],[-120.38441,51.89541],[-120.38388,51.89528],[-120.3835,51.89516],[-120.38315,51.895],[-120.38285,51.89495],[-120.38258,51.89493],[-120.38226,51.8949],[-120.38153,51.89487],[-120.38095,51.89483],[-120.38078,51.89481],[-120.3804,51.89475],[-120.38012,51.89467],[-120.37994,51.89459],[-120.37977,51.89449],[-120.37964,51.89435],[-120.37956,51.89423],[-120.37955,51.8942],[-120.37944,51.89402],[-120.37934,51.89378],[-120.37924,51.89364],[-120.37907,51.8935],[-120.37881,51.89337],[-120.3786,51.89328],[-120.37854,51.89326],[-120.37803,51.89312],[-120.37765,51.893],[-120.37755,51.89298],[-120.37752,51.89297],[-120.3771,51.89285],[-120.37676,51.89275],[-120.37673,51.89273],[-120.37651,51.89261],[-120.37635,51.89249],[-120.3761,51.89242],[-120.37587,51.89239],[-120.37585,51.89238],[-120.37574,51.89237],[-120.37561,51.89237],[-120.37538,51.89237],[-120.37493,51.89237],[-120.37472,51.89234],[-120.37447,51.89225],[-120.37424,51.89207],[-120.37405,51.89184],[-120.37384,51.89154],[-120.37364,51.89132],[-120.37341,51.89108],[-120.37323,51.89097],[-120.3731,51.89088],[-120.37284,51.89071],[-120.37261,51.89061],[-120.37218,51.89054],[-120.37176,51.89053],[-120.37136,51.89054],[-120.37124,51.89059],[-120.37073,51.89068],[-120.3702,51.89064],[-120.36981,51.8906],[-120.36969,51.89055],[-120.36915,51.89043],[-120.36867,51.89037],[-120.36819,51.89033],[-120.36761,51.89025],[-120.36734,51.89031],[-120.367,51.89042],[-120.36667,51.89055],[-120.36656,51.89059],[-120.36604,51.89077],[-120.36601,51.89078],[-120.3657,51.89082],[-120.36566,51.89082],[-120.36526,51.89084],[-120.36479,51.89079],[-120.3647,51.89076],[-120.36441,51.89067],[-120.36403,51.89047],[-120.36385,51.89036],[-120.36361,51.89023],[-120.36355,51.89017],[-120.36349,51.89014],[-120.36342,51.8901],[-120.36336,51.89005],[-120.36329,51.89001],[-120.36322,51.88996],[-120.36317,51.88992],[-120.36311,51.88987],[-120.36304,51.88981],[-120.36298,51.88975],[-120.36293,51.88968],[-120.36289,51.8896],[-120.36286,51.88953],[-120.36283,51.88944],[-120.36281,51.8894],[-120.36279,51.88935],[-120.36277,51.8893],[-120.36274,51.88926],[-120.3627,51.88921],[-120.36267,51.88916],[-120.36264,51.88912],[-120.36259,51.88905],[-120.36255,51.88898],[-120.36251,51.8889],[-120.3625,51.88888],[-120.36249,51.88885],[-120.36248,51.88881],[-120.36246,51.88876],[-120.36245,51.8887],[-120.36244,51.88865],[-120.36244,51.88859],[-120.36245,51.88853],[-120.36246,51.88848],[-120.36247,51.88843],[-120.36249,51.88838],[-120.36251,51.88834],[-120.36254,51.88826],[-120.36258,51.88819],[-120.36265,51.88811],[-120.36269,51.88807],[-120.36274,51.88803],[-120.36279,51.88799],[-120.36285,51.88795],[-120.36291,51.88792],[-120.36297,51.88789],[-120.36302,51.88785],[-120.36308,51.88781],[-120.36314,51.88778],[-120.36321,51.88775],[-120.36329,51.88772],[-120.36337,51.88769],[-120.36345,51.88767],[-120.36353,51.88765],[-120.3636,51.88763],[-120.36367,51.88761],[-120.36375,51.88759],[-120.36383,51.88756],[-120.36392,51.88753],[-120.36401,51.8875],[-120.3641,51.88746],[-120.36418,51.88742],[-120.36426,51.88739],[-120.36434,51.88736],[-120.36442,51.88733],[-120.3645,51.8873],[-120.36458,51.88727],[-120.36467,51.88724],[-120.36476,51.88721],[-120.36484,51.88717],[-120.36492,51.88714],[-120.365,51.88711],[-120.36507,51.88707],[-120.36515,51.88703],[-120.36522,51.887],[-120.36529,51.88695],[-120.36535,51.88691],[-120.36542,51.88687],[-120.36549,51.88683],[-120.36556,51.88678],[-120.36562,51.88673],[-120.36568,51.88669],[-120.36574,51.88664],[-120.36579,51.8866],[-120.36584,51.88656],[-120.36589,51.88652],[-120.36594,51.88648],[-120.36599,51.88644],[-120.36605,51.8864],[-120.36606,51.88639],[-120.36614,51.88634],[-120.36621,51.88627],[-120.36626,51.88623],[-120.36634,51.88617],[-120.36643,51.8861],[-120.36648,51.88606],[-120.36653,51.88603],[-120.36664,51.88597],[-120.36669,51.88594],[-120.36675,51.88591],[-120.36682,51.88588],[-120.36688,51.88584],[-120.36693,51.88582],[-120.367,51.88579],[-120.36706,51.88576],[-120.36717,51.88571],[-120.36728,51.88566],[-120.36734,51.88563],[-120.3674,51.8856],[-120.36746,51.88557],[-120.36752,51.88554],[-120.36757,51.88551],[-120.36763,51.88548],[-120.36769,51.88545],[-120.36774,51.88541],[-120.3678,51.88538],[-120.36786,51.88535],[-120.36792,51.88532],[-120.36799,51.88529],[-120.36805,51.88526],[-120.36811,51.88522],[-120.36817,51.88518],[-120.36823,51.88515],[-120.36829,51.88511],[-120.36835,51.88507],[-120.36842,51.88502],[-120.36847,51.88498],[-120.36855,51.88492],[-120.36864,51.88489],[-120.36871,51.88485],[-120.36878,51.88482],[-120.36885,51.88478],[-120.36893,51.88473],[-120.36898,51.88469],[-120.36903,51.88465],[-120.36909,51.88462],[-120.36915,51.88458],[-120.36921,51.88455],[-120.36928,51.88452],[-120.36934,51.88448],[-120.36937,51.88447],[-120.3694,51.88445],[-120.36947,51.88443],[-120.36953,51.8844],[-120.36959,51.88438],[-120.3697,51.88434],[-120.3698,51.88431],[-120.36991,51.88428],[-120.37003,51.88426],[-120.37013,51.88423],[-120.37026,51.88421],[-120.37038,51.88418],[-120.37049,51.88415],[-120.37059,51.88412],[-120.37068,51.88409],[-120.37075,51.88407],[-120.37083,51.88403],[-120.37091,51.884],[-120.37098,51.88396],[-120.37104,51.88394],[-120.3711,51.88391],[-120.37117,51.88389],[-120.37124,51.88387],[-120.37132,51.88386],[-120.37139,51.88385],[-120.37146,51.88384],[-120.37154,51.88383],[-120.37162,51.88383],[-120.37169,51.88382],[-120.37178,51.88381],[-120.37186,51.88381],[-120.37194,51.88381],[-120.372,51.88382],[-120.37206,51.88384],[-120.37213,51.88386],[-120.37221,51.88389],[-120.37228,51.88391],[-120.37236,51.88393],[-120.37243,51.88395],[-120.3725,51.88397],[-120.37258,51.88399],[-120.37259,51.884],[-120.37266,51.88401],[-120.37273,51.88403],[-120.37281,51.88404],[-120.37288,51.88405],[-120.37295,51.88407],[-120.37302,51.88408],[-120.3731,51.88411],[-120.37319,51.88412],[-120.37326,51.88413],[-120.37333,51.88415],[-120.3734,51.88417],[-120.37347,51.88418],[-120.37353,51.88421],[-120.37361,51.88422],[-120.37369,51.88425],[-120.37377,51.88426],[-120.3739,51.8843],[-120.37398,51.88432],[-120.37404,51.88435],[-120.3741,51.88438],[-120.37416,51.88443],[-120.37423,51.88446],[-120.37429,51.88449],[-120.37435,51.88451],[-120.37439,51.88455],[-120.37446,51.88459],[-120.37452,51.88461],[-120.37459,51.88463],[-120.37466,51.88465],[-120.37473,51.88467],[-120.37481,51.88469],[-120.37489,51.8847],[-120.37496,51.88471],[-120.37503,51.88472],[-120.37511,51.88474],[-120.37518,51.88476],[-120.37525,51.88478],[-120.37533,51.88479],[-120.3754,51.88481],[-120.37548,51.88483],[-120.37555,51.88485],[-120.37562,51.88487],[-120.3757,51.8849],[-120.37578,51.88489],[-120.37586,51.8849],[-120.37592,51.88493],[-120.37598,51.88496],[-120.37605,51.88498],[-120.37612,51.885],[-120.37619,51.88502],[-120.37626,51.88503],[-120.37635,51.88503],[-120.37642,51.88504],[-120.37649,51.88506],[-120.37656,51.88508],[-120.37666,51.8851],[-120.37673,51.88511],[-120.37679,51.88514],[-120.37686,51.88516],[-120.37693,51.88518],[-120.37698,51.88521],[-120.37706,51.88522],[-120.37713,51.88525],[-120.3772,51.88527],[-120.37726,51.8853],[-120.37733,51.88532],[-120.37739,51.88535],[-120.37747,51.88537],[-120.37752,51.88541],[-120.37758,51.88544],[-120.37765,51.88546],[-120.37771,51.88549],[-120.37777,51.88552],[-120.37784,51.88556],[-120.37789,51.8856],[-120.37795,51.88563],[-120.378,51.88566],[-120.37806,51.88569],[-120.37812,51.88573],[-120.37819,51.88575],[-120.37825,51.88578],[-120.37829,51.88582],[-120.37834,51.88585],[-120.37841,51.88588],[-120.37847,51.88591],[-120.37854,51.88593],[-120.37861,51.88595],[-120.37868,51.88597],[-120.37877,51.88597],[-120.37885,51.88598],[-120.37892,51.886],[-120.379,51.886],[-120.37907,51.886],[-120.37915,51.886],[-120.37923,51.88599],[-120.3793,51.88597],[-120.37938,51.88595],[-120.3794,51.88594],[-120.37944,51.88592],[-120.37951,51.8859],[-120.37958,51.88587],[-120.37964,51.88585],[-120.37971,51.88582],[-120.37977,51.8858],[-120.37984,51.88577],[-120.37989,51.88574],[-120.3799,51.88574],[-120.37995,51.88571],[-120.37997,51.8857],[-120.37999,51.88568],[-120.38002,51.88567],[-120.38007,51.88563],[-120.38011,51.8856],[-120.38014,51.88555],[-120.38019,51.88551],[-120.38024,51.88547],[-120.38028,51.88543],[-120.38033,51.88539],[-120.38038,51.88535],[-120.38042,51.8853],[-120.38047,51.88526],[-120.38051,51.88522],[-120.38056,51.88518],[-120.3806,51.88513],[-120.38064,51.88508],[-120.3807,51.88504],[-120.38074,51.885]]}},
{"type":"Feature","properties":{"spotId":"A-grouse-drive-0053","kind":"roadside","km":5.77,"climbM":412,"name":"780 m SW of Maury Lake","flags":[]},"geometry":{"type":"LineString","coordinates":[[-120.32063,51.86653],[-120.32072,51.86663],[-120.32081,51.86678],[-120.32104,51.86692],[-120.32167,51.86715],[-120.32211,51.86739],[-120.3224,51.86756],[-120.32272,51.86775],[-120.3229,51.86783],[-120.32307,51.86786],[-120.32327,51.86785],[-120.32349,51.86781],[-120.32396,51.86756],[-120.32447,51.86725],[-120.32471,51.86709],[-120.3248,51.86698],[-120.32503,51.86687],[-120.32559,51.86648],[-120.32579,51.86635],[-120.32639,51.86599],[-120.3271,51.86549],[-120.32722,51.86542],[-120.32769,51.86505],[-120.32791,51.86495],[-120.32839,51.86488],[-120.32866,51.86487],[-120.32898,51.86491],[-120.32948,51.865],[-120.32985,51.86506],[-120.33011,51.8651],[-120.33033,51.86512],[-120.33059,51.86516],[-120.33074,51.86519],[-120.33094,51.86525],[-120.33131,51.86545],[-120.33169,51.86563],[-120.332,51.86572],[-120.33249,51.86575],[-120.33304,51.86575],[-120.33345,51.86575],[-120.33359,51.86573],[-120.33378,51.86569],[-120.33405,51.86557],[-120.33435,51.86541],[-120.33463,51.86521],[-120.33479,51.86511],[-120.335,51.86507],[-120.33527,51.86508],[-120.33549,51.86513],[-120.33563,51.86524],[-120.33592,51.86544],[-120.33611,51.86556],[-120.33642,51.86579],[-120.33681,51.86615],[-120.3372,51.86656],[-120.33748,51.86682],[-120.33765,51.86695],[-120.33786,51.8672],[-120.33803,51.86746],[-120.33819,51.86765],[-120.33831,51.86777],[-120.33859,51.86797],[-120.33887,51.86813],[-120.33924,51.86829],[-120.33948,51.86837],[-120.33985,51.86846],[-120.34026,51.86853],[-120.34068,51.86863],[-120.34124,51.86879],[-120.3417,51.86891],[-120.34196,51.86892],[-120.34233,51.8689],[-120.3429,51.86885],[-120.34324,51.86881],[-120.34362,51.86871],[-120.34388,51.86857],[-120.34402,51.86847],[-120.3441,51.86835],[-120.34419,51.86818],[-120.34425,51.86808],[-120.34422,51.86791],[-120.34418,51.8678],[-120.34419,51.8677],[-120.34434,51.86743],[-120.34446,51.86723],[-120.3445,51.86701],[-120.34447,51.86682],[-120.34445,51.86654],[-120.34444,51.8663],[-120.34449,51.86607],[-120.34451,51.86583],[-120.34436,51.8653],[-120.34432,51.86511],[-120.34432,51.86492],[-120.34428,51.86475],[-120.34411,51.86458],[-120.34393,51.86439],[-120.3438,51.86416],[-120.34373,51.86394],[-120.34362,51.86369],[-120.34348,51.86345],[-120.3434,51.86325],[-120.34336,51.86305],[-120.34337,51.86291],[-120.3433,51.86274],[-120.34333,51.8626],[-120.34343,51.86247],[-120.34354,51.86238],[-120.34369,51.86233],[-120.3438,51.86227],[-120.34405,51.86225],[-120.34431,51.86219],[-120.34477,51.86201],[-120.3452,51.86185],[-120.34554,51.86166],[-120.34578,51.86154],[-120.34598,51.86142],[-120.34612,51.86134],[-120.34631,51.86119],[-120.3464,51.8609],[-120.34652,51.86064],[-120.34672,51.86047],[-120.34693,51.86037],[-120.34723,51.86031],[-120.34788,51.85996],[-120.34823,51.85979],[-120.3485,51.85966],[-120.34855,51.85962],[-120.34859,51.85954],[-120.34878,51.85937],[-120.34901,51.85903],[-120.34907,51.85888],[-120.34908,51.85875],[-120.34911,51.8586],[-120.34922,51.85851],[-120.34929,51.85847],[-120.3495,51.85846],[-120.34995,51.85846],[-120.3503,51.85844],[-120.3513,51.85856],[-120.352,51.85864],[-120.35269,51.85871],[-120.35321,51.8588],[-120.35341,51.85886],[-120.35377,51.85902],[-120.35402,51.85915],[-120.35414,51.85929],[-120.35426,51.85941],[-120.3545,51.85959],[-120.35473,51.85964],[-120.35501,51.85971],[-120.35549,51.8597],[-120.35579,51.85972],[-120.35598,51.85978],[-120.35652,51.86005],[-120.35681,51.86013],[-120.35719,51.86019],[-120.3576,51.86035],[-120.35798,51.86041],[-120.35823,51.86044],[-120.35839,51.86042],[-120.35869,51.86042],[-120.35909,51.86055],[-120.3594,51.8607],[-120.35954,51.86081],[-120.35971,51.86089],[-120.35999,51.86096],[-120.36037,51.86097],[-120.36113,51.86094],[-120.3614,51.8609],[-120.36172,51.86091],[-120.36245,51.86089],[-120.3628,51.86095],[-120.36303,51.86106],[-120.36326,51.86119],[-120.36353,51.86136],[-120.36363,51.86138],[-120.36374,51.86144],[-120.3648,51.86161],[-120.36542,51.86176],[-120.36596,51.86187],[-120.36629,51.86196],[-120.3669,51.86226],[-120.36726,51.8624],[-120.36778,51.86263],[-120.36819,51.86282],[-120.36851,51.86292],[-120.36869,51.86295],[-120.36894,51.86298],[-120.36926,51.86293],[-120.36965,51.86285],[-120.3701,51.86283],[-120.37069,51.86277],[-120.37111,51.86273],[-120.37157,51.86254],[-120.37186,51.86231],[-120.37218,51.86198],[-120.37228,51.86174],[-120.3724,51.86149],[-120.37255,51.86134],[-120.37273,51.86129],[-120.37288,51.86124],[-120.37335,51.86116],[-120.37398,51.8611],[-120.37423,51.86105],[-120.37444,51.86098],[-120.37459,51.8609],[-120.37478,51.86088],[-120.37489,51.86087],[-120.37501,51.86088],[-120.37511,51.86089],[-120.37521,51.86095],[-120.3753,51.86106],[-120.37548,51.86113],[-120.37578,51.86119],[-120.37596,51.8612],[-120.37612,51.86119],[-120.37629,51.86118],[-120.37638,51.86122],[-120.37648,51.86131],[-120.37649,51.86133],[-120.37653,51.86137],[-120.37661,51.86163],[-120.37687,51.86191],[-120.37703,51.86203],[-120.37786,51.8624],[-120.37832,51.86259],[-120.37859,51.86264]]}},
{"type":"Feature","properties":{"spotId":"A-grouse-drive-0083","kind":"roadside","km":3.49,"climbM":186,"name":"2.2 km SE of Mahood Lake","flags":[]},"geometry":{"type":"LineString","coordinates":[[-120.33674,51.89924],[-120.33635,51.89929],[-120.33564,51.89936],[-120.33542,51.89942],[-120.33528,51.89949],[-120.33519,51.89957],[-120.3351,51.8997],[-120.33501,51.89983],[-120.33491,51.89993],[-120.33483,51.9],[-120.33472,51.90005],[-120.33459,51.90007],[-120.33447,51.90008],[-120.33434,51.90006],[-120.33428,51.90003],[-120.33423,51.89997],[-120.33422,51.8999],[-120.33422,51.89981],[-120.33425,51.89948],[-120.33424,51.89937],[-120.33421,51.89929],[-120.33415,51.89919],[-120.33407,51.89912],[-120.33374,51.8989],[-120.3335,51.89877],[-120.33327,51.89866],[-120.33317,51.89858],[-120.33306,51.89848],[-120.33288,51.89831],[-120.33273,51.8982],[-120.33254,51.89811],[-120.33199,51.89789],[-120.33174,51.89781],[-120.33142,51.8977],[-120.33111,51.89761],[-120.33088,51.89756],[-120.33068,51.89752],[-120.33057,51.89746],[-120.33049,51.89737],[-120.33038,51.89726],[-120.33026,51.89713],[-120.33004,51.89691],[-120.32986,51.89676],[-120.32968,51.89662],[-120.32931,51.89637],[-120.32913,51.89625],[-120.32884,51.89609],[-120.32862,51.896],[-120.32842,51.8959],[-120.32817,51.89578],[-120.32798,51.89569],[-120.32779,51.89561],[-120.32761,51.89557],[-120.32736,51.89556],[-120.32631,51.89552],[-120.32588,51.89552],[-120.32561,51.89552],[-120.32542,51.8955],[-120.32526,51.89548],[-120.32481,51.8954],[-120.32456,51.89536],[-120.32435,51.89535],[-120.32418,51.89537],[-120.32387,51.89537],[-120.32359,51.89537],[-120.32343,51.89538],[-120.32331,51.8954],[-120.32294,51.89543],[-120.32278,51.89544],[-120.32254,51.89546],[-120.32231,51.89552],[-120.32221,51.89553],[-120.32207,51.89553],[-120.3219,51.89552],[-120.32175,51.89551],[-120.32166,51.89547],[-120.32158,51.89542],[-120.32143,51.89537],[-120.32122,51.89528],[-120.32096,51.89515],[-120.3207,51.89502],[-120.32047,51.89492],[-120.32034,51.89484],[-120.32021,51.89476],[-120.32004,51.89465],[-120.31989,51.89452],[-120.31976,51.8944],[-120.31968,51.8943],[-120.31955,51.89419],[-120.31937,51.89404],[-120.31925,51.89393],[-120.3191,51.89378],[-120.31899,51.89363],[-120.31893,51.89354],[-120.31886,51.89337],[-120.3188,51.89326],[-120.31874,51.89318],[-120.31869,51.89314],[-120.31857,51.89304],[-120.31839,51.89291],[-120.31818,51.89278],[-120.31727,51.8923],[-120.31706,51.8922],[-120.31689,51.89212],[-120.31672,51.89207],[-120.31654,51.89204],[-120.31638,51.89204],[-120.31623,51.89206],[-120.3161,51.89212],[-120.31592,51.89226],[-120.31582,51.8923],[-120.31568,51.89234],[-120.31551,51.89236],[-120.31533,51.89236],[-120.3146,51.89233],[-120.31439,51.89233],[-120.31421,51.89235],[-120.31399,51.89238],[-120.31381,51.89239],[-120.31323,51.89234],[-120.31318,51.89233],[-120.31315,51.89233],[-120.3129,51.89232],[-120.31274,51.89229],[-120.31254,51.89227],[-120.31234,51.89227],[-120.31213,51.89226],[-120.31193,51.89226],[-120.31158,51.89227],[-120.31148,51.89226],[-120.31135,51.89223],[-120.31124,51.8922],[-120.31097,51.89212],[-120.31084,51.89209],[-120.31072,51.89208],[-120.31059,51.89208],[-120.31036,51.89207],[-120.31022,51.89209],[-120.31011,51.89212],[-120.31,51.89214],[-120.30989,51.89215],[-120.30979,51.89215],[-120.30962,51.89213],[-120.30929,51.8921],[-120.30904,51.89209],[-120.3085,51.89209],[-120.30838,51.8921],[-120.30816,51.89215],[-120.30772,51.89227],[-120.30727,51.89234],[-120.30694,51.89238],[-120.30664,51.89243],[-120.30634,51.89246],[-120.30608,51.89248],[-120.30584,51.89248],[-120.30564,51.8925],[-120.30541,51.89253],[-120.30508,51.89259],[-120.30484,51.89262],[-120.30468,51.89262],[-120.30441,51.89263],[-120.3042,51.8926],[-120.30397,51.89257],[-120.30375,51.89255],[-120.30349,51.89255],[-120.30328,51.89258],[-120.30306,51.89262],[-120.30268,51.8927],[-120.30237,51.89278],[-120.30209,51.89286],[-120.30197,51.8929],[-120.30174,51.89295],[-120.30159,51.89297],[-120.30137,51.89303],[-120.30122,51.8931],[-120.30107,51.89319],[-120.30092,51.8933],[-120.30077,51.89342],[-120.30064,51.89354],[-120.30052,51.89363],[-120.30034,51.89373],[-120.30019,51.89379],[-120.30006,51.89384],[-120.29994,51.89386],[-120.29976,51.89389],[-120.29967,51.89389],[-120.29958,51.89389],[-120.29941,51.89389],[-120.29901,51.89387],[-120.2988,51.89388],[-120.29865,51.8939],[-120.29807,51.89406],[-120.29789,51.89413],[-120.29773,51.89419],[-120.29756,51.89428],[-120.29743,51.89437],[-120.29724,51.8945],[-120.29705,51.89459],[-120.29647,51.89489],[-120.2963,51.89498],[-120.29621,51.89505],[-120.29616,51.89509],[-120.29603,51.89529],[-120.29596,51.8954],[-120.29586,51.89547],[-120.29577,51.89552],[-120.29566,51.89555],[-120.29549,51.89555],[-120.29522,51.89553]]}},
{"type":"Feature","properties":{"spotId":"A-moose-atv-0011","kind":"ride","km":4.16,"climbM":118,"name":"1.6 km E of Italia Lake","flags":[]},"geometry":{"type":"LineString","coordinates":[[-120.36635,51.82644],[-120.36623,51.82612],[-120.36614,51.82588],[-120.36607,51.82579],[-120.36589,51.82563],[-120.36554,51.82542],[-120.3652,51.82538],[-120.36488,51.82539],[-120.364,51.82542],[-120.3639,51.82542],[-120.36344,51.82545],[-120.36329,51.82544],[-120.36317,51.8254],[-120.363,51.82534],[-120.36279,51.82534],[-120.36262,51.82536],[-120.3622,51.82547],[-120.36198,51.82547],[-120.36168,51.82544],[-120.36136,51.82539],[-120.36092,51.82525],[-120.36013,51.82504],[-120.35994,51.82499],[-120.35977,51.82493],[-120.35969,51.82487],[-120.35963,51.82477],[-120.35952,51.8247],[-120.35943,51.82465],[-120.35928,51.82461],[-120.35915,51.82455],[-120.35898,51.82445],[-120.35886,51.82435],[-120.35868,51.82428],[-120.35862,51.82428],[-120.35814,51.82431],[-120.35749,51.82431],[-120.35682,51.82422],[-120.35612,51.82421],[-120.35542,51.82424],[-120.35509,51.82436],[-120.35523,51.82435],[-120.35544,51.8244],[-120.35564,51.82449],[-120.35566,51.82463],[-120.35555,51.82477],[-120.35526,51.8249],[-120.35498,51.82504],[-120.35476,51.8252],[-120.35449,51.82542],[-120.35423,51.82564],[-120.35401,51.8258],[-120.35365,51.82597],[-120.35331,51.82615],[-120.35304,51.82641],[-120.35292,51.82662],[-120.35291,51.82676],[-120.35296,51.82691],[-120.35323,51.82715],[-120.35367,51.82758],[-120.35407,51.828],[-120.35423,51.82827],[-120.35431,51.8285],[-120.35438,51.82864],[-120.35444,51.8288],[-120.35464,51.82902],[-120.35482,51.82914],[-120.35522,51.82925],[-120.35549,51.82931],[-120.35564,51.82938],[-120.35581,51.82946],[-120.35595,51.82966],[-120.35598,51.82987],[-120.356,51.82999],[-120.35625,51.83027],[-120.35645,51.83043],[-120.35674,51.83076],[-120.35709,51.83092],[-120.35746,51.83106],[-120.35775,51.83122],[-120.3579,51.83135],[-120.35796,51.83143],[-120.35799,51.83156],[-120.35791,51.83168],[-120.35774,51.83174],[-120.35753,51.83173],[-120.35732,51.83163],[-120.35709,51.83147],[-120.35663,51.83125],[-120.35619,51.83124],[-120.35579,51.83133],[-120.35503,51.83156],[-120.35471,51.83168],[-120.35439,51.8319],[-120.35418,51.83219],[-120.35409,51.8325],[-120.35408,51.83282],[-120.35415,51.83296],[-120.3544,51.83319],[-120.35465,51.83339],[-120.35488,51.83354],[-120.35525,51.8338],[-120.35577,51.83422],[-120.35597,51.83434],[-120.35603,51.83435],[-120.35604,51.83447],[-120.356,51.83478],[-120.35599,51.8348],[-120.35587,51.83506],[-120.35587,51.83525],[-120.35603,51.83548],[-120.35615,51.83579],[-120.35608,51.83604],[-120.35592,51.83619],[-120.35556,51.8363],[-120.35525,51.83633],[-120.35512,51.8364],[-120.35496,51.83645],[-120.3548,51.83648],[-120.35469,51.83649],[-120.35462,51.83651],[-120.3545,51.83658],[-120.35443,51.8366],[-120.35435,51.8367],[-120.35431,51.83681],[-120.35427,51.83697],[-120.35425,51.83703],[-120.35426,51.83707],[-120.35426,51.83716],[-120.35424,51.83721],[-120.35424,51.83727],[-120.35421,51.83734],[-120.3542,51.83739],[-120.35416,51.83742],[-120.35412,51.83749],[-120.35409,51.83753],[-120.35412,51.83756],[-120.35408,51.83764],[-120.35397,51.83772],[-120.35387,51.8378],[-120.35379,51.83785],[-120.35369,51.83789],[-120.35348,51.83797],[-120.35339,51.83801],[-120.35328,51.83808],[-120.35313,51.83816],[-120.35302,51.83821],[-120.35294,51.83827],[-120.35284,51.83832],[-120.35282,51.83836],[-120.35279,51.83841],[-120.35267,51.8385],[-120.35262,51.83854],[-120.35258,51.83862],[-120.35256,51.83869],[-120.35254,51.83877],[-120.35253,51.83886],[-120.35258,51.83896],[-120.35266,51.83902],[-120.3527,51.83907],[-120.35275,51.83911],[-120.35278,51.83914],[-120.3529,51.83916],[-120.35308,51.83921],[-120.3532,51.83923],[-120.35346,51.83927],[-120.35362,51.83929],[-120.35377,51.83929],[-120.35384,51.83927],[-120.3539,51.83927],[-120.35402,51.83932],[-120.35417,51.83941],[-120.35431,51.8395],[-120.35447,51.83957],[-120.35461,51.83963],[-120.35467,51.83967],[-120.35476,51.83973],[-120.35485,51.8398],[-120.35489,51.83983],[-120.35492,51.83987],[-120.35495,51.83992],[-120.35497,51.84002],[-120.35497,51.8401],[-120.355,51.8402],[-120.35503,51.84029],[-120.35505,51.84039],[-120.35505,51.84055],[-120.35507,51.8407],[-120.3551,51.84079],[-120.35512,51.84089],[-120.35514,51.841],[-120.35517,51.84105],[-120.35527,51.84125],[-120.35532,51.84134],[-120.35535,51.84139],[-120.35547,51.84141],[-120.35563,51.84142],[-120.3558,51.84143],[-120.35604,51.84147],[-120.35618,51.8415],[-120.35648,51.84151],[-120.35657,51.84152],[-120.35689,51.84151],[-120.35704,51.84153],[-120.35709,51.84154],[-120.35715,51.84157],[-120.35731,51.84171],[-120.35755,51.8419],[-120.35766,51.84199],[-120.35773,51.84204],[-120.35778,51.84207],[-120.35788,51.84211],[-120.35843,51.84228],[-120.35892,51.84244],[-120.35917,51.8425],[-120.35931,51.84249],[-120.35943,51.84248],[-120.35957,51.84244],[-120.35966,51.84243],[-120.35997,51.84249],[-120.36014,51.84254],[-120.36028,51.8426],[-120.36042,51.84269],[-120.3605,51.84273],[-120.36061,51.84274],[-120.36074,51.84277],[-120.36085,51.84281],[-120.36097,51.84283],[-120.36118,51.84285],[-120.36138,51.84287],[-120.36161,51.84289],[-120.36178,51.84296],[-120.36207,51.84313],[-120.36215,51.84318],[-120.36239,51.84341],[-120.36245,51.84345]]}},
{"type":"Feature","properties":{"spotId":"A-moose-atv-0011","kind":"walk","km":0.25,"climbM":3,"name":"1.6 km E of Italia Lake","flags":[]},"geometry":{"type":"LineString","coordinates":[[-120.36245,51.84345],[-120.36331,51.84561]]}},
{"type":"Feature","properties":{"spotId":"A-moose-drive-0013","kind":"walk","km":0.04,"climbM":0,"name":"1.6 km N of East Maury Lake rec site","flags":[]},"geometry":{"type":"LineString","coordinates":[[-120.28392,51.89946],[-120.28338,51.89946]]}},
{"type":"Feature","properties":{"spotId":"A-moose-drive-0015","kind":"walk","km":0.09,"climbM":0,"name":"780 m E of East Maury Lake rec site","flags":[]},"geometry":{"type":"LineString","coordinates":[[-120.27635,51.88651],[-120.27605,51.88572]]}},
{"type":"Feature","properties":{"spotId":"A-moose-drive-0021","kind":"walk","km":0.06,"climbM":0,"name":"330 m NW of Mann Creek","flags":[]},"geometry":{"type":"LineString","coordinates":[[-120.31361,51.75197],[-120.31411,51.75242]]}},
{"type":"Feature","properties":{"spotId":"A-moose-walk-0030","kind":"walk","km":0.34,"climbM":3,"name":"380 m NE of Canimred Creek","flags":[]},"geometry":{"type":"LineString","coordinates":[[-120.48633,51.74929],[-120.48758,51.7522]]}},
{"type":"Feature","properties":{"spotId":"A-moose-walk-0037","kind":"walk","km":0.74,"climbM":2,"name":"2.4 km NE of East Maury Lake rec site","flags":[]},"geometry":{"type":"LineString","coordinates":[[-120.25156,51.89155],[-120.25144,51.8931],[-120.25138,51.89399],[-120.25761,51.89567]]}},
{"type":"Feature","properties":{"spotId":"A-moose-walk-0039","kind":"walk","km":0.39,"climbM":4,"name":"1.3 km SE of East Maury Lake rec site","flags":[]},"geometry":{"type":"LineString","coordinates":[[-120.27489,51.88082],[-120.2719,51.87786]]}}
]}
