{"type":"FeatureCollection","features":[
{"type":"Feature","properties":{"spotId":"A-deer-atv-0135","kind":"ride","km":1.87,"climbM":152,"name":"2.2 km N of Bridge Lake","flags":["Route crosses private land (ParcelMap BC, updated 2026-09-25): get permission first or go around."]},"geometry":{"type":"LineString","coordinates":[[-120.7448,51.53217],[-120.74476,51.53219],[-120.74446,51.53238],[-120.74444,51.53239],[-120.74437,51.53241],[-120.74427,51.53243],[-120.74384,51.53252],[-120.74348,51.53252],[-120.74311,51.53255],[-120.74294,51.53258],[-120.74255,51.5327],[-120.74249,51.53275],[-120.74242,51.53279],[-120.74236,51.53284],[-120.74231,51.53307],[-120.74239,51.5333],[-120.74247,51.53359],[-120.74258,51.53369],[-120.74266,51.53382],[-120.74273,51.53392],[-120.74271,51.53398],[-120.74253,51.53404],[-120.74219,51.5342],[-120.74179,51.5343],[-120.74161,51.53431],[-120.74154,51.53435],[-120.74151,51.5344],[-120.74145,51.53445],[-120.74133,51.53446],[-120.74088,51.53454],[-120.74053,51.5346],[-120.74014,51.53463],[-120.73975,51.53468],[-120.73937,51.53477],[-120.73896,51.53481],[-120.73873,51.53482],[-120.7386,51.53482],[-120.73849,51.53485],[-120.7384,51.5349],[-120.73826,51.53494],[-120.73819,51.53499],[-120.73803,51.53523],[-120.73792,51.5355],[-120.73781,51.5357],[-120.73776,51.53575],[-120.73756,51.53602],[-120.73715,51.53614],[-120.73681,51.53632],[-120.73662,51.53639],[-120.73643,51.53644],[-120.73606,51.53657],[-120.73602,51.53659],[-120.73593,51.53661],[-120.73551,51.53661],[-120.73515,51.53661],[-120.73468,51.53663],[-120.7346,51.53667],[-120.7344,51.53672],[-120.734,51.53682],[-120.73394,51.53687],[-120.73382,51.5371],[-120.73381,51.53733],[-120.73381,51.53756],[-120.73381,51.53761],[-120.73381,51.53763],[-120.7338,51.53773],[-120.73374,51.53778],[-120.73365,51.53781],[-120.73345,51.53784],[-120.73304,51.53786],[-120.73267,51.53792],[-120.73256,51.53794],[-120.7324,51.53799],[-120.732,51.53803],[-120.73191,51.53804],[-120.73169,51.53804],[-120.73133,51.53806],[-120.73121,51.5381],[-120.73099,51.53818],[-120.73073,51.5382],[-120.73065,51.53822],[-120.73049,51.53823],[-120.7304,51.53824],[-120.73021,51.53831],[-120.72999,51.53833],[-120.72957,51.53838],[-120.7295,51.53841],[-120.72912,51.53844],[-120.72873,51.5385],[-120.72832,51.53859],[-120.72809,51.53862],[-120.7277,51.53868],[-120.72761,51.5387],[-120.72724,51.53885],[-120.7272,51.53888],[-120.72703,51.53897],[-120.72683,51.53903],[-120.72674,51.53903],[-120.72655,51.53913],[-120.72633,51.53917],[-120.72596,51.53929],[-120.72585,51.53932],[-120.72548,51.53936],[-120.72518,51.53943],[-120.72509,51.53945],[-120.72474,51.5395],[-120.72442,51.5396],[-120.7243,51.53964]]}},
{"type":"Feature","properties":{"spotId":"A-deer-atv-0135","kind":"walk","km":0.3,"climbM":40,"name":"2.2 km N of Bridge Lake","flags":["Route crosses private land (ParcelMap BC, updated 2026-09-25): get permission first or go around."]},"geometry":{"type":"LineString","coordinates":[[-120.7243,51.53964],[-120.72626,51.542]]}},
{"type":"Feature","properties":{"spotId":"A-deer-atv-0140","kind":"ride","km":1.31,"climbM":8,"name":"780 m S of West King Lake","flags":[]},"geometry":{"type":"LineString","coordinates":[[-120.62815,51.54647],[-120.62796,51.54646],[-120.62768,51.54651],[-120.62758,51.54654],[-120.62729,51.54656],[-120.62697,51.54657],[-120.62679,51.54661],[-120.62672,51.54661],[-120.62639,51.54665],[-120.62621,51.54668],[-120.6262,51.54668],[-120.62595,51.54673],[-120.62583,51.54676],[-120.62566,51.54681],[-120.62548,51.54687],[-120.62513,51.54707],[-120.62489,51.54723],[-120.62474,51.54736],[-120.62468,51.5474],[-120.62432,51.54758],[-120.62401,51.54768],[-120.6237,51.54779],[-120.62335,51.54789],[-120.62315,51.54795],[-120.62294,51.54797],[-120.62267,51.54803],[-120.62239,51.54811],[-120.6223,51.54814],[-120.62204,51.54819],[-120.62195,51.5482],[-120.62192,51.54821],[-120.62163,51.54821],[-120.6213,51.54818],[-120.6212,51.54817],[-120.62095,51.54807],[-120.62089,51.54804],[-120.62082,51.54801],[-120.62058,51.54788],[-120.6203,51.54782],[-120.61997,51.54775],[-120.61969,51.54768],[-120.61936,51.54756],[-120.61909,51.54748],[-120.61892,51.54741],[-120.61888,51.54739],[-120.61881,51.54736],[-120.61878,51.54735],[-120.61856,51.54731],[-120.61823,51.54734],[-120.618,51.54737],[-120.61793,51.54738],[-120.61784,51.5474],[-120.61768,51.54742],[-120.61737,51.54745],[-120.61709,51.54745],[-120.61678,51.54742],[-120.61651,51.54739],[-120.61621,51.54733],[-120.61604,51.54728],[-120.61577,51.54719],[-120.61549,51.54703],[-120.6152,51.54683],[-120.61494,51.54664],[-120.61487,51.54657],[-120.61459,51.54641],[-120.61438,51.54625],[-120.61416,51.54607],[-120.61413,51.54605],[-120.61403,51.54602],[-120.61372,51.54587],[-120.61345,51.54581],[-120.61318,51.54573],[-120.61288,51.54563],[-120.61263,51.54556],[-120.61237,51.54549],[-120.61217,51.54543],[-120.61186,51.54539],[-120.61176,51.54537],[-120.61166,51.54537]]}},
{"type":"Feature","properties":{"spotId":"A-deer-atv-0140","kind":"walk","km":0.04,"climbM":0,"name":"780 m S of West King Lake","flags":[]},"geometry":{"type":"LineString","coordinates":[[-120.62815,51.54647],[-120.62821,51.5461]]}},
{"type":"Feature","properties":{"spotId":"A-deer-atv-0145","kind":"ride","km":8.56,"climbM":155,"name":"2.0 km N of Otter Lake","flags":[]},"geometry":{"type":"LineString","coordinates":[[-120.75067,51.56728],[-120.75065,51.56718],[-120.75066,51.56688],[-120.75068,51.56677],[-120.75077,51.56637],[-120.75082,51.56609],[-120.75086,51.56587],[-120.75086,51.56582],[-120.75082,51.56576],[-120.75052,51.5656],[-120.75042,51.56558],[-120.74971,51.56541],[-120.7496,51.56537],[-120.74953,51.56532],[-120.7495,51.56527],[-120.74924,51.56502],[-120.74917,51.56498],[-120.74908,51.56474],[-120.74895,51.56453],[-120.74874,51.56432],[-120.74872,51.56405],[-120.74864,51.56377],[-120.74855,51.56354],[-120.74837,51.56333],[-120.74803,51.56323],[-120.7476,51.5632],[-120.74715,51.56319],[-120.74696,51.5632],[-120.74679,51.56321],[-120.74636,51.56321],[-120.74599,51.56323],[-120.74559,51.56323],[-120.74537,51.56324],[-120.745,51.56319],[-120.74463,51.56312],[-120.74414,51.56305],[-120.7439,51.56303],[-120.74374,51.56294],[-120.74326,51.56282],[-120.74319,51.56278],[-120.74287,51.56272],[-120.74266,51.56266],[-120.74247,51.56264],[-120.74229,51.56258],[-120.74215,51.56255],[-120.74205,51.56253],[-120.74166,51.56243],[-120.74125,51.56234],[-120.74087,51.5623],[-120.74052,51.56227],[-120.74014,51.56226],[-120.73977,51.56226],[-120.73935,51.56225],[-120.73902,51.56224],[-120.73893,51.56224],[-120.73879,51.56224],[-120.73838,51.56224],[-120.73795,51.56224],[-120.73749,51.5622],[-120.73709,51.56217],[-120.73666,51.56212],[-120.73622,51.56212],[-120.73583,51.56211],[-120.73565,51.56207],[-120.73529,51.56204],[-120.73516,51.56202],[-120.73496,51.56194],[-120.7346,51.56188],[-120.73422,51.56183],[-120.73415,51.56182],[-120.73379,51.56182],[-120.73371,51.56181],[-120.73327,51.56181],[-120.73291,51.56182],[-120.73248,51.56186],[-120.73232,51.56193],[-120.73209,51.56194],[-120.73195,51.56194],[-120.73154,51.56197],[-120.73115,51.56202],[-120.7307,51.56209],[-120.73032,51.5622],[-120.72994,51.56233],[-120.72979,51.5624],[-120.7296,51.56249],[-120.72926,51.56258],[-120.72882,51.56268],[-120.72852,51.56289],[-120.72823,51.56297],[-120.72784,51.56307],[-120.72745,51.56319],[-120.72734,51.56319],[-120.72699,51.56324],[-120.72652,51.56337],[-120.72645,51.5634],[-120.72606,51.56348],[-120.72569,51.5636],[-120.72533,51.56363],[-120.72516,51.56358],[-120.72489,51.56339],[-120.72478,51.56329],[-120.72467,51.56321],[-120.72456,51.56311],[-120.72449,51.56303],[-120.72445,51.56299],[-120.72443,51.56288],[-120.72439,51.56275],[-120.7244,51.56218],[-120.72444,51.56193],[-120.72446,51.56166],[-120.72446,51.56112],[-120.72442,51.5606],[-120.72436,51.56037],[-120.72411,51.5599],[-120.72389,51.55973],[-120.72374,51.55947],[-120.72351,51.55922],[-120.72317,51.55877],[-120.72284,51.5586],[-120.72283,51.55848],[-120.72251,51.55814],[-120.72198,51.55774],[-120.72177,51.55762],[-120.72139,51.55747],[-120.72107,51.55729],[-120.7205,51.55692],[-120.71981,51.55654],[-120.71971,51.55653],[-120.71906,51.55627],[-120.71833,51.55607],[-120.71799,51.55592],[-120.7177,51.55573],[-120.71763,51.55566],[-120.71729,51.55556],[-120.71687,51.55537],[-120.71677,51.55534],[-120.71641,51.55531],[-120.71556,51.55533],[-120.71461,51.55544],[-120.71418,51.55544],[-120.71395,51.55543],[-120.71391,51.55543],[-120.71379,51.55543],[-120.71343,51.55539],[-120.71327,51.55537],[-120.71299,51.55533],[-120.71254,51.55525],[-120.71236,51.55518],[-120.7122,51.55511],[-120.71189,51.55499],[-120.7116,51.55485],[-120.71138,51.55465],[-120.71122,51.55456],[-120.71096,51.55437],[-120.71092,51.55432],[-120.71083,51.55428],[-120.71047,51.55413],[-120.71014,51.55399],[-120.70995,51.55396],[-120.70981,51.55396],[-120.70977,51.55396],[-120.70946,51.55398],[-120.70933,51.55399],[-120.70923,51.55398],[-120.70916,51.55398],[-120.70873,51.55399],[-120.70829,51.554],[-120.70821,51.55402],[-120.70812,51.55404],[-120.70785,51.55414],[-120.70768,51.55415],[-120.70752,51.55423],[-120.70719,51.55443],[-120.7071,51.55446],[-120.70685,51.55456],[-120.70672,51.55461],[-120.70663,51.55466],[-120.70633,51.55482],[-120.70607,51.55484],[-120.70595,51.55498],[-120.70579,51.5552],[-120.70572,51.55544],[-120.70567,51.55569],[-120.70563,51.55596],[-120.7054,51.55619],[-120.70517,51.55643],[-120.70514,51.55648],[-120.70498,51.55668],[-120.70484,51.55692],[-120.70459,51.5571],[-120.70426,51.55735],[-120.70398,51.55735],[-120.70384,51.55736],[-120.70343,51.55743],[-120.70331,51.55755],[-120.703,51.55773],[-120.70269,51.55792],[-120.70247,51.55799],[-120.70211,51.55817],[-120.70202,51.55823],[-120.70181,51.55838],[-120.70158,51.55859],[-120.70154,51.55867],[-120.70144,51.5589],[-120.70135,51.55915],[-120.70116,51.55935],[-120.70092,51.55954],[-120.7009,51.55958],[-120.70079,51.55978],[-120.70073,51.55983],[-120.70053,51.56002],[-120.70022,51.56013],[-120.70018,51.56015],[-120.69973,51.56017],[-120.69934,51.56017],[-120.69892,51.56015],[-120.69854,51.56025],[-120.6985,51.56026],[-120.69837,51.56029],[-120.69797,51.56037],[-120.6976,51.56036],[-120.69727,51.56028],[-120.6971,51.56026],[-120.69691,51.56026],[-120.69664,51.56031],[-120.69653,51.56034],[-120.69634,51.56039],[-120.69608,51.56045],[-120.69576,51.56056],[-120.69545,51.5607],[-120.69515,51.56088],[-120.69491,51.56103],[-120.69482,51.56114],[-120.69461,51.56134],[-120.69442,51.56156],[-120.69436,51.56167],[-120.69428,51.56179],[-120.69413,51.562],[-120.69401,51.56222],[-120.694,51.5623],[-120.69394,51.56244],[-120.69386,51.56268],[-120.69355,51.56289],[-120.69332,51.56307],[-120.69292,51.5633],[-120.69277,51.56336],[-120.6926,51.56342],[-120.6922,51.56353],[-120.69208,51.56356],[-120.69179,51.56363],[-120.6914,51.56364],[-120.69132,51.56363],[-120.6909,51.5636],[-120.69071,51.56354],[-120.69038,51.5634],[-120.69007,51.56323],[-120.68969,51.5632],[-120.68927,51.5632],[-120.68899,51.5632],[-120.6887,51.56334],[-120.6884,51.56342],[-120.68827,51.56347],[-120.68808,51.56352],[-120.68772,51.56362],[-120.68745,51.56369],[-120.68737,51.56373],[-120.68724,51.56384],[-120.68692,51.56404],[-120.68657,51.56422],[-120.68631,51.56445],[-120.68616,51.56454],[-120.68588,51.5647],[-120.68567,51.56476],[-120.68531,51.56491],[-120.68492,51.56509],[-120.68456,51.56513],[-120.68418,51.56512],[-120.68395,51.56513],[-120.68387,51.56514],[-120.68343,51.5652],[-120.68309,51.56529],[-120.68285,51.56531],[-120.68269,51.56533],[-120.68233,51.56517],[-120.68218,51.56514],[-120.68215,51.56513],[-120.68197,51.56506],[-120.68188,51.56505],[-120.6817,51.56495],[-120.68164,51.56492],[-120.68151,51.56474],[-120.68136,51.56455],[-120.68119,51.56444],[-120.68102,51.56437],[-120.68099,51.56436],[-120.68079,51.56431],[-120.68046,51.56429],[-120.68017,51.5643],[-120.67995,51.56434],[-120.67967,51.56447],[-120.67961,51.56448],[-120.67931,51.56442],[-120.67919,51.56436],[-120.67901,51.56416],[-120.67892,51.56395],[-120.67877,51.56379],[-120.6785,51.5636],[-120.67821,51.5634],[-120.67799,51.56325],[-120.67765,51.56308],[-120.67754,51.56299],[-120.67747,51.56295],[-120.67733,51.56284],[-120.67729,51.56278],[-120.67704,51.56257],[-120.67684,51.56236],[-120.67667,51.56218],[-120.67663,51.56214],[-120.67651,51.56192],[-120.67638,51.56174],[-120.67626,51.56156],[-120.67614,51.56136],[-120.67602,51.56115],[-120.67601,51.56111],[-120.67594,51.56096],[-120.67585,51.56075],[-120.67579,51.56058],[-120.67578,51.56051],[-120.6757,51.56039],[-120.67563,51.56029],[-120.67555,51.5602],[-120.6753,51.56002],[-120.67506,51.55985],[-120.67491,51.55972],[-120.67483,51.55951],[-120.67481,51.55941],[-120.67478,51.55933],[-120.67479,51.55912],[-120.6748,51.55894],[-120.67482,51.55887],[-120.67492,51.5587],[-120.67494,51.55858],[-120.67499,51.55847],[-120.67502,51.55834],[-120.6751,51.55819],[-120.67512,51.55804],[-120.67528,51.55785],[-120.67539,51.55764],[-120.67546,51.55746],[-120.67555,51.5573],[-120.6756,51.55712],[-120.67569,51.55692],[-120.67574,51.55676],[-120.67574,51.5567],[-120.67582,51.55653],[-120.67582,51.55647],[-120.67584,51.55646],[-120.67585,51.55633],[-120.67591,51.55613],[-120.67594,51.55596],[-120.67593,51.55589],[-120.67597,51.55578],[-120.67597,51.55556],[-120.67597,51.55539],[-120.67596,51.55517],[-120.67597,51.55497],[-120.67597,51.55496],[-120.67597,51.55476],[-120.67594,51.55456],[-120.67589,51.5544],[-120.67587,51.55418],[-120.67585,51.55398],[-120.67583,51.55379],[-120.67582,51.55364],[-120.67583,51.55361],[-120.67588,51.55346],[-120.67603,51.55337],[-120.67625,51.55325],[-120.67654,51.55324],[-120.67683,51.55322],[-120.6769,51.55321],[-120.67716,51.55317],[-120.67736,51.55312],[-120.67772,51.55291],[-120.67798,51.55273],[-120.67822,51.55255],[-120.6785,51.55234],[-120.6787,51.55215],[-120.67888,51.55194],[-120.679,51.55181],[-120.67908,51.55173],[-120.67935,51.55152],[-120.6796,51.55134],[-120.67986,51.55117],[-120.68007,51.55096],[-120.6802,51.55077],[-120.68021,51.55072],[-120.68026,51.55064],[-120.68029,51.55051]]}},
{"type":"Feature","properties":{"spotId":"A-deer-atv-0145","kind":"walk","km":0.2,"climbM":0,"name":"2.0 km N of Otter Lake","flags":[]},"geometry":{"type":"LineString","coordinates":[[-120.68029,51.55051],[-120.6831,51.55071]]}},
{"type":"Feature","properties":{"spotId":"A-deer-drive-0132","kind":"walk","km":0.13,"climbM":23,"name":"280 m N of Otter Lake","flags":[]},"geometry":{"type":"LineString","coordinates":[[-120.6708,51.53341],[-120.67025,51.53449]]}},
{"type":"Feature","properties":{"spotId":"A-deer-walk-0185","kind":"walk","km":0.47,"climbM":61,"name":"1.1 km NW of Otter Lake","flags":["Route crosses private land (ParcelMap BC, updated 2026-09-25): get permission first or go around."]},"geometry":{"type":"LineString","coordinates":[[-120.70224,51.53348],[-120.70706,51.5365]]}},
{"type":"Feature","properties":{"spotId":"A-deer-walk-0186","kind":"walk","km":0.48,"climbM":94,"name":"650 m N of Otter Lake","flags":[]},"geometry":{"type":"LineString","coordinates":[[-120.67259,51.53377],[-120.67048,51.53785]]}},
{"type":"Feature","properties":{"spotId":"A-duck-drive-0012","kind":"walk","km":0.02,"climbM":0,"name":"Unnamed lake 560 m W of Lac des Roches","flags":[]},"geometry":{"type":"LineString","coordinates":[[-120.62322,51.50158],[-120.62322,51.50143]]}},
{"type":"Feature","properties":{"spotId":"A-duck-drive-0019","kind":"walk","km":0.24,"climbM":0,"name":"West King Lake","flags":[]},"geometry":{"type":"LineString","coordinates":[[-120.62608,51.56304],[-120.62798,51.56127]]}},
{"type":"Feature","properties":{"spotId":"A-duck-drive-0105","kind":"walk","km":0.11,"climbM":0,"name":"Unnamed wetland 1.0 km S of Canimred Creek","flags":[]},"geometry":{"type":"LineString","coordinates":[[-120.52999,51.73914],[-120.53037,51.7401]]}},
{"type":"Feature","properties":{"spotId":"A-duck-walk-0008","kind":"walk","km":0.5,"climbM":0,"name":"Unnamed lake 1.2 km SW of West King Lake","flags":[]},"geometry":{"type":"LineString","coordinates":[[-120.6553,51.55684],[-120.65526,51.55681],[-120.65511,51.55669],[-120.65496,51.55656],[-120.65481,51.55634],[-120.65453,51.5561],[-120.65429,51.55587],[-120.65414,51.55564],[-120.65394,51.55537],[-120.6539,51.55534],[-120.65164,51.55299]]}},
{"type":"Feature","properties":{"spotId":"A-duck-walk-0082","kind":"walk","km":0.4,"climbM":0,"name":"Unnamed wetland by Jim Creek","flags":[]},"geometry":{"type":"LineString","coordinates":[[-120.54012,51.57463],[-120.53527,51.57664]]}},
{"type":"Feature","properties":{"spotId":"A-duck-walk-0130","kind":"walk","km":0.39,"climbM":16,"name":"Unnamed wetland 1.0 km NW of Windy Creek","flags":[]},"geometry":{"type":"LineString","coordinates":[[-120.6095,51.65023],[-120.60383,51.65062]]}},
{"type":"Feature","properties":{"spotId":"A-grouse-atv-0031","kind":"walk","km":2.27,"climbM":179,"name":"1.1 km S of Windy Creek","flags":[]},"geometry":{"type":"LineString","coordinates":[[-120.52816,51.61255],[-120.54133,51.63126]]}},
{"type":"Feature","properties":{"spotId":"A-grouse-atv-0031","kind":"ride","km":3.71,"climbM":26,"name":"1.1 km S of Windy Creek","flags":[]},"geometry":{"type":"LineString","coordinates":[[-120.54133,51.63126],[-120.5415,51.63132],[-120.54182,51.63115],[-120.54206,51.63096],[-120.54216,51.63079],[-120.54231,51.63066],[-120.54262,51.63047],[-120.54315,51.63029],[-120.54324,51.63027],[-120.54343,51.63029],[-120.54363,51.6304],[-120.54381,51.63055],[-120.54386,51.63076],[-120.54378,51.63092],[-120.54372,51.63136],[-120.54352,51.63152],[-120.54323,51.6317],[-120.54303,51.63191],[-120.54298,51.63213],[-120.5432,51.63249],[-120.54375,51.63286],[-120.54389,51.63303],[-120.54407,51.63331],[-120.54433,51.63368],[-120.5448,51.63388],[-120.54565,51.63395],[-120.54571,51.63395],[-120.54613,51.63404],[-120.54625,51.63414],[-120.54625,51.63429],[-120.54608,51.63457],[-120.54585,51.63485],[-120.54538,51.63541],[-120.54494,51.63585],[-120.54472,51.63619],[-120.54416,51.63661],[-120.54352,51.63691],[-120.54317,51.63714],[-120.54285,51.63736],[-120.54268,51.63751],[-120.54229,51.6376],[-120.54199,51.63768],[-120.54146,51.63783],[-120.54118,51.63785],[-120.5407,51.63783],[-120.54022,51.63788],[-120.54016,51.63796],[-120.54015,51.63804],[-120.54016,51.63826],[-120.54018,51.6385],[-120.54031,51.63861],[-120.54068,51.63874],[-120.54096,51.63874],[-120.541,51.63874],[-120.54124,51.63873],[-120.54189,51.63868],[-120.54212,51.6387],[-120.54304,51.63859],[-120.54337,51.63858],[-120.54357,51.63848],[-120.54408,51.63832],[-120.54425,51.63818],[-120.54433,51.63812],[-120.54446,51.63808],[-120.54465,51.63812],[-120.54474,51.63819],[-120.54474,51.6383],[-120.54461,51.63849],[-120.54447,51.63874],[-120.54426,51.63891],[-120.54399,51.63928],[-120.54387,51.63946],[-120.54361,51.63978],[-120.54331,51.63997],[-120.5428,51.64014],[-120.54257,51.64032],[-120.54252,51.6404],[-120.54245,51.6405],[-120.54241,51.64059],[-120.54221,51.64077],[-120.5422,51.6411],[-120.54208,51.64141],[-120.54215,51.64158],[-120.54233,51.64179],[-120.54261,51.64207],[-120.54283,51.64233],[-120.54302,51.64254],[-120.54315,51.64258],[-120.54319,51.6426],[-120.54363,51.64274],[-120.54387,51.6428],[-120.5441,51.64282],[-120.54445,51.64286],[-120.54473,51.64275],[-120.54497,51.64278],[-120.54529,51.64277],[-120.54544,51.64268],[-120.54586,51.64249],[-120.54613,51.64255],[-120.54621,51.64256],[-120.54648,51.64256],[-120.54667,51.64256],[-120.54688,51.64256],[-120.54712,51.64257],[-120.54761,51.64257],[-120.54797,51.64252],[-120.54839,51.64246],[-120.54875,51.64238],[-120.54893,51.64239],[-120.54912,51.64237],[-120.54939,51.64232],[-120.5496,51.64227],[-120.54969,51.6422],[-120.55003,51.6422],[-120.55019,51.64216],[-120.5505,51.64211],[-120.55098,51.64206],[-120.55114,51.64197],[-120.55163,51.64206],[-120.55194,51.64206],[-120.55221,51.64221],[-120.55244,51.64225],[-120.55271,51.64229],[-120.55304,51.64237],[-120.55321,51.64233],[-120.55334,51.64232],[-120.55346,51.64231],[-120.55384,51.64231],[-120.55406,51.64234],[-120.55425,51.6423],[-120.55446,51.64223],[-120.55471,51.64225],[-120.55474,51.64225],[-120.55504,51.64225],[-120.55523,51.64234],[-120.55535,51.64245],[-120.55543,51.64251],[-120.55547,51.64264],[-120.55552,51.64274],[-120.55565,51.64287],[-120.5558,51.643],[-120.55586,51.64309],[-120.55598,51.64321],[-120.55606,51.64342],[-120.55623,51.64348],[-120.55642,51.6436],[-120.55665,51.64364],[-120.55693,51.64366],[-120.55709,51.64369],[-120.55734,51.64366],[-120.55772,51.64372],[-120.55791,51.64369],[-120.55805,51.64366],[-120.55838,51.6437],[-120.55867,51.64372],[-120.55888,51.64374],[-120.55911,51.64377],[-120.55934,51.64381],[-120.55956,51.64384],[-120.55966,51.64388],[-120.55978,51.64392]]}},
{"type":"Feature","properties":{"spotId":"A-grouse-drive-0094","kind":"roadside","km":5.78,"climbM":150,"name":"890 m W of Boundary Lake rec site","flags":[]},"geometry":{"type":"LineString","coordinates":[[-120.56921,51.72858],[-120.56867,51.72903],[-120.56862,51.72907],[-120.56821,51.72943],[-120.56796,51.72971],[-120.56768,51.73012],[-120.56738,51.73069],[-120.56703,51.73177],[-120.56706,51.73196],[-120.56724,51.7324],[-120.56729,51.73281],[-120.56725,51.73322],[-120.56714,51.73349],[-120.56683,51.73375],[-120.56647,51.7343],[-120.56633,51.73484],[-120.56633,51.73504],[-120.56621,51.73524],[-120.56604,51.73538],[-120.56477,51.7361],[-120.56453,51.73631],[-120.56437,51.73659],[-120.56428,51.73694],[-120.56433,51.73758],[-120.56401,51.73808],[-120.56395,51.73838],[-120.56409,51.73922],[-120.56434,51.73963],[-120.56454,51.73984],[-120.56522,51.74059],[-120.56568,51.74131],[-120.56593,51.74184],[-120.56595,51.74225],[-120.56578,51.74303],[-120.56578,51.74324],[-120.56594,51.74358],[-120.56625,51.74394],[-120.56633,51.74404],[-120.56682,51.74503],[-120.56687,51.74528],[-120.56682,51.74554],[-120.56664,51.74575],[-120.56582,51.74638],[-120.56552,51.74675],[-120.56522,51.74749],[-120.56514,51.74939],[-120.565,51.74974],[-120.56502,51.75011],[-120.56531,51.75061],[-120.56583,51.75109],[-120.56672,51.75245],[-120.56754,51.75329],[-120.56803,51.75358],[-120.57217,51.75528],[-120.57224,51.7553],[-120.57248,51.75541],[-120.57277,51.75559],[-120.57287,51.75563],[-120.57297,51.75568],[-120.57315,51.75577],[-120.57333,51.75587],[-120.57365,51.75598],[-120.57377,51.75604],[-120.57396,51.75608],[-120.57428,51.75609],[-120.57454,51.75609],[-120.57479,51.75609],[-120.57494,51.75609],[-120.57528,51.75602],[-120.57541,51.756],[-120.57572,51.75593],[-120.57587,51.75589],[-120.57617,51.75586],[-120.5763,51.75586],[-120.57659,51.75586],[-120.57685,51.75587],[-120.57703,51.75589],[-120.57723,51.75595],[-120.57744,51.75609],[-120.5777,51.7563],[-120.57781,51.75638],[-120.57785,51.75642],[-120.57798,51.75656],[-120.57811,51.75678],[-120.57814,51.75683],[-120.57827,51.75698],[-120.57834,51.75702],[-120.57854,51.75722],[-120.5787,51.75744],[-120.57886,51.75758],[-120.57916,51.75776],[-120.57928,51.75785],[-120.57944,51.75794],[-120.57975,51.75813],[-120.58003,51.75828],[-120.58021,51.7584],[-120.58051,51.75855],[-120.58075,51.75872],[-120.58084,51.75878],[-120.58104,51.7589],[-120.58132,51.75907],[-120.58146,51.75914],[-120.58177,51.7593],[-120.58208,51.75948],[-120.5824,51.75967],[-120.58254,51.75977],[-120.58279,51.75997],[-120.58295,51.76007],[-120.58312,51.76015],[-120.58337,51.7603],[-120.58364,51.76042],[-120.58375,51.7605],[-120.58402,51.76065],[-120.5843,51.76081],[-120.5846,51.76097],[-120.58472,51.76104],[-120.58498,51.76115],[-120.58526,51.76128],[-120.5856,51.7615],[-120.58572,51.76164],[-120.58578,51.76179],[-120.58581,51.7619],[-120.58584,51.7621],[-120.58588,51.76221],[-120.58593,51.76234],[-120.58598,51.76247],[-120.586,51.76258],[-120.58606,51.7628],[-120.58611,51.76303],[-120.58617,51.76324],[-120.58617,51.76325],[-120.58622,51.76337],[-120.58624,51.76348],[-120.58629,51.76369],[-120.58637,51.76391],[-120.58643,51.76411],[-120.58649,51.76428],[-120.58652,51.76438],[-120.58653,51.76457],[-120.5866,51.76472],[-120.58665,51.76488],[-120.58678,51.76508],[-120.58689,51.76518],[-120.58739,51.76573],[-120.58791,51.76618],[-120.5886,51.76686],[-120.58881,51.76699],[-120.5897,51.76736],[-120.59057,51.76763],[-120.59165,51.76812],[-120.59233,51.7685],[-120.59291,51.76873],[-120.5932,51.7689],[-120.59393,51.76921],[-120.5945,51.76954],[-120.59474,51.76964]]}},
{"type":"Feature","properties":{"spotId":"A-grouse-drive-0112","kind":"roadside","km":3.91,"climbM":38,"name":"2.1 km N of Jim Creek","flags":[]},"geometry":{"type":"LineString","coordinates":[[-120.58649,51.62105],[-120.58677,51.62109],[-120.58685,51.62109],[-120.58713,51.62114],[-120.58743,51.6212],[-120.58751,51.62121],[-120.58782,51.62127],[-120.58796,51.62129],[-120.58811,51.62132],[-120.58841,51.62134],[-120.5886,51.62134],[-120.58887,51.62133],[-120.58916,51.62128],[-120.58947,51.62122],[-120.58972,51.62119],[-120.59006,51.62121],[-120.59032,51.62129],[-120.59041,51.62128],[-120.59059,51.62128],[-120.59068,51.62125],[-120.59078,51.62124],[-120.59088,51.62124],[-120.59114,51.62126],[-120.59124,51.62129],[-120.59144,51.62133],[-120.59166,51.6214],[-120.5918,51.62143],[-120.59196,51.62149],[-120.59229,51.62164],[-120.59256,51.62172],[-120.59286,51.6218],[-120.59309,51.62187],[-120.59332,51.62197],[-120.59366,51.62204],[-120.59395,51.62208],[-120.59418,51.62211],[-120.59445,51.62216],[-120.59472,51.62221],[-120.59496,51.62227],[-120.59528,51.62236],[-120.59557,51.62257],[-120.59565,51.62261],[-120.59571,51.62262],[-120.59584,51.62265],[-120.5959,51.62266],[-120.5962,51.62267],[-120.59647,51.62276],[-120.59679,51.62289],[-120.59687,51.6229],[-120.59718,51.62299],[-120.59751,51.62308],[-120.59762,51.6231],[-120.59792,51.62317],[-120.59821,51.62324],[-120.59852,51.6233],[-120.59886,51.6234],[-120.59918,51.62348],[-120.59943,51.62354],[-120.5997,51.62362],[-120.6,51.6237],[-120.60032,51.62378],[-120.60049,51.62382],[-120.60059,51.62385],[-120.60092,51.62391],[-120.60117,51.62395],[-120.60146,51.62401],[-120.60176,51.62405],[-120.60186,51.62408],[-120.60205,51.6241],[-120.60235,51.62414],[-120.60249,51.62418],[-120.60276,51.62424],[-120.60299,51.62428],[-120.60303,51.62429],[-120.60335,51.62439],[-120.60359,51.62446],[-120.60367,51.62449],[-120.60386,51.62457],[-120.6042,51.62471],[-120.60449,51.62482],[-120.60483,51.62494],[-120.60518,51.62505],[-120.60533,51.62511],[-120.60547,51.62515],[-120.60579,51.62525],[-120.60599,51.62528],[-120.60623,51.62533],[-120.60624,51.62533],[-120.60636,51.62535],[-120.60659,51.62538],[-120.6067,51.62539],[-120.60698,51.62542],[-120.60718,51.62544],[-120.60751,51.62546],[-120.60783,51.62545],[-120.60793,51.62546],[-120.6082,51.62549],[-120.60849,51.6255],[-120.60883,51.62556],[-120.60916,51.62566],[-120.60935,51.62568],[-120.60949,51.62569],[-120.60956,51.6257],[-120.60982,51.6257],[-120.61011,51.62573],[-120.61044,51.62575],[-120.61061,51.62576],[-120.61064,51.62576],[-120.61083,51.62577],[-120.61112,51.62579],[-120.61129,51.62579],[-120.61144,51.6258],[-120.61175,51.62579],[-120.61209,51.62579],[-120.61243,51.62579],[-120.61278,51.62579],[-120.61313,51.62579],[-120.61317,51.62578],[-120.61343,51.62575],[-120.61369,51.62571],[-120.61395,51.62571],[-120.614,51.62571],[-120.61404,51.62571],[-120.61429,51.62571],[-120.61463,51.62571],[-120.61492,51.62571],[-120.61525,51.62571],[-120.61557,51.62574],[-120.61584,51.62579],[-120.61613,51.62586],[-120.61639,51.6259],[-120.61667,51.62592],[-120.61696,51.62595],[-120.61724,51.62596],[-120.61751,51.62598],[-120.61784,51.626],[-120.61812,51.62599],[-120.61836,51.62596],[-120.61868,51.6259],[-120.61895,51.62584],[-120.61927,51.62577],[-120.61952,51.62572],[-120.61955,51.62571],[-120.61984,51.62564],[-120.62016,51.62554],[-120.62049,51.62553],[-120.62077,51.62548],[-120.62108,51.62544],[-120.62122,51.62545],[-120.62157,51.62545],[-120.62192,51.62542],[-120.62209,51.62542],[-120.62228,51.62541],[-120.62256,51.62533],[-120.62267,51.62531],[-120.62288,51.62527],[-120.62318,51.62521],[-120.62345,51.62513],[-120.62354,51.6251],[-120.6236,51.62508],[-120.62371,51.62506],[-120.62379,51.62503],[-120.6241,51.62493],[-120.62439,51.62484],[-120.62471,51.62474],[-120.62473,51.62474],[-120.62502,51.62469],[-120.62527,51.62466],[-120.62554,51.62464],[-120.62557,51.62464],[-120.62573,51.62463],[-120.62602,51.62463],[-120.62634,51.62463],[-120.62664,51.62466],[-120.62693,51.62469],[-120.62711,51.62469],[-120.62743,51.62468],[-120.62778,51.62468],[-120.62794,51.62467],[-120.62823,51.62465],[-120.6283,51.62464],[-120.62834,51.62463],[-120.62846,51.62463],[-120.62871,51.62463],[-120.62905,51.62463],[-120.62937,51.62465],[-120.62971,51.62467],[-120.6299,51.62472],[-120.62996,51.62473],[-120.63024,51.62485],[-120.6304,51.62492],[-120.6307,51.62513],[-120.63093,51.62524],[-120.63094,51.62526],[-120.63125,51.62539],[-120.63135,51.62542],[-120.63159,51.6255],[-120.63178,51.62554],[-120.63208,51.62561],[-120.63241,51.62566],[-120.63273,51.62568],[-120.63297,51.62568],[-120.6333,51.62566],[-120.63364,51.62564],[-120.63393,51.62562],[-120.63428,51.62555],[-120.63462,51.62543],[-120.63497,51.6253],[-120.63529,51.62522],[-120.63562,51.62513],[-120.63588,51.62505],[-120.63616,51.62497],[-120.63641,51.6249],[-120.63666,51.62484],[-120.63699,51.62477],[-120.63733,51.62469],[-120.63752,51.62467],[-120.63775,51.62467],[-120.63805,51.62466],[-120.63834,51.62466],[-120.6384,51.62466],[-120.63862,51.62467],[-120.63889,51.62469],[-120.63922,51.6247],[-120.63931,51.62471],[-120.63952,51.62469],[-120.63982,51.62465],[-120.63997,51.62464]]}},
{"type":"Feature","properties":{"spotId":"A-grouse-drive-0116","kind":"roadside","km":4.8,"climbM":112,"name":"By Rat Lake","flags":[]},"geometry":{"type":"LineString","coordinates":[[-120.73185,51.73764],[-120.73222,51.73722],[-120.73244,51.73686],[-120.73254,51.73649],[-120.73249,51.73622],[-120.73234,51.73599],[-120.73216,51.73584],[-120.73186,51.73568],[-120.73161,51.7356],[-120.73133,51.73559],[-120.73095,51.73564],[-120.73022,51.73573],[-120.7289,51.73636],[-120.72831,51.73654],[-120.72766,51.73661],[-120.72737,51.73669],[-120.72711,51.73681],[-120.72581,51.73763],[-120.72521,51.73791],[-120.72228,51.7388],[-120.72166,51.7389],[-120.72116,51.73894],[-120.7206,51.73892],[-120.71979,51.73896],[-120.71886,51.73913],[-120.7182,51.73919],[-120.71753,51.73935],[-120.71649,51.73969],[-120.71494,51.73992],[-120.71459,51.7399],[-120.71434,51.73985],[-120.71366,51.73952],[-120.71339,51.73946],[-120.71311,51.73944],[-120.7125,51.73948],[-120.71198,51.73964],[-120.71111,51.74013],[-120.71087,51.74023],[-120.71059,51.74028],[-120.71033,51.74027],[-120.7101,51.7402],[-120.70993,51.7401],[-120.70976,51.73994],[-120.70891,51.7384],[-120.70875,51.7382],[-120.70856,51.73805],[-120.7083,51.73794],[-120.70801,51.73789],[-120.70776,51.73788],[-120.7074,51.73788],[-120.7065,51.73787],[-120.70614,51.73783],[-120.7058,51.73775],[-120.70551,51.73764],[-120.70521,51.73747],[-120.70507,51.73737],[-120.70478,51.737],[-120.70459,51.73687],[-120.70439,51.73679],[-120.70409,51.73677],[-120.70372,51.73682],[-120.70249,51.73719],[-120.70198,51.73726],[-120.70144,51.73727],[-120.70077,51.73721],[-120.69982,51.73699],[-120.69922,51.73679],[-120.69898,51.73666],[-120.69876,51.73649],[-120.69861,51.73628],[-120.69827,51.73542],[-120.69802,51.73504],[-120.69748,51.73437],[-120.69726,51.73419],[-120.697,51.73405],[-120.69605,51.73375],[-120.69583,51.73366],[-120.69554,51.73346],[-120.69538,51.73324],[-120.69534,51.733],[-120.69542,51.73254],[-120.69538,51.73237],[-120.69526,51.73221],[-120.69509,51.73209],[-120.69479,51.73197],[-120.69398,51.73174],[-120.69353,51.73156],[-120.69297,51.73125],[-120.69168,51.73044],[-120.69142,51.73034],[-120.69107,51.73026],[-120.68978,51.7301],[-120.68886,51.72993],[-120.68825,51.72987],[-120.68633,51.72985],[-120.68592,51.72981],[-120.68555,51.72971],[-120.68524,51.72955],[-120.68496,51.72933],[-120.68354,51.72793],[-120.68323,51.72754],[-120.68295,51.72702],[-120.68259,51.72555]]}},
{"type":"Feature","properties":{"spotId":"A-grouse-walk-0111","kind":"walk","km":1.39,"climbM":88,"name":"740 m NE of Windy Mountain","flags":[]},"geometry":{"type":"LineString","coordinates":[[-120.54664,51.67633],[-120.54172,51.66427]]}},
{"type":"Feature","properties":{"spotId":"A-grouse-walk-0111","kind":"roadside","km":4.94,"climbM":179,"name":"740 m NE of Windy Mountain","flags":[]},"geometry":{"type":"LineString","coordinates":[[-120.54172,51.66427],[-120.54179,51.66427],[-120.54199,51.66424],[-120.54213,51.66421],[-120.54242,51.66415],[-120.54268,51.66404],[-120.54279,51.66393],[-120.54294,51.66382],[-120.54324,51.66364],[-120.5433,51.66358],[-120.54347,51.66337],[-120.54373,51.66322],[-120.54384,51.66318],[-120.54417,51.66304],[-120.54448,51.66288],[-120.54456,51.6627],[-120.54463,51.66265],[-120.54486,51.6625],[-120.54509,51.6624],[-120.54537,51.6623],[-120.54546,51.66226],[-120.54556,51.66215],[-120.54571,51.66203],[-120.54609,51.66183],[-120.54621,51.66165],[-120.54626,51.66152],[-120.5463,51.6614],[-120.54631,51.66126],[-120.54632,51.66125],[-120.54646,51.66126],[-120.54651,51.66125],[-120.54655,51.66122],[-120.54671,51.66103],[-120.5468,51.66095],[-120.54692,51.66089],[-120.54727,51.66089],[-120.54737,51.6609],[-120.54748,51.66096],[-120.54761,51.66091],[-120.54771,51.6609],[-120.54789,51.66089],[-120.54788,51.66097],[-120.54803,51.66116],[-120.54814,51.66127],[-120.5482,51.6613],[-120.54824,51.66131],[-120.54837,51.66127],[-120.54857,51.66112],[-120.54872,51.66109],[-120.54882,51.66108],[-120.54893,51.66109],[-120.5491,51.66116],[-120.54935,51.66132],[-120.54938,51.6613],[-120.54945,51.6612],[-120.54957,51.66108],[-120.5496,51.66106],[-120.54966,51.66106],[-120.54978,51.66116],[-120.54984,51.66123],[-120.54992,51.66133],[-120.55006,51.66154],[-120.55014,51.66169],[-120.55021,51.66176],[-120.55022,51.66179],[-120.55029,51.66191],[-120.55037,51.66213],[-120.55033,51.66218],[-120.55024,51.66225],[-120.55017,51.66232],[-120.55012,51.66243],[-120.55012,51.66258],[-120.55018,51.66279],[-120.5502,51.66286],[-120.55019,51.66302],[-120.55018,51.66312],[-120.55029,51.66318],[-120.55039,51.66321],[-120.55073,51.66324],[-120.55074,51.66324],[-120.55085,51.66326],[-120.55096,51.66326],[-120.55095,51.66343],[-120.55074,51.66353],[-120.55062,51.66363],[-120.5506,51.66375],[-120.55067,51.66392],[-120.55087,51.66412],[-120.55098,51.66423],[-120.5511,51.6644],[-120.55115,51.66449],[-120.55122,51.66471],[-120.55124,51.66477],[-120.55124,51.66493],[-120.55123,51.66512],[-120.55102,51.66526],[-120.55084,51.66543],[-120.55074,51.6656],[-120.55073,51.66576],[-120.55056,51.66594],[-120.55052,51.66595],[-120.5503,51.66594],[-120.55015,51.66594],[-120.55003,51.66595],[-120.54988,51.666],[-120.54976,51.66614],[-120.54968,51.66624],[-120.54947,51.66642],[-120.54913,51.66659],[-120.54905,51.66663],[-120.5487,51.66675],[-120.54849,51.66682],[-120.5484,51.66686],[-120.54812,51.66701],[-120.54798,51.66712],[-120.54795,51.66717],[-120.54798,51.66723],[-120.54817,51.66745],[-120.54823,51.66757],[-120.54827,51.66771],[-120.54833,51.66789],[-120.54836,51.6679],[-120.54848,51.66807],[-120.54866,51.66823],[-120.5489,51.66841],[-120.54909,51.66853],[-120.54931,51.6686],[-120.54955,51.66865],[-120.54971,51.66868],[-120.54985,51.66869],[-120.54999,51.66872],[-120.55004,51.66874],[-120.55009,51.66882],[-120.55019,51.66888],[-120.55033,51.66901],[-120.55032,51.66912],[-120.55027,51.66921],[-120.55013,51.66936],[-120.54997,51.66948],[-120.54973,51.66967],[-120.54953,51.66981],[-120.54941,51.66995],[-120.54935,51.67003],[-120.54936,51.67003],[-120.54954,51.67011],[-120.54983,51.67021],[-120.55014,51.67032],[-120.55035,51.67038],[-120.55045,51.67042],[-120.55065,51.6705],[-120.55095,51.67061],[-120.55122,51.67071],[-120.55127,51.67075],[-120.5513,51.67083],[-120.55121,51.67092],[-120.55105,51.67108],[-120.55108,51.67114],[-120.55116,51.67119],[-120.55124,51.6712],[-120.5514,51.6713],[-120.5516,51.67137],[-120.55163,51.67139],[-120.55179,51.67143],[-120.55189,51.67143],[-120.55194,51.67145],[-120.552,51.67146],[-120.55222,51.67154],[-120.55257,51.6716],[-120.55267,51.67163],[-120.55299,51.6717],[-120.55319,51.67173],[-120.55333,51.67173],[-120.55342,51.67175],[-120.55349,51.67176],[-120.55373,51.67181],[-120.55402,51.67186],[-120.55414,51.67187],[-120.55439,51.67189],[-120.55464,51.67192],[-120.55484,51.67196],[-120.55511,51.672],[-120.55517,51.67201],[-120.55546,51.67204],[-120.55559,51.67206],[-120.55587,51.67211],[-120.55603,51.67217],[-120.55627,51.6723],[-120.55635,51.67233],[-120.55664,51.67241],[-120.55685,51.67246],[-120.55697,51.67248],[-120.55728,51.67253],[-120.55747,51.67254],[-120.5576,51.67256],[-120.55767,51.67259],[-120.5577,51.67259],[-120.55773,51.67262],[-120.5578,51.67263],[-120.55791,51.67268],[-120.55805,51.67272],[-120.55811,51.67277],[-120.55826,51.67284],[-120.55846,51.67289],[-120.55858,51.6729],[-120.55872,51.6729],[-120.5588,51.6729],[-120.55898,51.67295],[-120.55907,51.67299],[-120.55939,51.67314],[-120.55972,51.67323],[-120.55977,51.67324],[-120.55995,51.6733],[-120.56026,51.67343],[-120.56037,51.67347],[-120.56071,51.67357],[-120.56101,51.6737],[-120.56109,51.67375],[-120.56139,51.67391],[-120.56161,51.674],[-120.56166,51.67391],[-120.5618,51.67374],[-120.56193,51.67353],[-120.56199,51.67342],[-120.56204,51.6733],[-120.56218,51.67309],[-120.56235,51.67291],[-120.56242,51.6728],[-120.56244,51.67267],[-120.56243,51.67258],[-120.56242,51.67238],[-120.56242,51.67219],[-120.56245,51.672],[-120.56257,51.67182],[-120.56286,51.67163],[-120.56299,51.67157],[-120.56311,51.67149],[-120.56334,51.67128],[-120.56339,51.67119],[-120.5635,51.671],[-120.56359,51.67081],[-120.56368,51.67061],[-120.5637,51.67052],[-120.56372,51.67032],[-120.56373,51.67012],[-120.56374,51.66994],[-120.56377,51.66974],[-120.56384,51.66954],[-120.5639,51.66936],[-120.56389,51.66926],[-120.56386,51.66907],[-120.56373,51.66889],[-120.56356,51.66873],[-120.56341,51.66854],[-120.56329,51.66834],[-120.56322,51.66815],[-120.56321,51.66805],[-120.5632,51.66787],[-120.56321,51.66767],[-120.56328,51.66748],[-120.56331,51.66729],[-120.56329,51.6671],[-120.56324,51.66698],[-120.56309,51.66678],[-120.56291,51.66659],[-120.56279,51.66643],[-120.56289,51.66636],[-120.56296,51.66618],[-120.56297,51.66608],[-120.56293,51.66598],[-120.56277,51.66576],[-120.56271,51.66564],[-120.56266,51.66553],[-120.56263,51.66542],[-120.56259,51.6653],[-120.56254,51.66519],[-120.5625,51.66514],[-120.56237,51.66499],[-120.56226,51.66489],[-120.56218,51.66478],[-120.56196,51.66458],[-120.56166,51.66448],[-120.56155,51.6644],[-120.56144,51.6643],[-120.56129,51.66408],[-120.56122,51.66389],[-120.56111,51.6637],[-120.56109,51.66351],[-120.56109,51.66339],[-120.56105,51.66326],[-120.56098,51.66314],[-120.56092,51.66302],[-120.56089,51.66293],[-120.5609,51.6628],[-120.56091,51.66268],[-120.56093,51.66256],[-120.56095,51.66244],[-120.56096,51.66232],[-120.56098,51.6622],[-120.56098,51.66207],[-120.56099,51.66196],[-120.56095,51.66183],[-120.56087,51.66171],[-120.56079,51.66159],[-120.56071,51.66147],[-120.56062,51.66133],[-120.5606,51.66121],[-120.56057,51.66109],[-120.5606,51.66089],[-120.56059,51.66069],[-120.56057,51.66057],[-120.56055,51.66049],[-120.56049,51.6604],[-120.56032,51.66022],[-120.56022,51.66012],[-120.56014,51.66001],[-120.5601,51.6599],[-120.56008,51.6598],[-120.56004,51.65968],[-120.56003,51.65955],[-120.56003,51.65944],[-120.56003,51.65931],[-120.56005,51.65919],[-120.56006,51.65907],[-120.56007,51.65892],[-120.56006,51.65881],[-120.56006,51.65871]]}},
{"type":"Feature","properties":{"spotId":"A-moose-atv-0029","kind":"ride","km":7.5,"climbM":231,"name":"280 m N of Jim Creek","flags":[]},"geometry":{"type":"MultiLineString","coordinates":[[[-120.52632,51.57424],[-120.52638,51.57437],[-120.5264,51.57458],[-120.52641,51.57468],[-120.5264,51.57486],[-120.5264,51.57507],[-120.5264,51.57512],[-120.52642,51.57524],[-120.5265,51.57542],[-120.52652,51.5755],[-120.52651,51.57568],[-120.52652,51.57583],[-120.52655,51.57606],[-120.52656,51.57611],[-120.52656,51.57631],[-120.52657,51.57644],[-120.52658,51.57664],[-120.52666,51.57685],[-120.52673,51.57698],[-120.52682,51.57711],[-120.52704,51.57735],[-120.52736,51.57763],[-120.5276,51.57772],[-120.52785,51.57782],[-120.52805,51.5779],[-120.5282,51.578],[-120.52835,51.57815],[-120.52861,51.57834],[-120.52875,51.57837],[-120.52886,51.57839],[-120.52893,51.5784],[-120.52911,51.57842],[-120.52933,51.57846],[-120.52969,51.57853],[-120.52996,51.57861],[-120.53011,51.57869],[-120.5302,51.57877],[-120.53025,51.57885],[-120.53032,51.57893],[-120.53042,51.57909],[-120.53056,51.57927],[-120.53065,51.57942],[-120.53069,51.57956],[-120.53079,51.57978],[-120.53081,51.57997],[-120.53082,51.58017],[-120.53081,51.58028],[-120.53081,51.58049],[-120.53094,51.58059],[-120.53115,51.58066],[-120.53125,51.58071],[-120.53139,51.5808],[-120.53148,51.58083],[-120.53161,51.58086],[-120.53177,51.58089],[-120.532,51.58097],[-120.53221,51.58106],[-120.53241,51.58112],[-120.53268,51.58118],[-120.53282,51.5812],[-120.53314,51.58121],[-120.53324,51.58122],[-120.53338,51.58128],[-120.53345,51.58134],[-120.53366,51.58143],[-120.53376,51.58147],[-120.53398,51.58155],[-120.53413,51.5816],[-120.53439,51.58176],[-120.5346,51.58189],[-120.53469,51.58197],[-120.53481,51.58206],[-120.53509,51.58217],[-120.53573,51.58223],[-120.53621,51.58237],[-120.53663,51.58245],[-120.53683,51.58251],[-120.53707,51.58259],[-120.53717,51.58265],[-120.53841,51.58357],[-120.53852,51.58366],[-120.53855,51.58369],[-120.53856,51.58371],[-120.53861,51.58375],[-120.53865,51.58377],[-120.53874,51.58383],[-120.53899,51.58394],[-120.53931,51.58404],[-120.53965,51.58421],[-120.53994,51.58436],[-120.54002,51.5844],[-120.54026,51.58452],[-120.54061,51.58465],[-120.54102,51.58473],[-120.54133,51.58492],[-120.54156,51.58508],[-120.54176,51.58532],[-120.54186,51.58544],[-120.54193,51.5857],[-120.54196,51.58574],[-120.54205,51.58588],[-120.54234,51.58608],[-120.54249,51.5862],[-120.54263,51.5863],[-120.54282,51.5865],[-120.54301,51.58675],[-120.54324,51.58697],[-120.5434,51.58714],[-120.54362,51.58738],[-120.54379,51.58762],[-120.54397,51.58787],[-120.54407,51.58802],[-120.54413,51.58814],[-120.54418,51.58831],[-120.54441,51.58853],[-120.54476,51.58869],[-120.54498,51.58884],[-120.54516,51.58901],[-120.54524,51.58908],[-120.54536,51.5892],[-120.54547,51.58935],[-120.54559,51.58956],[-120.54572,51.5897],[-120.54597,51.58993],[-120.54623,51.59014],[-120.54636,51.59028],[-120.54661,51.5904],[-120.54678,51.59047],[-120.547,51.5906],[-120.54715,51.59085],[-120.54726,51.59097],[-120.54734,51.59116],[-120.54735,51.59118],[-120.54739,51.59128],[-120.54734,51.59144],[-120.54733,51.59155],[-120.54733,51.59158],[-120.54733,51.59163],[-120.5474,51.59175],[-120.54742,51.59178],[-120.54745,51.59182],[-120.54749,51.59186],[-120.54754,51.59189],[-120.54761,51.59191],[-120.54778,51.59189],[-120.54797,51.5919],[-120.54801,51.5919],[-120.54818,51.59192],[-120.54832,51.59197],[-120.54852,51.59204],[-120.54873,51.59209],[-120.54883,51.59212],[-120.54886,51.59212],[-120.54898,51.5922],[-120.54904,51.59226],[-120.54928,51.59241],[-120.54968,51.59251],[-120.54994,51.59254],[-120.55011,51.59258],[-120.55054,51.5926],[-120.55095,51.59268],[-120.55117,51.59273],[-120.55144,51.59279],[-120.55185,51.59287],[-120.55213,51.59294],[-120.55235,51.59308],[-120.55264,51.59329],[-120.55274,51.59337],[-120.55292,51.59349],[-120.55322,51.59368],[-120.55344,51.59379],[-120.55366,51.5939],[-120.55399,51.59406],[-120.55415,51.59418],[-120.55433,51.59435],[-120.55445,51.59447],[-120.55464,51.59457],[-120.55495,51.59468],[-120.55527,51.59478],[-120.5555,51.59483],[-120.55562,51.59486],[-120.55603,51.59494],[-120.55636,51.59507],[-120.55656,51.59518],[-120.55669,51.59525],[-120.55674,51.59529],[-120.55696,51.59546],[-120.55714,51.59559],[-120.55727,51.59568],[-120.55789,51.59601],[-120.55816,51.59611],[-120.55835,51.59618],[-120.55855,51.59628],[-120.5589,51.59644],[-120.55915,51.59666],[-120.55931,51.59682],[-120.55942,51.59695],[-120.55961,51.59712],[-120.55967,51.59714],[-120.55983,51.5972],[-120.56023,51.59729],[-120.56049,51.59735],[-120.56083,51.59743],[-120.56112,51.5975],[-120.56146,51.59755],[-120.56187,51.59762],[-120.56212,51.59771],[-120.5623,51.5978],[-120.56244,51.59796],[-120.56251,51.59805],[-120.56262,51.59822],[-120.56282,51.59843],[-120.56291,51.59853],[-120.56295,51.59862],[-120.56306,51.59879],[-120.56314,51.59886],[-120.56323,51.59892],[-120.56328,51.59895],[-120.56335,51.59898],[-120.56346,51.59901],[-120.56364,51.59903],[-120.56381,51.59907],[-120.56407,51.59918],[-120.5642,51.59927],[-120.56423,51.59929],[-120.5645,51.59949],[-120.56466,51.59957],[-120.56483,51.59965],[-120.56505,51.59972],[-120.56528,51.59977],[-120.56547,51.59979],[-120.56568,51.59982],[-120.56585,51.59982],[-120.56597,51.59983],[-120.56623,51.59984],[-120.56661,51.59987],[-120.56689,51.5999],[-120.56704,51.59991],[-120.5671,51.59992],[-120.5674,51.59996],[-120.56783,51.59996],[-120.56806,51.59996],[-120.56829,51.59998],[-120.56849,51.59999],[-120.56869,51.6],[-120.56891,51.60001],[-120.56919,51.60007],[-120.56951,51.60016],[-120.56967,51.60023],[-120.56987,51.60037],[-120.57008,51.60058],[-120.5701,51.60061],[-120.57014,51.60069],[-120.57017,51.60079],[-120.57019,51.60086],[-120.5702,51.60089],[-120.57025,51.60101],[-120.57032,51.60114],[-120.57046,51.60132],[-120.57057,51.60152],[-120.57075,51.60176],[-120.57077,51.60182],[-120.57094,51.60206],[-120.57099,51.60219],[-120.57105,51.6023],[-120.57115,51.60243],[-120.57133,51.60254],[-120.57168,51.60269],[-120.572,51.60277],[-120.57221,51.60281],[-120.57262,51.6029],[-120.57303,51.60297],[-120.57346,51.603],[-120.57375,51.60303],[-120.57395,51.60305],[-120.57414,51.6031],[-120.57428,51.60316],[-120.57451,51.60325],[-120.57488,51.60338],[-120.57519,51.60346],[-120.57539,51.6035],[-120.57553,51.60352],[-120.57595,51.60359],[-120.57638,51.60359],[-120.57663,51.60356],[-120.57701,51.60347],[-120.57722,51.60344],[-120.5774,51.60345],[-120.57764,51.60351],[-120.57782,51.60359],[-120.57796,51.6037],[-120.57815,51.60387],[-120.57825,51.60401],[-120.57827,51.60415],[-120.57821,51.60427],[-120.57821,51.60434],[-120.57814,51.60457],[-120.57813,51.60467],[-120.57818,51.60481],[-120.57821,51.60486],[-120.57834,51.60499],[-120.57859,51.60511],[-120.5788,51.60522],[-120.5792,51.60532],[-120.57941,51.60538],[-120.57961,51.60543],[-120.57973,51.60547],[-120.57987,51.60554],[-120.58004,51.60564],[-120.58021,51.60574],[-120.58023,51.60575],[-120.58047,51.60584],[-120.58079,51.60593],[-120.58109,51.60596],[-120.58137,51.60596],[-120.58146,51.60595],[-120.58165,51.60594],[-120.58207,51.60589],[-120.58229,51.60585],[-120.58235,51.60583],[-120.58242,51.6058],[-120.58251,51.60577],[-120.58266,51.60571],[-120.58282,51.60563],[-120.583,51.60561],[-120.58321,51.60563],[-120.58327,51.60564],[-120.58354,51.60566],[-120.58368,51.60565],[-120.58382,51.6056],[-120.58403,51.60549],[-120.58406,51.60547],[-120.58432,51.6053],[-120.58449,51.60519],[-120.58458,51.6051],[-120.58472,51.60496]],[[-120.53944,51.56985],[-120.53936,51.56984],[-120.53912,51.56987],[-120.53889,51.56996],[-120.53883,51.56996],[-120.53874,51.56997],[-120.53841,51.57006],[-120.53811,51.57019],[-120.53778,51.57036],[-120.53759,51.5705],[-120.53751,51.57056],[-120.53739,51.57066],[-120.53724,51.57081],[-120.53715,51.57089],[-120.53704,51.57095],[-120.53697,51.57102],[-120.53685,51.57106],[-120.53681,51.57108],[-120.53661,51.57121],[-120.53652,51.57124],[-120.53635,51.5713],[-120.53616,51.57134],[-120.53579,51.57137],[-120.53548,51.57137],[-120.53519,51.57137],[-120.53506,51.57138],[-120.53493,51.57139],[-120.53462,51.57141],[-120.53431,51.5714],[-120.53402,51.5714],[-120.53379,51.57139],[-120.53351,51.57138],[-120.53336,51.57136],[-120.53304,51.57127],[-120.5328,51.57119],[-120.53268,51.57115],[-120.53234,51.57103],[-120.53226,51.571],[-120.53198,51.5709],[-120.5318,51.57084],[-120.53178,51.57083],[-120.53164,51.5708],[-120.53133,51.5707],[-120.53102,51.57062],[-120.5309,51.57059],[-120.53058,51.57048],[-120.53056,51.57047],[-120.53049,51.57044],[-120.53028,51.57034],[-120.52998,51.57028],[-120.52972,51.57025],[-120.52938,51.57025],[-120.52904,51.57024],[-120.52871,51.57023],[-120.52839,51.57024],[-120.52812,51.57028],[-120.52777,51.57037],[-120.52772,51.57038],[-120.52745,51.57041],[-120.5271,51.57041],[-120.52693,51.57042],[-120.52658,51.57048],[-120.52649,51.5705],[-120.52636,51.57053],[-120.52603,51.57065],[-120.52573,51.57074],[-120.52553,51.57082],[-120.52546,51.57085],[-120.52528,51.57093],[-120.52522,51.57098],[-120.52522,51.57107],[-120.52521,51.57116],[-120.52521,51.57125],[-120.5253,51.57148],[-120.52531,51.5715],[-120.52543,51.57163],[-120.52575,51.57182],[-120.52584,51.57187],[-120.52611,51.5721],[-120.52621,51.57215],[-120.52635,51.57224],[-120.52645,51.57232],[-120.52649,51.57239],[-120.52656,51.57242],[-120.52669,51.57258],[-120.52661,51.57273],[-120.52657,51.5728],[-120.52644,51.57299],[-120.52643,51.57301],[-120.52636,51.57317],[-120.52631,51.57327],[-120.52613,51.5735],[-120.52612,51.5735],[-120.52609,51.57353],[-120.52608,51.57355],[-120.52606,51.5736],[-120.52605,51.57382],[-120.52613,51.57395],[-120.52629,51.57416],[-120.52632,51.57424]]]}},
{"type":"Feature","properties":{"spotId":"A-moose-atv-0029","kind":"walk","km":0.15,"climbM":0,"name":"280 m N of Jim Creek","flags":[]},"geometry":{"type":"LineString","coordinates":[[-120.58472,51.60496],[-120.58335,51.60388]]}},
{"type":"Feature","properties":{"spotId":"A-moose-drive-0032","kind":"walk","km":0.08,"climbM":0,"name":"By Windy Creek","flags":[]},"geometry":{"type":"LineString","coordinates":[[-120.61884,51.62587],[-120.61923,51.62656]]}},
{"type":"Feature","properties":{"spotId":"A-moose-walk-0055","kind":"walk","km":0.93,"climbM":19,"name":"1.8 km S of Windy Creek","flags":[]},"geometry":{"type":"LineString","coordinates":[[-120.58649,51.62105],[-120.57795,51.62755]]}},
{"type":"Feature","properties":{"spotId":"A-moose-walk-0058","kind":"walk","km":0.91,"climbM":205,"name":"1.2 km NW of Needa Lake","flags":[]},"geometry":{"type":"LineString","coordinates":[[-120.70765,51.62831],[-120.72059,51.62661]]}}
]}
