{"type":"FeatureCollection","features":[
{"type":"Feature","properties":{"spotId":"A-duck-drive-0102","kind":"walk","km":0.07,"climbM":0,"name":"Unnamed lake 1.4 km NE of Brown Creek","flags":[]},"geometry":{"type":"LineString","coordinates":[[-120.52108,51.34941],[-120.52062,51.34887]]}},
{"type":"Feature","properties":{"spotId":"A-duck-drive-0110","kind":"walk","km":0.14,"climbM":0,"name":"Unnamed wetland by McDonald Creek","flags":[]},"geometry":{"type":"LineString","coordinates":[[-120.61292,51.43144],[-120.61396,51.43041]]}},
{"type":"Feature","properties":{"spotId":"A-duck-drive-0116","kind":"walk","km":0.17,"climbM":0,"name":"Unnamed wetland 290 m SE of Hammer Creek","flags":[]},"geometry":{"type":"LineString","coordinates":[[-120.69569,51.2528],[-120.69795,51.25339]]}},
{"type":"Feature","properties":{"spotId":"A-duck-walk-0038","kind":"walk","km":0.32,"climbM":3,"name":"Unnamed wetland 280 m N of Bonaparte River","flags":[]},"geometry":{"type":"LineString","coordinates":[[-120.70998,51.3141],[-120.71407,51.31276]]}},
{"type":"Feature","properties":{"spotId":"A-duck-walk-0046","kind":"walk","km":0.42,"climbM":0,"name":"Crescent Lake","flags":[]},"geometry":{"type":"LineString","coordinates":[[-120.72112,51.44689],[-120.72704,51.4462]]}},
{"type":"Feature","properties":{"spotId":"A-duck-walk-0047","kind":"walk","km":0.4,"climbM":0,"name":"Unnamed wetland by Bonaparte River","flags":[]},"geometry":{"type":"LineString","coordinates":[[-120.72792,51.32521],[-120.72959,51.32182]]}},
{"type":"Feature","properties":{"spotId":"A-duck-walk-0088","kind":"walk","km":0.4,"climbM":0,"name":"Tortoise Lake","flags":[]},"geometry":{"type":"LineString","coordinates":[[-120.51936,51.43875],[-120.51444,51.44069]]}},
{"type":"Feature","properties":{"spotId":"A-grouse-drive-0115","kind":"roadside","km":5.4,"climbM":133,"name":"770 m NW of Montana Lake","flags":[]},"geometry":{"type":"LineString","coordinates":[[-120.63412,51.44872],[-120.63349,51.4481],[-120.63112,51.44651],[-120.63102,51.44642],[-120.63084,51.44626],[-120.62981,51.44483],[-120.62971,51.4447],[-120.62952,51.44443],[-120.62861,51.44362],[-120.62842,51.44345],[-120.62814,51.44326],[-120.62783,51.44316],[-120.62774,51.44315],[-120.62748,51.44311],[-120.62727,51.44313],[-120.62642,51.4432],[-120.62618,51.44318],[-120.62598,51.44312],[-120.62581,51.44302],[-120.62567,51.44283],[-120.62547,51.44214],[-120.62546,51.44209],[-120.62544,51.44206],[-120.62518,51.44156],[-120.62511,51.44144],[-120.62501,51.44125],[-120.62501,51.44118],[-120.62497,51.44085],[-120.62488,51.44052],[-120.62473,51.44022],[-120.62431,51.43975],[-120.62385,51.43943],[-120.62329,51.43911],[-120.62259,51.4388],[-120.62233,51.43863],[-120.62213,51.43843],[-120.62136,51.43807],[-120.62115,51.43793],[-120.62113,51.4379],[-120.62101,51.43774],[-120.621,51.43757],[-120.62108,51.43742],[-120.62119,51.4373],[-120.6219,51.43649],[-120.62216,51.43598],[-120.6223,51.43581],[-120.62333,51.43451],[-120.62334,51.43438],[-120.62322,51.43416],[-120.62298,51.43395],[-120.62265,51.43383],[-120.62167,51.43362],[-120.62125,51.43358],[-120.61957,51.43359],[-120.61948,51.43358],[-120.61944,51.43357],[-120.61932,51.43353],[-120.6191,51.4334],[-120.61866,51.433],[-120.61846,51.43288],[-120.61842,51.43285],[-120.61817,51.43278],[-120.61791,51.43275],[-120.61647,51.43257],[-120.61565,51.43247],[-120.61526,51.43235],[-120.61445,51.43204],[-120.61401,51.43187],[-120.61178,51.43099],[-120.6111,51.4306],[-120.61048,51.43017],[-120.6096,51.42913],[-120.60929,51.42892],[-120.60894,51.42877],[-120.60807,51.42856],[-120.60766,51.42851],[-120.60649,51.42851],[-120.6063,51.42847],[-120.60618,51.42838],[-120.60589,51.42804],[-120.60573,51.42778],[-120.60568,51.42708],[-120.60556,51.4268],[-120.60537,51.42658],[-120.6048,51.42609],[-120.60458,51.42597],[-120.60359,51.4256],[-120.60345,51.4255],[-120.6032,51.42514],[-120.60298,51.42495],[-120.60211,51.42445],[-120.60167,51.42429],[-120.60007,51.42396],[-120.6,51.42394],[-120.59967,51.42384],[-120.5993,51.42365],[-120.59928,51.42363],[-120.59898,51.42341],[-120.59861,51.42305],[-120.59826,51.42262],[-120.5976,51.42139],[-120.59749,51.42118],[-120.59696,51.42043],[-120.59681,51.42022],[-120.59676,51.42003],[-120.59669,51.41976],[-120.59654,51.41945],[-120.59604,51.41868],[-120.59592,51.41835],[-120.59582,51.41755],[-120.59581,51.41702],[-120.59568,51.4165],[-120.59522,51.41544],[-120.59521,51.41542],[-120.59509,51.41525],[-120.59506,51.41511],[-120.59524,51.41403],[-120.59527,51.41385]]}},
{"type":"Feature","properties":{"spotId":"A-grouse-drive-0117","kind":"roadside","km":5.21,"climbM":116,"name":"370 m NE of Bonaparte River","flags":[]},"geometry":{"type":"LineString","coordinates":[[-120.68225,51.29014],[-120.6822,51.29008],[-120.68143,51.28949],[-120.68105,51.28921],[-120.68049,51.28884],[-120.67953,51.28831],[-120.67922,51.28814],[-120.67895,51.28793],[-120.67873,51.2877],[-120.67859,51.28749],[-120.67844,51.28705],[-120.67846,51.28681],[-120.67848,51.28649],[-120.67849,51.28639],[-120.6785,51.28619],[-120.67857,51.28509],[-120.67951,51.28409],[-120.67963,51.28386],[-120.67969,51.28349],[-120.6797,51.28307],[-120.67972,51.28233],[-120.67959,51.28204],[-120.67953,51.28199],[-120.67937,51.28183],[-120.67927,51.28174],[-120.67896,51.28145],[-120.67886,51.28124],[-120.67884,51.28072],[-120.67888,51.2805],[-120.67921,51.28011],[-120.67928,51.28002],[-120.67984,51.27877],[-120.67995,51.27846],[-120.68035,51.27732],[-120.68043,51.27679],[-120.68049,51.27643],[-120.68098,51.2733],[-120.68142,51.27048],[-120.68162,51.27024],[-120.68198,51.26979],[-120.68284,51.26927],[-120.6835,51.26901],[-120.68399,51.26893],[-120.68493,51.26876],[-120.6866,51.26865],[-120.68723,51.26858],[-120.68785,51.26834],[-120.6887,51.26787],[-120.68893,51.26774],[-120.68911,51.26763],[-120.68919,51.26759],[-120.68977,51.26715],[-120.69021,51.26681],[-120.69111,51.26612],[-120.69115,51.26608],[-120.69149,51.26567],[-120.69221,51.26481],[-120.69226,51.26464],[-120.69224,51.26445],[-120.69221,51.26437],[-120.69213,51.26415],[-120.69197,51.26372],[-120.69157,51.26267],[-120.6915,51.2621],[-120.69146,51.2618],[-120.69142,51.26152],[-120.69145,51.26129],[-120.69149,51.26104],[-120.69164,51.26082],[-120.69162,51.26054],[-120.69144,51.26013],[-120.69139,51.25975],[-120.69143,51.25936],[-120.69196,51.25882],[-120.69213,51.25875],[-120.69257,51.25856],[-120.69261,51.25854],[-120.69314,51.2583],[-120.69404,51.25756],[-120.69421,51.25742],[-120.69432,51.25733],[-120.69454,51.25715],[-120.6948,51.25693],[-120.69504,51.25662],[-120.69517,51.25635],[-120.69525,51.25588],[-120.69514,51.25448],[-120.69509,51.25386],[-120.6951,51.25383],[-120.69522,51.25349],[-120.69552,51.25304],[-120.6959,51.25248],[-120.69612,51.25191],[-120.69612,51.25159],[-120.69606,51.2514],[-120.69586,51.25108],[-120.69582,51.25095],[-120.69542,51.24959]]}},
{"type":"Feature","properties":{"spotId":"A-grouse-walk-0072","kind":"roadside","km":5.2,"climbM":101,"name":"570 m NE of Bonaparte River","flags":[]},"geometry":{"type":"LineString","coordinates":[[-120.68972,51.29817],[-120.68958,51.29807],[-120.68931,51.29792],[-120.68902,51.29774],[-120.68873,51.29747],[-120.68838,51.29712],[-120.68792,51.29681],[-120.68743,51.29656],[-120.6869,51.2962],[-120.68648,51.29587],[-120.68624,51.29558],[-120.68595,51.29528],[-120.68572,51.29496],[-120.68529,51.29436],[-120.68445,51.29325],[-120.68384,51.29237],[-120.68337,51.29184],[-120.68304,51.29144],[-120.68285,51.29113],[-120.6827,51.29085],[-120.68248,51.29039],[-120.68163,51.28965],[-120.68055,51.28883],[-120.67967,51.28837],[-120.67918,51.28808],[-120.67877,51.28774],[-120.67861,51.28738],[-120.67845,51.28684],[-120.67841,51.28666],[-120.67847,51.28606],[-120.67855,51.28545],[-120.67859,51.28524],[-120.67865,51.28511],[-120.67877,51.28494],[-120.67894,51.28471],[-120.6792,51.28446],[-120.67944,51.28422],[-120.67957,51.28401],[-120.67963,51.2838],[-120.67965,51.28352],[-120.67966,51.28306],[-120.67965,51.28272],[-120.67963,51.28235],[-120.67958,51.28225],[-120.6795,51.28207],[-120.67933,51.28192],[-120.67908,51.2817],[-120.67884,51.28142],[-120.67874,51.28117],[-120.67876,51.28088],[-120.6789,51.28058],[-120.67913,51.28026],[-120.6793,51.28001],[-120.67953,51.27948],[-120.67956,51.2794],[-120.67964,51.27925],[-120.67972,51.27909],[-120.67977,51.27895],[-120.67983,51.27875],[-120.67987,51.2786],[-120.67992,51.27846],[-120.67994,51.27841],[-120.68,51.27827],[-120.68008,51.27812],[-120.68013,51.27798],[-120.68017,51.27782],[-120.68025,51.27762],[-120.68029,51.27747],[-120.6803,51.27728],[-120.68033,51.27714],[-120.68037,51.27698],[-120.68042,51.27679],[-120.6804,51.27672],[-120.68038,51.27654],[-120.68039,51.27636],[-120.68036,51.27621],[-120.68033,51.27609],[-120.68022,51.27593],[-120.68016,51.27578],[-120.68011,51.27562],[-120.68009,51.27544],[-120.68008,51.27528],[-120.68009,51.2751],[-120.68005,51.27498],[-120.67995,51.27484],[-120.67981,51.27468],[-120.6797,51.27453],[-120.67958,51.27438],[-120.67949,51.27425],[-120.67938,51.2741],[-120.6793,51.27391],[-120.67924,51.27373],[-120.67916,51.2736],[-120.67912,51.27354],[-120.67906,51.27345],[-120.67896,51.27331],[-120.67893,51.27313],[-120.67894,51.27294],[-120.67895,51.27278],[-120.67895,51.27261],[-120.67896,51.27245],[-120.67895,51.2723],[-120.67896,51.27214],[-120.67896,51.27196],[-120.67898,51.2718],[-120.67898,51.27172],[-120.67917,51.27156],[-120.67927,51.27143],[-120.67935,51.27127],[-120.67939,51.27112],[-120.67944,51.27098],[-120.67945,51.27081],[-120.67946,51.27061],[-120.67945,51.27043],[-120.67946,51.27027],[-120.67945,51.27009],[-120.67946,51.26992],[-120.67944,51.26973],[-120.67944,51.26957],[-120.67943,51.26941],[-120.67938,51.26927],[-120.67929,51.2691],[-120.67918,51.26896],[-120.67907,51.26881],[-120.679,51.26867],[-120.6789,51.26852],[-120.67879,51.26844],[-120.67861,51.26841],[-120.67856,51.2684],[-120.67873,51.26834],[-120.67901,51.2683],[-120.67923,51.26828],[-120.67947,51.26828],[-120.67956,51.26828],[-120.6797,51.26829],[-120.67993,51.26835],[-120.68019,51.26841],[-120.68041,51.26847],[-120.68067,51.26852],[-120.68091,51.26858],[-120.68113,51.26863],[-120.68138,51.26866],[-120.68164,51.26874],[-120.68189,51.26878],[-120.68213,51.26883],[-120.68235,51.26886],[-120.68264,51.2689],[-120.68283,51.26897],[-120.68297,51.26915],[-120.68342,51.26901],[-120.68366,51.26899],[-120.68385,51.26897],[-120.684,51.26895],[-120.68414,51.26894],[-120.6844,51.26888],[-120.68474,51.26881],[-120.68497,51.26877],[-120.68526,51.26873],[-120.68555,51.2687],[-120.68579,51.26868],[-120.68611,51.26867],[-120.68642,51.26866],[-120.68665,51.26865],[-120.68694,51.26862],[-120.68719,51.26858],[-120.68739,51.26852],[-120.68762,51.26844],[-120.68787,51.26833],[-120.68809,51.26824],[-120.68828,51.26815],[-120.68852,51.26803],[-120.6887,51.26792],[-120.68874,51.2679],[-120.6889,51.26778],[-120.68895,51.26775],[-120.68911,51.26763],[-120.68921,51.26756],[-120.68939,51.26744],[-120.68962,51.2673],[-120.68979,51.26718],[-120.68981,51.26717],[-120.68996,51.26707],[-120.69015,51.26692],[-120.69026,51.26683],[-120.69035,51.26675],[-120.69051,51.26662],[-120.69069,51.26649],[-120.69087,51.26638],[-120.691,51.26625],[-120.69116,51.26612],[-120.6912,51.26609],[-120.6913,51.26599],[-120.69144,51.26583],[-120.69158,51.26569],[-120.69159,51.26568],[-120.69164,51.26555],[-120.6917,51.2654],[-120.69181,51.26528],[-120.69199,51.26512],[-120.69213,51.26496],[-120.69225,51.26482],[-120.69233,51.26467],[-120.69234,51.26451],[-120.69231,51.26436],[-120.69242,51.26424],[-120.69257,51.26416],[-120.69275,51.26404],[-120.69292,51.26392],[-120.69312,51.26383],[-120.69332,51.26373],[-120.69355,51.26365],[-120.69376,51.26361],[-120.69396,51.26356],[-120.69429,51.26349],[-120.69451,51.26344],[-120.69472,51.26333],[-120.69497,51.26322],[-120.6952,51.26317],[-120.6955,51.26311],[-120.69572,51.2631]]}},
{"type":"Feature","properties":{"spotId":"A-moose-drive-0042","kind":"walk","km":0.27,"climbM":6,"name":"790 m S of Lac des Roches","flags":[]},"geometry":{"type":"LineString","coordinates":[[-120.53039,51.44356],[-120.53327,51.44522]]}},
{"type":"Feature","properties":{"spotId":"A-moose-walk-0019","kind":"walk","km":0.4,"climbM":21,"name":"2.5 km SE of Machete Lake","flags":[]},"geometry":{"type":"LineString","coordinates":[[-120.53679,51.35973],[-120.54251,51.35968]]}},
{"type":"Feature","properties":{"spotId":"A-moose-walk-0066","kind":"walk","km":0.4,"climbM":1,"name":"130 m NE of Mooney Creek","flags":[]},"geometry":{"type":"LineString","coordinates":[[-120.51023,51.49089],[-120.51283,51.48767]]}},
{"type":"Feature","properties":{"spotId":"A-moose-walk-0070","kind":"walk","km":1.18,"climbM":148,"name":"1.2 km N of East Twin Lake","flags":["Route crosses private land (ParcelMap BC, updated 2026-09-25): get permission first or go around."]},"geometry":{"type":"LineString","coordinates":[[-120.63543,51.47112],[-120.62443,51.47915]]}}
]}
