{"type":"FeatureCollection","features":[
{"type":"Feature","properties":{"spotId":"A-camp-camp-0106","kind":"walk","km":0.25,"climbM":10,"name":"1.0 km NE of Horace Lake","flags":[]},"geometry":{"type":"LineString","coordinates":[[-120.58533,50.91949],[-120.5874,50.92132]]}},
{"type":"Feature","properties":{"spotId":"A-duck-drive-0088","kind":"walk","km":0.02,"climbM":0,"name":"Unnamed wetland 240 m S of Sydney Lake","flags":[]},"geometry":{"type":"LineString","coordinates":[[-120.60341,50.877],[-120.60361,50.87692]]}},
{"type":"Feature","properties":{"spotId":"A-duck-drive-0128","kind":"walk","km":0.13,"climbM":0,"name":"Unnamed wetland 1.6 km S of Opax Hill","flags":[]},"geometry":{"type":"LineString","coordinates":[[-120.5018,50.81291],[-120.50004,50.8133]]}},
{"type":"Feature","properties":{"spotId":"A-duck-drive-0141","kind":"walk","km":0.15,"climbM":3,"name":"Unnamed lake 1.1 km NW of Doherty Creek","flags":[]},"geometry":{"type":"LineString","coordinates":[[-120.62843,50.79132],[-120.63055,50.79128]]}},
{"type":"Feature","properties":{"spotId":"A-duck-walk-0072","kind":"walk","km":0.38,"climbM":0,"name":"Gisborne Lake","flags":[]},"geometry":{"type":"LineString","coordinates":[[-120.7279,50.98529],[-120.73025,50.98221]]}},
{"type":"Feature","properties":{"spotId":"A-duck-walk-0080","kind":"walk","km":0.44,"climbM":1,"name":"Unnamed wetland 570 m SE of Tranquille Lake","flags":[]},"geometry":{"type":"LineString","coordinates":[[-120.54385,50.93226],[-120.55016,50.93207]]}},
{"type":"Feature","properties":{"spotId":"A-duck-walk-0112","kind":"walk","km":0.37,"climbM":0,"name":"Horace Lake","flags":[]},"geometry":{"type":"LineString","coordinates":[[-120.60598,50.91976],[-120.60277,50.91715]]}},
{"type":"Feature","properties":{"spotId":"A-duck-walk-0123","kind":"walk","km":0.4,"climbM":9,"name":"Unnamed wetland 1.3 km NW of Doherty Creek","flags":[]},"geometry":{"type":"LineString","coordinates":[[-120.62843,50.79128],[-120.634,50.79087]]}},
{"type":"Feature","properties":{"spotId":"A-grouse-drive-0017","kind":"roadside","km":4.46,"climbM":28,"name":"By Tranquille River","flags":[]},"geometry":{"type":"LineString","coordinates":[[-120.61608,50.94291],[-120.61612,50.94292],[-120.6163,50.94301],[-120.61652,50.94312],[-120.61676,50.9432],[-120.617,50.94328],[-120.61722,50.94336],[-120.61743,50.94346],[-120.61763,50.94357],[-120.61781,50.94367],[-120.618,50.94376],[-120.61829,50.94392],[-120.61852,50.944],[-120.61875,50.94408],[-120.61896,50.94415],[-120.61901,50.94416],[-120.61925,50.94418],[-120.61949,50.94422],[-120.61974,50.94426],[-120.61998,50.94428],[-120.62022,50.94429],[-120.62046,50.9443],[-120.62073,50.94431],[-120.62098,50.94435],[-120.62123,50.94438],[-120.62147,50.94442],[-120.62171,50.94445],[-120.62195,50.94448],[-120.6222,50.94452],[-120.62246,50.94457],[-120.62267,50.94461],[-120.6229,50.94465],[-120.62315,50.9447],[-120.62337,50.94475],[-120.62363,50.9448],[-120.62387,50.94488],[-120.62412,50.94494],[-120.62437,50.94499],[-120.62466,50.94504],[-120.62488,50.94507],[-120.62515,50.94512],[-120.62538,50.94516],[-120.62563,50.94521],[-120.62587,50.94526],[-120.62612,50.94531],[-120.62635,50.94535],[-120.62662,50.9454],[-120.62688,50.94544],[-120.62715,50.94547],[-120.62741,50.94549],[-120.62763,50.94552],[-120.62789,50.94558],[-120.62816,50.94563],[-120.62844,50.9457],[-120.62865,50.94575],[-120.6289,50.94581],[-120.62913,50.94587],[-120.62935,50.94594],[-120.62965,50.94601],[-120.62993,50.94605],[-120.63017,50.94609],[-120.63038,50.94617],[-120.63059,50.94623],[-120.63083,50.94629],[-120.63109,50.94636],[-120.63132,50.94643],[-120.63159,50.9465],[-120.63178,50.94658],[-120.63198,50.94668],[-120.63206,50.94672],[-120.63216,50.94678],[-120.63235,50.94686],[-120.63256,50.94697],[-120.63275,50.94706],[-120.63296,50.94714],[-120.6332,50.94726],[-120.63341,50.94739],[-120.6336,50.94749],[-120.63379,50.94757],[-120.634,50.94768],[-120.6342,50.94777],[-120.63442,50.94789],[-120.6346,50.948],[-120.63476,50.94812],[-120.6349,50.94824],[-120.63512,50.94837],[-120.63529,50.94847],[-120.63547,50.94859],[-120.63572,50.94871],[-120.6359,50.9488],[-120.63611,50.9489],[-120.6363,50.949],[-120.63653,50.94913],[-120.6366,50.94917],[-120.63678,50.94925],[-120.63701,50.94938],[-120.63721,50.94949],[-120.63741,50.94957],[-120.63756,50.94968],[-120.63774,50.9498],[-120.63795,50.94993],[-120.63813,50.95003],[-120.63832,50.95013],[-120.6385,50.95024],[-120.63871,50.95034],[-120.63888,50.95042],[-120.63893,50.95044],[-120.63911,50.95054],[-120.63929,50.95065],[-120.6395,50.95078],[-120.63968,50.9509],[-120.63987,50.95103],[-120.64003,50.95115],[-120.64037,50.95135],[-120.64053,50.95148],[-120.6407,50.95158],[-120.6409,50.9517],[-120.64111,50.95179],[-120.64135,50.95187],[-120.64157,50.95196],[-120.64177,50.95204],[-120.64199,50.95212],[-120.6422,50.95222],[-120.64241,50.95234],[-120.64262,50.95243],[-120.64281,50.95252],[-120.64302,50.9526],[-120.64325,50.95268],[-120.64351,50.95276],[-120.64363,50.95279],[-120.64377,50.95283],[-120.64404,50.95283],[-120.64432,50.95282],[-120.64455,50.95283],[-120.64482,50.95284],[-120.64488,50.95284],[-120.64507,50.95287],[-120.64536,50.95292],[-120.64562,50.95296],[-120.64592,50.953],[-120.64615,50.95305],[-120.64637,50.95311],[-120.64661,50.95316],[-120.64682,50.95322],[-120.64707,50.9533],[-120.64731,50.95338],[-120.64752,50.95346],[-120.64772,50.95354],[-120.64791,50.95363],[-120.64818,50.95369],[-120.64841,50.95371],[-120.64868,50.95373],[-120.64894,50.95377],[-120.64913,50.95378],[-120.64937,50.95377],[-120.64963,50.95377],[-120.64988,50.95375],[-120.65017,50.95375],[-120.65043,50.95375],[-120.6507,50.95374],[-120.65094,50.95373],[-120.65118,50.95373],[-120.65147,50.95371],[-120.65157,50.95372],[-120.6517,50.95371],[-120.65198,50.95371],[-120.65221,50.95369],[-120.65244,50.95366],[-120.65261,50.9536],[-120.6528,50.95349],[-120.65298,50.95338],[-120.65316,50.95325],[-120.65333,50.95314],[-120.65352,50.95303],[-120.6537,50.9529],[-120.65388,50.95277],[-120.65407,50.95268],[-120.65426,50.95259],[-120.65446,50.95251],[-120.65468,50.95242],[-120.6549,50.95234],[-120.65513,50.95233],[-120.65534,50.95234],[-120.65559,50.95242],[-120.6558,50.95252],[-120.65598,50.95264],[-120.65617,50.95275],[-120.65635,50.95284],[-120.65656,50.95292],[-120.65679,50.95299],[-120.65698,50.95303],[-120.65723,50.95302],[-120.65748,50.95302],[-120.65771,50.95299],[-120.65796,50.95292],[-120.65816,50.95283],[-120.65834,50.95274],[-120.65853,50.95264],[-120.6587,50.95253],[-120.65888,50.95241],[-120.65907,50.95229],[-120.65926,50.95219],[-120.65945,50.95208],[-120.65964,50.95195],[-120.65985,50.95181],[-120.66006,50.95169],[-120.66022,50.95155],[-120.66038,50.95142],[-120.66056,50.95129],[-120.66074,50.95118],[-120.66078,50.95114],[-120.66089,50.95105],[-120.66102,50.95093],[-120.6612,50.95082],[-120.66133,50.95073],[-120.66151,50.95062],[-120.66164,50.95056],[-120.66189,50.95055],[-120.66206,50.95059],[-120.66229,50.95068],[-120.6625,50.95075],[-120.66273,50.95081],[-120.663,50.95081],[-120.66316,50.95077],[-120.66331,50.95068],[-120.66343,50.95057],[-120.66344,50.95056],[-120.66359,50.95041],[-120.66372,50.95025],[-120.66373,50.95023],[-120.66382,50.9501],[-120.66393,50.94996],[-120.66427,50.94977],[-120.66442,50.94965],[-120.66455,50.9495],[-120.66462,50.94936],[-120.66471,50.94922],[-120.6648,50.94908],[-120.66489,50.94894],[-120.665,50.94881],[-120.66504,50.94864],[-120.66507,50.9485],[-120.66514,50.94835],[-120.6652,50.94822],[-120.66528,50.94808],[-120.66546,50.94794],[-120.66566,50.94784],[-120.66585,50.94775],[-120.66605,50.94766],[-120.66624,50.94757],[-120.66646,50.94749],[-120.66672,50.94745],[-120.66699,50.94744],[-120.66722,50.94745],[-120.66748,50.9475],[-120.66774,50.94757],[-120.66795,50.94767],[-120.66814,50.94773],[-120.66829,50.94776]]}},
{"type":"Feature","properties":{"spotId":"A-grouse-drive-0020","kind":"roadside","km":3.01,"climbM":39,"name":"1.0 km E of Tranquille Plateau","flags":[]},"geometry":{"type":"LineString","coordinates":[[-120.57056,50.89734],[-120.56973,50.89714],[-120.56913,50.89697],[-120.56843,50.89674],[-120.56812,50.89661],[-120.56807,50.8966],[-120.56802,50.89658],[-120.56797,50.89657],[-120.56791,50.89655],[-120.56766,50.89646],[-120.56759,50.89642],[-120.56751,50.89638],[-120.56735,50.8963],[-120.56726,50.89625],[-120.56693,50.89602],[-120.56671,50.89589],[-120.56637,50.8957],[-120.56618,50.89556],[-120.56598,50.89542],[-120.56587,50.89535],[-120.56567,50.89521],[-120.56559,50.89515],[-120.56549,50.89509],[-120.56541,50.89502],[-120.56515,50.89484],[-120.56499,50.89473],[-120.56484,50.89465],[-120.56467,50.89454],[-120.56448,50.8944],[-120.5644,50.89432],[-120.56421,50.89431],[-120.56403,50.89433],[-120.56345,50.89452],[-120.56336,50.89457],[-120.56264,50.89503],[-120.56214,50.89532],[-120.56202,50.8954],[-120.56198,50.89542],[-120.56174,50.89558],[-120.5617,50.8956],[-120.56146,50.89575],[-120.56131,50.89586],[-120.56118,50.89598],[-120.561,50.89612],[-120.56054,50.89644],[-120.56043,50.89652],[-120.56029,50.89663],[-120.55999,50.8969],[-120.55995,50.89693],[-120.55991,50.89699],[-120.55987,50.89706],[-120.55986,50.89713],[-120.55986,50.89717],[-120.55986,50.8972],[-120.55989,50.89727],[-120.55994,50.89734],[-120.56008,50.8975],[-120.56024,50.89769],[-120.56027,50.89772],[-120.56028,50.89798],[-120.56021,50.89812],[-120.56016,50.89814],[-120.56007,50.89818],[-120.5598,50.89824],[-120.55964,50.89827],[-120.55958,50.89827],[-120.55947,50.89828],[-120.55919,50.89827],[-120.55892,50.89825],[-120.55869,50.89824],[-120.55847,50.89826],[-120.55823,50.8983],[-120.55818,50.89829],[-120.558,50.89828],[-120.55778,50.89825],[-120.55707,50.89806],[-120.55683,50.89801],[-120.55665,50.89797],[-120.55642,50.89797],[-120.55615,50.898],[-120.55584,50.8981],[-120.55554,50.89822],[-120.55543,50.89824],[-120.55537,50.89825],[-120.55526,50.89826],[-120.55521,50.89828],[-120.55488,50.89832],[-120.55471,50.89834],[-120.55465,50.89834],[-120.55454,50.89834],[-120.55425,50.89834],[-120.55419,50.89833],[-120.55414,50.89833],[-120.55391,50.89831],[-120.55381,50.89829],[-120.55365,50.89825],[-120.55311,50.89804],[-120.55306,50.89802],[-120.55297,50.89798],[-120.5529,50.89793],[-120.55283,50.89787],[-120.55267,50.89763],[-120.55244,50.89723],[-120.55225,50.89688],[-120.5522,50.89682],[-120.55216,50.89679],[-120.55208,50.89674],[-120.55198,50.8967],[-120.55193,50.89668],[-120.55188,50.89666],[-120.55183,50.89665],[-120.55178,50.89665],[-120.55172,50.89665],[-120.55167,50.89666],[-120.55161,50.89667],[-120.5514,50.8967],[-120.55121,50.89674],[-120.55105,50.89679],[-120.55091,50.89685],[-120.55072,50.89695],[-120.55044,50.89708],[-120.55011,50.89724],[-120.54997,50.89729],[-120.54984,50.89738],[-120.54967,50.89754],[-120.54955,50.89762],[-120.54948,50.89768],[-120.54934,50.89779],[-120.54931,50.89782],[-120.54924,50.89792],[-120.54914,50.89809],[-120.5491,50.89816],[-120.54906,50.89822],[-120.54888,50.89833],[-120.54873,50.89843],[-120.54855,50.89849],[-120.54823,50.89854],[-120.54796,50.89858],[-120.54746,50.89861],[-120.54702,50.89865],[-120.54673,50.8987],[-120.54652,50.89872],[-120.54631,50.89874],[-120.54604,50.89872],[-120.54518,50.89874],[-120.54487,50.89877],[-120.54467,50.89883],[-120.54449,50.89893],[-120.54432,50.89905],[-120.54413,50.89923],[-120.54385,50.89949],[-120.54373,50.89967],[-120.54365,50.89991],[-120.54359,50.90025],[-120.54358,50.90042],[-120.54352,50.90055],[-120.54335,50.90069],[-120.54301,50.90086],[-120.54263,50.90102],[-120.54187,50.90126],[-120.54183,50.90127],[-120.54173,50.90132],[-120.54154,50.90139],[-120.54133,50.90145],[-120.54117,50.90148],[-120.54095,50.90157],[-120.54073,50.90164],[-120.54056,50.90166],[-120.54028,50.90165],[-120.53974,50.90154],[-120.53969,50.90153],[-120.53963,50.90152],[-120.53933,50.90144],[-120.53923,50.90141]]}},
{"type":"Feature","properties":{"spotId":"A-grouse-drive-0038","kind":"roadside","km":4.02,"climbM":61,"name":"290 m NW of Rosseau Creek","flags":[]},"geometry":{"type":"LineString","coordinates":[[-120.69241,50.82231],[-120.69256,50.82233],[-120.69333,50.8226],[-120.69402,50.82281],[-120.69427,50.82301],[-120.69439,50.82312],[-120.69474,50.82344],[-120.69527,50.82382],[-120.69638,50.82457],[-120.69676,50.82484],[-120.69707,50.82512],[-120.69791,50.82542],[-120.69847,50.82577],[-120.69936,50.82648],[-120.70045,50.82803],[-120.70094,50.82842],[-120.70173,50.82922],[-120.70215,50.8298],[-120.70259,50.83046],[-120.70329,50.83102],[-120.70381,50.83136],[-120.70402,50.8314],[-120.70451,50.83132],[-120.70465,50.83129],[-120.70482,50.83132],[-120.70497,50.83135],[-120.70507,50.83156],[-120.70509,50.83178],[-120.70506,50.83241],[-120.70488,50.83265],[-120.70451,50.83285],[-120.70432,50.83294],[-120.70417,50.83309],[-120.70419,50.83314],[-120.70448,50.83379],[-120.70538,50.83506],[-120.70572,50.83582],[-120.70574,50.83586],[-120.70608,50.8368],[-120.70674,50.83734],[-120.70743,50.83776],[-120.70762,50.83828],[-120.70764,50.83845],[-120.70773,50.839],[-120.70778,50.8396],[-120.70806,50.84034],[-120.70833,50.84072],[-120.70854,50.84123],[-120.70939,50.84195],[-120.70972,50.8425],[-120.70977,50.84318],[-120.70978,50.84341],[-120.70959,50.84439],[-120.70943,50.84476],[-120.70958,50.84541],[-120.71,50.84616],[-120.71031,50.84703],[-120.71008,50.84774],[-120.70995,50.8483],[-120.7093,50.84861],[-120.70882,50.8489],[-120.70846,50.84921],[-120.70817,50.8494],[-120.70791,50.84966],[-120.70779,50.84983],[-120.70755,50.84999],[-120.7074,50.85007],[-120.70708,50.85005],[-120.70676,50.84995],[-120.7066,50.8498],[-120.70626,50.8496],[-120.70594,50.84935],[-120.70573,50.84925],[-120.70532,50.84918],[-120.70493,50.84917],[-120.70431,50.8492],[-120.70391,50.84919],[-120.70376,50.84917],[-120.7033,50.84906]]}},
{"type":"Feature","properties":{"spotId":"A-grouse-walk-0009","kind":"roadside","km":4.87,"climbM":53,"name":"590 m N of Dynes Lake","flags":[]},"geometry":{"type":"LineString","coordinates":[[-120.59836,50.89829],[-120.59847,50.89834],[-120.59882,50.89848],[-120.59915,50.89865],[-120.59958,50.89884],[-120.59999,50.89904],[-120.60038,50.8992],[-120.60073,50.89932],[-120.60123,50.8995],[-120.60157,50.89962],[-120.60206,50.89974],[-120.60251,50.89981],[-120.60286,50.89988],[-120.60356,50.90003],[-120.60445,50.9002],[-120.60533,50.90045],[-120.60618,50.90066],[-120.60683,50.90081],[-120.60708,50.90087],[-120.6076,50.90097],[-120.60786,50.90103],[-120.60878,50.90128],[-120.60939,50.90141],[-120.60987,50.90148],[-120.61032,50.90152],[-120.61077,50.90153],[-120.61136,50.90155],[-120.61205,50.90153],[-120.61286,50.90154],[-120.61393,50.90156],[-120.61484,50.90158],[-120.6155,50.9016],[-120.61586,50.90162],[-120.61632,50.90167],[-120.61679,50.90175],[-120.61733,50.90181],[-120.61768,50.90184],[-120.61792,50.90183],[-120.61825,50.9019],[-120.61886,50.90202],[-120.6194,50.90214],[-120.61995,50.90232],[-120.62058,50.90254],[-120.62094,50.90264],[-120.62165,50.90278],[-120.62248,50.90293],[-120.62348,50.90311],[-120.6239,50.90323],[-120.62429,50.90327],[-120.62475,50.90329],[-120.62512,50.90327],[-120.62568,50.90321],[-120.62635,50.90314],[-120.62703,50.9031],[-120.62749,50.90307],[-120.62786,50.9031],[-120.62832,50.90314],[-120.62854,50.9032],[-120.62889,50.9033],[-120.62925,50.90338],[-120.62959,50.90347],[-120.63,50.90359],[-120.63048,50.9037],[-120.63123,50.90389],[-120.63162,50.90399],[-120.63211,50.90409],[-120.63226,50.90415],[-120.6325,50.90422],[-120.63276,50.90438],[-120.63293,50.90459],[-120.63318,50.90489],[-120.6334,50.90517],[-120.63373,50.90555],[-120.63414,50.90605],[-120.63448,50.90647],[-120.63478,50.90678],[-120.63509,50.90703],[-120.63544,50.90724],[-120.63601,50.90754],[-120.6366,50.90774],[-120.6371,50.90794],[-120.63766,50.90816],[-120.6381,50.90838],[-120.6386,50.90867],[-120.63892,50.90894],[-120.63925,50.90924],[-120.63946,50.90948],[-120.6399,50.90999],[-120.64022,50.91026],[-120.64047,50.91049],[-120.64085,50.91086],[-120.6413,50.91132],[-120.64168,50.9118],[-120.64217,50.91235],[-120.64264,50.91306],[-120.64338,50.91405],[-120.64378,50.91458],[-120.64409,50.91495],[-120.64441,50.91541],[-120.64482,50.91601],[-120.6452,50.91651],[-120.64533,50.91674],[-120.64564,50.91715],[-120.64588,50.91753],[-120.64607,50.91785],[-120.64628,50.91823],[-120.64642,50.91859],[-120.64656,50.91905],[-120.6467,50.91939],[-120.64694,50.91975],[-120.6472,50.92002],[-120.64757,50.92038],[-120.64801,50.92068],[-120.6483,50.92093],[-120.64866,50.92124],[-120.64895,50.92156],[-120.6491,50.92181],[-120.64916,50.92188]]}},
{"type":"Feature","properties":{"spotId":"A-grouse-walk-0011","kind":"roadside","km":4.83,"climbM":42,"name":"510 m SW of Tranquille Lake","flags":[]},"geometry":{"type":"LineString","coordinates":[[-120.58647,50.93363],[-120.58701,50.93381],[-120.58757,50.93388],[-120.58801,50.934],[-120.58856,50.9342],[-120.58909,50.93436],[-120.58991,50.93461],[-120.59027,50.93472],[-120.59069,50.93482],[-120.59108,50.9349],[-120.59154,50.93492],[-120.59199,50.93489],[-120.59235,50.93489],[-120.59265,50.93495],[-120.593,50.93515],[-120.59331,50.93531],[-120.59365,50.93546],[-120.59397,50.93559],[-120.59422,50.9357],[-120.59433,50.93586],[-120.59464,50.93595],[-120.59513,50.93601],[-120.59576,50.93609],[-120.59615,50.93614],[-120.59657,50.93616],[-120.59722,50.93621],[-120.59774,50.93626],[-120.59845,50.93638],[-120.599,50.93646],[-120.59955,50.93658],[-120.60019,50.93673],[-120.60058,50.93682],[-120.60091,50.93685],[-120.60126,50.93687],[-120.60182,50.93691],[-120.6024,50.93697],[-120.60288,50.93707],[-120.60331,50.93714],[-120.60391,50.93719],[-120.60457,50.93717],[-120.60526,50.93713],[-120.60583,50.93706],[-120.60628,50.93691],[-120.60657,50.93683],[-120.60702,50.93687],[-120.60744,50.93695],[-120.6078,50.93706],[-120.60821,50.9372],[-120.60863,50.93726],[-120.60896,50.93727],[-120.60923,50.93723],[-120.60942,50.9371],[-120.60959,50.93699],[-120.60972,50.93692],[-120.60995,50.93691],[-120.61026,50.93693],[-120.6107,50.937],[-120.61079,50.93702],[-120.61088,50.93706],[-120.61099,50.93709],[-120.6116,50.93725],[-120.61251,50.93751],[-120.6133,50.93775],[-120.61406,50.93794],[-120.61435,50.93819],[-120.61469,50.93863],[-120.61524,50.93909],[-120.61547,50.93938],[-120.61599,50.93971],[-120.61689,50.94009],[-120.61785,50.94056],[-120.61847,50.94084],[-120.61877,50.94103],[-120.61902,50.9412],[-120.61927,50.94149],[-120.61948,50.94173],[-120.6198,50.94191],[-120.62021,50.94206],[-120.62062,50.9421],[-120.62099,50.942],[-120.62161,50.94203],[-120.62216,50.94207],[-120.6228,50.9423],[-120.62336,50.94259],[-120.62401,50.94285],[-120.62425,50.94298],[-120.62423,50.94317],[-120.62421,50.94332],[-120.62415,50.9435],[-120.62398,50.94368],[-120.62387,50.94385],[-120.62382,50.94404],[-120.62385,50.94418],[-120.62398,50.94438],[-120.62416,50.94454],[-120.62426,50.9447],[-120.62447,50.94482],[-120.62473,50.94489],[-120.62496,50.94495],[-120.62523,50.94502],[-120.62551,50.94508],[-120.6257,50.94512],[-120.62602,50.94516],[-120.62615,50.94519],[-120.62643,50.94512],[-120.62667,50.9451],[-120.62696,50.94511],[-120.62719,50.94518],[-120.6274,50.94526],[-120.62775,50.94532],[-120.62805,50.94537],[-120.62834,50.9454],[-120.62853,50.94542],[-120.62875,50.94549],[-120.62883,50.94558],[-120.62894,50.94563],[-120.62921,50.94563],[-120.62948,50.94561],[-120.62969,50.94564],[-120.6298,50.94571],[-120.63,50.94583],[-120.63013,50.94586],[-120.63028,50.94576],[-120.63038,50.94568],[-120.63052,50.94573],[-120.63059,50.94581],[-120.63071,50.94593],[-120.63092,50.94607],[-120.63114,50.94613],[-120.63128,50.94622],[-120.63158,50.94626],[-120.6318,50.94629],[-120.6319,50.94634],[-120.63207,50.94641],[-120.63225,50.94647],[-120.6323,50.94662],[-120.63237,50.94676],[-120.63254,50.94686],[-120.63272,50.94697],[-120.63291,50.94705],[-120.63327,50.94709],[-120.63343,50.94709],[-120.63365,50.94722],[-120.63382,50.9474],[-120.63401,50.94755],[-120.63418,50.94764],[-120.63432,50.94769],[-120.63464,50.94777],[-120.63485,50.94786],[-120.635,50.94799],[-120.63505,50.94803],[-120.63528,50.94805],[-120.63547,50.9482],[-120.6357,50.94833],[-120.63592,50.94845],[-120.63611,50.9486],[-120.63628,50.9488],[-120.63637,50.94895],[-120.63646,50.94903],[-120.63677,50.94906],[-120.63705,50.94905],[-120.63728,50.94907],[-120.63737,50.94917],[-120.63746,50.94933],[-120.63761,50.94945],[-120.63786,50.94959],[-120.63808,50.94968],[-120.63825,50.94976],[-120.63848,50.94984],[-120.63868,50.9499],[-120.63877,50.94999],[-120.63895,50.95015],[-120.63914,50.95027],[-120.6394,50.9504],[-120.63964,50.95053],[-120.63981,50.95067],[-120.64005,50.95082],[-120.64023,50.95091],[-120.64029,50.95105],[-120.64038,50.95115],[-120.64053,50.95123],[-120.64067,50.95132],[-120.64083,50.95142],[-120.64099,50.95147],[-120.64117,50.95151],[-120.64132,50.95167],[-120.64144,50.95178],[-120.64163,50.95182]]}},
{"type":"Feature","properties":{"spotId":"A-grouse-walk-0016","kind":"roadside","km":3.08,"climbM":83,"name":"230 m SE of Sylvestre Creek","flags":[]},"geometry":{"type":"LineString","coordinates":[[-120.63402,50.88807],[-120.63397,50.88821],[-120.63399,50.88833],[-120.63397,50.88845],[-120.63385,50.88864],[-120.63378,50.88878],[-120.63376,50.88889],[-120.63378,50.88905],[-120.63388,50.88915],[-120.634,50.88925],[-120.63412,50.88935],[-120.63431,50.88949],[-120.6344,50.8896],[-120.63449,50.88973],[-120.63464,50.88989],[-120.6348,50.89003],[-120.6349,50.89013],[-120.63501,50.89025],[-120.63508,50.8904],[-120.63513,50.89052],[-120.63506,50.89069],[-120.63497,50.891],[-120.63476,50.89136],[-120.63462,50.89176],[-120.6345,50.89198],[-120.63431,50.89218],[-120.63393,50.89243],[-120.63347,50.89263],[-120.6331,50.89275],[-120.63284,50.89282],[-120.63246,50.89286],[-120.63227,50.89286],[-120.63185,50.89293],[-120.63146,50.89295],[-120.63132,50.89292],[-120.63107,50.89285],[-120.63071,50.89275],[-120.63039,50.89267],[-120.63021,50.89262],[-120.63,50.89258],[-120.62986,50.89257],[-120.62963,50.89258],[-120.62941,50.89261],[-120.62915,50.89265],[-120.62894,50.89269],[-120.62869,50.89276],[-120.62851,50.89282],[-120.62833,50.89293],[-120.62825,50.89302],[-120.62812,50.89309],[-120.62798,50.89318],[-120.62781,50.89329],[-120.62768,50.89337],[-120.62753,50.89345],[-120.62742,50.89352],[-120.62727,50.89358],[-120.62715,50.89362],[-120.62695,50.8936],[-120.62683,50.89355],[-120.62669,50.89348],[-120.62659,50.89341],[-120.62645,50.89327],[-120.62641,50.89314],[-120.6263,50.89303],[-120.62619,50.89296],[-120.62598,50.89289],[-120.62583,50.89283],[-120.62574,50.89272],[-120.62565,50.89257],[-120.62555,50.89238],[-120.6255,50.8923],[-120.62542,50.8922],[-120.6253,50.8921],[-120.62518,50.89202],[-120.62505,50.89192],[-120.6249,50.89183],[-120.62485,50.89177],[-120.62472,50.89167],[-120.62458,50.89159],[-120.62439,50.89156],[-120.6243,50.89152],[-120.62413,50.89153],[-120.62399,50.89151],[-120.62391,50.89147],[-120.62379,50.8914],[-120.62366,50.89138],[-120.6236,50.89143],[-120.6236,50.89149],[-120.62351,50.89158],[-120.62341,50.89166],[-120.6233,50.89174],[-120.62326,50.89183],[-120.62317,50.89187],[-120.62301,50.89193],[-120.62292,50.89196],[-120.62279,50.89196],[-120.62266,50.89196],[-120.62258,50.89194],[-120.62245,50.8919],[-120.6223,50.89187],[-120.62216,50.89184],[-120.62207,50.89183],[-120.62197,50.89185],[-120.62192,50.89195],[-120.6219,50.89201],[-120.62183,50.89217],[-120.62173,50.89228],[-120.62151,50.89235],[-120.62128,50.89242],[-120.62117,50.89245],[-120.62103,50.89245],[-120.62089,50.89245],[-120.62075,50.89242],[-120.62063,50.89239],[-120.62052,50.89228],[-120.6204,50.89223],[-120.62022,50.89217],[-120.62004,50.89209],[-120.61993,50.89197],[-120.61975,50.89189],[-120.61961,50.89178],[-120.61949,50.89173],[-120.61922,50.89152],[-120.61911,50.89143],[-120.61903,50.89138],[-120.61896,50.89129],[-120.61879,50.89117],[-120.61868,50.89106],[-120.61856,50.89099],[-120.61844,50.89091],[-120.61837,50.89086],[-120.61814,50.89077],[-120.61807,50.89071],[-120.61798,50.89058],[-120.61793,50.89049],[-120.61785,50.89039],[-120.61776,50.89025],[-120.6177,50.89014],[-120.61759,50.89005],[-120.61746,50.88989],[-120.61737,50.88977],[-120.61725,50.88969],[-120.61711,50.88961],[-120.61701,50.88949],[-120.61693,50.88941],[-120.61688,50.88931],[-120.61683,50.8892],[-120.6168,50.88908],[-120.61679,50.88896],[-120.61678,50.88884],[-120.61669,50.88865],[-120.61656,50.88859],[-120.61644,50.88855],[-120.61636,50.88853],[-120.61626,50.88851],[-120.61607,50.88845],[-120.61583,50.88839],[-120.61569,50.88835],[-120.61555,50.88823],[-120.6154,50.88813],[-120.61529,50.88809],[-120.61517,50.88799],[-120.61506,50.88794],[-120.61489,50.88788],[-120.61475,50.88783],[-120.6146,50.88772],[-120.61445,50.88764],[-120.61431,50.88756],[-120.61413,50.88741],[-120.61398,50.88729],[-120.61381,50.8872],[-120.6137,50.88712],[-120.61351,50.88703],[-120.61332,50.88695],[-120.61308,50.88685],[-120.6128,50.8867],[-120.61256,50.88657],[-120.6123,50.88643],[-120.61198,50.88631],[-120.61187,50.88617],[-120.61169,50.88603],[-120.61143,50.88589],[-120.61127,50.88574],[-120.61118,50.88565],[-120.61104,50.8855],[-120.6109,50.8854],[-120.61089,50.88536],[-120.61081,50.8853],[-120.61073,50.88526],[-120.61065,50.88521],[-120.61057,50.88516],[-120.61048,50.8851],[-120.61041,50.88502],[-120.61037,50.88496],[-120.61035,50.88489],[-120.61033,50.88479],[-120.61032,50.8847],[-120.61029,50.88462],[-120.61027,50.88454],[-120.61026,50.88446],[-120.61025,50.8844],[-120.61016,50.88433],[-120.61002,50.88425],[-120.60992,50.88419],[-120.60984,50.88414],[-120.60975,50.88409],[-120.60965,50.88402],[-120.60956,50.88393],[-120.60945,50.88382],[-120.60935,50.88376],[-120.60921,50.88366],[-120.60913,50.88362],[-120.60905,50.88352],[-120.60896,50.88347],[-120.60887,50.88341]]}},
{"type":"Feature","properties":{"spotId":"A-grouse-walk-0021","kind":"roadside","km":3.85,"climbM":77,"name":"1.0 km E of Tranquille Plateau","flags":[]},"geometry":{"type":"LineString","coordinates":[[-120.57067,50.89726],[-120.57036,50.89724],[-120.56969,50.89705],[-120.56875,50.89677],[-120.56809,50.89657],[-120.56757,50.8964],[-120.5673,50.89625],[-120.56704,50.89606],[-120.5667,50.89586],[-120.56623,50.89559],[-120.56581,50.89532],[-120.56557,50.89513],[-120.56536,50.89498],[-120.5651,50.89478],[-120.56482,50.89461],[-120.56455,50.89444],[-120.56439,50.89432],[-120.56412,50.89427],[-120.56385,50.89433],[-120.56361,50.89446],[-120.56323,50.89464],[-120.56281,50.89489],[-120.56204,50.89538],[-120.56122,50.89591],[-120.56058,50.89637],[-120.56008,50.89677],[-120.55983,50.89701],[-120.55989,50.89722],[-120.56,50.89743],[-120.56022,50.89764],[-120.56033,50.89783],[-120.5603,50.89798],[-120.56018,50.89812],[-120.55985,50.89824],[-120.55952,50.89825],[-120.55926,50.89825],[-120.55889,50.89823],[-120.55853,50.89823],[-120.55831,50.89827],[-120.55807,50.89827],[-120.55764,50.89821],[-120.55725,50.89808],[-120.55675,50.89795],[-120.55629,50.89793],[-120.55586,50.89806],[-120.55535,50.89824],[-120.55474,50.89832],[-120.55425,50.89831],[-120.5538,50.89828],[-120.55337,50.89815],[-120.55294,50.89796],[-120.55272,50.89776],[-120.55247,50.89743],[-120.55231,50.8971],[-120.55217,50.89683],[-120.55196,50.89668],[-120.55173,50.89668],[-120.5515,50.89686],[-120.55128,50.8971],[-120.55105,50.89724],[-120.5508,50.8974],[-120.55072,50.8975],[-120.55072,50.89768],[-120.55091,50.8979],[-120.55118,50.89814],[-120.55148,50.89838],[-120.55162,50.89862],[-120.55162,50.89892],[-120.55157,50.89924],[-120.55139,50.89962],[-120.55121,50.89995],[-120.55099,50.90021],[-120.55081,50.90051],[-120.55066,50.90074],[-120.55059,50.90088],[-120.55041,50.9011],[-120.55026,50.90126],[-120.55021,50.90143],[-120.55023,50.9016],[-120.55025,50.90186],[-120.5502,50.9021],[-120.55008,50.9023],[-120.54978,50.90251],[-120.54943,50.90275],[-120.54923,50.90284],[-120.54893,50.90288],[-120.54867,50.903],[-120.54843,50.90318],[-120.5483,50.90339],[-120.54825,50.90368],[-120.54833,50.90393],[-120.54847,50.90419],[-120.54853,50.9044],[-120.54868,50.90457],[-120.54885,50.90477],[-120.549,50.90497],[-120.54913,50.90512],[-120.54918,50.90522],[-120.54918,50.90532],[-120.54921,50.90545],[-120.54934,50.90558],[-120.54948,50.9057],[-120.54956,50.90584],[-120.5496,50.90605],[-120.54959,50.90624],[-120.54957,50.90641],[-120.54959,50.90662],[-120.54959,50.90687],[-120.5496,50.90711],[-120.54959,50.90733],[-120.54958,50.90751],[-120.54956,50.90767],[-120.54955,50.90781],[-120.5496,50.90808],[-120.54963,50.90824],[-120.54967,50.90844],[-120.54972,50.90858],[-120.54971,50.90867],[-120.5495,50.90874],[-120.54911,50.90881],[-120.54855,50.90881],[-120.54822,50.90885],[-120.54802,50.90894],[-120.54788,50.90909],[-120.54772,50.9093],[-120.54762,50.90944],[-120.54735,50.90961],[-120.54708,50.90973],[-120.54681,50.90984],[-120.54661,50.90993],[-120.5464,50.91001],[-120.54601,50.91026],[-120.54573,50.91047],[-120.54553,50.91065],[-120.54523,50.91084],[-120.545,50.91102],[-120.54478,50.9112],[-120.5446,50.91134],[-120.54443,50.91144]]}},
{"type":"Feature","properties":{"spotId":"A-grouse-walk-0025","kind":"roadside","km":3.97,"climbM":82,"name":"1.2 km S of Tranquille Lake","flags":[]},"geometry":{"type":"LineString","coordinates":[[-120.55214,50.92392],[-120.55183,50.92401],[-120.55163,50.92406],[-120.5515,50.92417],[-120.55141,50.92418],[-120.5512,50.92416],[-120.55103,50.9241],[-120.55085,50.92404],[-120.5507,50.92393],[-120.5506,50.92386],[-120.55054,50.92383],[-120.55044,50.92374],[-120.55039,50.92356],[-120.55039,50.92343],[-120.55042,50.92323],[-120.55041,50.92306],[-120.55023,50.92283],[-120.55003,50.92273],[-120.54969,50.92266],[-120.54915,50.92251],[-120.54852,50.92237],[-120.54799,50.92228],[-120.54755,50.92226],[-120.54718,50.9223],[-120.54663,50.92236],[-120.54631,50.92244],[-120.54582,50.92256],[-120.54543,50.92265],[-120.54516,50.9227],[-120.54497,50.92271],[-120.54421,50.9226],[-120.54336,50.9225],[-120.54271,50.92249],[-120.54229,50.92256],[-120.54181,50.9227],[-120.54143,50.92288],[-120.54111,50.923],[-120.54074,50.92304],[-120.54032,50.92306],[-120.53989,50.92308],[-120.53946,50.92306],[-120.53906,50.92302],[-120.53882,50.923],[-120.53787,50.92284],[-120.53737,50.92275],[-120.537,50.92274],[-120.53665,50.92275],[-120.53618,50.92284],[-120.53571,50.9229],[-120.53545,50.92299],[-120.53514,50.92314],[-120.53502,50.92321],[-120.53485,50.92335],[-120.53469,50.92347],[-120.53455,50.92357],[-120.53428,50.92371],[-120.53382,50.92399],[-120.53352,50.92428],[-120.53329,50.92451],[-120.53314,50.92464],[-120.53304,50.92476],[-120.5329,50.92495],[-120.53278,50.9252],[-120.53258,50.92541],[-120.53232,50.92559],[-120.53193,50.9258],[-120.5317,50.92596],[-120.53134,50.92605],[-120.5308,50.92616],[-120.53041,50.92624],[-120.53013,50.92638],[-120.52959,50.92667],[-120.52935,50.92674],[-120.52909,50.92676],[-120.52894,50.92672],[-120.52879,50.92661],[-120.52861,50.92638],[-120.52849,50.92619],[-120.52825,50.92595],[-120.52797,50.92572],[-120.52776,50.92551],[-120.52765,50.92525],[-120.52754,50.92502],[-120.52746,50.92471],[-120.52734,50.9245],[-120.52716,50.92436],[-120.52681,50.92422],[-120.5265,50.92407],[-120.52618,50.92398],[-120.52593,50.92391],[-120.52533,50.92358],[-120.52456,50.9231],[-120.52408,50.92273],[-120.52366,50.92234],[-120.52327,50.92205],[-120.52255,50.92168],[-120.52218,50.92149],[-120.52211,50.92131],[-120.52196,50.92096],[-120.52194,50.92073],[-120.52196,50.92061],[-120.5219,50.92033],[-120.52179,50.9201],[-120.52166,50.91979],[-120.5213,50.91943],[-120.52111,50.91924],[-120.5208,50.91889],[-120.52067,50.91876],[-120.52026,50.91853],[-120.51985,50.91834],[-120.51909,50.91803],[-120.51874,50.91792],[-120.51835,50.91769],[-120.51817,50.91753],[-120.518,50.91736],[-120.51788,50.91716],[-120.51782,50.91708],[-120.51782,50.91693],[-120.51784,50.91666],[-120.51785,50.91639],[-120.51789,50.9162],[-120.51791,50.916],[-120.51787,50.91585],[-120.51773,50.91541],[-120.51757,50.91493],[-120.51748,50.91468],[-120.5174,50.91415],[-120.51735,50.91385],[-120.51734,50.91367],[-120.51718,50.91331],[-120.51701,50.913],[-120.51662,50.91265],[-120.51621,50.91226],[-120.51592,50.91198]]}},
{"type":"Feature","properties":{"spotId":"A-grouse-walk-0034","kind":"roadside","km":4.1,"climbM":50,"name":"140 m SW of Saul Creek","flags":[]},"geometry":{"type":"LineString","coordinates":[[-120.64916,50.92188],[-120.64921,50.92187],[-120.64931,50.92189],[-120.64955,50.92195],[-120.64972,50.92195],[-120.64987,50.92196],[-120.6501,50.92195],[-120.65027,50.92197],[-120.65059,50.92189],[-120.65068,50.92185],[-120.65085,50.92171],[-120.65093,50.92167],[-120.65107,50.9216],[-120.65115,50.92149],[-120.65121,50.9214],[-120.65125,50.92132],[-120.65136,50.92123],[-120.65143,50.92116],[-120.65155,50.92108],[-120.65165,50.92098],[-120.65171,50.92088],[-120.65174,50.92074],[-120.65181,50.92064],[-120.6519,50.92057],[-120.65194,50.92054],[-120.65199,50.92042],[-120.65208,50.92032],[-120.6522,50.9202],[-120.6523,50.92013],[-120.65243,50.92007],[-120.6526,50.92003],[-120.65295,50.92002],[-120.6533,50.92001],[-120.65368,50.92019],[-120.65398,50.92033],[-120.65439,50.92047],[-120.6548,50.92054],[-120.65507,50.92054],[-120.65543,50.92053],[-120.65581,50.9205],[-120.65624,50.92046],[-120.65648,50.9204],[-120.65684,50.92035],[-120.6572,50.92028],[-120.65743,50.92022],[-120.65772,50.92023],[-120.65803,50.92024],[-120.6583,50.92025],[-120.65864,50.92024],[-120.65895,50.92012],[-120.65926,50.91996],[-120.65941,50.9198],[-120.65953,50.91964],[-120.65969,50.91949],[-120.66003,50.91948],[-120.66045,50.91948],[-120.66086,50.91943],[-120.66091,50.91931],[-120.66097,50.91922],[-120.66124,50.91908],[-120.66155,50.91901],[-120.66185,50.91902],[-120.66212,50.91918],[-120.6623,50.91925],[-120.66256,50.91934],[-120.66282,50.91948],[-120.66312,50.91955],[-120.66349,50.91958],[-120.6637,50.91958],[-120.66399,50.9195],[-120.66425,50.9194],[-120.66443,50.91938],[-120.66461,50.91936],[-120.66486,50.91936],[-120.66521,50.91928],[-120.66545,50.91917],[-120.6657,50.91898],[-120.666,50.91884],[-120.66634,50.91883],[-120.66671,50.919],[-120.66703,50.91914],[-120.66739,50.91921],[-120.6678,50.91925],[-120.66818,50.91918],[-120.66852,50.91911],[-120.66889,50.91904],[-120.6693,50.91898],[-120.66948,50.91895],[-120.66994,50.91899],[-120.67038,50.91904],[-120.67075,50.9191],[-120.6709,50.91905],[-120.67108,50.91894],[-120.67142,50.91876],[-120.67178,50.91863],[-120.67206,50.91861],[-120.67233,50.9186],[-120.67256,50.91854],[-120.67274,50.91844],[-120.67297,50.91831],[-120.67312,50.91829],[-120.67337,50.91838],[-120.67364,50.91856],[-120.67392,50.91875],[-120.67417,50.91894],[-120.67445,50.91915],[-120.67482,50.91936],[-120.67506,50.91951],[-120.67543,50.91967],[-120.67576,50.91971],[-120.67612,50.91973],[-120.67649,50.91978],[-120.6769,50.91992],[-120.67721,50.92006],[-120.67744,50.92017],[-120.67768,50.92021],[-120.67791,50.92022],[-120.67833,50.92023],[-120.67849,50.92025],[-120.67872,50.92028],[-120.67898,50.92033],[-120.67943,50.92036],[-120.67981,50.9204],[-120.68019,50.92042],[-120.6804,50.92039],[-120.68083,50.92039],[-120.68131,50.92046],[-120.68177,50.92056],[-120.68201,50.92064],[-120.68238,50.92074],[-120.68276,50.9208],[-120.68312,50.92083],[-120.68353,50.92089],[-120.68388,50.92095],[-120.68425,50.92102],[-120.68439,50.92096],[-120.68461,50.9208],[-120.68481,50.92058],[-120.68498,50.92041],[-120.68522,50.92024],[-120.68548,50.9201],[-120.6857,50.91994],[-120.6859,50.91982],[-120.68612,50.91971],[-120.6864,50.91962],[-120.68686,50.91954],[-120.68689,50.91944],[-120.68678,50.9193],[-120.68661,50.91906],[-120.68645,50.91879],[-120.68644,50.91862],[-120.68637,50.91847],[-120.68629,50.91834],[-120.68617,50.91818],[-120.686,50.918],[-120.6858,50.91787],[-120.6855,50.91785],[-120.68514,50.91782],[-120.68479,50.91779],[-120.68439,50.91776],[-120.68386,50.91773],[-120.68375,50.91759],[-120.68383,50.91729],[-120.68402,50.91692],[-120.68414,50.91658],[-120.68419,50.9162],[-120.68441,50.91578],[-120.68458,50.91558],[-120.6847,50.91541],[-120.68479,50.91526],[-120.68493,50.91512],[-120.68504,50.91491],[-120.68513,50.91476],[-120.68514,50.91458],[-120.68498,50.91442],[-120.68478,50.91429],[-120.68457,50.91418],[-120.68437,50.91403],[-120.68432,50.91396],[-120.68423,50.91382],[-120.68401,50.91365],[-120.68402,50.9135],[-120.68414,50.91341],[-120.68429,50.91332],[-120.68439,50.9132],[-120.68448,50.91311],[-120.68468,50.91299],[-120.68479,50.91284],[-120.68481,50.91266],[-120.68481,50.91251]]}},
{"type":"Feature","properties":{"spotId":"A-grouse-walk-0055","kind":"roadside","km":4.93,"climbM":93,"name":"240 m N of Heller Creek","flags":[]},"geometry":{"type":"LineString","coordinates":[[-120.60247,50.99126],[-120.60192,50.99118],[-120.60122,50.99115],[-120.60077,50.99111],[-120.60038,50.99107],[-120.6001,50.99103],[-120.59977,50.99101],[-120.59936,50.99106],[-120.59889,50.99117],[-120.59838,50.99137],[-120.59799,50.99151],[-120.59776,50.99161],[-120.5975,50.99166],[-120.59729,50.99166],[-120.59698,50.99159],[-120.5967,50.99149],[-120.59651,50.99141],[-120.59634,50.99134],[-120.59613,50.99129],[-120.5959,50.99128],[-120.59559,50.99134],[-120.59525,50.99147],[-120.59485,50.99159],[-120.59444,50.99167],[-120.59407,50.99182],[-120.59379,50.99202],[-120.59325,50.99249],[-120.59283,50.99282],[-120.59248,50.99312],[-120.59204,50.99358],[-120.59162,50.99392],[-120.59118,50.99433],[-120.59082,50.99457],[-120.59054,50.99476],[-120.59034,50.99498],[-120.59018,50.99523],[-120.59003,50.99545],[-120.58987,50.99569],[-120.58968,50.9959],[-120.58949,50.99614],[-120.58928,50.9963],[-120.58896,50.99652],[-120.58879,50.99666],[-120.58857,50.99687],[-120.58826,50.99713],[-120.58794,50.99742],[-120.58769,50.99773],[-120.58742,50.99813],[-120.58718,50.99839],[-120.58704,50.99852],[-120.58686,50.99858],[-120.58625,50.99866],[-120.58579,50.99873],[-120.5855,50.99882],[-120.58518,50.99903],[-120.58487,50.99922],[-120.58456,50.99938],[-120.58406,50.99955],[-120.58357,50.99976],[-120.58321,50.99995],[-120.58283,51.00017],[-120.58248,51.00044],[-120.58218,51.00069],[-120.5819,51.00101],[-120.58164,51.00129],[-120.58144,51.00152],[-120.58136,51.00178],[-120.58126,51.00193],[-120.58111,51.00206],[-120.58088,51.00219],[-120.58072,51.00244],[-120.58075,51.00262],[-120.58084,51.00287],[-120.58076,51.00311],[-120.58049,51.00331],[-120.58022,51.0035],[-120.57986,51.00368],[-120.5796,51.00381],[-120.57942,51.00393],[-120.57932,51.00413],[-120.57923,51.00432],[-120.5791,51.00449],[-120.57893,51.00459],[-120.57857,51.00469],[-120.57821,51.00481],[-120.57802,51.00487],[-120.57778,51.00497],[-120.57753,51.00511],[-120.57731,51.00532],[-120.57715,51.00552],[-120.57693,51.00572],[-120.57672,51.00588],[-120.57648,51.00601],[-120.57625,51.00611],[-120.57599,51.00613],[-120.57565,51.00613],[-120.57526,51.00616],[-120.57487,51.00616],[-120.57418,51.0062],[-120.57345,51.00622],[-120.57285,51.00629],[-120.57246,51.00629],[-120.57215,51.00626],[-120.57172,51.0062],[-120.57126,51.00615],[-120.57092,51.00611],[-120.57051,51.00619],[-120.5702,51.00638],[-120.56987,51.00655],[-120.5695,51.0067],[-120.56927,51.00675],[-120.569,51.00679],[-120.56865,51.00683],[-120.56837,51.00677],[-120.56818,51.00671],[-120.56798,51.0066],[-120.56781,51.00647],[-120.56765,51.00635],[-120.56744,51.00626],[-120.56722,51.0062],[-120.56702,51.00618],[-120.56662,51.0062],[-120.56636,51.00619],[-120.56601,51.00616],[-120.56575,51.00612],[-120.56544,51.00604],[-120.56518,51.00596],[-120.565,51.00592],[-120.56481,51.0059],[-120.56457,51.00593],[-120.5643,51.00599],[-120.56398,51.00609],[-120.56374,51.00616],[-120.56351,51.00625],[-120.56327,51.00639],[-120.5631,51.00645],[-120.56284,51.00652],[-120.56252,51.00648],[-120.56221,51.0064],[-120.56182,51.00623],[-120.56153,51.0061],[-120.56123,51.00593],[-120.56103,51.00579],[-120.56085,51.00573],[-120.56062,51.00572],[-120.56041,51.00575],[-120.56009,51.00583],[-120.55978,51.00588],[-120.55944,51.00592],[-120.55902,51.006],[-120.55866,51.00606],[-120.55813,51.00619],[-120.55767,51.00631],[-120.55733,51.00649],[-120.55713,51.00661],[-120.55694,51.00678],[-120.55681,51.00693],[-120.55676,51.00708],[-120.55686,51.00729],[-120.55691,51.00743],[-120.55698,51.00756],[-120.55698,51.00769],[-120.55679,51.00783],[-120.55653,51.00797],[-120.55625,51.00808],[-120.55598,51.0082],[-120.55588,51.00827],[-120.55578,51.00841],[-120.55578,51.00855],[-120.55582,51.00871],[-120.55596,51.00888],[-120.55612,51.00905],[-120.55625,51.00918],[-120.55631,51.00934],[-120.55625,51.00949],[-120.55602,51.00963],[-120.55579,51.00966],[-120.55557,51.00966],[-120.55534,51.00966],[-120.55509,51.00969],[-120.55494,51.00973],[-120.55476,51.00976],[-120.55464,51.0098],[-120.55454,51.00986],[-120.55443,51.00997],[-120.55445,51.01013],[-120.55449,51.01028],[-120.55449,51.0104],[-120.5543,51.01058],[-120.55408,51.01069],[-120.55377,51.01081],[-120.55349,51.01091],[-120.5532,51.01102],[-120.5528,51.01109],[-120.5526,51.01113]]}},
{"type":"Feature","properties":{"spotId":"A-grouse-walk-0093","kind":"roadside","km":4.93,"climbM":55,"name":"780 m SW of Heller Creek","flags":[]},"geometry":{"type":"LineString","coordinates":[[-120.66307,50.99498],[-120.66308,50.99497],[-120.6631,50.9949],[-120.66316,50.99476],[-120.66324,50.9946],[-120.6633,50.99442],[-120.66339,50.99423],[-120.66351,50.99407],[-120.66362,50.99398],[-120.66372,50.99393],[-120.66395,50.99385],[-120.66417,50.99384],[-120.66458,50.99387],[-120.66491,50.99397],[-120.66535,50.99407],[-120.66577,50.99421],[-120.66627,50.99433],[-120.66686,50.99445],[-120.6674,50.99456],[-120.66771,50.99459],[-120.668,50.99463],[-120.66831,50.99467],[-120.66865,50.99467],[-120.66891,50.99467],[-120.66923,50.99467],[-120.66952,50.99466],[-120.66969,50.99463],[-120.66989,50.99453],[-120.67,50.9944],[-120.67006,50.99426],[-120.67008,50.99401],[-120.67007,50.99378],[-120.66997,50.99355],[-120.66999,50.99338],[-120.66992,50.99312],[-120.66986,50.99298],[-120.66982,50.99278],[-120.66971,50.99259],[-120.66963,50.99245],[-120.66951,50.99222],[-120.66943,50.99208],[-120.6693,50.99174],[-120.66921,50.9916],[-120.66913,50.99147],[-120.66908,50.99127],[-120.66897,50.99102],[-120.66889,50.99084],[-120.66886,50.99064],[-120.66878,50.99039],[-120.66876,50.99014],[-120.66872,50.98993],[-120.66871,50.98973],[-120.6687,50.98956],[-120.66868,50.98937],[-120.66871,50.98923],[-120.66879,50.98908],[-120.66887,50.98895],[-120.66897,50.98885],[-120.66915,50.98874],[-120.66931,50.9887],[-120.66961,50.98865],[-120.66994,50.98863],[-120.67021,50.98856],[-120.67059,50.9884],[-120.67078,50.98827],[-120.67091,50.98818],[-120.67107,50.98805],[-120.67142,50.98777],[-120.67166,50.98761],[-120.67191,50.98745],[-120.67229,50.98727],[-120.67271,50.98714],[-120.6731,50.98702],[-120.67344,50.98692],[-120.67374,50.98681],[-120.67416,50.98663],[-120.67458,50.98639],[-120.67486,50.98622],[-120.6753,50.98599],[-120.67564,50.98579],[-120.67609,50.98553],[-120.67639,50.98531],[-120.67666,50.98517],[-120.67709,50.98492],[-120.67745,50.98467],[-120.67784,50.98441],[-120.67822,50.98408],[-120.67852,50.98383],[-120.67886,50.98356],[-120.67925,50.98328],[-120.67954,50.98311],[-120.67981,50.98293],[-120.68076,50.98211],[-120.68126,50.98164],[-120.68167,50.98119],[-120.68182,50.98102],[-120.68208,50.98071],[-120.68234,50.98038],[-120.68257,50.98013],[-120.68281,50.97985],[-120.6831,50.97957],[-120.68342,50.97926],[-120.68373,50.97896],[-120.684,50.97871],[-120.68426,50.97836],[-120.68461,50.97802],[-120.68499,50.97765],[-120.68536,50.97728],[-120.6857,50.9769],[-120.68616,50.97648],[-120.68637,50.97631],[-120.68673,50.97599],[-120.68714,50.97572],[-120.68732,50.97554],[-120.68765,50.97525],[-120.68808,50.97491],[-120.68844,50.97464],[-120.68895,50.97435],[-120.6893,50.97415],[-120.6896,50.97389],[-120.68999,50.97366],[-120.69037,50.97348],[-120.69073,50.97326],[-120.69111,50.97308],[-120.69144,50.9728],[-120.69168,50.97256],[-120.69189,50.97233],[-120.69228,50.97205],[-120.6927,50.97185],[-120.69311,50.97166],[-120.69331,50.97151],[-120.69353,50.97132],[-120.69376,50.97112],[-120.69408,50.97092],[-120.69438,50.97071],[-120.6948,50.97041],[-120.69516,50.97011],[-120.69564,50.96984],[-120.69613,50.9696],[-120.69657,50.96933],[-120.69695,50.96908],[-120.69744,50.96872],[-120.69795,50.96829],[-120.69806,50.96807],[-120.69827,50.96764],[-120.69834,50.9673],[-120.69844,50.9668],[-120.69848,50.96649],[-120.6985,50.9661],[-120.69847,50.96579],[-120.69837,50.96547],[-120.69817,50.96516],[-120.69784,50.96486],[-120.69707,50.96416],[-120.69627,50.96346]]}},
{"type":"Feature","properties":{"spotId":"A-grouse-walk-0115","kind":"walk","km":0.13,"climbM":0,"name":"250 m E of Rosseau Creek","flags":["Route enters a Motor Vehicle Closed Area: Dewdrop-Rosseau Creek Wildlife Management Area. Closed Year Round. Synopsis map 1-55/23."]},"geometry":{"type":"LineString","coordinates":[[-120.67189,50.81051],[-120.67342,50.80982]]}},
{"type":"Feature","properties":{"spotId":"A-grouse-walk-0115","kind":"roadside","km":6.23,"climbM":105,"name":"250 m E of Rosseau Creek","flags":["Route enters a Motor Vehicle Closed Area: Dewdrop-Rosseau Creek Wildlife Management Area. Closed Year Round. Synopsis map 1-55/23."]},"geometry":{"type":"LineString","coordinates":[[-120.67342,50.80982],[-120.67372,50.80974],[-120.67382,50.80969],[-120.67389,50.80963],[-120.67409,50.80944],[-120.67415,50.80929],[-120.67417,50.80921],[-120.67419,50.80904],[-120.67421,50.80896],[-120.6742,50.8088],[-120.67422,50.80872],[-120.67426,50.80856],[-120.67429,50.80841],[-120.67431,50.8083],[-120.67432,50.80818],[-120.67432,50.80812],[-120.67433,50.80789],[-120.67437,50.80768],[-120.67441,50.80759],[-120.67444,50.80749],[-120.67453,50.80728],[-120.67455,50.80721],[-120.67457,50.80705],[-120.67459,50.80699],[-120.67466,50.80679],[-120.67466,50.80667],[-120.67467,50.80656],[-120.67463,50.8065],[-120.67443,50.80631],[-120.6743,50.80624],[-120.67404,50.8061],[-120.67384,50.80604],[-120.6737,50.80602],[-120.67336,50.80602],[-120.67308,50.80606],[-120.673,50.80607],[-120.67293,50.8061],[-120.67269,50.80616],[-120.67244,50.80623],[-120.67224,50.80636],[-120.67212,50.80644],[-120.67189,50.80658],[-120.67159,50.80675],[-120.67125,50.80689],[-120.6711,50.80696],[-120.67103,50.80699],[-120.67084,50.80702],[-120.67056,50.80708],[-120.6704,50.80708],[-120.67006,50.8071],[-120.66972,50.80711],[-120.6695,50.80711],[-120.66925,50.80712],[-120.66892,50.80714],[-120.66862,50.80716],[-120.66834,50.80716],[-120.66813,50.80712],[-120.66789,50.80708],[-120.66772,50.80701],[-120.6676,50.80693],[-120.66754,50.80685],[-120.66753,50.80676],[-120.66754,50.80661],[-120.66766,50.80648],[-120.66753,50.80636],[-120.66759,50.80623],[-120.66761,50.80617],[-120.66771,50.80609],[-120.66787,50.80604],[-120.66817,50.80602],[-120.66841,50.80601],[-120.66875,50.806],[-120.66892,50.80599],[-120.66903,50.806],[-120.66918,50.80597],[-120.66928,50.80593],[-120.66944,50.80583],[-120.66956,50.80575],[-120.66971,50.8056],[-120.6699,50.80541],[-120.66996,50.80532],[-120.67003,50.80517],[-120.67007,50.80505],[-120.67011,50.80492],[-120.67013,50.80479],[-120.67015,50.80461],[-120.67021,50.80443],[-120.6703,50.80428],[-120.67039,50.80419],[-120.67057,50.80402],[-120.67076,50.8039],[-120.67089,50.80378],[-120.67096,50.80359],[-120.67099,50.80346],[-120.67101,50.80335],[-120.67104,50.8033],[-120.67114,50.8031],[-120.67115,50.80303],[-120.67114,50.80284],[-120.6711,50.8028],[-120.67099,50.80272],[-120.67085,50.80266],[-120.67063,50.80252],[-120.67048,50.80238],[-120.6704,50.80226],[-120.67041,50.80223],[-120.67042,50.80217],[-120.67045,50.80212],[-120.67055,50.80205],[-120.6707,50.80199],[-120.67097,50.80189],[-120.67116,50.80177],[-120.67126,50.80173],[-120.67135,50.80166],[-120.67154,50.80149],[-120.67157,50.80143],[-120.67161,50.80132],[-120.67159,50.8011],[-120.67152,50.80089],[-120.6714,50.8007],[-120.67125,50.80049],[-120.67112,50.8003],[-120.671,50.80012],[-120.67095,50.80005],[-120.67087,50.79999],[-120.6708,50.79984],[-120.67083,50.79979],[-120.67094,50.7997],[-120.67103,50.79958],[-120.67105,50.7994],[-120.67102,50.79923],[-120.67097,50.79905],[-120.67094,50.79884],[-120.67093,50.79877],[-120.67089,50.79862],[-120.67087,50.79848],[-120.67084,50.79831],[-120.67082,50.79825],[-120.67075,50.79802],[-120.6707,50.79788],[-120.67062,50.79776],[-120.67046,50.79769],[-120.67037,50.79767],[-120.67013,50.79766],[-120.66998,50.79764],[-120.6699,50.79753],[-120.66985,50.79731],[-120.66983,50.79723],[-120.66977,50.79718],[-120.66953,50.79696],[-120.66942,50.79685],[-120.66919,50.79669],[-120.66904,50.79651],[-120.66893,50.79641],[-120.66875,50.79626],[-120.6687,50.79615],[-120.66868,50.79597],[-120.66868,50.79578],[-120.66859,50.7956],[-120.66844,50.79542],[-120.66837,50.79538],[-120.66817,50.79518],[-120.66803,50.79509],[-120.66795,50.79498],[-120.66793,50.79485],[-120.66791,50.79468],[-120.66789,50.79448],[-120.66776,50.79425],[-120.66771,50.79414],[-120.66762,50.79393],[-120.66761,50.79375],[-120.66761,50.79357],[-120.66758,50.79351],[-120.66749,50.79339],[-120.6672,50.79324],[-120.66694,50.79313],[-120.66684,50.79307],[-120.66679,50.79302],[-120.66676,50.79296],[-120.66675,50.7929],[-120.66673,50.79269],[-120.66671,50.79257],[-120.66663,50.7924],[-120.66657,50.79227],[-120.6665,50.79222],[-120.66616,50.79209],[-120.66591,50.79198],[-120.66585,50.79195],[-120.66567,50.79181],[-120.66565,50.79168],[-120.66565,50.79162],[-120.66567,50.79146],[-120.66569,50.79138],[-120.66565,50.7913],[-120.66557,50.79117],[-120.66546,50.79106],[-120.66537,50.79089],[-120.66531,50.7907],[-120.66529,50.79065],[-120.66532,50.79046],[-120.66534,50.79039],[-120.66542,50.79022],[-120.66543,50.79008],[-120.66544,50.78989],[-120.66542,50.78969],[-120.66541,50.78963],[-120.66541,50.78956],[-120.66539,50.78942],[-120.66536,50.78921],[-120.66534,50.78906],[-120.66533,50.78892],[-120.66531,50.78878],[-120.66531,50.78871],[-120.66532,50.78863],[-120.66537,50.78848],[-120.66544,50.78835],[-120.66555,50.78824],[-120.66564,50.78819],[-120.66587,50.78807],[-120.66617,50.7879],[-120.66626,50.78787],[-120.66639,50.78786],[-120.66673,50.78786],[-120.66682,50.78783],[-120.66691,50.78776],[-120.6669,50.7876],[-120.66689,50.78752],[-120.6669,50.78737],[-120.66689,50.78721],[-120.66691,50.78706],[-120.66693,50.78698],[-120.66698,50.78685],[-120.66702,50.78678],[-120.6671,50.78664],[-120.66715,50.78658],[-120.66721,50.78654],[-120.66734,50.78637],[-120.66743,50.78633],[-120.66756,50.7863],[-120.66782,50.78628],[-120.66793,50.78628],[-120.66824,50.78628],[-120.66834,50.78628],[-120.66851,50.78623],[-120.66862,50.78618],[-120.66869,50.7861],[-120.66872,50.786],[-120.66866,50.78589],[-120.6686,50.7857],[-120.66859,50.78563],[-120.66854,50.78551],[-120.66839,50.7853],[-120.66833,50.78517],[-120.66826,50.785],[-120.6682,50.78481],[-120.66818,50.78474],[-120.66816,50.78458],[-120.66822,50.7844],[-120.66831,50.78429],[-120.66839,50.78415],[-120.66846,50.7841],[-120.66864,50.78402],[-120.66878,50.78397],[-120.66885,50.78396],[-120.66907,50.78396],[-120.66941,50.78392],[-120.66951,50.78388],[-120.66959,50.78375],[-120.6697,50.78355],[-120.66973,50.78348],[-120.66981,50.78337],[-120.66995,50.78322],[-120.67002,50.78314],[-120.67016,50.78302],[-120.67034,50.78298],[-120.67063,50.78297],[-120.67073,50.78295],[-120.67085,50.78292],[-120.67091,50.78285],[-120.6709,50.78276],[-120.67067,50.78254],[-120.67063,50.78247],[-120.67062,50.78234],[-120.67074,50.78224],[-120.67105,50.78222],[-120.67117,50.78212],[-120.67121,50.78201],[-120.6711,50.7819],[-120.67096,50.7818],[-120.6708,50.78169],[-120.67067,50.78159],[-120.67063,50.78154],[-120.67054,50.78149],[-120.6704,50.78136],[-120.67024,50.78114],[-120.6702,50.78105],[-120.6701,50.78085],[-120.67004,50.78074],[-120.66995,50.78056],[-120.66988,50.7805],[-120.66961,50.78036],[-120.66937,50.78021],[-120.66918,50.78001],[-120.66904,50.77989],[-120.66879,50.77977],[-120.66852,50.77975],[-120.66834,50.77969],[-120.66813,50.7797],[-120.66793,50.77976],[-120.66761,50.77978],[-120.66753,50.77975],[-120.6672,50.77961],[-120.66707,50.77953],[-120.66677,50.77942],[-120.66644,50.77919],[-120.66627,50.77911],[-120.66619,50.77905],[-120.66605,50.77893],[-120.66597,50.77888],[-120.66584,50.77876],[-120.66573,50.77867],[-120.66551,50.77851],[-120.66539,50.77839],[-120.66535,50.77832],[-120.66529,50.77826],[-120.66517,50.77808],[-120.66507,50.77794],[-120.66495,50.77778],[-120.66483,50.77755],[-120.66474,50.77742],[-120.6646,50.77729],[-120.66444,50.77719],[-120.66429,50.77704],[-120.66424,50.77696],[-120.66413,50.77679],[-120.664,50.77662],[-120.66395,50.77651],[-120.66377,50.77643],[-120.66354,50.77644],[-120.66343,50.77644],[-120.66323,50.77644],[-120.6629,50.77644],[-120.6628,50.77641],[-120.66271,50.77635],[-120.66261,50.77623],[-120.66247,50.77601],[-120.66239,50.77586],[-120.66231,50.77569],[-120.66225,50.77558],[-120.66219,50.77536],[-120.66216,50.7753],[-120.6621,50.77518],[-120.66204,50.77512],[-120.66199,50.77507],[-120.66189,50.77506],[-120.66171,50.77508],[-120.66159,50.77518],[-120.66144,50.7754],[-120.66134,50.7756],[-120.66129,50.77574],[-120.66123,50.77584],[-120.66118,50.77598],[-120.66107,50.7761],[-120.66099,50.77611],[-120.6609,50.77613],[-120.66082,50.77612],[-120.66068,50.77611],[-120.66061,50.77606],[-120.66048,50.77587],[-120.66029,50.77569],[-120.66008,50.77549],[-120.66003,50.77543],[-120.65992,50.77525],[-120.65988,50.77507],[-120.65976,50.77489],[-120.65969,50.77482],[-120.65961,50.77479],[-120.65948,50.77477],[-120.65917,50.77478],[-120.65907,50.7748],[-120.65894,50.77489],[-120.65884,50.77489],[-120.65864,50.77484],[-120.65857,50.77477],[-120.65849,50.77472],[-120.65849,50.77465],[-120.65851,50.77453],[-120.65862,50.77433],[-120.6586,50.77414],[-120.6586,50.774],[-120.65859,50.77386],[-120.65854,50.77379],[-120.65844,50.77377],[-120.65835,50.77379],[-120.65829,50.77384],[-120.65821,50.77387],[-120.65809,50.77386],[-120.65804,50.77384],[-120.65792,50.77368],[-120.6579,50.77355],[-120.65788,50.77337],[-120.65784,50.77332],[-120.65762,50.77312],[-120.65744,50.77294],[-120.65721,50.77282],[-120.65702,50.77268],[-120.65697,50.77256]]}},
{"type":"Feature","properties":{"spotId":"A-moose-drive-0063","kind":"walk","km":0.07,"climbM":0,"name":"390 m E of Herbert Creek","flags":[]},"geometry":{"type":"LineString","coordinates":[[-120.69233,50.82659],[-120.69204,50.82597]]}},
{"type":"Feature","properties":{"spotId":"A-moose-walk-0026","kind":"walk","km":0.36,"climbM":0,"name":"1.9 km NE of Tranquille Lake","flags":[]},"geometry":{"type":"LineString","coordinates":[[-120.53176,50.94576],[-120.53694,50.94589]]}}
]}
