{"type":"FeatureCollection","features":[
{"type":"Feature","properties":{"spotId":"A-deer-atv-0049","kind":"ride","km":1.8,"climbM":169,"name":"By Kirby Creek","flags":[]},"geometry":{"type":"LineString","coordinates":[[-120.63097,50.24489],[-120.63106,50.24491],[-120.63134,50.24491],[-120.63143,50.24494],[-120.63161,50.24493],[-120.63189,50.24497],[-120.63199,50.24498],[-120.63232,50.24496],[-120.63238,50.24491],[-120.63237,50.24485],[-120.63217,50.24471],[-120.63205,50.24451],[-120.63203,50.24445],[-120.63201,50.24423],[-120.63207,50.24411],[-120.63211,50.24395],[-120.6322,50.2438],[-120.6323,50.24372],[-120.63246,50.24368],[-120.63258,50.24365],[-120.63277,50.24365],[-120.63296,50.24369],[-120.63325,50.24372],[-120.63364,50.24379],[-120.63391,50.2439],[-120.63405,50.24399],[-120.63424,50.24421],[-120.63434,50.24428],[-120.63465,50.24439],[-120.63475,50.24439],[-120.63506,50.24443],[-120.63529,50.24446],[-120.6355,50.24455],[-120.63565,50.24457],[-120.63581,50.24457],[-120.63602,50.24457],[-120.6361,50.24455],[-120.6364,50.24453],[-120.63662,50.24453],[-120.63672,50.24456],[-120.6368,50.2446],[-120.63687,50.24466],[-120.6371,50.24479],[-120.63736,50.24488],[-120.63763,50.24507],[-120.63782,50.24522],[-120.6379,50.24528],[-120.63801,50.24538],[-120.63817,50.24556],[-120.63829,50.24573],[-120.63834,50.24578],[-120.63848,50.24589],[-120.63867,50.24597],[-120.63886,50.24615],[-120.63903,50.24633],[-120.63915,50.24649],[-120.63926,50.24661],[-120.63933,50.24675],[-120.63942,50.24687],[-120.6396,50.24708],[-120.63966,50.24714],[-120.63977,50.24729],[-120.63984,50.24737],[-120.63998,50.24752],[-120.6401,50.24759],[-120.64032,50.24775],[-120.64043,50.24787],[-120.64048,50.24791],[-120.64057,50.24805],[-120.64068,50.24822],[-120.64072,50.24827],[-120.64082,50.24839],[-120.64089,50.24842],[-120.64117,50.24851],[-120.64139,50.24858],[-120.64151,50.2486],[-120.64182,50.24865],[-120.64192,50.24865],[-120.64206,50.24864],[-120.64221,50.24861],[-120.64231,50.24857],[-120.64242,50.24849],[-120.64252,50.24845],[-120.64268,50.24835],[-120.64278,50.24819],[-120.64289,50.24802],[-120.64304,50.24781],[-120.64312,50.24766],[-120.6432,50.24746],[-120.64335,50.24725],[-120.64344,50.24716],[-120.64354,50.24714],[-120.64366,50.24712],[-120.64385,50.24712],[-120.64404,50.24713],[-120.64433,50.24721],[-120.64457,50.24724],[-120.64468,50.24728],[-120.64493,50.24735],[-120.64492,50.24722],[-120.64492,50.24716],[-120.64489,50.24708],[-120.64483,50.24705],[-120.64465,50.24703],[-120.64451,50.24699],[-120.64421,50.24685],[-120.64414,50.2468],[-120.64409,50.24673],[-120.64401,50.24657],[-120.64395,50.24635],[-120.64389,50.24623],[-120.64383,50.24606],[-120.64373,50.24583],[-120.6437,50.24577],[-120.64352,50.24555],[-120.64337,50.24539],[-120.64336,50.24538]]}},
{"type":"Feature","properties":{"spotId":"A-deer-atv-0049","kind":"walk","km":0.04,"climbM":11,"name":"By Kirby Creek","flags":[]},"geometry":{"type":"LineString","coordinates":[[-120.64336,50.24538],[-120.64289,50.24557]]}},
{"type":"Feature","properties":{"spotId":"A-deer-atv-0051","kind":"ride","km":1.69,"climbM":48,"name":"490 m S of Hector Creek","flags":[]},"geometry":{"type":"LineString","coordinates":[[-120.73778,50.23423],[-120.73779,50.2343],[-120.73781,50.23447],[-120.73789,50.23467],[-120.73798,50.23487],[-120.73802,50.23502],[-120.73806,50.23509],[-120.73814,50.23525],[-120.73823,50.23543],[-120.73833,50.23558],[-120.73847,50.23576],[-120.73852,50.23588],[-120.73854,50.23604],[-120.7385,50.23619],[-120.73842,50.23638],[-120.73829,50.23656],[-120.73803,50.23675],[-120.73769,50.23682],[-120.7376,50.23686],[-120.73733,50.23695],[-120.73705,50.23701],[-120.7368,50.23707],[-120.73671,50.23708],[-120.73644,50.23712],[-120.73624,50.23717],[-120.73594,50.23724],[-120.73578,50.23729],[-120.73559,50.23736],[-120.73533,50.23744],[-120.73512,50.23747],[-120.73483,50.23752],[-120.73475,50.23755],[-120.73443,50.23768],[-120.73435,50.23772],[-120.7343,50.23777],[-120.7339,50.23791],[-120.73357,50.23793],[-120.73329,50.23795],[-120.73317,50.23797],[-120.73306,50.238],[-120.73279,50.23802],[-120.73252,50.23803],[-120.73228,50.23811],[-120.73204,50.23816],[-120.73186,50.23823],[-120.73171,50.23825],[-120.73149,50.23827],[-120.73124,50.2383],[-120.73115,50.23831],[-120.73083,50.23833],[-120.73069,50.23833],[-120.73038,50.23826],[-120.73019,50.23823],[-120.73009,50.23818],[-120.72985,50.238],[-120.72979,50.23794],[-120.72959,50.23783],[-120.72951,50.2378],[-120.72934,50.23768],[-120.72924,50.23758],[-120.72905,50.23745],[-120.72881,50.23734],[-120.72852,50.23722],[-120.72832,50.23707],[-120.72809,50.23689],[-120.72797,50.23681],[-120.72787,50.23677],[-120.72753,50.23656],[-120.72735,50.23647],[-120.72705,50.23628],[-120.72684,50.23613],[-120.72674,50.23601],[-120.72657,50.23581],[-120.72642,50.23575],[-120.72618,50.23575],[-120.72604,50.23575],[-120.72586,50.23579],[-120.72575,50.23572],[-120.72563,50.23564],[-120.7255,50.23561],[-120.72533,50.23555],[-120.72527,50.23551],[-120.72521,50.23545],[-120.72519,50.23537],[-120.72508,50.23522],[-120.72488,50.23503],[-120.72469,50.23488],[-120.72445,50.23469],[-120.72432,50.23456],[-120.72405,50.23437],[-120.72396,50.23431],[-120.72383,50.23417],[-120.72367,50.23405],[-120.72359,50.23401],[-120.72335,50.23397],[-120.72302,50.23385],[-120.72269,50.2337],[-120.72259,50.23365],[-120.72234,50.23358]]}},
{"type":"Feature","properties":{"spotId":"A-deer-atv-0051","kind":"walk","km":0.31,"climbM":1,"name":"490 m S of Hector Creek","flags":[]},"geometry":{"type":"LineString","coordinates":[[-120.73778,50.23423],[-120.74008,50.23183]]}},
{"type":"Feature","properties":{"spotId":"A-deer-atv-0083","kind":"ride","km":2.4,"climbM":33,"name":"520 m E of Shuta Creek","flags":["Route crosses private land (ParcelMap BC, updated 2026-09-25): get permission first or go around."]},"geometry":{"type":"LineString","coordinates":[[-120.68118,50.2375],[-120.68125,50.23734],[-120.68136,50.23715],[-120.6814,50.23699],[-120.68139,50.23685],[-120.68137,50.23665],[-120.68136,50.23653],[-120.68135,50.23632],[-120.68133,50.23611],[-120.68132,50.23601],[-120.6813,50.23587],[-120.68127,50.23577],[-120.68128,50.2356],[-120.6814,50.23548],[-120.68151,50.2353],[-120.68166,50.23511],[-120.6817,50.23506],[-120.68175,50.23497],[-120.68178,50.23481],[-120.68185,50.23469],[-120.68188,50.23461],[-120.68187,50.23442],[-120.68175,50.23431],[-120.6816,50.23421],[-120.68154,50.23413],[-120.6815,50.23405],[-120.6815,50.23398],[-120.68158,50.23385],[-120.68163,50.23374],[-120.68163,50.2336],[-120.68171,50.23352],[-120.68175,50.23342],[-120.68177,50.23332],[-120.6818,50.23324],[-120.68191,50.23311],[-120.68193,50.23304],[-120.68192,50.23289],[-120.6819,50.23271],[-120.68188,50.23252],[-120.68186,50.23238],[-120.68183,50.23206],[-120.68184,50.23186],[-120.68188,50.23173],[-120.68194,50.23156],[-120.68199,50.23135],[-120.68207,50.23114],[-120.68209,50.23107],[-120.68215,50.23096],[-120.6822,50.23078],[-120.68222,50.2307],[-120.68223,50.23053],[-120.68225,50.2304],[-120.68223,50.23021],[-120.68222,50.23007],[-120.68221,50.22985],[-120.68221,50.22978],[-120.68227,50.22963],[-120.68233,50.22943],[-120.68239,50.22925],[-120.6824,50.22912],[-120.68233,50.22897],[-120.68227,50.22889],[-120.68221,50.22884],[-120.68214,50.22871],[-120.68208,50.22848],[-120.68207,50.22841],[-120.68198,50.22837],[-120.68189,50.22829],[-120.6817,50.22808],[-120.68156,50.22786],[-120.68149,50.22778],[-120.68146,50.22756],[-120.68146,50.22741],[-120.68144,50.22719],[-120.68141,50.22697],[-120.68128,50.22676],[-120.68122,50.22655],[-120.68118,50.22648],[-120.68109,50.22638],[-120.68099,50.22625],[-120.68093,50.22609],[-120.68091,50.226],[-120.68074,50.22577],[-120.68066,50.22556],[-120.68056,50.22534],[-120.68051,50.22521],[-120.68041,50.22497],[-120.68038,50.22477],[-120.68037,50.22471],[-120.68032,50.22454],[-120.68031,50.22442],[-120.68029,50.22426],[-120.68028,50.2241],[-120.68026,50.22399],[-120.68028,50.22393],[-120.68038,50.22377],[-120.68043,50.22361],[-120.68044,50.22354],[-120.68043,50.22346],[-120.68041,50.22331],[-120.68039,50.2231],[-120.68038,50.22297],[-120.68007,50.22284],[-120.68003,50.22279],[-120.67981,50.22261],[-120.67975,50.2225],[-120.67973,50.22246],[-120.67956,50.222],[-120.67953,50.22177],[-120.67947,50.22154],[-120.67938,50.22132],[-120.67927,50.22109],[-120.67912,50.22088],[-120.67882,50.22046],[-120.67868,50.22023],[-120.67856,50.22],[-120.67842,50.21978],[-120.67823,50.21959],[-120.67806,50.21939],[-120.67786,50.21919],[-120.6777,50.21898],[-120.67747,50.21878],[-120.67724,50.21859],[-120.67707,50.21838],[-120.67689,50.21815],[-120.67669,50.21795],[-120.67647,50.21778],[-120.67616,50.21752],[-120.67593,50.21732],[-120.67591,50.21731]]}},
{"type":"Feature","properties":{"spotId":"A-deer-atv-0083","kind":"walk","km":0.02,"climbM":5,"name":"520 m E of Shuta Creek","flags":["Route crosses private land (ParcelMap BC, updated 2026-09-25): get permission first or go around."]},"geometry":{"type":"LineString","coordinates":[[-120.67591,50.21731],[-120.67574,50.21741]]}},
{"type":"Feature","properties":{"spotId":"A-deer-atv-0100","kind":"ride","km":2.04,"climbM":63,"name":"520 m NW of Mabel Creek","flags":[]},"geometry":{"type":"LineString","coordinates":[[-120.6089,50.24381],[-120.60831,50.24374],[-120.60796,50.24372],[-120.60764,50.24376],[-120.60706,50.24391],[-120.60554,50.24402],[-120.60457,50.24403],[-120.60439,50.24407],[-120.60354,50.2452],[-120.60266,50.24634],[-120.60215,50.24686],[-120.60233,50.24704],[-120.60246,50.24714],[-120.60257,50.24723],[-120.60261,50.24732],[-120.60261,50.24737],[-120.60259,50.24745],[-120.60254,50.24758],[-120.60249,50.24768],[-120.6024,50.24787],[-120.60235,50.24796],[-120.60223,50.24814],[-120.60218,50.24825],[-120.60203,50.24843],[-120.60198,50.24857],[-120.60195,50.24868],[-120.60199,50.24883],[-120.60267,50.25003],[-120.60307,50.25071],[-120.60319,50.25148],[-120.60325,50.25219],[-120.60316,50.25279],[-120.60364,50.25353],[-120.6038,50.25361],[-120.60393,50.25368],[-120.60393,50.25378],[-120.60393,50.25398],[-120.60389,50.25417],[-120.60387,50.25439],[-120.60385,50.25449],[-120.60376,50.25465],[-120.60364,50.25477],[-120.60344,50.25486],[-120.60338,50.2551],[-120.60337,50.25511],[-120.60316,50.25533],[-120.60297,50.25554],[-120.60276,50.25572],[-120.60259,50.25585],[-120.60232,50.25609],[-120.60208,50.25626],[-120.60176,50.25646],[-120.60151,50.2565],[-120.60122,50.2565],[-120.60103,50.25646],[-120.6009,50.25644],[-120.60085,50.25641],[-120.60059,50.25625],[-120.60032,50.2561],[-120.6,50.25603],[-120.59995,50.25605],[-120.59985,50.25614],[-120.59981,50.25619],[-120.59975,50.25641]]}},
{"type":"Feature","properties":{"spotId":"A-deer-atv-0100","kind":"walk","km":0.3,"climbM":0,"name":"520 m NW of Mabel Creek","flags":[]},"geometry":{"type":"LineString","coordinates":[[-120.6089,50.24381],[-120.61005,50.24121]]}},
{"type":"Feature","properties":{"spotId":"A-deer-drive-0076","kind":"walk","km":0.13,"climbM":10,"name":"By Clapperton Creek","flags":[]},"geometry":{"type":"LineString","coordinates":[[-120.62992,50.22535],[-120.62835,50.22593]]}},
{"type":"Feature","properties":{"spotId":"A-deer-walk-0079","kind":"walk","km":0.64,"climbM":135,"name":"120 m E of Kirby Creek","flags":[]},"geometry":{"type":"LineString","coordinates":[[-120.63548,50.22726],[-120.64068,50.23192]]}},
{"type":"Feature","properties":{"spotId":"A-deer-walk-0090","kind":"walk","km":0.47,"climbM":48,"name":"By Rorison Creek","flags":["Route crosses private land (ParcelMap BC, updated 2026-09-25): get permission first or go around."]},"geometry":{"type":"LineString","coordinates":[[-120.65236,50.21682],[-120.65897,50.2166]]}},
{"type":"Feature","properties":{"spotId":"A-duck-drive-0133","kind":"walk","km":0.09,"climbM":0,"name":"Unnamed wetland by Samson Creek","flags":["Route crosses private land (ParcelMap BC, updated 2026-09-25): get permission first or go around."]},"geometry":{"type":"LineString","coordinates":[[-120.7395,50.21242],[-120.73995,50.21162]]}},
{"type":"Feature","properties":{"spotId":"A-duck-walk-0137","kind":"walk","km":0.44,"climbM":18,"name":"Unnamed wetland 1.3 km SE of Samson Creek","flags":[]},"geometry":{"type":"LineString","coordinates":[[-120.73498,50.2042],[-120.73018,50.20175]]}}
]}
