{"type":"FeatureCollection","features":[
{"type":"Feature","properties":{"spotId":"A-deer-atv-0067","kind":"ride","km":3.88,"climbM":97,"name":"By Succour Creek","flags":[]},"geometry":{"type":"LineString","coordinates":[[-120.83505,51.88402],[-120.8351,51.88424],[-120.83509,51.88447],[-120.83509,51.88471],[-120.83508,51.88495],[-120.83509,51.88517],[-120.83511,51.8854],[-120.83511,51.88566],[-120.83512,51.88594],[-120.83516,51.88599],[-120.83523,51.88604],[-120.83526,51.88604],[-120.83532,51.88606],[-120.8357,51.88607],[-120.83595,51.88609],[-120.83612,51.8861],[-120.83619,51.88611],[-120.83651,51.88614],[-120.83659,51.88618],[-120.83683,51.88636],[-120.83686,51.88638],[-120.837,51.8865],[-120.83711,51.8866],[-120.83714,51.88662],[-120.83741,51.88682],[-120.83776,51.887],[-120.83807,51.88712],[-120.83813,51.88718],[-120.83833,51.88725],[-120.83872,51.88729],[-120.83883,51.88733],[-120.83916,51.88745],[-120.83952,51.88759],[-120.83982,51.88775],[-120.83995,51.88777],[-120.84002,51.88778],[-120.84011,51.8878],[-120.84042,51.8879],[-120.84051,51.88791],[-120.84059,51.8879],[-120.84062,51.8879],[-120.84084,51.88793],[-120.84129,51.88796],[-120.84146,51.88796],[-120.84186,51.88798],[-120.84231,51.88799],[-120.84247,51.88824],[-120.84248,51.88852],[-120.84249,51.88877],[-120.84247,51.88901],[-120.84246,51.88926],[-120.84245,51.88949],[-120.84244,51.88971],[-120.84228,51.88994],[-120.84222,51.89018],[-120.84223,51.89046],[-120.84228,51.89054],[-120.8425,51.8908],[-120.84259,51.89083],[-120.84278,51.89103],[-120.84292,51.89125],[-120.84309,51.89138],[-120.84334,51.89157],[-120.84368,51.89173],[-120.84408,51.89183],[-120.84429,51.89184],[-120.84443,51.89187],[-120.84473,51.89191],[-120.84491,51.89191],[-120.84511,51.89194],[-120.84537,51.89197],[-120.84554,51.89198],[-120.84579,51.89201],[-120.84601,51.89201],[-120.84625,51.89201],[-120.84656,51.89199],[-120.84677,51.89194],[-120.84694,51.89193],[-120.84716,51.89196],[-120.84745,51.89199],[-120.84768,51.89203],[-120.84785,51.89206],[-120.8482,51.89211],[-120.84844,51.89214],[-120.84878,51.89216],[-120.84894,51.89216],[-120.84949,51.89214],[-120.84974,51.89214],[-120.84993,51.89213],[-120.85013,51.8921],[-120.85033,51.89211],[-120.85054,51.89211],[-120.85075,51.89215],[-120.85091,51.89221],[-120.85108,51.8921],[-120.85123,51.89201],[-120.85139,51.8919],[-120.85151,51.89182],[-120.85168,51.89171],[-120.85181,51.89162],[-120.85195,51.89153],[-120.8521,51.89142],[-120.8522,51.89134],[-120.85235,51.89125],[-120.85246,51.89117],[-120.85262,51.89105],[-120.85279,51.89093],[-120.85292,51.89081],[-120.85306,51.89072],[-120.85328,51.89058],[-120.85355,51.89046],[-120.85372,51.89039],[-120.85386,51.89034],[-120.85413,51.89021],[-120.85428,51.89014],[-120.85444,51.89005],[-120.85476,51.8899],[-120.85501,51.8898],[-120.85523,51.88969],[-120.8554,51.88959],[-120.85556,51.8895],[-120.85568,51.88944],[-120.85593,51.88937],[-120.85633,51.88924],[-120.85647,51.88921],[-120.85672,51.88922],[-120.85688,51.88923],[-120.85713,51.88927],[-120.85733,51.88932],[-120.85751,51.88936],[-120.85774,51.88943],[-120.85796,51.88949],[-120.85817,51.88954],[-120.85842,51.88957],[-120.85859,51.88958],[-120.85878,51.88956],[-120.859,51.88953],[-120.85918,51.88951],[-120.8594,51.88947],[-120.85965,51.88944],[-120.85981,51.88941],[-120.85998,51.88938],[-120.86019,51.88935],[-120.86035,51.88931],[-120.8605,51.88929],[-120.86075,51.88925],[-120.86096,51.88922],[-120.86127,51.88915],[-120.86152,51.88909],[-120.86164,51.88904],[-120.86183,51.88898],[-120.86198,51.88891],[-120.8622,51.88882],[-120.86232,51.88875],[-120.86252,51.88861],[-120.86264,51.88847],[-120.86276,51.88838],[-120.86287,51.88827],[-120.86298,51.88818],[-120.86305,51.88809],[-120.86319,51.88793],[-120.86331,51.8878],[-120.86344,51.8877],[-120.86353,51.88762],[-120.86365,51.88748],[-120.86376,51.88738],[-120.86386,51.88726],[-120.86394,51.88717],[-120.86405,51.88703],[-120.86412,51.88696],[-120.86428,51.88679],[-120.86442,51.88663],[-120.86463,51.88638],[-120.86475,51.88625],[-120.86486,51.88614],[-120.86494,51.88599],[-120.86505,51.88586],[-120.86514,51.88576],[-120.86525,51.88565],[-120.86537,51.8855],[-120.86545,51.88539],[-120.86554,51.88527],[-120.86557,51.88517],[-120.86567,51.88503],[-120.86576,51.88491],[-120.86587,51.8848],[-120.86593,51.88473],[-120.86598,51.88468],[-120.86604,51.88459],[-120.86613,51.88451],[-120.86616,51.88443],[-120.86616,51.88441],[-120.86616,51.8844],[-120.86626,51.88427],[-120.86627,51.88422],[-120.86629,51.88411],[-120.86634,51.88401],[-120.86636,51.88386],[-120.86637,51.88377],[-120.86639,51.88364],[-120.86645,51.88352],[-120.8665,51.88341],[-120.86653,51.88332],[-120.86656,51.88319],[-120.8666,51.8831],[-120.86661,51.88297],[-120.8666,51.8828],[-120.86659,51.88269],[-120.86656,51.88252],[-120.86649,51.88242],[-120.8664,51.88226],[-120.86633,51.88218],[-120.8663,51.88215],[-120.86626,51.88205],[-120.86615,51.88189],[-120.86613,51.88183],[-120.86613,51.88181],[-120.8661,51.88175],[-120.86603,51.88169],[-120.86599,51.88164],[-120.86591,51.88153],[-120.8659,51.88143],[-120.8658,51.88131],[-120.86576,51.88125],[-120.86568,51.88115],[-120.86558,51.88104],[-120.86551,51.88095],[-120.86552,51.8809],[-120.86548,51.88078],[-120.86553,51.88068],[-120.86559,51.88053],[-120.86568,51.88041],[-120.86578,51.88028],[-120.86581,51.88014],[-120.86586,51.88002],[-120.86593,51.87991],[-120.86597,51.8798],[-120.86601,51.87969],[-120.86607,51.87957],[-120.86612,51.87944],[-120.86616,51.87932],[-120.86621,51.8792],[-120.86625,51.87911],[-120.86626,51.87905]]}},
{"type":"Feature","properties":{"spotId":"A-deer-atv-0067","kind":"walk","km":0.1,"climbM":0,"name":"By Succour Creek","flags":[]},"geometry":{"type":"LineString","coordinates":[[-120.86626,51.87905],[-120.86768,51.87914]]}},
{"type":"Feature","properties":{"spotId":"A-deer-atv-0085","kind":"ride","km":4.25,"climbM":163,"name":"190 m N of Howard Lake","flags":[]},"geometry":{"type":"LineString","coordinates":[[-120.83474,51.82253],[-120.8347,51.82252],[-120.83427,51.82245],[-120.83386,51.82234],[-120.83384,51.82233],[-120.83378,51.8223],[-120.83352,51.82224],[-120.83343,51.82222],[-120.83302,51.8221],[-120.83293,51.82208],[-120.83288,51.82207],[-120.83285,51.82206],[-120.83276,51.82204],[-120.83268,51.822],[-120.83255,51.82195],[-120.83246,51.82195],[-120.83237,51.82193],[-120.83203,51.82178],[-120.83167,51.82169],[-120.83152,51.82162],[-120.83142,51.82159],[-120.83136,51.82157],[-120.83128,51.82154],[-120.83092,51.82143],[-120.83085,51.82139],[-120.83046,51.82132],[-120.83037,51.82131],[-120.83033,51.82127],[-120.83005,51.82112],[-120.82974,51.82098],[-120.82941,51.8209],[-120.8293,51.82088],[-120.82921,51.82084],[-120.82883,51.8208],[-120.8284,51.82072],[-120.82804,51.82061],[-120.828,51.82055],[-120.82769,51.82034],[-120.82732,51.82016],[-120.82721,51.82009],[-120.82684,51.81995],[-120.82671,51.81987],[-120.8265,51.81979],[-120.82613,51.81972],[-120.82571,51.81969],[-120.82523,51.81964],[-120.82478,51.81959],[-120.82436,51.81955],[-120.82425,51.81951],[-120.82416,51.81945],[-120.82398,51.8194],[-120.82373,51.81922],[-120.82353,51.81902],[-120.8233,51.81882],[-120.82312,51.81862],[-120.82306,51.81856],[-120.82296,51.8185],[-120.82286,51.81848],[-120.82266,51.81848],[-120.82263,51.81849],[-120.82228,51.81852],[-120.82193,51.81859],[-120.82155,51.81867],[-120.82137,51.81874],[-120.82134,51.81879],[-120.82125,51.81887],[-120.82114,51.81891],[-120.821,51.81917],[-120.82095,51.81923],[-120.82086,51.81928],[-120.82082,51.81934],[-120.82076,51.81958],[-120.82075,51.81964],[-120.82073,51.81969],[-120.82066,51.81997],[-120.82064,51.81998],[-120.82044,51.82019],[-120.82012,51.82034],[-120.81979,51.82049],[-120.81946,51.82066],[-120.8194,51.82071],[-120.81939,51.82072],[-120.8193,51.82074],[-120.81922,51.82079],[-120.81914,51.82081],[-120.81897,51.82091],[-120.81865,51.82098],[-120.81862,51.82098],[-120.81855,51.82098],[-120.8184,51.82098],[-120.81832,51.82095],[-120.81823,51.82084],[-120.81815,51.82075],[-120.81816,51.82049],[-120.81822,51.82022],[-120.81823,51.81996],[-120.81813,51.8197],[-120.81798,51.81949],[-120.81777,51.81925],[-120.81745,51.81915],[-120.81703,51.81909],[-120.81667,51.81909],[-120.81645,51.81907],[-120.81604,51.81908],[-120.81561,51.81909],[-120.8152,51.81907],[-120.81516,51.81903],[-120.81494,51.81883],[-120.81476,51.81859],[-120.81452,51.81842],[-120.81411,51.8183],[-120.81371,51.81819],[-120.81348,51.81815],[-120.81313,51.81801],[-120.81296,51.818],[-120.81257,51.81793],[-120.8125,51.81792],[-120.81215,51.81789],[-120.81197,51.81782],[-120.81157,51.81786],[-120.81094,51.81813],[-120.81056,51.81837],[-120.81034,51.81855],[-120.81018,51.8187],[-120.80993,51.81919],[-120.80989,51.81941],[-120.80974,51.81973],[-120.80954,51.81999],[-120.8094,51.8201],[-120.8092,51.82017],[-120.80881,51.82018],[-120.80637,51.82022],[-120.80628,51.82025],[-120.80584,51.82029],[-120.80489,51.82033],[-120.80422,51.82048],[-120.80391,51.82056],[-120.80262,51.82077],[-120.80204,51.82081],[-120.80088,51.82109],[-120.80005,51.82126],[-120.7995,51.82147],[-120.79931,51.82151],[-120.79902,51.82155],[-120.79867,51.82155],[-120.79811,51.82144],[-120.79789,51.82138],[-120.79755,51.82123],[-120.79736,51.82101],[-120.79734,51.82089],[-120.79742,51.8207],[-120.79763,51.82044],[-120.79774,51.82031],[-120.79781,51.82011],[-120.79785,51.81953],[-120.79807,51.81895],[-120.79808,51.81876],[-120.79828,51.81818],[-120.7983,51.818],[-120.79824,51.81779],[-120.79823,51.81742],[-120.79803,51.81729],[-120.79788,51.81726],[-120.79718,51.81725],[-120.79708,51.81722],[-120.79667,51.81701],[-120.79626,51.81674],[-120.79569,51.816],[-120.79516,51.81555],[-120.79501,51.81499],[-120.79484,51.81472],[-120.79461,51.81459],[-120.79414,51.81442],[-120.79326,51.81431]]}},
{"type":"Feature","properties":{"spotId":"A-deer-atv-0085","kind":"walk","km":0.17,"climbM":22,"name":"190 m N of Howard Lake","flags":[]},"geometry":{"type":"LineString","coordinates":[[-120.79326,51.81431],[-120.79264,51.81577]]}},
{"type":"Feature","properties":{"spotId":"A-deer-drive-0157","kind":"walk","km":0.04,"climbM":10,"name":"540 m NE of Baldwin Lake","flags":[]},"geometry":{"type":"LineString","coordinates":[[-120.82147,51.88962],[-120.8217,51.88996]]}},
{"type":"Feature","properties":{"spotId":"A-deer-walk-0059","kind":"walk","km":2.01,"climbM":375,"name":"2.5 km E of Bobbs Lake","flags":["Route crosses private land (ParcelMap BC, updated 2026-09-25): get permission first or go around."]},"geometry":{"type":"LineString","coordinates":[[-120.88694,51.81626],[-120.91598,51.81768]]}},
{"type":"Feature","properties":{"spotId":"A-deer-walk-0095","kind":"walk","km":0.58,"climbM":75,"name":"630 m S of Succour Lake","flags":["Route crosses private land (ParcelMap BC, updated 2026-09-25): get permission first or go around."]},"geometry":{"type":"LineString","coordinates":[[-120.82951,51.88736],[-120.83354,51.89195]]}},
{"type":"Feature","properties":{"spotId":"A-deer-walk-0157","kind":"walk","km":1.17,"climbM":77,"name":"By Succour Creek","flags":[]},"geometry":{"type":"LineString","coordinates":[[-120.85691,51.86924],[-120.86811,51.87715]]}},
{"type":"Feature","properties":{"spotId":"A-duck-drive-0045","kind":"walk","km":0.29,"climbM":0,"name":"Unnamed wetland by Canim Lake","flags":["Route crosses private land (ParcelMap BC, updated 2026-09-25): get permission first or go around."]},"geometry":{"type":"LineString","coordinates":[[-120.89936,51.77117],[-120.90266,51.77278]]}},
{"type":"Feature","properties":{"spotId":"A-duck-drive-0051","kind":"walk","km":0.07,"climbM":0,"name":"Unnamed wetland 450 m SW of Bridge Creek","flags":[]},"geometry":{"type":"LineString","coordinates":[[-120.9748,51.767],[-120.97463,51.76764]]}},
{"type":"Feature","properties":{"spotId":"A-duck-walk-0029","kind":"walk","km":0.48,"climbM":26,"name":"Unnamed lake 570 m NW of Christmas Creek","flags":["Route crosses private land (ParcelMap BC, updated 2026-09-25): get permission first or go around."]},"geometry":{"type":"LineString","coordinates":[[-120.85156,51.87183],[-120.85593,51.87513]]}},
{"type":"Feature","properties":{"spotId":"A-duck-walk-0147","kind":"walk","km":0.3,"climbM":0,"name":"Unnamed lake by Christmas Creek","flags":[]},"geometry":{"type":"LineString","coordinates":[[-120.80876,51.89327],[-120.80687,51.89081]]}},
{"type":"Feature","properties":{"spotId":"A-grouse-atv-0084","kind":"ride","km":5.34,"climbM":44,"name":"1.7 km S of Howard Lake","flags":["Route crosses private land (ParcelMap BC, updated 2026-09-25): get permission first or go around."]},"geometry":{"type":"LineString","coordinates":[[-120.76071,51.79134],[-120.76098,51.79152],[-120.76123,51.79175],[-120.76157,51.79193],[-120.76165,51.79194],[-120.76171,51.79199],[-120.7622,51.79207],[-120.76229,51.79219],[-120.76234,51.79244],[-120.76254,51.79294],[-120.76281,51.79315],[-120.76315,51.7933],[-120.76369,51.79345],[-120.76409,51.79368],[-120.76453,51.7947],[-120.76503,51.79495],[-120.76526,51.795],[-120.76585,51.79506],[-120.7663,51.79521],[-120.76639,51.79526],[-120.76665,51.79548],[-120.76674,51.79576],[-120.76668,51.79604],[-120.76654,51.79662],[-120.76652,51.79693],[-120.76654,51.79715],[-120.76693,51.79789],[-120.76704,51.79824],[-120.76706,51.79902],[-120.76694,51.79934],[-120.76688,51.79946],[-120.76661,51.79968],[-120.76631,51.8],[-120.76566,51.8004],[-120.76535,51.80067],[-120.76525,51.80068],[-120.76515,51.80075],[-120.76478,51.80132],[-120.76456,51.80183],[-120.76421,51.80245],[-120.76373,51.8029],[-120.76358,51.803],[-120.76344,51.80327],[-120.7629,51.80373],[-120.76274,51.80391],[-120.76269,51.80405],[-120.76264,51.80425],[-120.76274,51.80462],[-120.76284,51.80483],[-120.76299,51.80501],[-120.76361,51.80546],[-120.76372,51.80561],[-120.76371,51.80573],[-120.76363,51.80584],[-120.76303,51.80631],[-120.76285,51.80664],[-120.76291,51.80671],[-120.76319,51.8069],[-120.76325,51.80712],[-120.76301,51.80763],[-120.76282,51.80784],[-120.76265,51.8082],[-120.76258,51.80916],[-120.76259,51.80922],[-120.76294,51.80963],[-120.76298,51.80983],[-120.76315,51.81004],[-120.76336,51.81023],[-120.76348,51.8103],[-120.76393,51.81032],[-120.76431,51.81023],[-120.76502,51.81024],[-120.76535,51.8104],[-120.76564,51.81043],[-120.76598,51.81036],[-120.76745,51.81072],[-120.76773,51.81077],[-120.7685,51.81118],[-120.76877,51.81127],[-120.7694,51.81135],[-120.77032,51.81139],[-120.77172,51.81151],[-120.77217,51.81151],[-120.77339,51.81148],[-120.77455,51.81151],[-120.77518,51.81135],[-120.77544,51.81135],[-120.77587,51.81135],[-120.7765,51.81141],[-120.77691,51.81156],[-120.77706,51.81158],[-120.77761,51.81183],[-120.77797,51.81245],[-120.7783,51.81282],[-120.77854,51.81301],[-120.77903,51.8133],[-120.78006,51.8136],[-120.78041,51.81367],[-120.78086,51.81369],[-120.78109,51.81366],[-120.78182,51.81359],[-120.78263,51.81332],[-120.78365,51.81329],[-120.78378,51.8133],[-120.78504,51.81363],[-120.78583,51.81378],[-120.78662,51.81414],[-120.78702,51.81426],[-120.7874,51.81434],[-120.78862,51.81449],[-120.78873,51.81449],[-120.79023,51.81408],[-120.79059,51.81402],[-120.79126,51.81402],[-120.79188,51.81407],[-120.79326,51.81431],[-120.79414,51.81442],[-120.79461,51.81459],[-120.79484,51.81472],[-120.79501,51.81499],[-120.79516,51.81555],[-120.79569,51.816],[-120.79626,51.81674],[-120.79667,51.81701],[-120.79708,51.81722],[-120.79718,51.81725],[-120.79788,51.81726],[-120.79803,51.81729],[-120.79823,51.81742],[-120.79824,51.81779],[-120.79827,51.81789]]}},
{"type":"Feature","properties":{"spotId":"A-moose-atv-0068","kind":"ride","km":2.1,"climbM":33,"name":"By Squirrel Lake","flags":[]},"geometry":{"type":"LineString","coordinates":[[-120.7745,51.9105],[-120.77434,51.91042],[-120.77415,51.91033],[-120.77401,51.91024],[-120.77394,51.91014],[-120.77385,51.91009],[-120.77383,51.91006],[-120.77382,51.90997],[-120.77373,51.90987],[-120.77377,51.90978],[-120.77376,51.90967],[-120.77381,51.90953],[-120.77381,51.90944],[-120.77382,51.90935],[-120.77384,51.90924],[-120.7739,51.90914],[-120.77389,51.90908],[-120.77389,51.90898],[-120.77397,51.90882],[-120.77402,51.9087],[-120.77407,51.90861],[-120.77418,51.90849],[-120.77426,51.90839],[-120.77434,51.90827],[-120.77443,51.90819],[-120.77453,51.90809],[-120.77464,51.90797],[-120.7747,51.9079],[-120.77477,51.9078],[-120.77474,51.90769],[-120.77469,51.90754],[-120.77461,51.90739],[-120.77455,51.90723],[-120.77447,51.90713],[-120.77434,51.90701],[-120.77423,51.90688],[-120.77405,51.90677],[-120.77381,51.90663],[-120.77355,51.90655],[-120.77335,51.90652],[-120.7732,51.90652],[-120.7729,51.90648],[-120.77272,51.90647],[-120.77268,51.90648],[-120.77248,51.90649],[-120.7723,51.90651],[-120.77213,51.90651],[-120.77191,51.90653],[-120.77163,51.90652],[-120.7714,51.90657],[-120.77115,51.90659],[-120.7709,51.9066],[-120.77072,51.90663],[-120.77055,51.90665],[-120.77034,51.90669],[-120.7702,51.90668],[-120.76999,51.9067],[-120.7698,51.9067],[-120.7693,51.90669],[-120.76909,51.90671],[-120.76887,51.9067],[-120.76864,51.90668],[-120.76837,51.90665],[-120.76819,51.90662],[-120.76802,51.9066],[-120.76781,51.90655],[-120.76747,51.90649],[-120.76717,51.90641],[-120.7669,51.90636],[-120.76668,51.90631],[-120.76645,51.90628],[-120.76618,51.90623],[-120.76604,51.90619],[-120.76573,51.90614],[-120.7655,51.90607],[-120.76536,51.90603],[-120.76516,51.90599],[-120.765,51.90595],[-120.76483,51.90592],[-120.76476,51.90587],[-120.76473,51.90585],[-120.76459,51.9058],[-120.76395,51.90564],[-120.76377,51.9056],[-120.76358,51.90556],[-120.76339,51.90552],[-120.76323,51.90549],[-120.76289,51.90546],[-120.76259,51.90538],[-120.76241,51.90538],[-120.76228,51.90533],[-120.76224,51.90534],[-120.76202,51.90533],[-120.76183,51.90531],[-120.76147,51.90527],[-120.76114,51.90519],[-120.761,51.90519],[-120.76076,51.90517],[-120.76042,51.90514],[-120.76024,51.90511],[-120.76007,51.90506],[-120.75987,51.905],[-120.7597,51.90494],[-120.75964,51.90492],[-120.75972,51.90486],[-120.75984,51.90478],[-120.75992,51.9047],[-120.76005,51.90463],[-120.7602,51.90453],[-120.76039,51.90444],[-120.76057,51.9044],[-120.76073,51.90434],[-120.76088,51.90429],[-120.76107,51.90426],[-120.76131,51.90421],[-120.76143,51.90415],[-120.76163,51.90409],[-120.76175,51.90405],[-120.7619,51.90397],[-120.76211,51.90391],[-120.76218,51.90388],[-120.76224,51.90386],[-120.76239,51.90378],[-120.76251,51.9037],[-120.76272,51.90358],[-120.76281,51.90347],[-120.76286,51.90337],[-120.763,51.9032],[-120.76306,51.90308],[-120.76311,51.90295],[-120.76315,51.90286],[-120.76324,51.90274],[-120.76326,51.90272],[-120.76331,51.9026],[-120.76332,51.90254],[-120.76332,51.90251],[-120.76341,51.90234],[-120.76345,51.90223],[-120.7635,51.90214],[-120.76355,51.90202],[-120.76366,51.90185],[-120.76368,51.90172],[-120.76372,51.90162],[-120.76371,51.90152],[-120.76364,51.90144],[-120.76359,51.90135],[-120.76348,51.90124],[-120.76335,51.90111],[-120.76322,51.90104],[-120.7631,51.90096],[-120.76295,51.90089]]}},
{"type":"Feature","properties":{"spotId":"A-moose-atv-0068","kind":"walk","km":0.26,"climbM":0,"name":"By Squirrel Lake","flags":[]},"geometry":{"type":"LineString","coordinates":[[-120.76295,51.90089],[-120.76516,51.89898]]}}
]}
