{"type":"FeatureCollection","features":[
{"type":"Feature","properties":{"spotId":"A-camp-camp-0093","kind":"walk","km":0.04,"climbM":0,"name":"1.1 km N of Young Lake","flags":[]},"geometry":{"type":"LineString","coordinates":[[-120.97141,51.27344],[-120.97165,51.27316]]}},
{"type":"Feature","properties":{"spotId":"A-camp-camp-0101","kind":"walk","km":0.14,"climbM":0,"name":"1.1 km SE of No. 2 Lake","flags":[]},"geometry":{"type":"LineString","coordinates":[[-120.93338,51.4872],[-120.93404,51.48835]]}},
{"type":"Feature","properties":{"spotId":"A-deer-drive-0014","kind":"walk","km":0.28,"climbM":68,"name":"600 m NW of Young Lake","flags":[]},"geometry":{"type":"LineString","coordinates":[[-120.92932,51.26764],[-120.93171,51.26971]]}},
{"type":"Feature","properties":{"spotId":"A-deer-drive-0131","kind":"walk","km":0.21,"climbM":0,"name":"690 m S of Young Lake","flags":[]},"geometry":{"type":"LineString","coordinates":[[-120.94175,51.25234],[-120.9418,51.25426]]}},
{"type":"Feature","properties":{"spotId":"A-deer-walk-0022","kind":"walk","km":0.64,"climbM":83,"name":"1.0 km NE of Young Lake","flags":[]},"geometry":{"type":"LineString","coordinates":[[-120.95222,51.26777],[-120.94865,51.27304]]}},
{"type":"Feature","properties":{"spotId":"A-deer-walk-0190","kind":"walk","km":0.43,"climbM":85,"name":"580 m NW of Bonaparte River","flags":[]},"geometry":{"type":"LineString","coordinates":[[-120.89293,51.28017],[-120.89882,51.28131]]}},
{"type":"Feature","properties":{"spotId":"A-duck-drive-0017","kind":"walk","km":0.1,"climbM":0,"name":"Unnamed lake 200 m NW of Bonaparte River","flags":["Route crosses private land (ParcelMap BC, updated 2026-09-25): get permission first or go around."]},"geometry":{"type":"LineString","coordinates":[[-120.91018,51.26595],[-120.91137,51.26652]]}},
{"type":"Feature","properties":{"spotId":"A-duck-drive-0071","kind":"walk","km":0.02,"climbM":0,"name":"Unnamed wetland 1.2 km SW of Graham Creek","flags":[]},"geometry":{"type":"LineString","coordinates":[[-120.85424,51.38262],[-120.85402,51.38265]]}},
{"type":"Feature","properties":{"spotId":"A-duck-drive-0082","kind":"walk","km":0.06,"climbM":0,"name":"Unnamed lake 1.2 km SW of Orren Creek","flags":[]},"geometry":{"type":"LineString","coordinates":[[-120.9909,51.42813],[-120.99055,51.42865]]}},
{"type":"Feature","properties":{"spotId":"A-duck-walk-0007","kind":"walk","km":0.54,"climbM":22,"name":"Unnamed lake 310 m NW of Rayfield River","flags":["Route crosses private land (ParcelMap BC, updated 2026-09-25): get permission first or go around."]},"geometry":{"type":"LineString","coordinates":[[-120.97563,51.40627],[-120.98331,51.40706]]}},
{"type":"Feature","properties":{"spotId":"A-duck-walk-0040","kind":"walk","km":0.37,"climbM":1,"name":"Peel Lake","flags":[]},"geometry":{"type":"LineString","coordinates":[[-120.8088,51.37758],[-120.80721,51.38073]]}},
{"type":"Feature","properties":{"spotId":"A-duck-walk-0055","kind":"walk","km":0.49,"climbM":0,"name":"Unnamed wetland 170 m E of Simmons Creek","flags":[]},"geometry":{"type":"LineString","coordinates":[[-120.76438,51.27288],[-120.76745,51.27681]]}},
{"type":"Feature","properties":{"spotId":"A-duck-walk-0097","kind":"walk","km":0.33,"climbM":19,"name":"Unnamed wetland 140 m N of Young Lake","flags":["Route crosses private land (ParcelMap BC, updated 2026-09-25): get permission first or go around."]},"geometry":{"type":"LineString","coordinates":[[-120.91001,51.26589],[-120.91178,51.26317]]}},
{"type":"Feature","properties":{"spotId":"A-grouse-atv-0088","kind":"ride","km":4.33,"climbM":33,"name":"1.2 km SE of No. 2 Lake","flags":[]},"geometry":{"type":"LineString","coordinates":[[-120.9362,51.48531],[-120.93624,51.48521],[-120.93627,51.48513],[-120.93631,51.48504],[-120.93636,51.48495],[-120.93641,51.48483],[-120.93646,51.48472],[-120.93654,51.48464],[-120.93666,51.48457],[-120.93678,51.48448],[-120.93687,51.48437],[-120.93689,51.48423],[-120.93697,51.48404],[-120.93704,51.48393],[-120.93709,51.48387],[-120.93717,51.48379],[-120.93725,51.48372],[-120.9373,51.48364],[-120.93733,51.48357],[-120.93734,51.48342],[-120.93734,51.48333],[-120.93732,51.48323],[-120.93729,51.48314],[-120.93725,51.48304],[-120.93719,51.48289],[-120.93715,51.48276],[-120.93713,51.48259],[-120.93712,51.48244],[-120.93712,51.48232],[-120.93715,51.48225],[-120.93721,51.48215],[-120.9373,51.48201],[-120.93744,51.4819],[-120.93757,51.48182],[-120.93774,51.48173],[-120.93795,51.48166],[-120.93806,51.48159],[-120.93807,51.48153],[-120.93802,51.48148],[-120.93795,51.48144],[-120.93786,51.4814],[-120.93771,51.48136],[-120.93761,51.48131],[-120.93746,51.48121],[-120.93738,51.48114],[-120.93722,51.48105],[-120.93713,51.48092],[-120.93709,51.48078],[-120.93707,51.48066],[-120.93701,51.48055],[-120.93708,51.4804],[-120.93716,51.48034],[-120.9373,51.48025],[-120.93742,51.48014],[-120.93749,51.48006],[-120.93756,51.47991],[-120.93759,51.47977],[-120.93759,51.47965],[-120.9376,51.47957],[-120.93759,51.47946],[-120.93757,51.47933],[-120.93751,51.47918],[-120.93753,51.47902],[-120.93752,51.47884],[-120.93755,51.47874],[-120.93756,51.47857],[-120.93748,51.47843],[-120.93751,51.47819],[-120.93751,51.47798],[-120.93746,51.47786],[-120.93736,51.47768],[-120.93727,51.47755],[-120.93716,51.4774],[-120.93706,51.47725],[-120.93697,51.47706],[-120.93697,51.47697],[-120.93699,51.47686],[-120.93699,51.47675],[-120.93697,51.47661],[-120.93697,51.47644],[-120.937,51.47629],[-120.93701,51.47617],[-120.93704,51.47605],[-120.93708,51.47591],[-120.93713,51.47576],[-120.93717,51.47565],[-120.93727,51.47555],[-120.93731,51.47541],[-120.93729,51.4753],[-120.93721,51.47515],[-120.93717,51.47505],[-120.93718,51.47497],[-120.9372,51.47482],[-120.93722,51.47467],[-120.93726,51.47452],[-120.93731,51.47442],[-120.9374,51.47428],[-120.93744,51.47415],[-120.93746,51.47401],[-120.93746,51.47386],[-120.93745,51.47373],[-120.93737,51.4736],[-120.93727,51.47347],[-120.93725,51.4733],[-120.93719,51.4732],[-120.93717,51.47311],[-120.93716,51.47302],[-120.93714,51.47287],[-120.93713,51.47272],[-120.93708,51.47256],[-120.93708,51.47242],[-120.93711,51.47229],[-120.93714,51.47217],[-120.93709,51.47203],[-120.93702,51.47189],[-120.93694,51.47177],[-120.93685,51.47166],[-120.93673,51.47153],[-120.93661,51.47142],[-120.93655,51.47129],[-120.93651,51.47117],[-120.93645,51.47108],[-120.93634,51.47098],[-120.93621,51.47089],[-120.93605,51.47077],[-120.93588,51.47069],[-120.9357,51.47061],[-120.93551,51.47052],[-120.93537,51.47045],[-120.93527,51.47037],[-120.93514,51.4703],[-120.935,51.47022],[-120.93488,51.47012],[-120.93481,51.47001],[-120.93476,51.46991],[-120.93467,51.46978],[-120.93461,51.46969],[-120.93446,51.46959],[-120.93436,51.46951],[-120.93431,51.46943],[-120.93429,51.46935],[-120.93426,51.46925],[-120.93427,51.46917],[-120.93427,51.46906],[-120.9343,51.46886],[-120.93429,51.46877],[-120.9343,51.46867],[-120.93434,51.46856],[-120.93438,51.46844],[-120.93436,51.46833],[-120.93432,51.46822],[-120.93425,51.46812],[-120.93415,51.46803],[-120.93406,51.46797],[-120.93402,51.46787],[-120.93401,51.46775],[-120.93401,51.46768],[-120.93394,51.46759],[-120.93384,51.46749],[-120.93375,51.46735],[-120.93369,51.46726],[-120.93364,51.46717],[-120.93362,51.46711],[-120.93366,51.46708],[-120.93381,51.46709],[-120.93395,51.46712],[-120.93422,51.46715],[-120.93438,51.46717],[-120.93475,51.46716],[-120.93496,51.46712],[-120.93515,51.46701],[-120.93543,51.46686],[-120.93571,51.46668],[-120.93597,51.46654],[-120.93614,51.46643],[-120.93658,51.46635],[-120.93702,51.4663],[-120.93726,51.46628],[-120.93759,51.46625],[-120.93786,51.46622],[-120.93825,51.46615],[-120.93859,51.46601],[-120.93891,51.46586],[-120.93924,51.46566],[-120.93954,51.46547],[-120.93981,51.46536],[-120.94015,51.46526],[-120.94069,51.46511],[-120.94125,51.46495],[-120.94168,51.46483],[-120.94202,51.4647],[-120.94241,51.46455],[-120.94259,51.46447],[-120.9429,51.46438],[-120.94317,51.46432],[-120.94333,51.46429],[-120.94365,51.4643],[-120.94394,51.46434],[-120.94414,51.46434],[-120.94432,51.46431],[-120.94475,51.46415],[-120.94495,51.46404],[-120.94514,51.4639],[-120.94529,51.46379],[-120.94547,51.46367],[-120.94569,51.4636],[-120.94593,51.46357],[-120.94627,51.46357],[-120.94652,51.46355],[-120.9468,51.46351],[-120.94704,51.46343],[-120.94752,51.46326],[-120.94793,51.4631],[-120.94827,51.463],[-120.94852,51.46294],[-120.94895,51.46285],[-120.94919,51.46279],[-120.94956,51.46268],[-120.94974,51.46261],[-120.94998,51.46253],[-120.95017,51.46246],[-120.95032,51.46244],[-120.95046,51.46242],[-120.9506,51.46242],[-120.95075,51.46245],[-120.9509,51.4625],[-120.95098,51.46254],[-120.95107,51.46259],[-120.95118,51.46266],[-120.95133,51.46277],[-120.95157,51.46289],[-120.95179,51.463],[-120.95199,51.46304],[-120.95227,51.46304],[-120.9526,51.46301],[-120.95293,51.463],[-120.95318,51.46301],[-120.95345,51.46305],[-120.95374,51.46311],[-120.95397,51.46316],[-120.95423,51.46319],[-120.95447,51.4632],[-120.95472,51.46316],[-120.95499,51.46312],[-120.95542,51.46307],[-120.95585,51.46303],[-120.95634,51.46301],[-120.95686,51.46302],[-120.95711,51.46305],[-120.95727,51.4631],[-120.95739,51.46316],[-120.95752,51.46326],[-120.95764,51.46337],[-120.95776,51.46343],[-120.95799,51.46358],[-120.95834,51.46384],[-120.95859,51.46402],[-120.95881,51.46421],[-120.95897,51.46442],[-120.95921,51.46458],[-120.95947,51.46471],[-120.95976,51.46482],[-120.95997,51.46487],[-120.96007,51.46488]]}},
{"type":"Feature","properties":{"spotId":"A-grouse-drive-0107","kind":"roadside","km":4.73,"climbM":84,"name":"270 m W of No. 2 Lake","flags":[]},"geometry":{"type":"LineString","coordinates":[[-120.96704,51.49072],[-120.96698,51.49062],[-120.96682,51.49056],[-120.96655,51.49052],[-120.96628,51.49048],[-120.96595,51.49048],[-120.96564,51.49048],[-120.96534,51.49049],[-120.9651,51.49049],[-120.96479,51.4905],[-120.96452,51.49051],[-120.9642,51.49049],[-120.96393,51.49049],[-120.96367,51.49049],[-120.96341,51.49052],[-120.96315,51.49056],[-120.9629,51.4906],[-120.96263,51.49065],[-120.96235,51.49069],[-120.9621,51.49074],[-120.96186,51.49079],[-120.96159,51.49083],[-120.96129,51.49088],[-120.96094,51.49096],[-120.96074,51.49104],[-120.96042,51.49109],[-120.96016,51.49113],[-120.95997,51.49117],[-120.95969,51.49114],[-120.95944,51.49112],[-120.95913,51.49111],[-120.95883,51.49111],[-120.95859,51.49111],[-120.95836,51.4911],[-120.95807,51.49111],[-120.95779,51.49113],[-120.95746,51.49112],[-120.95716,51.49113],[-120.95684,51.49112],[-120.95658,51.49111],[-120.9563,51.49111],[-120.95605,51.4911],[-120.95579,51.49109],[-120.95573,51.49109],[-120.9555,51.49111],[-120.9552,51.49111],[-120.95491,51.49111],[-120.95464,51.49111],[-120.95438,51.49109],[-120.95414,51.49106],[-120.95405,51.49105],[-120.95377,51.49098],[-120.95348,51.49094],[-120.95321,51.4909],[-120.95289,51.49084],[-120.95275,51.4908],[-120.95242,51.49076],[-120.95209,51.49071],[-120.95175,51.49067],[-120.95146,51.49067],[-120.95119,51.49063],[-120.95094,51.49061],[-120.95071,51.49059],[-120.95046,51.49056],[-120.9502,51.49053],[-120.94994,51.49047],[-120.9497,51.49041],[-120.94947,51.49034],[-120.94925,51.49026],[-120.94902,51.49016],[-120.94881,51.49007],[-120.9486,51.48998],[-120.9484,51.48988],[-120.94813,51.48977],[-120.94792,51.48968],[-120.94772,51.48959],[-120.94751,51.48947],[-120.94727,51.48935],[-120.9472,51.48932],[-120.94706,51.48924],[-120.947,51.48921],[-120.94682,51.48913],[-120.94656,51.48904],[-120.94634,51.48895],[-120.94614,51.48887],[-120.94597,51.4888],[-120.94594,51.48879],[-120.94571,51.4887],[-120.94553,51.4886],[-120.94545,51.48857],[-120.9453,51.48853],[-120.94509,51.48842],[-120.94488,51.48834],[-120.94465,51.48825],[-120.94444,51.48815],[-120.94417,51.48808],[-120.94395,51.488],[-120.94392,51.48799],[-120.94369,51.48793],[-120.94348,51.48783],[-120.94327,51.48772],[-120.94308,51.48762],[-120.9429,51.48752],[-120.94272,51.48742],[-120.94248,51.48732],[-120.94228,51.48721],[-120.94208,51.48711],[-120.9419,51.48703],[-120.94182,51.48697],[-120.94166,51.48688],[-120.94145,51.48678],[-120.94125,51.48669],[-120.94106,51.48657],[-120.94092,51.48648],[-120.94089,51.48646],[-120.94071,51.48631],[-120.94056,51.48619],[-120.94039,51.48604],[-120.9402,51.48587],[-120.94,51.48572],[-120.93983,51.48558],[-120.93964,51.48546],[-120.93946,51.48535],[-120.93926,51.48528],[-120.93899,51.48517],[-120.93876,51.48514],[-120.93853,51.48509],[-120.9384,51.48507],[-120.93827,51.48505],[-120.938,51.48503],[-120.93774,51.48502],[-120.93747,51.48504],[-120.93722,51.48505],[-120.93702,51.48508],[-120.93676,51.48516],[-120.93654,51.48524],[-120.93632,51.48536],[-120.93626,51.48538],[-120.93612,51.48544],[-120.93589,51.48555],[-120.93571,51.48563],[-120.93568,51.48565],[-120.93549,51.48577],[-120.9353,51.48588],[-120.93512,51.486],[-120.935,51.48613],[-120.93488,51.48629],[-120.9348,51.48643],[-120.9347,51.48659],[-120.9346,51.48674],[-120.93442,51.48687],[-120.9342,51.48696],[-120.93399,51.48703],[-120.93386,51.48708],[-120.93374,51.48711],[-120.93355,51.48716],[-120.93329,51.48722],[-120.93303,51.48727],[-120.93281,51.48734],[-120.93262,51.48741],[-120.93229,51.48746],[-120.93195,51.48749],[-120.93167,51.4875],[-120.93162,51.48749],[-120.93139,51.48751],[-120.93115,51.48751],[-120.93086,51.48751],[-120.93056,51.48749],[-120.9303,51.48747],[-120.93006,51.48744],[-120.92984,51.48739],[-120.92962,51.48731],[-120.92934,51.48724],[-120.9293,51.48723],[-120.9291,51.48717],[-120.92905,51.48716],[-120.92883,51.48712],[-120.92856,51.48704],[-120.92835,51.48699],[-120.92828,51.48697],[-120.92811,51.48693],[-120.92788,51.48688],[-120.92779,51.48687],[-120.9276,51.48685],[-120.92748,51.48682],[-120.92733,51.48678],[-120.92706,51.48672],[-120.92679,51.48667],[-120.92646,51.4866],[-120.92621,51.48653],[-120.92618,51.48652],[-120.92598,51.48641],[-120.92574,51.48631],[-120.92553,51.48622],[-120.92533,51.48613],[-120.92512,51.48605],[-120.92488,51.48597],[-120.92465,51.48589],[-120.92444,51.48582],[-120.92423,51.48574],[-120.92399,51.48566],[-120.92367,51.48558],[-120.92342,51.48553],[-120.92317,51.48545],[-120.92295,51.48535],[-120.92275,51.48527],[-120.92251,51.48518],[-120.92228,51.48509],[-120.92208,51.48501],[-120.92182,51.4849],[-120.92159,51.48484],[-120.92132,51.48476],[-120.92111,51.4847],[-120.92088,51.48463],[-120.92064,51.48458],[-120.92038,51.48449],[-120.92014,51.48438],[-120.91999,51.48429],[-120.91994,51.48428],[-120.91966,51.4842],[-120.91933,51.48411],[-120.9191,51.48406],[-120.91893,51.48401],[-120.91889,51.484],[-120.91861,51.48394],[-120.91839,51.48388],[-120.91812,51.48379],[-120.91785,51.48371],[-120.91755,51.48362],[-120.91728,51.48354],[-120.91704,51.48347],[-120.9168,51.48339],[-120.91667,51.48336],[-120.91649,51.48331],[-120.91618,51.4832],[-120.91592,51.48311],[-120.91569,51.48305],[-120.91542,51.48295],[-120.9152,51.48286],[-120.91496,51.48278],[-120.91473,51.4827],[-120.91445,51.48261],[-120.91422,51.48257],[-120.91397,51.48254],[-120.91372,51.48248],[-120.91348,51.48241],[-120.91325,51.48231],[-120.91302,51.48221],[-120.91277,51.48211],[-120.91249,51.48198],[-120.91229,51.4819],[-120.91209,51.48182],[-120.91183,51.48177],[-120.91158,51.48172],[-120.91149,51.48171],[-120.91131,51.48161],[-120.91127,51.48159],[-120.91098,51.4815],[-120.91081,51.48145],[-120.9107,51.48141],[-120.9104,51.48133],[-120.91012,51.48123],[-120.91,51.48119],[-120.90974,51.48131],[-120.90952,51.48144],[-120.90932,51.48158],[-120.90921,51.48171],[-120.90909,51.48189],[-120.909,51.48206],[-120.90898,51.48209],[-120.90889,51.48224],[-120.90881,51.48242],[-120.90868,51.4826],[-120.90858,51.48278],[-120.90847,51.48296],[-120.90839,51.48307]]}},
{"type":"Feature","properties":{"spotId":"A-grouse-drive-0118","kind":"roadside","km":4.73,"climbM":55,"name":"1.3 km SW of Sheridan Lake","flags":[]},"geometry":{"type":"LineString","coordinates":[[-120.862,51.48168],[-120.86196,51.48171],[-120.86176,51.48192],[-120.86165,51.48208],[-120.86156,51.48224],[-120.86141,51.48245],[-120.86127,51.48265],[-120.86113,51.48281],[-120.86099,51.483],[-120.86085,51.48316],[-120.86071,51.48336],[-120.86059,51.48357],[-120.8605,51.48374],[-120.86042,51.48388],[-120.86042,51.48391],[-120.86037,51.48403],[-120.86035,51.48418],[-120.86034,51.48434],[-120.86033,51.48451],[-120.86032,51.48468],[-120.86033,51.48488],[-120.86048,51.48508],[-120.8606,51.4852],[-120.86082,51.48541],[-120.86104,51.48558],[-120.86128,51.48573],[-120.86162,51.48591],[-120.86181,51.48604],[-120.86199,51.48625],[-120.86208,51.4864],[-120.86218,51.48655],[-120.86229,51.4867],[-120.86241,51.48686],[-120.86253,51.48701],[-120.86265,51.48717],[-120.86279,51.48732],[-120.86304,51.48752],[-120.86331,51.48771],[-120.86357,51.48789],[-120.86382,51.48809],[-120.86407,51.48827],[-120.86432,51.48847],[-120.86459,51.48867],[-120.86467,51.48873],[-120.86493,51.48893],[-120.86518,51.48915],[-120.86532,51.48929],[-120.86544,51.48945],[-120.86565,51.48967],[-120.86587,51.48989],[-120.8661,51.4901],[-120.86634,51.49031],[-120.86659,51.49051],[-120.86685,51.4907],[-120.86712,51.49089],[-120.86716,51.49093],[-120.86735,51.49108],[-120.86762,51.49126],[-120.86782,51.49136],[-120.86796,51.49141],[-120.86812,51.49144],[-120.86843,51.49143],[-120.86874,51.49144],[-120.86907,51.49144],[-120.86938,51.49143],[-120.86969,51.49144],[-120.86983,51.49144],[-120.86986,51.49145],[-120.86997,51.49147],[-120.87019,51.49155],[-120.87026,51.49157],[-120.87041,51.49162],[-120.8706,51.49171],[-120.87075,51.49175],[-120.87108,51.49177],[-120.87124,51.49179],[-120.87141,51.49181],[-120.87173,51.49189],[-120.87187,51.49194],[-120.87217,51.49198],[-120.8723,51.49199],[-120.87257,51.49206],[-120.87285,51.49212],[-120.873,51.49215],[-120.87314,51.49219],[-120.87326,51.49226],[-120.87344,51.49242],[-120.87361,51.49259],[-120.87377,51.49275],[-120.87388,51.49288],[-120.87411,51.49298],[-120.87414,51.49299],[-120.87441,51.493],[-120.87471,51.493],[-120.87505,51.49298],[-120.87536,51.49295],[-120.87567,51.49289],[-120.87599,51.49286],[-120.87616,51.49281],[-120.87628,51.49278],[-120.87649,51.49267],[-120.87667,51.49254],[-120.87677,51.4924],[-120.87698,51.49219],[-120.87709,51.49204],[-120.87719,51.49186],[-120.87732,51.49171],[-120.87756,51.49159],[-120.8777,51.49158],[-120.87786,51.49158],[-120.878,51.49161],[-120.87834,51.49177],[-120.87864,51.49193],[-120.8789,51.49208],[-120.87916,51.49226],[-120.8793,51.49235],[-120.87939,51.49242],[-120.87969,51.49257],[-120.8799,51.49263],[-120.88023,51.4927],[-120.88047,51.49274],[-120.88075,51.49278],[-120.88102,51.49285],[-120.88134,51.49295],[-120.88167,51.49303],[-120.88201,51.4931],[-120.88236,51.49317],[-120.88264,51.4932],[-120.88268,51.49321],[-120.883,51.49321],[-120.88316,51.49319],[-120.88349,51.49319],[-120.88382,51.49317],[-120.88416,51.49315],[-120.88443,51.49315],[-120.88468,51.49315],[-120.88492,51.49315],[-120.88517,51.49315],[-120.88541,51.49315],[-120.88566,51.49315],[-120.8859,51.49315],[-120.88613,51.49315],[-120.88626,51.49314],[-120.88649,51.4931],[-120.8868,51.493],[-120.88712,51.4929],[-120.88746,51.49275],[-120.8878,51.49259],[-120.88808,51.49245],[-120.88839,51.49233],[-120.88856,51.49225],[-120.88868,51.4922],[-120.88896,51.49206],[-120.88926,51.49189],[-120.88932,51.49186],[-120.88961,51.49169],[-120.88989,51.49156],[-120.89024,51.49142],[-120.89042,51.49135],[-120.89054,51.4913],[-120.89066,51.49124],[-120.89083,51.49117],[-120.89113,51.49104],[-120.89144,51.4909],[-120.89148,51.49088],[-120.89173,51.49075],[-120.89203,51.4906],[-120.89232,51.49045],[-120.89238,51.49043],[-120.8926,51.49031],[-120.8929,51.49017],[-120.89325,51.49001],[-120.8936,51.48987],[-120.89384,51.48974],[-120.89395,51.4897],[-120.8941,51.48964],[-120.89437,51.48953],[-120.89454,51.48945],[-120.89463,51.48942],[-120.89491,51.48931],[-120.89517,51.48916],[-120.89547,51.48898],[-120.89581,51.48877],[-120.8959,51.48871],[-120.89618,51.48852],[-120.8965,51.48832],[-120.89678,51.48814],[-120.89691,51.48806],[-120.89718,51.48788],[-120.89725,51.48783],[-120.89739,51.48774],[-120.89756,51.48763],[-120.89792,51.48744],[-120.89811,51.48736],[-120.89827,51.48728],[-120.89852,51.48717],[-120.89888,51.487],[-120.89923,51.48682],[-120.89958,51.48662],[-120.89987,51.48646],[-120.90011,51.48636],[-120.90035,51.48626],[-120.9007,51.48611],[-120.90091,51.48605],[-120.90095,51.48603],[-120.90118,51.48596],[-120.90143,51.4859],[-120.90169,51.48583],[-120.90196,51.48576],[-120.90221,51.48569],[-120.9025,51.48563],[-120.90279,51.48557],[-120.90308,51.48554],[-120.90335,51.48551],[-120.9037,51.48549],[-120.90383,51.48547],[-120.90399,51.48547],[-120.90429,51.48545],[-120.90459,51.48543],[-120.9049,51.48541],[-120.9052,51.48538],[-120.90551,51.48532],[-120.90581,51.48529],[-120.9061,51.48528],[-120.90639,51.48526],[-120.90652,51.48523],[-120.90687,51.48513],[-120.90702,51.48504],[-120.9072,51.48493],[-120.90727,51.48483],[-120.90738,51.48467],[-120.90749,51.4845],[-120.9076,51.48434],[-120.90769,51.48415],[-120.90779,51.48396],[-120.9079,51.48378],[-120.908,51.48361],[-120.90811,51.48344],[-120.90824,51.48328],[-120.90834,51.48312],[-120.90839,51.48307]]}},
{"type":"Feature","properties":{"spotId":"A-grouse-walk-0066","kind":"roadside","km":4.93,"climbM":58,"name":"1.0 km SW of Porter Lake","flags":[]},"geometry":{"type":"LineString","coordinates":[[-120.96621,51.46801],[-120.96614,51.46794],[-120.96601,51.46777],[-120.96583,51.46762],[-120.96549,51.46739],[-120.96538,51.46732],[-120.96513,51.46715],[-120.96486,51.46702],[-120.96459,51.46692],[-120.96431,51.46683],[-120.96409,51.46675],[-120.96407,51.46674],[-120.9639,51.4666],[-120.96381,51.46642],[-120.96381,51.46627],[-120.96388,51.46609],[-120.96393,51.4659],[-120.9639,51.4657],[-120.96381,51.46561],[-120.96369,51.46554],[-120.96342,51.46548],[-120.96319,51.46546],[-120.96294,51.46545],[-120.96268,51.46545],[-120.96255,51.46544],[-120.96231,51.46538],[-120.96208,51.46531],[-120.96183,51.46525],[-120.96157,51.46519],[-120.96131,51.46515],[-120.96107,51.46511],[-120.96083,51.46505],[-120.96059,51.46498],[-120.96025,51.46488],[-120.96,51.46482],[-120.95966,51.46474],[-120.95935,51.46463],[-120.95913,51.46452],[-120.95904,51.46447],[-120.95901,51.46444],[-120.95885,51.46427],[-120.9587,51.46408],[-120.9584,51.46391],[-120.9581,51.46369],[-120.95786,51.46351],[-120.95755,51.46329],[-120.95722,51.46307],[-120.95708,51.46302],[-120.95686,51.46302],[-120.95657,51.46304],[-120.95646,51.46306],[-120.95612,51.46306],[-120.95579,51.46306],[-120.9555,51.46306],[-120.95522,51.46308],[-120.95487,51.46314],[-120.95458,51.46317],[-120.95425,51.4632],[-120.95407,51.46318],[-120.95396,51.46317],[-120.95369,51.4631],[-120.95355,51.46305],[-120.95323,51.46301],[-120.95289,51.463],[-120.95264,51.46302],[-120.95231,51.46303],[-120.95201,51.46303],[-120.95186,51.46301],[-120.95174,51.46297],[-120.95164,51.46292],[-120.95151,51.46285],[-120.95127,51.46275],[-120.95114,51.46269],[-120.95103,51.46263],[-120.95082,51.46251],[-120.95071,51.46246],[-120.95042,51.46245],[-120.95013,51.46251],[-120.94988,51.4626],[-120.94985,51.46261],[-120.94962,51.46268],[-120.94936,51.46279],[-120.94908,51.46287],[-120.94902,51.46289],[-120.94879,51.46295],[-120.9485,51.46302],[-120.94832,51.46304],[-120.94819,51.46305],[-120.94789,51.46312],[-120.94762,51.46322],[-120.94733,51.46333],[-120.94708,51.46342],[-120.94679,51.4635],[-120.94675,51.4635],[-120.94598,51.46356],[-120.94569,51.46361],[-120.94544,51.46371],[-120.94521,51.46381],[-120.94498,51.46397],[-120.94489,51.46402],[-120.9446,51.4642],[-120.94436,51.46429],[-120.94413,51.46433],[-120.9441,51.46434],[-120.94394,51.46434],[-120.94384,51.46434],[-120.94357,51.4643],[-120.9433,51.46428],[-120.94315,51.4643],[-120.94298,51.46433],[-120.94269,51.46442],[-120.94238,51.46452],[-120.94215,51.46461],[-120.94206,51.46466],[-120.94174,51.46479],[-120.94138,51.46494],[-120.94103,51.46507],[-120.94068,51.46517],[-120.94033,51.46527],[-120.94001,51.46537],[-120.93969,51.46549],[-120.93938,51.46563],[-120.93907,51.46576],[-120.93884,51.46586],[-120.9386,51.46596],[-120.93828,51.46612],[-120.93798,51.46624],[-120.93781,51.46626],[-120.93748,51.46627],[-120.93732,51.46626],[-120.93715,51.46629],[-120.93703,51.4663],[-120.93678,51.46636],[-120.93654,51.46643],[-120.93629,51.46649],[-120.93595,51.46655],[-120.93584,51.46658],[-120.93554,51.46674],[-120.93538,51.46692],[-120.93514,51.46709],[-120.93499,51.46714],[-120.93485,51.46716],[-120.93475,51.46716],[-120.9345,51.46716],[-120.93421,51.46716],[-120.93393,51.46716],[-120.93364,51.46716],[-120.93363,51.46726],[-120.9339,51.46756],[-120.93408,51.46796],[-120.93432,51.46816],[-120.93438,51.4684],[-120.93427,51.46928],[-120.93436,51.46948],[-120.93457,51.4697],[-120.93487,51.47012],[-120.93521,51.47033],[-120.93608,51.4708],[-120.93639,51.47109],[-120.93663,51.47145],[-120.93699,51.47199],[-120.9371,51.47293],[-120.93736,51.47435],[-120.93725,51.47457],[-120.93717,51.47504],[-120.93731,51.4754],[-120.93727,51.47556],[-120.9371,51.4758],[-120.93701,51.47636],[-120.93701,51.47705],[-120.9371,51.47725],[-120.93728,51.47759],[-120.93733,51.47773],[-120.93751,51.47796],[-120.93748,51.47869],[-120.93756,51.47987],[-120.93732,51.48022],[-120.93702,51.48048],[-120.93703,51.48081],[-120.93728,51.48108],[-120.9377,51.48137],[-120.93786,51.48142],[-120.938,51.48148],[-120.93816,51.48157],[-120.93794,51.48166],[-120.93773,51.48175],[-120.93752,51.48188],[-120.93736,51.48206],[-120.93722,51.48217],[-120.93714,51.48229],[-120.93713,51.48252],[-120.93714,51.48269],[-120.93725,51.48286],[-120.93737,51.48304],[-120.93737,51.48326],[-120.9374,51.48342],[-120.93737,51.48345],[-120.93729,51.48359],[-120.93718,51.48374],[-120.93707,51.48389],[-120.93699,51.48408],[-120.93693,51.48429],[-120.93687,51.48444],[-120.93675,51.48462],[-120.93664,51.48476],[-120.93657,51.48491],[-120.93649,51.48508],[-120.93636,51.48525],[-120.93626,51.48538]]}},
{"type":"Feature","properties":{"spotId":"A-grouse-walk-0069","kind":"roadside","km":5.96,"climbM":74,"name":"390 m SW of No. 2 Lake","flags":[]},"geometry":{"type":"LineString","coordinates":[[-120.96826,51.48985],[-120.96837,51.48982],[-120.96868,51.48966],[-120.96896,51.48951],[-120.96925,51.48936],[-120.96953,51.48922],[-120.96981,51.48904],[-120.97011,51.48886],[-120.97042,51.48868],[-120.97073,51.48852],[-120.9709,51.48848],[-120.97118,51.48846],[-120.97148,51.48847],[-120.97164,51.4885],[-120.97175,51.48852],[-120.97195,51.48856],[-120.97224,51.48857],[-120.97259,51.48857],[-120.97289,51.48858],[-120.97322,51.48863],[-120.9735,51.48871],[-120.97377,51.48882],[-120.97405,51.48891],[-120.97435,51.48896],[-120.97451,51.48896],[-120.9748,51.48897],[-120.97492,51.48898],[-120.97515,51.48887],[-120.97539,51.48879],[-120.97569,51.4887],[-120.97598,51.48864],[-120.97627,51.48858],[-120.97651,51.48852],[-120.97674,51.48846],[-120.97696,51.48841],[-120.9771,51.48834],[-120.9772,51.48836],[-120.97749,51.48837],[-120.97777,51.48837],[-120.97807,51.48837],[-120.97842,51.48835],[-120.97866,51.48833],[-120.97901,51.48832],[-120.97927,51.48832],[-120.97937,51.48831],[-120.9796,51.4883],[-120.97989,51.48825],[-120.98017,51.48816],[-120.98042,51.48803],[-120.98052,51.48795],[-120.98055,51.48792],[-120.98072,51.48796],[-120.98098,51.48802],[-120.98121,51.48807],[-120.98149,51.48815],[-120.98182,51.48821],[-120.98202,51.48827],[-120.98224,51.48839],[-120.98243,51.48853],[-120.98265,51.48867],[-120.9829,51.48881],[-120.98312,51.4889],[-120.98337,51.48899],[-120.98358,51.48906],[-120.98388,51.48911],[-120.9842,51.48917],[-120.98444,51.4892],[-120.9847,51.48924],[-120.98496,51.48928],[-120.9852,51.48934],[-120.9854,51.48942],[-120.9857,51.48953],[-120.98591,51.48961],[-120.98612,51.48969],[-120.98636,51.48978],[-120.98656,51.48985],[-120.9868,51.48995],[-120.98704,51.49004],[-120.9873,51.49015],[-120.98749,51.49024],[-120.98772,51.49031],[-120.98789,51.49036],[-120.98808,51.49041],[-120.9883,51.49047],[-120.98856,51.49059],[-120.98876,51.49069],[-120.98902,51.49081],[-120.98925,51.4909],[-120.98951,51.49099],[-120.9897,51.49107],[-120.98999,51.49117],[-120.99019,51.49126],[-120.99043,51.49131],[-120.99067,51.49137],[-120.99093,51.49145],[-120.99114,51.49152],[-120.99138,51.49158],[-120.99168,51.4917],[-120.99193,51.49179],[-120.99213,51.49186],[-120.9924,51.49195],[-120.99267,51.49205],[-120.99297,51.49216],[-120.99318,51.49224],[-120.99345,51.49235],[-120.99378,51.49245],[-120.99399,51.49252],[-120.99427,51.49262],[-120.9946,51.49274],[-120.99489,51.49283],[-120.99514,51.49293],[-120.99534,51.49303],[-120.99559,51.49321],[-120.99583,51.49339],[-120.99602,51.49354],[-120.99614,51.4937],[-120.99627,51.49384],[-120.9964,51.49402],[-120.99648,51.49419],[-120.99662,51.49436],[-120.99677,51.49453],[-120.99684,51.49467],[-120.99686,51.49484],[-120.99688,51.495],[-120.99694,51.49515],[-120.99707,51.4953],[-120.99728,51.49548],[-120.99747,51.4956],[-120.99767,51.49569],[-120.9977,51.4957],[-120.99762,51.49574],[-120.9973,51.49586],[-120.99699,51.49599],[-120.99673,51.49617],[-120.99656,51.49633],[-120.99645,51.49647],[-120.99627,51.49668],[-120.99615,51.49683],[-120.99607,51.49699],[-120.99604,51.49715],[-120.99603,51.49731],[-120.99599,51.49747],[-120.99594,51.49765],[-120.99588,51.4978],[-120.99578,51.49795],[-120.99572,51.49804],[-120.99569,51.4981],[-120.99561,51.49826],[-120.99553,51.4984],[-120.99547,51.49855],[-120.99542,51.4987],[-120.99537,51.49884],[-120.99535,51.49891],[-120.99533,51.499],[-120.99531,51.49914],[-120.99532,51.49929],[-120.99533,51.49945],[-120.99532,51.49961],[-120.99533,51.49977],[-120.99532,51.49993],[-120.99532,51.5],[-120.99532,51.50006],[-120.99524,51.50024],[-120.99514,51.5004],[-120.99503,51.50061],[-120.99497,51.50078],[-120.99485,51.50096],[-120.99469,51.50117],[-120.99467,51.50124],[-120.99467,51.50126],[-120.99468,51.50141],[-120.99476,51.50156],[-120.99488,51.50177],[-120.99497,51.50199],[-120.99502,51.5022],[-120.99514,51.50238],[-120.99537,51.50255],[-120.99548,51.50267],[-120.99547,51.5028],[-120.99547,51.50282],[-120.99537,51.50302],[-120.99528,51.50312],[-120.9953,51.50314],[-120.99523,51.50313],[-120.99499,51.50297],[-120.99496,51.50294],[-120.99484,51.50277],[-120.99462,51.50255],[-120.99458,51.5025],[-120.99425,51.50231],[-120.99396,51.50209],[-120.99372,51.50189],[-120.99367,51.50184],[-120.99349,51.50167],[-120.99331,51.50153],[-120.99298,51.5014],[-120.99273,51.50131],[-120.99268,51.50129],[-120.99243,51.50122],[-120.99223,51.50114],[-120.9921,51.50109],[-120.99188,51.50091],[-120.9916,51.50071],[-120.9913,51.50056],[-120.99097,51.50035],[-120.9907,51.50019],[-120.99042,51.50004],[-120.99036,51.5],[-120.99024,51.49993],[-120.99001,51.49981],[-120.98993,51.49977],[-120.98962,51.49961],[-120.98931,51.49944],[-120.989,51.49929],[-120.9887,51.49914],[-120.98839,51.49898],[-120.9881,51.49882],[-120.98777,51.49867],[-120.98746,51.49853],[-120.98712,51.49841],[-120.98701,51.49837],[-120.98679,51.49829],[-120.98659,51.49821],[-120.98648,51.49816],[-120.9862,51.49803],[-120.98593,51.49789],[-120.98569,51.49777],[-120.98542,51.49765],[-120.98528,51.4976],[-120.98504,51.49758],[-120.98475,51.49756],[-120.98448,51.49752],[-120.98414,51.49746],[-120.98381,51.49736],[-120.98348,51.49727],[-120.98315,51.49718],[-120.98292,51.49715],[-120.98268,51.49715],[-120.98243,51.49715],[-120.98218,51.49715],[-120.98194,51.49715],[-120.9816,51.49715],[-120.98127,51.49714],[-120.98098,51.49702],[-120.98075,51.49689],[-120.98045,51.49667],[-120.98033,51.49648],[-120.98021,51.49629],[-120.98006,51.4961],[-120.97988,51.49593],[-120.97967,51.49577],[-120.97956,51.49571],[-120.97943,51.49568],[-120.97914,51.49566],[-120.97896,51.49566],[-120.9785,51.49584],[-120.978,51.49589],[-120.97765,51.49576],[-120.97715,51.4957],[-120.97659,51.49551],[-120.97623,51.49557],[-120.97566,51.49543],[-120.97527,51.49538],[-120.97503,51.49522],[-120.97458,51.49499],[-120.97348,51.49484],[-120.97259,51.49484],[-120.97233,51.49495],[-120.97226,51.49506],[-120.97239,51.49517],[-120.97235,51.49542],[-120.97201,51.49584],[-120.97179,51.49597],[-120.97167,51.49619],[-120.97163,51.49636],[-120.97148,51.49652],[-120.97115,51.49656],[-120.97058,51.49659],[-120.9702,51.49641],[-120.96959,51.4964],[-120.96877,51.49634],[-120.96834,51.49642],[-120.96785,51.49628],[-120.96739,51.49627],[-120.96681,51.49641],[-120.96641,51.49684]]}},
{"type":"Feature","properties":{"spotId":"A-grouse-walk-0082","kind":"roadside","km":7.17,"climbM":130,"name":"400 m SE of Orren Creek","flags":[]},"geometry":{"type":"LineString","coordinates":[[-120.90882,51.46649],[-120.90895,51.46632],[-120.90909,51.46616],[-120.90923,51.46599],[-120.90935,51.46583],[-120.90946,51.46566],[-120.90958,51.46548],[-120.90961,51.46542],[-120.90971,51.4653],[-120.90986,51.46514],[-120.9099,51.46505],[-120.90996,51.46487],[-120.90995,51.46468],[-120.90993,51.46449],[-120.90992,51.46447],[-120.90981,51.4643],[-120.90968,51.46408],[-120.90954,51.46386],[-120.90946,51.46371],[-120.90941,51.4636],[-120.90938,51.46355],[-120.9093,51.46339],[-120.90925,51.46323],[-120.90918,51.46306],[-120.90908,51.4629],[-120.90899,51.46274],[-120.90891,51.46254],[-120.90885,51.46236],[-120.9088,51.46218],[-120.90875,51.46199],[-120.90869,51.4618],[-120.90864,51.46162],[-120.90857,51.46143],[-120.9085,51.46124],[-120.90843,51.46106],[-120.90835,51.46087],[-120.90828,51.46069],[-120.90818,51.46052],[-120.9081,51.46034],[-120.90803,51.46017],[-120.90796,51.45999],[-120.90791,51.45982],[-120.90785,51.45966],[-120.90776,51.45944],[-120.90766,51.45927],[-120.9076,51.45908],[-120.90751,51.45888],[-120.9075,51.45873],[-120.90751,51.45858],[-120.9075,51.45839],[-120.90755,51.45823],[-120.90755,51.45804],[-120.90753,51.45788],[-120.90749,51.45783],[-120.90735,51.45773],[-120.90715,51.45765],[-120.90692,51.45763],[-120.90669,51.45764],[-120.90639,51.45763],[-120.90608,51.45763],[-120.90577,51.45765],[-120.90552,51.45766],[-120.9052,51.45767],[-120.90506,51.45768],[-120.90477,51.45768],[-120.90446,51.45763],[-120.9042,51.45756],[-120.90386,51.45746],[-120.90376,51.45741],[-120.90362,51.45731],[-120.90347,51.45715],[-120.90327,51.45694],[-120.90306,51.45674],[-120.90285,51.45658],[-120.9026,51.45644],[-120.90253,51.45642],[-120.90236,51.45636],[-120.90217,51.4563],[-120.90201,51.45656],[-120.90174,51.45714],[-120.90139,51.45743],[-120.90083,51.45765],[-120.90007,51.45793],[-120.89967,51.45822],[-120.89924,51.45846],[-120.89892,51.45844],[-120.89862,51.45844],[-120.89835,51.45841],[-120.898,51.45832],[-120.8977,51.4583],[-120.89739,51.45832],[-120.89711,51.45836],[-120.89683,51.45841],[-120.89652,51.45844],[-120.89621,51.45846],[-120.89589,51.4585],[-120.89559,51.45854],[-120.89527,51.45858],[-120.89497,51.45859],[-120.89468,51.45859],[-120.89454,51.45859],[-120.89425,51.45855],[-120.89398,51.4585],[-120.89368,51.45847],[-120.89334,51.45843],[-120.89319,51.45841],[-120.8929,51.45841],[-120.8926,51.45839],[-120.89229,51.45837],[-120.89197,51.45834],[-120.89181,51.45834],[-120.89151,51.45828],[-120.89137,51.45825],[-120.8911,51.45816],[-120.89085,51.45806],[-120.89059,51.45799],[-120.89035,51.45788],[-120.89006,51.4577],[-120.88986,51.45757],[-120.88964,51.45748],[-120.88952,51.45732],[-120.88942,51.45715],[-120.88892,51.45698],[-120.88779,51.45692],[-120.88732,51.45691],[-120.88706,51.45705],[-120.88617,51.45737],[-120.88539,51.45777],[-120.88525,51.45799],[-120.88516,51.45846],[-120.88492,51.45873],[-120.88448,51.45895],[-120.88388,51.45909],[-120.88351,51.4592],[-120.88288,51.4594],[-120.88264,51.4595],[-120.88217,51.45969],[-120.88139,51.45979],[-120.8807,51.45997],[-120.88028,51.46029],[-120.87954,51.46076],[-120.87886,51.46105],[-120.87818,51.46107],[-120.87744,51.46127],[-120.87659,51.4614],[-120.87575,51.46154],[-120.875,51.46168],[-120.87463,51.46172],[-120.87427,51.4618],[-120.87349,51.46187],[-120.87276,51.46202],[-120.87228,51.46233],[-120.87177,51.46254],[-120.8714,51.46278],[-120.87131,51.46307],[-120.87128,51.4636],[-120.87082,51.46395],[-120.86999,51.4643],[-120.86956,51.46445],[-120.86909,51.46493],[-120.86865,51.46505],[-120.86846,51.46519],[-120.86842,51.46543],[-120.86814,51.46563],[-120.86727,51.46608],[-120.86723,51.46606],[-120.86718,51.46606],[-120.86692,51.46607],[-120.86663,51.46611],[-120.86639,51.46616],[-120.86612,51.46628],[-120.86593,51.46637],[-120.86556,51.46654],[-120.86538,51.46668],[-120.86526,51.46681],[-120.86517,51.46692],[-120.86518,51.46709],[-120.8652,51.46724],[-120.86526,51.46742],[-120.8653,51.46754],[-120.8653,51.46762],[-120.86529,51.46765],[-120.86521,51.46771],[-120.86525,51.46843],[-120.86525,51.46853],[-120.86496,51.46895],[-120.86419,51.46936],[-120.86387,51.46943],[-120.86331,51.46956],[-120.8628,51.4696],[-120.86258,51.46975],[-120.86196,51.46972],[-120.8617,51.46967],[-120.86141,51.46966],[-120.86115,51.46966],[-120.86089,51.46967],[-120.86065,51.46971],[-120.86034,51.46979],[-120.86031,51.4698],[-120.85996,51.46993],[-120.85983,51.46999],[-120.85972,51.47006],[-120.85965,51.47014],[-120.85963,51.47017],[-120.8599,51.47022],[-120.86016,51.47028],[-120.86039,51.47033],[-120.86065,51.47038],[-120.8609,51.47042],[-120.86116,51.47048],[-120.8614,51.47054],[-120.86164,51.47058],[-120.86187,51.47064],[-120.86208,51.47072],[-120.8623,51.4708],[-120.86252,51.47089],[-120.86273,51.47096],[-120.86297,51.47106],[-120.86317,51.47116],[-120.86337,51.47123],[-120.86357,51.47132],[-120.86378,51.47141],[-120.86401,51.4715],[-120.86423,51.47158],[-120.86426,51.47159],[-120.86433,51.47163],[-120.86443,51.47169],[-120.86461,51.47182],[-120.86476,51.47194],[-120.86494,51.47209],[-120.86511,51.47227],[-120.86526,51.47243],[-120.86539,51.47259],[-120.86553,51.47271],[-120.86569,51.47284],[-120.86584,51.47296],[-120.86602,51.47308],[-120.86622,51.47321],[-120.86624,51.47324],[-120.86641,51.47337],[-120.86658,51.47348],[-120.86663,51.47351],[-120.86679,51.4736],[-120.86698,51.47372],[-120.86718,51.47386],[-120.86733,51.47397],[-120.8675,51.47409],[-120.86774,51.47425],[-120.86793,51.47438],[-120.8681,51.47451],[-120.86824,51.47464],[-120.8684,51.4748],[-120.86853,51.47494],[-120.86866,51.4751],[-120.86879,51.47523],[-120.86894,51.47538],[-120.869,51.47547],[-120.86906,51.47556],[-120.86917,51.47572],[-120.86918,51.47574],[-120.86903,51.47578],[-120.86871,51.47588],[-120.8686,51.47592],[-120.86828,51.47609],[-120.86802,51.47626],[-120.86779,51.47642],[-120.86761,51.47656],[-120.86751,51.47671],[-120.86741,51.47686],[-120.86735,51.47701],[-120.86727,51.47716],[-120.86722,51.47731],[-120.86717,51.47746],[-120.8671,51.47762],[-120.86702,51.47778],[-120.8669,51.47792],[-120.86668,51.47809],[-120.86641,51.47823],[-120.86618,51.47834],[-120.86591,51.47843],[-120.86565,51.47855],[-120.8655,51.4787],[-120.86542,51.47887],[-120.86539,51.47909],[-120.8654,51.47927],[-120.8654,51.47928],[-120.86538,51.47946],[-120.86531,51.47967],[-120.86514,51.47986],[-120.86501,51.47999],[-120.8649,51.48007],[-120.86466,51.48021],[-120.86435,51.48038],[-120.86407,51.48052],[-120.86382,51.48065],[-120.86351,51.48084],[-120.86329,51.48098],[-120.86305,51.48109],[-120.86289,51.48123],[-120.86277,51.4813],[-120.86246,51.48138],[-120.86215,51.48156],[-120.862,51.48168]]}},
{"type":"Feature","properties":{"spotId":"A-moose-atv-0035","kind":"ride","km":2.14,"climbM":43,"name":"300 m SW of Sheridan Lake","flags":[]},"geometry":{"type":"LineString","coordinates":[[-120.92596,51.49893],[-120.92599,51.49893],[-120.92629,51.49895],[-120.92664,51.49894],[-120.92688,51.49891],[-120.92716,51.49885],[-120.92744,51.49882],[-120.92768,51.4988],[-120.92796,51.49878],[-120.92823,51.49876],[-120.92852,51.49875],[-120.92858,51.49875],[-120.92881,51.49873],[-120.9291,51.49871],[-120.92936,51.49862],[-120.92961,51.49856],[-120.92989,51.4985],[-120.93019,51.49848],[-120.93046,51.49848],[-120.93065,51.49849],[-120.93071,51.4985],[-120.93098,51.49854],[-120.93111,51.49855],[-120.93128,51.49848],[-120.93133,51.49846],[-120.93142,51.4984],[-120.93147,51.4982],[-120.93147,51.49818],[-120.93151,51.49805],[-120.93152,51.49793],[-120.93153,51.49787],[-120.93158,51.49767],[-120.93159,51.49749],[-120.93159,51.49747],[-120.9316,51.49727],[-120.93159,51.49706],[-120.93159,51.49686],[-120.93161,51.49666],[-120.93165,51.49646],[-120.93167,51.49627],[-120.93167,51.49608],[-120.93164,51.49599],[-120.93159,51.49591],[-120.93153,51.49582],[-120.93146,51.49565],[-120.93136,51.49557],[-120.9313,51.49551],[-120.93108,51.49542],[-120.93077,51.49525],[-120.93053,51.49515],[-120.93026,51.49508],[-120.92997,51.49503],[-120.92967,51.49501],[-120.92951,51.495],[-120.92937,51.49496],[-120.92935,51.49496],[-120.92907,51.49497],[-120.92875,51.49496],[-120.92849,51.49499],[-120.92814,51.49511],[-120.92787,51.49519],[-120.92763,51.49525],[-120.92737,51.49527],[-120.92724,51.49529],[-120.92695,51.49529],[-120.92666,51.49529],[-120.92636,51.49529],[-120.92607,51.49529],[-120.9258,51.49529],[-120.92552,51.49526],[-120.92541,51.49516],[-120.92532,51.49499],[-120.92524,51.49482],[-120.92524,51.49461],[-120.92523,51.49447],[-120.92525,51.49432],[-120.92528,51.49422],[-120.92529,51.49414],[-120.92529,51.49403],[-120.92528,51.49394],[-120.92524,51.49384],[-120.92516,51.49368],[-120.92511,51.4936],[-120.92507,51.49352],[-120.92505,51.49333],[-120.92504,51.49323],[-120.92509,51.49305],[-120.9252,51.49285],[-120.92528,51.49275],[-120.92535,51.49266],[-120.9255,51.49249],[-120.92557,51.4924],[-120.92557,51.49232],[-120.92556,51.49223],[-120.92555,51.49214],[-120.92549,51.49196],[-120.92545,51.49179],[-120.92544,51.49161],[-120.92544,51.4916],[-120.9255,51.49157],[-120.92573,51.49144],[-120.92589,51.49132],[-120.92605,51.49129],[-120.92622,51.49113],[-120.92632,51.49107],[-120.9266,51.49091],[-120.92678,51.49082],[-120.92685,51.49076],[-120.92702,51.4906],[-120.92717,51.49046],[-120.92721,51.49037],[-120.92734,51.49019],[-120.92743,51.49001],[-120.92748,51.48982],[-120.92753,51.48968],[-120.92755,51.48963],[-120.92765,51.48946],[-120.92777,51.48928],[-120.92788,51.48911],[-120.92789,51.48909],[-120.92797,51.48892],[-120.92808,51.48874],[-120.9282,51.48856],[-120.92834,51.4884],[-120.92848,51.48822],[-120.92862,51.48804],[-120.92875,51.48787],[-120.92886,51.48771],[-120.929,51.48752],[-120.92914,51.48737],[-120.9293,51.48723]]}},
{"type":"Feature","properties":{"spotId":"A-moose-atv-0035","kind":"walk","km":0.2,"climbM":0,"name":"300 m SW of Sheridan Lake","flags":[]},"geometry":{"type":"LineString","coordinates":[[-120.92596,51.49893],[-120.92405,51.49757]]}},
{"type":"Feature","properties":{"spotId":"A-moose-drive-0044","kind":"walk","km":0.3,"climbM":4,"name":"660 m N of Dickey Creek","flags":[]},"geometry":{"type":"LineString","coordinates":[[-120.81841,51.36719],[-120.82013,51.36965]]}},
{"type":"Feature","properties":{"spotId":"A-moose-walk-0077","kind":"walk","km":2.63,"climbM":50,"name":"3.0 km S of North Bonaparte","flags":["Route crosses private land (ParcelMap BC, updated 2026-09-25): get permission first or go around."]},"geometry":{"type":"LineString","coordinates":[[-120.93198,51.39618],[-120.9254,51.37288]]}}
]}
