{"type":"FeatureCollection","features":[
{"type":"Feature","properties":{"spotId":"A-camp-camp-0102","kind":"walk","km":0.03,"climbM":1,"name":"250 m NW of Skuhun Creek","flags":[]},"geometry":{"type":"LineString","coordinates":[[-120.97702,50.32498],[-120.97714,50.32527]]}},
{"type":"Feature","properties":{"spotId":"A-deer-atv-0048","kind":"ride","km":1.51,"climbM":113,"name":"840 m S of Rey Creek","flags":[]},"geometry":{"type":"LineString","coordinates":[[-120.79981,50.34803],[-120.79975,50.34828],[-120.79972,50.34837],[-120.79962,50.34847],[-120.79932,50.34855],[-120.79923,50.3486],[-120.79921,50.34861],[-120.79916,50.34862],[-120.79902,50.34864],[-120.79887,50.34866],[-120.79864,50.34871],[-120.7984,50.34872],[-120.79821,50.3487],[-120.79803,50.34868],[-120.79785,50.34865],[-120.79769,50.34865],[-120.79748,50.34862],[-120.79729,50.34862],[-120.79715,50.34861],[-120.79688,50.3486],[-120.7966,50.34859],[-120.79632,50.34854],[-120.79611,50.34854],[-120.79592,50.34855],[-120.79559,50.34859],[-120.79541,50.34857],[-120.79493,50.34838],[-120.79487,50.34845],[-120.79482,50.34849],[-120.79458,50.34859],[-120.79451,50.3486],[-120.7944,50.34865],[-120.79413,50.34881],[-120.79411,50.34884],[-120.79406,50.34893],[-120.79404,50.34939],[-120.79402,50.34949],[-120.79399,50.34956],[-120.79394,50.3496],[-120.79386,50.34964],[-120.79352,50.34974],[-120.79323,50.34987],[-120.79316,50.34988],[-120.79299,50.34991],[-120.79296,50.3499],[-120.79281,50.34983],[-120.79274,50.34978],[-120.79271,50.34975],[-120.79272,50.34959],[-120.79275,50.34954],[-120.79271,50.34948],[-120.79266,50.34944],[-120.79259,50.34942],[-120.79224,50.34943],[-120.79215,50.34945],[-120.7919,50.34962],[-120.79171,50.34981],[-120.7916,50.35002],[-120.79145,50.35025],[-120.79141,50.35029],[-120.79144,50.35048],[-120.79156,50.3507],[-120.79144,50.35091],[-120.79138,50.35096],[-120.79123,50.35104],[-120.79119,50.35106],[-120.79089,50.35119],[-120.79056,50.35134],[-120.79031,50.3515],[-120.79028,50.35151],[-120.7902,50.35151],[-120.79009,50.35145],[-120.79006,50.35143],[-120.78999,50.35142],[-120.78995,50.35143],[-120.78961,50.35152],[-120.78929,50.35164],[-120.78905,50.35168],[-120.7887,50.35172],[-120.78836,50.35179],[-120.78798,50.35184],[-120.78794,50.35182],[-120.7876,50.35174],[-120.78725,50.3517],[-120.78693,50.35172],[-120.78689,50.35172],[-120.78643,50.35177],[-120.78641,50.352],[-120.78641,50.35205],[-120.78653,50.35222],[-120.78655,50.35224],[-120.78666,50.35247],[-120.78673,50.3527],[-120.78684,50.35293],[-120.78686,50.35296],[-120.78707,50.35313],[-120.78714,50.3532],[-120.78723,50.35338]]}},
{"type":"Feature","properties":{"spotId":"A-deer-atv-0048","kind":"walk","km":0.11,"climbM":0,"name":"840 m S of Rey Creek","flags":[]},"geometry":{"type":"LineString","coordinates":[[-120.78723,50.35338],[-120.78869,50.35308]]}},
{"type":"Feature","properties":{"spotId":"A-deer-atv-0054","kind":"ride","km":1.42,"climbM":96,"name":"660 m NW of Tolman Creek","flags":[]},"geometry":{"type":"LineString","coordinates":[[-120.82384,50.29672],[-120.82366,50.29678],[-120.82353,50.2969],[-120.82346,50.29708],[-120.8234,50.2972],[-120.82335,50.29727],[-120.82329,50.29741],[-120.82316,50.29761],[-120.82309,50.29782],[-120.82305,50.29788],[-120.82295,50.29804],[-120.82285,50.29825],[-120.82274,50.29836],[-120.82265,50.29849],[-120.82262,50.29855],[-120.82254,50.29873],[-120.82244,50.29884],[-120.82238,50.29899],[-120.82227,50.29918],[-120.82208,50.29939],[-120.82183,50.29951],[-120.82175,50.29952],[-120.82141,50.29954],[-120.82121,50.2994],[-120.82114,50.29933],[-120.82095,50.29911],[-120.82074,50.29889],[-120.82054,50.29867],[-120.82049,50.29862],[-120.82047,50.29861],[-120.8202,50.29839],[-120.82001,50.29827],[-120.81982,50.29809],[-120.8197,50.29803],[-120.81953,50.29791],[-120.81945,50.29787],[-120.81938,50.29782],[-120.8193,50.29778],[-120.81913,50.29774],[-120.81892,50.29776],[-120.81868,50.29781],[-120.81861,50.29784],[-120.81851,50.29794],[-120.81832,50.29814],[-120.8181,50.29827],[-120.81785,50.29847],[-120.81778,50.29851],[-120.81761,50.29862],[-120.81745,50.29872],[-120.81739,50.29877],[-120.81727,50.2989],[-120.81721,50.29895],[-120.81708,50.29905],[-120.81695,50.29917],[-120.81677,50.29936],[-120.81655,50.29952],[-120.81621,50.2997],[-120.81606,50.29982],[-120.81598,50.29985],[-120.81565,50.29996],[-120.81558,50.3],[-120.81533,50.30011],[-120.81525,50.30014],[-120.81515,50.30016],[-120.81489,50.30027],[-120.8146,50.30039],[-120.81421,50.30065],[-120.81402,50.3008],[-120.81391,50.30093],[-120.81379,50.30103],[-120.81363,50.30108],[-120.81343,50.30125],[-120.81315,50.30143],[-120.81308,50.30153],[-120.81292,50.30168],[-120.81285,50.30179],[-120.81278,50.30186],[-120.81266,50.30204],[-120.81248,50.30223],[-120.81228,50.30248],[-120.81207,50.30265],[-120.81198,50.30276]]}},
{"type":"Feature","properties":{"spotId":"A-deer-atv-0054","kind":"walk","km":0.12,"climbM":14,"name":"660 m NW of Tolman Creek","flags":[]},"geometry":{"type":"LineString","coordinates":[[-120.81198,50.30276],[-120.81046,50.30235]]}},
{"type":"Feature","properties":{"spotId":"A-deer-atv-0071","kind":"ride","km":1.62,"climbM":138,"name":"1.0 km N of Danish Creek","flags":["Route crosses private land (ParcelMap BC, updated 2026-09-25): get permission first or go around."]},"geometry":{"type":"LineString","coordinates":[[-120.80723,50.33175],[-120.80705,50.33173],[-120.80695,50.33175],[-120.80679,50.33188],[-120.80672,50.33202],[-120.80654,50.33213],[-120.8063,50.33218],[-120.80622,50.33219],[-120.80589,50.33218],[-120.80564,50.33219],[-120.80556,50.33218],[-120.80534,50.33225],[-120.80516,50.33227],[-120.80483,50.33241],[-120.80469,50.33243],[-120.80446,50.33246],[-120.80434,50.33245],[-120.80408,50.33243],[-120.804,50.3324],[-120.80392,50.33235],[-120.80363,50.3322],[-120.80359,50.33215],[-120.80335,50.332],[-120.80304,50.33189],[-120.80271,50.33182],[-120.80258,50.33178],[-120.80251,50.33173],[-120.80235,50.33154],[-120.80232,50.33143],[-120.80231,50.33125],[-120.80226,50.33112],[-120.80215,50.33103],[-120.80197,50.33096],[-120.80178,50.33085],[-120.80159,50.33078],[-120.80149,50.33072],[-120.80144,50.33068],[-120.8013,50.33063],[-120.80108,50.3306],[-120.80099,50.33058],[-120.80082,50.33037],[-120.80078,50.33024],[-120.80066,50.33013],[-120.80054,50.32996],[-120.80044,50.32985],[-120.80037,50.3298],[-120.80017,50.32958],[-120.80005,50.32951],[-120.8,50.3295],[-120.79993,50.32949],[-120.79974,50.32939],[-120.79946,50.3294],[-120.79915,50.3294],[-120.79905,50.32944],[-120.79881,50.32959],[-120.79876,50.32966],[-120.79861,50.32979],[-120.79839,50.32998],[-120.79818,50.3301],[-120.79803,50.33015],[-120.79773,50.33015],[-120.79763,50.33013],[-120.79735,50.3301],[-120.79719,50.33008],[-120.79687,50.33001],[-120.79673,50.33],[-120.79654,50.33],[-120.79634,50.32998],[-120.79599,50.32998],[-120.79588,50.33],[-120.79581,50.33004],[-120.79569,50.33013],[-120.79554,50.33026],[-120.79535,50.33042],[-120.79529,50.33048],[-120.79506,50.33058],[-120.79499,50.33066],[-120.79483,50.33085],[-120.79479,50.33093],[-120.79469,50.33111],[-120.7946,50.33126],[-120.79446,50.33139],[-120.79427,50.33157],[-120.79408,50.33178],[-120.79395,50.33195],[-120.79385,50.3321],[-120.79379,50.33229],[-120.79379,50.33238],[-120.79375,50.33244],[-120.7936,50.33255],[-120.79355,50.3326],[-120.79343,50.33279],[-120.79326,50.33291],[-120.79314,50.33304],[-120.79305,50.33309],[-120.79299,50.33313],[-120.79279,50.33321],[-120.79267,50.33333],[-120.79297,50.33333],[-120.79317,50.33334],[-120.79325,50.33337],[-120.79333,50.3334],[-120.79343,50.33347],[-120.79351,50.33359],[-120.79349,50.33395]]}},
{"type":"Feature","properties":{"spotId":"A-deer-atv-0071","kind":"walk","km":0.17,"climbM":5,"name":"1.0 km N of Danish Creek","flags":["Route crosses private land (ParcelMap BC, updated 2026-09-25): get permission first or go around."]},"geometry":{"type":"LineString","coordinates":[[-120.79349,50.33395],[-120.79585,50.33399]]}},
{"type":"Feature","properties":{"spotId":"A-deer-atv-0073","kind":"ride","km":3.23,"climbM":179,"name":"920 m E of Mamit Lake","flags":["Route crosses private land (ParcelMap BC, updated 2026-09-25): get permission first or go around."]},"geometry":{"type":"LineString","coordinates":[[-120.79483,50.36189],[-120.79467,50.36195],[-120.79455,50.36198],[-120.79436,50.36204],[-120.79427,50.36209],[-120.79423,50.36214],[-120.79423,50.36226],[-120.79422,50.36241],[-120.79422,50.36255],[-120.79423,50.36263],[-120.79428,50.36269],[-120.79435,50.36277],[-120.79458,50.36288],[-120.79465,50.36294],[-120.79464,50.36301],[-120.79464,50.36315],[-120.79462,50.36323],[-120.79447,50.36335],[-120.79433,50.36339],[-120.79409,50.36342],[-120.7939,50.36349],[-120.79359,50.36368],[-120.7933,50.36385],[-120.79306,50.3639],[-120.79281,50.36403],[-120.79275,50.36409],[-120.79252,50.36427],[-120.79238,50.36444],[-120.79235,50.36452],[-120.79232,50.36469],[-120.79227,50.36482],[-120.79221,50.36494],[-120.79214,50.36506],[-120.79212,50.3652],[-120.7921,50.36534],[-120.79192,50.36555],[-120.79175,50.36577],[-120.7917,50.36585],[-120.79163,50.36604],[-120.79154,50.36616],[-120.79153,50.36625],[-120.7915,50.36646],[-120.79149,50.36671],[-120.79153,50.36684],[-120.79155,50.3669],[-120.79164,50.36708],[-120.79163,50.36725],[-120.79161,50.36741],[-120.79152,50.36754],[-120.79142,50.36771],[-120.79131,50.36783],[-120.79128,50.36801],[-120.79122,50.36805],[-120.79107,50.36827],[-120.79084,50.36854],[-120.79082,50.36876],[-120.79076,50.36892],[-120.79075,50.369],[-120.79073,50.36914],[-120.79073,50.36923],[-120.79074,50.3693],[-120.79074,50.36949],[-120.79075,50.36962],[-120.79087,50.36978],[-120.79096,50.37001],[-120.79105,50.37018],[-120.79111,50.37031],[-120.79112,50.37046],[-120.79118,50.37064],[-120.79119,50.37076],[-120.79121,50.37089],[-120.79121,50.37102],[-120.79123,50.37117],[-120.79125,50.37135],[-120.79124,50.37143],[-120.79132,50.37158],[-120.79155,50.37172],[-120.79161,50.37177],[-120.7916,50.37194],[-120.79158,50.37209],[-120.79144,50.3723],[-120.79143,50.37253],[-120.79141,50.37271],[-120.79139,50.37287],[-120.79134,50.37308],[-120.79131,50.37325],[-120.79129,50.37335],[-120.79125,50.37349],[-120.79124,50.3736],[-120.79121,50.37374],[-120.79114,50.37388],[-120.79107,50.374],[-120.79099,50.37406],[-120.79083,50.37423],[-120.7907,50.37443],[-120.79066,50.37464],[-120.79061,50.37479],[-120.79056,50.37489],[-120.79049,50.37498],[-120.79034,50.37511],[-120.79026,50.3753],[-120.79019,50.37543],[-120.79005,50.37561],[-120.78997,50.37577],[-120.78995,50.37586],[-120.78988,50.37601],[-120.78985,50.37607],[-120.78984,50.37613],[-120.78972,50.37628],[-120.78962,50.37641],[-120.78945,50.37654],[-120.78931,50.37666],[-120.78924,50.37675],[-120.78915,50.37681],[-120.78899,50.37686],[-120.78876,50.37695],[-120.7887,50.37703],[-120.78864,50.37714],[-120.78857,50.3773],[-120.78855,50.37734],[-120.78849,50.37744],[-120.78835,50.37763],[-120.78825,50.37781],[-120.78819,50.37789],[-120.78808,50.3781],[-120.78793,50.37837],[-120.78775,50.37855],[-120.78761,50.37876],[-120.78749,50.3789],[-120.78743,50.37904],[-120.78735,50.37923],[-120.78719,50.37942],[-120.78708,50.37963],[-120.78704,50.37976],[-120.78703,50.37985],[-120.78701,50.38028],[-120.78697,50.38048],[-120.78696,50.38074],[-120.78688,50.38097],[-120.78683,50.38112],[-120.78672,50.38128],[-120.78664,50.38146],[-120.78662,50.38156],[-120.78653,50.38172],[-120.78665,50.38165],[-120.78677,50.38151],[-120.78695,50.38158],[-120.78735,50.38155],[-120.78758,50.38151],[-120.7877,50.38145],[-120.78792,50.38118],[-120.78808,50.38106],[-120.78828,50.38106],[-120.78845,50.3811],[-120.78868,50.38124],[-120.78884,50.38135],[-120.78903,50.38152],[-120.78918,50.38162],[-120.78936,50.38171],[-120.78977,50.38187],[-120.79005,50.38201],[-120.79045,50.38239],[-120.79063,50.38259],[-120.79083,50.38278],[-120.79099,50.38301],[-120.79102,50.38312],[-120.79056,50.38353],[-120.79,50.38386],[-120.7899,50.38396],[-120.78984,50.3841],[-120.7899,50.38423],[-120.79009,50.38436],[-120.79006,50.3845],[-120.79003,50.38454],[-120.78981,50.38473],[-120.78965,50.38493],[-120.78966,50.38501],[-120.7897,50.38506],[-120.78997,50.38524],[-120.79014,50.38526]]}},
{"type":"Feature","properties":{"spotId":"A-deer-atv-0073","kind":"walk","km":0.18,"climbM":37,"name":"920 m E of Mamit Lake","flags":["Route crosses private land (ParcelMap BC, updated 2026-09-25): get permission first or go around."]},"geometry":{"type":"LineString","coordinates":[[-120.79014,50.38526],[-120.78976,50.38687]]}},
{"type":"Feature","properties":{"spotId":"A-deer-atv-0075","kind":"ride","km":3.47,"climbM":295,"name":"810 m W of Hector Creek","flags":["Route crosses private land (ParcelMap BC, updated 2026-09-25): get permission first or go around."]},"geometry":{"type":"LineString","coordinates":[[-120.78343,50.26402],[-120.78315,50.26405],[-120.78286,50.26418],[-120.78253,50.26442],[-120.7825,50.26449],[-120.78226,50.26472],[-120.78231,50.26487],[-120.78233,50.26506],[-120.7823,50.26521],[-120.78227,50.26525],[-120.78212,50.26539],[-120.78206,50.26544],[-120.78195,50.26556],[-120.78176,50.26566],[-120.78167,50.26572],[-120.78148,50.26584],[-120.78131,50.26601],[-120.78128,50.26619],[-120.78128,50.26626],[-120.78125,50.26636],[-120.7811,50.26648],[-120.78103,50.26658],[-120.78103,50.2666],[-120.781,50.26667],[-120.781,50.26681],[-120.78101,50.26697],[-120.78104,50.26714],[-120.78108,50.26735],[-120.78107,50.26741],[-120.78106,50.26747],[-120.78082,50.26762],[-120.78072,50.26773],[-120.78038,50.2678],[-120.78003,50.26787],[-120.77997,50.2679],[-120.77993,50.26793],[-120.77973,50.26813],[-120.77954,50.26833],[-120.77938,50.26853],[-120.7792,50.26874],[-120.77898,50.26892],[-120.7788,50.26912],[-120.77879,50.26917],[-120.77874,50.26939],[-120.77865,50.26962],[-120.77853,50.26984],[-120.77847,50.26988],[-120.77824,50.27005],[-120.77795,50.27019],[-120.77765,50.27033],[-120.77735,50.27044],[-120.77705,50.27058],[-120.77645,50.27084],[-120.77614,50.27095],[-120.77582,50.27108],[-120.77549,50.27121],[-120.77519,50.27133],[-120.77492,50.27148],[-120.77466,50.27163],[-120.77453,50.27174],[-120.77453,50.27179],[-120.77454,50.27183],[-120.77457,50.27197],[-120.77463,50.272],[-120.77464,50.27203],[-120.77472,50.27212],[-120.77497,50.2723],[-120.77521,50.27246],[-120.77538,50.27268],[-120.77537,50.27272],[-120.77535,50.27274],[-120.77515,50.27292],[-120.77493,50.27311],[-120.77474,50.2733],[-120.77449,50.27347],[-120.77423,50.27365],[-120.774,50.27384],[-120.77371,50.27396],[-120.77338,50.27408],[-120.77308,50.2742],[-120.77278,50.27434],[-120.77262,50.27438],[-120.77255,50.27437],[-120.77232,50.27433],[-120.77204,50.27423],[-120.77199,50.27419],[-120.77174,50.27402],[-120.77166,50.27391],[-120.77166,50.27386],[-120.77164,50.27381],[-120.77163,50.27373],[-120.77166,50.27368],[-120.77184,50.27347],[-120.772,50.27327],[-120.77207,50.27321],[-120.77225,50.27302],[-120.77228,50.27295],[-120.7723,50.27282],[-120.77223,50.2728],[-120.77215,50.2728],[-120.77211,50.27282],[-120.77182,50.27297],[-120.77153,50.27306],[-120.77118,50.27311],[-120.77083,50.27311],[-120.77046,50.27311],[-120.7701,50.2731],[-120.76974,50.27306],[-120.76939,50.27304],[-120.76902,50.273],[-120.76866,50.27296],[-120.76855,50.27297],[-120.76849,50.273],[-120.7682,50.27316],[-120.76786,50.27327],[-120.76751,50.27332],[-120.76714,50.27335],[-120.76689,50.27333],[-120.76656,50.27325],[-120.76604,50.27315],[-120.76569,50.2731],[-120.76533,50.27306],[-120.765,50.27298],[-120.76465,50.27292],[-120.76433,50.27282],[-120.76418,50.27275],[-120.76414,50.2727],[-120.76408,50.27248],[-120.76408,50.27224],[-120.76378,50.27206],[-120.76353,50.27193],[-120.76348,50.2719],[-120.76319,50.27175],[-120.76313,50.27174],[-120.76281,50.27163],[-120.7625,50.27151],[-120.76221,50.27137],[-120.76191,50.27125],[-120.76159,50.27113],[-120.76127,50.27104],[-120.76097,50.2709],[-120.76062,50.27079],[-120.76029,50.27068],[-120.7601,50.27066],[-120.75973,50.27068],[-120.75967,50.27073],[-120.75964,50.27077],[-120.75941,50.27096],[-120.75938,50.27101],[-120.75919,50.2712],[-120.75911,50.27123],[-120.75877,50.27128],[-120.75842,50.27135],[-120.75839,50.27136],[-120.75807,50.2714],[-120.75772,50.27143],[-120.75736,50.27143],[-120.75702,50.27139],[-120.75695,50.27137],[-120.75667,50.27121],[-120.75649,50.27102],[-120.75631,50.27082],[-120.75607,50.27065],[-120.75578,50.27052],[-120.75546,50.27041],[-120.75538,50.27041],[-120.75533,50.27042],[-120.75535,50.27018],[-120.75538,50.27011],[-120.75544,50.27007],[-120.75558,50.27],[-120.75565,50.26999],[-120.75573,50.26999],[-120.75614,50.27003],[-120.75652,50.27006],[-120.75687,50.27004],[-120.75694,50.27002],[-120.75725,50.26991],[-120.7576,50.2698],[-120.75768,50.26977],[-120.75792,50.26969],[-120.75822,50.26957]]}},
{"type":"Feature","properties":{"spotId":"A-deer-atv-0075","kind":"walk","km":0.06,"climbM":0,"name":"810 m W of Hector Creek","flags":["Route crosses private land (ParcelMap BC, updated 2026-09-25): get permission first or go around."]},"geometry":{"type":"LineString","coordinates":[[-120.75822,50.26957],[-120.75871,50.27007]]}},
{"type":"Feature","properties":{"spotId":"A-deer-drive-0056","kind":"walk","km":0.07,"climbM":15,"name":"620 m E of Guichon Creek","flags":[]},"geometry":{"type":"LineString","coordinates":[[-120.82319,50.30126],[-120.82226,50.30111]]}},
{"type":"Feature","properties":{"spotId":"A-deer-drive-0084","kind":"walk","km":0.29,"climbM":60,"name":"920 m E of Guichon Creek","flags":[]},"geometry":{"type":"LineString","coordinates":[[-120.80084,50.35102],[-120.797,50.35194]]}},
{"type":"Feature","properties":{"spotId":"A-deer-drive-0141","kind":"walk","km":0.22,"climbM":16,"name":"640 m W of Chataway Creek","flags":[]},"geometry":{"type":"LineString","coordinates":[[-120.93859,50.33214],[-120.93573,50.33144]]}},
{"type":"Feature","properties":{"spotId":"A-deer-walk-0057","kind":"walk","km":0.3,"climbM":24,"name":"1.6 km W of Gordon Lake rec site","flags":[]},"geometry":{"type":"LineString","coordinates":[[-120.99366,50.25915],[-120.99727,50.2577]]}},
{"type":"Feature","properties":{"spotId":"A-deer-walk-0080","kind":"walk","km":1.73,"climbM":100,"name":"1.1 km NW of Broom Creek","flags":[]},"geometry":{"type":"LineString","coordinates":[[-120.92551,50.33602],[-120.90118,50.33611]]}},
{"type":"Feature","properties":{"spotId":"A-deer-walk-0085","kind":"walk","km":3.15,"climbM":436,"name":"1.5 km W of Cousineau Lake","flags":[]},"geometry":{"type":"LineString","coordinates":[[-120.80978,50.46044],[-120.76539,50.45934]]}},
{"type":"Feature","properties":{"spotId":"A-deer-walk-0087","kind":"walk","km":0.51,"climbM":66,"name":"370 m S of Rey Creek","flags":[]},"geometry":{"type":"LineString","coordinates":[[-120.79273,50.36122],[-120.78918,50.35729]]}},
{"type":"Feature","properties":{"spotId":"A-deer-walk-0099","kind":"walk","km":0.85,"climbM":193,"name":"1.2 km NE of Mamit Lake","flags":["Route crosses private land (ParcelMap BC, updated 2026-09-25): get permission first or go around."]},"geometry":{"type":"LineString","coordinates":[[-120.80642,50.40782],[-120.7944,50.40781]]}},
{"type":"Feature","properties":{"spotId":"A-deer-walk-0105","kind":"walk","km":0.6,"climbM":194,"name":"620 m NE of Mamit Lake","flags":["Route crosses private land (ParcelMap BC, updated 2026-09-25): get permission first or go around."]},"geometry":{"type":"LineString","coordinates":[[-120.80263,50.38735],[-120.79506,50.38982]]}},
{"type":"Feature","properties":{"spotId":"A-deer-walk-0106","kind":"walk","km":2.29,"climbM":375,"name":"2.3 km W of Cousineau Lake","flags":["Route crosses private land (ParcelMap BC, updated 2026-09-25): get permission first or go around."]},"geometry":{"type":"LineString","coordinates":[[-120.80689,50.44811],[-120.77746,50.45657]]}},
{"type":"Feature","properties":{"spotId":"A-deer-walk-0111","kind":"walk","km":1.88,"climbM":36,"name":"1.8 km N of Abbott Lake rec site","flags":[]},"geometry":{"type":"LineString","coordinates":[[-120.9922,50.28811],[-120.99767,50.30466]]}},
{"type":"Feature","properties":{"spotId":"A-deer-walk-0122","kind":"walk","km":0.67,"climbM":73,"name":"840 m NW of Neville Creek","flags":[]},"geometry":{"type":"LineString","coordinates":[[-120.80588,50.25366],[-120.8139,50.25682]]}},
{"type":"Feature","properties":{"spotId":"A-duck-drive-0070","kind":"walk","km":0.01,"climbM":0,"name":"Tyner Lake","flags":[]},"geometry":{"type":"LineString","coordinates":[[-120.93441,50.29372],[-120.93438,50.29381]]}},
{"type":"Feature","properties":{"spotId":"A-duck-drive-0073","kind":"walk","km":0.02,"climbM":0,"name":"Unnamed wetland 360 m NW of Tyner Creek","flags":[]},"geometry":{"type":"LineString","coordinates":[[-120.91904,50.28685],[-120.91912,50.28664]]}},
{"type":"Feature","properties":{"spotId":"A-duck-drive-0095","kind":"walk","km":0.06,"climbM":0,"name":"Chataway Lake","flags":[]},"geometry":{"type":"LineString","coordinates":[[-120.91364,50.3732],[-120.9129,50.37297]]}},
{"type":"Feature","properties":{"spotId":"A-duck-walk-0053","kind":"walk","km":0.42,"climbM":2,"name":"Antler Lake","flags":[]},"geometry":{"type":"LineString","coordinates":[[-120.8715,50.38972],[-120.86815,50.38662]]}},
{"type":"Feature","properties":{"spotId":"A-duck-walk-0086","kind":"walk","km":0.44,"climbM":0,"name":"Abbott Lake","flags":[]},"geometry":{"type":"LineString","coordinates":[[-120.9922,50.28811],[-120.99807,50.287]]}},
{"type":"Feature","properties":{"spotId":"A-duck-walk-0096","kind":"walk","km":0.32,"climbM":10,"name":"Unnamed wetland 1.1 km E of Gordon Lake","flags":[]},"geometry":{"type":"LineString","coordinates":[[-120.95687,50.26612],[-120.95469,50.26357]]}},
{"type":"Feature","properties":{"spotId":"A-grouse-atv-0001","kind":"ride","km":3.29,"climbM":25,"name":"870 m S of Tyner Lake","flags":[]},"geometry":{"type":"LineString","coordinates":[[-120.9378,50.28091],[-120.93757,50.2811],[-120.93748,50.28113],[-120.93741,50.2812],[-120.93712,50.28138],[-120.93691,50.28143],[-120.93667,50.28144],[-120.93647,50.28149],[-120.93607,50.28161],[-120.93587,50.28165],[-120.93566,50.2817],[-120.93539,50.28175],[-120.93508,50.28193],[-120.93496,50.28196],[-120.93469,50.28204],[-120.93448,50.28212],[-120.93414,50.28221],[-120.93395,50.28229],[-120.93367,50.28241],[-120.93347,50.28247],[-120.93338,50.28247],[-120.93307,50.28252],[-120.93292,50.28254],[-120.93271,50.28256],[-120.93249,50.28257],[-120.93241,50.28257],[-120.93231,50.28255],[-120.93222,50.2825],[-120.9321,50.28235],[-120.93185,50.28219],[-120.93162,50.28223],[-120.93145,50.28227],[-120.93134,50.28231],[-120.93123,50.28234],[-120.9311,50.28234],[-120.93102,50.28234],[-120.93088,50.28225],[-120.93074,50.28215],[-120.93066,50.28211],[-120.93045,50.28211],[-120.93015,50.28217],[-120.92994,50.28225],[-120.92959,50.28242],[-120.92952,50.28247],[-120.92925,50.28267],[-120.92905,50.28276],[-120.92882,50.28286],[-120.92866,50.28296],[-120.92855,50.28297],[-120.92831,50.28297],[-120.92807,50.28292],[-120.92799,50.28288],[-120.92787,50.28278],[-120.92772,50.2827],[-120.9275,50.28259],[-120.92715,50.28249],[-120.92702,50.28246],[-120.9268,50.28247],[-120.92671,50.2825],[-120.92656,50.28259],[-120.92618,50.28259],[-120.92586,50.28254],[-120.92555,50.2825],[-120.92525,50.2825],[-120.92517,50.28247],[-120.92516,50.2823],[-120.92516,50.28216],[-120.92509,50.28213],[-120.92491,50.28212],[-120.92475,50.28215],[-120.92447,50.28216],[-120.9242,50.28222],[-120.92397,50.28222],[-120.92386,50.2822],[-120.92374,50.28217],[-120.92346,50.28202],[-120.92334,50.28193],[-120.92315,50.28173],[-120.92292,50.28159],[-120.92281,50.28152],[-120.92268,50.28154],[-120.9226,50.28156],[-120.92244,50.28164],[-120.92224,50.28172],[-120.92191,50.28167],[-120.92164,50.28159],[-120.92142,50.28156],[-120.92118,50.28154],[-120.92089,50.28158],[-120.92077,50.28157],[-120.92058,50.2815],[-120.9204,50.28143],[-120.9202,50.2813],[-120.92003,50.28123],[-120.91979,50.28121],[-120.91968,50.28116],[-120.91956,50.28107],[-120.91949,50.28101],[-120.91925,50.28088],[-120.91907,50.28076],[-120.91889,50.2807],[-120.91876,50.28069],[-120.91868,50.28067],[-120.91857,50.28063],[-120.91842,50.28052],[-120.91824,50.28043],[-120.91796,50.28036],[-120.91776,50.28023],[-120.91756,50.28006],[-120.91749,50.28002],[-120.9173,50.28005],[-120.91721,50.28003],[-120.917,50.28003],[-120.91686,50.28],[-120.91659,50.27993],[-120.91631,50.27986],[-120.91614,50.27978],[-120.91593,50.27972],[-120.91561,50.27967],[-120.91527,50.27965],[-120.91495,50.27965],[-120.91461,50.27966],[-120.9145,50.27966],[-120.91426,50.27968],[-120.91392,50.27965],[-120.91369,50.27964],[-120.9134,50.27964],[-120.91318,50.27965],[-120.91308,50.27965],[-120.91286,50.27968],[-120.9126,50.27979],[-120.91252,50.27991],[-120.91246,50.27998],[-120.91238,50.28002],[-120.91229,50.28005],[-120.91205,50.28008],[-120.91194,50.28008],[-120.91162,50.28006],[-120.91128,50.28005],[-120.91106,50.28005],[-120.91099,50.28008],[-120.91081,50.28026],[-120.91074,50.28031],[-120.91051,50.28032],[-120.9103,50.28038],[-120.91023,50.28041],[-120.91011,50.28042],[-120.91,50.28041],[-120.90985,50.28033],[-120.90972,50.28013],[-120.90958,50.28003],[-120.90936,50.27999],[-120.90907,50.27986],[-120.90897,50.27973],[-120.90891,50.27962],[-120.90881,50.27951],[-120.90874,50.27949],[-120.90856,50.27943],[-120.9084,50.27941],[-120.90814,50.2794],[-120.90795,50.27942],[-120.90787,50.2794],[-120.90779,50.27928],[-120.90764,50.27916],[-120.90759,50.2791],[-120.90748,50.27905],[-120.90717,50.27898],[-120.90692,50.27889],[-120.90686,50.27883],[-120.90671,50.27869],[-120.90667,50.27861],[-120.90668,50.27846],[-120.90656,50.27831],[-120.90634,50.27818],[-120.90627,50.27813],[-120.90626,50.27799],[-120.90612,50.27779],[-120.90604,50.27773],[-120.90575,50.27756],[-120.90568,50.27752],[-120.90557,50.2775],[-120.90526,50.27751],[-120.90513,50.27749],[-120.90484,50.27755],[-120.90474,50.27755],[-120.90442,50.27755],[-120.90419,50.27755],[-120.90386,50.27748],[-120.90376,50.27746],[-120.90345,50.27736],[-120.90312,50.27724],[-120.90289,50.27721],[-120.90256,50.27722],[-120.90231,50.27724],[-120.90201,50.27734],[-120.90172,50.27747],[-120.90148,50.27761],[-120.90138,50.27762],[-120.90116,50.2776],[-120.90092,50.27752],[-120.90064,50.27748],[-120.90039,50.27747],[-120.90019,50.27748],[-120.89999,50.27756],[-120.8998,50.27756],[-120.89964,50.27758],[-120.8995,50.27755],[-120.89918,50.27752]]}},
{"type":"Feature","properties":{"spotId":"A-grouse-atv-0014","kind":"ride","km":3.5,"climbM":84,"name":"1.2 km N of Tyner Lake","flags":[]},"geometry":{"type":"LineString","coordinates":[[-120.93289,50.30685],[-120.93346,50.30684],[-120.93356,50.30683],[-120.93369,50.30685],[-120.93398,50.30685],[-120.93428,50.30685],[-120.93449,50.30686],[-120.93481,50.30688],[-120.93498,50.30689],[-120.93526,50.30691],[-120.93555,50.30693],[-120.93564,50.30695],[-120.9359,50.30695],[-120.93621,50.30694],[-120.9368,50.30692],[-120.93714,50.30692],[-120.93739,50.30692],[-120.93767,50.30692],[-120.93827,50.30685],[-120.93832,50.30686],[-120.9386,50.30686],[-120.93888,50.30686],[-120.93897,50.30687],[-120.93918,50.30687],[-120.93939,50.30689],[-120.9395,50.30692],[-120.9396,50.30698],[-120.93985,50.3072],[-120.93993,50.30725],[-120.94012,50.30746],[-120.94019,50.30752],[-120.94033,50.30764],[-120.9404,50.30775],[-120.9404,50.30791],[-120.94041,50.30807],[-120.9404,50.30813],[-120.9404,50.30849],[-120.94038,50.30865],[-120.94042,50.30881],[-120.9405,50.30887],[-120.94079,50.30896],[-120.94116,50.30906],[-120.94156,50.3091],[-120.94265,50.3092],[-120.94298,50.30914],[-120.94345,50.30902],[-120.94382,50.30892],[-120.94413,50.30887],[-120.94464,50.30885],[-120.94513,50.30884],[-120.94585,50.30887],[-120.94627,50.30893],[-120.94652,50.30898],[-120.94716,50.30913],[-120.94755,50.30921],[-120.94798,50.30919],[-120.94823,50.30913],[-120.94867,50.30892],[-120.94899,50.30875],[-120.94934,50.30863],[-120.95005,50.30855],[-120.95115,50.30845],[-120.95168,50.30839],[-120.95184,50.30845],[-120.95203,50.30845],[-120.9522,50.30852],[-120.95231,50.30862],[-120.95234,50.3087],[-120.95246,50.30885],[-120.95264,50.30905],[-120.95266,50.30911],[-120.95279,50.30921],[-120.95287,50.30932],[-120.95292,50.30941],[-120.95304,50.3096],[-120.9531,50.30966],[-120.95323,50.30975],[-120.95329,50.30983],[-120.95329,50.30989],[-120.95334,50.31008],[-120.95335,50.31037],[-120.95355,50.31061],[-120.95366,50.3108],[-120.95372,50.31099],[-120.95372,50.31107],[-120.95372,50.31126],[-120.95379,50.31144],[-120.95385,50.31152],[-120.95404,50.31171],[-120.95407,50.31177],[-120.95414,50.31195],[-120.9542,50.312],[-120.95439,50.3122],[-120.9544,50.31226],[-120.95451,50.31247],[-120.95465,50.31258],[-120.95475,50.31264],[-120.95478,50.31266],[-120.95492,50.31275],[-120.95515,50.31272],[-120.95545,50.31264],[-120.95596,50.31245],[-120.9566,50.3123],[-120.95695,50.31228],[-120.95765,50.31231],[-120.95822,50.31241],[-120.9595,50.31237],[-120.96018,50.31229],[-120.96095,50.31217],[-120.96144,50.31204],[-120.96216,50.31179],[-120.96303,50.31149],[-120.96334,50.31144],[-120.96383,50.31142],[-120.9639,50.31142],[-120.96508,50.31181],[-120.96545,50.31191],[-120.96599,50.31192],[-120.96674,50.31189],[-120.96738,50.3119],[-120.96779,50.31206],[-120.96805,50.31225],[-120.96826,50.31252],[-120.96848,50.31275],[-120.96874,50.31296],[-120.96919,50.31318],[-120.96978,50.31351],[-120.9704,50.31368],[-120.97084,50.31371],[-120.97087,50.31372],[-120.97146,50.31373],[-120.97222,50.31377],[-120.97249,50.31379]]}},
{"type":"Feature","properties":{"spotId":"A-grouse-atv-0025","kind":"ride","km":4.29,"climbM":51,"name":"920 m W of Rusty Creek","flags":[]},"geometry":{"type":"LineString","coordinates":[[-120.94541,50.3647],[-120.94527,50.36491],[-120.94523,50.36496],[-120.94496,50.36518],[-120.94472,50.36534],[-120.94466,50.36536],[-120.94458,50.3654],[-120.94455,50.36543],[-120.94431,50.36562],[-120.9441,50.36573],[-120.94403,50.36575],[-120.9437,50.3658],[-120.94357,50.36593],[-120.94338,50.36608],[-120.94325,50.36624],[-120.94317,50.3664],[-120.94315,50.36649],[-120.94314,50.36664],[-120.94315,50.36685],[-120.94316,50.36701],[-120.94316,50.36721],[-120.94314,50.36738],[-120.94314,50.36745],[-120.94312,50.36755],[-120.94307,50.36769],[-120.94302,50.36784],[-120.94293,50.36804],[-120.94285,50.3682],[-120.94285,50.36827],[-120.94281,50.3684],[-120.94277,50.36855],[-120.94277,50.36868],[-120.94277,50.36875],[-120.94278,50.36891],[-120.94277,50.3691],[-120.94278,50.3692],[-120.94278,50.36928],[-120.94278,50.3695],[-120.9428,50.36969],[-120.94281,50.36989],[-120.9428,50.37005],[-120.94278,50.37017],[-120.94276,50.37032],[-120.94276,50.37053],[-120.94277,50.37072],[-120.94278,50.3709],[-120.94276,50.371],[-120.94271,50.37114],[-120.94263,50.37125],[-120.94263,50.37142],[-120.94261,50.37148],[-120.94264,50.37153],[-120.94266,50.37172],[-120.94269,50.37184],[-120.94275,50.37195],[-120.94275,50.37205],[-120.94277,50.37213],[-120.9428,50.37227],[-120.94282,50.37244],[-120.94289,50.37258],[-120.94298,50.37275],[-120.94304,50.37292],[-120.94306,50.37314],[-120.94311,50.37333],[-120.94312,50.37347],[-120.94311,50.37367],[-120.94309,50.37374],[-120.94305,50.37391],[-120.94304,50.37398],[-120.94303,50.37424],[-120.94303,50.37443],[-120.94306,50.3745],[-120.94316,50.37469],[-120.94339,50.3749],[-120.94348,50.37503],[-120.94348,50.37515],[-120.94323,50.37526],[-120.94318,50.37528],[-120.94292,50.37534],[-120.94279,50.37535],[-120.9427,50.37534],[-120.94237,50.37531],[-120.94197,50.37531],[-120.94184,50.37532],[-120.94177,50.37535],[-120.94144,50.37547],[-120.94138,50.37548],[-120.94123,50.37552],[-120.941,50.37557],[-120.94062,50.37564],[-120.94038,50.37566],[-120.94026,50.37567],[-120.93988,50.37566],[-120.9398,50.37564],[-120.93973,50.37561],[-120.93937,50.37547],[-120.93902,50.37541],[-120.93888,50.3754],[-120.93873,50.37543],[-120.93864,50.37545],[-120.93835,50.37559],[-120.93831,50.37563],[-120.93818,50.37572],[-120.93799,50.37593],[-120.93775,50.37611],[-120.93775,50.37614],[-120.9376,50.37634],[-120.93756,50.37638],[-120.93727,50.37655],[-120.93711,50.37676],[-120.93696,50.37699],[-120.93685,50.37723],[-120.9367,50.37741],[-120.93649,50.3776],[-120.93628,50.37772],[-120.93625,50.37773],[-120.93597,50.37777],[-120.93588,50.37778],[-120.93554,50.37785],[-120.93521,50.37795],[-120.93487,50.37803],[-120.93452,50.37811],[-120.93411,50.37815],[-120.93407,50.37815],[-120.93373,50.37817],[-120.93336,50.37818],[-120.93299,50.3782],[-120.9326,50.37827],[-120.93223,50.37831],[-120.93186,50.37836],[-120.93148,50.37847],[-120.93114,50.37856],[-120.93111,50.37859],[-120.93105,50.37862],[-120.93098,50.37865],[-120.93057,50.37875],[-120.93024,50.37883],[-120.92993,50.37888],[-120.92987,50.37889],[-120.92951,50.37896],[-120.92912,50.37905],[-120.92876,50.37911],[-120.92854,50.37916],[-120.92771,50.37933],[-120.92754,50.37939],[-120.92703,50.37953],[-120.9267,50.37961],[-120.92632,50.37971],[-120.92594,50.37973],[-120.92557,50.37975],[-120.92523,50.37978],[-120.92516,50.37982],[-120.92509,50.37985],[-120.92504,50.37987],[-120.92481,50.38005],[-120.92463,50.38026],[-120.92443,50.38045],[-120.9242,50.38064],[-120.92396,50.38081],[-120.92374,50.38101],[-120.92355,50.3812],[-120.92338,50.38131],[-120.92335,50.38133],[-120.92313,50.38148],[-120.9228,50.38163],[-120.9225,50.38177],[-120.92221,50.38192],[-120.92197,50.38208],[-120.92173,50.38226],[-120.92151,50.38243],[-120.92143,50.38254],[-120.92134,50.38265],[-120.92126,50.38267],[-120.92123,50.38272],[-120.92122,50.38275],[-120.92117,50.3828],[-120.92092,50.38306],[-120.92084,50.38316],[-120.92069,50.38337],[-120.92059,50.3836],[-120.9205,50.38381],[-120.92034,50.38426],[-120.92033,50.38437],[-120.92026,50.3845],[-120.92024,50.38457],[-120.92023,50.38471],[-120.92024,50.38479],[-120.92017,50.38485],[-120.91997,50.38486],[-120.91982,50.38481],[-120.91975,50.38477],[-120.9196,50.38465],[-120.91944,50.38445],[-120.91936,50.38441],[-120.91916,50.3844],[-120.91906,50.38442],[-120.9189,50.3846],[-120.91876,50.38467],[-120.91867,50.3847],[-120.91859,50.38468],[-120.91831,50.38486],[-120.91827,50.38492],[-120.91824,50.38498],[-120.91823,50.38508],[-120.91789,50.38515],[-120.91785,50.38518],[-120.91778,50.38523],[-120.91772,50.38525],[-120.91762,50.38528],[-120.91732,50.38541],[-120.917,50.38555],[-120.9166,50.38575],[-120.9163,50.38588],[-120.91623,50.38588],[-120.9159,50.38598],[-120.91554,50.38611],[-120.91523,50.38623],[-120.91493,50.38636],[-120.9146,50.38654],[-120.91453,50.38655],[-120.91395,50.38682],[-120.91364,50.38694],[-120.91329,50.38708],[-120.913,50.38723],[-120.91274,50.38738],[-120.91246,50.38752],[-120.91224,50.38766],[-120.9122,50.38768],[-120.91196,50.38785],[-120.91189,50.38787],[-120.91158,50.388],[-120.91135,50.38811],[-120.91128,50.38814],[-120.91086,50.38836]]}},
{"type":"Feature","properties":{"spotId":"A-grouse-drive-0004","kind":"roadside","km":4.15,"climbM":7,"name":"130 m E of Chataway Creek","flags":[]},"geometry":{"type":"LineString","coordinates":[[-120.9177,50.36573],[-120.91793,50.3656],[-120.91808,50.3655],[-120.91816,50.36546],[-120.91825,50.36538],[-120.91846,50.3652],[-120.9186,50.36508],[-120.91863,50.36501],[-120.91874,50.36491],[-120.91892,50.36479],[-120.91914,50.36461],[-120.91936,50.36448],[-120.9194,50.36443],[-120.91948,50.36438],[-120.91949,50.36432],[-120.91949,50.36417],[-120.91949,50.3641],[-120.91947,50.36398],[-120.91948,50.36392],[-120.91953,50.36387],[-120.91968,50.36368],[-120.91969,50.36363],[-120.91978,50.36352],[-120.9198,50.36346],[-120.91986,50.3633],[-120.91984,50.36312],[-120.91978,50.363],[-120.91973,50.36288],[-120.91966,50.36269],[-120.91967,50.36255],[-120.91966,50.36234],[-120.91967,50.36227],[-120.91968,50.3622],[-120.91974,50.36212],[-120.91976,50.362],[-120.91991,50.36192],[-120.92008,50.36187],[-120.92031,50.36175],[-120.9205,50.36162],[-120.92058,50.36145],[-120.92064,50.36134],[-120.92079,50.36114],[-120.92082,50.36107],[-120.92088,50.36087],[-120.9209,50.36082],[-120.92099,50.36071],[-120.921,50.36064],[-120.92117,50.36045],[-120.92121,50.36034],[-120.92127,50.36027],[-120.92139,50.36009],[-120.92147,50.36001],[-120.92157,50.3599],[-120.92164,50.35984],[-120.92175,50.35973],[-120.92193,50.35961],[-120.92211,50.35955],[-120.92229,50.3595],[-120.92246,50.35944],[-120.92262,50.35936],[-120.92297,50.35902],[-120.92302,50.35897],[-120.92315,50.35887],[-120.92338,50.35862],[-120.92343,50.35857],[-120.92347,50.35851],[-120.92355,50.35832],[-120.92358,50.35825],[-120.92362,50.35803],[-120.92364,50.35796],[-120.92366,50.35783],[-120.92365,50.35765],[-120.9237,50.35743],[-120.92371,50.35727],[-120.92374,50.35719],[-120.92375,50.35702],[-120.92377,50.35686],[-120.92379,50.35669],[-120.9238,50.35659],[-120.92386,50.35639],[-120.92392,50.35627],[-120.92391,50.3562],[-120.92398,50.35602],[-120.92399,50.35596],[-120.92414,50.35578],[-120.92427,50.35567],[-120.9243,50.35562],[-120.92456,50.35544],[-120.92482,50.3553],[-120.92487,50.35528],[-120.92497,50.35522],[-120.92522,50.35513],[-120.92533,50.35506],[-120.92562,50.35498],[-120.92582,50.35494],[-120.92612,50.35491],[-120.9263,50.35488],[-120.92643,50.35486],[-120.92652,50.35482],[-120.92679,50.35477],[-120.92718,50.35471],[-120.92745,50.35459],[-120.92764,50.35453],[-120.92778,50.35445],[-120.92805,50.35425],[-120.92835,50.35404],[-120.92848,50.35397],[-120.92858,50.35385],[-120.9286,50.35374],[-120.9286,50.35358],[-120.9286,50.35351],[-120.92855,50.35335],[-120.92856,50.35315],[-120.92859,50.35309],[-120.92865,50.35295],[-120.92871,50.35282],[-120.92877,50.35275],[-120.92886,50.3526],[-120.92886,50.35239],[-120.92885,50.35217],[-120.9289,50.35201],[-120.92891,50.35185],[-120.92893,50.35172],[-120.92898,50.35158],[-120.92902,50.3515],[-120.92907,50.35133],[-120.92914,50.35114],[-120.9292,50.35099],[-120.92926,50.35089],[-120.92928,50.35083],[-120.92928,50.3507],[-120.92928,50.35053],[-120.92928,50.35035],[-120.92928,50.35022],[-120.92928,50.35004],[-120.92928,50.3499],[-120.92925,50.34984],[-120.92925,50.34978],[-120.92925,50.3496],[-120.92922,50.34948],[-120.92919,50.34935],[-120.92919,50.34926],[-120.92911,50.34907],[-120.92908,50.34889],[-120.92902,50.3487],[-120.92901,50.34854],[-120.92898,50.3484],[-120.92895,50.34832],[-120.92894,50.34825],[-120.9289,50.34814],[-120.92876,50.34791],[-120.92871,50.3478],[-120.92867,50.34773],[-120.92867,50.34757],[-120.92866,50.34749],[-120.92871,50.34736],[-120.92879,50.34717],[-120.92884,50.34707],[-120.92894,50.34693],[-120.92903,50.34674],[-120.92905,50.34662],[-120.92902,50.34648],[-120.92899,50.34633],[-120.92897,50.34625],[-120.92887,50.34603],[-120.92881,50.34597],[-120.9288,50.34587],[-120.92877,50.34566],[-120.92875,50.34547],[-120.92873,50.34542],[-120.92873,50.34535],[-120.9287,50.34515],[-120.92866,50.34495],[-120.92864,50.3448],[-120.92862,50.34462],[-120.92859,50.34455],[-120.92863,50.34448],[-120.92863,50.34433],[-120.92857,50.34414],[-120.92856,50.34409],[-120.92855,50.34393],[-120.92854,50.34378],[-120.92855,50.34367],[-120.92849,50.34349],[-120.92838,50.34339],[-120.92827,50.34327],[-120.92823,50.34319],[-120.92816,50.34314],[-120.928,50.34295],[-120.92791,50.34282],[-120.92775,50.34265],[-120.9276,50.34246],[-120.92754,50.34241],[-120.92744,50.34226],[-120.9274,50.34221],[-120.92725,50.34209],[-120.92714,50.34191],[-120.9271,50.34183],[-120.92703,50.34178],[-120.92697,50.34161],[-120.92688,50.34141],[-120.92685,50.34135],[-120.92683,50.34115],[-120.92678,50.34096],[-120.92675,50.34079],[-120.92672,50.34073],[-120.92668,50.34066],[-120.92654,50.34047],[-120.92647,50.34041],[-120.92634,50.34022],[-120.92626,50.34008],[-120.92614,50.33994],[-120.92609,50.33987],[-120.92592,50.3397],[-120.92575,50.3395],[-120.92563,50.33937],[-120.92556,50.3393],[-120.9255,50.33918],[-120.92547,50.33912],[-120.92548,50.33903],[-120.92544,50.3389],[-120.92541,50.33871],[-120.92544,50.33865],[-120.92543,50.33849],[-120.92546,50.33835],[-120.92551,50.33817],[-120.92559,50.33807],[-120.92573,50.33795],[-120.92582,50.33784],[-120.92594,50.33773],[-120.92604,50.33761],[-120.92613,50.33748],[-120.92619,50.33743],[-120.92626,50.33724],[-120.92624,50.33705],[-120.92621,50.337],[-120.92608,50.3368],[-120.92592,50.33662],[-120.92587,50.33654],[-120.92574,50.33642],[-120.92557,50.33619],[-120.92553,50.33608],[-120.92551,50.33602],[-120.92551,50.33594],[-120.92555,50.33578],[-120.92558,50.33572],[-120.92563,50.33556],[-120.92572,50.3354],[-120.92574,50.33532],[-120.9258,50.33524],[-120.92581,50.33517],[-120.92595,50.33499],[-120.92602,50.33483],[-120.92617,50.33464],[-120.92623,50.33458],[-120.92631,50.33444],[-120.92637,50.33427],[-120.92641,50.33407],[-120.92641,50.334],[-120.92648,50.33381],[-120.92647,50.33367],[-120.9265,50.33362],[-120.92649,50.33348],[-120.92653,50.33326],[-120.92654,50.3331],[-120.92655,50.33298],[-120.92655,50.33277],[-120.92655,50.33269],[-120.92646,50.33252]]}},
{"type":"Feature","properties":{"spotId":"A-grouse-drive-0060","kind":"roadside","km":6.32,"climbM":36,"name":"940 m NW of Gordon Lake","flags":[]},"geometry":{"type":"LineString","coordinates":[[-120.98392,50.2757],[-120.98356,50.27575],[-120.98323,50.27585],[-120.98307,50.27591],[-120.98301,50.27594],[-120.98269,50.27604],[-120.98247,50.27609],[-120.98201,50.27618],[-120.98167,50.27623],[-120.98132,50.27627],[-120.98095,50.27629],[-120.98059,50.2763],[-120.98022,50.27633],[-120.97988,50.27639],[-120.97951,50.27645],[-120.97944,50.27647],[-120.9793,50.27654],[-120.97925,50.27659],[-120.97895,50.27672],[-120.97864,50.27682],[-120.97857,50.27685],[-120.97826,50.27712],[-120.97808,50.27719],[-120.97795,50.27724],[-120.97757,50.27733],[-120.97721,50.27744],[-120.97688,50.27755],[-120.97681,50.27755],[-120.9766,50.27754],[-120.97652,50.27753],[-120.97617,50.27745],[-120.97592,50.27738],[-120.97577,50.27729],[-120.97573,50.27726],[-120.97543,50.27714],[-120.97533,50.27708],[-120.975,50.27696],[-120.97467,50.27686],[-120.9745,50.27678],[-120.97446,50.27675],[-120.97423,50.27666],[-120.97389,50.2766],[-120.97353,50.27659],[-120.97318,50.27658],[-120.97281,50.27655],[-120.97245,50.27646],[-120.9721,50.27639],[-120.97176,50.27631],[-120.97142,50.27624],[-120.97107,50.27617],[-120.97074,50.27609],[-120.97013,50.276],[-120.96976,50.27598],[-120.96941,50.276],[-120.96906,50.27603],[-120.96897,50.27605],[-120.96869,50.27618],[-120.96844,50.27633],[-120.96822,50.27652],[-120.96818,50.27656],[-120.96816,50.27661],[-120.96807,50.27677],[-120.96791,50.27698],[-120.96779,50.27722],[-120.96771,50.27743],[-120.96759,50.27766],[-120.96745,50.2779],[-120.96734,50.27813],[-120.96719,50.27833],[-120.967,50.27854],[-120.96681,50.27875],[-120.96665,50.27897],[-120.96651,50.27917],[-120.96643,50.2794],[-120.9664,50.27945],[-120.96624,50.27957],[-120.96617,50.27962],[-120.9659,50.27978],[-120.96584,50.27981],[-120.96581,50.27986],[-120.96575,50.27991],[-120.96546,50.28004],[-120.96545,50.28006],[-120.96509,50.28015],[-120.96473,50.28021],[-120.96467,50.28023],[-120.96432,50.28026],[-120.96397,50.28028],[-120.96357,50.2803],[-120.96322,50.28034],[-120.96284,50.28033],[-120.96209,50.28026],[-120.96174,50.28021],[-120.96139,50.28015],[-120.96131,50.28012],[-120.96073,50.28005],[-120.96034,50.27999],[-120.96025,50.27997],[-120.95995,50.27992],[-120.9596,50.27987],[-120.95923,50.27982],[-120.95889,50.27975],[-120.95846,50.27966],[-120.95824,50.27961],[-120.95792,50.27951],[-120.9576,50.27941],[-120.95727,50.27933],[-120.95694,50.27925],[-120.95662,50.27913],[-120.95631,50.27899],[-120.95603,50.27885],[-120.95577,50.2787],[-120.95546,50.27856],[-120.95491,50.27832],[-120.95482,50.27826],[-120.95451,50.27815],[-120.95418,50.27803],[-120.9538,50.27795],[-120.95314,50.27772],[-120.95281,50.27762],[-120.95248,50.2775],[-120.95214,50.27738],[-120.95177,50.27728],[-120.95142,50.27719],[-120.95134,50.27718],[-120.95102,50.27706],[-120.9507,50.27693],[-120.95039,50.27683],[-120.95005,50.27672],[-120.94975,50.27662],[-120.94958,50.27658],[-120.94908,50.27657],[-120.94871,50.27663],[-120.94865,50.27664],[-120.94858,50.27667],[-120.94851,50.27678],[-120.94841,50.27699],[-120.94829,50.27721],[-120.9482,50.27738],[-120.94816,50.27742],[-120.94809,50.27766],[-120.94801,50.27788],[-120.94798,50.27796],[-120.94794,50.27811],[-120.94785,50.27833],[-120.94762,50.27871],[-120.94749,50.27892],[-120.94724,50.27926],[-120.94721,50.27929],[-120.94703,50.27946],[-120.94691,50.27954],[-120.9468,50.27963],[-120.94676,50.27965],[-120.94655,50.27986],[-120.94642,50.28],[-120.94617,50.28015],[-120.94609,50.28022],[-120.94589,50.28044],[-120.94574,50.28065],[-120.94553,50.28083],[-120.94548,50.28085],[-120.9454,50.28086],[-120.9453,50.28094],[-120.94509,50.28113],[-120.94487,50.28135],[-120.94465,50.28153],[-120.94446,50.28173],[-120.94423,50.2819],[-120.94417,50.28194],[-120.94408,50.28217],[-120.94405,50.2824],[-120.94404,50.28264],[-120.94406,50.28299],[-120.94409,50.28322],[-120.94409,50.28345],[-120.94409,50.28354],[-120.9441,50.28369],[-120.94409,50.28391],[-120.94409,50.28415],[-120.94407,50.28463],[-120.94409,50.28488],[-120.94416,50.2851],[-120.94429,50.28532],[-120.94441,50.28556],[-120.9445,50.28582],[-120.94452,50.2859],[-120.9446,50.28613],[-120.94468,50.28634],[-120.94477,50.28658],[-120.94482,50.28686],[-120.94492,50.28709],[-120.94504,50.28731],[-120.94518,50.28758],[-120.94528,50.2878],[-120.94536,50.28804],[-120.94547,50.28826],[-120.94557,50.28852],[-120.94563,50.28875],[-120.94574,50.28899],[-120.94581,50.28921],[-120.94599,50.28963],[-120.94602,50.28986],[-120.9461,50.29008],[-120.94614,50.29025],[-120.94616,50.29032],[-120.94627,50.29054],[-120.94633,50.29076],[-120.94642,50.29107],[-120.94649,50.2913],[-120.94665,50.29151],[-120.94676,50.29172],[-120.94672,50.29251],[-120.94667,50.29274],[-120.94662,50.29297],[-120.94635,50.2934],[-120.94622,50.29361],[-120.94603,50.2938],[-120.94587,50.29401],[-120.94568,50.2942],[-120.94555,50.29435],[-120.94523,50.29448],[-120.94502,50.29457],[-120.94492,50.29464],[-120.94472,50.29472],[-120.94466,50.29474],[-120.94454,50.2948],[-120.94424,50.29492],[-120.9441,50.29503],[-120.94391,50.29509],[-120.94369,50.2951],[-120.94348,50.29511],[-120.94289,50.2951],[-120.94275,50.29509],[-120.94252,50.29508],[-120.94223,50.29502],[-120.94198,50.29496],[-120.94173,50.29491],[-120.94121,50.2949],[-120.94093,50.29494],[-120.94086,50.29496],[-120.94056,50.29509],[-120.94049,50.29512],[-120.94026,50.29521],[-120.93994,50.29534],[-120.93966,50.29548],[-120.9393,50.29571],[-120.93904,50.29587],[-120.93901,50.29591],[-120.93882,50.29611],[-120.93861,50.29623],[-120.93837,50.2964],[-120.93822,50.29654],[-120.93818,50.29659],[-120.9381,50.29666],[-120.93796,50.29678],[-120.93777,50.29698],[-120.93736,50.29735],[-120.93694,50.29767],[-120.93673,50.29786],[-120.93653,50.29805],[-120.93636,50.29826],[-120.93616,50.29844],[-120.93597,50.29865],[-120.93583,50.29886],[-120.93561,50.29905],[-120.93545,50.29926],[-120.9353,50.29948],[-120.93525,50.29954],[-120.93514,50.29968],[-120.93509,50.2997],[-120.93489,50.29981],[-120.93459,50.29995],[-120.93439,50.3],[-120.93422,50.30006],[-120.93415,50.30008],[-120.93393,50.30008],[-120.93386,50.30006],[-120.93373,50.3],[-120.93343,50.29995],[-120.93338,50.29993],[-120.93301,50.29972]]}},
{"type":"Feature","properties":{"spotId":"A-grouse-drive-0120","kind":"roadside","km":3.44,"climbM":44,"name":"750 m S of Gump Creek","flags":["Route touches city limits: District of Logan Lake. Local firearm bylaw applies."]},"geometry":{"type":"LineString","coordinates":[[-120.85317,50.43831],[-120.85341,50.4385],[-120.85354,50.4386],[-120.85391,50.43881],[-120.85438,50.43898],[-120.85482,50.43918],[-120.85579,50.43951],[-120.85601,50.43963],[-120.85618,50.43972],[-120.85638,50.43986],[-120.85659,50.43999],[-120.85672,50.44009],[-120.85681,50.44012],[-120.85699,50.44016],[-120.85721,50.44018],[-120.85753,50.44018],[-120.85834,50.4402],[-120.8587,50.44017],[-120.85893,50.4401],[-120.85916,50.44001],[-120.85934,50.43996],[-120.85951,50.43993],[-120.8597,50.43991],[-120.85987,50.43994],[-120.85995,50.43995],[-120.86007,50.44001],[-120.86014,50.44016],[-120.86022,50.44039],[-120.86031,50.44056],[-120.8604,50.44071],[-120.8605,50.44077],[-120.86064,50.44081],[-120.86078,50.44087],[-120.86115,50.44097],[-120.86135,50.441],[-120.86188,50.44112],[-120.86218,50.44123],[-120.86242,50.44134],[-120.86287,50.44151],[-120.86302,50.44153],[-120.86318,50.44153],[-120.8634,50.44155],[-120.86361,50.44158],[-120.86377,50.44161],[-120.86394,50.44164],[-120.86409,50.44174],[-120.8642,50.44185],[-120.86427,50.442],[-120.8646,50.44229],[-120.86482,50.44253],[-120.86504,50.44273],[-120.86516,50.44281],[-120.86526,50.44293],[-120.8653,50.44306],[-120.86534,50.4433],[-120.86538,50.44347],[-120.86536,50.44358],[-120.86539,50.44368],[-120.86555,50.44384],[-120.86579,50.44399],[-120.86597,50.44405],[-120.86626,50.44412],[-120.86648,50.44416],[-120.86661,50.44429],[-120.86668,50.44442],[-120.86676,50.44482],[-120.86684,50.44492],[-120.86697,50.44507],[-120.86704,50.44514],[-120.86731,50.44541],[-120.86761,50.44578],[-120.86772,50.4459],[-120.8679,50.44609],[-120.86804,50.44625],[-120.86828,50.44648],[-120.86838,50.44664],[-120.8684,50.44676],[-120.8684,50.447],[-120.86836,50.44727],[-120.86837,50.44742],[-120.86838,50.44749],[-120.86845,50.44757],[-120.8686,50.44767],[-120.86869,50.44774],[-120.86873,50.4478],[-120.86876,50.44799],[-120.86876,50.44801],[-120.86876,50.44826],[-120.86868,50.44845],[-120.86865,50.4486],[-120.86866,50.44873],[-120.86869,50.44882],[-120.86876,50.44893],[-120.86887,50.44901],[-120.86908,50.4491],[-120.8692,50.44916],[-120.86926,50.44922],[-120.86936,50.44939],[-120.8695,50.44963],[-120.8696,50.44977],[-120.8697,50.44985],[-120.86985,50.44995],[-120.87008,50.45011],[-120.87021,50.45018],[-120.87034,50.45032],[-120.87055,50.45047],[-120.87074,50.45068],[-120.87088,50.4511],[-120.87085,50.45141],[-120.87079,50.45164],[-120.87058,50.45208],[-120.87046,50.45219],[-120.8704,50.45221],[-120.87027,50.45223],[-120.86982,50.45222],[-120.86962,50.45223],[-120.86942,50.45229],[-120.86932,50.45236],[-120.86906,50.4525],[-120.86876,50.45258],[-120.86841,50.45266],[-120.86788,50.45272],[-120.8676,50.45275],[-120.8674,50.45283],[-120.86701,50.45293],[-120.86641,50.45301],[-120.8662,50.45302],[-120.86606,50.4531],[-120.86596,50.45329],[-120.86598,50.4536],[-120.86593,50.45387],[-120.86589,50.45415],[-120.86586,50.45446],[-120.86586,50.45457],[-120.86571,50.45483],[-120.86554,50.45504],[-120.86535,50.45521],[-120.86521,50.45543],[-120.86511,50.45574],[-120.86504,50.45593],[-120.86501,50.45635],[-120.8651,50.45654],[-120.86526,50.45667],[-120.86531,50.45679],[-120.86536,50.45697],[-120.8655,50.45711],[-120.86582,50.45721],[-120.86607,50.45729],[-120.86627,50.45737],[-120.86661,50.45766],[-120.86669,50.45793],[-120.86664,50.45827],[-120.86667,50.45872],[-120.86657,50.45915],[-120.86636,50.45945],[-120.86617,50.45974],[-120.86609,50.45985]]}},
{"type":"Feature","properties":{"spotId":"A-moose-atv-0053","kind":"ride","km":2.4,"climbM":52,"name":"170 m N of Dupuis Creek","flags":[]},"geometry":{"type":"LineString","coordinates":[[-120.86264,50.4253],[-120.86263,50.42533],[-120.86232,50.42563],[-120.86186,50.42602],[-120.86113,50.42656],[-120.86001,50.42752],[-120.85975,50.42767],[-120.85931,50.42773],[-120.85866,50.42776],[-120.85801,50.42777],[-120.8576,50.4278],[-120.857,50.42775],[-120.85593,50.42769],[-120.85586,50.42763],[-120.85574,50.42753],[-120.85555,50.4274],[-120.85539,50.42727],[-120.85525,50.42712],[-120.85504,50.42693],[-120.8549,50.42682],[-120.85476,50.42672],[-120.85459,50.42659],[-120.85446,50.4264],[-120.85438,50.42627],[-120.85436,50.42623],[-120.85435,50.42621],[-120.85433,50.42615],[-120.85424,50.42607],[-120.85401,50.42595],[-120.8539,50.42594],[-120.85381,50.42593],[-120.8536,50.42599],[-120.85317,50.42621],[-120.85298,50.42629],[-120.8528,50.42635],[-120.8526,50.42638],[-120.85228,50.42645],[-120.85207,50.42662],[-120.85203,50.42668],[-120.8519,50.42682],[-120.85184,50.42695],[-120.85176,50.42717],[-120.8517,50.42733],[-120.85165,50.42739],[-120.85156,50.42758],[-120.85139,50.42777],[-120.85126,50.42788],[-120.85117,50.42795],[-120.85103,50.42812],[-120.85086,50.42834],[-120.85074,50.42855],[-120.85068,50.42866],[-120.85057,50.42881],[-120.8505,50.42888],[-120.85028,50.42903],[-120.8501,50.42922],[-120.84998,50.42939],[-120.84983,50.4296],[-120.84979,50.42966],[-120.84958,50.42986],[-120.84943,50.43008],[-120.84954,50.43019],[-120.84966,50.43038],[-120.84976,50.43051],[-120.84985,50.43055],[-120.84994,50.43058],[-120.85152,50.43061],[-120.85186,50.4306],[-120.85243,50.43061],[-120.8525,50.43067],[-120.85255,50.43075],[-120.85258,50.43087],[-120.85257,50.431],[-120.85252,50.43119],[-120.8525,50.43161],[-120.85255,50.43176],[-120.85265,50.43216],[-120.85269,50.43232],[-120.85272,50.43246],[-120.85276,50.43264],[-120.85279,50.43277],[-120.85281,50.43296],[-120.85284,50.43315],[-120.85285,50.43327],[-120.85287,50.43343],[-120.85289,50.43358],[-120.85294,50.43377],[-120.853,50.434],[-120.85305,50.43417],[-120.85308,50.4343],[-120.85309,50.43446],[-120.85311,50.43463],[-120.85312,50.43477],[-120.85317,50.43494],[-120.8532,50.43514],[-120.85332,50.43559],[-120.85333,50.43576],[-120.85334,50.4359],[-120.85335,50.43599],[-120.85332,50.43613],[-120.8533,50.43629],[-120.85327,50.43635],[-120.85324,50.43647],[-120.85313,50.43664],[-120.85303,50.43675],[-120.85298,50.43682],[-120.85297,50.43689]]}},
{"type":"Feature","properties":{"spotId":"A-moose-atv-0053","kind":"walk","km":0.12,"climbM":0,"name":"170 m N of Dupuis Creek","flags":[]},"geometry":{"type":"LineString","coordinates":[[-120.86264,50.4253],[-120.86427,50.42547]]}},
{"type":"Feature","properties":{"spotId":"A-moose-atv-0058","kind":"ride","km":3.01,"climbM":163,"name":"2.4 km E of Tyner Lake rec site","flags":[]},"geometry":{"type":"LineString","coordinates":[[-120.89448,50.28065],[-120.89426,50.28064],[-120.89388,50.28058],[-120.89378,50.28056],[-120.89349,50.28052],[-120.89317,50.28047],[-120.89298,50.28042],[-120.89288,50.28042],[-120.89281,50.28045],[-120.89256,50.28059],[-120.89246,50.28062],[-120.89223,50.28066],[-120.89197,50.28069],[-120.89182,50.28075],[-120.89153,50.28094],[-120.89146,50.28097],[-120.89133,50.28109],[-120.89107,50.28124],[-120.89073,50.28143],[-120.89039,50.28163],[-120.89019,50.28181],[-120.89007,50.28188],[-120.89004,50.28194],[-120.89003,50.28202],[-120.88998,50.28213],[-120.88979,50.2822],[-120.88964,50.28221],[-120.88947,50.28228],[-120.88941,50.28232],[-120.88935,50.28239],[-120.88923,50.28261],[-120.88919,50.28275],[-120.88913,50.28297],[-120.88904,50.28309],[-120.88879,50.28326],[-120.88847,50.28333],[-120.88822,50.28328],[-120.88795,50.28322],[-120.88787,50.2832],[-120.88755,50.28307],[-120.88746,50.28303],[-120.88729,50.28294],[-120.88719,50.28293],[-120.88707,50.28294],[-120.88684,50.28298],[-120.88675,50.28301],[-120.88655,50.28312],[-120.88648,50.28319],[-120.88635,50.28327],[-120.88626,50.28331],[-120.88591,50.28331],[-120.88581,50.28332],[-120.88557,50.28338],[-120.88549,50.28343],[-120.88537,50.28345],[-120.88525,50.28346],[-120.88513,50.28344],[-120.88507,50.28339],[-120.88502,50.2832],[-120.88498,50.28312],[-120.88482,50.28295],[-120.88471,50.2829],[-120.88457,50.28291],[-120.8843,50.28297],[-120.88417,50.283],[-120.88407,50.28303],[-120.88388,50.28315],[-120.88368,50.28322],[-120.88354,50.28321],[-120.88321,50.28315],[-120.883,50.28313],[-120.88286,50.28308],[-120.88271,50.28303],[-120.88255,50.28295],[-120.88281,50.28362],[-120.88294,50.28389],[-120.883,50.28404],[-120.883,50.28493],[-120.88312,50.28524],[-120.88317,50.28535],[-120.88329,50.28548],[-120.88342,50.28573],[-120.88346,50.28724],[-120.88352,50.28851],[-120.88367,50.28957],[-120.88362,50.29015],[-120.88371,50.29083],[-120.88385,50.29082],[-120.88412,50.29077],[-120.88443,50.2907],[-120.88472,50.29053],[-120.88502,50.29035],[-120.88511,50.29028],[-120.8852,50.29025],[-120.88551,50.29022],[-120.8858,50.29023],[-120.88591,50.29025],[-120.88598,50.2903],[-120.88622,50.2903],[-120.88645,50.29028],[-120.88659,50.29027],[-120.88663,50.29021],[-120.88668,50.29013],[-120.88682,50.29],[-120.88695,50.28991],[-120.88727,50.28977],[-120.8875,50.28968],[-120.88764,50.2896],[-120.88773,50.28956],[-120.88791,50.2895],[-120.88804,50.2895],[-120.88814,50.28952],[-120.88835,50.28966],[-120.8885,50.28979],[-120.88869,50.28997],[-120.88887,50.29007],[-120.88914,50.29025],[-120.88922,50.29032],[-120.8893,50.29046],[-120.88942,50.29057],[-120.88961,50.2907],[-120.88989,50.29086],[-120.89013,50.29104],[-120.89042,50.29115],[-120.89053,50.29117],[-120.89062,50.29119],[-120.89077,50.29118],[-120.89091,50.29116],[-120.891,50.29114],[-120.8913,50.2911],[-120.89145,50.29103],[-120.89174,50.29096],[-120.89181,50.291],[-120.89195,50.29113],[-120.89205,50.29122],[-120.89221,50.29137],[-120.8924,50.29152],[-120.89254,50.29164],[-120.89267,50.29178],[-120.89279,50.29193],[-120.89301,50.29209],[-120.8931,50.29226],[-120.89314,50.29236],[-120.89314,50.29248],[-120.89315,50.29264],[-120.89317,50.2928],[-120.89322,50.29294],[-120.89327,50.29316],[-120.89333,50.29328]]}},
{"type":"Feature","properties":{"spotId":"A-moose-atv-0058","kind":"walk","km":0.33,"climbM":11,"name":"2.4 km E of Tyner Lake rec site","flags":[]},"geometry":{"type":"LineString","coordinates":[[-120.89333,50.29328],[-120.89782,50.29274]]}},
{"type":"Feature","properties":{"spotId":"A-moose-drive-0075","kind":"walk","km":0.23,"climbM":1,"name":"290 m NE of Billy Lake","flags":[]},"geometry":{"type":"LineString","coordinates":[[-120.90536,50.41202],[-120.90262,50.41307]]}},
{"type":"Feature","properties":{"spotId":"A-moose-walk-0034","kind":"walk","km":5.94,"climbM":361,"name":"By Quenville Creek","flags":["Route crosses private land (ParcelMap BC, updated 2026-09-25): get permission first or go around."]},"geometry":{"type":"LineString","coordinates":[[-120.80526,50.42971],[-120.80477,50.42977],[-120.80468,50.42982],[-120.80453,50.42994],[-120.80446,50.42998],[-120.8043,50.43012],[-120.80425,50.43017],[-120.80389,50.43034],[-120.80379,50.43036],[-120.80368,50.4304],[-120.80359,50.43042],[-120.80334,50.43043],[-120.80312,50.43043],[-120.8029,50.43043],[-120.80276,50.43045],[-120.8025,50.43055],[-120.80215,50.43066],[-120.80206,50.43072],[-120.80177,50.43087],[-120.80157,50.43096],[-120.80098,50.43116],[-120.80087,50.43124],[-120.80086,50.43125],[-120.80074,50.43132],[-120.80071,50.43136],[-120.80066,50.43142],[-120.80048,50.43161],[-120.80031,50.43168],[-120.80017,50.43177],[-120.80001,50.43186],[-120.79991,50.43191],[-120.79979,50.43197],[-120.79962,50.43203],[-120.79933,50.43216],[-120.79927,50.4322],[-120.79898,50.43239],[-120.79891,50.43244],[-120.79872,50.43264],[-120.79866,50.43274],[-120.79867,50.4328],[-120.79863,50.43302],[-120.79858,50.43317],[-120.7985,50.43336],[-120.79838,50.43351],[-120.79828,50.43359],[-120.79818,50.43363],[-120.79812,50.43363],[-120.79801,50.43363],[-120.79795,50.43363],[-120.79786,50.43362],[-120.79783,50.43361],[-120.79776,50.43359],[-120.79765,50.43353],[-120.7976,50.43346],[-120.79758,50.43345],[-120.7975,50.4333],[-120.79744,50.43319],[-120.79735,50.433],[-120.79733,50.43286],[-120.79732,50.43265],[-120.79734,50.4326],[-120.79731,50.43252],[-120.79728,50.43236],[-120.79727,50.43222],[-120.79728,50.43216],[-120.79725,50.43206],[-120.79721,50.43186],[-120.79719,50.43165],[-120.79715,50.43146],[-120.79717,50.43115],[-120.79732,50.43092],[-120.79747,50.43069],[-120.79759,50.43058],[-120.79769,50.43046],[-120.79771,50.43036],[-120.79775,50.43021],[-120.79778,50.43003],[-120.79788,50.42984],[-120.79788,50.42965],[-120.79786,50.42951],[-120.79786,50.42933],[-120.79785,50.42926],[-120.7978,50.42909],[-120.79779,50.42895],[-120.79777,50.42889],[-120.79764,50.42876],[-120.79751,50.42865],[-120.79727,50.42844],[-120.7972,50.42838],[-120.79714,50.42833],[-120.79708,50.42828],[-120.79707,50.42818],[-120.79707,50.42799],[-120.79714,50.42778],[-120.79715,50.42762],[-120.79711,50.4275],[-120.79709,50.4274],[-120.79708,50.42725],[-120.79688,50.42709],[-120.79674,50.427],[-120.79652,50.42689],[-120.7963,50.42677],[-120.79618,50.42672],[-120.796,50.42663],[-120.7959,50.42659],[-120.79563,50.42658],[-120.79548,50.42649],[-120.7954,50.42642],[-120.79529,50.42617],[-120.79522,50.42603],[-120.7952,50.42597],[-120.79517,50.42591],[-120.79502,50.42581],[-120.79486,50.42569],[-120.79468,50.42559],[-120.79451,50.42555],[-120.79443,50.42553],[-120.79422,50.42549],[-120.79403,50.42544],[-120.7938,50.42541],[-120.79349,50.42535],[-120.79331,50.42531],[-120.79323,50.42528],[-120.79316,50.42524],[-120.79304,50.42518],[-120.79271,50.42503],[-120.7925,50.42499],[-120.79225,50.42491],[-120.79204,50.42483],[-120.79172,50.4247],[-120.79146,50.42459],[-120.79131,50.42449],[-120.79105,50.42439],[-120.79084,50.42433],[-120.79055,50.4242],[-120.79035,50.42419],[-120.79016,50.42415],[-120.78998,50.4241],[-120.78973,50.42403],[-120.78941,50.42395],[-120.78929,50.42392],[-120.78905,50.4238],[-120.7889,50.4237],[-120.78869,50.42363],[-120.78859,50.42356],[-120.78851,50.42355],[-120.78844,50.42352],[-120.78794,50.42332],[-120.78785,50.42329],[-120.78772,50.42325],[-120.78757,50.42321],[-120.78747,50.42316],[-120.78717,50.42301],[-120.78697,50.42284],[-120.78683,50.42275],[-120.78651,50.42259],[-120.78633,50.42254],[-120.78623,50.42254],[-120.786,50.42247],[-120.78585,50.42238],[-120.78572,50.42236],[-120.78562,50.42236],[-120.78531,50.42237],[-120.78503,50.4224],[-120.78494,50.42242],[-120.78459,50.4225],[-120.78449,50.42252],[-120.7842,50.42262],[-120.78404,50.42274],[-120.78387,50.42279],[-120.7837,50.42283],[-120.78353,50.42291],[-120.7832,50.42306],[-120.78297,50.4231],[-120.78277,50.42317],[-120.78248,50.42328],[-120.7824,50.42328],[-120.78205,50.42328],[-120.78172,50.42329],[-120.78144,50.42329],[-120.78124,50.42332],[-120.78093,50.42335],[-120.7808,50.42336],[-120.7807,50.42338],[-120.78039,50.42339],[-120.78029,50.42341],[-120.7799,50.42342],[-120.77971,50.42346],[-120.77949,50.42345],[-120.77916,50.42346],[-120.77887,50.42341],[-120.77857,50.42333],[-120.77826,50.42316],[-120.778,50.42305],[-120.77789,50.42302],[-120.77758,50.42299],[-120.77737,50.42295],[-120.77705,50.42292],[-120.77697,50.4229],[-120.77676,50.42287],[-120.77649,50.42284],[-120.77624,50.42277],[-120.77596,50.42269],[-120.77586,50.42269],[-120.77557,50.42264],[-120.77526,50.42262],[-120.77511,50.42263],[-120.77504,50.42261],[-120.77497,50.4226],[-120.77477,50.42255],[-120.77461,50.4225],[-120.77429,50.42241],[-120.77415,50.4224],[-120.77398,50.42235],[-120.77388,50.42235],[-120.7737,50.42229],[-120.77362,50.42226],[-120.77337,50.42218],[-120.77309,50.422],[-120.77304,50.42195],[-120.77281,50.42172],[-120.77272,50.42168],[-120.7724,50.42149],[-120.77226,50.42139],[-120.77196,50.4212],[-120.77183,50.42109],[-120.77172,50.42098],[-120.77159,50.42082],[-120.77144,50.42068],[-120.77126,50.42051],[-120.77111,50.42042],[-120.77102,50.42041],[-120.7708,50.42041],[-120.77072,50.42044],[-120.77059,50.42044],[-120.7704,50.42038],[-120.77022,50.42026],[-120.77013,50.42015],[-120.77006,50.42009],[-120.76987,50.41992],[-120.76971,50.41981],[-120.76945,50.41977],[-120.76919,50.41976],[-120.76892,50.41975],[-120.76869,50.41975],[-120.76848,50.4198],[-120.76827,50.41989],[-120.76806,50.42005],[-120.768,50.4201],[-120.76781,50.42029],[-120.76759,50.42046],[-120.76745,50.42056],[-120.76713,50.42073],[-120.76703,50.42075],[-120.76672,50.42074],[-120.76644,50.42068],[-120.76636,50.42065],[-120.76605,50.42055],[-120.76573,50.42045],[-120.76542,50.4203],[-120.76524,50.42019],[-120.76514,50.42015],[-120.76483,50.41999],[-120.76482,50.41991],[-120.76476,50.41981],[-120.76467,50.41962],[-120.76459,50.41941],[-120.76454,50.41921],[-120.76452,50.41899],[-120.76454,50.41886],[-120.76456,50.41869],[-120.76459,50.41847],[-120.76466,50.41838],[-120.76469,50.41836],[-120.76476,50.41832],[-120.76491,50.41819],[-120.76494,50.41814],[-120.76505,50.41791],[-120.76514,50.4178],[-120.76536,50.41759],[-120.76537,50.41744],[-120.76533,50.41738],[-120.76507,50.41716],[-120.76499,50.41713],[-120.76468,50.41712],[-120.76458,50.41713],[-120.76441,50.41722],[-120.76425,50.41737],[-120.76409,50.41745],[-120.764,50.41749],[-120.76372,50.41755],[-120.76364,50.4176],[-120.76357,50.4177],[-120.76349,50.41777],[-120.76341,50.41788],[-120.76328,50.41807],[-120.76315,50.41824],[-120.763,50.41836],[-120.76296,50.41842],[-120.76281,50.4186],[-120.76262,50.41875],[-120.76247,50.41885],[-120.76221,50.41896],[-120.76197,50.41905],[-120.76186,50.41906],[-120.7616,50.41906],[-120.76148,50.41908],[-120.76123,50.41913],[-120.76101,50.41916],[-120.76087,50.41916],[-120.76063,50.41917],[-120.76029,50.4192],[-120.76003,50.4192],[-120.75985,50.41915],[-120.75974,50.41911],[-120.75966,50.41909],[-120.75935,50.41909],[-120.75904,50.4191],[-120.75874,50.4191],[-120.75852,50.41906],[-120.75844,50.41903],[-120.75813,50.41894],[-120.75781,50.41894],[-120.75757,50.41893],[-120.75727,50.41891],[-120.75715,50.41891],[-120.75682,50.41891],[-120.75651,50.41893],[-120.75618,50.41893],[-120.75606,50.41895],[-120.75589,50.41903],[-120.75556,50.41915],[-120.75539,50.41925],[-120.75531,50.41937],[-120.75529,50.41944],[-120.75521,50.41962],[-120.75511,50.41974],[-120.75496,50.41985],[-120.75484,50.41988],[-120.75463,50.41997],[-120.75443,50.42005],[-120.75412,50.42011],[-120.75402,50.42012],[-120.75377,50.42015],[-120.75359,50.42023],[-120.75348,50.42033],[-120.75339,50.42038],[-120.75315,50.42044],[-120.75311,50.42045],[-120.75293,50.42052],[-120.75283,50.42065],[-120.75281,50.4207],[-120.75279,50.42091],[-120.75032,50.42254]]}},
{"type":"Feature","properties":{"spotId":"A-moose-walk-0109","kind":"walk","km":1.57,"climbM":25,"name":"By LeRoy Lake","flags":[]},"geometry":{"type":"LineString","coordinates":[[-120.87729,50.39534],[-120.87723,50.39559],[-120.87721,50.39576],[-120.87721,50.39586],[-120.87736,50.396],[-120.87752,50.39611],[-120.8777,50.3963],[-120.87774,50.39649],[-120.87773,50.39675],[-120.8777,50.39683],[-120.87772,50.39692],[-120.87777,50.39711],[-120.8779,50.3973],[-120.87801,50.3975],[-120.87805,50.39755],[-120.8781,50.3977],[-120.87819,50.39791],[-120.87821,50.39799],[-120.87833,50.3982],[-120.87842,50.39839],[-120.87847,50.39858],[-120.8785,50.39875],[-120.87849,50.39906],[-120.87845,50.39916],[-120.87847,50.39934],[-120.87856,50.39953],[-120.87855,50.39976],[-120.87859,50.39995],[-120.87859,50.4],[-120.8786,50.40005],[-120.87865,50.40023],[-120.87872,50.40044],[-120.87875,50.40051],[-120.87874,50.40058],[-120.87875,50.40065],[-120.87874,50.40105],[-120.87877,50.40124],[-120.87462,50.40884]]}},
{"type":"Feature","properties":{"spotId":"A-moose-walk-0111","kind":"walk","km":1.03,"climbM":79,"name":"2.4 km E of Tyner Lake rec site","flags":[]},"geometry":{"type":"LineString","coordinates":[[-120.91001,50.28766],[-120.89804,50.29281]]}}
]}
