{"type":"FeatureCollection","features":[
{"type":"Feature","properties":{"spotId":"A-camp-camp-0114","kind":"walk","km":0.19,"climbM":2,"name":"3.3 km S of Young Lake","flags":[]},"geometry":{"type":"LineString","coordinates":[[-121.01755,51.22445],[-121.02024,51.22492]]}},
{"type":"Feature","properties":{"spotId":"A-deer-drive-0011","kind":"walk","km":0.07,"climbM":0,"name":"860 m S of Dougherty Lake","flags":[]},"geometry":{"type":"LineString","coordinates":[[-121.24557,51.12892],[-121.24591,51.12836]]}},
{"type":"Feature","properties":{"spotId":"A-deer-drive-0012","kind":"walk","km":0.29,"climbM":80,"name":"500 m N of Loon Lake","flags":["Route crosses private land (ParcelMap BC, updated 2026-09-25): get permission first or go around."]},"geometry":{"type":"LineString","coordinates":[[-121.18033,51.13585],[-121.18347,51.13752]]}},
{"type":"Feature","properties":{"spotId":"A-deer-drive-0018","kind":"walk","km":0.21,"climbM":0,"name":"370 m SE of Bonaparte River","flags":[]},"geometry":{"type":"LineString","coordinates":[[-121.21073,51.22297],[-121.21261,51.22441]]}},
{"type":"Feature","properties":{"spotId":"A-deer-drive-0152","kind":"walk","km":0.07,"climbM":6,"name":"1.9 km S of Hihium Lake","flags":[]},"geometry":{"type":"LineString","coordinates":[[-121.10551,51.03003],[-121.10609,51.03059]]}},
{"type":"Feature","properties":{"spotId":"A-deer-walk-0183","kind":"walk","km":0.37,"climbM":22,"name":"1.0 km NW of Hihium Lake","flags":[]},"geometry":{"type":"LineString","coordinates":[[-121.14508,51.06575],[-121.14501,51.06654],[-121.14499,51.06663],[-121.1449,51.06678],[-121.14478,51.06693],[-121.1447,51.06706],[-121.14461,51.06722],[-121.1445,51.06737],[-121.14437,51.06749],[-121.14421,51.06763],[-121.14407,51.06775],[-121.14393,51.06786],[-121.14372,51.06795],[-121.14337,51.06814],[-121.14333,51.06818],[-121.14326,51.06826],[-121.14311,51.0684],[-121.14305,51.06851],[-121.14303,51.06864],[-121.14303,51.06865]]}},
{"type":"Feature","properties":{"spotId":"A-deer-walk-0207","kind":"walk","km":1.38,"climbM":60,"name":"910 m S of Brigade Creek","flags":[]},"geometry":{"type":"LineString","coordinates":[[-121.08572,51.12731],[-121.09064,51.11527]]}},
{"type":"Feature","properties":{"spotId":"A-duck-walk-0073","kind":"walk","km":0.37,"climbM":5,"name":"Unnamed wetland 3.4 km NW of Chartrand Lake","flags":[]},"geometry":{"type":"LineString","coordinates":[[-121.04682,51.08217],[-121.04183,51.08336]]}},
{"type":"Feature","properties":{"spotId":"A-grouse-drive-0019","kind":"roadside","km":5.14,"climbM":126,"name":"By Brigade Creek","flags":[]},"geometry":{"type":"LineString","coordinates":[[-121.11324,51.14167],[-121.11314,51.14154],[-121.11302,51.14142],[-121.11288,51.14127],[-121.11273,51.14113],[-121.11259,51.14101],[-121.11245,51.14089],[-121.11242,51.14088],[-121.11227,51.14076],[-121.11213,51.14062],[-121.11195,51.14047],[-121.11172,51.14029],[-121.11152,51.14012],[-121.11137,51.13997],[-121.11124,51.13983],[-121.11111,51.13969],[-121.11099,51.13955],[-121.1108,51.13937],[-121.1106,51.1392],[-121.11047,51.13908],[-121.11033,51.13895],[-121.11016,51.13883],[-121.10997,51.13872],[-121.10982,51.13868],[-121.10975,51.13867],[-121.10941,51.13856],[-121.10906,51.13844],[-121.10875,51.13831],[-121.10853,51.13821],[-121.1083,51.13814],[-121.10809,51.13805],[-121.1079,51.13796],[-121.10768,51.13789],[-121.10747,51.13778],[-121.10729,51.13766],[-121.10711,51.13757],[-121.10689,51.13748],[-121.10669,51.13739],[-121.10649,51.13727],[-121.1063,51.13716],[-121.10603,51.13703],[-121.10581,51.13689],[-121.10554,51.13672],[-121.10531,51.13655],[-121.1051,51.13642],[-121.10493,51.13631],[-121.1047,51.13617],[-121.10447,51.13603],[-121.10428,51.13593],[-121.10421,51.13591],[-121.10406,51.13586],[-121.10384,51.13576],[-121.10367,51.13571],[-121.10359,51.13568],[-121.10349,51.13566],[-121.1034,51.13564],[-121.10313,51.1356],[-121.10291,51.13554],[-121.10278,51.13553],[-121.10269,51.13552],[-121.10259,51.13552],[-121.10252,51.13552],[-121.10238,51.13552],[-121.10223,51.13552],[-121.10213,51.13552],[-121.10189,51.13553],[-121.1016,51.13557],[-121.10137,51.13562],[-121.10108,51.13568],[-121.10081,51.1357],[-121.10058,51.13572],[-121.10027,51.13572],[-121.1,51.13571],[-121.09974,51.13571],[-121.09947,51.13568],[-121.09918,51.13565],[-121.09886,51.13561],[-121.09862,51.13559],[-121.09836,51.13557],[-121.09803,51.13553],[-121.09779,51.1355],[-121.09756,51.13546],[-121.09728,51.1354],[-121.09721,51.13537],[-121.09707,51.13531],[-121.09686,51.13521],[-121.09663,51.13508],[-121.09644,51.13497],[-121.09627,51.13485],[-121.09609,51.13475],[-121.0959,51.13465],[-121.09571,51.13453],[-121.09552,51.13442],[-121.09534,51.13431],[-121.09514,51.13422],[-121.09496,51.13412],[-121.09488,51.13408],[-121.09467,51.13397],[-121.0946,51.13392],[-121.09447,51.13386],[-121.09412,51.13364],[-121.09398,51.13352],[-121.09383,51.13338],[-121.09368,51.13322],[-121.09353,51.13304],[-121.09342,51.13289],[-121.0933,51.13275],[-121.09321,51.1326],[-121.09317,51.13241],[-121.09316,51.13226],[-121.09316,51.13209],[-121.09309,51.13191],[-121.09301,51.13177],[-121.0929,51.13163],[-121.09278,51.13149],[-121.09264,51.13136],[-121.09255,51.13123],[-121.09243,51.13107],[-121.09233,51.13092],[-121.09221,51.13075],[-121.09212,51.13059],[-121.09202,51.13044],[-121.09186,51.13027],[-121.09168,51.13012],[-121.09151,51.13],[-121.09129,51.12988],[-121.09109,51.1298],[-121.09098,51.12979],[-121.09084,51.12977],[-121.09058,51.12974],[-121.09031,51.12964],[-121.09006,51.12956],[-121.08983,51.1295],[-121.08958,51.12944],[-121.08939,51.12937],[-121.0892,51.12926],[-121.08902,51.12914],[-121.08881,51.12899],[-121.08864,51.12885],[-121.08845,51.12869],[-121.0883,51.12856],[-121.08813,51.12844],[-121.08795,51.12831],[-121.08777,51.12821],[-121.08755,51.12808],[-121.08738,51.12799],[-121.0873,51.12794],[-121.08703,51.1278],[-121.08678,51.12767],[-121.0866,51.12758],[-121.08638,51.1275],[-121.08617,51.12742],[-121.08596,51.12735],[-121.08578,51.12732],[-121.08572,51.12731],[-121.08544,51.12731],[-121.08519,51.12732],[-121.08495,51.12736],[-121.08472,51.12739],[-121.08446,51.12742],[-121.08417,51.12744],[-121.08393,51.12744],[-121.0837,51.12744],[-121.08344,51.12743],[-121.08319,51.1274],[-121.08292,51.12736],[-121.08268,51.12731],[-121.08246,51.12728],[-121.08222,51.12723],[-121.08198,51.12716],[-121.08179,51.12708],[-121.08157,51.127],[-121.08138,51.12693],[-121.08112,51.12682],[-121.0809,51.12673],[-121.0807,51.12664],[-121.08049,51.12654],[-121.0803,51.12646],[-121.08006,51.12637],[-121.07988,51.12628],[-121.07965,51.1262],[-121.07944,51.12612],[-121.07921,51.12606],[-121.079,51.12601],[-121.07883,51.12595],[-121.07878,51.12593],[-121.07856,51.12585],[-121.07838,51.12573],[-121.0782,51.12562],[-121.07801,51.1255],[-121.07781,51.12538],[-121.07777,51.12536],[-121.07762,51.12528],[-121.07739,51.12517],[-121.07718,51.12507],[-121.07699,51.12498],[-121.07679,51.12487],[-121.07673,51.12485],[-121.07655,51.12478],[-121.07635,51.12469],[-121.07614,51.1246],[-121.07592,51.12451],[-121.07568,51.12443],[-121.07545,51.12436],[-121.07523,51.12428],[-121.07499,51.12419],[-121.07478,51.12411],[-121.07455,51.12405],[-121.07433,51.12399],[-121.07409,51.12391],[-121.07386,51.12384],[-121.07365,51.12379],[-121.07348,51.12375],[-121.07341,51.12374],[-121.07315,51.12369],[-121.07285,51.12363],[-121.07255,51.12361],[-121.07228,51.1236],[-121.07201,51.12359],[-121.07174,51.12359],[-121.0715,51.12359],[-121.07121,51.12359],[-121.07096,51.12359],[-121.07067,51.1236],[-121.07043,51.12361],[-121.07014,51.12366],[-121.07004,51.12367],[-121.06989,51.12371],[-121.06961,51.12375],[-121.0693,51.12375],[-121.06912,51.12374],[-121.06901,51.12373],[-121.06878,51.12371],[-121.06849,51.12369],[-121.06827,51.12367],[-121.06801,51.12363],[-121.06777,51.12359],[-121.06748,51.12354],[-121.06719,51.12349],[-121.06693,51.12347],[-121.06662,51.12343],[-121.06632,51.1234],[-121.06608,51.12336],[-121.06578,51.12331],[-121.0655,51.12325],[-121.06523,51.12319],[-121.06499,51.12315],[-121.06474,51.12311],[-121.06452,51.12307],[-121.06426,51.12303],[-121.06405,51.12296],[-121.06393,51.12293],[-121.0638,51.12289],[-121.06356,51.1228],[-121.06336,51.12272],[-121.06316,51.12264],[-121.06294,51.12256],[-121.06271,51.12247],[-121.06252,51.1224],[-121.06243,51.12236],[-121.06231,51.1223],[-121.0621,51.12221],[-121.06193,51.12211],[-121.0618,51.122],[-121.06167,51.12187],[-121.06159,51.12172],[-121.06156,51.12158],[-121.06158,51.12143],[-121.06159,51.12128],[-121.06161,51.1211],[-121.06165,51.12099],[-121.06181,51.12088],[-121.06205,51.12079],[-121.06224,51.12068],[-121.06248,51.12058],[-121.06268,51.1205],[-121.06288,51.12042],[-121.06325,51.1203],[-121.06342,51.12017],[-121.06363,51.12005],[-121.06389,51.11992],[-121.06411,51.1198],[-121.06432,51.11967],[-121.06452,51.11956],[-121.06471,51.11946],[-121.06489,51.11934],[-121.06499,51.11926],[-121.06504,51.11923],[-121.06521,51.1191],[-121.06537,51.11898],[-121.06555,51.11887],[-121.06576,51.11875],[-121.06596,51.11862],[-121.06612,51.11852],[-121.06631,51.11839],[-121.0665,51.11827],[-121.06668,51.11817],[-121.06693,51.11804],[-121.06699,51.11801]]}},
{"type":"Feature","properties":{"spotId":"A-grouse-drive-0040","kind":"roadside","km":4.62,"climbM":64,"name":"2.6 km N of Bonaparte River Bridge rec site","flags":[]},"geometry":{"type":"LineString","coordinates":[[-121.23567,51.23936],[-121.2359,51.23935],[-121.23591,51.23935],[-121.23599,51.23936],[-121.23623,51.23934],[-121.2365,51.23934],[-121.23679,51.23933],[-121.23709,51.23931],[-121.23737,51.23926],[-121.2376,51.23921],[-121.23788,51.23916],[-121.23814,51.23911],[-121.23842,51.23906],[-121.23869,51.239],[-121.23898,51.23894],[-121.23927,51.2389],[-121.23957,51.23884],[-121.23985,51.23878],[-121.24015,51.23874],[-121.24045,51.2387],[-121.24075,51.23866],[-121.24104,51.23861],[-121.24135,51.23857],[-121.2416,51.23853],[-121.24188,51.2385],[-121.24215,51.23848],[-121.24242,51.23846],[-121.2427,51.23845],[-121.24298,51.23842],[-121.24324,51.23839],[-121.2435,51.2384],[-121.24381,51.23844],[-121.24406,51.23847],[-121.24434,51.23852],[-121.24464,51.23854],[-121.2449,51.23855],[-121.24513,51.23856],[-121.2452,51.23856],[-121.24537,51.23855],[-121.24567,51.23857],[-121.2459,51.23861],[-121.24614,51.23865],[-121.24638,51.23869],[-121.24665,51.23873],[-121.24688,51.23876],[-121.24712,51.2388],[-121.24738,51.23884],[-121.24764,51.23887],[-121.24788,51.2389],[-121.24812,51.23891],[-121.24841,51.2389],[-121.24864,51.23887],[-121.24893,51.23884],[-121.24922,51.23881],[-121.24948,51.23875],[-121.24978,51.23871],[-121.25005,51.2387],[-121.25035,51.23871],[-121.25061,51.23874],[-121.25088,51.23876],[-121.25115,51.23878],[-121.25139,51.23879],[-121.25165,51.2388],[-121.25191,51.23881],[-121.25215,51.23884],[-121.25245,51.23887],[-121.25268,51.2389],[-121.25296,51.23894],[-121.25325,51.23894],[-121.25352,51.23894],[-121.25381,51.23895],[-121.25387,51.23896],[-121.25408,51.23899],[-121.25434,51.23903],[-121.25459,51.23909],[-121.25486,51.23915],[-121.25512,51.23924],[-121.25533,51.23933],[-121.25553,51.23941],[-121.25578,51.23949],[-121.25605,51.23956],[-121.25633,51.23963],[-121.25656,51.23968],[-121.2566,51.23969],[-121.25686,51.23974],[-121.25716,51.23979],[-121.25743,51.23982],[-121.25769,51.23985],[-121.25796,51.23989],[-121.2582,51.2399],[-121.25843,51.23988],[-121.25866,51.23985],[-121.25888,51.23979],[-121.25912,51.23971],[-121.25934,51.23965],[-121.25959,51.23957],[-121.25976,51.23947],[-121.25988,51.23936],[-121.2599,51.23922],[-121.25991,51.23908],[-121.25993,51.2389],[-121.26001,51.23875],[-121.26004,51.23859],[-121.26005,51.23843],[-121.26001,51.23825],[-121.25997,51.2381],[-121.25996,51.23795],[-121.25997,51.23778],[-121.26001,51.23761],[-121.26008,51.23745],[-121.26017,51.23732],[-121.26035,51.23716],[-121.26054,51.23703],[-121.26071,51.23692],[-121.2609,51.2368],[-121.26109,51.23667],[-121.26132,51.2366],[-121.26161,51.23654],[-121.26185,51.23651],[-121.2621,51.23648],[-121.26234,51.23647],[-121.2626,51.23647],[-121.26286,51.23648],[-121.26311,51.23647],[-121.26336,51.23646],[-121.2636,51.23645],[-121.26388,51.23644],[-121.26415,51.23641],[-121.26442,51.23639],[-121.26471,51.23636],[-121.265,51.23633],[-121.26527,51.23629],[-121.26549,51.23625],[-121.26573,51.23621],[-121.26598,51.23616],[-121.26625,51.23608],[-121.26646,51.236],[-121.26666,51.2359],[-121.26689,51.23578],[-121.26707,51.23569],[-121.26723,51.23558],[-121.26738,51.23544],[-121.26751,51.2353],[-121.26763,51.23516],[-121.26774,51.23503],[-121.26783,51.23486],[-121.26794,51.23468],[-121.26803,51.23452],[-121.26812,51.23436],[-121.2682,51.23421],[-121.26826,51.23402],[-121.26827,51.23382],[-121.26829,51.23361],[-121.26836,51.2334],[-121.26842,51.23319],[-121.26852,51.23299],[-121.26858,51.23285],[-121.26867,51.23266],[-121.26877,51.23248],[-121.26884,51.23233],[-121.26895,51.23219],[-121.2691,51.23204],[-121.26926,51.2319],[-121.26945,51.23182],[-121.26959,51.2318],[-121.26968,51.23179],[-121.26994,51.2318],[-121.27022,51.23182],[-121.27049,51.23183],[-121.27075,51.23183],[-121.271,51.23185],[-121.27125,51.23186],[-121.27151,51.23189],[-121.27174,51.23194],[-121.27201,51.23199],[-121.27226,51.232],[-121.27256,51.23201],[-121.27284,51.23205],[-121.27306,51.23209],[-121.2733,51.23213],[-121.27356,51.23217],[-121.2738,51.23222],[-121.27404,51.23227],[-121.27427,51.23233],[-121.27448,51.23238],[-121.27474,51.23245],[-121.27495,51.23252],[-121.27516,51.23257],[-121.27541,51.23265],[-121.27562,51.23271],[-121.27583,51.23276],[-121.27602,51.23278],[-121.2762,51.2328],[-121.27637,51.23285],[-121.2766,51.23287],[-121.27693,51.23293],[-121.27718,51.23296],[-121.27744,51.23292],[-121.2777,51.23285],[-121.27798,51.23278],[-121.27824,51.23271],[-121.27851,51.23266],[-121.27879,51.23262],[-121.27905,51.23258],[-121.27932,51.23254],[-121.27957,51.2325],[-121.2798,51.23244],[-121.28003,51.23239],[-121.28027,51.23233],[-121.28052,51.23228],[-121.28078,51.23223],[-121.28104,51.23218],[-121.28128,51.23212],[-121.28153,51.23207],[-121.28179,51.23202],[-121.28203,51.23197],[-121.28229,51.23192],[-121.28261,51.23186],[-121.28294,51.23182],[-121.28299,51.23181],[-121.28334,51.23181],[-121.28363,51.23184],[-121.28381,51.23187],[-121.28403,51.23188],[-121.28424,51.23189],[-121.28446,51.2319],[-121.28469,51.2319],[-121.28479,51.23192],[-121.28514,51.23197],[-121.28531,51.232],[-121.28548,51.23203],[-121.28557,51.23206],[-121.28575,51.23212],[-121.28595,51.23218],[-121.28614,51.23225],[-121.28633,51.23232],[-121.28657,51.2324],[-121.28681,51.23248],[-121.28705,51.23255],[-121.2873,51.23263],[-121.28748,51.23267],[-121.28767,51.2327],[-121.28786,51.23274],[-121.28806,51.23277],[-121.28823,51.23279],[-121.28842,51.2328],[-121.28861,51.23283],[-121.28896,51.23288],[-121.2891,51.23292],[-121.28931,51.23303],[-121.28953,51.23314],[-121.28985,51.23323],[-121.29019,51.23331],[-121.29051,51.23337],[-121.29083,51.23339],[-121.29109,51.23337],[-121.29135,51.23332],[-121.29147,51.23329],[-121.29156,51.23328]]}},
{"type":"Feature","properties":{"spotId":"A-grouse-drive-0098","kind":"roadside","km":4.3,"climbM":18,"name":"1.0 km S of Thunder Creek","flags":[]},"geometry":{"type":"LineString","coordinates":[[-121.1619,51.07003],[-121.16156,51.07003],[-121.16123,51.07003],[-121.16096,51.07003],[-121.16077,51.07002],[-121.16068,51.07002],[-121.1604,51.07002],[-121.16017,51.07001],[-121.15993,51.07001],[-121.15959,51.07],[-121.15929,51.06998],[-121.15903,51.06993],[-121.15889,51.0699],[-121.15875,51.06988],[-121.15848,51.06983],[-121.1584,51.06982],[-121.15827,51.06978],[-121.15794,51.0697],[-121.15772,51.06967],[-121.15747,51.06964],[-121.15725,51.06962],[-121.15689,51.06959],[-121.15658,51.06957],[-121.15629,51.06954],[-121.15605,51.06951],[-121.15581,51.06948],[-121.15558,51.06945],[-121.15536,51.06941],[-121.15503,51.06936],[-121.1548,51.06934],[-121.15452,51.06933],[-121.15425,51.06931],[-121.15398,51.06928],[-121.15372,51.06926],[-121.15349,51.06923],[-121.15327,51.0692],[-121.15304,51.06919],[-121.15273,51.06917],[-121.15243,51.06915],[-121.15233,51.06914],[-121.15216,51.06912],[-121.15191,51.06909],[-121.15173,51.06908],[-121.15164,51.06908],[-121.15136,51.06906],[-121.15106,51.06903],[-121.15073,51.06899],[-121.15063,51.06899],[-121.15048,51.06898],[-121.15032,51.06897],[-121.15011,51.06895],[-121.14988,51.06893],[-121.14955,51.06889],[-121.14926,51.06884],[-121.14896,51.06881],[-121.14883,51.0688],[-121.14866,51.06878],[-121.14839,51.06874],[-121.14815,51.06872],[-121.14781,51.0687],[-121.14755,51.06869],[-121.14732,51.06868],[-121.14709,51.06867],[-121.14676,51.06866],[-121.14664,51.06866],[-121.14645,51.06866],[-121.14618,51.06865],[-121.14594,51.06865],[-121.1457,51.06864],[-121.14552,51.06865],[-121.14544,51.06865],[-121.14518,51.06864],[-121.14491,51.06864],[-121.14467,51.06864],[-121.14437,51.06864],[-121.1441,51.06864],[-121.1438,51.06864],[-121.1437,51.06864],[-121.14351,51.06864],[-121.14345,51.06864],[-121.14327,51.06865],[-121.14303,51.06865],[-121.14277,51.06867],[-121.14271,51.06867],[-121.14254,51.06867],[-121.14223,51.06868],[-121.14194,51.06871],[-121.14168,51.06873],[-121.14134,51.06876],[-121.14102,51.06877],[-121.14074,51.06877],[-121.14041,51.06878],[-121.14018,51.06877],[-121.13995,51.06878],[-121.13971,51.06878],[-121.13941,51.06879],[-121.13912,51.06879],[-121.13895,51.06879],[-121.13888,51.06879],[-121.13862,51.06879],[-121.13837,51.06879],[-121.13808,51.06877],[-121.1378,51.06876],[-121.13751,51.06876],[-121.13726,51.06874],[-121.13701,51.06873],[-121.13673,51.06873],[-121.13644,51.06872],[-121.1362,51.06872],[-121.13596,51.06874],[-121.13574,51.06881],[-121.13549,51.06886],[-121.13528,51.0689],[-121.13508,51.06893],[-121.13485,51.06898],[-121.1346,51.069],[-121.13435,51.069],[-121.1341,51.06904],[-121.13383,51.06907],[-121.13354,51.06908],[-121.13327,51.06908],[-121.13296,51.06908],[-121.13269,51.06908],[-121.13242,51.0691],[-121.13214,51.06914],[-121.13191,51.06917],[-121.13168,51.06919],[-121.13144,51.0692],[-121.13116,51.06919],[-121.13087,51.06915],[-121.13065,51.06913],[-121.13038,51.06908],[-121.13013,51.06905],[-121.12989,51.06906],[-121.12963,51.06906],[-121.12941,51.06909],[-121.12917,51.06918],[-121.12893,51.06928],[-121.12856,51.06948],[-121.12843,51.06956],[-121.1283,51.06971],[-121.12818,51.06984],[-121.12804,51.07003],[-121.12802,51.07005],[-121.12795,51.07014],[-121.12792,51.07018],[-121.12775,51.07025],[-121.12752,51.07026],[-121.12727,51.07027],[-121.12702,51.07025],[-121.12675,51.07025],[-121.12647,51.07024],[-121.12623,51.07024],[-121.126,51.07025],[-121.12574,51.07029],[-121.12569,51.07032],[-121.12561,51.07035],[-121.12557,51.07036],[-121.12526,51.07056],[-121.12523,51.07057],[-121.12506,51.07069],[-121.12501,51.07071],[-121.12483,51.0708],[-121.12459,51.07085],[-121.12434,51.07089],[-121.12404,51.0709],[-121.12372,51.0709],[-121.12341,51.0709],[-121.12317,51.07089],[-121.12292,51.0709],[-121.12265,51.07089],[-121.12239,51.07089],[-121.12215,51.07088],[-121.12187,51.07089],[-121.12161,51.07088],[-121.12134,51.07088],[-121.1211,51.07089],[-121.12081,51.07088],[-121.12057,51.07088],[-121.12021,51.07088],[-121.12007,51.07087],[-121.11983,51.07087],[-121.1196,51.07086],[-121.11936,51.07087],[-121.11911,51.07086],[-121.11883,51.07086],[-121.11856,51.07086],[-121.11827,51.07086],[-121.11803,51.07085],[-121.11776,51.07085],[-121.11747,51.07085],[-121.11714,51.07086],[-121.11696,51.07086],[-121.1169,51.07086],[-121.11664,51.07089],[-121.11653,51.07089],[-121.1164,51.0709],[-121.11613,51.07091],[-121.11588,51.07091],[-121.11564,51.07091],[-121.11538,51.07092],[-121.11516,51.07092],[-121.11489,51.07091],[-121.11463,51.07091],[-121.11433,51.0709],[-121.11409,51.07087],[-121.11382,51.07085],[-121.11353,51.07083],[-121.11329,51.0708],[-121.11305,51.0708],[-121.11295,51.07079],[-121.11278,51.07078],[-121.11252,51.07075],[-121.11219,51.07073],[-121.11195,51.07072],[-121.11172,51.07073],[-121.11148,51.07073],[-121.11122,51.07073],[-121.11098,51.07075],[-121.11075,51.07078],[-121.11061,51.07082],[-121.11055,51.07082],[-121.11042,51.07086],[-121.11036,51.07087],[-121.11006,51.07096],[-121.10977,51.07104],[-121.10954,51.07112],[-121.10951,51.07113],[-121.10929,51.07119],[-121.10906,51.07126],[-121.10883,51.07132],[-121.1086,51.07138],[-121.10834,51.07142],[-121.10811,51.07147],[-121.10782,51.07152],[-121.10761,51.07157],[-121.10735,51.07162],[-121.10726,51.07163],[-121.10712,51.07166],[-121.10684,51.07172],[-121.10654,51.07177],[-121.10624,51.07182],[-121.106,51.07183],[-121.10575,51.07183],[-121.10551,51.07186],[-121.10521,51.07189],[-121.10497,51.0719],[-121.10471,51.07192],[-121.10444,51.07193],[-121.10419,51.07195],[-121.10391,51.07197],[-121.10362,51.07199],[-121.10338,51.072],[-121.10306,51.07201],[-121.10279,51.072],[-121.10255,51.072],[-121.10249,51.072],[-121.10242,51.072]]}},
{"type":"Feature","properties":{"spotId":"A-moose-walk-0084","kind":"walk","km":0.86,"climbM":89,"name":"820 m S of Bonaparte River","flags":[]},"geometry":{"type":"LineString","coordinates":[[-121.09538,51.25239],[-121.09541,51.25237],[-121.09556,51.25221],[-121.09568,51.25205],[-121.0958,51.2519],[-121.09583,51.25176],[-121.0958,51.2516],[-121.09577,51.25153],[-121.09572,51.25141],[-121.09564,51.25122],[-121.09557,51.25113],[-121.08974,51.24596]]}},
{"type":"Feature","properties":{"spotId":"A-moose-walk-0091","kind":"walk","km":0.53,"climbM":27,"name":"550 m SW of Brigade Creek","flags":[]},"geometry":{"type":"LineString","coordinates":[[-121.02799,51.11176],[-121.02197,51.10886]]}}
]}
