{"type":"FeatureCollection","features":[
{"type":"Feature","properties":{"spotId":"A-camp-camp-0107","kind":"walk","km":0.07,"climbM":0,"name":"2.8 km NW of Nesbitt Lake","flags":[]},"geometry":{"type":"LineString","coordinates":[[-121.14815,50.72949],[-121.14774,50.73003]]}},
{"type":"Feature","properties":{"spotId":"A-deer-atv-0112","kind":"ride","km":8.11,"climbM":240,"name":"850 m SW of Studhorse Creek","flags":[]},"geometry":{"type":"MultiLineString","coordinates":[[[-121.17135,50.69532],[-121.17138,50.69533],[-121.17153,50.69549],[-121.17176,50.69567],[-121.17185,50.69576],[-121.17196,50.69587],[-121.17208,50.69596],[-121.17219,50.69599],[-121.17222,50.696],[-121.17241,50.69606],[-121.17257,50.69608],[-121.17264,50.69609],[-121.17273,50.6961],[-121.17293,50.69616],[-121.17311,50.6962],[-121.17327,50.6962],[-121.17347,50.69619],[-121.17368,50.6962],[-121.17393,50.6962],[-121.17424,50.69625],[-121.17443,50.69628],[-121.17468,50.6963],[-121.17489,50.69628],[-121.175,50.69623],[-121.17511,50.69613],[-121.17524,50.69597],[-121.17535,50.6958],[-121.17546,50.69573],[-121.17564,50.69566],[-121.1758,50.69562],[-121.17619,50.69558],[-121.17666,50.69556],[-121.17721,50.69552],[-121.17753,50.69552],[-121.17782,50.69557],[-121.17814,50.69563],[-121.17848,50.69569],[-121.17866,50.69571],[-121.17886,50.69575],[-121.17919,50.69577],[-121.1795,50.6958],[-121.17982,50.69582],[-121.18025,50.69588],[-121.18056,50.69589],[-121.18079,50.6959],[-121.18101,50.69592],[-121.18122,50.69595],[-121.18137,50.69597],[-121.1816,50.696],[-121.18185,50.69606],[-121.18203,50.69613],[-121.18215,50.6962],[-121.18233,50.69632],[-121.18247,50.69645],[-121.18262,50.69653],[-121.18281,50.69661],[-121.18301,50.69667],[-121.18323,50.69672],[-121.18347,50.69673],[-121.18374,50.69672],[-121.18394,50.69671],[-121.18407,50.69669],[-121.18428,50.69666],[-121.18444,50.69664],[-121.18464,50.69658],[-121.18479,50.69654],[-121.18498,50.69651],[-121.18513,50.69653],[-121.18527,50.69658],[-121.1854,50.69661],[-121.18559,50.6966],[-121.18581,50.69653],[-121.18607,50.69651],[-121.18644,50.6965],[-121.18665,50.69651],[-121.18685,50.69651],[-121.18715,50.69654],[-121.18737,50.69655],[-121.18753,50.6966],[-121.18765,50.69664],[-121.18778,50.69665],[-121.188,50.69663],[-121.18824,50.69657],[-121.18838,50.6965],[-121.18858,50.69636],[-121.18874,50.69626],[-121.18889,50.69615],[-121.18917,50.69599],[-121.18937,50.69588],[-121.18955,50.6958],[-121.18968,50.69572],[-121.18982,50.69567],[-121.19011,50.69567],[-121.19042,50.69566],[-121.19081,50.6957],[-121.19121,50.69574],[-121.19154,50.69573],[-121.19205,50.69569],[-121.19227,50.69566],[-121.19278,50.69553],[-121.19312,50.69546],[-121.19367,50.69535],[-121.19396,50.69528],[-121.19421,50.69513],[-121.19442,50.69496],[-121.19466,50.69478],[-121.19504,50.69451],[-121.1952,50.69432],[-121.1953,50.69414],[-121.19548,50.69395],[-121.19561,50.69384],[-121.19584,50.6938],[-121.1961,50.69374],[-121.19624,50.69369],[-121.19633,50.69362],[-121.19645,50.69352],[-121.19669,50.69339],[-121.1969,50.69334],[-121.19712,50.69335],[-121.19726,50.69338],[-121.19743,50.69344],[-121.19766,50.69356],[-121.1978,50.69368],[-121.19797,50.69389],[-121.19809,50.69405],[-121.19823,50.69415],[-121.19838,50.69419],[-121.19859,50.69423],[-121.19886,50.69421],[-121.19909,50.6942],[-121.19935,50.69412],[-121.19954,50.69405],[-121.19974,50.69393],[-121.19989,50.69386],[-121.20002,50.69383],[-121.20016,50.69383],[-121.20023,50.69387],[-121.20027,50.69392],[-121.20029,50.69403],[-121.20014,50.69437],[-121.20009,50.69457],[-121.20007,50.69478],[-121.20001,50.69495],[-121.19985,50.69511],[-121.19971,50.6952],[-121.19961,50.69525],[-121.19954,50.69529],[-121.19941,50.69534],[-121.19913,50.69541],[-121.19882,50.69545],[-121.19839,50.6955],[-121.19815,50.69554],[-121.19797,50.6956],[-121.19765,50.6958],[-121.19748,50.69592],[-121.19721,50.69605],[-121.1971,50.69609],[-121.19692,50.69619],[-121.19677,50.69631],[-121.19664,50.69649],[-121.19652,50.69667],[-121.1965,50.69695],[-121.19651,50.69697]],[[-121.13377,50.71324],[-121.13384,50.71312],[-121.13395,50.71295],[-121.13422,50.71275],[-121.13444,50.71268],[-121.13464,50.7126],[-121.13493,50.71247],[-121.13511,50.71225],[-121.13513,50.71206],[-121.13511,50.71191],[-121.13497,50.71172],[-121.13485,50.71152],[-121.13473,50.71137],[-121.13461,50.71121],[-121.13449,50.71106],[-121.1344,50.71087],[-121.13439,50.71065],[-121.13444,50.71051],[-121.13449,50.71036],[-121.13458,50.71023],[-121.13465,50.71011],[-121.13486,50.7099],[-121.13489,50.70988],[-121.13507,50.70971],[-121.13528,50.70954],[-121.13537,50.70947],[-121.1355,50.70937],[-121.13555,50.70934],[-121.13575,50.70917],[-121.13599,50.70897],[-121.13618,50.7088],[-121.13636,50.70862],[-121.13655,50.70845],[-121.13664,50.70831],[-121.13673,50.70817],[-121.13675,50.70802],[-121.13678,50.70786],[-121.1367,50.70767],[-121.13665,50.70753],[-121.1365,50.70739],[-121.13625,50.70722],[-121.13606,50.70704],[-121.13594,50.70685],[-121.13593,50.70674],[-121.13592,50.70662],[-121.13593,50.70643],[-121.13612,50.70624],[-121.13634,50.70614],[-121.13654,50.70605],[-121.13686,50.70591],[-121.13718,50.70574],[-121.13742,50.70557],[-121.13767,50.70542],[-121.13788,50.70527],[-121.13807,50.70513],[-121.13831,50.70502],[-121.13833,50.70501],[-121.13861,50.70492],[-121.13866,50.7049],[-121.13897,50.70487],[-121.13928,50.70484],[-121.13952,50.70485],[-121.13962,50.70485],[-121.13976,50.70486],[-121.14,50.70488],[-121.14033,50.7049],[-121.14065,50.70491],[-121.14091,50.70493],[-121.14116,50.70493],[-121.14137,50.70495],[-121.14158,50.70497],[-121.14184,50.70502],[-121.14208,50.70508],[-121.1423,50.70516],[-121.14249,50.70524],[-121.14277,50.70538],[-121.14305,50.70552],[-121.14323,50.70562],[-121.14344,50.70572],[-121.14362,50.70579],[-121.14378,50.70578],[-121.144,50.70572],[-121.14423,50.70567],[-121.14449,50.70564],[-121.14475,50.70563],[-121.14482,50.70563],[-121.14501,50.70561],[-121.14526,50.70562],[-121.14554,50.70563],[-121.14581,50.70566],[-121.14603,50.7057],[-121.14626,50.70573],[-121.14648,50.70575],[-121.14675,50.70577],[-121.14702,50.70577],[-121.14727,50.70577],[-121.14742,50.70572],[-121.14762,50.70563],[-121.14781,50.70551],[-121.1479,50.70548],[-121.14801,50.70544],[-121.14825,50.70544],[-121.1485,50.70547],[-121.14876,50.7055],[-121.14901,50.70554],[-121.14924,50.70558],[-121.14946,50.70565],[-121.14967,50.70571],[-121.14991,50.70578],[-121.15013,50.70582],[-121.15042,50.70585],[-121.15067,50.70588],[-121.15091,50.70591],[-121.15115,50.70594],[-121.1514,50.70596],[-121.15166,50.70599],[-121.15191,50.70603],[-121.15216,50.70606],[-121.15242,50.70609],[-121.15264,50.70611],[-121.15287,50.70615],[-121.15313,50.70622],[-121.15337,50.70628],[-121.15361,50.70635],[-121.15382,50.70642],[-121.15405,50.70649],[-121.15428,50.70655],[-121.15452,50.70661],[-121.15476,50.70666],[-121.15503,50.70672],[-121.15527,50.70675],[-121.15549,50.70676],[-121.15572,50.70678],[-121.15599,50.7068],[-121.15623,50.70683],[-121.15645,50.70685],[-121.15668,50.70687],[-121.15688,50.70688],[-121.15706,50.70689],[-121.1573,50.70688],[-121.15754,50.70686],[-121.15771,50.70686],[-121.15778,50.70685],[-121.15802,50.70685],[-121.15827,50.70686],[-121.15855,50.70686],[-121.1588,50.70687],[-121.15904,50.70687],[-121.15913,50.70687],[-121.15927,50.70688],[-121.15951,50.7069],[-121.15975,50.70694],[-121.15997,50.70699],[-121.1602,50.70705],[-121.16042,50.70712],[-121.16067,50.7072],[-121.1609,50.70727],[-121.16114,50.70734],[-121.16136,50.70738],[-121.16157,50.70745],[-121.16181,50.70753],[-121.16202,50.70761],[-121.16223,50.70769],[-121.16245,50.70777],[-121.1627,50.70783],[-121.16272,50.70783],[-121.16293,50.70788],[-121.16314,50.70791],[-121.16341,50.70796],[-121.16363,50.708],[-121.16386,50.70806],[-121.16411,50.70809],[-121.16436,50.70812],[-121.16462,50.70815],[-121.1649,50.70815],[-121.16518,50.70813],[-121.16538,50.70809],[-121.16564,50.708],[-121.16586,50.70792],[-121.16609,50.70782],[-121.16625,50.70771],[-121.16638,50.70759],[-121.16649,50.70746],[-121.16656,50.70731],[-121.16665,50.70715],[-121.16674,50.70699],[-121.16689,50.70684],[-121.167,50.70669],[-121.16707,50.70652],[-121.16709,50.70649],[-121.16715,50.70634],[-121.16721,50.7062],[-121.16728,50.70605],[-121.16733,50.70589],[-121.16731,50.7058],[-121.1673,50.70571],[-121.16727,50.70556],[-121.16723,50.70542],[-121.16719,50.70525],[-121.16714,50.70507],[-121.16707,50.70492],[-121.16693,50.7048],[-121.16676,50.70471],[-121.16654,50.70461],[-121.16632,50.70452],[-121.16614,50.70443],[-121.16594,50.70433],[-121.16578,50.70423],[-121.1656,50.70409],[-121.16547,50.70395],[-121.16537,50.7038],[-121.16527,50.70367],[-121.16517,50.70351],[-121.16514,50.70337],[-121.16514,50.70321],[-121.16511,50.70305],[-121.16505,50.70289],[-121.16501,50.70275],[-121.1649,50.70259],[-121.16478,50.70245],[-121.16463,50.70234],[-121.16462,50.70233],[-121.16469,50.70218],[-121.16483,50.70209],[-121.16501,50.702],[-121.1652,50.70191],[-121.16543,50.70182],[-121.16565,50.70171],[-121.16585,50.70164],[-121.16586,50.70163],[-121.16606,50.70157],[-121.16631,50.7015],[-121.16656,50.70146],[-121.16663,50.70144],[-121.16682,50.70142],[-121.16705,50.70138],[-121.16729,50.70137],[-121.16759,50.70137],[-121.16771,50.70138],[-121.16783,50.70138],[-121.1681,50.70139],[-121.16835,50.7014],[-121.1686,50.70141],[-121.16887,50.7014],[-121.1691,50.70138],[-121.16932,50.70131],[-121.16948,50.70119],[-121.16955,50.70103],[-121.16956,50.70088],[-121.16955,50.70073],[-121.16952,50.70056],[-121.16951,50.70039],[-121.1695,50.70024],[-121.16949,50.70007],[-121.16948,50.7],[-121.16932,50.69987],[-121.16917,50.69972],[-121.16891,50.69962],[-121.16879,50.69958],[-121.16869,50.69952],[-121.16856,50.69938],[-121.16829,50.69924],[-121.16815,50.69921],[-121.16785,50.69909],[-121.16802,50.69897],[-121.16817,50.69883],[-121.16824,50.6987],[-121.16825,50.69862],[-121.16824,50.69849],[-121.16822,50.69831],[-121.16823,50.69825],[-121.16825,50.69817],[-121.16829,50.6981],[-121.1684,50.698],[-121.16848,50.69794],[-121.1686,50.69791],[-121.1689,50.69782],[-121.16922,50.69769],[-121.16938,50.69759],[-121.16951,50.6975],[-121.16958,50.69739],[-121.16956,50.69717],[-121.16954,50.697],[-121.16953,50.69686],[-121.16952,50.6967],[-121.1695,50.69658],[-121.16948,50.6964],[-121.16944,50.69622],[-121.16932,50.69601],[-121.1692,50.69586],[-121.16894,50.69566],[-121.16887,50.69557],[-121.16883,50.69549],[-121.16884,50.69542],[-121.16903,50.69527],[-121.1693,50.69522],[-121.16943,50.69524],[-121.16972,50.69537],[-121.17,50.69542],[-121.17022,50.69544],[-121.17041,50.69545],[-121.17058,50.69544],[-121.17081,50.69543],[-121.17091,50.6954],[-121.17109,50.6953],[-121.1714,50.69519],[-121.17151,50.69516],[-121.1716,50.69512]]]}},
{"type":"Feature","properties":{"spotId":"A-deer-atv-0112","kind":"walk","km":0.09,"climbM":12,"name":"850 m SW of Studhorse Creek","flags":[]},"geometry":{"type":"LineString","coordinates":[[-121.19651,50.69697],[-121.19533,50.69712]]}},
{"type":"Feature","properties":{"spotId":"A-deer-atv-0119","kind":"ride","km":2.53,"climbM":144,"name":"1.5 km NW of Barnes Creek","flags":["Route crosses private land (ParcelMap BC, updated 2026-09-25): get permission first or go around."]},"geometry":{"type":"LineString","coordinates":[[-121.21776,50.7129],[-121.21773,50.71299],[-121.21761,50.71312],[-121.21747,50.71326],[-121.21732,50.71336],[-121.21717,50.71352],[-121.2171,50.71368],[-121.21703,50.71385],[-121.21698,50.71401],[-121.21696,50.71417],[-121.21696,50.71435],[-121.21692,50.71451],[-121.2169,50.71466],[-121.2169,50.71483],[-121.21692,50.71501],[-121.21698,50.71516],[-121.21709,50.71534],[-121.21718,50.71546],[-121.21732,50.71561],[-121.21733,50.7157],[-121.21726,50.71575],[-121.21712,50.71579],[-121.21689,50.71578],[-121.21676,50.71586],[-121.21655,50.71606],[-121.21646,50.71619],[-121.21644,50.71633],[-121.21647,50.71648],[-121.21653,50.71663],[-121.21675,50.71726],[-121.21681,50.71743],[-121.21685,50.71758],[-121.21687,50.7179],[-121.21686,50.71805],[-121.21684,50.71821],[-121.21679,50.71835],[-121.21671,50.71852],[-121.21667,50.71866],[-121.21665,50.71868],[-121.2166,50.71882],[-121.21654,50.71897],[-121.21648,50.71915],[-121.21629,50.71962],[-121.21623,50.7198],[-121.21615,50.71995],[-121.21609,50.72011],[-121.21601,50.72029],[-121.21593,50.72045],[-121.21586,50.72062],[-121.21577,50.72077],[-121.21572,50.72094],[-121.21568,50.72112],[-121.21566,50.72126],[-121.21569,50.72192],[-121.21564,50.7221],[-121.21554,50.72226],[-121.21542,50.7224],[-121.21531,50.72257],[-121.21521,50.72272],[-121.21512,50.72287],[-121.21501,50.72303],[-121.21491,50.72316],[-121.21471,50.72349],[-121.21459,50.72366],[-121.21449,50.7238],[-121.21434,50.72395],[-121.21419,50.72406],[-121.21403,50.7242],[-121.21381,50.72449],[-121.21366,50.7246],[-121.2133,50.72484],[-121.21304,50.72509],[-121.21289,50.72524],[-121.21258,50.72546],[-121.21241,50.72557],[-121.21219,50.72569],[-121.21199,50.72575],[-121.21173,50.72578],[-121.21166,50.72578],[-121.21148,50.72576],[-121.21078,50.72558],[-121.21053,50.72554],[-121.21027,50.72551],[-121.21002,50.72547],[-121.20976,50.72544],[-121.20948,50.7254],[-121.20896,50.72532],[-121.20871,50.72529],[-121.20847,50.72525],[-121.20824,50.7252],[-121.20796,50.72515],[-121.20768,50.72511],[-121.20744,50.72508],[-121.20717,50.72506],[-121.20693,50.72505],[-121.20614,50.72506],[-121.20587,50.72508],[-121.20563,50.7251],[-121.20538,50.72512],[-121.20516,50.72515],[-121.20466,50.7252],[-121.20442,50.72524],[-121.20412,50.72528],[-121.20356,50.72539],[-121.20333,50.72544],[-121.20306,50.72551],[-121.20283,50.72554],[-121.20279,50.72554],[-121.20265,50.72555],[-121.20256,50.72555],[-121.2024,50.72559],[-121.20222,50.72569],[-121.20203,50.72582],[-121.20183,50.72592],[-121.20165,50.72603],[-121.20143,50.72613],[-121.2012,50.72621],[-121.20119,50.72622],[-121.20092,50.72629],[-121.2005,50.72645],[-121.20029,50.72646],[-121.20015,50.72662],[-121.20033,50.72664],[-121.20036,50.72667],[-121.20039,50.72673],[-121.20024,50.72695]]}},
{"type":"Feature","properties":{"spotId":"A-deer-atv-0133","kind":"ride","km":2.02,"climbM":8,"name":"880 m SE of Spatsum Creek","flags":[]},"geometry":{"type":"LineString","coordinates":[[-121.23651,50.5991],[-121.23677,50.599],[-121.23699,50.59882],[-121.23706,50.59864],[-121.23714,50.59851],[-121.23726,50.59833],[-121.2373,50.59826],[-121.23749,50.59807],[-121.23755,50.59801],[-121.23769,50.59784],[-121.23772,50.59779],[-121.23785,50.59764],[-121.23798,50.59755],[-121.23819,50.59748],[-121.23854,50.59727],[-121.23888,50.597],[-121.23912,50.59678],[-121.2393,50.59669],[-121.23953,50.59659],[-121.23986,50.59646],[-121.24015,50.59626],[-121.24026,50.59616],[-121.24045,50.59599],[-121.24051,50.59594],[-121.24062,50.59577],[-121.24066,50.59564],[-121.24072,50.59559],[-121.24083,50.5954],[-121.24092,50.59524],[-121.24101,50.5951],[-121.2411,50.5949],[-121.24121,50.59469],[-121.24127,50.59448],[-121.24129,50.59438],[-121.2413,50.59421],[-121.2413,50.59414],[-121.24127,50.59379],[-121.24126,50.59361],[-121.24145,50.59344],[-121.24146,50.59338],[-121.24139,50.59316],[-121.24138,50.59311],[-121.2414,50.59295],[-121.24145,50.59278],[-121.24153,50.59258],[-121.24157,50.59245],[-121.24158,50.59238],[-121.2415,50.59219],[-121.24148,50.59202],[-121.24148,50.59193],[-121.24143,50.59173],[-121.24147,50.59159],[-121.24141,50.59155],[-121.2413,50.5915],[-121.24096,50.59144],[-121.24089,50.59139],[-121.24087,50.59129],[-121.241,50.59115],[-121.24133,50.59109],[-121.24143,50.59103],[-121.24149,50.59098],[-121.24157,50.59081],[-121.24164,50.59062],[-121.24175,50.59048],[-121.24187,50.59029],[-121.24196,50.59012],[-121.24201,50.58992],[-121.24203,50.58985],[-121.24203,50.58969],[-121.24204,50.5895],[-121.24203,50.5893],[-121.24212,50.58913],[-121.24215,50.58907],[-121.24218,50.58884],[-121.24221,50.58879],[-121.24236,50.58857],[-121.2424,50.5885],[-121.24243,50.5884],[-121.24247,50.58822],[-121.24251,50.58808],[-121.24252,50.58798],[-121.24253,50.58779],[-121.24253,50.58767],[-121.24251,50.58752],[-121.24249,50.58733],[-121.24247,50.58727],[-121.24248,50.58707],[-121.24249,50.58692],[-121.24249,50.58677],[-121.24249,50.5866],[-121.24249,50.58642],[-121.24251,50.58626],[-121.24257,50.58614],[-121.2426,50.5861],[-121.24268,50.586],[-121.24271,50.58598],[-121.24277,50.58583],[-121.24283,50.5857],[-121.24288,50.58558],[-121.24291,50.58536],[-121.24293,50.58527],[-121.24298,50.58508],[-121.24306,50.58493],[-121.2431,50.58483],[-121.24312,50.58464],[-121.24313,50.58443],[-121.24313,50.58435],[-121.24311,50.58416],[-121.24311,50.58398],[-121.24311,50.58391],[-121.24309,50.58376],[-121.24305,50.58356],[-121.24304,50.58337],[-121.24303,50.58324],[-121.24299,50.583],[-121.24294,50.58284],[-121.24291,50.58275]]}},
{"type":"Feature","properties":{"spotId":"A-deer-atv-0133","kind":"walk","km":0.3,"climbM":0,"name":"880 m SE of Spatsum Creek","flags":[]},"geometry":{"type":"LineString","coordinates":[[-121.24291,50.58275],[-121.24463,50.58025]]}},
{"type":"Feature","properties":{"spotId":"A-deer-atv-0149","kind":"ride","km":3.59,"climbM":24,"name":"1.6 km NE of Nesbitt Lake","flags":[]},"geometry":{"type":"LineString","coordinates":[[-121.0984,50.7308],[-121.09772,50.7306],[-121.09728,50.73047],[-121.09638,50.73025],[-121.09581,50.73003],[-121.09518,50.72976],[-121.09455,50.72955],[-121.09382,50.72928],[-121.09268,50.72874],[-121.09116,50.72823],[-121.08977,50.72774],[-121.08821,50.72716],[-121.08707,50.72678],[-121.0864,50.72658],[-121.08582,50.72648],[-121.08539,50.72651],[-121.08474,50.72643],[-121.08429,50.72634],[-121.08403,50.7263],[-121.08365,50.72623],[-121.08327,50.72621],[-121.08311,50.72618],[-121.08283,50.72617],[-121.08272,50.72618],[-121.08265,50.72623],[-121.08266,50.7263],[-121.083,50.7266],[-121.08324,50.7268],[-121.08331,50.72687],[-121.0833,50.72692],[-121.0833,50.72697],[-121.08323,50.72703],[-121.08305,50.72709],[-121.083,50.7271],[-121.08266,50.72709],[-121.08238,50.72702],[-121.08205,50.7269],[-121.08182,50.72679],[-121.08161,50.72671],[-121.08137,50.72664],[-121.08113,50.72662],[-121.08085,50.7266],[-121.08065,50.7266],[-121.08056,50.72662],[-121.08045,50.72664],[-121.08038,50.72666],[-121.08029,50.7267],[-121.08025,50.72675],[-121.08023,50.72681],[-121.08016,50.72691],[-121.08028,50.72695],[-121.08041,50.72715],[-121.08045,50.72723],[-121.08051,50.72734],[-121.08058,50.72757],[-121.08053,50.7277],[-121.0805,50.72785],[-121.08038,50.72797],[-121.08025,50.7281],[-121.08,50.72831],[-121.07985,50.72851],[-121.07983,50.7287],[-121.07995,50.72884],[-121.08007,50.72904],[-121.08009,50.72921],[-121.08007,50.72924],[-121.08001,50.72936],[-121.07984,50.72945],[-121.07962,50.72949],[-121.07943,50.72946],[-121.07922,50.72944],[-121.07903,50.72948],[-121.07884,50.7295],[-121.07871,50.72961],[-121.07867,50.72972],[-121.07873,50.72987],[-121.07878,50.73001],[-121.0789,50.73013],[-121.07904,50.73025],[-121.07915,50.73037],[-121.07929,50.7305],[-121.07936,50.73066],[-121.07947,50.73082],[-121.07951,50.73096],[-121.07953,50.73109],[-121.07951,50.73129],[-121.07961,50.73146],[-121.07968,50.73158],[-121.07975,50.7317],[-121.07976,50.73182],[-121.07975,50.73195],[-121.07947,50.73185],[-121.07932,50.73181],[-121.07929,50.7318],[-121.07912,50.73174],[-121.0789,50.73167],[-121.07869,50.7316],[-121.07836,50.73153],[-121.07808,50.73153],[-121.07788,50.73153],[-121.0777,50.73153],[-121.07746,50.73157],[-121.0772,50.7316],[-121.0769,50.73164],[-121.07659,50.73168],[-121.07632,50.73166],[-121.07629,50.73166],[-121.07601,50.73165],[-121.07571,50.73153],[-121.07559,50.73145],[-121.0753,50.73136],[-121.07532,50.73151],[-121.07534,50.73171],[-121.07537,50.7319],[-121.0754,50.73203],[-121.07541,50.7321],[-121.07546,50.73229],[-121.07549,50.73243],[-121.07551,50.73246],[-121.07554,50.73263],[-121.07559,50.73279],[-121.07564,50.73296],[-121.07565,50.73313],[-121.07566,50.7333],[-121.07568,50.73347],[-121.07563,50.73367],[-121.07563,50.73383],[-121.07566,50.73398],[-121.07579,50.73418],[-121.07594,50.73438],[-121.07619,50.73451],[-121.07644,50.73465],[-121.07664,50.7348],[-121.07685,50.73494],[-121.0771,50.73517],[-121.07719,50.73531],[-121.07728,50.73546],[-121.07747,50.73565],[-121.07768,50.73583],[-121.07801,50.73604],[-121.07833,50.73619],[-121.07861,50.73628],[-121.07889,50.73636],[-121.07914,50.73642],[-121.07941,50.73648],[-121.07962,50.7365],[-121.07983,50.73652],[-121.08012,50.73654],[-121.0804,50.73658],[-121.08069,50.73663],[-121.08096,50.73669],[-121.08128,50.73679],[-121.08152,50.73688],[-121.08173,50.73693],[-121.08195,50.73698],[-121.08227,50.73699],[-121.08259,50.73702],[-121.08284,50.73703],[-121.08309,50.73703],[-121.08316,50.73701]]}},
{"type":"Feature","properties":{"spotId":"A-deer-atv-0149","kind":"walk","km":0.26,"climbM":0,"name":"1.6 km NE of Nesbitt Lake","flags":[]},"geometry":{"type":"LineString","coordinates":[[-121.0984,50.7308],[-121.09687,50.7329]]}},
{"type":"Feature","properties":{"spotId":"A-deer-drive-0103","kind":"walk","km":0.07,"climbM":0,"name":"470 m S of Barnes Creek","flags":[]},"geometry":{"type":"LineString","coordinates":[[-121.20901,50.7057],[-121.21001,50.70571]]}},
{"type":"Feature","properties":{"spotId":"A-deer-walk-0131","kind":"walk","km":0.79,"climbM":106,"name":"By Studhorse Creek","flags":["Route crosses private land (ParcelMap BC, updated 2026-09-25): get permission first or go around."]},"geometry":{"type":"LineString","coordinates":[[-121.20101,50.70952],[-121.19154,50.70582]]}},
{"type":"Feature","properties":{"spotId":"A-deer-walk-0134","kind":"walk","km":0.7,"climbM":127,"name":"260 m S of Tremont Creek","flags":[]},"geometry":{"type":"LineString","coordinates":[[-121.238,50.65832],[-121.23779,50.65807],[-121.23774,50.65803],[-121.23767,50.65798],[-121.23762,50.65793],[-121.23758,50.65784],[-121.23757,50.65772],[-121.23757,50.65764],[-121.23759,50.65748],[-121.23768,50.65734],[-121.2377,50.65724],[-121.23769,50.65712],[-121.23006,50.65605]]}},
{"type":"Feature","properties":{"spotId":"A-deer-walk-0148","kind":"walk","km":0.61,"climbM":13,"name":"1.2 km SE of Barnes Lake","flags":[]},"geometry":{"type":"LineString","coordinates":[[-121.21371,50.69773],[-121.22237,50.69732]]}},
{"type":"Feature","properties":{"spotId":"A-deer-walk-0151","kind":"walk","km":0.63,"climbM":35,"name":"1.3 km N of Barnes Creek","flags":[]},"geometry":{"type":"LineString","coordinates":[[-121.16026,50.72692],[-121.15761,50.72151]]}},
{"type":"Feature","properties":{"spotId":"A-deer-walk-0193","kind":"walk","km":1.23,"climbM":30,"name":"2.0 km W of Fehr, Mount","flags":[]},"geometry":{"type":"LineString","coordinates":[[-120.99919,50.67787],[-121.00706,50.66797]]}},
{"type":"Feature","properties":{"spotId":"A-deer-walk-0198","kind":"walk","km":1.45,"climbM":524,"name":"1.7 km SE of Thompson River","flags":[]},"geometry":{"type":"LineString","coordinates":[[-121.21079,50.7429],[-121.19624,50.73367]]}},
{"type":"Feature","properties":{"spotId":"A-duck-drive-0037","kind":"walk","km":0.03,"climbM":0,"name":"Barnes Lake","flags":[]},"geometry":{"type":"LineString","coordinates":[[-121.25029,50.6936],[-121.24993,50.69357]]}},
{"type":"Feature","properties":{"spotId":"A-duck-drive-0124","kind":"walk","km":0.13,"climbM":1,"name":"Jim Black Lake","flags":[]},"geometry":{"type":"LineString","coordinates":[[-121.18039,50.52579],[-121.17874,50.52624]]}},
{"type":"Feature","properties":{"spotId":"A-duck-drive-0140","kind":"walk","km":0.02,"climbM":0,"name":"Unnamed wetland 1.5 km NE of Barnes Creek","flags":[]},"geometry":{"type":"LineString","coordinates":[[-121.16347,50.72649],[-121.1635,50.72668]]}},
{"type":"Feature","properties":{"spotId":"A-duck-walk-0116","kind":"walk","km":0.38,"climbM":10,"name":"Unnamed lake 190 m E of Woods Creek","flags":[]},"geometry":{"type":"LineString","coordinates":[[-121.10824,50.60909],[-121.10825,50.60913],[-121.10827,50.60934],[-121.10829,50.60957],[-121.10831,50.60974],[-121.10831,50.6098],[-121.10827,50.60989],[-121.10823,50.61001],[-121.10815,50.61013],[-121.10813,50.61025],[-121.10817,50.61045],[-121.10819,50.61058],[-121.10827,50.61077],[-121.10828,50.61082],[-121.1083,50.61096],[-121.10832,50.61114],[-121.10834,50.61133],[-121.10835,50.61141],[-121.10839,50.61162],[-121.10837,50.61168],[-121.10829,50.61186],[-121.10816,50.61192],[-121.10838,50.61237]]}},
{"type":"Feature","properties":{"spotId":"A-grouse-atv-0005","kind":"ride","km":4.12,"climbM":19,"name":"1.0 km NE of Woods Creek","flags":[]},"geometry":{"type":"LineString","coordinates":[[-121.10113,50.61929],[-121.10124,50.61921],[-121.1014,50.61911],[-121.1015,50.61904],[-121.10178,50.61884],[-121.10205,50.61865],[-121.10229,50.61844],[-121.10254,50.61824],[-121.10279,50.61802],[-121.10289,50.61793],[-121.10301,50.61779],[-121.10315,50.61772],[-121.1034,50.61755],[-121.10366,50.61736],[-121.10374,50.61728],[-121.10392,50.61719],[-121.10401,50.61714],[-121.10429,50.61694],[-121.10449,50.61687],[-121.1047,50.6168],[-121.10482,50.61674],[-121.10495,50.61668],[-121.10518,50.61651],[-121.1054,50.61641],[-121.10555,50.61637],[-121.10585,50.61629],[-121.10617,50.61615],[-121.10633,50.61608],[-121.10661,50.61602],[-121.10676,50.61598],[-121.10712,50.61585],[-121.10752,50.61568],[-121.10772,50.61559],[-121.10778,50.61554],[-121.10805,50.61536],[-121.10813,50.61531],[-121.10847,50.61512],[-121.10873,50.61499],[-121.10888,50.61493],[-121.10896,50.61488],[-121.1092,50.61468],[-121.10956,50.61451],[-121.10967,50.61447],[-121.11,50.61433],[-121.11042,50.61411],[-121.11062,50.61411],[-121.11076,50.61405],[-121.11105,50.61399],[-121.11151,50.6138],[-121.11181,50.61373],[-121.11205,50.61362],[-121.1122,50.61355],[-121.11252,50.61336],[-121.11263,50.61332],[-121.11279,50.61329],[-121.113,50.61323],[-121.11315,50.61316],[-121.11345,50.61296],[-121.11363,50.61281],[-121.11367,50.61275],[-121.11379,50.61258],[-121.11385,50.61246],[-121.11388,50.61236],[-121.11392,50.61231],[-121.1139,50.61222],[-121.11388,50.61205],[-121.11386,50.61198],[-121.11382,50.6119],[-121.11381,50.61184],[-121.1138,50.61177],[-121.11377,50.61166],[-121.11369,50.61146],[-121.11362,50.61124],[-121.11356,50.61103],[-121.11352,50.61079],[-121.11349,50.61058],[-121.11348,50.61047],[-121.11347,50.61036],[-121.11343,50.61021],[-121.11337,50.61006],[-121.11328,50.60992],[-121.11324,50.60985],[-121.11322,50.60979],[-121.11315,50.6096],[-121.11308,50.60944],[-121.11302,50.6093],[-121.11291,50.60911],[-121.11286,50.60898],[-121.11279,50.60876],[-121.11271,50.60862],[-121.11268,50.60847],[-121.11266,50.6083],[-121.11264,50.60814],[-121.11264,50.60808],[-121.11265,50.6079],[-121.1127,50.60772],[-121.11268,50.60759],[-121.11266,50.60754],[-121.1126,50.60735],[-121.11259,50.60716],[-121.11261,50.60705],[-121.11269,50.60697],[-121.11288,50.60679],[-121.11301,50.60664],[-121.11309,50.60649],[-121.11315,50.60633],[-121.1134,50.60573],[-121.11349,50.60561],[-121.11358,50.6055],[-121.11366,50.60531],[-121.1138,50.60518],[-121.11395,50.60507],[-121.11431,50.60487],[-121.11437,50.60482],[-121.11462,50.60464],[-121.11502,50.60437],[-121.1153,50.60416],[-121.11554,50.6038],[-121.11562,50.60371],[-121.11578,50.60354],[-121.11594,50.60341],[-121.11611,50.60326],[-121.11627,50.60314],[-121.11652,50.60303],[-121.11674,50.60289],[-121.1171,50.60275],[-121.11742,50.60275],[-121.11775,50.6026],[-121.11784,50.60255],[-121.11788,50.60249],[-121.11806,50.60228],[-121.11824,50.60209],[-121.11837,50.60193],[-121.11852,50.6018],[-121.11868,50.60163],[-121.11886,50.60149],[-121.11903,50.60129],[-121.1192,50.60112],[-121.11931,50.60097],[-121.11936,50.60084],[-121.11944,50.60062],[-121.11956,50.60042],[-121.1196,50.60032],[-121.1197,50.60011],[-121.11974,50.6],[-121.11977,50.59993],[-121.11987,50.59974],[-121.1199,50.59968],[-121.12002,50.5995],[-121.1201,50.59934],[-121.12026,50.59912],[-121.12034,50.59898],[-121.12037,50.5989],[-121.12039,50.59869],[-121.1204,50.59862],[-121.12039,50.59841],[-121.12037,50.59825],[-121.12035,50.59813],[-121.12031,50.598],[-121.1203,50.5979],[-121.12029,50.59769],[-121.12029,50.59746],[-121.12028,50.59728],[-121.12027,50.59714],[-121.12027,50.59691],[-121.12027,50.59677],[-121.12021,50.5966],[-121.12013,50.59646],[-121.12008,50.59632],[-121.12007,50.5962],[-121.12008,50.59605],[-121.12007,50.59591],[-121.12007,50.59575],[-121.12006,50.59545],[-121.11995,50.59542],[-121.11972,50.59539],[-121.1195,50.59538],[-121.1192,50.59529],[-121.11919,50.59526],[-121.11923,50.59519],[-121.11934,50.59512],[-121.11954,50.59502],[-121.11967,50.59491],[-121.11971,50.59485],[-121.11993,50.59468],[-121.12003,50.59461],[-121.12024,50.59445],[-121.12033,50.59439],[-121.12048,50.59419],[-121.12059,50.59403],[-121.12062,50.59399],[-121.12077,50.59379],[-121.12093,50.59366],[-121.12104,50.59353],[-121.12116,50.59337],[-121.12123,50.59328],[-121.12132,50.59314],[-121.1215,50.59293],[-121.12163,50.59274],[-121.12177,50.59261],[-121.12186,50.59247],[-121.12206,50.59227],[-121.12225,50.59192],[-121.12231,50.59182],[-121.12238,50.59165],[-121.12246,50.59151],[-121.12254,50.5913],[-121.12263,50.59116],[-121.12272,50.59098],[-121.12284,50.59086],[-121.12302,50.59069],[-121.12308,50.5906],[-121.12324,50.59039],[-121.12332,50.59026],[-121.12342,50.59009],[-121.12348,50.58997],[-121.12352,50.58988],[-121.12355,50.58972],[-121.12376,50.5893]]}},
{"type":"Feature","properties":{"spotId":"A-grouse-atv-0054","kind":"ride","km":6.12,"climbM":298,"name":"2.5 km W of Nesbitt Lake","flags":[]},"geometry":{"type":"LineString","coordinates":[[-121.14467,50.72858],[-121.14422,50.7285],[-121.14389,50.72839],[-121.14364,50.72834],[-121.14338,50.72829],[-121.14309,50.72826],[-121.14278,50.72823],[-121.14255,50.72822],[-121.1425,50.72822],[-121.14232,50.72821],[-121.14212,50.72821],[-121.14193,50.72819],[-121.14171,50.72818],[-121.1415,50.72817],[-121.14129,50.72818],[-121.14106,50.7282],[-121.14081,50.72825],[-121.14055,50.7283],[-121.14023,50.72837],[-121.13992,50.72846],[-121.13959,50.72853],[-121.13936,50.7286],[-121.13912,50.72866],[-121.13887,50.72873],[-121.13853,50.7288],[-121.13834,50.72883],[-121.13819,50.72886],[-121.1381,50.72888],[-121.13783,50.72894],[-121.13756,50.72898],[-121.13726,50.72902],[-121.13699,50.72906],[-121.1367,50.7291],[-121.13642,50.72913],[-121.13615,50.72916],[-121.13586,50.72919],[-121.13554,50.72922],[-121.13521,50.72925],[-121.13511,50.72925],[-121.1349,50.72927],[-121.13463,50.72928],[-121.13437,50.7293],[-121.1341,50.72932],[-121.13378,50.72933],[-121.13345,50.72934],[-121.13321,50.72936],[-121.13297,50.72936],[-121.13273,50.72937],[-121.13248,50.72938],[-121.13224,50.72939],[-121.13202,50.7294],[-121.13182,50.72941],[-121.1316,50.72941],[-121.13138,50.72939],[-121.13115,50.72937],[-121.1309,50.72933],[-121.1307,50.72926],[-121.1306,50.72914],[-121.13049,50.729],[-121.13031,50.7289],[-121.13001,50.72879],[-121.12979,50.7287],[-121.12955,50.72861],[-121.12939,50.72852],[-121.12921,50.72843],[-121.12896,50.72832],[-121.12872,50.7282],[-121.12847,50.7281],[-121.12822,50.728],[-121.12801,50.72796],[-121.1278,50.72792],[-121.12753,50.72794],[-121.12727,50.72795],[-121.12701,50.72803],[-121.12674,50.72809],[-121.12651,50.72817],[-121.12628,50.72825],[-121.12609,50.72829],[-121.12591,50.72833],[-121.12572,50.72835],[-121.12555,50.72836],[-121.12534,50.72835],[-121.12513,50.72833],[-121.12489,50.7283],[-121.12464,50.72826],[-121.12433,50.72823],[-121.12406,50.7282],[-121.12386,50.72819],[-121.12368,50.72818],[-121.12349,50.72815],[-121.12332,50.72813],[-121.12301,50.72806],[-121.12286,50.72805],[-121.12273,50.72805],[-121.12244,50.72803],[-121.12221,50.72805],[-121.12208,50.72808],[-121.12185,50.72814],[-121.12164,50.72817],[-121.1215,50.72817],[-121.12138,50.72817],[-121.12126,50.72813],[-121.12109,50.72805],[-121.12094,50.72793],[-121.1208,50.72781],[-121.12071,50.72766],[-121.12067,50.72759],[-121.12069,50.72741],[-121.12072,50.72727],[-121.12069,50.72712],[-121.12041,50.72692],[-121.12026,50.7268],[-121.12021,50.72671],[-121.12023,50.7265],[-121.12025,50.72638],[-121.12025,50.72626],[-121.12019,50.72605],[-121.12003,50.72583],[-121.11991,50.72569],[-121.1198,50.72555],[-121.11957,50.72537],[-121.11937,50.72526],[-121.11919,50.72514],[-121.11903,50.725],[-121.11885,50.72485],[-121.11873,50.72467],[-121.11864,50.72455],[-121.11855,50.72444],[-121.11842,50.72428],[-121.1183,50.7242],[-121.11807,50.72408],[-121.11774,50.72391],[-121.11742,50.72379],[-121.1171,50.72359],[-121.11695,50.7234],[-121.11682,50.72328],[-121.1167,50.72325],[-121.11656,50.72323],[-121.1163,50.72319],[-121.11603,50.72314],[-121.11575,50.72307],[-121.11548,50.723],[-121.11517,50.7229],[-121.11487,50.7228],[-121.11466,50.7227],[-121.11445,50.72259],[-121.11434,50.72244],[-121.11422,50.72229],[-121.11406,50.72213],[-121.11397,50.72205],[-121.11391,50.72197],[-121.11371,50.7219],[-121.11352,50.72183],[-121.11325,50.72178],[-121.11297,50.72173],[-121.11269,50.72165],[-121.11241,50.72158],[-121.11221,50.72151],[-121.11202,50.72144],[-121.11168,50.72135],[-121.11165,50.72134],[-121.11136,50.72125],[-121.11111,50.72119],[-121.11084,50.72113],[-121.11059,50.72107],[-121.11035,50.72103],[-121.11011,50.72099],[-121.10988,50.72095],[-121.1096,50.72093],[-121.10933,50.7209],[-121.10905,50.72087],[-121.10881,50.72086],[-121.10855,50.72086],[-121.10836,50.72084],[-121.10814,50.72081],[-121.10781,50.72072],[-121.10763,50.72066],[-121.10746,50.7206],[-121.10725,50.72051],[-121.10706,50.72044],[-121.10694,50.72037],[-121.10685,50.72032],[-121.10665,50.72021],[-121.10657,50.72014],[-121.10647,50.72007],[-121.10631,50.71992],[-121.10605,50.7197],[-121.10589,50.71956],[-121.10572,50.71943],[-121.10556,50.71927],[-121.10554,50.71925],[-121.10539,50.71911],[-121.10526,50.71891],[-121.10513,50.71871],[-121.10494,50.71852],[-121.10473,50.71832],[-121.10444,50.71816],[-121.10414,50.718],[-121.10387,50.71788],[-121.10361,50.71775],[-121.10333,50.71762],[-121.10304,50.71747],[-121.1027,50.71733],[-121.10236,50.71718],[-121.10217,50.71712],[-121.10199,50.71705],[-121.10169,50.71687],[-121.10154,50.71668],[-121.10145,50.71653],[-121.10137,50.71637],[-121.1013,50.71621],[-121.10123,50.71601],[-121.10116,50.71581],[-121.1011,50.71558],[-121.10104,50.71537],[-121.10103,50.71519],[-121.10103,50.71502],[-121.10102,50.71485],[-121.10101,50.71474],[-121.10101,50.71466],[-121.10101,50.71447],[-121.10101,50.71429],[-121.10105,50.71413],[-121.10107,50.71397],[-121.1011,50.71382],[-121.10119,50.71365],[-121.10134,50.71351],[-121.10153,50.71346],[-121.10171,50.7134],[-121.10198,50.71338],[-121.10224,50.71335],[-121.10247,50.71332],[-121.1027,50.71329],[-121.10288,50.71326],[-121.10298,50.71325],[-121.10308,50.71322],[-121.10307,50.71316],[-121.10305,50.71307],[-121.103,50.71291],[-121.10296,50.71276],[-121.10289,50.7126],[-121.10283,50.71244],[-121.10274,50.71232],[-121.10267,50.71221],[-121.10256,50.71206],[-121.10247,50.71191],[-121.10235,50.71175],[-121.10223,50.7116],[-121.10204,50.71142],[-121.10204,50.71125],[-121.10203,50.7111],[-121.10204,50.71095],[-121.1021,50.71079],[-121.10217,50.71063],[-121.10223,50.71052],[-121.10224,50.71048],[-121.10221,50.71029],[-121.10217,50.7101],[-121.1021,50.70992],[-121.10203,50.70974],[-121.10201,50.70959],[-121.10199,50.70944],[-121.10201,50.70925],[-121.10203,50.70906],[-121.10208,50.70883],[-121.10215,50.70861],[-121.10228,50.70844],[-121.10242,50.70827],[-121.10262,50.70809],[-121.10284,50.70789],[-121.10299,50.7077],[-121.10314,50.70749],[-121.10319,50.70731],[-121.10319,50.70709],[-121.10317,50.70689],[-121.10317,50.70686],[-121.10313,50.70665],[-121.10311,50.70645],[-121.10308,50.70626],[-121.10307,50.70608],[-121.10307,50.70591],[-121.10307,50.70589],[-121.10306,50.70572],[-121.10305,50.70554],[-121.103,50.70538],[-121.10297,50.70522],[-121.1029,50.70501],[-121.10286,50.7048],[-121.10286,50.70468],[-121.10286,50.70457],[-121.103,50.70439],[-121.10325,50.70425],[-121.10332,50.70407],[-121.1034,50.70389],[-121.10337,50.70372],[-121.10334,50.70356],[-121.10331,50.70339],[-121.10327,50.70319],[-121.10323,50.70299],[-121.10319,50.70279],[-121.10313,50.70263],[-121.10305,50.70246],[-121.10298,50.7023],[-121.10292,50.70215],[-121.10285,50.702],[-121.10282,50.70185],[-121.10278,50.7017],[-121.1028,50.70149],[-121.10283,50.70128],[-121.10286,50.70111],[-121.10287,50.70094],[-121.10289,50.70076],[-121.10287,50.70057],[-121.10285,50.70038],[-121.10283,50.70019],[-121.10279,50.7],[-121.1028,50.6998],[-121.1028,50.69947],[-121.10281,50.69929],[-121.10281,50.69918],[-121.10283,50.69908],[-121.10288,50.69886],[-121.10293,50.69877],[-121.10299,50.69869],[-121.10302,50.69858],[-121.10306,50.69835],[-121.10312,50.69815],[-121.10317,50.698],[-121.10319,50.69793],[-121.1033,50.69772],[-121.10333,50.69756],[-121.10338,50.69746],[-121.10347,50.69725],[-121.10353,50.69709]]}},
{"type":"Feature","properties":{"spotId":"A-grouse-walk-0098","kind":"walk","km":0.03,"climbM":0,"name":"1.5 km E of Boyes Creek","flags":["Route enters a Motor Vehicle Closed Area: Thompson, Cariboo and Okanagan Alpines. Closed Year Round. Exemption: Snowmobiles exempt year round (January 1 to December 31). Synopsis map 1-82/24."]},"geometry":{"type":"LineString","coordinates":[[-121.15405,50.60624],[-121.1537,50.60604]]}},
{"type":"Feature","properties":{"spotId":"A-grouse-walk-0098","kind":"roadside","km":4.0,"climbM":309,"name":"1.5 km E of Boyes Creek","flags":["Route enters a Motor Vehicle Closed Area: Thompson, Cariboo and Okanagan Alpines. Closed Year Round. Exemption: Snowmobiles exempt year round (January 1 to December 31). Synopsis map 1-82/24."]},"geometry":{"type":"LineString","coordinates":[[-121.1537,50.60604],[-121.15381,50.60612],[-121.15413,50.60633],[-121.15441,50.6066],[-121.15453,50.60677],[-121.15461,50.60697],[-121.15462,50.60729],[-121.1546,50.60743],[-121.15448,50.60767],[-121.15436,50.6079],[-121.15424,50.60816],[-121.15419,50.60844],[-121.15409,50.60864],[-121.15395,50.60882],[-121.15374,50.60904],[-121.15354,50.60933],[-121.15329,50.60969],[-121.15314,50.60988],[-121.15294,50.6102],[-121.1528,50.61048],[-121.15256,50.61101],[-121.15243,50.61138],[-121.15228,50.61186],[-121.15216,50.61227],[-121.15205,50.61277],[-121.15188,50.61321],[-121.15163,50.61401],[-121.15149,50.61436],[-121.15138,50.61465],[-121.15134,50.61481],[-121.15093,50.61562],[-121.15069,50.61617],[-121.15045,50.61669],[-121.15016,50.61726],[-121.14996,50.6176],[-121.14975,50.6178],[-121.14955,50.61803],[-121.1494,50.61825],[-121.14937,50.61839],[-121.14934,50.61855],[-121.14935,50.6187],[-121.14938,50.61899],[-121.14939,50.61932],[-121.14939,50.61951],[-121.14927,50.61986],[-121.14921,50.62039],[-121.14908,50.62098],[-121.14903,50.62141],[-121.14901,50.62163],[-121.14896,50.62176],[-121.14869,50.62209],[-121.14846,50.62235],[-121.14813,50.62259],[-121.14802,50.62269],[-121.14791,50.62286],[-121.14785,50.62314],[-121.14787,50.62345],[-121.14786,50.62366],[-121.14784,50.62398],[-121.14784,50.62416],[-121.14788,50.62446],[-121.14798,50.62471],[-121.14801,50.62497],[-121.1481,50.62538],[-121.14821,50.62581],[-121.14821,50.62615],[-121.14819,50.62633],[-121.14815,50.62637],[-121.148,50.62648],[-121.14791,50.62656],[-121.14789,50.62702],[-121.14791,50.62722],[-121.14796,50.62744],[-121.14795,50.62753],[-121.14785,50.62775],[-121.14781,50.62802],[-121.14765,50.6282],[-121.14752,50.62837],[-121.14709,50.62873],[-121.14694,50.62887],[-121.14674,50.62902],[-121.14658,50.62918],[-121.14635,50.62947],[-121.14627,50.6297],[-121.1462,50.62982],[-121.14609,50.62987],[-121.14597,50.62989],[-121.14583,50.62987],[-121.1456,50.62973],[-121.14549,50.62967],[-121.1454,50.62963],[-121.14529,50.62957],[-121.14527,50.62949],[-121.14525,50.62941],[-121.14526,50.62933],[-121.14535,50.62924],[-121.14547,50.62912],[-121.14548,50.62903],[-121.14548,50.62888],[-121.14546,50.62872],[-121.14545,50.62859],[-121.14545,50.62846],[-121.14536,50.6282],[-121.1451,50.62763],[-121.14497,50.62737],[-121.14478,50.62723],[-121.14429,50.62684],[-121.14409,50.62673],[-121.14375,50.62656],[-121.14358,50.62646],[-121.14327,50.62634],[-121.14303,50.62628],[-121.14282,50.62617],[-121.14259,50.62611],[-121.14206,50.62605],[-121.14157,50.62603],[-121.14138,50.62606],[-121.14108,50.62616],[-121.14081,50.62631],[-121.14066,50.62653],[-121.14063,50.62671],[-121.14058,50.62691],[-121.14064,50.62717],[-121.14065,50.62746],[-121.14064,50.6277],[-121.1406,50.62786],[-121.14053,50.628],[-121.14043,50.62816],[-121.1404,50.62829],[-121.14045,50.62845],[-121.14063,50.62866],[-121.14081,50.62894],[-121.14087,50.62902],[-121.14111,50.62918],[-121.14131,50.62924],[-121.14157,50.62933],[-121.14187,50.62942],[-121.14203,50.62952],[-121.14215,50.62964],[-121.14222,50.62976],[-121.14225,50.62988],[-121.14221,50.62999],[-121.14211,50.63018],[-121.14196,50.63033]]}},
{"type":"Feature","properties":{"spotId":"A-grouse-walk-0105","kind":"roadside","km":3.74,"climbM":189,"name":"1.4 km E of Woods Creek","flags":[]},"geometry":{"type":"LineString","coordinates":[[-121.09267,50.60505],[-121.09204,50.60547],[-121.09179,50.60565],[-121.09168,50.60572],[-121.09151,50.60582],[-121.09125,50.60596],[-121.09101,50.60609],[-121.09051,50.60634],[-121.09022,50.60648],[-121.08986,50.60661],[-121.08945,50.60668],[-121.08908,50.60678],[-121.08879,50.60688],[-121.08855,50.60695],[-121.08832,50.607],[-121.08802,50.60708],[-121.08765,50.60723],[-121.08721,50.6073],[-121.08669,50.60733],[-121.08629,50.60731],[-121.08593,50.60736],[-121.08561,50.60747],[-121.08538,50.60759],[-121.08531,50.60777],[-121.08534,50.60798],[-121.08543,50.60822],[-121.08552,50.60841],[-121.08557,50.60859],[-121.0856,50.60878],[-121.08558,50.60899],[-121.0855,50.60914],[-121.08534,50.60936],[-121.08521,50.60954],[-121.08507,50.60976],[-121.08491,50.61011],[-121.0848,50.61045],[-121.08459,50.61074],[-121.08437,50.61109],[-121.08418,50.61141],[-121.08394,50.61177],[-121.08378,50.61199],[-121.082,50.61306],[-121.08145,50.61306],[-121.08081,50.61304],[-121.07992,50.61281],[-121.07908,50.61267],[-121.07867,50.61233],[-121.07796,50.61179],[-121.07762,50.61141],[-121.07725,50.61103],[-121.07673,50.61046],[-121.07664,50.61009],[-121.07649,50.60968],[-121.07655,50.6095],[-121.07662,50.60947],[-121.07676,50.60942],[-121.07713,50.60934],[-121.07789,50.60931],[-121.0783,50.60926],[-121.07895,50.60914],[-121.07959,50.60905],[-121.08019,50.60891],[-121.08066,50.60872],[-121.08074,50.60855],[-121.08084,50.60837],[-121.08097,50.60822],[-121.08109,50.60804],[-121.08114,50.60797],[-121.08121,50.6079],[-121.0814,50.60769],[-121.08148,50.60756],[-121.08154,50.6075],[-121.08156,50.60745],[-121.08155,50.60739],[-121.08154,50.60734],[-121.08154,50.60731],[-121.08152,50.60723],[-121.08149,50.60718],[-121.08146,50.60714],[-121.08142,50.6071],[-121.08139,50.60699],[-121.08133,50.60688],[-121.08127,50.6068],[-121.08123,50.60677],[-121.08112,50.6067],[-121.08109,50.60667],[-121.08103,50.60663],[-121.08096,50.60658],[-121.08086,50.60649],[-121.08081,50.60646],[-121.08075,50.60642],[-121.08068,50.60637],[-121.08061,50.6063],[-121.08051,50.60623],[-121.08041,50.60614],[-121.08033,50.60606],[-121.08031,50.60604],[-121.08026,50.60602],[-121.08021,50.60599],[-121.08017,50.60593],[-121.08012,50.6059],[-121.08005,50.60584],[-121.07998,50.60579],[-121.07994,50.60573],[-121.07987,50.60565],[-121.07981,50.60559],[-121.07977,50.60557],[-121.07974,50.60552],[-121.07969,50.60545],[-121.07967,50.60542],[-121.0796,50.60535],[-121.07947,50.60519],[-121.07941,50.60511],[-121.07932,50.60504],[-121.07926,50.60498],[-121.07912,50.60486],[-121.07896,50.60473],[-121.07886,50.60466],[-121.07881,50.60462],[-121.07878,50.6046],[-121.07871,50.60456],[-121.07858,50.60452],[-121.07828,50.60438],[-121.07815,50.60433],[-121.07804,50.60428],[-121.07797,50.60421],[-121.07789,50.60416],[-121.07783,50.60413],[-121.07777,50.60411],[-121.0777,50.60406],[-121.07761,50.60403],[-121.07751,50.60398],[-121.07743,50.60397],[-121.07728,50.60392],[-121.07719,50.60388],[-121.07706,50.60382],[-121.07699,50.60379],[-121.07689,50.60375],[-121.07681,50.60371],[-121.07673,50.60368],[-121.07662,50.60363],[-121.07646,50.60356],[-121.07644,50.60354],[-121.07637,50.6035],[-121.07626,50.60342],[-121.07615,50.60336],[-121.07599,50.60326],[-121.07583,50.60316],[-121.07579,50.60313],[-121.07572,50.60309],[-121.07564,50.60303],[-121.07551,50.60293],[-121.07543,50.60287],[-121.0753,50.60279],[-121.07521,50.60275],[-121.07514,50.60271],[-121.07504,50.60263],[-121.07497,50.60257],[-121.07488,50.60251],[-121.07477,50.60245],[-121.07468,50.60236],[-121.07463,50.6023],[-121.07457,50.60225],[-121.07451,50.60219],[-121.07445,50.60213],[-121.0744,50.60208],[-121.07435,50.60202],[-121.07433,50.60198],[-121.07428,50.60191],[-121.07417,50.60178],[-121.07406,50.60166],[-121.07399,50.60158],[-121.07395,50.6015],[-121.07393,50.60147],[-121.07385,50.60139],[-121.07376,50.60128],[-121.0737,50.60122],[-121.07363,50.60117],[-121.07356,50.6011],[-121.07353,50.60106],[-121.07345,50.60099],[-121.07337,50.60091],[-121.07331,50.60084],[-121.07326,50.6008],[-121.07321,50.60077],[-121.07317,50.60074],[-121.0731,50.60072],[-121.07303,50.60068],[-121.07294,50.60064],[-121.0729,50.60059],[-121.07286,50.60055],[-121.07281,50.6005],[-121.07283,50.6004],[-121.07285,50.60033],[-121.07287,50.60029],[-121.07291,50.60023],[-121.07298,50.60019],[-121.07304,50.60015],[-121.07307,50.60013],[-121.07309,50.6001],[-121.07312,50.60007],[-121.07317,50.60003],[-121.07322,50.59999],[-121.07328,50.59994],[-121.07331,50.59991],[-121.07334,50.59989],[-121.07342,50.59985],[-121.07348,50.59983],[-121.07352,50.59981],[-121.07359,50.59977],[-121.07364,50.59974],[-121.07381,50.59968],[-121.07389,50.59966],[-121.07396,50.59965],[-121.074,50.59964],[-121.07408,50.59963],[-121.07413,50.59962],[-121.07417,50.59961],[-121.07422,50.5996],[-121.07431,50.59959],[-121.07438,50.59957],[-121.07447,50.59957],[-121.07455,50.59956],[-121.07462,50.59955],[-121.07468,50.59954],[-121.07473,50.59954],[-121.07485,50.59954],[-121.07493,50.59953],[-121.07501,50.59954],[-121.0751,50.59954],[-121.07518,50.59954],[-121.07524,50.59953],[-121.07531,50.59953],[-121.07536,50.59953],[-121.07541,50.59954],[-121.0755,50.59955],[-121.07554,50.59955],[-121.07564,50.59954],[-121.07574,50.59955],[-121.07582,50.59956],[-121.0759,50.59959],[-121.07599,50.59959],[-121.07606,50.5996],[-121.07611,50.59961],[-121.07615,50.59962],[-121.07625,50.59963],[-121.07636,50.59966],[-121.07643,50.59967],[-121.0765,50.59969],[-121.07657,50.5997],[-121.07666,50.59973],[-121.07672,50.59974],[-121.07677,50.59974],[-121.07685,50.59975]]}},
{"type":"Feature","properties":{"spotId":"A-moose-atv-0048","kind":"ride","km":1.24,"climbM":9,"name":"1.6 km N of Woods Creek","flags":[]},"geometry":{"type":"LineString","coordinates":[[-121.10101,50.62672],[-121.10099,50.62684],[-121.10095,50.62694],[-121.1008,50.62711],[-121.10054,50.62748],[-121.10043,50.62794],[-121.10044,50.62807],[-121.10049,50.62831],[-121.10051,50.62841],[-121.1006,50.62864],[-121.10065,50.62907],[-121.10055,50.6291],[-121.09996,50.62935],[-121.0996,50.62944],[-121.09913,50.62949],[-121.09869,50.62948],[-121.09821,50.62938],[-121.09797,50.62929],[-121.09782,50.62919],[-121.09762,50.62907],[-121.09739,50.62882],[-121.09711,50.62853],[-121.09688,50.62837],[-121.09638,50.6282],[-121.09584,50.62807],[-121.09582,50.62806],[-121.09543,50.628],[-121.09506,50.62798],[-121.09504,50.62808],[-121.09499,50.62828],[-121.09497,50.62838],[-121.09498,50.62849],[-121.09501,50.62865],[-121.09503,50.62878],[-121.09502,50.62892],[-121.09505,50.62907],[-121.09507,50.6292],[-121.09508,50.62935],[-121.09509,50.6295],[-121.09508,50.62962],[-121.0951,50.62974],[-121.09511,50.62988],[-121.09514,50.63],[-121.09516,50.63019],[-121.09518,50.63038],[-121.0952,50.63055],[-121.09522,50.63067],[-121.09523,50.63075],[-121.09524,50.6309],[-121.09526,50.63103],[-121.09531,50.6313],[-121.09532,50.63136],[-121.09534,50.63153],[-121.09549,50.6317],[-121.09559,50.63182],[-121.09564,50.63197],[-121.09566,50.63206],[-121.0957,50.63242]]}},
{"type":"Feature","properties":{"spotId":"A-moose-atv-0048","kind":"walk","km":0.31,"climbM":0,"name":"1.6 km N of Woods Creek","flags":[]},"geometry":{"type":"LineString","coordinates":[[-121.10101,50.62672],[-121.10539,50.62665]]}},
{"type":"Feature","properties":{"spotId":"A-moose-atv-0079","kind":"ride","km":1.06,"climbM":18,"name":"2.5 km NE of Nesbitt Lake","flags":[]},"geometry":{"type":"LineString","coordinates":[[-121.08316,50.73701],[-121.08309,50.73703],[-121.08284,50.73703],[-121.08259,50.73702],[-121.08227,50.73699],[-121.08195,50.73698],[-121.08173,50.73693],[-121.08152,50.73688],[-121.08128,50.73679],[-121.08096,50.73669],[-121.08069,50.73663],[-121.0804,50.73658],[-121.08012,50.73654],[-121.07983,50.73652],[-121.07962,50.7365],[-121.07941,50.73648],[-121.07914,50.73642],[-121.07889,50.73636],[-121.07861,50.73628],[-121.07833,50.73619],[-121.07801,50.73604],[-121.07768,50.73583],[-121.07747,50.73565],[-121.07728,50.73546],[-121.07719,50.73531],[-121.0771,50.73517],[-121.07685,50.73494],[-121.07664,50.7348],[-121.07644,50.73465],[-121.07619,50.73451],[-121.07594,50.73438],[-121.07579,50.73418],[-121.07566,50.73398],[-121.07563,50.73383],[-121.07563,50.73367],[-121.07568,50.73347],[-121.07566,50.7333],[-121.07565,50.73313],[-121.07564,50.73296],[-121.07559,50.73279],[-121.07554,50.73263],[-121.07551,50.73246],[-121.07549,50.73243],[-121.07546,50.73229],[-121.07541,50.7321],[-121.0754,50.73203],[-121.07537,50.7319],[-121.07534,50.73171],[-121.07532,50.73151],[-121.0753,50.73136],[-121.07559,50.73145],[-121.07571,50.73153],[-121.07601,50.73165],[-121.07629,50.73166],[-121.07632,50.73166],[-121.07647,50.73167]]}},
{"type":"Feature","properties":{"spotId":"A-moose-atv-0079","kind":"walk","km":0.04,"climbM":0,"name":"2.5 km NE of Nesbitt Lake","flags":[]},"geometry":{"type":"LineString","coordinates":[[-121.07647,50.73167],[-121.07652,50.73129]]}},
{"type":"Feature","properties":{"spotId":"A-moose-drive-0065","kind":"walk","km":0.13,"climbM":1,"name":"750 m W of Jimmies Creek","flags":[]},"geometry":{"type":"LineString","coordinates":[[-121.00246,50.68017],[-121.00061,50.68043]]}},
{"type":"Feature","properties":{"spotId":"A-moose-drive-0072","kind":"walk","km":0.06,"climbM":0,"name":"2.8 km SE of Jim Black Lake","flags":[]},"geometry":{"type":"LineString","coordinates":[[-121.13719,50.51411],[-121.13742,50.5146]]}},
{"type":"Feature","properties":{"spotId":"A-moose-walk-0027","kind":"walk","km":0.34,"climbM":1,"name":"1.6 km NE of Barnes Creek","flags":[]},"geometry":{"type":"LineString","coordinates":[[-121.05253,50.68429],[-121.05425,50.68715]]}}
]}
