{"type":"FeatureCollection","features":[
{"type":"Feature","properties":{"spotId":"A-camp-camp-0039","kind":"walk","km":0.04,"climbM":0,"name":"By Poison Creek","flags":[]},"geometry":{"type":"LineString","coordinates":[[-121.01213,50.22173],[-121.01254,50.22146]]}},
{"type":"Feature","properties":{"spotId":"A-deer-atv-0002","kind":"ride","km":1.92,"climbM":24,"name":"140 m NW of Poison Creek","flags":[]},"geometry":{"type":"LineString","coordinates":[[-121.08431,50.23858],[-121.08424,50.23848],[-121.08419,50.2384],[-121.08401,50.23823],[-121.08397,50.23817],[-121.08385,50.23806],[-121.08362,50.23784],[-121.08349,50.23769],[-121.08331,50.23748],[-121.08325,50.23726],[-121.08322,50.2372],[-121.08313,50.23701],[-121.08307,50.23681],[-121.083,50.23662],[-121.08293,50.23642],[-121.08293,50.23622],[-121.08289,50.23603],[-121.08287,50.23583],[-121.08286,50.23575],[-121.08281,50.23556],[-121.08269,50.23527],[-121.08258,50.23516],[-121.08248,50.23502],[-121.0824,50.23496],[-121.0823,50.23483],[-121.08223,50.23478],[-121.08208,50.23471],[-121.08201,50.23466],[-121.08185,50.23446],[-121.08152,50.23426],[-121.08147,50.23421],[-121.08137,50.23409],[-121.08123,50.23389],[-121.08106,50.23374],[-121.08093,50.23355],[-121.08082,50.23345],[-121.08059,50.23323],[-121.08043,50.23304],[-121.08038,50.23296],[-121.08026,50.23281],[-121.0801,50.23258],[-121.07987,50.23239],[-121.07968,50.23218],[-121.07955,50.23207],[-121.07941,50.23198],[-121.07908,50.2318],[-121.079,50.23178],[-121.07881,50.23162],[-121.07853,50.23148],[-121.0782,50.23133],[-121.07801,50.2311],[-121.07781,50.23098],[-121.0777,50.23096],[-121.07742,50.23084],[-121.07714,50.23078],[-121.07708,50.23074],[-121.07701,50.23063],[-121.07705,50.23057],[-121.07711,50.2305],[-121.07712,50.23042],[-121.07721,50.23024],[-121.07727,50.23012],[-121.07733,50.22999],[-121.07735,50.22985],[-121.07737,50.22966],[-121.07737,50.22947],[-121.07738,50.2292],[-121.07733,50.22901],[-121.07733,50.22884],[-121.07727,50.22866],[-121.07726,50.22859],[-121.07713,50.22837],[-121.07702,50.22825],[-121.07676,50.22804],[-121.07667,50.22793],[-121.07658,50.22777],[-121.07652,50.22773],[-121.07642,50.22756],[-121.07639,50.22747],[-121.07641,50.22736],[-121.07575,50.22721],[-121.07568,50.22718],[-121.0754,50.22702],[-121.07536,50.22698],[-121.07527,50.22674],[-121.07527,50.22654],[-121.07528,50.22629],[-121.0753,50.22601],[-121.07534,50.22578],[-121.07532,50.22563],[-121.07525,50.22561],[-121.07517,50.22554],[-121.07497,50.22534],[-121.07495,50.22529],[-121.07491,50.22505],[-121.07486,50.22481],[-121.07488,50.22434],[-121.07493,50.22412],[-121.07488,50.22387],[-121.07486,50.22367]]}},
{"type":"Feature","properties":{"spotId":"A-deer-atv-0002","kind":"walk","km":0.16,"climbM":0,"name":"140 m NW of Poison Creek","flags":[]},"geometry":{"type":"LineString","coordinates":[[-121.07486,50.22367],[-121.07705,50.22354]]}},
{"type":"Feature","properties":{"spotId":"A-deer-atv-0018","kind":"ride","km":5.17,"climbM":207,"name":"1.3 km SE of Pulpit Rock","flags":[]},"geometry":{"type":"LineString","coordinates":[[-121.08431,50.23858],[-121.08424,50.23848],[-121.08419,50.2384],[-121.08401,50.23823],[-121.08397,50.23817],[-121.08385,50.23806],[-121.08362,50.23784],[-121.08349,50.23769],[-121.08331,50.23748],[-121.08325,50.23726],[-121.08322,50.2372],[-121.08313,50.23701],[-121.08307,50.23681],[-121.083,50.23662],[-121.08293,50.23642],[-121.08293,50.23622],[-121.08289,50.23603],[-121.08287,50.23583],[-121.08286,50.23575],[-121.08281,50.23556],[-121.08269,50.23527],[-121.08258,50.23516],[-121.08248,50.23502],[-121.0824,50.23496],[-121.0823,50.23483],[-121.08223,50.23478],[-121.08208,50.23471],[-121.08201,50.23466],[-121.08185,50.23446],[-121.08152,50.23426],[-121.08147,50.23421],[-121.08137,50.23409],[-121.08123,50.23389],[-121.08106,50.23374],[-121.08093,50.23355],[-121.08082,50.23345],[-121.08059,50.23323],[-121.08043,50.23304],[-121.08038,50.23296],[-121.08026,50.23281],[-121.0801,50.23258],[-121.07987,50.23239],[-121.07968,50.23218],[-121.07955,50.23207],[-121.07941,50.23198],[-121.07908,50.2318],[-121.079,50.23178],[-121.07881,50.23162],[-121.07853,50.23148],[-121.0782,50.23133],[-121.07801,50.2311],[-121.07781,50.23098],[-121.0777,50.23096],[-121.07742,50.23084],[-121.07714,50.23078],[-121.07708,50.23074],[-121.07701,50.23063],[-121.07705,50.23057],[-121.07686,50.23055],[-121.07669,50.23051],[-121.07654,50.23044],[-121.07626,50.23035],[-121.07603,50.23023],[-121.07595,50.23022],[-121.07572,50.2302],[-121.07561,50.23019],[-121.07532,50.23016],[-121.07525,50.23013],[-121.07499,50.23006],[-121.0749,50.23],[-121.07474,50.22982],[-121.07473,50.22975],[-121.07465,50.22967],[-121.07457,50.22948],[-121.07449,50.22927],[-121.07435,50.22914],[-121.07427,50.22909],[-121.0742,50.22904],[-121.07412,50.22897],[-121.07387,50.22882],[-121.07357,50.22871],[-121.07325,50.22859],[-121.07314,50.22855],[-121.07284,50.22846],[-121.07271,50.22836],[-121.07268,50.22826],[-121.07257,50.22807],[-121.07245,50.22798],[-121.07224,50.22786],[-121.07218,50.22779],[-121.07215,50.22772],[-121.07213,50.22743],[-121.07212,50.22737],[-121.07205,50.22733],[-121.07192,50.2272],[-121.07178,50.22706],[-121.0717,50.22695],[-121.07165,50.2269],[-121.07162,50.22685],[-121.07146,50.22667],[-121.07141,50.22662],[-121.07119,50.22642],[-121.07111,50.22637],[-121.07091,50.2262],[-121.07077,50.22604],[-121.07071,50.22583],[-121.07066,50.22576],[-121.07048,50.22557],[-121.07031,50.22543],[-121.07019,50.22527],[-121.07017,50.22513],[-121.07015,50.22507],[-121.07015,50.22488],[-121.0701,50.22466],[-121.0701,50.22458],[-121.07015,50.22443],[-121.07013,50.2243],[-121.07012,50.22412],[-121.07014,50.22406],[-121.07036,50.22385],[-121.07041,50.22367],[-121.0704,50.22348],[-121.07041,50.22327],[-121.0704,50.22306],[-121.07038,50.223],[-121.07026,50.22289],[-121.07005,50.22276],[-121.06989,50.22261],[-121.0697,50.2225],[-121.06958,50.22233],[-121.06954,50.22228],[-121.06951,50.22222],[-121.06939,50.22213],[-121.06932,50.222],[-121.06931,50.22194],[-121.06937,50.22189],[-121.06951,50.2218],[-121.0698,50.2217],[-121.06993,50.22163],[-121.06999,50.22158],[-121.07005,50.22147],[-121.07007,50.22134],[-121.07008,50.22111],[-121.07004,50.22092],[-121.06999,50.22072],[-121.06998,50.22064],[-121.06995,50.22045],[-121.06992,50.22038],[-121.06985,50.2202],[-121.06981,50.22007],[-121.0698,50.22],[-121.06983,50.21981],[-121.06985,50.21974],[-121.06991,50.21954],[-121.06992,50.21948],[-121.06963,50.21917],[-121.06952,50.21897],[-121.06945,50.21892],[-121.0694,50.21884],[-121.06928,50.21867],[-121.06925,50.21862],[-121.06916,50.21841],[-121.06908,50.21821],[-121.06902,50.21816],[-121.06884,50.21805],[-121.06865,50.21791],[-121.06845,50.21784],[-121.06826,50.21771],[-121.0682,50.21766],[-121.06802,50.2176],[-121.06796,50.21755],[-121.06784,50.21742],[-121.06779,50.21727],[-121.06773,50.21715],[-121.06761,50.21694],[-121.06754,50.21676],[-121.06744,50.21659],[-121.06732,50.2164],[-121.0673,50.21632],[-121.06722,50.21614],[-121.06721,50.21608],[-121.06716,50.21589],[-121.06715,50.21583],[-121.06711,50.21565],[-121.06709,50.21544],[-121.06707,50.21526],[-121.06702,50.21514],[-121.06699,50.21495],[-121.06695,50.21488],[-121.0669,50.21471],[-121.06682,50.2145],[-121.06681,50.21444],[-121.06681,50.21423],[-121.06676,50.21398],[-121.06667,50.21387],[-121.06654,50.21379],[-121.06634,50.21368],[-121.06605,50.21352],[-121.06579,50.21342],[-121.06573,50.21338],[-121.06557,50.2133],[-121.06539,50.21326],[-121.0651,50.2132],[-121.06486,50.21309],[-121.06477,50.21306],[-121.06465,50.21306],[-121.06437,50.21304],[-121.06404,50.21305],[-121.06386,50.21303],[-121.06353,50.21302],[-121.06332,50.21303],[-121.06304,50.21305],[-121.06294,50.21307],[-121.0626,50.21312],[-121.06228,50.21317],[-121.06208,50.21322],[-121.06184,50.21331],[-121.06158,50.21344],[-121.06141,50.21357],[-121.06129,50.21368],[-121.06116,50.21376],[-121.06105,50.21377],[-121.06077,50.21376],[-121.06056,50.21374],[-121.06041,50.21369],[-121.0602,50.21356],[-121.06004,50.21349],[-121.05997,50.21347],[-121.05984,50.21346],[-121.05968,50.21342],[-121.05958,50.2134],[-121.05951,50.21336],[-121.05933,50.21322],[-121.05923,50.21313],[-121.059,50.21292],[-121.05893,50.21287],[-121.05864,50.21271],[-121.05844,50.21268],[-121.05809,50.21269],[-121.05783,50.21273],[-121.05757,50.21279],[-121.05762,50.21302],[-121.05774,50.21325],[-121.05785,50.21345],[-121.05814,50.21389],[-121.05832,50.21404],[-121.05799,50.21411],[-121.05776,50.21413],[-121.05731,50.21405],[-121.05701,50.21391],[-121.05687,50.21387],[-121.05672,50.2138],[-121.05644,50.21364],[-121.05626,50.21357],[-121.05615,50.21353],[-121.05581,50.21341],[-121.05552,50.21326],[-121.05525,50.21311],[-121.05522,50.21309],[-121.05494,50.21294],[-121.0546,50.21281],[-121.05425,50.21268],[-121.05417,50.21263],[-121.05396,50.21244],[-121.05382,50.21233],[-121.05373,50.21223],[-121.05354,50.21203],[-121.05353,50.21199],[-121.05355,50.21142],[-121.0535,50.2112],[-121.05348,50.21115],[-121.05332,50.21093],[-121.05297,50.21053],[-121.05281,50.21029],[-121.05265,50.21008],[-121.05259,50.20987],[-121.0526,50.20961],[-121.05262,50.20945],[-121.05262,50.20938],[-121.05267,50.20914],[-121.05273,50.20903],[-121.05278,50.209],[-121.0529,50.20881],[-121.05291,50.20876],[-121.05294,50.20852],[-121.05289,50.2083],[-121.05286,50.20826],[-121.05268,50.20805],[-121.0525,50.20784],[-121.05231,50.20765],[-121.05208,50.20748],[-121.05206,50.20743],[-121.05204,50.2074]]}},
{"type":"Feature","properties":{"spotId":"A-deer-atv-0018","kind":"walk","km":0.23,"climbM":51,"name":"1.3 km SE of Pulpit Rock","flags":[]},"geometry":{"type":"LineString","coordinates":[[-121.05204,50.2074],[-121.0493,50.20638]]}},
{"type":"Feature","properties":{"spotId":"A-deer-atv-0020","kind":"ride","km":1.33,"climbM":115,"name":"330 m SE of Hendy Creek","flags":[]},"geometry":{"type":"LineString","coordinates":[[-121.1338,50.23453],[-121.13384,50.23431],[-121.13386,50.23408],[-121.13384,50.23399],[-121.13375,50.23377],[-121.13375,50.23363],[-121.13378,50.2336],[-121.13389,50.23338],[-121.1339,50.23332],[-121.1339,50.23309],[-121.13391,50.23285],[-121.13404,50.23238],[-121.13405,50.23214],[-121.13413,50.23191],[-121.13412,50.23175],[-121.13388,50.23151],[-121.13366,50.23133],[-121.13341,50.23116],[-121.13323,50.2311],[-121.13304,50.23097],[-121.13302,50.23092],[-121.1329,50.2307],[-121.13289,50.23069],[-121.1328,50.2306],[-121.13256,50.23034],[-121.13196,50.23011],[-121.13157,50.22979],[-121.13086,50.22975],[-121.13026,50.22972],[-121.13008,50.22975],[-121.12971,50.22977],[-121.12937,50.22985],[-121.12909,50.22986],[-121.12905,50.22983],[-121.12877,50.22968],[-121.12871,50.22966],[-121.12837,50.22959],[-121.12808,50.22948],[-121.12804,50.22945],[-121.12779,50.22928],[-121.12733,50.22893],[-121.12707,50.22879],[-121.12678,50.22863],[-121.12671,50.22862],[-121.12662,50.22858],[-121.12659,50.22853],[-121.12643,50.22833],[-121.12637,50.2283],[-121.12633,50.22825],[-121.1262,50.22809],[-121.12605,50.22788],[-121.12604,50.22782],[-121.12608,50.2276],[-121.12643,50.22758],[-121.1268,50.22753],[-121.1269,50.22753],[-121.12724,50.22759],[-121.12759,50.22766],[-121.12794,50.22774],[-121.12829,50.2278],[-121.12855,50.22785],[-121.12864,50.22787],[-121.12879,50.22788]]}},
{"type":"Feature","properties":{"spotId":"A-deer-atv-0020","kind":"walk","km":0.16,"climbM":0,"name":"330 m SE of Hendy Creek","flags":[]},"geometry":{"type":"LineString","coordinates":[[-121.12879,50.22788],[-121.12848,50.22929]]}},
{"type":"Feature","properties":{"spotId":"A-deer-drive-0002","kind":"walk","km":0.22,"climbM":46,"name":"1.1 km SW of Gordon Creek","flags":[]},"geometry":{"type":"LineString","coordinates":[[-121.08387,50.23855],[-121.08094,50.23797]]}},
{"type":"Feature","properties":{"spotId":"A-deer-drive-0004","kind":"walk","km":0.09,"climbM":12,"name":"By Gordon Creek","flags":[]},"geometry":{"type":"LineString","coordinates":[[-121.09752,50.24834],[-121.09624,50.24853]]}},
{"type":"Feature","properties":{"spotId":"A-deer-drive-0008","kind":"walk","km":0.2,"climbM":8,"name":"740 m NW of Hendy Creek","flags":[]},"geometry":{"type":"LineString","coordinates":[[-121.1307,50.24484],[-121.12807,50.24538]]}},
{"type":"Feature","properties":{"spotId":"A-deer-drive-0033","kind":"walk","km":0.01,"climbM":0,"name":"410 m SE of Gordon Creek","flags":[]},"geometry":{"type":"LineString","coordinates":[[-121.05652,50.24226],[-121.0566,50.24234]]}},
{"type":"Feature","properties":{"spotId":"A-deer-drive-0043","kind":"walk","km":0.05,"climbM":0,"name":"640 m SW of Gordon Creek","flags":[]},"geometry":{"type":"LineString","coordinates":[[-121.03509,50.24095],[-121.03452,50.24121]]}},
{"type":"Feature","properties":{"spotId":"A-deer-walk-0012","kind":"walk","km":0.79,"climbM":234,"name":"520 m E of Manning Creek","flags":[]},"geometry":{"type":"LineString","coordinates":[[-121.1338,50.23453],[-121.14483,50.23379]]}},
{"type":"Feature","properties":{"spotId":"A-deer-walk-0015","kind":"walk","km":0.96,"climbM":160,"name":"680 m W of Nicola River","flags":["Route crosses reserve land: NOOAITCH 10. Get permission from the band office to hunt on or across it (synopsis page 9, 99%)."]},"geometry":{"type":"LineString","coordinates":[[-121.09147,50.22816],[-121.10472,50.22649]]}},
{"type":"Feature","properties":{"spotId":"A-deer-walk-0038","kind":"walk","km":1.99,"climbM":129,"name":"270 m S of Poison Creek","flags":[]},"geometry":{"type":"LineString","coordinates":[[-121.05831,50.24163],[-121.05713,50.22376]]}},
{"type":"Feature","properties":{"spotId":"A-duck-drive-0154","kind":"walk","km":0.1,"climbM":0,"name":"Unnamed wetland 740 m NW of Hendy Creek","flags":[]},"geometry":{"type":"LineString","coordinates":[[-121.13065,50.24463],[-121.12923,50.24476]]}},
{"type":"Feature","properties":{"spotId":"A-grouse-atv-0024","kind":"walk","km":0.42,"climbM":0,"name":"140 m NW of Hendy Creek","flags":["Route crosses private land (ParcelMap BC, updated 2026-09-25): get permission first or go around."]},"geometry":{"type":"LineString","coordinates":[[-121.13202,50.2395],[-121.12616,50.23889]]}},
{"type":"Feature","properties":{"spotId":"A-grouse-atv-0024","kind":"ride","km":3.19,"climbM":107,"name":"140 m NW of Hendy Creek","flags":["Route crosses private land (ParcelMap BC, updated 2026-09-25): get permission first or go around."]},"geometry":{"type":"LineString","coordinates":[[-121.12616,50.23889],[-121.12642,50.23906],[-121.12672,50.23917],[-121.12704,50.23928],[-121.1273,50.23943],[-121.12734,50.23947],[-121.12738,50.23957],[-121.12731,50.24027],[-121.12724,50.24051],[-121.1272,50.24055],[-121.12718,50.24091],[-121.1272,50.24115],[-121.12713,50.24118],[-121.1271,50.24124],[-121.12705,50.24148],[-121.12704,50.24171],[-121.12707,50.24194],[-121.12718,50.24216],[-121.12736,50.24242],[-121.12745,50.24264],[-121.12749,50.24288],[-121.1276,50.24308],[-121.12781,50.24327],[-121.12804,50.24344],[-121.12829,50.24361],[-121.12855,50.24378],[-121.12885,50.24392],[-121.12912,50.24406],[-121.12938,50.24423],[-121.12966,50.24438],[-121.12992,50.24454],[-121.12997,50.24457],[-121.13006,50.2448],[-121.13006,50.24493],[-121.13012,50.24507],[-121.13016,50.24511],[-121.13027,50.24517],[-121.13062,50.24528],[-121.13095,50.2454],[-121.13112,50.24545],[-121.13152,50.24548],[-121.13163,50.2455],[-121.13168,50.24551],[-121.13196,50.24566],[-121.13227,50.24579],[-121.1326,50.24592],[-121.13292,50.24606],[-121.13322,50.24619],[-121.13351,50.24634],[-121.13375,50.2465],[-121.13385,50.2466],[-121.13394,50.2467],[-121.13422,50.24685],[-121.13452,50.24698],[-121.13487,50.24704],[-121.13522,50.24707],[-121.13595,50.24708],[-121.13624,50.24708],[-121.13654,50.24708],[-121.13689,50.24702],[-121.13724,50.24698],[-121.13777,50.24687],[-121.1381,50.24682],[-121.13846,50.2468],[-121.13883,50.24681],[-121.1392,50.24684],[-121.13958,50.24687],[-121.13979,50.24685],[-121.13998,50.24681],[-121.14014,50.24675],[-121.1402,50.2467],[-121.14023,50.24668],[-121.14026,50.2466],[-121.14025,50.24636],[-121.14028,50.24612],[-121.14029,50.24581],[-121.14031,50.24557],[-121.14031,50.24552],[-121.14046,50.24534],[-121.14071,50.24518],[-121.14094,50.245],[-121.14113,50.2448],[-121.14133,50.2446],[-121.14154,50.2444],[-121.14175,50.2442],[-121.14193,50.244],[-121.14218,50.24385],[-121.1422,50.24383],[-121.14226,50.24381],[-121.14243,50.24377],[-121.14253,50.24378],[-121.14288,50.24382],[-121.14295,50.24383],[-121.14314,50.24384],[-121.1435,50.2438],[-121.14386,50.24371],[-121.14419,50.2436],[-121.14446,50.24345],[-121.14476,50.24327],[-121.14507,50.24311],[-121.14526,50.24291],[-121.14531,50.24288],[-121.14558,50.24278],[-121.14563,50.24276],[-121.1457,50.24275],[-121.14584,50.24278],[-121.14589,50.2428],[-121.14614,50.24298],[-121.14618,50.24302],[-121.14644,50.24317],[-121.14676,50.24329],[-121.14696,50.24333],[-121.14701,50.24333],[-121.14712,50.24332],[-121.14718,50.24329],[-121.14725,50.24325],[-121.14745,50.24305],[-121.14767,50.24287],[-121.14794,50.24272],[-121.14827,50.24261],[-121.14858,50.24251],[-121.14889,50.24238],[-121.14904,50.24231],[-121.14926,50.24212],[-121.1493,50.24208],[-121.14946,50.24198],[-121.14953,50.24195],[-121.14957,50.24194],[-121.14964,50.24195],[-121.14987,50.24207],[-121.14993,50.24211],[-121.15008,50.24226],[-121.15013,50.24233],[-121.15014,50.24237],[-121.15014,50.24239],[-121.15016,50.24261],[-121.15015,50.24284],[-121.15014,50.24289],[-121.15017,50.24301],[-121.1502,50.24312],[-121.15021,50.24317],[-121.15023,50.24339],[-121.15018,50.24365],[-121.15006,50.2439],[-121.14995,50.24415],[-121.14994,50.24439],[-121.14996,50.24464],[-121.14997,50.24469],[-121.15,50.24472],[-121.15026,50.24489],[-121.15053,50.24504],[-121.15065,50.24514],[-121.15075,50.24525],[-121.15098,50.24545],[-121.15103,50.24551],[-121.15112,50.24563],[-121.15123,50.24577],[-121.15138,50.24589],[-121.15158,50.24608],[-121.1518,50.24626]]}},
{"type":"Feature","properties":{"spotId":"A-grouse-drive-0074","kind":"roadside","km":5.54,"climbM":2,"name":"1.2 km W of Agate Creek","flags":[]},"geometry":{"type":"LineString","coordinates":[[-121.19744,50.23967],[-121.19725,50.23987],[-121.19679,50.24005],[-121.19597,50.24031],[-121.19534,50.24041],[-121.19496,50.24069],[-121.19434,50.2413],[-121.19372,50.24154],[-121.19268,50.24216],[-121.19213,50.24238],[-121.19066,50.24274],[-121.19022,50.24292],[-121.18999,50.24305],[-121.18985,50.24317],[-121.18964,50.24346],[-121.18956,50.2436],[-121.18953,50.24388],[-121.18945,50.24404],[-121.18915,50.2444],[-121.18869,50.24471],[-121.18859,50.24483],[-121.18833,50.24495],[-121.18791,50.2451],[-121.18738,50.24523],[-121.18543,50.24536],[-121.18514,50.24535],[-121.18465,50.24517],[-121.18446,50.24503],[-121.18427,50.24487],[-121.18395,50.24441],[-121.18377,50.24427],[-121.18368,50.24412],[-121.18345,50.2439],[-121.18329,50.24365],[-121.18308,50.24343],[-121.18249,50.24307],[-121.18198,50.24285],[-121.18177,50.24271],[-121.18164,50.24242],[-121.18149,50.24238],[-121.18122,50.2425],[-121.18115,50.24258],[-121.18096,50.24294],[-121.18094,50.24314],[-121.18096,50.24332],[-121.18135,50.2439],[-121.18157,50.2444],[-121.18156,50.24464],[-121.18151,50.24472],[-121.18144,50.24477],[-121.18119,50.24478],[-121.18109,50.24476],[-121.18065,50.24448],[-121.18049,50.24441],[-121.18021,50.24441],[-121.17961,50.24448],[-121.17933,50.24453],[-121.17889,50.24468],[-121.17841,50.24476],[-121.17808,50.24486],[-121.17788,50.24499],[-121.17761,50.2451],[-121.17703,50.24537],[-121.17691,50.24553],[-121.17673,50.24589],[-121.17656,50.24649],[-121.1764,50.24683],[-121.17622,50.24708],[-121.17599,50.24727],[-121.17571,50.24765],[-121.17533,50.24789],[-121.17435,50.24828],[-121.1741,50.24847],[-121.17388,50.24858],[-121.17334,50.24899],[-121.17317,50.2491],[-121.17235,50.24982],[-121.17208,50.24998],[-121.17184,50.25019],[-121.17151,50.25039],[-121.17088,50.25066],[-121.16988,50.25117],[-121.16935,50.25137],[-121.16821,50.25188],[-121.16729,50.25234],[-121.16683,50.25239],[-121.16646,50.25248],[-121.16566,50.25289],[-121.16519,50.25309],[-121.16469,50.25318],[-121.16417,50.25318],[-121.16364,50.25329],[-121.163,50.25355],[-121.16227,50.25408],[-121.16147,50.255],[-121.16131,50.25513],[-121.16094,50.25563],[-121.16081,50.25601],[-121.16044,50.25663],[-121.16043,50.25672],[-121.16044,50.25715],[-121.16056,50.25749],[-121.16055,50.25775],[-121.16047,50.2579],[-121.16024,50.25805],[-121.1599,50.2582],[-121.15962,50.25824],[-121.1591,50.25825],[-121.15799,50.25846],[-121.15778,50.25853],[-121.15718,50.25893],[-121.15671,50.25935],[-121.15592,50.25974],[-121.15574,50.25986],[-121.15524,50.26006],[-121.15491,50.26021],[-121.15394,50.26061],[-121.15318,50.26077],[-121.15298,50.26085],[-121.15255,50.2611],[-121.15233,50.26118],[-121.15181,50.26157],[-121.15172,50.2617],[-121.15173,50.26195],[-121.15187,50.26235],[-121.15186,50.26248],[-121.15175,50.26259],[-121.15162,50.26262],[-121.15141,50.2626],[-121.15132,50.26257],[-121.15115,50.26237],[-121.15087,50.26191],[-121.14999,50.2613],[-121.14991,50.26113],[-121.14998,50.26082],[-121.14995,50.26065],[-121.14946,50.25992],[-121.14925,50.2597],[-121.14874,50.25942],[-121.14859,50.25929],[-121.14849,50.25925]]}}
]}
