{"type":"FeatureCollection","features":[
{"type":"Feature","properties":{"spotId":"A-duck-drive-0139","kind":"walk","km":0.02,"climbM":0,"name":"Unnamed wetland by Twaal Lake","flags":[]},"geometry":{"type":"LineString","coordinates":[[-121.40831,50.57468],[-121.40799,50.57471]]}},
{"type":"Feature","properties":{"spotId":"A-duck-walk-0027","kind":"walk","km":0.32,"climbM":52,"name":"Unnamed wetland 720 m NE of Venables Creek","flags":[]},"geometry":{"type":"LineString","coordinates":[[-121.35351,50.5965],[-121.3577,50.59536]]}},
{"type":"Feature","properties":{"spotId":"A-grouse-drive-0056","kind":"roadside","km":5.06,"climbM":32,"name":"1.9 km N of Blue Earth Lake","flags":[]},"geometry":{"type":"LineString","coordinates":[[-121.47868,50.61102],[-121.47886,50.61104],[-121.47902,50.61109],[-121.47934,50.61124],[-121.48031,50.61179],[-121.48121,50.61227],[-121.48143,50.61238],[-121.48152,50.61244],[-121.48181,50.61262],[-121.48388,50.61403],[-121.48432,50.61432],[-121.48461,50.61453],[-121.48464,50.61456],[-121.48499,50.61483],[-121.48534,50.61514],[-121.48556,50.61531],[-121.48562,50.61534],[-121.48576,50.61541],[-121.48613,50.61554],[-121.48627,50.61559],[-121.48645,50.61561],[-121.48683,50.61562],[-121.48729,50.61562],[-121.48758,50.61558],[-121.48812,50.61545],[-121.48855,50.61535],[-121.48909,50.61529],[-121.48996,50.61529],[-121.49024,50.61528],[-121.49074,50.61527],[-121.49123,50.61516],[-121.49149,50.61511],[-121.49173,50.61511],[-121.49188,50.61509],[-121.49211,50.61503],[-121.49285,50.61474],[-121.49325,50.61468],[-121.49383,50.6146],[-121.49502,50.61445],[-121.49707,50.61414],[-121.49764,50.61402],[-121.49836,50.61391],[-121.49881,50.61384],[-121.49898,50.61384],[-121.49922,50.6139],[-121.50002,50.61415],[-121.50038,50.61423],[-121.50066,50.61428],[-121.50088,50.6143],[-121.50103,50.6143],[-121.50179,50.6141],[-121.50255,50.61392],[-121.50337,50.61369],[-121.50468,50.61327],[-121.50542,50.61296],[-121.50562,50.6129],[-121.50633,50.61269],[-121.50662,50.61262],[-121.50693,50.61257],[-121.50725,50.61253],[-121.50757,50.61251],[-121.50789,50.61251],[-121.50819,50.6125],[-121.50854,50.61252],[-121.50874,50.61256],[-121.50905,50.61266],[-121.50921,50.61275],[-121.50945,50.61289],[-121.50967,50.61304],[-121.50986,50.61321],[-121.51006,50.61337],[-121.51023,50.61353],[-121.51029,50.61361],[-121.51037,50.61371],[-121.51053,50.61388],[-121.51071,50.61404],[-121.51078,50.61414],[-121.51081,50.61417],[-121.5109,50.61428],[-121.51105,50.61444],[-121.5112,50.61463],[-121.51126,50.61476],[-121.51128,50.6149],[-121.51129,50.61509],[-121.51127,50.6153],[-121.51123,50.61553],[-121.5112,50.61572],[-121.51123,50.61586],[-121.5113,50.61598],[-121.51141,50.61609],[-121.51159,50.61626],[-121.51175,50.61642],[-121.51184,50.61654],[-121.512,50.61671],[-121.51218,50.61689],[-121.51226,50.61691],[-121.51246,50.61693],[-121.51257,50.61692],[-121.51277,50.61686],[-121.51306,50.61677],[-121.51336,50.61669],[-121.51367,50.61664],[-121.51378,50.61663],[-121.51398,50.61664],[-121.51431,50.61666],[-121.51454,50.61671],[-121.5148,50.61678],[-121.51498,50.61684],[-121.51523,50.61696],[-121.51551,50.61706],[-121.51579,50.61717],[-121.51607,50.61726],[-121.51619,50.61729],[-121.51639,50.61734],[-121.51657,50.6174],[-121.51687,50.61749],[-121.51702,50.61754],[-121.51719,50.61759],[-121.51748,50.61768],[-121.51766,50.61776],[-121.51793,50.61789],[-121.51808,50.61799],[-121.51826,50.61807],[-121.5184,50.61816],[-121.5185,50.61821],[-121.51876,50.61833],[-121.51886,50.61836],[-121.51907,50.61842],[-121.51917,50.61846],[-121.51935,50.61852],[-121.51964,50.61862],[-121.51984,50.61868],[-121.52013,50.61878],[-121.52034,50.61881],[-121.52054,50.61882],[-121.52071,50.61881],[-121.52088,50.61881],[-121.52119,50.6188],[-121.52142,50.6188],[-121.5215,50.6188],[-121.5216,50.61881],[-121.52191,50.61888],[-121.52224,50.61893],[-121.52253,50.61898],[-121.52287,50.61902],[-121.52318,50.61905],[-121.5235,50.61905],[-121.52383,50.61909],[-121.52414,50.61913],[-121.52445,50.61919],[-121.52466,50.61926],[-121.52485,50.61933],[-121.52512,50.61942],[-121.5254,50.6195],[-121.5255,50.61954],[-121.52576,50.61963],[-121.52601,50.61974],[-121.5261,50.6198],[-121.52622,50.61992],[-121.52637,50.6201],[-121.52648,50.62029],[-121.52664,50.62046],[-121.52679,50.62065],[-121.52694,50.62082],[-121.52712,50.62099],[-121.52719,50.62103],[-121.52729,50.62108],[-121.52755,50.62119],[-121.52786,50.62127],[-121.52811,50.62134],[-121.52815,50.62135],[-121.52822,50.62137],[-121.52835,50.62141],[-121.52853,50.62147],[-121.52877,50.6216],[-121.5288,50.62162],[-121.52891,50.6217],[-121.52904,50.62188],[-121.52919,50.62207],[-121.52931,50.62225],[-121.52943,50.62245],[-121.52957,50.62264],[-121.52961,50.62269],[-121.52975,50.62279],[-121.52985,50.62283],[-121.52998,50.62293],[-121.53004,50.62299],[-121.53008,50.62311],[-121.53019,50.62329],[-121.53018,50.62336],[-121.53019,50.62354],[-121.53019,50.62357],[-121.53019,50.62368],[-121.53018,50.62388],[-121.53019,50.62409],[-121.5302,50.62413],[-121.53023,50.62422],[-121.53029,50.62436],[-121.53039,50.62448],[-121.53052,50.62467],[-121.53055,50.62476],[-121.5306,50.62487],[-121.53072,50.62506],[-121.53082,50.62519],[-121.53098,50.62537],[-121.53116,50.62552],[-121.53126,50.62564],[-121.5313,50.62576],[-121.53129,50.6259],[-121.53129,50.6261],[-121.5313,50.62621],[-121.53131,50.62625],[-121.53131,50.62631],[-121.53135,50.62645],[-121.53138,50.62665],[-121.53141,50.62669],[-121.53142,50.62671],[-121.53156,50.62688],[-121.53171,50.62706],[-121.53176,50.62712],[-121.53189,50.62721],[-121.53207,50.6273],[-121.53219,50.62735]]}},
{"type":"Feature","properties":{"spotId":"A-grouse-walk-0095","kind":"walk","km":0.46,"climbM":92,"name":"1.0 km SW of Lone Tree Creek","flags":[]},"geometry":{"type":"LineString","coordinates":[[-121.45253,50.71023],[-121.446,50.71016]]}},
{"type":"Feature","properties":{"spotId":"A-grouse-walk-0095","kind":"roadside","km":5.25,"climbM":272,"name":"1.0 km SW of Lone Tree Creek","flags":[]},"geometry":{"type":"LineString","coordinates":[[-121.446,50.71016],[-121.44559,50.71033],[-121.44531,50.7105],[-121.44503,50.71073],[-121.44412,50.71164],[-121.44376,50.71197],[-121.44362,50.7122],[-121.44339,50.71235],[-121.44313,50.71244],[-121.44287,50.71253],[-121.44179,50.71261],[-121.44146,50.71263],[-121.44111,50.71265],[-121.44084,50.71272],[-121.44042,50.71287],[-121.44011,50.71299],[-121.43996,50.71307],[-121.4399,50.71322],[-121.43993,50.71332],[-121.4401,50.71348],[-121.44082,50.71377],[-121.44116,50.71393],[-121.44183,50.71417],[-121.44306,50.71457],[-121.44373,50.71477],[-121.44427,50.7149],[-121.44443,50.71495],[-121.44451,50.715],[-121.44454,50.71509],[-121.44451,50.71518],[-121.44437,50.7153],[-121.44421,50.71539],[-121.44394,50.71545],[-121.44355,50.71551],[-121.44298,50.71556],[-121.44249,50.71558],[-121.44204,50.71559],[-121.44144,50.71562],[-121.44061,50.71568],[-121.43995,50.71577],[-121.43952,50.71586],[-121.43917,50.71598],[-121.43898,50.71609],[-121.43877,50.71624],[-121.43869,50.71645],[-121.4387,50.71664],[-121.43876,50.71683],[-121.4389,50.71703],[-121.43916,50.71726],[-121.43862,50.71693],[-121.43772,50.71644],[-121.43728,50.71618],[-121.43681,50.71592],[-121.43645,50.7158],[-121.43594,50.71573],[-121.43546,50.71575],[-121.43468,50.71582],[-121.43331,50.71601],[-121.43259,50.71613],[-121.43161,50.71631],[-121.43105,50.71635],[-121.43085,50.71638],[-121.43086,50.7163],[-121.43087,50.71612],[-121.4309,50.71596],[-121.43094,50.7158],[-121.43097,50.71566],[-121.43099,50.71548],[-121.43104,50.71532],[-121.43109,50.71516],[-121.43116,50.71507],[-121.43118,50.71496],[-121.43118,50.71479],[-121.43115,50.71461],[-121.43111,50.71444],[-121.43104,50.71428],[-121.43094,50.7141],[-121.43081,50.71397],[-121.43071,50.71384],[-121.43067,50.7137],[-121.43067,50.71354],[-121.43078,50.71339],[-121.43098,50.71328],[-121.43115,50.71318],[-121.43138,50.71308],[-121.43164,50.71302],[-121.43187,50.71299],[-121.4321,50.71293],[-121.43234,50.71286],[-121.43244,50.71278],[-121.43253,50.71263],[-121.43254,50.71247],[-121.43246,50.71233],[-121.43235,50.71224],[-121.43216,50.71215],[-121.432,50.71204],[-121.43192,50.71191],[-121.43187,50.71177],[-121.43179,50.71161],[-121.43175,50.71144],[-121.43171,50.71128],[-121.43168,50.7111],[-121.43167,50.71095],[-121.43166,50.71077],[-121.43165,50.71059],[-121.43165,50.71044],[-121.43167,50.7103],[-121.43173,50.71016],[-121.43187,50.71001],[-121.43203,50.7099],[-121.43224,50.70978],[-121.43244,50.7097],[-121.4327,50.70966],[-121.43296,50.70962],[-121.4332,50.70959],[-121.43343,50.70958],[-121.43368,50.70953],[-121.43383,50.70942],[-121.43394,50.7093],[-121.43408,50.70918],[-121.43424,50.70907],[-121.43445,50.70898],[-121.43468,50.70891],[-121.43491,50.70884],[-121.43511,50.70876],[-121.43534,50.70873],[-121.43555,50.70869],[-121.43578,50.70866],[-121.43604,50.70861],[-121.43635,50.70856],[-121.43659,50.70852],[-121.43679,50.70843],[-121.43692,50.70829],[-121.43706,50.70817],[-121.4372,50.7081],[-121.43737,50.70808],[-121.43758,50.70812],[-121.43781,50.70816],[-121.43802,50.70816],[-121.43819,50.70809],[-121.43838,50.70798],[-121.43853,50.70784],[-121.43864,50.70768],[-121.43866,50.70758],[-121.43861,50.70746],[-121.43839,50.70737],[-121.43816,50.70728],[-121.43795,50.70717],[-121.43779,50.70706],[-121.43773,50.70699],[-121.43775,50.70687],[-121.43782,50.70683],[-121.43805,50.7068],[-121.43828,50.70675],[-121.43854,50.7067],[-121.43879,50.70668],[-121.43903,50.70665],[-121.43925,50.70661],[-121.4395,50.70658],[-121.43973,50.70659],[-121.43998,50.70659],[-121.44024,50.70659],[-121.44042,50.70657],[-121.44068,50.70656],[-121.44093,50.70657],[-121.44119,50.70656],[-121.4414,50.70652],[-121.44164,50.70649],[-121.44189,50.70648],[-121.44211,50.70646],[-121.44237,50.70645],[-121.44258,50.7064],[-121.44278,50.70633],[-121.44298,50.70623],[-121.4432,50.70617],[-121.44343,50.70613],[-121.44361,50.70606],[-121.44382,50.70592],[-121.44391,50.70577],[-121.44391,50.70563],[-121.4439,50.70543],[-121.44392,50.70525],[-121.44393,50.70509],[-121.44395,50.70494],[-121.44401,50.7048],[-121.44408,50.70465],[-121.44413,50.7045],[-121.44422,50.70438],[-121.44439,50.7043],[-121.44462,50.70421],[-121.44484,50.70421],[-121.44502,50.70423],[-121.44526,50.70431],[-121.44547,50.70441],[-121.44566,50.70454],[-121.44584,50.70467],[-121.44599,50.7048],[-121.4461,50.70495],[-121.44625,50.70509],[-121.44647,50.70517],[-121.44663,50.70519],[-121.44674,50.70516],[-121.44679,50.70507],[-121.44679,50.70493],[-121.44674,50.70477],[-121.44665,50.70463],[-121.44657,50.70449],[-121.44649,50.70435],[-121.44644,50.7042],[-121.44638,50.70405],[-121.44635,50.7039],[-121.44635,50.70374],[-121.44634,50.70357],[-121.44635,50.70345],[-121.44638,50.7033],[-121.44639,50.70313],[-121.4463,50.70303],[-121.44618,50.70289],[-121.44607,50.70277],[-121.44591,50.70265],[-121.44574,50.70252],[-121.44563,50.70243],[-121.44555,50.70228],[-121.44551,50.70212],[-121.44522,50.70192],[-121.4449,50.70169],[-121.44475,50.70156],[-121.4446,50.70143],[-121.44445,50.70131],[-121.44435,50.7012],[-121.44435,50.70104],[-121.44436,50.70089],[-121.44437,50.70073],[-121.44429,50.70059],[-121.44417,50.70046],[-121.44403,50.70032],[-121.44395,50.70016],[-121.44394,50.7],[-121.44389,50.69982],[-121.44391,50.69976],[-121.44392,50.69973]]}},
{"type":"Feature","properties":{"spotId":"A-moose-atv-0082","kind":"ride","km":3.13,"climbM":220,"name":"2.5 km W of Spatsum Creek","flags":[]},"geometry":{"type":"LineString","coordinates":[[-121.26896,50.61196],[-121.26891,50.61212],[-121.26885,50.61221],[-121.26861,50.61235],[-121.26843,50.61249],[-121.2683,50.6127],[-121.2682,50.61277],[-121.26785,50.61298],[-121.26784,50.61319],[-121.26785,50.61337],[-121.26785,50.61345],[-121.2678,50.61357],[-121.26764,50.61372],[-121.26746,50.61389],[-121.26739,50.61394],[-121.26725,50.61401],[-121.26709,50.61415],[-121.26703,50.61423],[-121.26689,50.61441],[-121.26682,50.61446],[-121.26647,50.61477],[-121.26609,50.61508],[-121.26599,50.61519],[-121.26587,50.61541],[-121.26569,50.61561],[-121.26557,50.61574],[-121.26532,50.61595],[-121.26518,50.61606],[-121.26512,50.61615],[-121.26507,50.61621],[-121.26502,50.61626],[-121.26475,50.61644],[-121.26442,50.61664],[-121.26429,50.61675],[-121.26412,50.61684],[-121.26396,50.61691],[-121.26369,50.61696],[-121.26352,50.61698],[-121.26325,50.61703],[-121.26306,50.61709],[-121.26293,50.61711],[-121.26267,50.61712],[-121.26235,50.61712],[-121.26209,50.61713],[-121.26183,50.61713],[-121.26157,50.61718],[-121.2615,50.61722],[-121.26142,50.61729],[-121.26131,50.61746],[-121.26116,50.61768],[-121.26104,50.61784],[-121.26099,50.61795],[-121.261,50.61817],[-121.26101,50.61826],[-121.26098,50.61833],[-121.26092,50.61842],[-121.26085,50.61848],[-121.26072,50.61856],[-121.26059,50.6186],[-121.26031,50.6186],[-121.26014,50.619],[-121.26012,50.61909],[-121.26002,50.61922],[-121.25996,50.61927],[-121.25964,50.61949],[-121.25937,50.6195],[-121.25887,50.6197],[-121.25858,50.61977],[-121.25826,50.61995],[-121.25808,50.62002],[-121.25793,50.62012],[-121.25766,50.62028],[-121.2575,50.62036],[-121.25726,50.62045],[-121.25715,50.62049],[-121.25705,50.62058],[-121.25695,50.62063],[-121.25682,50.62069],[-121.25658,50.62075],[-121.25631,50.62084],[-121.25577,50.6208],[-121.25566,50.62079],[-121.25546,50.62076],[-121.25521,50.62075],[-121.25511,50.62072],[-121.25487,50.62069],[-121.25463,50.62068],[-121.2545,50.62066],[-121.2542,50.6206],[-121.25376,50.62058],[-121.25348,50.62053],[-121.25321,50.62054],[-121.25295,50.62055],[-121.25285,50.62056],[-121.25247,50.62063],[-121.25223,50.62063],[-121.25196,50.62103],[-121.2519,50.62111],[-121.2518,50.62122],[-121.25165,50.62143],[-121.25152,50.62137],[-121.25147,50.62132],[-121.25144,50.62127],[-121.25136,50.62124],[-121.25118,50.62117],[-121.25105,50.62114],[-121.25097,50.62112],[-121.2509,50.6211],[-121.25059,50.62107],[-121.25029,50.62107],[-121.25019,50.62109],[-121.24997,50.62106],[-121.24967,50.62103],[-121.24953,50.62101],[-121.24932,50.62101],[-121.24909,50.62101],[-121.24899,50.62101],[-121.2487,50.62099],[-121.24857,50.62096],[-121.24835,50.62087],[-121.24813,50.62076],[-121.24804,50.62069],[-121.24795,50.62064],[-121.24786,50.62062],[-121.24778,50.6206],[-121.24769,50.62057],[-121.24753,50.62054],[-121.2473,50.62051],[-121.24699,50.6205],[-121.24675,50.62053],[-121.24652,50.6206],[-121.24641,50.62062],[-121.24611,50.62064],[-121.24604,50.62067],[-121.24602,50.62072],[-121.24602,50.62085],[-121.24603,50.62092],[-121.24602,50.621],[-121.2461,50.62116],[-121.24612,50.62147],[-121.24602,50.62147],[-121.24588,50.6215],[-121.24576,50.62155],[-121.24542,50.62166],[-121.24517,50.62179],[-121.24492,50.62182],[-121.24476,50.62182],[-121.24462,50.62183],[-121.24439,50.6219],[-121.24429,50.62191],[-121.24411,50.62191],[-121.24383,50.62187],[-121.24363,50.62183],[-121.24345,50.62182],[-121.24324,50.62182],[-121.2428,50.62178],[-121.24239,50.6218],[-121.24207,50.6219],[-121.24192,50.62193],[-121.24168,50.62195],[-121.24152,50.62196],[-121.24117,50.62201],[-121.24105,50.62202],[-121.2409,50.62198],[-121.24074,50.62201],[-121.2405,50.62211],[-121.24037,50.62214],[-121.24023,50.62218],[-121.24011,50.62224],[-121.24006,50.62232],[-121.24003,50.62249],[-121.23995,50.62269],[-121.23991,50.62275],[-121.23979,50.6228],[-121.23962,50.62282],[-121.23952,50.62282],[-121.23946,50.62274],[-121.23942,50.62255],[-121.23938,50.62239],[-121.23938,50.62224],[-121.23936,50.62202],[-121.23936,50.62184],[-121.2394,50.62171],[-121.23939,50.62156],[-121.23938,50.62142],[-121.23936,50.62127],[-121.23933,50.62116],[-121.23928,50.62105],[-121.23911,50.621],[-121.23891,50.62099]]}},
{"type":"Feature","properties":{"spotId":"A-moose-atv-0082","kind":"walk","km":0.05,"climbM":0,"name":"2.5 km W of Spatsum Creek","flags":[]},"geometry":{"type":"LineString","coordinates":[[-121.26896,50.61196],[-121.26971,50.61205]]}}
]}
