{"type":"FeatureCollection","features":[
{"type":"Feature","properties":{"spotId":"A-camp-camp-0109","kind":"walk","km":0.02,"climbM":1,"name":"370 m N of Tubbs Lake","flags":[]},"geometry":{"type":"LineString","coordinates":[[-121.2667,51.78135],[-121.26672,51.78151]]}},
{"type":"Feature","properties":{"spotId":"A-deer-atv-0056","kind":"ride","km":3.56,"climbM":79,"name":"1.0 km SE of 111 Mile Creek","flags":[]},"geometry":{"type":"LineString","coordinates":[[-121.3163,51.76469],[-121.31638,51.76474],[-121.31651,51.76492],[-121.31676,51.76506],[-121.31709,51.76524],[-121.31723,51.76528],[-121.31748,51.76539],[-121.31771,51.76551],[-121.31799,51.76563],[-121.3181,51.76567],[-121.31835,51.76584],[-121.31855,51.76597],[-121.31877,51.7661],[-121.31887,51.76616],[-121.31903,51.76624],[-121.31924,51.76639],[-121.31945,51.76656],[-121.31949,51.76659],[-121.31969,51.76671],[-121.31989,51.76686],[-121.32004,51.76705],[-121.32022,51.76725],[-121.32036,51.76745],[-121.32044,51.76754],[-121.3206,51.7677],[-121.32073,51.7679],[-121.32086,51.7681],[-121.32097,51.76823],[-121.32113,51.76843],[-121.32133,51.76864],[-121.32151,51.76878],[-121.32174,51.76892],[-121.3219,51.76899],[-121.32189,51.76901],[-121.32193,51.76919],[-121.32219,51.76937],[-121.32243,51.76953],[-121.32251,51.76961],[-121.32259,51.76969],[-121.32261,51.76974],[-121.32265,51.76974],[-121.32291,51.76985],[-121.32318,51.76996],[-121.32322,51.76998],[-121.32348,51.77013],[-121.32366,51.77029],[-121.32369,51.77033],[-121.32375,51.77052],[-121.32377,51.77071],[-121.32381,51.7708],[-121.3239,51.77091],[-121.32405,51.77107],[-121.32422,51.77123],[-121.32423,51.77124],[-121.32429,51.77128],[-121.32444,51.7714],[-121.32466,51.77154],[-121.3249,51.77167],[-121.32514,51.77178],[-121.32541,51.77191],[-121.32565,51.77206],[-121.32588,51.77225],[-121.32612,51.77242],[-121.32634,51.77258],[-121.32653,51.77273],[-121.32665,51.77291],[-121.32671,51.77313],[-121.32678,51.77335],[-121.32684,51.77355],[-121.32688,51.77375],[-121.3269,51.77397],[-121.32691,51.77418],[-121.32694,51.77438],[-121.32698,51.77457],[-121.32701,51.77462],[-121.32707,51.7748],[-121.32709,51.775],[-121.32709,51.77501],[-121.3271,51.77521],[-121.32708,51.7754],[-121.32706,51.77554],[-121.32706,51.77559],[-121.32704,51.7758],[-121.32694,51.77591],[-121.32684,51.77597],[-121.32657,51.77594],[-121.32625,51.77595],[-121.32593,51.77597],[-121.32578,51.77602],[-121.32571,51.77607],[-121.32561,51.77618],[-121.32557,51.77624],[-121.32557,51.7763],[-121.32556,51.77639],[-121.32556,51.77643],[-121.32561,51.77664],[-121.32565,51.77685],[-121.32564,51.77706],[-121.32563,51.77727],[-121.32566,51.77735],[-121.32569,51.77737],[-121.32577,51.77746],[-121.32585,51.77753],[-121.32608,51.77771],[-121.32633,51.77788],[-121.3265,51.77808],[-121.32661,51.7783],[-121.32669,51.77848],[-121.32678,51.77865],[-121.32688,51.77883],[-121.32694,51.77906],[-121.32691,51.77927],[-121.32688,51.77946],[-121.32685,51.77966],[-121.32682,51.7797],[-121.32677,51.77989],[-121.32673,51.78008],[-121.3268,51.78029],[-121.32688,51.78049],[-121.32688,51.78069],[-121.32685,51.78077],[-121.32682,51.78088],[-121.32672,51.78107],[-121.32669,51.78112],[-121.32669,51.78113],[-121.32667,51.78126],[-121.32667,51.7813],[-121.32667,51.78132],[-121.32665,51.78145],[-121.32663,51.78166],[-121.32663,51.78167],[-121.32655,51.78187],[-121.32647,51.78209],[-121.32643,51.7823],[-121.32643,51.78248],[-121.32642,51.78269],[-121.32641,51.78291],[-121.32642,51.78312],[-121.32643,51.78323],[-121.32644,51.78331],[-121.32645,51.78333],[-121.32645,51.78334],[-121.32644,51.78357],[-121.32644,51.78375],[-121.32643,51.78396],[-121.32642,51.78414],[-121.32636,51.78435],[-121.32625,51.78452],[-121.3261,51.78471],[-121.32606,51.78486],[-121.32605,51.7849],[-121.32598,51.7851],[-121.32596,51.78529],[-121.32594,51.78533],[-121.32588,51.78553],[-121.32578,51.78571],[-121.32574,51.7858],[-121.32558,51.78599],[-121.32542,51.78619],[-121.32522,51.78638],[-121.32501,51.78656],[-121.32498,51.78658],[-121.32482,51.78672],[-121.32465,51.78689],[-121.32449,51.78704],[-121.32431,51.7872],[-121.32418,51.7874],[-121.32409,51.78761],[-121.32397,51.78782],[-121.32356,51.78822],[-121.32345,51.78839],[-121.32334,51.7886],[-121.32319,51.78878],[-121.32305,51.78894],[-121.32285,51.78902],[-121.3225,51.78911],[-121.32231,51.78913],[-121.32213,51.78917],[-121.32203,51.78919],[-121.32171,51.78921],[-121.32167,51.78924],[-121.32162,51.78932],[-121.32163,51.78947],[-121.32166,51.7895],[-121.32171,51.78971],[-121.32171,51.7899],[-121.32171,51.7901],[-121.3217,51.7903],[-121.32171,51.79049],[-121.32167,51.79069],[-121.32152,51.79087],[-121.32141,51.79095],[-121.3214,51.79102],[-121.32133,51.79112],[-121.32126,51.79123],[-121.3212,51.79132],[-121.32115,51.79142],[-121.32109,51.79152],[-121.32106,51.79156],[-121.32101,51.79164],[-121.32096,51.79175],[-121.32093,51.79184],[-121.3209,51.7919]]}},
{"type":"Feature","properties":{"spotId":"A-deer-atv-0056","kind":"walk","km":0.32,"climbM":0,"name":"1.0 km SE of 111 Mile Creek","flags":[]},"geometry":{"type":"LineString","coordinates":[[-121.3209,51.7919],[-121.32536,51.79271]]}},
{"type":"Feature","properties":{"spotId":"A-deer-atv-0068","kind":"ride","km":1.2,"climbM":30,"name":"By Saddle Creek","flags":[]},"geometry":{"type":"LineString","coordinates":[[-121.41588,51.86281],[-121.41578,51.86287],[-121.41561,51.86304],[-121.41549,51.86321],[-121.41529,51.86338],[-121.41518,51.86348],[-121.41494,51.86362],[-121.4147,51.86376],[-121.41445,51.86389],[-121.41421,51.86402],[-121.414,51.86416],[-121.41374,51.86434],[-121.4135,51.8645],[-121.41334,51.86457],[-121.41323,51.86458],[-121.41287,51.86458],[-121.41259,51.86459],[-121.41235,51.86463],[-121.41222,51.86463],[-121.41186,51.86464],[-121.41152,51.8646],[-121.41116,51.8645],[-121.41087,51.86435],[-121.41075,51.86429],[-121.41065,51.86422],[-121.41041,51.86409],[-121.41028,51.86402],[-121.41002,51.86393],[-121.40972,51.86383],[-121.40952,51.86377],[-121.40922,51.86369],[-121.40899,51.86365],[-121.40876,51.86361],[-121.40871,51.86361],[-121.40842,51.86357],[-121.40809,51.86352],[-121.4079,51.86349],[-121.40759,51.86344],[-121.40746,51.86342],[-121.40727,51.86342],[-121.40696,51.86342],[-121.40677,51.86343],[-121.40645,51.86349],[-121.40619,51.86359],[-121.40592,51.8637],[-121.40573,51.86381],[-121.40566,51.86385],[-121.40564,51.86386],[-121.40548,51.86399],[-121.40528,51.86417],[-121.40516,51.86429],[-121.40516,51.86433],[-121.4051,51.86438],[-121.40507,51.86445],[-121.40498,51.86454],[-121.40496,51.86459],[-121.40484,51.86477],[-121.40472,51.86494],[-121.4047,51.86495],[-121.40457,51.86507],[-121.40432,51.8652],[-121.40427,51.86523],[-121.40396,51.86538],[-121.40371,51.86553],[-121.40338,51.86567],[-121.40325,51.86571],[-121.4029,51.86584],[-121.40269,51.86591],[-121.40265,51.86591],[-121.40241,51.86598],[-121.40218,51.8661],[-121.40216,51.86611]]}},
{"type":"Feature","properties":{"spotId":"A-deer-atv-0068","kind":"walk","km":0.23,"climbM":2,"name":"By Saddle Creek","flags":[]},"geometry":{"type":"LineString","coordinates":[[-121.40216,51.86611],[-121.40312,51.86808]]}},
{"type":"Feature","properties":{"spotId":"A-deer-atv-0111","kind":"ride","km":4.7,"climbM":126,"name":"800 m SW of Rail Creek","flags":[]},"geometry":{"type":"MultiLineString","coordinates":[[[-121.38506,51.82091],[-121.38502,51.82095],[-121.38483,51.82112],[-121.38469,51.82121],[-121.38454,51.8213],[-121.38436,51.82137],[-121.38411,51.82137],[-121.38385,51.82136],[-121.38359,51.8213],[-121.38314,51.82129],[-121.38284,51.82134],[-121.38258,51.82132],[-121.38233,51.82128],[-121.382,51.82133],[-121.38189,51.82136],[-121.38161,51.82137],[-121.38134,51.8213],[-121.38123,51.82128],[-121.38098,51.82118],[-121.38083,51.821],[-121.38048,51.82089],[-121.38031,51.82085],[-121.38024,51.82081]],[[-121.35246,51.80093],[-121.35245,51.80098],[-121.35245,51.80116],[-121.3525,51.80125],[-121.35266,51.80143],[-121.35282,51.80158],[-121.35305,51.80173],[-121.35328,51.80186],[-121.35353,51.80197],[-121.35382,51.80208],[-121.35385,51.80211],[-121.35399,51.80219],[-121.35402,51.80222],[-121.35415,51.80228],[-121.35449,51.80246],[-121.35477,51.80258],[-121.35485,51.8026],[-121.35516,51.80269],[-121.35544,51.80277],[-121.35573,51.8029],[-121.35602,51.80299],[-121.35637,51.80306],[-121.3567,51.80311],[-121.357,51.80311],[-121.35729,51.80312],[-121.35758,51.80315],[-121.35791,51.80322],[-121.35823,51.80336],[-121.35854,51.80346],[-121.35883,51.80353],[-121.3591,51.80363],[-121.35939,51.80371],[-121.35951,51.80371],[-121.3598,51.80363],[-121.36013,51.8036],[-121.36047,51.8036],[-121.36081,51.80363],[-121.36112,51.80367],[-121.36144,51.80371],[-121.3618,51.80373],[-121.36213,51.80373],[-121.36245,51.80369],[-121.3628,51.80366],[-121.36298,51.80366],[-121.36315,51.80365],[-121.36347,51.80367],[-121.36376,51.80374],[-121.364,51.80389],[-121.36421,51.80405],[-121.36439,51.8042],[-121.36458,51.80434],[-121.36476,51.80449],[-121.36501,51.80464],[-121.36529,51.80477],[-121.36536,51.80479],[-121.36567,51.80489],[-121.36599,51.80498],[-121.36628,51.80507],[-121.36655,51.80516],[-121.36683,51.80528],[-121.36705,51.80541],[-121.36709,51.80548],[-121.3671,51.8055],[-121.36715,51.8057],[-121.36718,51.80573],[-121.36721,51.80579],[-121.36735,51.80596],[-121.36747,51.80616],[-121.36758,51.80637],[-121.36764,51.80655],[-121.36784,51.80675],[-121.36801,51.8069],[-121.36819,51.80705],[-121.36845,51.80718],[-121.36876,51.80727],[-121.36909,51.80737],[-121.36939,51.80747],[-121.3697,51.80755],[-121.37001,51.80762],[-121.37034,51.80767],[-121.37069,51.80773],[-121.37099,51.80777],[-121.37117,51.80782],[-121.3715,51.80791],[-121.37177,51.80798],[-121.37188,51.80802],[-121.3722,51.80808],[-121.37249,51.80817],[-121.37277,51.80826],[-121.37309,51.80834],[-121.37339,51.80842],[-121.37352,51.80846],[-121.37382,51.80855],[-121.3745,51.80859],[-121.37479,51.80859],[-121.37508,51.8086],[-121.37543,51.80863],[-121.37565,51.80869],[-121.3759,51.80882],[-121.37619,51.80891],[-121.37651,51.8089],[-121.37681,51.80887],[-121.37712,51.80887],[-121.37715,51.80887],[-121.37747,51.80887],[-121.37757,51.80891],[-121.37785,51.80904],[-121.37817,51.80921],[-121.37851,51.80931],[-121.3787,51.80934],[-121.379,51.80936],[-121.3791,51.80936],[-121.37938,51.80941],[-121.37972,51.80952],[-121.38004,51.80961],[-121.38035,51.80971],[-121.38067,51.80979],[-121.38094,51.80987],[-121.38124,51.80996],[-121.38132,51.80997],[-121.38162,51.81006],[-121.38174,51.81017],[-121.38184,51.81024],[-121.38196,51.81025],[-121.38214,51.81042],[-121.38234,51.81061],[-121.38259,51.81079],[-121.38275,51.81088],[-121.38332,51.81114],[-121.38362,51.81128],[-121.38393,51.81142],[-121.38419,51.81154],[-121.38443,51.81166],[-121.38467,51.81179],[-121.38483,51.81185],[-121.38507,51.81196],[-121.38522,51.81203],[-121.38552,51.81218],[-121.38592,51.81237],[-121.38623,51.81249],[-121.38644,51.8126],[-121.38677,51.81279],[-121.387,51.81286],[-121.38716,51.81296],[-121.38748,51.81315],[-121.38767,51.81323],[-121.38785,51.81333],[-121.38811,51.81354],[-121.38834,51.81366],[-121.38848,51.81374],[-121.38836,51.81382],[-121.38827,51.81387],[-121.38809,51.81402],[-121.38799,51.81413],[-121.38791,51.81422],[-121.38783,51.81436],[-121.3878,51.8144],[-121.38779,51.81442],[-121.38768,51.8146],[-121.38754,51.81478],[-121.38739,51.81497],[-121.38731,51.81516],[-121.38735,51.81536],[-121.38747,51.81559],[-121.38759,51.81578],[-121.3877,51.81598],[-121.3878,51.81618],[-121.38782,51.81625],[-121.38777,51.81645],[-121.38769,51.81666],[-121.38767,51.81686],[-121.38769,51.81704],[-121.38771,51.81709],[-121.38772,51.8171],[-121.3874,51.81712],[-121.38709,51.81717],[-121.38676,51.81719],[-121.38644,51.81719],[-121.38632,51.81718],[-121.386,51.81719],[-121.38567,51.81722],[-121.38533,51.81725],[-121.385,51.81726],[-121.38468,51.81727],[-121.38435,51.81728],[-121.38403,51.81728],[-121.38372,51.81731],[-121.38343,51.81733],[-121.38307,51.81733],[-121.38278,51.8173],[-121.38242,51.81729],[-121.3821,51.81733],[-121.38193,51.81752],[-121.38187,51.81765],[-121.38182,51.81774],[-121.38174,51.81792],[-121.38169,51.81813],[-121.38168,51.81828],[-121.38168,51.81834],[-121.38176,51.81856],[-121.3819,51.81872],[-121.3821,51.8189],[-121.38218,51.81897],[-121.38232,51.81907],[-121.38245,51.81916],[-121.38256,51.81924],[-121.38261,51.81928],[-121.38281,51.81941],[-121.38309,51.81957],[-121.38315,51.8196],[-121.38339,51.81971],[-121.38367,51.81985],[-121.38394,51.82001],[-121.38417,51.82018],[-121.38438,51.82034],[-121.38459,51.8205],[-121.38464,51.82051],[-121.38468,51.82057],[-121.38475,51.82066],[-121.38482,51.82075],[-121.38487,51.82083]]]}},
{"type":"Feature","properties":{"spotId":"A-deer-atv-0111","kind":"walk","km":0.19,"climbM":2,"name":"800 m SW of Rail Creek","flags":[]},"geometry":{"type":"LineString","coordinates":[[-121.38024,51.82081],[-121.3785,51.82209]]}},
{"type":"Feature","properties":{"spotId":"A-deer-atv-0137","kind":"ride","km":2.98,"climbM":121,"name":"1.6 km N of Timothy Lake","flags":[]},"geometry":{"type":"LineString","coordinates":[[-121.32785,51.87412],[-121.32773,51.87406],[-121.32753,51.87398],[-121.32733,51.87392],[-121.32707,51.87386],[-121.32686,51.87382],[-121.32671,51.87379],[-121.32658,51.87375],[-121.32634,51.87369],[-121.32615,51.87365],[-121.32602,51.87362],[-121.32576,51.87357],[-121.3255,51.87352],[-121.32527,51.87349],[-121.32513,51.87344],[-121.32497,51.8734],[-121.32477,51.87336],[-121.32458,51.87333],[-121.32439,51.8733],[-121.3242,51.87329],[-121.32404,51.87328],[-121.32388,51.87327],[-121.32367,51.87328],[-121.32351,51.87327],[-121.32346,51.87327],[-121.3232,51.87327],[-121.32293,51.87326],[-121.32275,51.87325],[-121.32261,51.87325],[-121.32242,51.87325],[-121.32224,51.87322],[-121.32212,51.87318],[-121.3218,51.87313],[-121.32131,51.87307],[-121.32107,51.87306],[-121.32089,51.87305],[-121.32073,51.87305],[-121.32058,51.87304],[-121.32033,51.87304],[-121.32016,51.87305],[-121.31994,51.87305],[-121.31962,51.87307],[-121.31939,51.87308],[-121.31911,51.87309],[-121.31892,51.87309],[-121.31876,51.87311],[-121.3186,51.8731],[-121.31839,51.87309],[-121.31818,51.87309],[-121.31802,51.87311],[-121.31783,51.87312],[-121.3176,51.87315],[-121.31739,51.87317],[-121.31719,51.87316],[-121.31703,51.87315],[-121.31681,51.87314],[-121.31655,51.87314],[-121.31621,51.87312],[-121.316,51.8731],[-121.31581,51.87307],[-121.31563,51.87302],[-121.3155,51.87297],[-121.31534,51.87292],[-121.31511,51.87287],[-121.31494,51.87282],[-121.31478,51.87279],[-121.31463,51.87277],[-121.31445,51.87275],[-121.3142,51.87275],[-121.31401,51.87275],[-121.31381,51.87275],[-121.3136,51.87274],[-121.31342,51.87273],[-121.31327,51.87272],[-121.31311,51.8727],[-121.31295,51.87268],[-121.31281,51.87265],[-121.31264,51.87261],[-121.31251,51.87255],[-121.31236,51.87249],[-121.31221,51.87241],[-121.31209,51.87241],[-121.31193,51.87243],[-121.31174,51.87244],[-121.31154,51.87246],[-121.31132,51.87248],[-121.31114,51.87248],[-121.31097,51.87248],[-121.31082,51.87249],[-121.31068,51.8725],[-121.3105,51.87249],[-121.31023,51.87247],[-121.30991,51.87243],[-121.30969,51.8724],[-121.30946,51.87236],[-121.30913,51.8723],[-121.30883,51.87224],[-121.30866,51.8722],[-121.30847,51.87213],[-121.30825,51.87209],[-121.30799,51.87205],[-121.30785,51.87205],[-121.30767,51.87205],[-121.3075,51.87206],[-121.30731,51.87209],[-121.30712,51.8721],[-121.30692,51.87212],[-121.30668,51.87213],[-121.30648,51.87213],[-121.30633,51.87214],[-121.30626,51.87214],[-121.30604,51.87215],[-121.30583,51.87217],[-121.30561,51.87218],[-121.30543,51.87218],[-121.3052,51.87217],[-121.30494,51.87217],[-121.30478,51.87218],[-121.30458,51.87217],[-121.30437,51.87213],[-121.30424,51.8721],[-121.30416,51.8721],[-121.30403,51.87209],[-121.30387,51.87209],[-121.30369,51.87209],[-121.30355,51.8721],[-121.30333,51.87209],[-121.30328,51.87212],[-121.30312,51.87217],[-121.30295,51.87219],[-121.30267,51.87221],[-121.3025,51.87222],[-121.30235,51.87222],[-121.30221,51.8722],[-121.30199,51.87217],[-121.30185,51.87215],[-121.30169,51.87213],[-121.30151,51.87211],[-121.30131,51.87211],[-121.30112,51.87213],[-121.30093,51.87214],[-121.30074,51.87217],[-121.30058,51.87218],[-121.30039,51.87221],[-121.3002,51.87224],[-121.3,51.87227],[-121.29985,51.87231],[-121.29976,51.87238],[-121.29965,51.87249],[-121.29959,51.87259],[-121.29949,51.8727],[-121.29937,51.87279],[-121.29925,51.87287],[-121.29916,51.87295],[-121.29908,51.87303],[-121.29901,51.87312],[-121.29894,51.87321],[-121.29885,51.87329],[-121.29875,51.87339],[-121.29867,51.87348],[-121.29858,51.87355],[-121.29846,51.87363],[-121.2983,51.87369],[-121.29815,51.87375],[-121.29799,51.87377],[-121.2978,51.87377],[-121.2976,51.87377],[-121.29746,51.87377],[-121.29728,51.87374],[-121.29711,51.87372],[-121.29694,51.87369],[-121.29678,51.87365],[-121.29659,51.87361],[-121.29643,51.87358],[-121.29624,51.87357],[-121.29606,51.87353],[-121.29584,51.87351],[-121.29569,51.87349],[-121.29553,51.87347],[-121.29536,51.87347],[-121.2952,51.8735],[-121.29505,51.87352],[-121.29488,51.87356],[-121.29472,51.87357],[-121.29454,51.8736],[-121.29435,51.87362],[-121.29418,51.87364],[-121.29403,51.87368],[-121.29387,51.87369],[-121.29362,51.87371],[-121.29345,51.87372],[-121.29329,51.87373],[-121.29313,51.87375],[-121.29295,51.87376],[-121.29279,51.87379],[-121.29265,51.8738],[-121.29247,51.87383],[-121.2924,51.87382],[-121.29224,51.87377],[-121.29207,51.8737],[-121.2919,51.87365],[-121.29174,51.87361],[-121.29149,51.87356],[-121.29135,51.87356],[-121.29117,51.87356],[-121.29098,51.87355],[-121.29077,51.87356],[-121.29059,51.87356],[-121.29042,51.87358],[-121.2902,51.8736],[-121.29004,51.8736],[-121.28989,51.87363],[-121.28972,51.87364],[-121.28957,51.87366],[-121.28934,51.87363],[-121.2892,51.87361],[-121.28904,51.87359],[-121.28896,51.87356],[-121.28878,51.8735],[-121.28861,51.87343],[-121.28844,51.87335],[-121.28831,51.8733],[-121.28813,51.87323],[-121.28795,51.87319],[-121.28776,51.87315],[-121.28762,51.87313],[-121.28746,51.87311],[-121.28731,51.8731],[-121.28717,51.87308],[-121.287,51.87307]]}},
{"type":"Feature","properties":{"spotId":"A-deer-atv-0137","kind":"walk","km":0.08,"climbM":0,"name":"1.6 km N of Timothy Lake","flags":[]},"geometry":{"type":"LineString","coordinates":[[-121.287,51.87307],[-121.28712,51.87236]]}},
{"type":"Feature","properties":{"spotId":"A-deer-atv-0139","kind":"ride","km":1.01,"climbM":0,"name":"2.0 km N of Timothy Lake","flags":[]},"geometry":{"type":"LineString","coordinates":[[-121.31278,51.88005],[-121.31269,51.88],[-121.31254,51.87994],[-121.31233,51.87989],[-121.31219,51.87985],[-121.31203,51.87981],[-121.3119,51.87976],[-121.31176,51.87971],[-121.31157,51.87964],[-121.3114,51.87958],[-121.31124,51.87954],[-121.31107,51.87948],[-121.3109,51.87942],[-121.31074,51.87937],[-121.31058,51.87931],[-121.3104,51.87927],[-121.31024,51.87924],[-121.31009,51.87921],[-121.30992,51.87918],[-121.30973,51.87911],[-121.30952,51.87904],[-121.30935,51.87899],[-121.30914,51.87893],[-121.30899,51.87888],[-121.30883,51.87886],[-121.30865,51.87883],[-121.30848,51.87882],[-121.30829,51.87879],[-121.30811,51.87874],[-121.30804,51.87865],[-121.30798,51.87864],[-121.30766,51.87859],[-121.30737,51.87856],[-121.30708,51.87852],[-121.30678,51.87844],[-121.30646,51.87836],[-121.30616,51.87827],[-121.30591,51.87811],[-121.30582,51.87799],[-121.30583,51.87797],[-121.3061,51.87789],[-121.30641,51.87784],[-121.3067,51.87778],[-121.30701,51.87768],[-121.30704,51.87765],[-121.30709,51.87763],[-121.30731,51.87744],[-121.30746,51.87737],[-121.30778,51.87736],[-121.30807,51.8773],[-121.30815,51.87723],[-121.30815,51.8772],[-121.30816,51.87717],[-121.30822,51.87697],[-121.30824,51.87683],[-121.30827,51.87677],[-121.30835,51.87656],[-121.30841,51.87634],[-121.30849,51.87613],[-121.30854,51.87605],[-121.30865,51.87595],[-121.30883,51.87582],[-121.30887,51.87578],[-121.30915,51.87564],[-121.30921,51.87562],[-121.30933,51.87554],[-121.30944,51.87543],[-121.30955,51.87536],[-121.30966,51.87529],[-121.30982,51.87518],[-121.30996,51.87511]]}},
{"type":"Feature","properties":{"spotId":"A-deer-atv-0139","kind":"walk","km":0.27,"climbM":23,"name":"2.0 km N of Timothy Lake","flags":[]},"geometry":{"type":"LineString","coordinates":[[-121.30996,51.87511],[-121.31314,51.87655]]}},
{"type":"Feature","properties":{"spotId":"A-deer-drive-0051","kind":"walk","km":0.2,"climbM":36,"name":"520 m E of Larsen Lake","flags":[]},"geometry":{"type":"LineString","coordinates":[[-121.34874,51.81201],[-121.34617,51.81287]]}},
{"type":"Feature","properties":{"spotId":"A-deer-drive-0068","kind":"walk","km":0.05,"climbM":0,"name":"130 m NW of Rail Creek","flags":[]},"geometry":{"type":"LineString","coordinates":[[-121.42783,51.87832],[-121.42826,51.87799]]}},
{"type":"Feature","properties":{"spotId":"A-deer-drive-0070","kind":"walk","km":0.06,"climbM":10,"name":"By 111 Mile Creek","flags":[]},"geometry":{"type":"LineString","coordinates":[[-121.32416,51.81127],[-121.32458,51.81176]]}},
{"type":"Feature","properties":{"spotId":"A-deer-drive-0086","kind":"walk","km":0.24,"climbM":0,"name":"1.1 km W of Whitehorse Lake","flags":[]},"geometry":{"type":"LineString","coordinates":[[-121.4285,51.84177],[-121.4284,51.83964]]}},
{"type":"Feature","properties":{"spotId":"A-deer-drive-0105","kind":"walk","km":0.05,"climbM":0,"name":"1.3 km NE of Whitehorse Lake","flags":[]},"geometry":{"type":"LineString","coordinates":[[-121.3981,51.84697],[-121.39761,51.84735]]}},
{"type":"Feature","properties":{"spotId":"A-deer-walk-0072","kind":"walk","km":0.67,"climbM":74,"name":"330 m E of 111 Mile Creek","flags":["Route crosses private land (ParcelMap BC, updated 2026-09-25): get permission first or go around."]},"geometry":{"type":"LineString","coordinates":[[-121.34611,51.80078],[-121.34534,51.79475]]}},
{"type":"Feature","properties":{"spotId":"A-deer-walk-0086","kind":"walk","km":1.12,"climbM":28,"name":"530 m SW of Club Lake","flags":["Route crosses private land (ParcelMap BC, updated 2026-09-25): get permission first or go around."]},"geometry":{"type":"LineString","coordinates":[[-121.34874,51.81201],[-121.3487,51.81204],[-121.34871,51.81216],[-121.34871,51.81218],[-121.34876,51.81235],[-121.3488,51.81257],[-121.34868,51.81276],[-121.34862,51.81295],[-121.34862,51.81317],[-121.34862,51.81336],[-121.34866,51.81355],[-121.34871,51.81376],[-121.34876,51.81398],[-121.34886,51.81419],[-121.34898,51.81439],[-121.34912,51.81459],[-121.34926,51.81476],[-121.34941,51.81493],[-121.34955,51.8151],[-121.34969,51.81526],[-121.34985,51.81546],[-121.35002,51.81563],[-121.35025,51.81579],[-121.35046,51.81594],[-121.3507,51.8161],[-121.35093,51.81625],[-121.3512,51.81634],[-121.35137,51.81633],[-121.35161,51.81622],[-121.35182,51.81614],[-121.35211,51.81606],[-121.35242,51.81594],[-121.35253,51.81594],[-121.35271,51.81593],[-121.35304,51.81594],[-121.35336,51.81599],[-121.35366,51.81601],[-121.35397,51.81606],[-121.35428,51.81613],[-121.35457,51.81619],[-121.35487,51.81624],[-121.35526,51.81633],[-121.35295,51.81838]]}},
{"type":"Feature","properties":{"spotId":"A-deer-walk-0088","kind":"walk","km":0.67,"climbM":75,"name":"1.0 km SW of Chub Lake","flags":["Route crosses private land (ParcelMap BC, updated 2026-09-25): get permission first or go around."]},"geometry":{"type":"LineString","coordinates":[[-121.31315,51.80112],[-121.3145,51.79519]]}},
{"type":"Feature","properties":{"spotId":"A-deer-walk-0092","kind":"walk","km":0.65,"climbM":4,"name":"170 m N of Whitehorse Lake","flags":[]},"geometry":{"type":"LineString","coordinates":[[-121.39353,51.84105],[-121.39382,51.8409],[-121.39406,51.84078],[-121.39437,51.84066],[-121.39447,51.84064],[-121.39478,51.84061],[-121.39508,51.84056],[-121.3954,51.84043],[-121.39566,51.84026],[-121.39589,51.84013],[-121.39614,51.84002],[-121.39639,51.83992],[-121.39653,51.83988],[-121.39665,51.83984],[-121.39691,51.83973],[-121.39713,51.83961],[-121.39734,51.83948],[-121.39761,51.83936],[-121.3979,51.83924],[-121.3982,51.83909],[-121.39843,51.83898],[-121.39866,51.83886],[-121.39889,51.83874],[-121.39906,51.83866],[-121.39919,51.8386],[-121.39942,51.83849],[-121.39966,51.83838],[-121.3999,51.83827],[-121.4,51.83822],[-121.39991,51.83731]]}},
{"type":"Feature","properties":{"spotId":"A-deer-walk-0094","kind":"walk","km":0.55,"climbM":18,"name":"1.1 km W of Whitehorse Lake","flags":[]},"geometry":{"type":"LineString","coordinates":[[-121.4367,51.83888],[-121.42978,51.83645]]}},
{"type":"Feature","properties":{"spotId":"A-deer-walk-0121","kind":"walk","km":0.68,"climbM":27,"name":"250 m SW of Saddle Creek","flags":["Route crosses private land (ParcelMap BC, updated 2026-09-25): get permission first or go around."]},"geometry":{"type":"LineString","coordinates":[[-121.41859,51.86872],[-121.4087,51.86858]]}},
{"type":"Feature","properties":{"spotId":"A-deer-walk-0160","kind":"walk","km":0.93,"climbM":15,"name":"By Rail Creek","flags":["Route crosses private land (ParcelMap BC, updated 2026-09-25): get permission first or go around."]},"geometry":{"type":"LineString","coordinates":[[-121.3853,51.8387],[-121.38325,51.8305]]}},
{"type":"Feature","properties":{"spotId":"A-deer-walk-0169","kind":"walk","km":0.51,"climbM":53,"name":"530 m NW of 111 Mile Creek","flags":[]},"geometry":{"type":"LineString","coordinates":[[-121.328,51.80811],[-121.33183,51.81206]]}},
{"type":"Feature","properties":{"spotId":"A-duck-drive-0025","kind":"walk","km":0.03,"climbM":0,"name":"Unnamed wetland by Larsen Lake","flags":[]},"geometry":{"type":"LineString","coordinates":[[-121.35144,51.81103],[-121.35174,51.8112]]}},
{"type":"Feature","properties":{"spotId":"A-duck-drive-0031","kind":"walk","km":0.09,"climbM":0,"name":"Unnamed wetland 440 m NE of 114 Mile House","flags":[]},"geometry":{"type":"LineString","coordinates":[[-121.43032,51.80166],[-121.4296,51.8023]]}},
{"type":"Feature","properties":{"spotId":"A-duck-walk-0013","kind":"walk","km":0.39,"climbM":0,"name":"Unnamed wetland by Stack Lake","flags":["Route crosses private land (ParcelMap BC, updated 2026-09-25): get permission first or go around."]},"geometry":{"type":"LineString","coordinates":[[-121.45938,51.83076],[-121.45535,51.8283]]}},
{"type":"Feature","properties":{"spotId":"A-duck-walk-0017","kind":"walk","km":0.41,"climbM":32,"name":"Unnamed lake 440 m NW of 111 Mile Creek","flags":[]},"geometry":{"type":"LineString","coordinates":[[-121.32416,51.81127],[-121.3279,51.81408]]}},
{"type":"Feature","properties":{"spotId":"A-duck-walk-0057","kind":"walk","km":0.57,"climbM":4,"name":"Unnamed lake 900 m NE of Sucker Lake","flags":["Route crosses private land (ParcelMap BC, updated 2026-09-25): get permission first or go around."]},"geometry":{"type":"LineString","coordinates":[[-121.30472,51.76532],[-121.30463,51.76524],[-121.30459,51.76517],[-121.30448,51.76497],[-121.30448,51.76494],[-121.30439,51.76474],[-121.30429,51.76458],[-121.30424,51.76449],[-121.30415,51.76441],[-121.30407,51.76433],[-121.30387,51.76415],[-121.30368,51.76397],[-121.30345,51.76386],[-121.30316,51.76374],[-121.30288,51.76364],[-121.30257,51.76362],[-121.30244,51.76363],[-121.30225,51.76364],[-121.30196,51.76368],[-121.30164,51.76373],[-121.3015,51.76372],[-121.29864,51.76253]]}},
{"type":"Feature","properties":{"spotId":"A-grouse-atv-0075","kind":"walk","km":2.24,"climbM":130,"name":"1.7 km E of Sucker Lake","flags":["Route crosses private land (ParcelMap BC, updated 2026-09-25): get permission first or go around."]},"geometry":{"type":"LineString","coordinates":[[-121.30145,51.76582],[-121.28061,51.75044]]}},
{"type":"Feature","properties":{"spotId":"A-grouse-atv-0075","kind":"ride","km":3.78,"climbM":149,"name":"1.7 km E of Sucker Lake","flags":["Route crosses private land (ParcelMap BC, updated 2026-09-25): get permission first or go around."]},"geometry":{"type":"LineString","coordinates":[[-121.28061,51.75044],[-121.28074,51.75045],[-121.28108,51.75046],[-121.28145,51.75045],[-121.28174,51.75046],[-121.28203,51.75045],[-121.28232,51.75045],[-121.28261,51.75044],[-121.2829,51.75045],[-121.28319,51.75044],[-121.28348,51.75045],[-121.28377,51.75045],[-121.28407,51.75045],[-121.28444,51.75046],[-121.28475,51.7505],[-121.28509,51.7505],[-121.28546,51.75047],[-121.28581,51.7504],[-121.28617,51.75031],[-121.28653,51.75023],[-121.28682,51.75023],[-121.28712,51.75026],[-121.28744,51.7503],[-121.28775,51.75028],[-121.28807,51.75025],[-121.28864,51.75028],[-121.289,51.75035],[-121.28926,51.75043],[-121.28956,51.75054],[-121.28985,51.75065],[-121.29013,51.75075],[-121.29042,51.75083],[-121.29075,51.75096],[-121.29095,51.7511],[-121.29103,51.7512],[-121.29108,51.75131],[-121.29122,51.75149],[-121.29134,51.75167],[-121.29151,51.75183],[-121.29172,51.75201],[-121.29175,51.75203],[-121.29196,51.75219],[-121.29216,51.75233],[-121.2924,51.7525],[-121.29244,51.75254],[-121.29261,51.75267],[-121.2927,51.75274],[-121.29282,51.75284],[-121.29306,51.75299],[-121.29332,51.75315],[-121.2935,51.75329],[-121.2936,51.75339],[-121.29373,51.7536],[-121.29387,51.75381],[-121.29407,51.754],[-121.29426,51.75418],[-121.29446,51.75436],[-121.29466,51.75455],[-121.29481,51.75468],[-121.29487,51.75473],[-121.29503,51.75489],[-121.29523,51.75508],[-121.29526,51.75511],[-121.29541,51.75529],[-121.29553,51.75545],[-121.29563,51.75562],[-121.29566,51.7557],[-121.29569,51.75581],[-121.29576,51.75604],[-121.29579,51.75623],[-121.29582,51.75641],[-121.29584,51.75661],[-121.29583,51.75681],[-121.29584,51.75701],[-121.29583,51.75723],[-121.29585,51.75744],[-121.29587,51.75762],[-121.29592,51.75781],[-121.29602,51.75801],[-121.29618,51.7582],[-121.29631,51.75836],[-121.29642,51.75853],[-121.29651,51.75872],[-121.29661,51.7589],[-121.2967,51.75908],[-121.29677,51.75927],[-121.29682,51.75946],[-121.29687,51.7597],[-121.29689,51.75988],[-121.2969,51.76008],[-121.29687,51.76028],[-121.29684,51.7605],[-121.29679,51.76069],[-121.29673,51.7609],[-121.29671,51.76109],[-121.29665,51.76128],[-121.29665,51.7613],[-121.29661,51.76141],[-121.29647,51.76133],[-121.29617,51.76126],[-121.29599,51.76118],[-121.29582,51.76106],[-121.29567,51.76097],[-121.29552,51.76087],[-121.29532,51.76073],[-121.29509,51.76058],[-121.2949,51.76046],[-121.29471,51.76033],[-121.2945,51.76019],[-121.29427,51.76004],[-121.29411,51.75992],[-121.29391,51.7598],[-121.29369,51.75967],[-121.2935,51.75954],[-121.29328,51.75942],[-121.29311,51.75929],[-121.29283,51.75914],[-121.29253,51.75896],[-121.29234,51.75882],[-121.29204,51.75863],[-121.29177,51.75844],[-121.2915,51.75826],[-121.29132,51.75813],[-121.29116,51.75798],[-121.29088,51.75779],[-121.29058,51.75767],[-121.29028,51.75752],[-121.29016,51.75741],[-121.28996,51.75729],[-121.28972,51.75719],[-121.28962,51.75712],[-121.28931,51.75692],[-121.28911,51.75678],[-121.289,51.7567],[-121.28799,51.75601],[-121.28784,51.75583],[-121.28771,51.75574],[-121.28749,51.75562],[-121.28732,51.75552],[-121.2871,51.75539],[-121.2868,51.75526],[-121.28659,51.75512],[-121.28637,51.75497],[-121.28611,51.75482],[-121.28597,51.75473],[-121.28571,51.7546],[-121.28543,51.75444],[-121.28523,51.7543],[-121.28498,51.75407],[-121.28488,51.75398],[-121.2847,51.75384],[-121.28453,51.75374],[-121.28429,51.75365],[-121.28404,51.75361],[-121.28379,51.75363],[-121.28356,51.75361],[-121.28324,51.75361],[-121.2831,51.75356],[-121.28299,51.75345],[-121.28296,51.75338],[-121.28297,51.75318],[-121.28299,51.7531],[-121.28302,51.75299],[-121.28306,51.75281],[-121.28302,51.75266],[-121.28299,51.75264],[-121.28272,51.75254],[-121.28243,51.75247],[-121.28213,51.75242],[-121.28191,51.7524],[-121.2818,51.75239],[-121.28156,51.75232],[-121.28135,51.75225],[-121.28126,51.75219],[-121.28109,51.75207],[-121.28092,51.75195],[-121.28073,51.75182],[-121.28051,51.75163],[-121.28037,51.75146],[-121.2803,51.75135],[-121.28028,51.75129],[-121.2802,51.75112],[-121.28015,51.75105],[-121.2801,51.75086],[-121.28018,51.75069],[-121.2802,51.75066],[-121.28044,51.75052],[-121.28061,51.75044]]}},
{"type":"Feature","properties":{"spotId":"A-grouse-atv-0098","kind":"walk","km":2.14,"climbM":125,"name":"1.2 km N of Club Lake","flags":["Route crosses private land (ParcelMap BC, updated 2026-09-25): get permission first or go around."]},"geometry":{"type":"LineString","coordinates":[[-121.34874,51.81201],[-121.3497,51.83123]]}},
{"type":"Feature","properties":{"spotId":"A-grouse-atv-0098","kind":"ride","km":3.64,"climbM":71,"name":"1.2 km N of Club Lake","flags":["Route crosses private land (ParcelMap BC, updated 2026-09-25): get permission first or go around."]},"geometry":{"type":"LineString","coordinates":[[-121.3497,51.83123],[-121.34981,51.83134],[-121.34999,51.83151],[-121.35008,51.83157],[-121.35012,51.83158],[-121.35039,51.83163],[-121.35049,51.83166],[-121.35058,51.83174],[-121.35059,51.83178],[-121.35069,51.83188],[-121.3508,51.83196],[-121.35082,51.83197],[-121.35099,51.83203],[-121.35108,51.83204],[-121.35131,51.83208],[-121.35159,51.83214],[-121.35189,51.83214],[-121.3522,51.83213],[-121.35254,51.83211],[-121.35287,51.83209],[-121.35322,51.83202],[-121.35327,51.83202],[-121.35357,51.83205],[-121.35387,51.83214],[-121.35413,51.83223],[-121.35439,51.83229],[-121.35472,51.83238],[-121.35478,51.8324],[-121.35508,51.83245],[-121.35541,51.83249],[-121.35579,51.83253],[-121.35615,51.83256],[-121.3565,51.83258],[-121.35653,51.83258],[-121.3568,51.8326],[-121.35712,51.83259],[-121.35724,51.83258],[-121.35736,51.83256],[-121.35759,51.83252],[-121.35773,51.83254],[-121.35808,51.8327],[-121.35836,51.83276],[-121.35867,51.83278],[-121.35877,51.83279],[-121.35909,51.83281],[-121.35939,51.83281],[-121.35974,51.83284],[-121.36006,51.83291],[-121.3603,51.83297],[-121.36035,51.83298],[-121.36065,51.83305],[-121.36089,51.83311],[-121.36092,51.83312],[-121.36121,51.83321],[-121.36148,51.8333],[-121.36159,51.83334],[-121.36181,51.83352],[-121.36202,51.83374],[-121.36214,51.8339],[-121.36218,51.83401],[-121.36223,51.83412],[-121.36223,51.83431],[-121.36225,51.83451],[-121.36231,51.83471],[-121.36233,51.83473],[-121.36234,51.83478],[-121.36235,51.83496],[-121.36253,51.83515],[-121.36268,51.83531],[-121.36278,51.8354],[-121.36294,51.8356],[-121.36304,51.83581],[-121.36317,51.83601],[-121.36335,51.83621],[-121.36342,51.83629],[-121.36362,51.83646],[-121.36389,51.83662],[-121.36409,51.83684],[-121.36423,51.83703],[-121.3643,51.83713],[-121.36443,51.8373],[-121.36455,51.83751],[-121.3646,51.83762],[-121.36461,51.83772],[-121.36463,51.8378],[-121.3646,51.838],[-121.36457,51.83809],[-121.36454,51.83819],[-121.36443,51.83839],[-121.36428,51.83856],[-121.36406,51.83871],[-121.36379,51.83884],[-121.36355,51.83899],[-121.36336,51.83919],[-121.36312,51.83936],[-121.36309,51.83937],[-121.36303,51.83943],[-121.363,51.83944],[-121.36284,51.8395],[-121.36249,51.83946],[-121.36217,51.83942],[-121.36216,51.83942],[-121.36184,51.83942],[-121.36171,51.83942],[-121.36153,51.83942],[-121.36124,51.83944],[-121.36089,51.83945],[-121.3606,51.83946],[-121.3603,51.83947],[-121.35999,51.83947],[-121.35969,51.83947],[-121.35938,51.83947],[-121.35906,51.83946],[-121.35876,51.83946],[-121.35846,51.83944],[-121.35817,51.83944],[-121.35786,51.83943],[-121.35756,51.8394],[-121.35721,51.8394],[-121.35718,51.8394],[-121.35687,51.83941],[-121.35667,51.83945],[-121.35638,51.83955],[-121.35617,51.83961],[-121.35589,51.83972],[-121.35554,51.83977],[-121.35525,51.83979],[-121.35493,51.83979],[-121.35463,51.83979],[-121.35426,51.83978],[-121.3539,51.83977],[-121.3536,51.83974],[-121.35328,51.8397],[-121.35298,51.83965],[-121.35264,51.83957],[-121.35257,51.83955],[-121.35236,51.83939],[-121.35232,51.83934],[-121.35226,51.83929],[-121.35205,51.83914],[-121.35192,51.83903],[-121.35185,51.83898],[-121.35167,51.83886],[-121.35144,51.83872],[-121.35112,51.83866],[-121.35082,51.83865],[-121.35049,51.83865],[-121.35015,51.83864],[-121.34986,51.83864],[-121.34967,51.83862],[-121.34956,51.83861],[-121.3494,51.83858],[-121.34933,51.83857],[-121.34924,51.83854],[-121.34919,51.83845],[-121.34913,51.83834],[-121.34912,51.83832],[-121.34905,51.83814],[-121.34894,51.83795],[-121.34886,51.83775],[-121.34887,51.83754],[-121.34889,51.83747],[-121.3489,51.83743],[-121.34897,51.83737],[-121.34922,51.83725],[-121.34951,51.83719],[-121.34982,51.83709],[-121.34988,51.83708],[-121.35011,51.83693],[-121.35036,51.83681],[-121.35063,51.83672],[-121.35072,51.83667],[-121.35085,51.8366],[-121.35105,51.83645],[-121.35118,51.83628],[-121.35119,51.83609],[-121.35113,51.83601],[-121.35107,51.83588],[-121.35104,51.83585],[-121.35077,51.83575],[-121.35055,51.83568],[-121.35049,51.83566],[-121.35034,51.8356],[-121.35019,51.83554],[-121.35007,51.83544],[-121.35,51.83539],[-121.3498,51.8352],[-121.34968,51.83498],[-121.34957,51.83477],[-121.34946,51.83457],[-121.34937,51.83436],[-121.34934,51.83416],[-121.34929,51.83394],[-121.34927,51.8339],[-121.34916,51.83372],[-121.34903,51.83356],[-121.34902,51.83343],[-121.34901,51.83336],[-121.34901,51.83333],[-121.34903,51.83328],[-121.34903,51.83326],[-121.34905,51.83316],[-121.34907,51.83305],[-121.34911,51.83296],[-121.34916,51.83286],[-121.34922,51.83277],[-121.34927,51.83267],[-121.34931,51.83258],[-121.34935,51.83249],[-121.34939,51.83239],[-121.34944,51.8323],[-121.3495,51.8322],[-121.34955,51.83209],[-121.34958,51.83199],[-121.34963,51.8319],[-121.34966,51.83181],[-121.34969,51.83172],[-121.34971,51.83162],[-121.34973,51.83153],[-121.3497,51.83146],[-121.34971,51.83136],[-121.3497,51.83123]]}},
{"type":"Feature","properties":{"spotId":"A-grouse-drive-0111","kind":"roadside","km":3.88,"climbM":151,"name":"180 m NE of Greeny Lake North rec site","flags":[]},"geometry":{"type":"LineString","coordinates":[[-121.34776,51.85483],[-121.34729,51.85563],[-121.34714,51.85577],[-121.34682,51.85591],[-121.34652,51.85601],[-121.34577,51.85616],[-121.34454,51.85633],[-121.34323,51.85668],[-121.34254,51.85713],[-121.34246,51.85727],[-121.34244,51.85747],[-121.34231,51.85763],[-121.34161,51.85823],[-121.3415,51.85849],[-121.34151,51.85857],[-121.34154,51.85868],[-121.34155,51.85869],[-121.34162,51.85883],[-121.34189,51.85912],[-121.3422,51.8596],[-121.34252,51.85983],[-121.34449,51.86088],[-121.34464,51.86099],[-121.34477,51.86111],[-121.34481,51.86115],[-121.34496,51.86132],[-121.3451,51.86151],[-121.34519,51.86159],[-121.34532,51.86176],[-121.34546,51.86195],[-121.34563,51.86214],[-121.34578,51.86228],[-121.34606,51.86255],[-121.34624,51.86275],[-121.34638,51.86292],[-121.34645,51.86305],[-121.34657,51.86321],[-121.34668,51.86339],[-121.3467,51.86359],[-121.34663,51.86378],[-121.34651,51.86399],[-121.34649,51.86401],[-121.34634,51.86417],[-121.34625,51.86425],[-121.34621,51.86432],[-121.34611,51.86449],[-121.34608,51.86453],[-121.34599,51.86465],[-121.34587,51.86481],[-121.34569,51.86496],[-121.34544,51.86513],[-121.34516,51.86525],[-121.34488,51.86534],[-121.3446,51.86541],[-121.34429,51.86542],[-121.34393,51.86543],[-121.34364,51.86547],[-121.3433,51.86549],[-121.34295,51.86557],[-121.34285,51.86561],[-121.34261,51.86569],[-121.34238,51.8658],[-121.34223,51.86588],[-121.34215,51.86592],[-121.34212,51.86595],[-121.34201,51.866],[-121.3418,51.86613],[-121.3417,51.86619],[-121.34166,51.86621],[-121.34156,51.86627],[-121.34132,51.86639],[-121.34103,51.86653],[-121.34081,51.8666],[-121.3407,51.86664],[-121.34047,51.86674],[-121.34038,51.86682],[-121.34029,51.86689],[-121.34005,51.86703],[-121.33973,51.86716],[-121.3394,51.86731],[-121.33919,51.86749],[-121.33905,51.86769],[-121.33902,51.86772],[-121.33899,51.86777],[-121.33891,51.86793],[-121.33883,51.86811],[-121.33874,51.86827],[-121.33871,51.86833],[-121.33863,51.86853],[-121.33857,51.86866],[-121.33843,51.86883],[-121.33829,51.86904],[-121.33821,51.86917],[-121.33797,51.86946],[-121.33792,51.86953],[-121.33798,51.86958],[-121.33809,51.86964],[-121.33819,51.86972],[-121.33828,51.86977],[-121.33835,51.8698],[-121.33842,51.8699],[-121.33856,51.86999],[-121.33867,51.87008],[-121.33879,51.87016],[-121.33889,51.87023],[-121.33899,51.87031],[-121.339,51.87042],[-121.33888,51.8705],[-121.33877,51.87058],[-121.33865,51.87061],[-121.33834,51.87058],[-121.33805,51.87049],[-121.33773,51.87037],[-121.33739,51.87027],[-121.33726,51.87023],[-121.3372,51.87023],[-121.33688,51.87021],[-121.33672,51.87022],[-121.33668,51.87024],[-121.33663,51.87026],[-121.3366,51.87029],[-121.33656,51.87037],[-121.33663,51.87049],[-121.33677,51.87063],[-121.33705,51.87072],[-121.33737,51.87081],[-121.33757,51.87088],[-121.33783,51.87097],[-121.33811,51.87111],[-121.33836,51.87123],[-121.33868,51.87142],[-121.33891,51.8716],[-121.33886,51.87179],[-121.33884,51.87183],[-121.33877,51.8719],[-121.33862,51.87195],[-121.33832,51.87192],[-121.33801,51.87186],[-121.33771,51.87179],[-121.33742,51.87172],[-121.33711,51.87166],[-121.33677,51.87161],[-121.33664,51.87162],[-121.33651,51.87165],[-121.33632,51.87169],[-121.33604,51.87178],[-121.3357,51.8719],[-121.33545,51.87206],[-121.33517,51.87219],[-121.3349,51.87233],[-121.33459,51.87244],[-121.3343,51.87249],[-121.33398,51.87253],[-121.33367,51.87259],[-121.33334,51.87264],[-121.333,51.87267],[-121.33271,51.8727],[-121.33236,51.87275],[-121.33215,51.87281],[-121.33186,51.8729],[-121.33154,51.87298],[-121.3314,51.87303],[-121.33109,51.87314],[-121.33084,51.87323],[-121.33059,51.87335],[-121.33033,51.87346],[-121.33008,51.87357],[-121.32981,51.87371],[-121.32971,51.87375],[-121.32943,51.87382],[-121.32912,51.87387],[-121.32887,51.87388],[-121.32882,51.87389],[-121.32852,51.87392],[-121.3282,51.87401],[-121.32791,51.8741],[-121.32785,51.87412],[-121.32779,51.87414],[-121.32758,51.87431],[-121.3274,51.87448],[-121.32722,51.87467],[-121.32705,51.87483],[-121.32696,51.87492],[-121.32675,51.87506],[-121.32647,51.87519],[-121.32622,51.87529],[-121.32614,51.87533]]}},
{"type":"Feature","properties":{"spotId":"A-moose-atv-0010","kind":"ride","km":4.19,"climbM":22,"name":"640 m SE of MacDougall Lake","flags":[]},"geometry":{"type":"LineString","coordinates":[[-121.44022,51.90047],[-121.4401,51.90042],[-121.43998,51.90037],[-121.43982,51.9003],[-121.43966,51.90022],[-121.4396,51.90019],[-121.43953,51.90016],[-121.4394,51.9001],[-121.43926,51.90005],[-121.43907,51.90002],[-121.43887,51.90001],[-121.43866,51.90002],[-121.43852,51.90003],[-121.43826,51.90002],[-121.43807,51.90003],[-121.43792,51.90003],[-121.43778,51.90002],[-121.43762,51.90001],[-121.4374,51.90001],[-121.43722,51.90004],[-121.43705,51.90004],[-121.43689,51.90007],[-121.43686,51.90008],[-121.43668,51.90014],[-121.43657,51.9002],[-121.43643,51.90027],[-121.4363,51.90033],[-121.43618,51.90038],[-121.43602,51.90047],[-121.43588,51.90055],[-121.43577,51.90063],[-121.43565,51.90073],[-121.43556,51.90081],[-121.43547,51.9009],[-121.43538,51.90098],[-121.43527,51.90109],[-121.43514,51.90119],[-121.43506,51.90125],[-121.43503,51.90127],[-121.43488,51.90137],[-121.43479,51.90145],[-121.43466,51.90154],[-121.43455,51.90163],[-121.43445,51.90171],[-121.4344,51.90173],[-121.43427,51.9018],[-121.43409,51.90186],[-121.4339,51.90192],[-121.43384,51.90193],[-121.43371,51.90196],[-121.43357,51.90198],[-121.43336,51.90202],[-121.43307,51.90204],[-121.4329,51.90205],[-121.43272,51.90206],[-121.4325,51.90206],[-121.43234,51.90207],[-121.43215,51.90205],[-121.432,51.90202],[-121.43181,51.902],[-121.43165,51.90198],[-121.4315,51.90196],[-121.43132,51.90193],[-121.43111,51.9019],[-121.43106,51.90188],[-121.43103,51.90187],[-121.43088,51.90179],[-121.43077,51.90172],[-121.43066,51.90165],[-121.43056,51.90157],[-121.43044,51.90149],[-121.43033,51.90141],[-121.43025,51.90135],[-121.43015,51.90127],[-121.43005,51.90118],[-121.42996,51.9011],[-121.42987,51.901],[-121.42977,51.9009],[-121.42968,51.90082],[-121.4296,51.90073],[-121.42951,51.90066],[-121.42941,51.90058],[-121.42932,51.9005],[-121.42923,51.90041],[-121.42916,51.90034],[-121.42905,51.90024],[-121.42894,51.90014],[-121.42887,51.90005],[-121.42881,51.9],[-121.42871,51.8999],[-121.42861,51.89979],[-121.42853,51.8997],[-121.42845,51.89961],[-121.42838,51.89948],[-121.42832,51.89937],[-121.42828,51.89927],[-121.42823,51.89916],[-121.42819,51.89905],[-121.42814,51.89893],[-121.42809,51.89884],[-121.42804,51.89874],[-121.42802,51.89862],[-121.42798,51.89849],[-121.42792,51.89837],[-121.42788,51.89826],[-121.42786,51.89814],[-121.42782,51.89801],[-121.42776,51.89789],[-121.42772,51.8978],[-121.42768,51.8977],[-121.42763,51.8976],[-121.42753,51.89748],[-121.42746,51.89734],[-121.42744,51.89725],[-121.4274,51.89715],[-121.42734,51.89706],[-121.42732,51.89697],[-121.42729,51.89685],[-121.42724,51.89674],[-121.42717,51.89664],[-121.4271,51.89653],[-121.42703,51.89642],[-121.42695,51.89633],[-121.42682,51.89622],[-121.42672,51.89613],[-121.42662,51.89605],[-121.42651,51.89596],[-121.4264,51.8959],[-121.42621,51.89583],[-121.42606,51.8958],[-121.42602,51.89579],[-121.42588,51.89576],[-121.42569,51.89572],[-121.42553,51.8957],[-121.42539,51.89568],[-121.42521,51.89565],[-121.42507,51.89561],[-121.42496,51.89552],[-121.42486,51.89546],[-121.42484,51.89545],[-121.42474,51.89535],[-121.42464,51.89525],[-121.42453,51.8951],[-121.42442,51.89496],[-121.42432,51.89486],[-121.4242,51.89475],[-121.42413,51.89467],[-121.42406,51.89457],[-121.42396,51.89449],[-121.42386,51.8944],[-121.42375,51.8943],[-121.42366,51.89421],[-121.42358,51.89411],[-121.4235,51.89401],[-121.42343,51.89392],[-121.42336,51.89384],[-121.42324,51.89373],[-121.42315,51.89363],[-121.42305,51.8935],[-121.42298,51.89342],[-121.42287,51.89332],[-121.42274,51.89325],[-121.42263,51.89316],[-121.4225,51.89308],[-121.42238,51.89301],[-121.42228,51.89293],[-121.42214,51.89285],[-121.42204,51.89277],[-121.42191,51.8927],[-121.4218,51.89262],[-121.42169,51.89254],[-121.42157,51.89246],[-121.42146,51.8924],[-121.42136,51.89232],[-121.42125,51.89224],[-121.42115,51.89217],[-121.42101,51.89208],[-121.42088,51.89199],[-121.42078,51.89192],[-121.42065,51.89185],[-121.42049,51.89176],[-121.42057,51.89165],[-121.42057,51.89161],[-121.42065,51.89142],[-121.42068,51.89137],[-121.4207,51.89135],[-121.4208,51.89118],[-121.42096,51.89101],[-121.42102,51.8909],[-121.42106,51.89084],[-121.42112,51.89077],[-121.42125,51.8906],[-121.42137,51.89047],[-121.42158,51.8903],[-121.42177,51.89011],[-121.42193,51.8899],[-121.42205,51.88969],[-121.42216,51.88949],[-121.42216,51.88946],[-121.42219,51.88943],[-121.42221,51.88937],[-121.4223,51.88918],[-121.42234,51.88898],[-121.42234,51.88891],[-121.42234,51.88879],[-121.42243,51.88865],[-121.42248,51.88863],[-121.42245,51.88858],[-121.42228,51.88842],[-121.42207,51.88824],[-121.42183,51.88811],[-121.42171,51.88808],[-121.42158,51.88806],[-121.42124,51.88802],[-121.42101,51.88789],[-121.42075,51.88776],[-121.4204,51.88773],[-121.42005,51.88774],[-121.41976,51.8878],[-121.4196,51.88781],[-121.41924,51.88782],[-121.41919,51.88783],[-121.4189,51.8878],[-121.41857,51.88776],[-121.41843,51.88775],[-121.41834,51.88772],[-121.41821,51.8877],[-121.41808,51.88765],[-121.41782,51.88762],[-121.4175,51.88761],[-121.41717,51.88758],[-121.41683,51.88755],[-121.41673,51.88751],[-121.41662,51.88743],[-121.41655,51.88734],[-121.41647,51.88722],[-121.4164,51.88712],[-121.41634,51.88702],[-121.41628,51.88691],[-121.41621,51.88681],[-121.41615,51.88672],[-121.41608,51.88662],[-121.41603,51.88657],[-121.416,51.88653],[-121.41594,51.88644],[-121.41587,51.88636],[-121.41579,51.88627],[-121.41569,51.88617],[-121.41556,51.88606],[-121.41547,51.88598],[-121.41535,51.88589],[-121.41527,51.8858],[-121.41516,51.88571],[-121.41506,51.88561],[-121.41496,51.88552],[-121.41487,51.88547],[-121.4148,51.88541],[-121.41472,51.88532],[-121.41471,51.88528],[-121.41472,51.88517],[-121.41482,51.88503],[-121.41489,51.88495],[-121.415,51.88488],[-121.4151,51.88482],[-121.41517,51.88478],[-121.41534,51.8847],[-121.4155,51.88463],[-121.41563,51.88458],[-121.41582,51.88452],[-121.41598,51.88447],[-121.4161,51.88441],[-121.41623,51.88436],[-121.4164,51.88428],[-121.41652,51.88421],[-121.41663,51.88414],[-121.41677,51.88408],[-121.41694,51.88402],[-121.41712,51.88397],[-121.41728,51.88392],[-121.41747,51.88387],[-121.41759,51.88385],[-121.41766,51.88383],[-121.41785,51.8838],[-121.418,51.88376],[-121.41816,51.8837],[-121.41831,51.88367],[-121.41847,51.88364],[-121.41864,51.88361],[-121.4188,51.88358],[-121.41898,51.88354],[-121.41904,51.88353],[-121.41916,51.88351],[-121.41932,51.88347],[-121.41946,51.88341],[-121.41966,51.88334],[-121.41983,51.88328],[-121.41995,51.88322],[-121.4201,51.88314],[-121.4202,51.88307],[-121.42032,51.88297],[-121.42037,51.88295],[-121.42053,51.88289],[-121.42069,51.88285],[-121.42087,51.8828],[-121.421,51.88274],[-121.42113,51.88268],[-121.42131,51.88259],[-121.42143,51.88248],[-121.42152,51.88241],[-121.42164,51.88232],[-121.42177,51.88224],[-121.42185,51.88222],[-121.42202,51.88218],[-121.42217,51.88216],[-121.42233,51.88212],[-121.42246,51.88206],[-121.42257,51.88199],[-121.42266,51.88191],[-121.42272,51.88181],[-121.42275,51.88172],[-121.42278,51.88168],[-121.42283,51.88162],[-121.42294,51.88154],[-121.42309,51.88147],[-121.42323,51.88141],[-121.42339,51.88133],[-121.42354,51.88125],[-121.42366,51.88117],[-121.42373,51.88109],[-121.42384,51.881],[-121.42394,51.88091],[-121.42404,51.88082],[-121.42412,51.88073],[-121.42421,51.88064],[-121.42431,51.88056],[-121.42442,51.88046],[-121.42452,51.88039],[-121.42467,51.8803],[-121.42483,51.88023],[-121.42485,51.88022],[-121.42497,51.88016],[-121.42513,51.88012]]}},
{"type":"Feature","properties":{"spotId":"A-moose-atv-0010","kind":"walk","km":0.19,"climbM":0,"name":"640 m SE of MacDougall Lake","flags":[]},"geometry":{"type":"LineString","coordinates":[[-121.44022,51.90047],[-121.44174,51.89907]]}},
{"type":"Feature","properties":{"spotId":"A-moose-walk-0041","kind":"walk","km":0.78,"climbM":15,"name":"790 m NE of Rail Creek","flags":["Route crosses private land (ParcelMap BC, updated 2026-09-25): get permission first or go around."]},"geometry":{"type":"LineString","coordinates":[[-121.41243,51.90069],[-121.41216,51.90067],[-121.412,51.90064],[-121.41183,51.9006],[-121.41164,51.90054],[-121.41149,51.90049],[-121.41135,51.90042],[-121.41132,51.9004],[-121.41115,51.90037],[-121.41093,51.90034],[-121.41075,51.9003],[-121.41058,51.90025],[-121.41041,51.90019],[-121.41022,51.90011],[-121.41009,51.90007],[-121.40994,51.90002],[-121.40987,51.9],[-121.4096,51.89995],[-121.40931,51.89984],[-121.40917,51.8997],[-121.40911,51.89957],[-121.40897,51.89957],[-121.40861,51.89951],[-121.40805,51.8994],[-121.40782,51.89935],[-121.40764,51.8993],[-121.40762,51.89922],[-121.40755,51.89913],[-121.40746,51.89905],[-121.40739,51.89897],[-121.40736,51.89893],[-121.40732,51.8989],[-121.4073,51.89881],[-121.40726,51.89873],[-121.40716,51.89867],[-121.40706,51.8986],[-121.40697,51.89855],[-121.4069,51.89849],[-121.40689,51.89847],[-121.40683,51.89841],[-121.40669,51.89838],[-121.40659,51.89835],[-121.40647,51.89828],[-121.40637,51.89823],[-121.40627,51.89819],[-121.40614,51.89816],[-121.406,51.89814],[-121.40584,51.89813],[-121.40569,51.89812],[-121.40558,51.89811],[-121.40546,51.89813],[-121.40534,51.8982],[-121.40522,51.89825],[-121.40509,51.8983],[-121.40496,51.89833],[-121.40486,51.89837],[-121.40414,51.8995]]}},
{"type":"Feature","properties":{"spotId":"A-moose-walk-0048","kind":"walk","km":0.72,"climbM":19,"name":"1.0 km NW of Tubbs Lake","flags":[]},"geometry":{"type":"LineString","coordinates":[[-121.26977,51.7807],[-121.27648,51.78561]]}}
]}
