{"type":"FeatureCollection","features":[
{"type":"Feature","properties":{"spotId":"A-deer-drive-0001","kind":"walk","km":0.12,"climbM":47,"name":"220 m NW of Loon Creek","flags":[]},"geometry":{"type":"LineString","coordinates":[[-121.36935,51.06012],[-121.37061,51.0608]]}},
{"type":"Feature","properties":{"spotId":"A-deer-drive-0016","kind":"walk","km":0.12,"climbM":0,"name":"By Loon Creek","flags":[]},"geometry":{"type":"LineString","coordinates":[[-121.3893,51.05091],[-121.389,51.04985]]}},
{"type":"Feature","properties":{"spotId":"A-deer-drive-0021","kind":"walk","km":0.02,"climbM":3,"name":"190 m E of Bonaparte River","flags":[]},"geometry":{"type":"LineString","coordinates":[[-121.46176,51.12518],[-121.46153,51.12512]]}},
{"type":"Feature","properties":{"spotId":"A-deer-drive-0042","kind":"walk","km":0.13,"climbM":12,"name":"By Clinton Creek","flags":[]},"geometry":{"type":"LineString","coordinates":[[-121.49247,51.11344],[-121.49396,51.11272]]}},
{"type":"Feature","properties":{"spotId":"A-deer-walk-0003","kind":"walk","km":3.16,"climbM":503,"name":"2.0 km SW of Wohlleben Lakes","flags":["Route crosses private land (ParcelMap BC, updated 2026-09-25): get permission first or go around."]},"geometry":{"type":"LineString","coordinates":[[-121.44587,51.04268],[-121.44406,51.07099]]}},
{"type":"Feature","properties":{"spotId":"A-deer-walk-0004","kind":"walk","km":1.42,"climbM":327,"name":"2.3 km W of Loon Lake","flags":[]},"geometry":{"type":"LineString","coordinates":[[-121.34973,51.06791],[-121.36672,51.07494]]}},
{"type":"Feature","properties":{"spotId":"A-deer-walk-0010","kind":"walk","km":0.46,"climbM":124,"name":"510 m NW of Loon Lake","flags":["Route crosses private land (ParcelMap BC, updated 2026-09-25): get permission first or go around."]},"geometry":{"type":"LineString","coordinates":[[-121.31132,51.07918],[-121.31308,51.08317]]}},
{"type":"Feature","properties":{"spotId":"A-deer-walk-0016","kind":"walk","km":0.74,"climbM":0,"name":"By West Twin Creek","flags":[]},"geometry":{"type":"LineString","coordinates":[[-121.35631,51.20599],[-121.35766,51.19944]]}},
{"type":"Feature","properties":{"spotId":"A-deer-walk-0019","kind":"walk","km":0.39,"climbM":114,"name":"410 m NW of Loon Lake","flags":["Route crosses private land (ParcelMap BC, updated 2026-09-25): get permission first or go around."]},"geometry":{"type":"LineString","coordinates":[[-121.3246,51.0726],[-121.32951,51.07434]]}},
{"type":"Feature","properties":{"spotId":"A-deer-walk-0028","kind":"walk","km":0.66,"climbM":167,"name":"620 m SW of Clinton Creek","flags":["Route crosses private land (ParcelMap BC, updated 2026-09-25): get permission first or go around."]},"geometry":{"type":"LineString","coordinates":[[-121.48822,51.11118],[-121.49344,51.10627]]}},
{"type":"Feature","properties":{"spotId":"A-deer-walk-0030","kind":"walk","km":4.18,"climbM":146,"name":"120 m E of Bonaparte River","flags":["Route crosses private land (ParcelMap BC, updated 2026-09-25): get permission first or go around."]},"geometry":{"type":"LineString","coordinates":[[-121.4457,51.04258],[-121.44553,51.04243],[-121.44541,51.04227],[-121.44533,51.04218],[-121.44527,51.0421],[-121.44511,51.04195],[-121.4449,51.0418],[-121.4448,51.04179],[-121.44485,51.04186],[-121.44499,51.04205],[-121.44513,51.04225],[-121.44523,51.04243],[-121.44534,51.0426],[-121.44545,51.04278],[-121.44553,51.04298],[-121.44561,51.04318],[-121.44565,51.0433],[-121.44566,51.04336],[-121.44566,51.04337],[-121.4457,51.04354],[-121.44573,51.04376],[-121.44577,51.04397],[-121.4458,51.04415],[-121.44584,51.04433],[-121.44588,51.04451],[-121.44593,51.04465],[-121.44596,51.0447],[-121.44602,51.04489],[-121.44609,51.04508],[-121.44611,51.04518],[-121.44614,51.04525],[-121.44616,51.04534],[-121.44619,51.04543],[-121.44624,51.0456],[-121.44625,51.04579],[-121.44625,51.04585],[-121.44626,51.04597],[-121.44626,51.04616],[-121.44627,51.04635],[-121.44635,51.04655],[-121.44643,51.04675],[-121.44644,51.04677],[-121.44651,51.04695],[-121.44658,51.047],[-121.44669,51.04706],[-121.44689,51.04717],[-121.44715,51.04731],[-121.44742,51.04744],[-121.44776,51.04759],[-121.4479,51.04765],[-121.44807,51.04773],[-121.44839,51.04787],[-121.44868,51.04801],[-121.44897,51.04816],[-121.44926,51.0483],[-121.44948,51.04845],[-121.44973,51.04861],[-121.44996,51.04878],[-121.45005,51.04888],[-121.4501,51.04893],[-121.45022,51.04909],[-121.45027,51.04916],[-121.45036,51.04926],[-121.45039,51.04943],[-121.45043,51.0496],[-121.45047,51.04977],[-121.45057,51.04998],[-121.45068,51.05018],[-121.45077,51.05039],[-121.451,51.05056],[-121.4512,51.05073],[-121.45141,51.05091],[-121.45146,51.05093],[-121.45169,51.05105],[-121.45196,51.05118],[-121.45223,51.05131],[-121.45253,51.0515],[-121.45284,51.05169],[-121.45315,51.05188],[-121.45337,51.05206],[-121.45359,51.05224],[-121.45383,51.05242],[-121.45407,51.0526],[-121.45412,51.05264],[-121.45443,51.05286],[-121.45471,51.05305],[-121.45499,51.05322],[-121.45527,51.0534],[-121.4556,51.05358],[-121.45569,51.05364],[-121.45594,51.05377],[-121.45622,51.05396],[-121.45651,51.05415],[-121.45671,51.05431],[-121.4568,51.05441],[-121.4569,51.05449],[-121.45708,51.05462],[-121.45728,51.05475],[-121.45755,51.05482],[-121.45783,51.0549],[-121.45807,51.05496],[-121.45831,51.05502],[-121.45855,51.05509],[-121.45879,51.0552],[-121.45901,51.05532],[-121.45925,51.05543],[-121.45932,51.05548],[-121.45949,51.05563],[-121.45971,51.05583],[-121.45985,51.05598],[-121.45999,51.05614],[-121.46012,51.05629],[-121.46033,51.05648],[-121.46054,51.05668],[-121.46057,51.05669],[-121.46072,51.05678],[-121.4609,51.05687],[-121.46117,51.05698],[-121.46144,51.05709],[-121.46174,51.05718],[-121.46205,51.05725],[-121.46234,51.05734],[-121.46261,51.05737],[-121.46288,51.0574],[-121.46314,51.05743],[-121.46319,51.05757],[-121.46326,51.05771],[-121.46337,51.05794],[-121.46341,51.058],[-121.4635,51.05814],[-121.46365,51.05834],[-121.46378,51.05848],[-121.46391,51.05864],[-121.46404,51.05879],[-121.46405,51.0588],[-121.46427,51.05893],[-121.46444,51.05907],[-121.46445,51.0591],[-121.46455,51.05927],[-121.46458,51.05929],[-121.46471,51.05944],[-121.46488,51.05958],[-121.465,51.05975],[-121.46514,51.05991],[-121.46529,51.06007],[-121.46531,51.06011],[-121.46539,51.06029],[-121.46542,51.06047],[-121.46547,51.06065],[-121.46555,51.06083],[-121.46563,51.06101],[-121.46567,51.06111],[-121.46571,51.06119],[-121.46575,51.06128],[-121.47256,51.07214]]}},
{"type":"Feature","properties":{"spotId":"A-deer-walk-0181","kind":"walk","km":0.77,"climbM":7,"name":"3.0 km NE of Chasm","flags":[]},"geometry":{"type":"LineString","coordinates":[[-121.45279,51.22822],[-121.45255,51.22835],[-121.45225,51.22851],[-121.45199,51.22863],[-121.45171,51.2287],[-121.45145,51.22877],[-121.45131,51.22881],[-121.45128,51.22881],[-121.45103,51.22891],[-121.45077,51.229],[-121.45064,51.22904],[-121.4506,51.22907],[-121.45041,51.22917],[-121.45021,51.22933],[-121.45012,51.22951],[-121.45009,51.22971],[-121.4501,51.2299],[-121.45009,51.23008],[-121.4501,51.23023],[-121.45169,51.23413]]}},
{"type":"Feature","properties":{"spotId":"A-deer-walk-0210","kind":"walk","km":1.25,"climbM":142,"name":"1.0 km E of Fiftyseven Creek","flags":["Route crosses private land (ParcelMap BC, updated 2026-09-25): get permission first or go around."]},"geometry":{"type":"LineString","coordinates":[[-121.49045,51.15143],[-121.47406,51.15587]]}},
{"type":"Feature","properties":{"spotId":"A-duck-drive-0148","kind":"walk","km":0.03,"climbM":0,"name":"Unnamed wetland 2.8 km S of Hihium Creek","flags":[]},"geometry":{"type":"LineString","coordinates":[[-121.29755,51.02248],[-121.29728,51.02274]]}},
{"type":"Feature","properties":{"spotId":"A-duck-walk-0025","kind":"walk","km":0.41,"climbM":18,"name":"Unnamed lake 760 m S of Bonaparte River","flags":["Route crosses private land (ParcelMap BC, updated 2026-09-25): get permission first or go around."]},"geometry":{"type":"LineString","coordinates":[[-121.43028,51.13691],[-121.43014,51.13703],[-121.43009,51.13707],[-121.42992,51.1372],[-121.42958,51.13738],[-121.42957,51.1374],[-121.42955,51.13744],[-121.42953,51.13759],[-121.42953,51.13775],[-121.42953,51.13791],[-121.42939,51.13792],[-121.42922,51.13793],[-121.429,51.13801],[-121.42881,51.13814],[-121.42867,51.13826],[-121.42852,51.1384],[-121.42838,51.13853],[-121.4283,51.13861],[-121.42683,51.13967]]}},
{"type":"Feature","properties":{"spotId":"A-duck-walk-0100","kind":"walk","km":0.33,"climbM":0,"name":"Unnamed wetland 1.5 km E of Illahee Meadows","flags":[]},"geometry":{"type":"LineString","coordinates":[[-121.26375,51.16164],[-121.26387,51.16456]]}},
{"type":"Feature","properties":{"spotId":"A-duck-walk-0122","kind":"walk","km":0.48,"climbM":7,"name":"Unnamed wetland 120 m NE of Knife Lakes","flags":[]},"geometry":{"type":"LineString","coordinates":[[-121.36155,51.11897],[-121.35762,51.1209],[-121.35729,51.12094],[-121.35696,51.12097],[-121.35649,51.12095],[-121.35632,51.12097],[-121.35576,51.12093]]}},
{"type":"Feature","properties":{"spotId":"A-grouse-drive-0093","kind":"roadside","km":3.36,"climbM":82,"name":"1.3 km NW of Loon Lake","flags":[]},"geometry":{"type":"LineString","coordinates":[[-121.26771,51.11448],[-121.26737,51.11465],[-121.26713,51.11474],[-121.26689,51.11485],[-121.26669,51.11494],[-121.26637,51.11506],[-121.26605,51.11512],[-121.26574,51.11519],[-121.26545,51.11524],[-121.26515,51.11528],[-121.26486,51.11532],[-121.26457,51.11536],[-121.26427,51.1154],[-121.26399,51.11544],[-121.26373,51.11547],[-121.26345,51.1155],[-121.2632,51.11556],[-121.26295,51.11561],[-121.26272,51.11569],[-121.26253,51.11578],[-121.26235,51.11587],[-121.26217,51.11597],[-121.26198,51.11608],[-121.26176,51.11616],[-121.26154,51.11621],[-121.2613,51.11621],[-121.26103,51.1162],[-121.26079,51.11619],[-121.26053,51.11617],[-121.2603,51.11616],[-121.26003,51.11616],[-121.25977,51.11616],[-121.25954,51.11616],[-121.2593,51.11617],[-121.25904,51.11619],[-121.2588,51.11624],[-121.25857,51.11632],[-121.25828,51.11638],[-121.25806,51.11645],[-121.25783,51.11654],[-121.25755,51.11662],[-121.2574,51.11667],[-121.25719,51.11677],[-121.25699,51.11685],[-121.25681,51.11694],[-121.2566,51.11703],[-121.25642,51.11713],[-121.25626,51.11725],[-121.25611,51.11736],[-121.25602,51.1175],[-121.25589,51.11764],[-121.2558,51.11779],[-121.25572,51.11793],[-121.25563,51.11808],[-121.25554,51.11821],[-121.25545,51.11836],[-121.25535,51.11851],[-121.25526,51.11867],[-121.25517,51.1188],[-121.2551,51.11894],[-121.25498,51.11908],[-121.25487,51.11924],[-121.25478,51.11938],[-121.25469,51.11951],[-121.25458,51.11966],[-121.25443,51.11979],[-121.25426,51.1199],[-121.25403,51.12002],[-121.25379,51.1201],[-121.25368,51.12014],[-121.25355,51.12017],[-121.25333,51.12023],[-121.25311,51.12029],[-121.25283,51.12035],[-121.25258,51.12039],[-121.25237,51.12044],[-121.25206,51.12052],[-121.25182,51.12056],[-121.25159,51.12062],[-121.25136,51.12064],[-121.25111,51.12068],[-121.25088,51.12072],[-121.25065,51.12076],[-121.2505,51.12079],[-121.25042,51.1208],[-121.25014,51.12086],[-121.24983,51.12093],[-121.24956,51.12099],[-121.24936,51.12105],[-121.24913,51.12104],[-121.2489,51.12109],[-121.24865,51.12115],[-121.24845,51.12126],[-121.2481,51.12148],[-121.24807,51.12149],[-121.24792,51.12158],[-121.24775,51.12172],[-121.24757,51.12186],[-121.24741,51.12201],[-121.24724,51.12215],[-121.24708,51.12228],[-121.24692,51.12243],[-121.24678,51.12257],[-121.24677,51.12258],[-121.24668,51.12265],[-121.24661,51.12271],[-121.24647,51.12287],[-121.24632,51.123],[-121.24613,51.12311],[-121.24597,51.12322],[-121.24583,51.12335],[-121.24568,51.12345],[-121.24552,51.12359],[-121.24534,51.12371],[-121.24521,51.12382],[-121.24512,51.12396],[-121.24508,51.12412],[-121.24508,51.12429],[-121.24505,51.12446],[-121.24505,51.12461],[-121.24506,51.12478],[-121.24504,51.12496],[-121.24507,51.12511],[-121.24515,51.12527],[-121.24522,51.12542],[-121.24528,51.12556],[-121.24535,51.1257],[-121.24543,51.12585],[-121.2455,51.12599],[-121.24559,51.12613],[-121.24569,51.12626],[-121.24581,51.12641],[-121.24596,51.12654],[-121.24613,51.1267],[-121.24625,51.12681],[-121.24627,51.12683],[-121.24643,51.12694],[-121.2466,51.12707],[-121.24677,51.1272],[-121.24711,51.12742],[-121.2473,51.12753],[-121.24748,51.12764],[-121.24766,51.12774],[-121.24772,51.12777],[-121.24788,51.12785],[-121.24808,51.12794],[-121.24826,51.12805],[-121.24846,51.12815],[-121.24866,51.12825],[-121.24887,51.12835],[-121.24909,51.12845],[-121.24932,51.12855],[-121.24954,51.12862],[-121.24977,51.12867],[-121.25004,51.12873],[-121.25027,51.12877],[-121.25051,51.12882],[-121.25076,51.12888],[-121.25097,51.12893],[-121.2512,51.129],[-121.2514,51.12907],[-121.25161,51.12914],[-121.25184,51.1292],[-121.25208,51.12925],[-121.2523,51.12928],[-121.25255,51.12931],[-121.25279,51.12933],[-121.25307,51.12937],[-121.25336,51.12941],[-121.25358,51.12946],[-121.25381,51.12956],[-121.25385,51.12958],[-121.25399,51.12966],[-121.2542,51.12979],[-121.25437,51.12992],[-121.25452,51.13004],[-121.2547,51.13019],[-121.25475,51.13024],[-121.25485,51.13032],[-121.255,51.13043],[-121.25519,51.13055],[-121.25538,51.13063],[-121.25562,51.1307],[-121.25586,51.13076],[-121.25612,51.13082],[-121.25629,51.13087],[-121.25636,51.13092],[-121.25648,51.13101],[-121.25657,51.1311],[-121.25665,51.13123],[-121.25649,51.13132],[-121.2562,51.1314],[-121.25591,51.13147],[-121.25562,51.13154],[-121.25558,51.13155]]}},
{"type":"Feature","properties":{"spotId":"A-moose-drive-0053","kind":"walk","km":0.22,"climbM":2,"name":"3.1 km NW of Bonaparte River Bridge rec site","flags":[]},"geometry":{"type":"LineString","coordinates":[[-121.25296,51.23894],[-121.25286,51.24093]]}},
{"type":"Feature","properties":{"spotId":"A-moose-drive-0057","kind":"walk","km":0.05,"climbM":0,"name":"3.1 km N of Scottie Creek","flags":[]},"geometry":{"type":"LineString","coordinates":[[-121.27186,51.00437],[-121.27151,51.00399]]}}
]}
