{"type":"FeatureCollection","features":[
{"type":"Feature","properties":{"spotId":"A-camp-camp-0105","kind":"walk","km":0.08,"climbM":0,"name":"2.7 km E of River Lakes","flags":[]},"geometry":{"type":"LineString","coordinates":[[-121.52689,51.30666],[-121.52618,51.30727]]}},
{"type":"Feature","properties":{"spotId":"A-deer-atv-0122","kind":"ride","km":4.73,"climbM":26,"name":"1.2 km N of McKinley Lake","flags":[]},"geometry":{"type":"LineString","coordinates":[[-121.59206,51.3778],[-121.59203,51.37772],[-121.59205,51.37753],[-121.59216,51.37736],[-121.59229,51.37719],[-121.59237,51.37711],[-121.59244,51.37694],[-121.59261,51.37677],[-121.59277,51.3766],[-121.59292,51.37643],[-121.59308,51.37626],[-121.59319,51.37609],[-121.59325,51.37592],[-121.59331,51.37575],[-121.59345,51.37558],[-121.59363,51.37541],[-121.59378,51.37526],[-121.59371,51.37517],[-121.59363,51.375],[-121.59356,51.37483],[-121.59351,51.37465],[-121.59345,51.3745],[-121.59339,51.37433],[-121.59335,51.37425],[-121.59322,51.37408],[-121.59318,51.37404],[-121.59308,51.37391],[-121.59299,51.37374],[-121.59296,51.37367],[-121.59288,51.37355],[-121.59285,51.37351],[-121.59271,51.37336],[-121.59247,51.37315],[-121.59216,51.37297],[-121.59182,51.37282],[-121.59157,51.37274],[-121.59142,51.37271],[-121.59114,51.37272],[-121.59083,51.37274],[-121.59052,51.37278],[-121.5902,51.37284],[-121.58988,51.37289],[-121.58955,51.37294],[-121.58923,51.37296],[-121.58893,51.37295],[-121.58886,51.37295],[-121.58877,51.37295],[-121.58846,51.37298],[-121.58815,51.37304],[-121.58785,51.37308],[-121.58753,51.37314],[-121.58723,51.37319],[-121.58694,51.37323],[-121.58665,51.37328],[-121.58639,51.37334],[-121.58628,51.3733],[-121.58598,51.37322],[-121.58576,51.37317],[-121.58568,51.37315],[-121.58537,51.37307],[-121.58507,51.37302],[-121.58475,51.37296],[-121.58444,51.3729],[-121.58412,51.37285],[-121.58379,51.37281],[-121.58348,51.37279],[-121.58316,51.37279],[-121.58285,51.37279],[-121.58253,51.37277],[-121.58222,51.3727],[-121.5819,51.37266],[-121.58159,51.37263],[-121.58127,51.37259],[-121.58096,51.37255],[-121.58063,51.37251],[-121.58031,51.37248],[-121.58,51.37244],[-121.57968,51.37237],[-121.57937,51.37233],[-121.57904,51.3723],[-121.57872,51.37227],[-121.57844,51.37222],[-121.57811,51.37218],[-121.57779,51.37213],[-121.57748,51.37208],[-121.57715,51.37202],[-121.57684,51.37194],[-121.57654,51.37185],[-121.57624,51.37176],[-121.57598,51.37169],[-121.57593,51.37167],[-121.57561,51.3716],[-121.5753,51.37153],[-121.57497,51.37146],[-121.57471,51.3714],[-121.57444,51.37132],[-121.57414,51.37122],[-121.57383,51.37113],[-121.57349,51.371],[-121.57319,51.37087],[-121.57291,51.37075],[-121.57262,51.37065],[-121.57248,51.37061],[-121.57226,51.37051],[-121.57198,51.37051],[-121.57168,51.37051],[-121.57138,51.37051],[-121.57109,51.37055],[-121.57077,51.37061],[-121.57047,51.37064],[-121.57015,51.37069],[-121.57001,51.37072],[-121.56969,51.37073],[-121.56936,51.37076],[-121.56904,51.37077],[-121.56871,51.37078],[-121.5684,51.37079],[-121.56807,51.37079],[-121.56775,51.37077],[-121.56745,51.3707],[-121.56715,51.37062],[-121.56685,51.37055],[-121.56655,51.3705],[-121.56625,51.37044],[-121.56598,51.37036],[-121.5657,51.37029],[-121.56541,51.37021],[-121.56511,51.37014],[-121.56484,51.37005],[-121.56457,51.36997],[-121.5643,51.36988],[-121.56403,51.36982],[-121.56374,51.36977],[-121.56346,51.36975],[-121.56317,51.36973],[-121.56289,51.36969],[-121.56263,51.36964],[-121.56242,51.36955],[-121.56219,51.36942],[-121.56197,51.36924],[-121.56166,51.36904],[-121.56149,51.36892],[-121.56163,51.36893],[-121.56179,51.36891],[-121.56195,51.36887],[-121.56227,51.36878],[-121.56259,51.3687],[-121.56274,51.36869],[-121.56292,51.36866],[-121.56323,51.36863],[-121.56339,51.3686],[-121.56373,51.36855],[-121.56403,51.36844],[-121.56434,51.36832],[-121.56463,51.36816],[-121.56489,51.36799],[-121.56516,51.36781],[-121.56542,51.36762],[-121.56566,51.36743],[-121.56592,51.36724],[-121.56618,51.36708],[-121.56649,51.36694],[-121.56677,51.36677],[-121.56702,51.36658],[-121.56721,51.36638],[-121.56732,51.36621],[-121.56737,51.366],[-121.56736,51.36589],[-121.56736,51.36569],[-121.56734,51.36548],[-121.5673,51.36537],[-121.56726,51.36527],[-121.56715,51.36506],[-121.56707,51.36489],[-121.56696,51.36467],[-121.56688,51.36447],[-121.5668,51.3643],[-121.56673,51.36419],[-121.56671,51.36417],[-121.56654,51.36401],[-121.56654,51.36385],[-121.56653,51.36369],[-121.56654,51.36354],[-121.56659,51.36339],[-121.56668,51.36323],[-121.56686,51.36305],[-121.56703,51.36293],[-121.56719,51.3628],[-121.56744,51.3627],[-121.56769,51.36262],[-121.56796,51.36254],[-121.56831,51.36246],[-121.56862,51.36239],[-121.56883,51.36232],[-121.56908,51.36223],[-121.56931,51.36215],[-121.56956,51.36208],[-121.56979,51.36198],[-121.57004,51.3619],[-121.57021,51.36182],[-121.57027,51.36179],[-121.57061,51.36163],[-121.57085,51.36151],[-121.57102,51.36141],[-121.57106,51.36139],[-121.57124,51.36127],[-121.57146,51.36111],[-121.57163,51.36095],[-121.57174,51.3608],[-121.57184,51.36065],[-121.57195,51.36051],[-121.57196,51.36048],[-121.57204,51.36034],[-121.5721,51.36016],[-121.57221,51.36002],[-121.57224,51.35997],[-121.57236,51.35979],[-121.57249,51.3596],[-121.57263,51.35941],[-121.57275,51.35922],[-121.57276,51.35921],[-121.57289,51.35904],[-121.5729,51.35902],[-121.57304,51.35882],[-121.57319,51.35862],[-121.57334,51.3584],[-121.57349,51.3582],[-121.57364,51.35798],[-121.57379,51.35778],[-121.57392,51.35757],[-121.57404,51.35741],[-121.57407,51.35732],[-121.57416,51.35721],[-121.5742,51.35707],[-121.5742,51.35691],[-121.57421,51.35676],[-121.57421,51.3566],[-121.57416,51.35646],[-121.57412,51.35635]]}},
{"type":"Feature","properties":{"spotId":"A-deer-atv-0122","kind":"walk","km":0.17,"climbM":2,"name":"1.2 km N of McKinley Lake","flags":[]},"geometry":{"type":"LineString","coordinates":[[-121.59206,51.3778],[-121.58961,51.37811]]}},
{"type":"Feature","properties":{"spotId":"A-deer-atv-0125","kind":"ride","km":1.38,"climbM":8,"name":"1.0 km NE of McKinley Lake","flags":[]},"geometry":{"type":"LineString","coordinates":[[-121.57412,51.35635],[-121.57416,51.35646],[-121.57421,51.3566],[-121.57421,51.35676],[-121.5742,51.35691],[-121.5742,51.35707],[-121.57416,51.35721],[-121.57407,51.35732],[-121.57404,51.35741],[-121.57392,51.35757],[-121.57379,51.35778],[-121.57364,51.35798],[-121.57349,51.3582],[-121.57334,51.3584],[-121.57319,51.35862],[-121.57304,51.35882],[-121.5729,51.35902],[-121.57289,51.35904],[-121.57276,51.35921],[-121.57275,51.35922],[-121.57263,51.35941],[-121.57249,51.3596],[-121.57236,51.35979],[-121.57224,51.35997],[-121.57221,51.36002],[-121.5721,51.36016],[-121.57204,51.36034],[-121.57196,51.36048],[-121.57195,51.36051],[-121.57184,51.36065],[-121.57174,51.3608],[-121.57163,51.36095],[-121.57146,51.36111],[-121.57124,51.36127],[-121.57106,51.36139],[-121.57102,51.36141],[-121.57085,51.36151],[-121.57061,51.36163],[-121.57027,51.36179],[-121.57021,51.36182],[-121.57004,51.3619],[-121.56979,51.36198],[-121.56956,51.36208],[-121.56931,51.36215],[-121.56908,51.36223],[-121.56883,51.36232],[-121.56862,51.36239],[-121.56831,51.36246],[-121.56796,51.36254],[-121.56769,51.36262],[-121.56744,51.3627],[-121.56719,51.3628],[-121.56703,51.36293],[-121.56686,51.36305],[-121.56668,51.36323],[-121.56659,51.36339],[-121.56654,51.36354],[-121.56653,51.36369],[-121.56654,51.36385],[-121.56654,51.36401],[-121.56671,51.36417],[-121.56673,51.36419],[-121.5668,51.3643],[-121.56688,51.36447],[-121.56696,51.36467],[-121.56707,51.36489],[-121.56715,51.36506],[-121.56726,51.36527],[-121.5673,51.36537],[-121.56734,51.36548],[-121.56736,51.36569],[-121.56736,51.36589],[-121.56737,51.366],[-121.56732,51.36621],[-121.56721,51.36638],[-121.56702,51.36658]]}},
{"type":"Feature","properties":{"spotId":"A-deer-atv-0125","kind":"walk","km":0.17,"climbM":4,"name":"1.0 km NE of McKinley Lake","flags":[]},"geometry":{"type":"LineString","coordinates":[[-121.56702,51.36658],[-121.56907,51.36742]]}},
{"type":"Feature","properties":{"spotId":"A-deer-drive-0154","kind":"walk","km":0.2,"climbM":2,"name":"1.8 km SE of McKinley Lake","flags":[]},"geometry":{"type":"LineString","coordinates":[[-121.56593,51.34447],[-121.56312,51.34444]]}},
{"type":"Feature","properties":{"spotId":"A-duck-drive-0096","kind":"walk","km":0.03,"climbM":0,"name":"Unnamed lake 560 m SE of Beaverdam Lake","flags":[]},"geometry":{"type":"LineString","coordinates":[[-121.60245,51.26501],[-121.60201,51.26508]]}},
{"type":"Feature","properties":{"spotId":"A-duck-walk-0043","kind":"walk","km":0.31,"climbM":1,"name":"Unnamed lake 2.0 km SW of Bullock Lake","flags":[]},"geometry":{"type":"LineString","coordinates":[[-121.52953,51.43806],[-121.52627,51.43992]]}},
{"type":"Feature","properties":{"spotId":"A-duck-walk-0059","kind":"walk","km":0.66,"climbM":4,"name":"Unnamed wetland 4.1 km NE of McKinley Lake","flags":[]},"geometry":{"type":"LineString","coordinates":[[-121.5474,51.39183],[-121.54736,51.39174],[-121.54729,51.39157],[-121.54718,51.3914],[-121.54706,51.39123],[-121.54694,51.39105],[-121.54678,51.39088],[-121.54662,51.39071],[-121.54648,51.39055],[-121.5463,51.39038],[-121.54609,51.39023],[-121.54589,51.39007],[-121.54568,51.38991],[-121.54547,51.38975],[-121.5454,51.3897],[-121.5452,51.38953],[-121.54501,51.38938],[-121.54485,51.38921],[-121.5447,51.38905],[-121.54448,51.38883],[-121.54442,51.38878],[-121.54428,51.38864],[-121.5412,51.3896]]}},
{"type":"Feature","properties":{"spotId":"A-duck-walk-0091","kind":"walk","km":0.43,"climbM":3,"name":"Unnamed lake 1.9 km N of River Lakes","flags":[]},"geometry":{"type":"LineString","coordinates":[[-121.56679,51.33841],[-121.57241,51.33676]]}},
{"type":"Feature","properties":{"spotId":"A-grouse-atv-0023","kind":"walk","km":0.36,"climbM":6,"name":"140 m NE of Green Timber Plateau","flags":[]},"geometry":{"type":"LineString","coordinates":[[-121.50279,51.25374],[-121.5002,51.2509]]}},
{"type":"Feature","properties":{"spotId":"A-grouse-atv-0023","kind":"ride","km":4.51,"climbM":28,"name":"140 m NE of Green Timber Plateau","flags":[]},"geometry":{"type":"LineString","coordinates":[[-121.5002,51.2509],[-121.50014,51.25102],[-121.50006,51.25147],[-121.50002,51.25181],[-121.49999,51.25218],[-121.50001,51.25252],[-121.50012,51.25292],[-121.50027,51.25314],[-121.50061,51.25343],[-121.50093,51.25369],[-121.50121,51.2539],[-121.50143,51.25397],[-121.50172,51.25402],[-121.50211,51.25409],[-121.5021,51.25394],[-121.5021,51.25391],[-121.5021,51.25377],[-121.50218,51.25364],[-121.50227,51.25351],[-121.50231,51.25345],[-121.5024,51.25333],[-121.50257,51.25316],[-121.50268,51.25303],[-121.50282,51.25288],[-121.50295,51.25274],[-121.50308,51.25261],[-121.50319,51.25248],[-121.50329,51.25235],[-121.50341,51.25223],[-121.50353,51.25209],[-121.50372,51.25189],[-121.50393,51.25168],[-121.50412,51.25152],[-121.50429,51.25133],[-121.50433,51.25128],[-121.50438,51.25121],[-121.50447,51.2511],[-121.50456,51.25098],[-121.50466,51.25088],[-121.50478,51.25076],[-121.50494,51.25063],[-121.50513,51.2505],[-121.50545,51.25035],[-121.50565,51.25026],[-121.50578,51.25021],[-121.50599,51.2501],[-121.50628,51.24998],[-121.50635,51.24995],[-121.50657,51.24986],[-121.50682,51.24973],[-121.50705,51.24958],[-121.50718,51.24946],[-121.50741,51.24928],[-121.50761,51.2491],[-121.5078,51.24895],[-121.50798,51.24878],[-121.508,51.24875],[-121.50812,51.24853],[-121.50822,51.24835],[-121.50834,51.24819],[-121.50843,51.2481],[-121.50849,51.24804],[-121.50874,51.24783],[-121.50886,51.24771],[-121.50889,51.24764],[-121.50892,51.24752],[-121.50893,51.24741],[-121.50892,51.24728],[-121.50892,51.24715],[-121.50891,51.24703],[-121.50891,51.24702],[-121.50892,51.24689],[-121.5089,51.24684],[-121.50889,51.24677],[-121.50889,51.24665],[-121.50896,51.24656],[-121.50906,51.24644],[-121.50928,51.24629],[-121.50944,51.24624],[-121.5095,51.24623],[-121.50971,51.24618],[-121.50973,51.24618],[-121.51003,51.24612],[-121.51025,51.24595],[-121.51036,51.2458],[-121.51042,51.24562],[-121.51044,51.24544],[-121.51044,51.24543],[-121.51043,51.24536],[-121.51044,51.24532],[-121.51048,51.24518],[-121.51057,51.245],[-121.51066,51.24486],[-121.51076,51.24471],[-121.51085,51.24464],[-121.51107,51.24445],[-121.51129,51.24426],[-121.51153,51.24405],[-121.51172,51.24386],[-121.51175,51.24383],[-121.51186,51.24371],[-121.51196,51.24359],[-121.51206,51.24346],[-121.51217,51.24334],[-121.51233,51.24315],[-121.51248,51.24296],[-121.51269,51.24276],[-121.51291,51.24256],[-121.51313,51.24236],[-121.51334,51.24216],[-121.51347,51.24203],[-121.5136,51.24193],[-121.51372,51.2418],[-121.51385,51.24169],[-121.51406,51.24148],[-121.51427,51.24127],[-121.51446,51.24107],[-121.51464,51.24088],[-121.51477,51.24073],[-121.51498,51.24052],[-121.5152,51.24032],[-121.51532,51.24018],[-121.51546,51.24003],[-121.51557,51.2399],[-121.51571,51.23976],[-121.51583,51.23963],[-121.51596,51.23951],[-121.51609,51.23938],[-121.51624,51.23926],[-121.51634,51.23919],[-121.51653,51.23907],[-121.51685,51.23887],[-121.51703,51.23878],[-121.51719,51.23869],[-121.51738,51.23861],[-121.51755,51.23852],[-121.5177,51.23848],[-121.51787,51.23843],[-121.51816,51.2383],[-121.51834,51.23818],[-121.51844,51.23804],[-121.51844,51.23798],[-121.51842,51.23789],[-121.51839,51.23786],[-121.51832,51.23778],[-121.51811,51.23764],[-121.51799,51.23749],[-121.51797,51.23746],[-121.51805,51.2373],[-121.51823,51.23716],[-121.51837,51.23708],[-121.51855,51.23704],[-121.51867,51.23703],[-121.51882,51.23703],[-121.51889,51.23701],[-121.51898,51.23699],[-121.51904,51.23697],[-121.51926,51.23679],[-121.51939,51.23666],[-121.51946,51.23659],[-121.51968,51.23643],[-121.51992,51.23625],[-121.52018,51.23611],[-121.52041,51.23597],[-121.52044,51.23594],[-121.52062,51.23573],[-121.52083,51.23554],[-121.52106,51.23536],[-121.52124,51.23519],[-121.52143,51.23503],[-121.52165,51.23487],[-121.52186,51.23471],[-121.52204,51.23453],[-121.5222,51.23435],[-121.52232,51.23419],[-121.52241,51.23403],[-121.52244,51.23398],[-121.52252,51.23377],[-121.52257,51.23357],[-121.52256,51.23344],[-121.52256,51.23332],[-121.52255,51.23321],[-121.52255,51.23317],[-121.52254,51.23308],[-121.52253,51.23294],[-121.52253,51.23292],[-121.52253,51.23287],[-121.52255,51.23279],[-121.52261,51.23272],[-121.5228,51.23253],[-121.52295,51.23241],[-121.52302,51.23235],[-121.52324,51.23216],[-121.52342,51.23196],[-121.52347,51.23183],[-121.52349,51.23165],[-121.52344,51.23145],[-121.52339,51.23129],[-121.52335,51.2311],[-121.52328,51.231],[-121.5231,51.23083],[-121.52285,51.2307],[-121.52262,51.23063],[-121.52251,51.2306],[-121.52238,51.23057],[-121.52229,51.23055],[-121.52199,51.23051],[-121.52182,51.23046],[-121.52177,51.23044],[-121.52166,51.23031],[-121.52162,51.23017],[-121.52161,51.23007],[-121.52162,51.22996],[-121.52162,51.22992],[-121.52173,51.22971],[-121.52192,51.2296],[-121.52221,51.22952],[-121.52225,51.22951],[-121.52246,51.22947],[-121.52266,51.22944],[-121.52286,51.22942],[-121.52307,51.2294],[-121.52335,51.22937],[-121.52363,51.22937],[-121.5238,51.22941],[-121.52386,51.22942],[-121.52389,51.22943],[-121.52413,51.22953],[-121.5244,51.22964],[-121.52463,51.22969],[-121.52475,51.22971],[-121.52501,51.2297],[-121.52526,51.22967],[-121.52531,51.22968],[-121.52556,51.22972],[-121.52561,51.22973],[-121.52585,51.22978],[-121.52604,51.22978],[-121.52623,51.22976],[-121.52632,51.22969],[-121.52652,51.22948],[-121.52667,51.22936],[-121.52674,51.22929],[-121.52694,51.22909],[-121.52698,51.22902],[-121.52701,51.22895],[-121.527,51.22889],[-121.52695,51.2287],[-121.52695,51.22868],[-121.52697,51.22856],[-121.52697,51.22852],[-121.52704,51.22843],[-121.52705,51.22835],[-121.52712,51.22827],[-121.52724,51.22814],[-121.5274,51.22802],[-121.52756,51.2279],[-121.52774,51.22779],[-121.52787,51.22765],[-121.52802,51.22752],[-121.52806,51.22745],[-121.52815,51.22732],[-121.52826,51.22722],[-121.52836,51.2271],[-121.52846,51.22699],[-121.52861,51.2268],[-121.52876,51.22661]]}},
{"type":"Feature","properties":{"spotId":"A-grouse-drive-0050","kind":"roadside","km":4.47,"climbM":33,"name":"3.9 km NE of McKinley Lake","flags":[]},"geometry":{"type":"LineString","coordinates":[[-121.5474,51.39183],[-121.54752,51.39201],[-121.54765,51.39219],[-121.54776,51.39236],[-121.5479,51.39256],[-121.54802,51.39277],[-121.54814,51.39294],[-121.54831,51.39315],[-121.54835,51.3932],[-121.54845,51.39336],[-121.54853,51.39347],[-121.5486,51.39356],[-121.54875,51.39377],[-121.54883,51.39388],[-121.54891,51.39398],[-121.54908,51.39418],[-121.54925,51.39438],[-121.54943,51.39459],[-121.54962,51.39478],[-121.54982,51.39498],[-121.55,51.39516],[-121.55014,51.39535],[-121.55016,51.39544],[-121.55017,51.39555],[-121.55017,51.39564],[-121.55015,51.39583],[-121.55007,51.39604],[-121.55004,51.39609],[-121.54995,51.39625],[-121.54984,51.39641],[-121.54971,51.39657],[-121.54959,51.39669],[-121.54959,51.3967],[-121.54924,51.39689],[-121.54898,51.39702],[-121.54862,51.39721],[-121.54833,51.39736],[-121.54806,51.3975],[-121.54771,51.39766],[-121.54747,51.39776],[-121.54724,51.39787],[-121.54721,51.39788],[-121.54696,51.39799],[-121.54673,51.39808],[-121.54642,51.39826],[-121.54627,51.39843],[-121.54617,51.3986],[-121.5461,51.39878],[-121.5461,51.39897],[-121.54609,51.39907],[-121.54609,51.39908],[-121.54609,51.39924],[-121.54609,51.39925],[-121.5461,51.39943],[-121.54612,51.39953],[-121.54619,51.39962],[-121.5462,51.39979],[-121.5462,51.39989],[-121.54615,51.39997],[-121.54612,51.4],[-121.54597,51.40014],[-121.54577,51.40028],[-121.54551,51.40034],[-121.54538,51.40039],[-121.54507,51.4004],[-121.54492,51.4004],[-121.54466,51.40033],[-121.5444,51.40023],[-121.54415,51.40011],[-121.54394,51.4],[-121.54389,51.39998],[-121.54388,51.39997],[-121.54377,51.39993],[-121.54364,51.39986],[-121.54353,51.3998],[-121.54329,51.39967],[-121.54303,51.39954],[-121.54285,51.39939],[-121.54261,51.39923],[-121.54238,51.39911],[-121.54226,51.39904],[-121.54211,51.39898],[-121.542,51.39892],[-121.54166,51.39876],[-121.54145,51.39867],[-121.54121,51.39859],[-121.54095,51.39853],[-121.54071,51.39845],[-121.54042,51.39839],[-121.54012,51.39838],[-121.53982,51.39839],[-121.53952,51.3984],[-121.53921,51.39842],[-121.53891,51.39845],[-121.53861,51.3985],[-121.5383,51.39855],[-121.53802,51.39859],[-121.53774,51.39864],[-121.53747,51.39868],[-121.53722,51.39875],[-121.5369,51.39888],[-121.53681,51.39893],[-121.53666,51.39908],[-121.53666,51.39909],[-121.5366,51.39928],[-121.53655,51.39948],[-121.53647,51.39965],[-121.53646,51.39967],[-121.53636,51.39986],[-121.53627,51.4],[-121.53615,51.40016],[-121.53605,51.40029],[-121.53603,51.40031],[-121.53588,51.40048],[-121.53575,51.40064],[-121.53562,51.4008],[-121.53538,51.401],[-121.53517,51.40118],[-121.53498,51.40135],[-121.53469,51.40156],[-121.53441,51.40175],[-121.53417,51.40197],[-121.53415,51.40197],[-121.53395,51.40218],[-121.53377,51.40237],[-121.53366,51.40251],[-121.53363,51.40259],[-121.53354,51.40278],[-121.53342,51.40295],[-121.53333,51.40311],[-121.53331,51.40313],[-121.53319,51.4033],[-121.53307,51.40347],[-121.53298,51.40363],[-121.53295,51.40372],[-121.53292,51.40379],[-121.53288,51.40394],[-121.5329,51.4042],[-121.5329,51.40421],[-121.5329,51.40439],[-121.53295,51.40459],[-121.53299,51.40468],[-121.533,51.40486],[-121.53296,51.40506],[-121.53287,51.40523],[-121.53283,51.4053],[-121.5326,51.40549],[-121.53243,51.40561],[-121.53238,51.40563],[-121.53217,51.40571],[-121.53192,51.4058],[-121.53177,51.40586],[-121.53148,51.40592],[-121.53119,51.40602],[-121.53095,51.40612],[-121.53065,51.4063],[-121.53032,51.40649],[-121.53004,51.40657],[-121.52975,51.40666],[-121.52947,51.40674],[-121.52933,51.40676],[-121.5292,51.40678],[-121.52892,51.40684],[-121.52863,51.40692],[-121.5284,51.40702],[-121.52811,51.40712],[-121.52783,51.40723],[-121.52769,51.40728],[-121.5274,51.40731],[-121.52714,51.40738],[-121.52689,51.40746],[-121.52666,51.40758],[-121.52639,51.40771],[-121.52628,51.40777],[-121.52615,51.40782],[-121.5261,51.40782],[-121.5258,51.40795],[-121.52554,51.40802],[-121.5254,51.40806],[-121.52513,51.40808],[-121.52486,51.40807],[-121.5246,51.40808],[-121.52428,51.40807],[-121.52398,51.40807],[-121.52368,51.40807],[-121.52341,51.40807],[-121.52309,51.4081],[-121.52278,51.40818],[-121.52248,51.40825],[-121.52219,51.4083],[-121.52193,51.40839],[-121.52183,51.40846],[-121.52168,51.40863],[-121.52162,51.40871],[-121.52155,51.40892],[-121.52153,51.40914],[-121.5215,51.40935],[-121.52147,51.40957],[-121.52148,51.40977],[-121.52147,51.40999],[-121.52147,51.41021],[-121.52146,51.41039],[-121.52143,51.41058],[-121.52141,51.41079],[-121.52138,51.411],[-121.52135,51.41121],[-121.52133,51.41143],[-121.52131,51.41164],[-121.52129,51.41185],[-121.52122,51.41203],[-121.52116,51.41224],[-121.52112,51.41246],[-121.52107,51.41267],[-121.52102,51.41286],[-121.52099,51.41304],[-121.52097,51.41325],[-121.52095,51.41346],[-121.52095,51.41368],[-121.52095,51.41389],[-121.52098,51.41407],[-121.52108,51.41428],[-121.52114,51.4145],[-121.52118,51.41464],[-121.52122,51.41482],[-121.52128,51.41503],[-121.52133,51.41525],[-121.52137,51.41546],[-121.52138,51.41567],[-121.52137,51.41589],[-121.52136,51.4161],[-121.52137,51.41631],[-121.52132,51.41653],[-121.52129,51.4167],[-121.52124,51.41692],[-121.52122,51.41713],[-121.52121,51.41722]]}},
{"type":"Feature","properties":{"spotId":"A-grouse-drive-0089","kind":"roadside","km":5.48,"climbM":38,"name":"4.6 km E of Beaverdam Lake rec site","flags":[]},"geometry":{"type":"LineString","coordinates":[[-121.54884,51.26543],[-121.54898,51.26551],[-121.54929,51.26572],[-121.54944,51.26585],[-121.54959,51.266],[-121.54976,51.26619],[-121.54986,51.26637],[-121.54994,51.26655],[-121.55002,51.26673],[-121.55008,51.26687],[-121.5501,51.26692],[-121.55019,51.2671],[-121.55029,51.26729],[-121.55037,51.26744],[-121.55046,51.2676],[-121.55054,51.26776],[-121.55056,51.26779],[-121.55064,51.26792],[-121.55073,51.26811],[-121.55084,51.26829],[-121.55096,51.26851],[-121.55107,51.26872],[-121.55118,51.2689],[-121.55128,51.26907],[-121.55137,51.26925],[-121.55141,51.26933],[-121.55145,51.2694],[-121.55155,51.26956],[-121.55163,51.2697],[-121.55166,51.26976],[-121.55171,51.26986],[-121.5518,51.27001],[-121.55189,51.27016],[-121.552,51.27033],[-121.5521,51.2705],[-121.5522,51.27068],[-121.5523,51.27084],[-121.55231,51.27085],[-121.5524,51.27101],[-121.5525,51.27115],[-121.55258,51.27129],[-121.55266,51.27142],[-121.55276,51.27156],[-121.55279,51.27161],[-121.55283,51.27166],[-121.55286,51.27171],[-121.55297,51.27187],[-121.55309,51.27204],[-121.5532,51.27221],[-121.55331,51.27237],[-121.55339,51.2725],[-121.55349,51.27263],[-121.55354,51.27271],[-121.55357,51.27276],[-121.55365,51.27289],[-121.55379,51.27311],[-121.55385,51.27323],[-121.55392,51.27334],[-121.55395,51.27339],[-121.55406,51.27356],[-121.5541,51.27361],[-121.55441,51.27441],[-121.55455,51.27478],[-121.5546,51.275],[-121.55465,51.27514],[-121.55472,51.27527],[-121.5548,51.27544],[-121.55487,51.27559],[-121.55495,51.27572],[-121.5551,51.27592],[-121.55527,51.27612],[-121.55544,51.27628],[-121.55566,51.27649],[-121.55578,51.27661],[-121.55587,51.27668],[-121.55592,51.27673],[-121.55609,51.27688],[-121.55626,51.27703],[-121.55645,51.27722],[-121.55666,51.2774],[-121.5568,51.27755],[-121.55688,51.27763],[-121.55695,51.27769],[-121.55709,51.27783],[-121.55723,51.27797],[-121.5574,51.27813],[-121.55746,51.27818],[-121.55758,51.27828],[-121.55775,51.27845],[-121.55793,51.27861],[-121.55801,51.27869],[-121.55808,51.27876],[-121.55824,51.27889],[-121.55843,51.27908],[-121.55861,51.27925],[-121.55872,51.27937],[-121.55883,51.27947],[-121.55904,51.27969],[-121.55922,51.27987],[-121.5594,51.28005],[-121.55959,51.28022],[-121.55974,51.28039],[-121.5599,51.28055],[-121.56006,51.28072],[-121.56024,51.28091],[-121.56043,51.2811],[-121.56061,51.28129],[-121.56081,51.28148],[-121.56097,51.28165],[-121.561,51.28168],[-121.56114,51.28183],[-121.56132,51.282],[-121.56149,51.28217],[-121.56164,51.28232],[-121.56167,51.28235],[-121.56181,51.28246],[-121.56199,51.28264],[-121.56219,51.2828],[-121.56242,51.283],[-121.56265,51.2832],[-121.5628,51.28337],[-121.56297,51.28353],[-121.56305,51.28361],[-121.56313,51.28369],[-121.56333,51.28389],[-121.56338,51.28395],[-121.56351,51.28409],[-121.56366,51.28427],[-121.5638,51.28444],[-121.56394,51.28461],[-121.56407,51.28479],[-121.56416,51.28491],[-121.56425,51.28504],[-121.56433,51.28517],[-121.56443,51.28528],[-121.56447,51.28534],[-121.5646,51.28549],[-121.56467,51.28558],[-121.56473,51.2857],[-121.56479,51.28585],[-121.56481,51.28596],[-121.56482,51.28615],[-121.56479,51.2863],[-121.56475,51.28645],[-121.56474,51.2865],[-121.56472,51.28656],[-121.56469,51.28663],[-121.56466,51.28671],[-121.56455,51.2869],[-121.56448,51.28704],[-121.56442,51.28716],[-121.56431,51.28733],[-121.56428,51.28739],[-121.56422,51.2875],[-121.56416,51.28763],[-121.56408,51.28776],[-121.56401,51.28789],[-121.56393,51.28802],[-121.56387,51.28816],[-121.56385,51.28818],[-121.56376,51.28832],[-121.5637,51.28844],[-121.56363,51.28855],[-121.56357,51.28866],[-121.56346,51.28882],[-121.56337,51.28897],[-121.56325,51.28915],[-121.56316,51.2893],[-121.56313,51.28935],[-121.56302,51.28952],[-121.56292,51.28968],[-121.56283,51.28985],[-121.56271,51.29004],[-121.56258,51.29023],[-121.56257,51.29026],[-121.56246,51.29042],[-121.56236,51.29062],[-121.56222,51.29082],[-121.56209,51.29104],[-121.56194,51.29125],[-121.5618,51.29147],[-121.56179,51.29148],[-121.56169,51.29164],[-121.56159,51.29182],[-121.56151,51.29195],[-121.56142,51.2921],[-121.56132,51.29228],[-121.56124,51.29239],[-121.56117,51.29251],[-121.56104,51.2927],[-121.56092,51.29288],[-121.56083,51.29302],[-121.56074,51.29317],[-121.56067,51.29332],[-121.56058,51.29347],[-121.56051,51.2936],[-121.56045,51.29373],[-121.56041,51.29385],[-121.5603,51.29399],[-121.56015,51.29415],[-121.55999,51.2943],[-121.55984,51.29443],[-121.5597,51.29454],[-121.55951,51.29467],[-121.55942,51.29473],[-121.55911,51.2949],[-121.55882,51.29505],[-121.55857,51.29518],[-121.55847,51.29524],[-121.55829,51.29534],[-121.55815,51.29545],[-121.55802,51.29555],[-121.5579,51.29566],[-121.55772,51.29588],[-121.55766,51.29605],[-121.55762,51.29616],[-121.55761,51.29623],[-121.55757,51.29638],[-121.55752,51.29656],[-121.55751,51.29668],[-121.55749,51.2968],[-121.55747,51.29695],[-121.55747,51.29699],[-121.55745,51.2971],[-121.55745,51.29726],[-121.55744,51.29741],[-121.55744,51.29754],[-121.55743,51.29765],[-121.55741,51.29778],[-121.55741,51.2979],[-121.55739,51.29812],[-121.55737,51.29834],[-121.55733,51.29851],[-121.5573,51.29869],[-121.5573,51.2987],[-121.55728,51.29882],[-121.55725,51.29893],[-121.55725,51.29895],[-121.55723,51.29907],[-121.5572,51.29921],[-121.55718,51.29937],[-121.55716,51.29949],[-121.55714,51.29962],[-121.55715,51.29974],[-121.55716,51.29985],[-121.55718,51.29992],[-121.55719,51.3],[-121.55719,51.30007],[-121.55722,51.30026],[-121.55729,51.3004],[-121.55733,51.30048],[-121.55744,51.30059],[-121.55754,51.3007],[-121.55768,51.30085],[-121.55782,51.30099],[-121.55796,51.30113],[-121.55808,51.30127],[-121.55827,51.30148],[-121.55847,51.30169],[-121.55859,51.30182],[-121.55873,51.30195],[-121.55887,51.30209],[-121.55903,51.30223],[-121.55916,51.30236],[-121.55929,51.30249],[-121.55946,51.30267],[-121.55958,51.30289],[-121.55959,51.30304],[-121.55961,51.30317],[-121.55959,51.30339],[-121.55956,51.30356],[-121.55951,51.30374],[-121.55945,51.30389],[-121.55938,51.30404],[-121.55931,51.3042],[-121.55923,51.30436],[-121.55916,51.30449],[-121.55908,51.30462],[-121.559,51.30473],[-121.55894,51.30485],[-121.5589,51.30501],[-121.55886,51.30516],[-121.55883,51.30535],[-121.55881,51.30554],[-121.55879,51.3057],[-121.55878,51.30585],[-121.55878,51.30599],[-121.55877,51.30611],[-121.55879,51.30624],[-121.55881,51.30636],[-121.55885,51.30652],[-121.55887,51.30668],[-121.55892,51.30685],[-121.55898,51.30702],[-121.55903,51.30716],[-121.5591,51.3073],[-121.55913,51.30745],[-121.55919,51.3076],[-121.55918,51.30777],[-121.55919,51.30793],[-121.55913,51.30811],[-121.55907,51.30829],[-121.55899,51.30841],[-121.55897,51.30843],[-121.55891,51.30852],[-121.55885,51.30862],[-121.55876,51.30879],[-121.55867,51.30895],[-121.55858,51.30912],[-121.55852,51.3093],[-121.55844,51.30948],[-121.55838,51.30966],[-121.55833,51.30981],[-121.5583,51.30997],[-121.55825,51.31012],[-121.55823,51.31023],[-121.55821,51.31035],[-121.55822,51.3104]]}},
{"type":"Feature","properties":{"spotId":"A-grouse-walk-0062","kind":"roadside","km":4.8,"climbM":28,"name":"1.3 km NE of River Lakes","flags":[]},"geometry":{"type":"LineString","coordinates":[[-121.56157,51.32693],[-121.56131,51.32696],[-121.56105,51.327],[-121.56083,51.32703],[-121.56073,51.32704],[-121.56059,51.32705],[-121.56033,51.32709],[-121.56005,51.32712],[-121.55979,51.32715],[-121.55948,51.32718],[-121.55916,51.32722],[-121.55884,51.32726],[-121.55854,51.32728],[-121.55825,51.3273],[-121.55801,51.3273],[-121.55778,51.3273],[-121.55751,51.32728],[-121.55725,51.32725],[-121.55695,51.32723],[-121.55663,51.32722],[-121.55659,51.32722],[-121.55653,51.32723],[-121.55639,51.32724],[-121.55613,51.32726],[-121.55589,51.32728],[-121.55563,51.32731],[-121.55551,51.32731],[-121.55537,51.32732],[-121.55511,51.32734],[-121.55485,51.32733],[-121.55459,51.32733],[-121.55454,51.32733],[-121.55434,51.32732],[-121.55402,51.32726],[-121.55372,51.3272],[-121.55348,51.32714],[-121.55342,51.32713],[-121.55314,51.32704],[-121.55308,51.32703],[-121.5528,51.32697],[-121.55247,51.32688],[-121.55221,51.32681],[-121.55196,51.32673],[-121.5517,51.32666],[-121.55143,51.32656],[-121.55118,51.32646],[-121.55091,51.32637],[-121.55059,51.32625],[-121.55027,51.32613],[-121.54996,51.32602],[-121.54991,51.326],[-121.54969,51.32593],[-121.54943,51.32584],[-121.54923,51.32578],[-121.54916,51.32575],[-121.54883,51.32563],[-121.54849,51.3255],[-121.54828,51.32542],[-121.54825,51.32541],[-121.548,51.32531],[-121.54776,51.32521],[-121.54743,51.32507],[-121.5471,51.32493],[-121.54677,51.32476],[-121.54644,51.32459],[-121.54617,51.32446],[-121.54589,51.32431],[-121.54562,51.32417],[-121.54538,51.32405],[-121.54516,51.32393],[-121.545,51.32385],[-121.54492,51.32381],[-121.54458,51.32365],[-121.54425,51.32349],[-121.54394,51.32334],[-121.54391,51.32333],[-121.54363,51.3232],[-121.54335,51.32308],[-121.54306,51.32295],[-121.54278,51.32282],[-121.54247,51.32268],[-121.54217,51.32255],[-121.54186,51.32241],[-121.5416,51.32233],[-121.54158,51.32232],[-121.54131,51.32222],[-121.54102,51.32213],[-121.54074,51.32203],[-121.54071,51.32202],[-121.54044,51.32196],[-121.54014,51.32188],[-121.53984,51.3218],[-121.53981,51.3218],[-121.53974,51.32178],[-121.53954,51.32173],[-121.53924,51.3217],[-121.53893,51.32166],[-121.53863,51.32163],[-121.53835,51.32162],[-121.53807,51.32159],[-121.53782,51.32158],[-121.53771,51.32158],[-121.53761,51.32158],[-121.53737,51.32157],[-121.53703,51.32162],[-121.53669,51.32166],[-121.53637,51.32176],[-121.53605,51.32186],[-121.53575,51.32198],[-121.53566,51.32201],[-121.53545,51.32209],[-121.53524,51.32221],[-121.53503,51.32233],[-121.53499,51.32237],[-121.53471,51.32241],[-121.53437,51.32238],[-121.53403,51.32235],[-121.53375,51.3223],[-121.5335,51.32223],[-121.53323,51.32216],[-121.53296,51.32211],[-121.5327,51.32202],[-121.53267,51.32201],[-121.53246,51.32193],[-121.5322,51.32184],[-121.53202,51.32179],[-121.53191,51.32175],[-121.53161,51.32165],[-121.53131,51.32155],[-121.53101,51.32145],[-121.53071,51.32135],[-121.5304,51.32124],[-121.53026,51.32119],[-121.5301,51.32113],[-121.53007,51.32113],[-121.52981,51.32103],[-121.52978,51.32102],[-121.52948,51.3209],[-121.52927,51.32081],[-121.52915,51.32076],[-121.52891,51.32064],[-121.52866,51.32053],[-121.52842,51.32041],[-121.52815,51.32028],[-121.52799,51.32021],[-121.52788,51.32015],[-121.52781,51.32012],[-121.52767,51.32004],[-121.52754,51.31998],[-121.52746,51.31993],[-121.52719,51.31978],[-121.52712,51.31973],[-121.52678,51.31953],[-121.52653,51.31942],[-121.52648,51.3194],[-121.52626,51.31931],[-121.5262,51.3193],[-121.5261,51.31929],[-121.52583,51.31929],[-121.52553,51.31931],[-121.52525,51.31933],[-121.52514,51.31934],[-121.52496,51.31942],[-121.52491,51.31941],[-121.52462,51.31936],[-121.52451,51.31934],[-121.52432,51.3193],[-121.52404,51.31921],[-121.52375,51.31916],[-121.52342,51.31911],[-121.52311,51.31905],[-121.52278,51.319],[-121.52252,51.31893],[-121.52243,51.3189],[-121.52228,51.31886],[-121.52203,51.31878],[-121.5219,51.31873],[-121.52184,51.31873],[-121.5216,51.31873],[-121.52156,51.31872],[-121.52141,51.3187],[-121.52111,51.31863],[-121.52081,51.31856],[-121.52053,51.31851],[-121.52023,51.31848],[-121.52003,51.31845],[-121.51993,51.31844],[-121.51963,51.31838],[-121.51934,51.31831],[-121.51904,51.31829],[-121.51874,51.31828],[-121.51851,51.3183],[-121.51844,51.3183],[-121.51815,51.31831],[-121.51812,51.31832],[-121.51798,51.31834],[-121.51786,51.31835],[-121.51756,51.31836],[-121.51728,51.31836],[-121.51697,51.31837],[-121.51669,51.31839],[-121.51639,51.31841],[-121.51611,51.3184],[-121.51581,51.31841],[-121.51552,51.31841],[-121.51522,51.31843],[-121.51492,51.31844],[-121.51463,51.31844],[-121.51433,51.31845],[-121.51403,51.31847],[-121.51374,51.31847],[-121.51344,51.31849],[-121.51315,51.31851],[-121.51285,51.31853],[-121.51255,51.31854],[-121.51226,51.31854],[-121.51196,51.31854],[-121.51166,51.31854],[-121.51137,51.31854],[-121.51107,51.31854],[-121.51077,51.31854],[-121.51048,51.31853],[-121.51018,51.31851],[-121.50988,51.3185],[-121.50958,51.31849],[-121.50929,51.31848],[-121.50899,51.31845],[-121.50869,51.31844],[-121.50841,51.31842],[-121.50811,51.31839],[-121.50781,51.31834],[-121.5075,51.31833],[-121.50722,51.31834],[-121.50692,51.31834],[-121.50663,51.31837],[-121.50633,51.31839],[-121.50602,51.31838],[-121.50574,51.31839],[-121.50544,51.31839],[-121.50513,51.31839],[-121.50485,51.3184],[-121.50455,51.3184],[-121.50424,51.31841],[-121.50396,51.31842],[-121.50366,51.31843],[-121.50335,51.31844],[-121.50307,51.31844],[-121.50277,51.31844],[-121.50246,51.31845],[-121.50218,51.31844],[-121.50188,51.31845],[-121.50157,51.31845],[-121.50129,51.31847],[-121.50098,51.31847],[-121.50071,51.31847],[-121.50041,51.31847],[-121.50012,51.31847],[-121.49982,51.31848],[-121.49953,51.31849],[-121.49923,51.31849],[-121.49895,51.31851],[-121.49864,51.31853],[-121.49834,51.31853],[-121.49806,51.31853],[-121.49778,51.31853],[-121.49761,51.31853]]}},
{"type":"Feature","properties":{"spotId":"A-moose-atv-0038","kind":"ride","km":3.84,"climbM":29,"name":"4.7 km N of Cunningham Lake","flags":[]},"geometry":{"type":"LineString","coordinates":[[-121.5098,51.39816],[-121.50956,51.39817],[-121.50932,51.39817],[-121.50908,51.39817],[-121.50882,51.39817],[-121.50856,51.39817],[-121.5083,51.39819],[-121.50804,51.3982],[-121.50778,51.39822],[-121.50752,51.39823],[-121.50728,51.39826],[-121.50709,51.39832],[-121.50703,51.39834],[-121.50668,51.39843],[-121.50639,51.39842],[-121.50626,51.39842],[-121.50615,51.39842],[-121.50583,51.39844],[-121.50557,51.39844],[-121.5053,51.39844],[-121.50504,51.39845],[-121.50477,51.39847],[-121.50449,51.39848],[-121.50422,51.39848],[-121.50396,51.39849],[-121.5037,51.39849],[-121.50356,51.39849],[-121.50329,51.39851],[-121.50301,51.39853],[-121.50275,51.39856],[-121.50249,51.39858],[-121.50215,51.39862],[-121.50199,51.39865],[-121.50174,51.39876],[-121.50158,51.39891],[-121.50146,51.39903],[-121.50138,51.39911],[-121.50117,51.39932],[-121.50095,51.39953],[-121.50072,51.39974],[-121.50046,51.39995],[-121.50039,51.4],[-121.50021,51.40014],[-121.49999,51.40033],[-121.49977,51.40051],[-121.49953,51.40068],[-121.49931,51.40087],[-121.49924,51.40093],[-121.49915,51.401],[-121.49902,51.40112],[-121.49888,51.40122],[-121.49877,51.40131],[-121.49865,51.40137],[-121.49846,51.40148],[-121.49821,51.40157],[-121.49795,51.40163],[-121.49768,51.40168],[-121.4974,51.40173],[-121.49714,51.40179],[-121.49697,51.40184],[-121.49688,51.40185],[-121.49663,51.40191],[-121.49634,51.40198],[-121.49627,51.402],[-121.49593,51.40202],[-121.49564,51.4021],[-121.49535,51.40217],[-121.49504,51.40222],[-121.49472,51.40228],[-121.49442,51.40231],[-121.49416,51.40238],[-121.4939,51.40245],[-121.49364,51.40246],[-121.49334,51.40248],[-121.49302,51.40254],[-121.4927,51.40261],[-121.49245,51.40267],[-121.49214,51.40272],[-121.49185,51.40275],[-121.49154,51.4028],[-121.49124,51.40286],[-121.49092,51.40292],[-121.49066,51.40299],[-121.49053,51.40302],[-121.4904,51.40306],[-121.49015,51.40311],[-121.48991,51.40315],[-121.48968,51.4032],[-121.48943,51.40325],[-121.4892,51.40332],[-121.48898,51.40336],[-121.48868,51.40343],[-121.4884,51.40351],[-121.48834,51.40352],[-121.48815,51.4036],[-121.48806,51.40366],[-121.48796,51.40374],[-121.4879,51.40383],[-121.4879,51.40385],[-121.48784,51.404],[-121.48781,51.4041],[-121.4877,51.40429],[-121.48764,51.40446],[-121.48757,51.40464],[-121.48752,51.40485],[-121.48751,51.40507],[-121.48752,51.40525],[-121.48752,51.40546],[-121.48753,51.40561],[-121.48751,51.40573],[-121.48751,51.40575],[-121.48746,51.40593],[-121.48745,51.40608],[-121.48746,51.40624],[-121.48746,51.40636],[-121.48746,51.40638],[-121.48745,51.40653],[-121.48746,51.40674],[-121.48747,51.40695],[-121.4875,51.40715],[-121.48756,51.40722],[-121.48759,51.40726],[-121.48767,51.40747],[-121.48772,51.40765],[-121.48774,51.4078],[-121.48775,51.408],[-121.48775,51.4081],[-121.48768,51.40821],[-121.48752,51.4084],[-121.48747,51.40849],[-121.48745,51.40871],[-121.48745,51.40892],[-121.48745,51.40911],[-121.48745,51.4093],[-121.48747,51.40951],[-121.48755,51.40971],[-121.48759,51.40991],[-121.48764,51.41012],[-121.48764,51.4103],[-121.48767,51.41051],[-121.48775,51.41067],[-121.48777,51.41071],[-121.48794,51.41089],[-121.48806,51.41108],[-121.4882,51.41126],[-121.48826,51.41134],[-121.48842,51.41148],[-121.48856,51.41166],[-121.48872,51.41182],[-121.4889,51.41198],[-121.48906,51.41216],[-121.48922,51.4123],[-121.4893,51.41238],[-121.48944,51.41259],[-121.48956,51.41276],[-121.48958,51.41278],[-121.48964,51.41287],[-121.48972,51.41306],[-121.48974,51.41314],[-121.48978,51.41326],[-121.48977,51.41344],[-121.48978,51.41362],[-121.48979,51.41384],[-121.48985,51.41402],[-121.48992,51.41424],[-121.48995,51.41445],[-121.48996,51.41461],[-121.48998,51.41479],[-121.49002,51.41498],[-121.49009,51.41518],[-121.49017,51.41536],[-121.49017,51.41557],[-121.49017,51.41574],[-121.49021,51.41586],[-121.49022,51.41592],[-121.49033,51.41609],[-121.49044,51.41619],[-121.49042,51.41628],[-121.49043,51.41646],[-121.49043,51.41648],[-121.49043,51.41665],[-121.49044,51.41681],[-121.49043,51.41702],[-121.49044,51.41717],[-121.49043,51.41733],[-121.49044,51.41749],[-121.49044,51.41765],[-121.49044,51.41783],[-121.49045,51.41798],[-121.49048,51.41814],[-121.49052,51.41829],[-121.49055,51.41844],[-121.49059,51.4186],[-121.49062,51.41874],[-121.49064,51.4189],[-121.49065,51.41907],[-121.49066,51.41922],[-121.49067,51.41937],[-121.49068,51.41953],[-121.4907,51.41969],[-121.49072,51.41983],[-121.49072,51.42002],[-121.49073,51.42022],[-121.49069,51.42031],[-121.49053,51.42048],[-121.4904,51.42065],[-121.49026,51.42083],[-121.4902,51.42098],[-121.49009,51.42114],[-121.48993,51.42132],[-121.48982,51.4215],[-121.48973,51.4217],[-121.48968,51.4218],[-121.48963,51.42197],[-121.48961,51.42207]]}},
{"type":"Feature","properties":{"spotId":"A-moose-atv-0038","kind":"walk","km":0.35,"climbM":3,"name":"4.7 km N of Cunningham Lake","flags":[]},"geometry":{"type":"LineString","coordinates":[[-121.5098,51.39816],[-121.51091,51.40125]]}},
{"type":"Feature","properties":{"spotId":"A-moose-atv-0043","kind":"ride","km":2.33,"climbM":12,"name":"830 m NW of Sixtyone Creek","flags":[]},"geometry":{"type":"LineString","coordinates":[[-121.51812,51.27024],[-121.51778,51.27007],[-121.51753,51.26996],[-121.51736,51.26993],[-121.51735,51.26991],[-121.51726,51.2698],[-121.51721,51.26972],[-121.51709,51.26952],[-121.51695,51.26937],[-121.51679,51.2692],[-121.51671,51.26904],[-121.51669,51.2689],[-121.51669,51.26874],[-121.51664,51.26862],[-121.51661,51.26858],[-121.51652,51.26849],[-121.5163,51.26839],[-121.51609,51.26827],[-121.51574,51.26808],[-121.51559,51.26797],[-121.51542,51.26784],[-121.51531,51.26767],[-121.51524,51.26752],[-121.51516,51.26741],[-121.51502,51.26728],[-121.51494,51.2672],[-121.51488,51.26716],[-121.51471,51.26703],[-121.51458,51.2669],[-121.51444,51.26677],[-121.51428,51.26664],[-121.51416,51.26652],[-121.51403,51.26639],[-121.51382,51.26624],[-121.51367,51.26612],[-121.51341,51.26603],[-121.5132,51.26598],[-121.513,51.2659],[-121.51297,51.26589],[-121.51275,51.26585],[-121.51246,51.26583],[-121.51219,51.26584],[-121.51207,51.26584],[-121.51192,51.26583],[-121.51166,51.26586],[-121.51138,51.26589],[-121.51115,51.26589],[-121.51091,51.26588],[-121.51074,51.26587],[-121.51067,51.26584],[-121.51053,51.26576],[-121.51037,51.26566],[-121.51037,51.26565],[-121.51025,51.26552],[-121.51008,51.2654],[-121.50995,51.2653],[-121.50973,51.26516],[-121.50949,51.26502],[-121.50918,51.26486],[-121.50887,51.26471],[-121.50863,51.26459],[-121.50838,51.26447],[-121.50819,51.26439],[-121.50801,51.26431],[-121.50777,51.26422],[-121.50753,51.26415],[-121.50723,51.26406],[-121.50693,51.26396],[-121.50672,51.26388],[-121.50651,51.2638],[-121.50628,51.26368],[-121.50605,51.26356],[-121.5058,51.2634],[-121.50553,51.26325],[-121.50535,51.26313],[-121.50515,51.26301],[-121.50492,51.26287],[-121.5048,51.26279],[-121.50468,51.26272],[-121.5044,51.26255],[-121.5041,51.26238],[-121.50378,51.2622],[-121.50368,51.26213],[-121.50345,51.262],[-121.5032,51.26188],[-121.50294,51.26176],[-121.50269,51.26164],[-121.50245,51.26155],[-121.5022,51.26145],[-121.50215,51.26143],[-121.50187,51.26133],[-121.50186,51.26133],[-121.50163,51.26124],[-121.50142,51.26114],[-121.50139,51.26111],[-121.50128,51.26103],[-121.50118,51.26089],[-121.50093,51.26069],[-121.50092,51.26068],[-121.50068,51.26051],[-121.50043,51.26032],[-121.50034,51.26025],[-121.5002,51.2601],[-121.50008,51.25994],[-121.49997,51.25981],[-121.49986,51.25967],[-121.49974,51.25952],[-121.49961,51.25935],[-121.4994,51.25918],[-121.49935,51.25914],[-121.49921,51.25901],[-121.49896,51.25883],[-121.4987,51.25865],[-121.49848,51.2585],[-121.49825,51.25835],[-121.49818,51.25829],[-121.49807,51.25822],[-121.49792,51.25811],[-121.49789,51.25809],[-121.49758,51.25785],[-121.4976,51.25783],[-121.49762,51.25767],[-121.49759,51.25754],[-121.49757,51.25742],[-121.49753,51.25727],[-121.49749,51.25711],[-121.49748,51.25698],[-121.49749,51.25685],[-121.49748,51.25671],[-121.49748,51.25668],[-121.49738,51.2565],[-121.49729,51.25631],[-121.49718,51.25615],[-121.49706,51.25599],[-121.49686,51.25572]]}},
{"type":"Feature","properties":{"spotId":"A-moose-atv-0043","kind":"walk","km":0.13,"climbM":0,"name":"830 m NW of Sixtyone Creek","flags":[]},"geometry":{"type":"LineString","coordinates":[[-121.51812,51.27024],[-121.51939,51.26935]]}},
{"type":"Feature","properties":{"spotId":"A-moose-walk-0020","kind":"walk","km":0.37,"climbM":9,"name":"4.5 km NE of McKinley Lake","flags":[]},"geometry":{"type":"LineString","coordinates":[[-121.5462,51.39989],[-121.55128,51.40089]]}},
{"type":"Feature","properties":{"spotId":"A-moose-walk-0076","kind":"walk","km":2.9,"climbM":35,"name":"2.7 km NE of Toby Lake","flags":[]},"geometry":{"type":"LineString","coordinates":[[-121.56175,51.41511],[-121.59994,51.40459]]}}
]}
