{"type":"FeatureCollection","features":[
{"type":"Feature","properties":{"spotId":"A-camp-camp-0032","kind":"walk","km":0.06,"climbM":1,"name":"160 m NE of Forbes Creek","flags":[]},"geometry":{"type":"LineString","coordinates":[[-121.52057,51.89553],[-121.52126,51.89514]]}},
{"type":"Feature","properties":{"spotId":"A-camp-camp-0088","kind":"walk","km":0.21,"climbM":0,"name":"210 m W of Forbes Creek","flags":[]},"geometry":{"type":"LineString","coordinates":[[-121.60263,51.88226],[-121.59978,51.8829]]}},
{"type":"Feature","properties":{"spotId":"A-deer-atv-0086","kind":"ride","km":1.58,"climbM":28,"name":"830 m NW of Thirsty Lake","flags":[]},"geometry":{"type":"LineString","coordinates":[[-121.56067,51.88583],[-121.56065,51.88591],[-121.56064,51.88613],[-121.56071,51.88744],[-121.56072,51.88755],[-121.56072,51.88768],[-121.56072,51.88775],[-121.56072,51.88778],[-121.56073,51.88788],[-121.56072,51.88798],[-121.56072,51.88811],[-121.56073,51.88821],[-121.56073,51.88831],[-121.56072,51.88843],[-121.56075,51.88857],[-121.56075,51.88871],[-121.56076,51.88881],[-121.56077,51.88893],[-121.56076,51.88906],[-121.56076,51.88918],[-121.56077,51.88929],[-121.56075,51.88943],[-121.56076,51.88955],[-121.56077,51.88966],[-121.56079,51.88968],[-121.56083,51.88974],[-121.56093,51.88982],[-121.56101,51.8899],[-121.56113,51.88998],[-121.56111,51.89],[-121.56103,51.89011],[-121.56097,51.89019],[-121.56093,51.89025],[-121.56088,51.89031],[-121.56081,51.8904],[-121.56073,51.89051],[-121.56065,51.89065],[-121.56062,51.89078],[-121.56057,51.89089],[-121.56053,51.89102],[-121.56049,51.89114],[-121.56049,51.89124],[-121.5605,51.89137],[-121.56056,51.89147],[-121.56057,51.89155],[-121.56073,51.89152],[-121.56101,51.89146],[-121.5613,51.89141],[-121.56159,51.89135],[-121.56191,51.89127],[-121.56222,51.8912],[-121.56256,51.89112],[-121.56284,51.89105],[-121.56317,51.89099],[-121.56349,51.89098],[-121.56378,51.89103],[-121.5641,51.8911],[-121.56443,51.89114],[-121.56472,51.89116],[-121.56503,51.89116],[-121.56535,51.89117],[-121.56568,51.89119],[-121.566,51.89121],[-121.56611,51.89122],[-121.56632,51.89124],[-121.56662,51.89125],[-121.56697,51.89126],[-121.56717,51.89125],[-121.56726,51.89125],[-121.5676,51.89126],[-121.56791,51.89129],[-121.56825,51.89128],[-121.56861,51.89128],[-121.56896,51.89127],[-121.56928,51.89127],[-121.56963,51.89129],[-121.56986,51.89133],[-121.56998,51.89135],[-121.57022,51.89142],[-121.57026,51.89143],[-121.57054,51.8915],[-121.57081,51.89158],[-121.57085,51.8916],[-121.57108,51.89168],[-121.57143,51.89179],[-121.57177,51.89196],[-121.57202,51.89212],[-121.57218,51.89229],[-121.57237,51.89248],[-121.57254,51.89265],[-121.57261,51.89276],[-121.5726,51.89285],[-121.5726,51.89291]]}},
{"type":"Feature","properties":{"spotId":"A-deer-atv-0086","kind":"walk","km":0.06,"climbM":0,"name":"830 m NW of Thirsty Lake","flags":[]},"geometry":{"type":"LineString","coordinates":[[-121.56067,51.88583],[-121.56157,51.88592]]}},
{"type":"Feature","properties":{"spotId":"A-deer-atv-0162","kind":"ride","km":5.09,"climbM":29,"name":"2.2 km SW of Lac la Hache","flags":[]},"geometry":{"type":"LineString","coordinates":[[-121.59919,51.81243],[-121.59907,51.81242],[-121.59875,51.81236],[-121.59846,51.81229],[-121.59816,51.81223],[-121.59803,51.81221],[-121.59774,51.81218],[-121.59742,51.81214],[-121.59712,51.8121],[-121.59682,51.81205],[-121.5965,51.81201],[-121.59619,51.812],[-121.5959,51.81198],[-121.59559,51.81192],[-121.59554,51.81191],[-121.59525,51.81187],[-121.59492,51.81185],[-121.5946,51.81182],[-121.59431,51.8118],[-121.59421,51.81179],[-121.59407,51.81178],[-121.59402,51.81179],[-121.5937,51.81179],[-121.59336,51.81179],[-121.59301,51.8118],[-121.59269,51.81185],[-121.59237,51.81183],[-121.59225,51.81182],[-121.59207,51.81177],[-121.59175,51.81174],[-121.59146,51.81174],[-121.59115,51.81176],[-121.59105,51.81179],[-121.59079,51.81184],[-121.59074,51.81185],[-121.59041,51.81189],[-121.59012,51.81196],[-121.58983,51.81198],[-121.58953,51.81204],[-121.5895,51.81205],[-121.58942,51.81207],[-121.58917,51.81211],[-121.58899,51.81214],[-121.5888,51.81216],[-121.58862,51.81217],[-121.58828,51.81218],[-121.58809,51.81222],[-121.5878,51.81226],[-121.58751,51.8123],[-121.58723,51.81236],[-121.58691,51.8124],[-121.58662,51.81241],[-121.58627,51.81242],[-121.58598,51.81242],[-121.58565,51.8124],[-121.58532,51.81239],[-121.58497,51.81237],[-121.58462,51.81235],[-121.58433,51.81232],[-121.58401,51.81228],[-121.58371,51.81221],[-121.58361,51.81219],[-121.58345,51.81212],[-121.58328,51.812],[-121.58304,51.81186],[-121.58278,51.81176],[-121.58248,51.81167],[-121.58228,51.81168],[-121.58197,51.81168],[-121.58167,51.81168],[-121.58136,51.81164],[-121.58103,51.81158],[-121.58079,51.8115],[-121.58052,51.81139],[-121.58026,51.81126],[-121.58003,51.8111],[-121.5798,51.81094],[-121.57948,51.81072],[-121.57915,51.81051],[-121.57894,51.81036],[-121.57876,51.81019],[-121.57862,51.81],[-121.57855,51.80982],[-121.57855,51.80963],[-121.57854,51.8096],[-121.57858,51.80944],[-121.57857,51.80924],[-121.57857,51.80903],[-121.57858,51.80881],[-121.5786,51.80861],[-121.57861,51.80838],[-121.5786,51.8082],[-121.57861,51.80802],[-121.57858,51.80792],[-121.57848,51.80787],[-121.57825,51.80781],[-121.57806,51.80777],[-121.57786,51.80774],[-121.57754,51.80767],[-121.57721,51.80759],[-121.57689,51.80755],[-121.57659,51.80755],[-121.57627,51.80756],[-121.57598,51.80756],[-121.57569,51.80757],[-121.5754,51.80756],[-121.57511,51.80753],[-121.57476,51.80751],[-121.57441,51.80753],[-121.57411,51.80759],[-121.57383,51.80768],[-121.57355,51.80777],[-121.57326,51.80786],[-121.57296,51.80797],[-121.57271,51.80808],[-121.57245,51.80824],[-121.57223,51.80839],[-121.57196,51.80853],[-121.57168,51.80866],[-121.57144,51.80878],[-121.57121,51.8089],[-121.57095,51.80898],[-121.57082,51.80897],[-121.57051,51.80898],[-121.57019,51.80898],[-121.56981,51.80898],[-121.56952,51.80898],[-121.56916,51.80898],[-121.56886,51.80899],[-121.56854,51.80899],[-121.56822,51.80899],[-121.56788,51.80897],[-121.56755,51.80898],[-121.56719,51.809],[-121.56688,51.80903],[-121.56656,51.80907],[-121.56621,51.8091],[-121.56586,51.80916],[-121.56551,51.80921],[-121.56516,51.80923],[-121.56481,51.80926],[-121.56451,51.8093],[-121.56417,51.80936],[-121.56403,51.80937],[-121.56403,51.80939],[-121.56385,51.80955],[-121.56374,51.80971],[-121.56365,51.80991],[-121.56354,51.81008],[-121.56345,51.81026],[-121.56331,51.81046],[-121.56319,51.81067],[-121.56307,51.81086],[-121.56287,51.81105],[-121.5628,51.81116],[-121.56268,51.81112],[-121.56252,51.81109],[-121.56236,51.81106],[-121.56216,51.81101],[-121.56203,51.81095],[-121.56201,51.81093],[-121.56198,51.81089],[-121.56192,51.81079],[-121.56184,51.81067],[-121.5618,51.81056],[-121.56176,51.81046],[-121.56169,51.81035],[-121.56162,51.81026],[-121.56158,51.81022],[-121.56145,51.81013],[-121.56137,51.81005],[-121.56127,51.80998],[-121.56121,51.80995],[-121.56104,51.80989],[-121.56085,51.80982],[-121.56066,51.80976],[-121.56049,51.80969],[-121.56045,51.80967],[-121.56034,51.80963],[-121.56016,51.80955],[-121.56003,51.80951],[-121.55995,51.80949],[-121.5598,51.80945],[-121.55975,51.80941],[-121.55973,51.80936],[-121.55952,51.80914],[-121.55946,51.80901],[-121.55943,51.80881],[-121.55947,51.8087],[-121.55948,51.80863],[-121.55949,51.80843],[-121.55948,51.8084],[-121.55932,51.80829],[-121.55899,51.80816],[-121.55887,51.80814],[-121.55866,51.80811],[-121.55839,51.80797],[-121.55816,51.80784],[-121.55807,51.80781],[-121.55776,51.80773],[-121.55758,51.80768],[-121.55745,51.80764],[-121.55712,51.80752],[-121.55686,51.80731],[-121.55674,51.80723],[-121.5566,51.80713],[-121.55639,51.80694],[-121.55632,51.8069],[-121.55608,51.8067],[-121.55586,51.80657],[-121.55569,51.80647],[-121.55546,51.80635],[-121.55519,51.80617],[-121.55518,51.80615],[-121.55494,51.806],[-121.55471,51.80589],[-121.55458,51.80584],[-121.55444,51.80589],[-121.55428,51.8059],[-121.55411,51.80593],[-121.55378,51.80597],[-121.55368,51.80599],[-121.55355,51.80601],[-121.55322,51.80609],[-121.55293,51.80617],[-121.5527,51.80627],[-121.5524,51.80638],[-121.55207,51.80642],[-121.552,51.80643],[-121.55169,51.80651],[-121.55137,51.80652],[-121.55127,51.80653],[-121.55116,51.80657],[-121.55115,51.80658],[-121.5511,51.80665],[-121.5511,51.80685],[-121.55109,51.80703],[-121.55106,51.80724],[-121.55095,51.80739],[-121.55092,51.80743],[-121.55078,51.80761],[-121.55076,51.80782],[-121.55075,51.80804],[-121.55079,51.80825],[-121.55086,51.80844],[-121.55094,51.80863],[-121.551,51.80883],[-121.55103,51.80895],[-121.55106,51.80902],[-121.55109,51.8092],[-121.55113,51.80938],[-121.55117,51.80961],[-121.55116,51.80981],[-121.55103,51.80999],[-121.551,51.81001],[-121.55098,51.81002],[-121.55086,51.81007],[-121.55059,51.81012],[-121.5503,51.81013],[-121.54996,51.8101],[-121.54989,51.81009],[-121.54976,51.81005],[-121.54962,51.81],[-121.54946,51.80995],[-121.5493,51.80991],[-121.54904,51.80982],[-121.54879,51.80973],[-121.54853,51.80964],[-121.54824,51.80956],[-121.54797,51.80948],[-121.54769,51.8094],[-121.54735,51.80931],[-121.54702,51.80923],[-121.54667,51.80918],[-121.54631,51.80922],[-121.54599,51.80926],[-121.54561,51.8093],[-121.54532,51.80934],[-121.54495,51.80937],[-121.54463,51.8094],[-121.54447,51.80942],[-121.54441,51.80944],[-121.54438,51.8095],[-121.54429,51.80956],[-121.54425,51.80964]]}},
{"type":"Feature","properties":{"spotId":"A-deer-atv-0162","kind":"walk","km":0.17,"climbM":1,"name":"2.2 km SW of Lac la Hache","flags":[]},"geometry":{"type":"LineString","coordinates":[[-121.59919,51.81243],[-121.59975,51.81098]]}},
{"type":"Feature","properties":{"spotId":"A-deer-drive-0064","kind":"walk","km":0.11,"climbM":12,"name":"860 m E of Forbes Creek","flags":[]},"geometry":{"type":"LineString","coordinates":[[-121.58746,51.897],[-121.58609,51.89746]]}},
{"type":"Feature","properties":{"spotId":"A-deer-drive-0073","kind":"walk","km":0.27,"climbM":18,"name":"740 m NE of Forbes Creek","flags":[]},"geometry":{"type":"LineString","coordinates":[[-121.58232,51.87821],[-121.57836,51.87848]]}},
{"type":"Feature","properties":{"spotId":"A-deer-walk-0168","kind":"walk","km":0.73,"climbM":20,"name":"1.0 km W of Thirsty Lake","flags":[]},"geometry":{"type":"LineString","coordinates":[[-121.57924,51.88289],[-121.57022,51.87947]]}},
{"type":"Feature","properties":{"spotId":"A-deer-walk-0215","kind":"walk","km":0.58,"climbM":84,"name":"610 m S of Marling Lake","flags":["Route crosses private land (ParcelMap BC, updated 2026-09-25): get permission first or go around."]},"geometry":{"type":"LineString","coordinates":[[-121.57731,51.8512],[-121.57337,51.85581]]}},
{"type":"Feature","properties":{"spotId":"A-duck-drive-0024","kind":"walk","km":0.02,"climbM":0,"name":"Unnamed wetland by Dixon Lake","flags":[]},"geometry":{"type":"LineString","coordinates":[[-121.50644,51.79141],[-121.50661,51.79127]]}},
{"type":"Feature","properties":{"spotId":"A-duck-drive-0034","kind":"walk","km":0.04,"climbM":0,"name":"Unnamed wetland by Forbes Creek","flags":[]},"geometry":{"type":"LineString","coordinates":[[-121.58802,51.8726],[-121.58836,51.87284]]}},
{"type":"Feature","properties":{"spotId":"A-duck-walk-0019","kind":"walk","km":0.44,"climbM":22,"name":"Unnamed wetland by Forbes Creek","flags":[]},"geometry":{"type":"LineString","coordinates":[[-121.59848,51.89773],[-121.59587,51.89805],[-121.59572,51.89819],[-121.59524,51.89857],[-121.595,51.89878],[-121.59474,51.89895],[-121.59432,51.8991],[-121.59391,51.89921],[-121.59368,51.89924],[-121.59342,51.89923],[-121.59319,51.8992],[-121.59294,51.89915]]}},
{"type":"Feature","properties":{"spotId":"A-duck-walk-0031","kind":"walk","km":0.3,"climbM":2,"name":"Unnamed wetland by Dixon Lake","flags":[]},"geometry":{"type":"LineString","coordinates":[[-121.51935,51.79533],[-121.52137,51.7929]]}},
{"type":"Feature","properties":{"spotId":"A-duck-walk-0032","kind":"walk","km":0.35,"climbM":1,"name":"Unnamed lake 160 m SW of Forbes Creek","flags":[]},"geometry":{"type":"LineString","coordinates":[[-121.58815,51.87253],[-121.59165,51.87482]]}},
{"type":"Feature","properties":{"spotId":"A-grouse-atv-0044","kind":"walk","km":4.14,"climbM":146,"name":"1.1 km E of Cambaceres Lake","flags":[]},"geometry":{"type":"LineString","coordinates":[[-121.54473,51.80979],[-121.57362,51.77723]]}},
{"type":"Feature","properties":{"spotId":"A-grouse-atv-0044","kind":"ride","km":3.79,"climbM":15,"name":"1.1 km E of Cambaceres Lake","flags":[]},"geometry":{"type":"LineString","coordinates":[[-121.57362,51.77723],[-121.57377,51.7773],[-121.57395,51.77733],[-121.57429,51.77743],[-121.57464,51.77753],[-121.57498,51.77763],[-121.57508,51.77765],[-121.57528,51.7777],[-121.57553,51.77778],[-121.5758,51.77786],[-121.576,51.77792],[-121.57613,51.77796],[-121.57646,51.77804],[-121.57681,51.77809],[-121.57709,51.77814],[-121.57737,51.77821],[-121.57769,51.77828],[-121.57773,51.7783],[-121.57804,51.77837],[-121.57832,51.77845],[-121.57862,51.77859],[-121.5789,51.77881],[-121.5791,51.77893],[-121.57934,51.77904],[-121.57967,51.77915],[-121.57984,51.7792],[-121.58012,51.77931],[-121.58042,51.77937],[-121.58052,51.77939],[-121.58082,51.77943],[-121.58111,51.77949],[-121.58136,51.77956],[-121.58159,51.77964],[-121.5819,51.7797],[-121.58222,51.7797],[-121.58234,51.77972],[-121.58265,51.77979],[-121.5828,51.77981],[-121.58296,51.77981],[-121.5831,51.77983],[-121.58337,51.77993],[-121.58347,51.77999],[-121.5838,51.78013],[-121.58413,51.78023],[-121.58443,51.78032],[-121.58475,51.78037],[-121.58508,51.78043],[-121.5854,51.78048],[-121.58573,51.78054],[-121.58583,51.78055],[-121.58614,51.78056],[-121.58645,51.7806],[-121.58676,51.78073],[-121.58705,51.78091],[-121.58731,51.78106],[-121.58747,51.78116],[-121.58774,51.78133],[-121.58785,51.7814],[-121.58792,51.78144],[-121.58808,51.78151],[-121.58819,51.78153],[-121.58834,51.78154],[-121.5884,51.78154],[-121.58846,51.78152],[-121.58851,51.78151],[-121.58862,51.78146],[-121.58887,51.78128],[-121.58908,51.78113],[-121.58933,51.78095],[-121.58948,51.78077],[-121.58969,51.78061],[-121.59,51.7804],[-121.59018,51.78024],[-121.59036,51.78009],[-121.5905,51.78001],[-121.59077,51.77994],[-121.59103,51.77987],[-121.59129,51.77986],[-121.59157,51.77986],[-121.59175,51.77987],[-121.59206,51.7799],[-121.59224,51.77997],[-121.59231,51.78005],[-121.5924,51.78019],[-121.59251,51.78041],[-121.59253,51.78051],[-121.59254,51.78069],[-121.59253,51.78089],[-121.59264,51.78111],[-121.59265,51.78131],[-121.5927,51.7815],[-121.59284,51.78166],[-121.59306,51.78183],[-121.5933,51.782],[-121.59341,51.78209],[-121.5935,51.78215],[-121.59371,51.78231],[-121.59375,51.78235],[-121.59391,51.78247],[-121.59407,51.78265],[-121.59416,51.78284],[-121.59415,51.78305],[-121.59418,51.78311],[-121.59442,51.78325],[-121.59455,51.7833],[-121.59482,51.78341],[-121.59509,51.78351],[-121.59539,51.78359],[-121.5957,51.78365],[-121.5958,51.78371],[-121.59601,51.7839],[-121.59618,51.78405],[-121.59635,51.78421],[-121.59669,51.7844],[-121.59697,51.78454],[-121.59716,51.78469],[-121.59722,51.78486],[-121.59731,51.78505],[-121.59738,51.78511],[-121.5977,51.78533],[-121.59793,51.78544],[-121.59817,51.78556],[-121.5985,51.78567],[-121.59881,51.78576],[-121.59914,51.78586],[-121.59941,51.78594],[-121.59968,51.78601],[-121.6,51.78608],[-121.60029,51.78612],[-121.60035,51.78612],[-121.60029,51.78598],[-121.6003,51.78587],[-121.60029,51.78568],[-121.6003,51.78565],[-121.60043,51.78544],[-121.60055,51.78525],[-121.6007,51.78506],[-121.60083,51.78486],[-121.601,51.78465],[-121.6013,51.78445],[-121.60156,51.78433],[-121.60184,51.78427],[-121.60213,51.78422],[-121.60245,51.78417],[-121.6026,51.78412],[-121.60285,51.78401],[-121.60288,51.78398],[-121.6032,51.7838],[-121.60345,51.7836],[-121.60356,51.78353],[-121.60362,51.78344],[-121.60381,51.78335],[-121.60406,51.7832],[-121.6043,51.78307],[-121.60456,51.78296],[-121.60481,51.78283],[-121.60497,51.78276],[-121.60521,51.78265],[-121.60542,51.78251],[-121.60564,51.78236],[-121.60586,51.78224],[-121.60615,51.78211],[-121.6065,51.78201],[-121.60681,51.78194],[-121.6071,51.78184],[-121.60734,51.78171],[-121.60744,51.78163],[-121.60757,51.78145],[-121.60766,51.78127],[-121.60767,51.78123],[-121.60778,51.78114],[-121.60801,51.78099],[-121.60825,51.78086],[-121.60857,51.78072],[-121.6089,51.7806],[-121.60919,51.78051],[-121.60944,51.78036],[-121.6096,51.7802],[-121.60978,51.78004],[-121.60993,51.77985],[-121.60995,51.77981],[-121.61004,51.77963],[-121.61012,51.77945],[-121.61023,51.77924],[-121.61036,51.77905],[-121.6105,51.77887],[-121.61065,51.7787],[-121.61093,51.77855],[-121.61097,51.77855],[-121.61129,51.77855],[-121.61134,51.77855],[-121.61166,51.77856],[-121.61192,51.77847],[-121.61218,51.77838],[-121.61243,51.77821],[-121.61267,51.77804],[-121.61285,51.77795]]}},
{"type":"Feature","properties":{"spotId":"A-grouse-atv-0081","kind":"ride","km":5.57,"climbM":53,"name":"1.0 km SW of Forbes Creek","flags":[]},"geometry":{"type":"LineString","coordinates":[[-121.5726,51.89291],[-121.5726,51.89285],[-121.57261,51.89276],[-121.57254,51.89265],[-121.57237,51.89248],[-121.57218,51.89229],[-121.57202,51.89212],[-121.57177,51.89196],[-121.57143,51.89179],[-121.57108,51.89168],[-121.57085,51.8916],[-121.57081,51.89158],[-121.57054,51.8915],[-121.57026,51.89143],[-121.57022,51.89142],[-121.56998,51.89135],[-121.56986,51.89133],[-121.56963,51.89129],[-121.56928,51.89127],[-121.56896,51.89127],[-121.56861,51.89128],[-121.56825,51.89128],[-121.56791,51.89129],[-121.5676,51.89126],[-121.56726,51.89125],[-121.56717,51.89125],[-121.56697,51.89126],[-121.56662,51.89125],[-121.56632,51.89124],[-121.56611,51.89122],[-121.566,51.89121],[-121.56568,51.89119],[-121.56535,51.89117],[-121.56503,51.89116],[-121.56472,51.89116],[-121.56443,51.89114],[-121.5641,51.8911],[-121.56378,51.89103],[-121.56349,51.89098],[-121.56317,51.89099],[-121.56284,51.89105],[-121.56256,51.89112],[-121.56222,51.8912],[-121.56191,51.89127],[-121.56159,51.89135],[-121.5613,51.89141],[-121.56101,51.89146],[-121.56073,51.89152],[-121.56057,51.89155],[-121.56044,51.89157],[-121.56041,51.89157],[-121.56013,51.8916],[-121.55997,51.89162],[-121.55981,51.89164],[-121.55947,51.89166],[-121.55912,51.89166],[-121.5588,51.89169],[-121.55847,51.89175],[-121.55815,51.89182],[-121.55781,51.89188],[-121.55749,51.89194],[-121.5572,51.892],[-121.55715,51.89202],[-121.55695,51.89208],[-121.55692,51.89209],[-121.55658,51.89211],[-121.55622,51.89211],[-121.55615,51.89211],[-121.55591,51.89212],[-121.55555,51.89212],[-121.5554,51.89212],[-121.55522,51.89213],[-121.55492,51.89213],[-121.55463,51.89214],[-121.55434,51.89213],[-121.55397,51.89208],[-121.55359,51.89204],[-121.55324,51.89203],[-121.55289,51.89206],[-121.55281,51.89205],[-121.55246,51.892],[-121.55217,51.89197],[-121.55179,51.89193],[-121.55175,51.89193],[-121.55141,51.89194],[-121.55106,51.89198],[-121.55074,51.89199],[-121.55067,51.89199],[-121.55039,51.89198],[-121.55012,51.89188],[-121.54999,51.89184],[-121.54973,51.89176],[-121.54945,51.89166],[-121.54934,51.89164],[-121.54914,51.8916],[-121.5488,51.89154],[-121.54849,51.89148],[-121.54838,51.89145],[-121.54818,51.8914],[-121.54789,51.89136],[-121.54755,51.8913],[-121.54721,51.89126],[-121.54689,51.89118],[-121.54663,51.8911],[-121.5463,51.89098],[-121.54597,51.8909],[-121.54562,51.89082],[-121.5453,51.89076],[-121.545,51.8907],[-121.54481,51.89066],[-121.54448,51.89057],[-121.54419,51.89046],[-121.54394,51.89038],[-121.54378,51.89034],[-121.5436,51.8903],[-121.54329,51.89022],[-121.54294,51.89014],[-121.54265,51.89009],[-121.54238,51.88999],[-121.54212,51.88987],[-121.54188,51.88973],[-121.54164,51.88959],[-121.54139,51.88948],[-121.54118,51.88935],[-121.54107,51.88927],[-121.54097,51.8892],[-121.54088,51.88915],[-121.54072,51.88905],[-121.5405,51.88891],[-121.54027,51.88879],[-121.54014,51.88872],[-121.54001,51.88867],[-121.53977,51.88855],[-121.53949,51.88845],[-121.53932,51.8884],[-121.53921,51.88836],[-121.53909,51.88832],[-121.53883,51.88824],[-121.53877,51.88822],[-121.5387,51.8882],[-121.53844,51.88815],[-121.53814,51.88812],[-121.53805,51.8881],[-121.53772,51.88806],[-121.53737,51.88802],[-121.53702,51.88799],[-121.53665,51.88796],[-121.53634,51.88792],[-121.53605,51.88788],[-121.53575,51.88783],[-121.53545,51.88778],[-121.5351,51.88769],[-121.53503,51.88766],[-121.53473,51.8876],[-121.53454,51.88758],[-121.53436,51.88755],[-121.53403,51.88751],[-121.53383,51.88748],[-121.53368,51.88746],[-121.53337,51.8874],[-121.53327,51.88738],[-121.53301,51.88733],[-121.53272,51.88727],[-121.53239,51.88718],[-121.53205,51.88709],[-121.53171,51.88705],[-121.53136,51.887],[-121.53101,51.88694],[-121.53054,51.88685],[-121.53036,51.88682],[-121.53002,51.88677],[-121.52971,51.88671],[-121.52957,51.88669],[-121.52925,51.88666],[-121.52921,51.88666],[-121.52894,51.88663],[-121.52863,51.88658],[-121.52829,51.88654],[-121.52818,51.88653],[-121.52796,51.88651],[-121.52767,51.88649],[-121.52737,51.88649],[-121.52702,51.88649],[-121.52658,51.88652],[-121.52648,51.88653],[-121.52635,51.88652],[-121.52601,51.88652],[-121.52569,51.88648],[-121.52536,51.88647],[-121.52507,51.88646],[-121.52501,51.88645],[-121.52477,51.88643],[-121.52465,51.88642],[-121.52433,51.8864],[-121.52432,51.8864],[-121.52403,51.88641],[-121.52385,51.88641],[-121.52368,51.88641],[-121.52362,51.88641],[-121.5235,51.88642],[-121.52347,51.88643],[-121.52324,51.88647],[-121.52302,51.88652],[-121.5227,51.88658],[-121.52235,51.88661],[-121.52203,51.88664],[-121.52187,51.88664],[-121.52168,51.88666],[-121.52155,51.88667],[-121.52121,51.8867],[-121.52092,51.8867],[-121.52063,51.88671],[-121.52027,51.88674],[-121.51993,51.88677],[-121.51976,51.88681],[-121.51947,51.8868],[-121.51913,51.88681],[-121.51878,51.8868],[-121.51849,51.88676],[-121.51816,51.8867],[-121.51782,51.8866],[-121.5175,51.8865],[-121.51717,51.88644],[-121.51686,51.8864],[-121.51652,51.88634],[-121.5162,51.88629],[-121.51591,51.88626],[-121.51573,51.88624],[-121.51545,51.8862],[-121.51524,51.88616],[-121.51513,51.88614],[-121.51482,51.88609],[-121.51451,51.88606],[-121.51429,51.88604],[-121.51416,51.88603],[-121.51391,51.88602],[-121.51359,51.88598],[-121.51345,51.88596],[-121.51327,51.88594],[-121.51297,51.88589],[-121.51274,51.88588],[-121.51251,51.88586],[-121.5122,51.88583],[-121.51191,51.88579],[-121.51161,51.88577],[-121.51128,51.88572],[-121.51109,51.88564],[-121.51095,51.88553],[-121.51091,51.88546],[-121.51089,51.88525],[-121.51087,51.88513],[-121.51088,51.88504],[-121.51088,51.88492],[-121.51089,51.88472],[-121.51088,51.88451],[-121.51089,51.8843],[-121.5109,51.88421],[-121.51094,51.88401],[-121.51096,51.88382],[-121.51097,51.88365],[-121.51097,51.88363],[-121.51097,51.88349],[-121.51097,51.88344],[-121.51101,51.88323],[-121.51107,51.88303],[-121.51112,51.88288],[-121.51117,51.88281],[-121.51123,51.88269],[-121.51135,51.88249],[-121.51149,51.8823],[-121.51166,51.88212],[-121.5117,51.88208],[-121.51174,51.88188],[-121.5117,51.88177],[-121.5116,51.88166],[-121.5114,51.8815],[-121.51126,51.88142],[-121.51102,51.88131],[-121.51071,51.88129],[-121.51038,51.88129],[-121.51008,51.8814],[-121.50995,51.88147],[-121.50977,51.88162],[-121.50972,51.88169],[-121.50971,51.88179],[-121.50969,51.88195],[-121.50968,51.88216],[-121.50965,51.8822],[-121.50962,51.88226],[-121.50941,51.88242],[-121.50906,51.88254],[-121.50872,51.88266],[-121.5086,51.8827],[-121.50831,51.88278],[-121.50813,51.88284],[-121.50785,51.88293],[-121.50757,51.883],[-121.50727,51.88307],[-121.50694,51.88315],[-121.50665,51.88325],[-121.50637,51.88335],[-121.50606,51.88352],[-121.50585,51.88365],[-121.50557,51.88383],[-121.50535,51.88395],[-121.50517,51.88407]]}},
{"type":"Feature","properties":{"spotId":"A-grouse-drive-0066","kind":"roadside","km":4.27,"climbM":114,"name":"220 m SE of Forbes Creek","flags":["Route crosses private land (ParcelMap BC, updated 2026-09-25): get permission first or go around."]},"geometry":{"type":"LineString","coordinates":[[-121.59029,51.8684],[-121.59022,51.86844],[-121.59009,51.86852],[-121.5898,51.86865],[-121.5895,51.86877],[-121.58927,51.86888],[-121.58903,51.86898],[-121.58878,51.86908],[-121.58857,51.86919],[-121.58854,51.86921],[-121.58832,51.8694],[-121.58823,51.86951],[-121.58817,51.86964],[-121.58809,51.86982],[-121.58807,51.87001],[-121.58805,51.8702],[-121.58806,51.87038],[-121.58805,51.87057],[-121.58806,51.87077],[-121.58805,51.87093],[-121.58805,51.87095],[-121.58802,51.87109],[-121.58802,51.87114],[-121.58803,51.87129],[-121.58803,51.87132],[-121.58808,51.87148],[-121.58812,51.87162],[-121.58813,51.87168],[-121.5882,51.87179],[-121.5883,51.872],[-121.58835,51.87222],[-121.58828,51.87242],[-121.58815,51.87253],[-121.58802,51.8726],[-121.58775,51.87271],[-121.58749,51.87283],[-121.58726,51.87297],[-121.5872,51.87303],[-121.58705,51.8732],[-121.58689,51.87336],[-121.58681,51.87345],[-121.58665,51.87368],[-121.58657,51.8738],[-121.5864,51.874],[-121.58625,51.87416],[-121.58603,51.87436],[-121.58579,51.8745],[-121.58553,51.87466],[-121.58526,51.87482],[-121.58505,51.87497],[-121.58484,51.87514],[-121.58475,51.87522],[-121.58447,51.87549],[-121.58422,51.87565],[-121.58398,51.87582],[-121.58377,51.87598],[-121.58358,51.87616],[-121.5834,51.87636],[-121.58317,51.87654],[-121.58296,51.87671],[-121.58275,51.87689],[-121.58263,51.87706],[-121.58253,51.87723],[-121.58243,51.87743],[-121.58237,51.87755],[-121.58231,51.87773],[-121.5823,51.87793],[-121.58231,51.87814],[-121.58235,51.87835],[-121.58238,51.87854],[-121.58252,51.8787],[-121.58255,51.87877],[-121.58252,51.87892],[-121.58252,51.87896],[-121.58245,51.87917],[-121.58242,51.87928],[-121.5824,51.87936],[-121.58234,51.87956],[-121.58232,51.87961],[-121.58229,51.87976],[-121.58224,51.87996],[-121.58216,51.88014],[-121.58202,51.88032],[-121.58193,51.88045],[-121.5819,51.8805],[-121.58182,51.88063],[-121.58173,51.88081],[-121.58159,51.88099],[-121.58147,51.88116],[-121.58132,51.88135],[-121.58117,51.88147],[-121.58102,51.88155],[-121.58085,51.88161],[-121.58054,51.88174],[-121.58027,51.88193],[-121.58008,51.88209],[-121.5799,51.88224],[-121.57972,51.88239],[-121.57957,51.88256],[-121.57939,51.88275],[-121.57919,51.88294],[-121.57909,51.88307],[-121.57892,51.88327],[-121.57883,51.88345],[-121.5788,51.8835],[-121.57877,51.88353],[-121.57859,51.88373],[-121.57853,51.88383],[-121.57848,51.88389],[-121.5784,51.88399],[-121.57833,51.88416],[-121.57825,51.88433],[-121.57821,51.88451],[-121.57821,51.88472],[-121.57817,51.88491],[-121.5782,51.8851],[-121.57822,51.88529],[-121.57817,51.88549],[-121.57813,51.88571],[-121.5781,51.8859],[-121.57805,51.88608],[-121.57797,51.88626],[-121.57788,51.88646],[-121.57777,51.88668],[-121.57763,51.88689],[-121.57751,51.8871],[-121.57737,51.88732],[-121.57728,51.88751],[-121.57719,51.88763],[-121.57715,51.8878],[-121.5771,51.88791],[-121.57703,51.88802],[-121.57697,51.88811],[-121.57691,51.8882],[-121.57684,51.88829],[-121.57677,51.8884],[-121.57672,51.88849],[-121.57665,51.88859],[-121.57658,51.88869],[-121.57654,51.8888],[-121.57648,51.8889],[-121.57643,51.889],[-121.57641,51.88904],[-121.57637,51.88912],[-121.57632,51.88921],[-121.57626,51.88929],[-121.57624,51.88939],[-121.57623,51.88948],[-121.57621,51.88958],[-121.5762,51.88969],[-121.57616,51.88978],[-121.57614,51.88987],[-121.57606,51.89005],[-121.57601,51.89018],[-121.57592,51.89038],[-121.57586,51.89049],[-121.57574,51.89066],[-121.57566,51.89073],[-121.57553,51.89093],[-121.57545,51.89104],[-121.57539,51.89111],[-121.5752,51.89128],[-121.57509,51.89138],[-121.57488,51.89156],[-121.57466,51.89176],[-121.57442,51.89191],[-121.57417,51.89205],[-121.57393,51.89216],[-121.57371,51.89228],[-121.57344,51.89241],[-121.57341,51.89243],[-121.57321,51.89255],[-121.57293,51.89269],[-121.57279,51.89277],[-121.5726,51.89291],[-121.57238,51.89305],[-121.5722,51.89322],[-121.57214,51.89332],[-121.57196,51.89351],[-121.57175,51.89368],[-121.57157,51.89385],[-121.57137,51.89403],[-121.57118,51.89419],[-121.5711,51.89427],[-121.57092,51.89449],[-121.57079,51.89467],[-121.57066,51.89486],[-121.57057,51.89506],[-121.57051,51.89525],[-121.57044,51.89543],[-121.57041,51.89563],[-121.57031,51.89584],[-121.5702,51.89605],[-121.57005,51.89631],[-121.56999,51.89641],[-121.56985,51.89661],[-121.56978,51.89673],[-121.56967,51.89695],[-121.56962,51.89716],[-121.56952,51.89734],[-121.56939,51.89752],[-121.56933,51.89764],[-121.56925,51.8978],[-121.56907,51.89801],[-121.56887,51.89816],[-121.56869,51.89832],[-121.56854,51.89851],[-121.56851,51.89863],[-121.56848,51.89871],[-121.56837,51.89892],[-121.56828,51.89912],[-121.5682,51.89925],[-121.56812,51.89941],[-121.56807,51.8996],[-121.56805,51.89978],[-121.56806,51.89996],[-121.56806,51.9],[-121.56802,51.90015],[-121.56797,51.90035],[-121.56793,51.90055],[-121.56792,51.90065],[-121.56793,51.90074],[-121.56792,51.90102],[-121.5679,51.90121],[-121.56784,51.9014],[-121.56787,51.90149],[-121.56786,51.90173],[-121.56783,51.90181],[-121.56778,51.90195],[-121.56775,51.902],[-121.56769,51.90214],[-121.56767,51.9022],[-121.56769,51.90236]]}},
{"type":"Feature","properties":{"spotId":"A-moose-atv-0012","kind":"ride","km":2.18,"climbM":44,"name":"1.3 km NW of Thirsty Lake","flags":[]},"geometry":{"type":"LineString","coordinates":[[-121.5678,51.88397],[-121.56758,51.88393],[-121.56715,51.88389],[-121.56671,51.88385],[-121.56606,51.88386],[-121.56533,51.88394],[-121.56486,51.88397],[-121.5644,51.88398],[-121.56383,51.88401],[-121.56291,51.8841],[-121.56258,51.88417],[-121.56219,51.88432],[-121.56203,51.8844],[-121.56196,51.88443],[-121.56163,51.88476],[-121.56125,51.8851],[-121.56071,51.88565],[-121.56065,51.88591],[-121.56064,51.88613],[-121.56071,51.88744],[-121.56072,51.88755],[-121.56072,51.88768],[-121.56072,51.88775],[-121.56072,51.88778],[-121.56073,51.88788],[-121.56072,51.88798],[-121.56072,51.88811],[-121.56073,51.88821],[-121.56073,51.88831],[-121.56072,51.88843],[-121.56075,51.88857],[-121.56075,51.88871],[-121.56076,51.88881],[-121.56077,51.88893],[-121.56076,51.88906],[-121.56076,51.88918],[-121.56077,51.88929],[-121.56075,51.88943],[-121.56076,51.88955],[-121.56077,51.88966],[-121.56079,51.88968],[-121.56083,51.88974],[-121.56093,51.88982],[-121.56101,51.8899],[-121.56113,51.88998],[-121.56111,51.89],[-121.56103,51.89011],[-121.56097,51.89019],[-121.56093,51.89025],[-121.56088,51.89031],[-121.56081,51.8904],[-121.56073,51.89051],[-121.56065,51.89065],[-121.56062,51.89078],[-121.56057,51.89089],[-121.56053,51.89102],[-121.56049,51.89114],[-121.56049,51.89124],[-121.5605,51.89137],[-121.56056,51.89147],[-121.56057,51.89155],[-121.56073,51.89152],[-121.56101,51.89146],[-121.5613,51.89141],[-121.56159,51.89135],[-121.56191,51.89127],[-121.56222,51.8912],[-121.56256,51.89112],[-121.56284,51.89105],[-121.56317,51.89099],[-121.56349,51.89098],[-121.56378,51.89103],[-121.5641,51.8911],[-121.56443,51.89114],[-121.56472,51.89116],[-121.56503,51.89116],[-121.56535,51.89117],[-121.56568,51.89119],[-121.566,51.89121],[-121.56611,51.89122],[-121.56632,51.89124],[-121.56662,51.89125],[-121.56697,51.89126],[-121.56717,51.89125],[-121.56726,51.89125],[-121.5676,51.89126],[-121.56791,51.89129],[-121.56825,51.89128],[-121.56861,51.89128],[-121.56896,51.89127],[-121.56928,51.89127],[-121.56963,51.89129],[-121.56986,51.89133],[-121.56998,51.89135],[-121.57022,51.89142],[-121.57026,51.89143],[-121.57054,51.8915],[-121.57081,51.89158],[-121.57085,51.8916],[-121.57108,51.89168],[-121.57143,51.89179],[-121.57177,51.89196],[-121.57202,51.89212],[-121.57218,51.89229],[-121.57237,51.89248],[-121.57254,51.89265],[-121.57261,51.89276],[-121.5726,51.89285],[-121.5726,51.89291]]}},
{"type":"Feature","properties":{"spotId":"A-moose-atv-0012","kind":"walk","km":0.32,"climbM":1,"name":"1.3 km NW of Thirsty Lake","flags":[]},"geometry":{"type":"LineString","coordinates":[[-121.5678,51.88397],[-121.5723,51.88468]]}},
{"type":"Feature","properties":{"spotId":"A-moose-atv-0022","kind":"ride","km":6.39,"climbM":23,"name":"1.1 km E of Cambaceres Lake","flags":[]},"geometry":{"type":"LineString","coordinates":[[-121.569,51.77373],[-121.56904,51.77388],[-121.56909,51.77406],[-121.56912,51.77415],[-121.56921,51.77435],[-121.56931,51.77449],[-121.56935,51.77461],[-121.56945,51.77479],[-121.56953,51.775],[-121.56959,51.77512],[-121.56971,51.77522],[-121.56994,51.77534],[-121.57018,51.77548],[-121.57044,51.77559],[-121.57068,51.77568],[-121.57074,51.77569],[-121.57104,51.7758],[-121.57132,51.77589],[-121.57147,51.77594],[-121.57151,51.77595],[-121.57181,51.77608],[-121.57211,51.77613],[-121.57244,51.77621],[-121.57256,51.77624],[-121.57273,51.77628],[-121.57305,51.77638],[-121.57322,51.77654],[-121.57327,51.77661],[-121.57334,51.77671],[-121.57343,51.77684],[-121.57355,51.777],[-121.57355,51.77703],[-121.57356,51.77706],[-121.5736,51.7772],[-121.57362,51.77723],[-121.5737,51.77741],[-121.57375,51.77761],[-121.57379,51.77783],[-121.57381,51.77793],[-121.57376,51.77815],[-121.5737,51.77821],[-121.57369,51.77823],[-121.57352,51.77838],[-121.57346,51.77857],[-121.57338,51.77875],[-121.57333,51.77882],[-121.57327,51.779],[-121.57325,51.77908],[-121.57312,51.77924],[-121.57303,51.77931],[-121.57289,51.7795],[-121.57276,51.77968],[-121.57269,51.77983],[-121.57262,51.77999],[-121.57257,51.78008],[-121.57255,51.78018],[-121.57255,51.78022],[-121.57253,51.78028],[-121.57252,51.78031],[-121.57251,51.78051],[-121.57251,51.78056],[-121.57252,51.78069],[-121.57251,51.78089],[-121.57251,51.78095],[-121.57242,51.78115],[-121.5723,51.78126],[-121.57218,51.78143],[-121.57212,51.78156],[-121.57214,51.78175],[-121.57234,51.78194],[-121.57249,51.78214],[-121.57257,51.78233],[-121.57258,51.78251],[-121.57269,51.78269],[-121.57284,51.78286],[-121.57294,51.78299],[-121.57295,51.78318],[-121.57296,51.78336],[-121.57307,51.78357],[-121.57325,51.78377],[-121.57341,51.78388],[-121.57369,51.78404],[-121.57357,51.78405],[-121.57324,51.78403],[-121.57291,51.78401],[-121.57262,51.78399],[-121.57232,51.78399],[-121.57201,51.78399],[-121.57166,51.78399],[-121.57134,51.784],[-121.57099,51.78402],[-121.5707,51.78404],[-121.57037,51.78403],[-121.57008,51.78402],[-121.56975,51.78401],[-121.5694,51.784],[-121.5691,51.78401],[-121.56879,51.78402],[-121.56844,51.78404],[-121.56812,51.78403],[-121.56779,51.78404],[-121.56746,51.78405],[-121.56712,51.78408],[-121.5669,51.78414],[-121.56681,51.78422],[-121.56678,51.78427],[-121.56679,51.78445],[-121.56673,51.7846],[-121.5667,51.7847],[-121.56668,51.78483],[-121.56666,51.78489],[-121.56667,51.78509],[-121.56666,51.7853],[-121.56658,51.78549],[-121.56652,51.78561],[-121.56652,51.78571],[-121.56656,51.7858],[-121.56671,51.78599],[-121.56678,51.78613],[-121.56681,51.78623],[-121.56683,51.78638],[-121.56683,51.78643],[-121.56687,51.78663],[-121.56689,51.78683],[-121.56698,51.78704],[-121.56703,51.78709],[-121.56736,51.7872],[-121.5675,51.78724],[-121.56757,51.78725],[-121.56785,51.78732],[-121.56809,51.78743],[-121.56816,51.78747],[-121.56823,51.78753],[-121.56836,51.78772],[-121.56849,51.7879],[-121.56856,51.78802],[-121.56856,51.78822],[-121.56857,51.7884],[-121.56854,51.7886],[-121.56849,51.78881],[-121.56842,51.78899],[-121.56844,51.78918],[-121.56846,51.78939],[-121.56843,51.78958],[-121.56836,51.78976],[-121.56824,51.78994],[-121.56823,51.78996],[-121.568,51.79017],[-121.56788,51.79036],[-121.56777,51.79053],[-121.56771,51.79064],[-121.56758,51.7908],[-121.56756,51.79081],[-121.56747,51.79091],[-121.5674,51.79101],[-121.56735,51.79106],[-121.56725,51.79112],[-121.56691,51.79114],[-121.56683,51.79115],[-121.56658,51.79115],[-121.56625,51.79116],[-121.56591,51.79113],[-121.56575,51.79109],[-121.56547,51.79104],[-121.56545,51.79104],[-121.56544,51.79105],[-121.56541,51.79107],[-121.5652,51.7912],[-121.56502,51.79135],[-121.56481,51.7915],[-121.56472,51.79155],[-121.56458,51.79158],[-121.56426,51.79158],[-121.56394,51.79159],[-121.56365,51.79159],[-121.56332,51.79159],[-121.563,51.7916],[-121.56284,51.79161],[-121.56255,51.79164],[-121.56246,51.79165],[-121.56226,51.79169],[-121.56194,51.79169],[-121.56183,51.79169],[-121.56155,51.79162],[-121.56134,51.79163],[-121.56118,51.79164],[-121.56115,51.79167],[-121.56112,51.79182],[-121.56113,51.79185],[-121.56111,51.79205],[-121.56111,51.79214],[-121.56109,51.79226],[-121.56108,51.79232],[-121.561,51.79243],[-121.56059,51.79241],[-121.55977,51.79231],[-121.55881,51.7923],[-121.55827,51.79221],[-121.55812,51.79218],[-121.55777,51.79218],[-121.55744,51.79216],[-121.55712,51.79213],[-121.55682,51.79206],[-121.55653,51.79198],[-121.55622,51.79186],[-121.5559,51.79175],[-121.55557,51.79165],[-121.55524,51.79158],[-121.55517,51.79158],[-121.55489,51.79157],[-121.55485,51.79157],[-121.55453,51.79161],[-121.55419,51.79169],[-121.55389,51.79177],[-121.55359,51.79186],[-121.55327,51.79196],[-121.55299,51.79205],[-121.55271,51.79214],[-121.55244,51.79225],[-121.55217,51.79239],[-121.55193,51.79253],[-121.55172,51.7927],[-121.55166,51.79278],[-121.5515,51.79293],[-121.55125,51.79308],[-121.55097,51.79321],[-121.55073,51.79336],[-121.55072,51.79338],[-121.55054,51.79352],[-121.55051,51.79356],[-121.5504,51.79364],[-121.55037,51.79367],[-121.55024,51.79375],[-121.55009,51.79383],[-121.54984,51.79395],[-121.54955,51.79406],[-121.54927,51.79413],[-121.54895,51.79415],[-121.54862,51.79414],[-121.54849,51.79412],[-121.54832,51.79408],[-121.54802,51.79397],[-121.54776,51.79389],[-121.54748,51.79381],[-121.54717,51.79376],[-121.54686,51.7937],[-121.54656,51.79367],[-121.54627,51.79367],[-121.54597,51.79367],[-121.54566,51.79366],[-121.54536,51.7935],[-121.54512,51.79335],[-121.54489,51.79319],[-121.54467,51.79301],[-121.54444,51.79282],[-121.54416,51.79267],[-121.54384,51.79255],[-121.54351,51.79244],[-121.54321,51.79235],[-121.54315,51.79234],[-121.54282,51.79226],[-121.54249,51.79217],[-121.54214,51.79213],[-121.54182,51.79213],[-121.54169,51.79213],[-121.5415,51.79215],[-121.54121,51.7922],[-121.54092,51.79227],[-121.54079,51.79229],[-121.54046,51.7923],[-121.54015,51.79224],[-121.53984,51.79218],[-121.53949,51.79213],[-121.53916,51.79214],[-121.53884,51.79215],[-121.53847,51.79215],[-121.53813,51.79215],[-121.53776,51.79211],[-121.53758,51.7921],[-121.53729,51.79209],[-121.537,51.79208],[-121.53665,51.79208],[-121.5363,51.79207],[-121.53598,51.79205],[-121.53569,51.79204],[-121.53538,51.79203],[-121.53526,51.79204],[-121.53504,51.79204],[-121.53471,51.7921],[-121.53455,51.79214],[-121.53438,51.79217],[-121.53409,51.79225],[-121.53376,51.79227],[-121.53353,51.79227],[-121.53345,51.79227],[-121.53316,51.79228],[-121.53288,51.79237],[-121.53265,51.79253],[-121.53247,51.79268],[-121.53233,51.79284],[-121.53224,51.79302],[-121.53218,51.79321],[-121.53213,51.79341],[-121.532,51.7936],[-121.53182,51.79376],[-121.53153,51.7939],[-121.53146,51.79391],[-121.53121,51.79399],[-121.53087,51.79409],[-121.53053,51.7942],[-121.5302,51.79431],[-121.52993,51.79441],[-121.5296,51.7945],[-121.52929,51.79458],[-121.52898,51.79461],[-121.52869,51.79464],[-121.52856,51.79469],[-121.52832,51.79481],[-121.52804,51.79494],[-121.52771,51.79505],[-121.52742,51.79512],[-121.52708,51.79518],[-121.52689,51.79523],[-121.5266,51.7953],[-121.52647,51.79534],[-121.52645,51.79536],[-121.52633,51.7955],[-121.5263,51.79561],[-121.5262,51.79582],[-121.52614,51.79601],[-121.52603,51.79613],[-121.5258,51.79626],[-121.52567,51.79629],[-121.52536,51.79636],[-121.52504,51.79643],[-121.52476,51.79651],[-121.52443,51.79659],[-121.52409,51.79664],[-121.52379,51.79667],[-121.5235,51.79666],[-121.52321,51.79667],[-121.52289,51.79661],[-121.52275,51.7966],[-121.52248,51.79659],[-121.52216,51.79666],[-121.522,51.79668],[-121.52167,51.79669],[-121.52141,51.79666]]}},
{"type":"Feature","properties":{"spotId":"A-moose-atv-0022","kind":"walk","km":0.19,"climbM":0,"name":"1.1 km E of Cambaceres Lake","flags":[]},"geometry":{"type":"LineString","coordinates":[[-121.569,51.77373],[-121.57152,51.77298]]}},
{"type":"Feature","properties":{"spotId":"A-moose-drive-0016","kind":"walk","km":0.21,"climbM":0,"name":"By Forbes Creek","flags":[]},"geometry":{"type":"LineString","coordinates":[[-121.52527,51.89717],[-121.52713,51.89572]]}},
{"type":"Feature","properties":{"spotId":"A-moose-walk-0042","kind":"walk","km":0.37,"climbM":31,"name":"730 m SW of Forbes Creek","flags":[]},"geometry":{"type":"LineString","coordinates":[[-121.58737,51.89691],[-121.58242,51.89825]]}},
{"type":"Feature","properties":{"spotId":"A-moose-walk-0051","kind":"walk","km":3.5,"climbM":34,"name":"1.2 km NE of Brushy Lake","flags":["Route crosses private land (ParcelMap BC, updated 2026-09-25): get permission first or go around."]},"geometry":{"type":"LineString","coordinates":[[-121.59629,51.73242],[-121.57183,51.75996]]}}
]}
