{"type":"FeatureCollection","features":[
{"type":"Feature","properties":{"spotId":"B-camp-camp-0022","kind":"walk","km":0.04,"climbM":0,"name":"By Harrison Lake","flags":[]},"geometry":{"type":"LineString","coordinates":[[-121.82009,49.57704],[-121.82057,49.5768]]}},
{"type":"Feature","properties":{"spotId":"B-camp-camp-0028","kind":"walk","km":0.07,"climbM":0,"name":"By Big Silver Creek","flags":[]},"geometry":{"type":"LineString","coordinates":[[-121.82147,49.61748],[-121.82242,49.61742]]}},
{"type":"Feature","properties":{"spotId":"B-camp-camp-0030","kind":"walk","km":0.09,"climbM":0,"name":"200 m NW of Mystery Creek","flags":[]},"geometry":{"type":"LineString","coordinates":[[-121.94985,49.50859],[-121.94984,49.5078]]}},
{"type":"Feature","properties":{"spotId":"B-camp-camp-0060","kind":"walk","km":0.09,"climbM":0,"name":"By Big Silver Creek","flags":[]},"geometry":{"type":"LineString","coordinates":[[-121.85904,49.69217],[-121.85998,49.69274]]}},
{"type":"Feature","properties":{"spotId":"B-deer-atv-0002","kind":"ride","km":1.91,"climbM":14,"name":"950 m NE of Silver River","flags":[]},"geometry":{"type":"LineString","coordinates":[[-121.81223,49.58479],[-121.81223,49.58481],[-121.81219,49.58494],[-121.81211,49.58506],[-121.81207,49.58516],[-121.812,49.58535],[-121.81197,49.58565],[-121.81197,49.58573],[-121.81196,49.58592],[-121.81199,49.58604],[-121.81202,49.58616],[-121.81207,49.58624],[-121.81221,49.58638],[-121.81236,49.58654],[-121.81246,49.58663],[-121.81252,49.58672],[-121.81258,49.58693],[-121.81262,49.58709],[-121.81271,49.5872],[-121.81284,49.58733],[-121.81315,49.58757],[-121.81331,49.58766],[-121.81368,49.58773],[-121.81388,49.58781],[-121.81418,49.58794],[-121.81439,49.58801],[-121.81463,49.58802],[-121.81468,49.58802],[-121.81481,49.588],[-121.81499,49.58796],[-121.81507,49.58794],[-121.81526,49.58788],[-121.81598,49.58756],[-121.8161,49.58748],[-121.81612,49.58657],[-121.81609,49.58633],[-121.81605,49.58624],[-121.81606,49.58614],[-121.8161,49.58609],[-121.81619,49.58602],[-121.81631,49.5859],[-121.81632,49.58585],[-121.81634,49.58578],[-121.8163,49.5857],[-121.81624,49.58563],[-121.8162,49.58557],[-121.8162,49.5855],[-121.81624,49.58543],[-121.81631,49.58537],[-121.81642,49.5853],[-121.8165,49.58524],[-121.81657,49.58518],[-121.8166,49.58512],[-121.81663,49.58504],[-121.81669,49.58482],[-121.81669,49.58472],[-121.81667,49.58466],[-121.81664,49.5846],[-121.81657,49.58449],[-121.81643,49.58431],[-121.81623,49.58401],[-121.81608,49.58379],[-121.816,49.58366],[-121.8159,49.58357],[-121.81587,49.58348],[-121.81587,49.58298],[-121.81583,49.58276],[-121.81583,49.58269],[-121.81586,49.58263],[-121.81588,49.58255],[-121.8159,49.5825],[-121.81588,49.58244],[-121.81585,49.58238],[-121.81581,49.58229],[-121.8157,49.58214],[-121.81562,49.58206],[-121.8154,49.5819],[-121.81536,49.58181],[-121.81543,49.58162],[-121.81545,49.58156],[-121.81553,49.58142],[-121.81555,49.58136],[-121.81557,49.58129],[-121.81557,49.58123],[-121.81555,49.58118],[-121.81552,49.58112],[-121.81549,49.58104],[-121.81544,49.58097],[-121.8154,49.58087],[-121.81544,49.5806],[-121.81549,49.5805],[-121.81553,49.58041],[-121.81557,49.58035],[-121.81561,49.58029],[-121.81567,49.58024],[-121.81585,49.58016],[-121.81594,49.58011],[-121.81601,49.58007],[-121.81609,49.58001],[-121.81618,49.57996],[-121.81621,49.57994],[-121.81627,49.57989],[-121.81635,49.57982],[-121.81651,49.57965],[-121.81655,49.57958],[-121.81661,49.57949],[-121.81673,49.57936],[-121.81685,49.57925],[-121.81698,49.57917],[-121.81738,49.57891],[-121.81812,49.57858],[-121.8181,49.57848],[-121.81812,49.57825],[-121.81835,49.5779],[-121.81838,49.57785],[-121.81841,49.5778],[-121.81844,49.57766],[-121.81853,49.57762],[-121.81867,49.57752],[-121.8188,49.5774],[-121.81888,49.57726],[-121.81899,49.5771],[-121.81925,49.57682]]}},
{"type":"Feature","properties":{"spotId":"B-deer-atv-0002","kind":"walk","km":0.01,"climbM":0,"name":"950 m NE of Silver River","flags":[]},"geometry":{"type":"LineString","coordinates":[[-121.81223,49.58479],[-121.81239,49.58479]]}},
{"type":"Feature","properties":{"spotId":"B-deer-atv-0012","kind":"ride","km":5.53,"climbM":50,"name":"1.0 km NE of Harrison Lake","flags":[]},"geometry":{"type":"LineString","coordinates":[[-121.7728,49.5473],[-121.77275,49.54719],[-121.77259,49.54713],[-121.77237,49.54711],[-121.77206,49.54713],[-121.77164,49.5472],[-121.77137,49.54728],[-121.77122,49.54731],[-121.77112,49.54732],[-121.77102,49.54729],[-121.77095,49.54725],[-121.77082,49.54713],[-121.77089,49.54704],[-121.77104,49.54694],[-121.77147,49.54669],[-121.77167,49.54658],[-121.77198,49.54641],[-121.77207,49.54629],[-121.77214,49.54618],[-121.77237,49.54604],[-121.7727,49.54589],[-121.77302,49.54565],[-121.77322,49.54555],[-121.77353,49.54547],[-121.77446,49.54521],[-121.77457,49.54515],[-121.77465,49.54508],[-121.77464,49.545],[-121.77454,49.54493],[-121.77406,49.54482],[-121.77352,49.5448],[-121.77283,49.54489],[-121.7723,49.54501],[-121.77175,49.54507],[-121.77146,49.54513],[-121.77112,49.54528],[-121.7709,49.54536],[-121.77039,49.54548],[-121.77025,49.54554],[-121.77009,49.54563],[-121.76994,49.54563],[-121.76986,49.54558],[-121.76982,49.54551],[-121.76985,49.54539],[-121.76996,49.54525],[-121.77038,49.54485],[-121.77062,49.54467],[-121.77079,49.54447],[-121.77098,49.54418],[-121.77106,49.54412],[-121.77122,49.54394],[-121.77147,49.54379],[-121.77175,49.54374],[-121.77212,49.54368],[-121.7723,49.54369],[-121.7727,49.54367],[-121.7733,49.54368],[-121.77397,49.54347],[-121.77417,49.54339],[-121.77436,49.54322],[-121.77441,49.54314],[-121.7744,49.5431],[-121.77438,49.54305],[-121.7743,49.54296],[-121.77409,49.54283],[-121.77381,49.54267],[-121.7735,49.54255],[-121.77315,49.54242],[-121.77248,49.54222],[-121.77211,49.54219],[-121.77189,49.54226],[-121.77152,49.54238],[-121.77114,49.54259],[-121.77111,49.54268],[-121.77097,49.54285],[-121.77068,49.54296],[-121.77055,49.54304],[-121.77028,49.54322],[-121.76996,49.54337],[-121.76984,49.54338],[-121.76973,49.54334],[-121.76968,49.5432],[-121.7697,49.54317],[-121.76985,49.54303],[-121.77007,49.54281],[-121.77034,49.54257],[-121.77037,49.5425],[-121.77032,49.54231],[-121.77036,49.54212],[-121.77049,49.54191],[-121.77057,49.54182],[-121.77076,49.54163],[-121.77097,49.54147],[-121.77124,49.54139],[-121.77136,49.54134],[-121.77142,49.54124],[-121.77141,49.54114],[-121.77134,49.54106],[-121.77119,49.54101],[-121.77095,49.54102],[-121.77079,49.54107],[-121.77061,49.54122],[-121.77033,49.54137],[-121.77023,49.54143],[-121.76979,49.54183],[-121.76973,49.54193],[-121.76967,49.54208],[-121.76943,49.54227],[-121.76912,49.54246],[-121.76894,49.54256],[-121.76869,49.54268],[-121.76844,49.54279],[-121.76825,49.54287],[-121.76805,49.54299],[-121.76767,49.54326],[-121.76736,49.54345],[-121.76707,49.54363],[-121.76667,49.54388],[-121.76634,49.54407],[-121.76613,49.54419],[-121.76592,49.54441],[-121.7656,49.54466],[-121.76532,49.54484],[-121.76491,49.54507],[-121.76477,49.54518],[-121.76443,49.54535],[-121.76377,49.54564],[-121.76367,49.54569],[-121.76358,49.5458],[-121.7634,49.54599],[-121.76325,49.54603],[-121.7631,49.54602],[-121.76298,49.54597],[-121.76295,49.54588],[-121.76298,49.54579],[-121.76323,49.54561],[-121.7635,49.54542],[-121.76377,49.54514],[-121.76401,49.54491],[-121.76421,49.54474],[-121.76454,49.54449],[-121.76463,49.54441],[-121.76476,49.54425],[-121.76499,49.54392],[-121.76514,49.54371],[-121.76522,49.54362],[-121.76539,49.54346],[-121.76553,49.54334],[-121.7657,49.54321],[-121.76581,49.54309],[-121.76601,49.54284],[-121.76613,49.54268],[-121.76627,49.54245],[-121.76638,49.5422],[-121.76643,49.54188],[-121.76639,49.54159],[-121.76633,49.54142],[-121.76623,49.54124],[-121.76617,49.54101],[-121.76605,49.54072],[-121.76594,49.54052],[-121.7659,49.54037],[-121.76576,49.54028],[-121.76553,49.54026],[-121.76536,49.54033],[-121.76526,49.54046],[-121.76505,49.54078],[-121.76503,49.54122],[-121.76498,49.54135],[-121.76484,49.54154],[-121.76467,49.54177],[-121.76454,49.54201],[-121.76443,49.54215],[-121.76404,49.54234],[-121.7637,49.54255],[-121.76349,49.54271],[-121.76331,49.54285],[-121.76303,49.54301],[-121.76295,49.54305],[-121.76242,49.54337],[-121.76221,49.54353],[-121.76211,49.54361],[-121.76194,49.54368],[-121.76181,49.54377],[-121.76152,49.54386],[-121.76125,49.54395],[-121.76097,49.54403],[-121.76069,49.54417],[-121.76049,49.54425],[-121.76025,49.54436],[-121.75997,49.54448],[-121.75965,49.54467],[-121.75946,49.54475],[-121.75939,49.54482],[-121.7593,49.54494],[-121.75922,49.54499],[-121.75914,49.54501],[-121.75911,49.54501],[-121.759,49.54503],[-121.75888,49.54504],[-121.75865,49.54508],[-121.75853,49.54515],[-121.75829,49.54529],[-121.75808,49.54543],[-121.75769,49.54564],[-121.75756,49.5457],[-121.75737,49.54582],[-121.75708,49.54596],[-121.75671,49.54605],[-121.75655,49.5461],[-121.75649,49.54613],[-121.7564,49.54617],[-121.75625,49.54622],[-121.75608,49.54632],[-121.75574,49.5465],[-121.75559,49.54654],[-121.75545,49.54658],[-121.75486,49.54666],[-121.75473,49.54672],[-121.75463,49.54677],[-121.75452,49.54679],[-121.7543,49.54682],[-121.75409,49.54684],[-121.75381,49.54689],[-121.75351,49.54697],[-121.75315,49.54705],[-121.75281,49.54708],[-121.75267,49.54708],[-121.75243,49.54708],[-121.75236,49.54704],[-121.75231,49.54698],[-121.75228,49.54694],[-121.75229,49.54686],[-121.7525,49.54665],[-121.7527,49.54653],[-121.75307,49.54635],[-121.75319,49.54628],[-121.75321,49.54603],[-121.75332,49.54597],[-121.75343,49.54589],[-121.75349,49.54585],[-121.75349,49.54574],[-121.75353,49.54565],[-121.75365,49.54557],[-121.75376,49.54549],[-121.75404,49.54532],[-121.75422,49.54522],[-121.75456,49.545],[-121.75466,49.54496],[-121.75489,49.54486],[-121.75501,49.54477],[-121.7552,49.54466],[-121.75551,49.54446],[-121.75574,49.54429],[-121.75584,49.54419],[-121.75598,49.54411],[-121.75618,49.54397],[-121.75631,49.54393],[-121.7565,49.5438],[-121.75659,49.54378],[-121.7569,49.54366]]}},
{"type":"Feature","properties":{"spotId":"B-deer-atv-0012","kind":"walk","km":0.15,"climbM":24,"name":"1.0 km NE of Harrison Lake","flags":[]},"geometry":{"type":"LineString","coordinates":[[-121.7728,49.5473],[-121.7746,49.54795]]}},
{"type":"Feature","properties":{"spotId":"B-deer-atv-0015","kind":"ride","km":4.05,"climbM":152,"name":"260 m W of Big Silver Creek","flags":[]},"geometry":{"type":"LineString","coordinates":[[-121.82959,49.60974],[-121.82944,49.60958],[-121.8289,49.60967],[-121.82861,49.6095],[-121.82864,49.6092],[-121.82871,49.60881],[-121.82892,49.60858],[-121.82908,49.60829],[-121.82947,49.60802],[-121.8296,49.60775],[-121.82969,49.60741],[-121.82968,49.60728],[-121.82964,49.60724],[-121.82927,49.60697],[-121.82921,49.60653],[-121.82892,49.60614],[-121.82892,49.60568],[-121.82841,49.60521],[-121.82782,49.60451],[-121.82799,49.60404],[-121.82778,49.60373],[-121.82772,49.60363],[-121.82796,49.60324],[-121.8282,49.60302],[-121.82835,49.6027],[-121.82842,49.6022],[-121.82811,49.6016],[-121.82796,49.601],[-121.82771,49.60036],[-121.82763,49.59987],[-121.82775,49.5998],[-121.82791,49.59975],[-121.82838,49.59973],[-121.82906,49.59982],[-121.8297,49.59995],[-121.83067,49.59999],[-121.831,49.60021],[-121.8313,49.6005],[-121.83173,49.60085],[-121.83226,49.60086],[-121.8328,49.60076],[-121.83309,49.60035],[-121.83323,49.60036],[-121.83353,49.60038],[-121.83381,49.60032],[-121.83406,49.60018],[-121.83436,49.59977],[-121.83469,49.59948],[-121.83511,49.59939],[-121.83561,49.59938],[-121.8358,49.59928],[-121.83587,49.59913],[-121.83594,49.59878],[-121.83612,49.59828],[-121.83615,49.59802],[-121.83617,49.59773],[-121.8362,49.59764],[-121.83626,49.59714],[-121.83642,49.59678],[-121.83695,49.59637],[-121.83712,49.59621],[-121.83759,49.59588],[-121.83815,49.59561],[-121.83836,49.5955],[-121.83842,49.5954],[-121.83838,49.59498],[-121.83827,49.59469],[-121.83817,49.59443],[-121.83791,49.59403],[-121.83766,49.59376],[-121.83761,49.5936],[-121.83761,49.59345],[-121.83746,49.59311],[-121.8375,49.59292],[-121.83753,49.59266],[-121.83751,49.59235],[-121.83757,49.5921],[-121.83764,49.59197],[-121.83776,49.59184],[-121.83802,49.59175],[-121.83839,49.59167],[-121.83905,49.59156],[-121.83922,49.59149],[-121.83945,49.59131],[-121.8397,49.59091],[-121.83988,49.5905],[-121.84011,49.59021],[-121.84029,49.58997],[-121.84033,49.58988],[-121.84048,49.58958],[-121.84053,49.58931],[-121.84052,49.58913],[-121.84051,49.58903],[-121.84052,49.58881],[-121.8405,49.58868],[-121.84049,49.58854],[-121.84051,49.58845],[-121.84052,49.58837],[-121.84053,49.58817],[-121.84059,49.58807],[-121.84064,49.58797],[-121.84065,49.58782],[-121.84063,49.58771],[-121.84064,49.58764],[-121.84064,49.58757],[-121.84066,49.58748],[-121.84069,49.58739],[-121.84072,49.58723],[-121.84078,49.58719],[-121.8409,49.58712],[-121.84099,49.58707],[-121.8411,49.58701],[-121.84117,49.58693],[-121.84122,49.58686],[-121.84129,49.58674],[-121.84129,49.58657],[-121.84124,49.58646],[-121.84119,49.58635],[-121.84115,49.58626],[-121.84116,49.58619],[-121.8412,49.5861],[-121.84125,49.58602],[-121.84127,49.58595],[-121.84124,49.58584],[-121.84114,49.58574],[-121.84106,49.58565],[-121.841,49.58556],[-121.84097,49.58548],[-121.84093,49.58539],[-121.84088,49.58529],[-121.84087,49.58522],[-121.84091,49.58508],[-121.84093,49.58503],[-121.84094,49.58498],[-121.84098,49.58492],[-121.84106,49.58485],[-121.84104,49.58477],[-121.84101,49.58471],[-121.84089,49.58457],[-121.84078,49.58447],[-121.84071,49.58431],[-121.84071,49.5842],[-121.84085,49.5841],[-121.84114,49.58404],[-121.84152,49.58399],[-121.84181,49.58393],[-121.84213,49.58389],[-121.84256,49.58379],[-121.84301,49.58368],[-121.84311,49.58365]]}},
{"type":"Feature","properties":{"spotId":"B-deer-atv-0015","kind":"walk","km":0.04,"climbM":7,"name":"260 m W of Big Silver Creek","flags":[]},"geometry":{"type":"LineString","coordinates":[[-121.84311,49.58365],[-121.84337,49.584]]}},
{"type":"Feature","properties":{"spotId":"B-deer-drive-0001","kind":"walk","km":0.06,"climbM":0,"name":"By Harrison Lake","flags":[]},"geometry":{"type":"LineString","coordinates":[[-121.80903,49.57216],[-121.80977,49.57188]]}},
{"type":"Feature","properties":{"spotId":"B-deer-drive-0025","kind":"walk","km":0.13,"climbM":80,"name":"330 m NE of Harrison Lake","flags":[]},"geometry":{"type":"LineString","coordinates":[[-121.78423,49.54372],[-121.7833,49.54471]]}},
{"type":"Feature","properties":{"spotId":"B-deer-walk-0007","kind":"walk","km":0.97,"climbM":550,"name":"1.1 km NE of Harrison Lake","flags":[]},"geometry":{"type":"LineString","coordinates":[[-121.80894,49.57205],[-121.79691,49.57581]]}},
{"type":"Feature","properties":{"spotId":"B-deer-walk-0014","kind":"walk","km":0.4,"climbM":75,"name":"860 m E of Harrison Lake","flags":[]},"geometry":{"type":"LineString","coordinates":[[-121.75865,49.50776],[-121.75523,49.51059]]}},
{"type":"Feature","properties":{"spotId":"B-duck-drive-0060","kind":"walk","km":0.08,"climbM":0,"name":"Unnamed lake 1.0 km SW of Harrison Lake","flags":[]},"geometry":{"type":"LineString","coordinates":[[-121.91248,49.56282],[-121.91349,49.56262]]}},
{"type":"Feature","properties":{"spotId":"B-grouse-atv-0007","kind":"walk","km":3.61,"climbM":360,"name":"By Clear Creek","flags":[]},"geometry":{"type":"LineString","coordinates":[[-121.80236,49.66565],[-121.75814,49.68072]]}},
{"type":"Feature","properties":{"spotId":"B-grouse-atv-0007","kind":"ride","km":4.04,"climbM":256,"name":"By Clear Creek","flags":[]},"geometry":{"type":"LineString","coordinates":[[-121.75814,49.68072],[-121.75812,49.68072],[-121.75785,49.68075],[-121.75756,49.68088],[-121.75724,49.68106],[-121.75701,49.68117],[-121.75676,49.68124],[-121.75645,49.68136],[-121.75622,49.68141],[-121.75592,49.68141],[-121.75563,49.68137],[-121.75538,49.68133],[-121.75515,49.6813],[-121.7548,49.68129],[-121.75458,49.68129],[-121.75415,49.68129],[-121.75379,49.68132],[-121.75351,49.68131],[-121.75329,49.68129],[-121.7531,49.68126],[-121.75286,49.68133],[-121.75251,49.68136],[-121.75219,49.68143],[-121.75186,49.68148],[-121.75159,49.68154],[-121.75128,49.68153],[-121.75098,49.6816],[-121.75062,49.6816],[-121.75044,49.68163],[-121.75024,49.68166],[-121.74988,49.68168],[-121.74954,49.68168],[-121.74932,49.68171],[-121.74909,49.6818],[-121.74886,49.68185],[-121.74864,49.68189],[-121.74845,49.68193],[-121.74821,49.682],[-121.74784,49.68212],[-121.7476,49.68216],[-121.74733,49.68229],[-121.74694,49.68248],[-121.74659,49.68263],[-121.74624,49.6828],[-121.74606,49.68294],[-121.74593,49.68302],[-121.74577,49.68311],[-121.74573,49.68316],[-121.74544,49.68333],[-121.74518,49.68349],[-121.74494,49.68366],[-121.7448,49.68374],[-121.74469,49.68411],[-121.7446,49.68423],[-121.7442,49.68449],[-121.74384,49.6848],[-121.74364,49.68517],[-121.74329,49.68548],[-121.74308,49.68575],[-121.74288,49.686],[-121.74273,49.68617],[-121.74251,49.68647],[-121.74231,49.6866],[-121.74213,49.68668],[-121.7419,49.68691],[-121.74175,49.68714],[-121.74162,49.68735],[-121.74146,49.68757],[-121.7413,49.68781],[-121.74106,49.68803],[-121.74073,49.6882],[-121.74044,49.68835],[-121.7402,49.68857],[-121.74,49.68879],[-121.73997,49.68883],[-121.73976,49.68904],[-121.73954,49.68928],[-121.73931,49.68951],[-121.73916,49.68972],[-121.739,49.68993],[-121.73884,49.69015],[-121.73867,49.69039],[-121.73865,49.69056],[-121.73868,49.69063],[-121.73829,49.6912],[-121.73805,49.69155],[-121.73778,49.69189],[-121.73772,49.69197],[-121.73767,49.69201],[-121.73748,49.69226],[-121.73733,49.69244],[-121.73723,49.69251],[-121.73709,49.6926],[-121.73691,49.69275],[-121.73655,49.69311],[-121.73633,49.69332],[-121.73614,49.6935],[-121.73608,49.69354],[-121.73607,49.69379],[-121.73605,49.69392],[-121.73606,49.69408],[-121.73608,49.69415],[-121.73611,49.69426],[-121.73618,49.69435],[-121.73621,49.69441],[-121.73623,49.69453],[-121.73622,49.69474],[-121.73617,49.6951],[-121.73616,49.69516],[-121.73612,49.69521],[-121.73608,49.69525],[-121.73596,49.69535],[-121.73562,49.69566],[-121.73546,49.69579],[-121.73538,49.69584],[-121.73531,49.69592],[-121.73522,49.69604],[-121.73514,49.69631],[-121.73497,49.69653],[-121.73476,49.69673],[-121.73475,49.69675],[-121.73453,49.69693],[-121.73424,49.69709],[-121.73391,49.69724],[-121.73358,49.6974],[-121.7332,49.69753],[-121.73288,49.69764],[-121.73274,49.69779],[-121.73262,49.69795],[-121.73248,49.69812],[-121.73236,49.6983],[-121.7323,49.69856],[-121.73224,49.69861],[-121.73214,49.69876],[-121.73195,49.69899],[-121.73181,49.69927],[-121.73167,49.69948],[-121.73151,49.69961],[-121.7314,49.69971],[-121.73125,49.69981],[-121.73103,49.69996],[-121.73093,49.70013],[-121.73084,49.70031],[-121.7303,49.70088],[-121.73011,49.70107],[-121.72987,49.70131],[-121.72972,49.70142],[-121.72959,49.70152],[-121.72949,49.70159],[-121.7295,49.7017],[-121.72953,49.70182],[-121.72954,49.70189],[-121.72946,49.70206],[-121.72935,49.7023],[-121.72931,49.70239],[-121.72909,49.70257],[-121.72887,49.70276],[-121.72861,49.70293],[-121.72835,49.70309],[-121.72799,49.70333],[-121.72768,49.70354],[-121.72756,49.70363],[-121.72735,49.70376],[-121.72711,49.70396],[-121.72693,49.7041],[-121.72665,49.7045],[-121.72653,49.7047],[-121.72637,49.70499],[-121.72619,49.70528],[-121.72592,49.70561],[-121.72576,49.70586],[-121.72572,49.7059],[-121.72543,49.70622],[-121.7254,49.7064]]}},
{"type":"Feature","properties":{"spotId":"B-grouse-atv-0010","kind":"walk","km":3.44,"climbM":181,"name":"160 m SW of Harrison Lake","flags":[]},"geometry":{"type":"LineString","coordinates":[[-121.8767,49.50205],[-121.83007,49.50786]]}},
{"type":"Feature","properties":{"spotId":"B-grouse-atv-0010","kind":"ride","km":3.83,"climbM":185,"name":"160 m SW of Harrison Lake","flags":[]},"geometry":{"type":"LineString","coordinates":[[-121.83007,49.50786],[-121.83046,49.50794],[-121.83098,49.50788],[-121.83113,49.5078],[-121.83117,49.50771],[-121.83111,49.50759],[-121.83097,49.50748],[-121.83073,49.50705],[-121.83059,49.50691],[-121.8302,49.50656],[-121.83005,49.50644],[-121.82979,49.50612],[-121.82959,49.50591],[-121.8294,49.50567],[-121.82939,49.50553],[-121.82946,49.50545],[-121.82956,49.5054],[-121.82975,49.50538],[-121.83012,49.50544],[-121.83025,49.50543],[-121.83039,49.50538],[-121.83048,49.50528],[-121.83053,49.50505],[-121.83055,49.50497],[-121.83067,49.50457],[-121.83072,49.50419],[-121.83071,49.50393],[-121.83076,49.50369],[-121.83074,49.50351],[-121.83064,49.50308],[-121.8306,49.50275],[-121.83063,49.50263],[-121.83073,49.50242],[-121.83081,49.50225],[-121.83088,49.50205],[-121.8309,49.50201],[-121.83097,49.50177],[-121.83096,49.50162],[-121.83104,49.50153],[-121.83141,49.50145],[-121.83162,49.50129],[-121.83184,49.50101],[-121.83196,49.50086],[-121.83204,49.50062],[-121.83205,49.50055],[-121.83207,49.50039],[-121.83202,49.50001],[-121.83199,49.49986],[-121.83162,49.49879],[-121.83142,49.49842],[-121.83128,49.4982],[-121.83102,49.49786],[-121.83098,49.4976],[-121.831,49.49735],[-121.83101,49.49714],[-121.83094,49.49694],[-121.83089,49.49678],[-121.83073,49.49662],[-121.8306,49.49652],[-121.83056,49.49644],[-121.83053,49.49634],[-121.83044,49.49622],[-121.83046,49.49608],[-121.83052,49.49597],[-121.8306,49.49593],[-121.8308,49.49592],[-121.83099,49.49594],[-121.83111,49.49596],[-121.83129,49.49604],[-121.83154,49.49614],[-121.83187,49.49624],[-121.83213,49.49625],[-121.8324,49.49625],[-121.83259,49.49622],[-121.83269,49.49614],[-121.83279,49.49609],[-121.83292,49.49595],[-121.83296,49.4958],[-121.83298,49.49565],[-121.83296,49.49537],[-121.83296,49.49523],[-121.83301,49.49516],[-121.83311,49.49515],[-121.83306,49.49474],[-121.8328,49.49414],[-121.83233,49.49372],[-121.83168,49.49333],[-121.83131,49.49281],[-121.83086,49.49213],[-121.8301,49.49119],[-121.82956,49.49052],[-121.82904,49.49018],[-121.82865,49.48986],[-121.82824,49.48926],[-121.82761,49.48857],[-121.82681,49.48794],[-121.82665,49.48781],[-121.82605,49.48735],[-121.82551,49.48694],[-121.8252,49.48661],[-121.82506,49.4865],[-121.82482,49.48629],[-121.82456,49.486],[-121.82417,49.48576],[-121.8239,49.48556],[-121.82367,49.48537],[-121.82362,49.48491],[-121.82363,49.48461],[-121.82365,49.48449],[-121.82368,49.48438],[-121.82383,49.4842],[-121.8239,49.48416],[-121.82414,49.48412],[-121.82433,49.48411],[-121.82447,49.48409],[-121.82456,49.48408],[-121.8246,49.48406],[-121.82464,49.48398],[-121.8246,49.4838],[-121.82432,49.48346],[-121.8237,49.483],[-121.82344,49.48274],[-121.82348,49.4824],[-121.82351,49.48226],[-121.8235,49.48171],[-121.82362,49.48144],[-121.82376,49.48128],[-121.82372,49.48108],[-121.82352,49.48088],[-121.8229,49.48031],[-121.8228,49.48021]]}},
{"type":"Feature","properties":{"spotId":"B-grouse-atv-0029","kind":"ride","km":6.67,"climbM":302,"name":"380 m W of Big Silver Creek","flags":[]},"geometry":{"type":"LineString","coordinates":[[-121.82959,49.60974],[-121.82944,49.60958],[-121.8289,49.60967],[-121.82861,49.6095],[-121.82864,49.6092],[-121.82871,49.60881],[-121.82892,49.60858],[-121.82908,49.60829],[-121.82947,49.60802],[-121.8296,49.60775],[-121.82969,49.60741],[-121.82968,49.60728],[-121.82964,49.60724],[-121.82927,49.60697],[-121.82921,49.60653],[-121.82892,49.60614],[-121.82892,49.60568],[-121.82841,49.60521],[-121.82782,49.60451],[-121.82799,49.60404],[-121.82778,49.60373],[-121.82772,49.60363],[-121.82796,49.60324],[-121.8282,49.60302],[-121.82835,49.6027],[-121.82842,49.6022],[-121.82811,49.6016],[-121.82796,49.601],[-121.82771,49.60036],[-121.82763,49.59987],[-121.82775,49.5998],[-121.82791,49.59975],[-121.82838,49.59973],[-121.82906,49.59982],[-121.8297,49.59995],[-121.83067,49.59999],[-121.831,49.60021],[-121.8313,49.6005],[-121.83173,49.60085],[-121.83226,49.60086],[-121.8328,49.60076],[-121.83309,49.60035],[-121.83323,49.60036],[-121.83353,49.60038],[-121.83381,49.60032],[-121.83406,49.60018],[-121.83436,49.59977],[-121.83469,49.59948],[-121.83511,49.59939],[-121.83561,49.59938],[-121.8358,49.59928],[-121.83587,49.59913],[-121.83594,49.59878],[-121.83612,49.59828],[-121.83615,49.59802],[-121.83617,49.59773],[-121.8362,49.59764],[-121.83626,49.59714],[-121.83642,49.59678],[-121.83695,49.59637],[-121.83712,49.59621],[-121.83759,49.59588],[-121.83815,49.59561],[-121.83836,49.5955],[-121.83842,49.5954],[-121.83838,49.59498],[-121.83827,49.59469],[-121.83817,49.59443],[-121.83791,49.59403],[-121.83766,49.59376],[-121.83761,49.5936],[-121.83761,49.59345],[-121.83746,49.59311],[-121.8375,49.59292],[-121.83753,49.59266],[-121.83751,49.59235],[-121.83757,49.5921],[-121.83764,49.59197],[-121.83776,49.59184],[-121.83802,49.59175],[-121.83839,49.59167],[-121.83905,49.59156],[-121.83922,49.59149],[-121.83945,49.59131],[-121.8397,49.59091],[-121.83988,49.5905],[-121.84011,49.59021],[-121.84029,49.58997],[-121.84033,49.58988],[-121.84048,49.58958],[-121.84053,49.58931],[-121.84052,49.58913],[-121.84051,49.58903],[-121.84052,49.58881],[-121.8405,49.58868],[-121.84049,49.58854],[-121.84051,49.58845],[-121.84052,49.58837],[-121.84053,49.58817],[-121.84059,49.58807],[-121.84064,49.58797],[-121.84065,49.58782],[-121.84063,49.58771],[-121.84064,49.58764],[-121.84064,49.58757],[-121.84066,49.58748],[-121.84069,49.58739],[-121.84072,49.58723],[-121.84078,49.58719],[-121.8409,49.58712],[-121.84099,49.58707],[-121.8411,49.58701],[-121.84117,49.58693],[-121.84122,49.58686],[-121.84129,49.58674],[-121.84129,49.58657],[-121.84124,49.58646],[-121.84119,49.58635],[-121.84115,49.58626],[-121.84116,49.58619],[-121.8412,49.5861],[-121.84125,49.58602],[-121.84127,49.58595],[-121.84124,49.58584],[-121.84114,49.58574],[-121.84106,49.58565],[-121.841,49.58556],[-121.84097,49.58548],[-121.84093,49.58539],[-121.84088,49.58529],[-121.84087,49.58522],[-121.84091,49.58508],[-121.84093,49.58503],[-121.84094,49.58498],[-121.84098,49.58492],[-121.84106,49.58485],[-121.84104,49.58477],[-121.84101,49.58471],[-121.84089,49.58457],[-121.84078,49.58447],[-121.84071,49.58431],[-121.84071,49.5842],[-121.84085,49.5841],[-121.84114,49.58404],[-121.84152,49.58399],[-121.84181,49.58393],[-121.84213,49.58389],[-121.84256,49.58379],[-121.84301,49.58368],[-121.84337,49.58357],[-121.84378,49.58347],[-121.84408,49.58347],[-121.84432,49.58344],[-121.84466,49.58342],[-121.84484,49.58342],[-121.84518,49.58345],[-121.84554,49.5835],[-121.84576,49.58355],[-121.84612,49.58361],[-121.84629,49.58361],[-121.8465,49.58361],[-121.84668,49.58359],[-121.84678,49.58357],[-121.84696,49.58345],[-121.84707,49.58336],[-121.84716,49.58328],[-121.84735,49.58325],[-121.84751,49.58325],[-121.84772,49.58324],[-121.8479,49.58321],[-121.84801,49.58315],[-121.84813,49.58305],[-121.84816,49.58303],[-121.8482,49.58295],[-121.84823,49.58286],[-121.84827,49.5828],[-121.84834,49.58275],[-121.84848,49.58273],[-121.84859,49.58275],[-121.84869,49.58283],[-121.84873,49.58291],[-121.84879,49.58299],[-121.84888,49.5831],[-121.849,49.58325],[-121.84917,49.58334],[-121.84927,49.58341],[-121.84932,49.58351],[-121.84927,49.58359],[-121.84915,49.58369],[-121.849,49.58386],[-121.84893,49.584],[-121.849,49.5841],[-121.84912,49.58416],[-121.84942,49.58419],[-121.84967,49.58422],[-121.84979,49.58426],[-121.85008,49.5844],[-121.85017,49.58443],[-121.85034,49.58446],[-121.85049,49.58442],[-121.85058,49.58439],[-121.85076,49.58432],[-121.85098,49.58424],[-121.85121,49.58413],[-121.8516,49.58405],[-121.85182,49.58399],[-121.85218,49.58381],[-121.85235,49.58372],[-121.85274,49.5837],[-121.85292,49.58372],[-121.85336,49.58391],[-121.8539,49.58416],[-121.85409,49.58419],[-121.85443,49.58422],[-121.85471,49.58426],[-121.85498,49.58424],[-121.85523,49.58419],[-121.85544,49.5842],[-121.85559,49.58428],[-121.85569,49.58444],[-121.85579,49.58453],[-121.85601,49.58461],[-121.85632,49.58466],[-121.85649,49.58469],[-121.85675,49.58476],[-121.85698,49.58484],[-121.85711,49.58486],[-121.85724,49.58489],[-121.85738,49.58491],[-121.8575,49.58496],[-121.8576,49.58502],[-121.85789,49.58518],[-121.85809,49.58532],[-121.8582,49.58539],[-121.85837,49.58557],[-121.85862,49.58576],[-121.85863,49.58589],[-121.85854,49.58602],[-121.85833,49.58637],[-121.85827,49.58661],[-121.85853,49.58703],[-121.85888,49.58732],[-121.85899,49.58751],[-121.85904,49.58764],[-121.85901,49.58789],[-121.85898,49.588],[-121.85895,49.58815],[-121.85895,49.5886],[-121.85898,49.58867],[-121.85909,49.58877],[-121.85931,49.58892],[-121.85961,49.5891],[-121.85992,49.58918],[-121.86029,49.58926],[-121.86059,49.58939],[-121.86095,49.58952],[-121.86131,49.58966],[-121.86204,49.58989],[-121.86241,49.59002],[-121.86305,49.59022],[-121.86313,49.59025],[-121.86346,49.59036],[-121.86389,49.59048],[-121.86414,49.59063],[-121.86438,49.59091],[-121.86453,49.59114],[-121.86466,49.59135],[-121.8648,49.59155],[-121.86501,49.59171],[-121.86535,49.59192],[-121.86567,49.59211],[-121.86589,49.59229],[-121.86614,49.59256],[-121.8663,49.59274],[-121.86653,49.593],[-121.86668,49.59309],[-121.86677,49.59314],[-121.86702,49.59329],[-121.86707,49.59332],[-121.86726,49.59344]]}},
{"type":"Feature","properties":{"spotId":"B-grouse-atv-0048","kind":"ride","km":5.09,"climbM":123,"name":"By Mystery Creek","flags":[]},"geometry":{"type":"LineString","coordinates":[[-121.91124,49.51785],[-121.91128,49.51784],[-121.91131,49.51782],[-121.91133,49.51762],[-121.91124,49.51744],[-121.91113,49.51724],[-121.91101,49.51707],[-121.91083,49.51688],[-121.91081,49.51685],[-121.9107,49.51678],[-121.91056,49.51671],[-121.91029,49.51672],[-121.91002,49.51678],[-121.90998,49.51678],[-121.90982,49.51672],[-121.90953,49.5165],[-121.90937,49.5163],[-121.90933,49.51621],[-121.90935,49.51611],[-121.90942,49.51608],[-121.90947,49.51608],[-121.9098,49.51617],[-121.91007,49.51626],[-121.91016,49.51628],[-121.91043,49.51626],[-121.9107,49.51616],[-121.91094,49.51596],[-121.91095,49.51593],[-121.91093,49.51585],[-121.91086,49.51582],[-121.91054,49.5158],[-121.91024,49.5158],[-121.91014,49.51579],[-121.91,49.51569],[-121.90986,49.51551],[-121.90967,49.51536],[-121.90948,49.51516],[-121.90944,49.5151],[-121.90947,49.51489],[-121.90961,49.5147],[-121.90963,49.5145],[-121.90966,49.5143],[-121.90967,49.5141],[-121.90963,49.51402],[-121.90959,49.51399],[-121.90955,49.51396],[-121.9093,49.51385],[-121.90907,49.51368],[-121.90893,49.51349],[-121.90888,49.51343],[-121.90866,49.51328],[-121.90842,49.51315],[-121.90819,49.51298],[-121.90794,49.51279],[-121.90772,49.51267],[-121.90745,49.51258],[-121.90716,49.51248],[-121.90689,49.51235],[-121.90679,49.51229],[-121.90664,49.51221],[-121.90644,49.51206],[-121.90625,49.5119],[-121.90614,49.51184],[-121.90596,49.51184],[-121.90568,49.51191],[-121.9055,49.5119],[-121.90531,49.51176],[-121.90527,49.5117],[-121.90526,49.51149],[-121.90523,49.51127],[-121.90519,49.51109],[-121.90518,49.51088],[-121.90511,49.5107],[-121.90499,49.51052],[-121.90485,49.51034],[-121.90467,49.51016],[-121.90449,49.50998],[-121.90428,49.50976],[-121.90417,49.50958],[-121.90401,49.5094],[-121.90392,49.50929],[-121.90383,49.50924],[-121.90359,49.50914],[-121.90334,49.50908],[-121.90307,49.50899],[-121.90297,49.50894],[-121.90277,49.50879],[-121.90259,49.50859],[-121.90255,49.50856],[-121.90242,49.50839],[-121.90227,49.50821],[-121.90216,49.50812],[-121.90197,49.50808],[-121.90164,49.508],[-121.90138,49.50792],[-121.90108,49.50782],[-121.90082,49.50773],[-121.9005,49.50766],[-121.90025,49.50757],[-121.90007,49.5075],[-121.89986,49.50734],[-121.89971,49.50717],[-121.89957,49.50701],[-121.89942,49.50689],[-121.89936,49.50684],[-121.89904,49.50669],[-121.89883,49.50653],[-121.89866,49.50638],[-121.89851,49.50622],[-121.89843,49.50614],[-121.89831,49.50597],[-121.89811,49.5058],[-121.89795,49.50565],[-121.89779,49.50548],[-121.89764,49.50533],[-121.89756,49.50514],[-121.89751,49.50495],[-121.89744,49.50476],[-121.89734,49.50458],[-121.8972,49.50438],[-121.89703,49.50421],[-121.89684,49.50406],[-121.89666,49.50389],[-121.8965,49.50371],[-121.89635,49.50353],[-121.8962,49.50336],[-121.89604,49.50318],[-121.89589,49.503],[-121.89573,49.5028],[-121.89565,49.5026],[-121.89556,49.50238],[-121.89549,49.50231],[-121.89541,49.5022],[-121.89533,49.50214],[-121.89501,49.50197],[-121.89477,49.50182],[-121.89457,49.50165],[-121.89442,49.50149],[-121.89429,49.50133],[-121.89421,49.50115],[-121.89416,49.50097],[-121.89411,49.50086],[-121.89404,49.5008],[-121.89379,49.50064],[-121.89371,49.50055],[-121.89361,49.50034],[-121.89355,49.50016],[-121.89352,49.5],[-121.89346,49.49992],[-121.89323,49.49943],[-121.89315,49.49924],[-121.89311,49.49916],[-121.89296,49.49897],[-121.89291,49.49884],[-121.89288,49.4987],[-121.89286,49.49849],[-121.8927,49.49827],[-121.89266,49.49825],[-121.89261,49.49816],[-121.8925,49.49806],[-121.89239,49.49798],[-121.89231,49.49792],[-121.89208,49.49776],[-121.89201,49.49765],[-121.8919,49.49748],[-121.89182,49.49728],[-121.89183,49.49722],[-121.8918,49.49717],[-121.89161,49.49699],[-121.89145,49.49679],[-121.89133,49.49661],[-121.89121,49.49641],[-121.89105,49.49622],[-121.89099,49.49614],[-121.89083,49.49597],[-121.89079,49.4959],[-121.89062,49.49572],[-121.89043,49.49555],[-121.89032,49.49549],[-121.89006,49.49529],[-121.88987,49.49514],[-121.88969,49.49501],[-121.88964,49.49496],[-121.88945,49.49481],[-121.88923,49.49461],[-121.88903,49.49444],[-121.88878,49.49433],[-121.88863,49.49429],[-121.88833,49.49418],[-121.88804,49.49405],[-121.88777,49.49394],[-121.88772,49.49393],[-121.88761,49.49389],[-121.8873,49.4938],[-121.88706,49.49372],[-121.88696,49.4937],[-121.88666,49.49364],[-121.88655,49.49362],[-121.88644,49.49358],[-121.88637,49.49354],[-121.8861,49.49342],[-121.88589,49.49328],[-121.88562,49.49311],[-121.88538,49.49298],[-121.88514,49.49281],[-121.88491,49.49267],[-121.88465,49.49253],[-121.88446,49.4924],[-121.8843,49.49222],[-121.88424,49.49208],[-121.88414,49.49189],[-121.88408,49.4917],[-121.88404,49.49155],[-121.88403,49.49152],[-121.88403,49.49149],[-121.88396,49.49127],[-121.88394,49.49121],[-121.88394,49.49118],[-121.88389,49.49098],[-121.88388,49.49092],[-121.88384,49.49071],[-121.88383,49.49059],[-121.88379,49.49044],[-121.88355,49.49006],[-121.88346,49.48986],[-121.88347,49.48977],[-121.88348,49.48968],[-121.88355,49.48958],[-121.88358,49.48944],[-121.88367,49.48921],[-121.88373,49.48874],[-121.88378,49.48851],[-121.88383,49.48827],[-121.88387,49.48801],[-121.88391,49.48782],[-121.88392,49.4876],[-121.88391,49.4874],[-121.8839,49.48735],[-121.88388,49.48721],[-121.88379,49.48702],[-121.88364,49.48685],[-121.88346,49.48668],[-121.88345,49.48666],[-121.88317,49.48628],[-121.8831,49.48622],[-121.88291,49.48606],[-121.88268,49.48584],[-121.8825,49.4857],[-121.88233,49.48556],[-121.88222,49.48547],[-121.88214,49.48542],[-121.882,49.48524],[-121.88177,49.48503],[-121.88169,49.48497],[-121.88145,49.48476],[-121.88129,49.48457],[-121.88115,49.4844],[-121.88114,49.48435],[-121.88106,49.48424],[-121.88091,49.48409],[-121.88082,49.48396],[-121.88068,49.48373],[-121.88058,49.48352],[-121.8806,49.48331],[-121.88064,49.48306],[-121.8807,49.48285],[-121.88072,49.48266],[-121.88078,49.48244],[-121.88084,49.48226],[-121.88085,49.48225]]}},
{"type":"Feature","properties":{"spotId":"B-grouse-atv-0073","kind":"ride","km":4.04,"climbM":166,"name":"220 m S of Clear Creek","flags":[]},"geometry":{"type":"LineString","coordinates":[[-121.80236,49.66565],[-121.80203,49.66578],[-121.80169,49.66592],[-121.80144,49.66601],[-121.80116,49.66613],[-121.80089,49.66621],[-121.80064,49.66632],[-121.8004,49.66647],[-121.80036,49.66649],[-121.80005,49.6667],[-121.80001,49.66672],[-121.79967,49.66686],[-121.79941,49.66697],[-121.79914,49.66712],[-121.79888,49.6673],[-121.79859,49.6675],[-121.79839,49.66763],[-121.79818,49.66781],[-121.79794,49.66802],[-121.79771,49.66815],[-121.79763,49.66824],[-121.79737,49.66841],[-121.79732,49.66847],[-121.79704,49.6686],[-121.79671,49.66878],[-121.79659,49.66884],[-121.79638,49.66894],[-121.79617,49.66909],[-121.79588,49.66927],[-121.79566,49.66948],[-121.79557,49.66969],[-121.79553,49.66974],[-121.79553,49.66993],[-121.79547,49.67005],[-121.79548,49.67022],[-121.79543,49.67042],[-121.79528,49.6706],[-121.79498,49.67076],[-121.79468,49.6709],[-121.79446,49.67107],[-121.79433,49.6713],[-121.79418,49.67148],[-121.79387,49.67162],[-121.79359,49.67173],[-121.79339,49.6718],[-121.79323,49.67182],[-121.79306,49.6718],[-121.79273,49.67164],[-121.79257,49.67152],[-121.79235,49.67125],[-121.79226,49.6712],[-121.7921,49.67113],[-121.79198,49.67113],[-121.7919,49.67116],[-121.79192,49.67136],[-121.79191,49.67171],[-121.79194,49.67182],[-121.79196,49.67202],[-121.79194,49.67224],[-121.7919,49.67236],[-121.79177,49.67256],[-121.79163,49.67277],[-121.79147,49.67299],[-121.79141,49.67305],[-121.79112,49.67313],[-121.79087,49.67313],[-121.7906,49.67321],[-121.79028,49.67332],[-121.78999,49.6735],[-121.78986,49.67364],[-121.78976,49.67371],[-121.78945,49.67383],[-121.78921,49.67392],[-121.78892,49.67399],[-121.78867,49.67406],[-121.78833,49.67415],[-121.78803,49.67421],[-121.78769,49.67431],[-121.78743,49.67439],[-121.78713,49.67449],[-121.78684,49.67459],[-121.78623,49.67477],[-121.7859,49.67488],[-121.78559,49.67507],[-121.78525,49.67516],[-121.78488,49.67529],[-121.78459,49.67541],[-121.78431,49.67552],[-121.78398,49.67567],[-121.78357,49.67583],[-121.78321,49.67596],[-121.78288,49.67608],[-121.78257,49.67614],[-121.78228,49.67624],[-121.78195,49.67633],[-121.78172,49.67641],[-121.78153,49.67644],[-121.78135,49.67647],[-121.78111,49.6765],[-121.78078,49.67653],[-121.78053,49.67664],[-121.78038,49.67672],[-121.78013,49.67687],[-121.77997,49.67695],[-121.77976,49.67705],[-121.7796,49.67709],[-121.77933,49.6771],[-121.77906,49.67713],[-121.77894,49.67715],[-121.77881,49.67718],[-121.77855,49.67716],[-121.77824,49.67721],[-121.77802,49.67734],[-121.77793,49.67752],[-121.77789,49.6777],[-121.77786,49.67789],[-121.77782,49.67803],[-121.77775,49.67816],[-121.77765,49.67828],[-121.77755,49.67841],[-121.77755,49.67852],[-121.77749,49.67859],[-121.77743,49.67867],[-121.77732,49.67872],[-121.77712,49.6788],[-121.7767,49.67891],[-121.77636,49.67901],[-121.77608,49.67908],[-121.77579,49.67915],[-121.77555,49.67921],[-121.77529,49.67928],[-121.77499,49.67934],[-121.77477,49.67938],[-121.77447,49.67938],[-121.77408,49.67938],[-121.7738,49.67933],[-121.77357,49.67928],[-121.77328,49.67925],[-121.77302,49.6792],[-121.77277,49.67915],[-121.77251,49.67911],[-121.7723,49.67912],[-121.77205,49.67915],[-121.77173,49.67919],[-121.77146,49.6792],[-121.77113,49.67925],[-121.77084,49.67925],[-121.77055,49.67925],[-121.77034,49.67927],[-121.77002,49.6793],[-121.7697,49.67938],[-121.76939,49.67946],[-121.76917,49.67953],[-121.76867,49.67964],[-121.7684,49.67973],[-121.76781,49.67998],[-121.7675,49.68013],[-121.76718,49.68024],[-121.7669,49.68032],[-121.76665,49.68035],[-121.76636,49.68039],[-121.76604,49.6804],[-121.76571,49.68041],[-121.7654,49.6804],[-121.76513,49.68038],[-121.76484,49.68037],[-121.76456,49.68038],[-121.76392,49.68037],[-121.76363,49.68036],[-121.76337,49.68036],[-121.7631,49.68035],[-121.76278,49.68036],[-121.76255,49.68037],[-121.76228,49.68039],[-121.76199,49.68043],[-121.76173,49.68044],[-121.76144,49.68045],[-121.7612,49.68046],[-121.76108,49.68046],[-121.76085,49.68048],[-121.76055,49.68049],[-121.7603,49.68053],[-121.76001,49.68056],[-121.75969,49.68059],[-121.75944,49.68064],[-121.75916,49.6807],[-121.75891,49.6807],[-121.75845,49.6807],[-121.75814,49.68072]]}},
{"type":"Feature","properties":{"spotId":"B-grouse-drive-0005","kind":"roadside","km":4.26,"climbM":124,"name":"By Clear Creek","flags":[]},"geometry":{"type":"LineString","coordinates":[[-121.83677,49.63942],[-121.83677,49.63957],[-121.83674,49.63974],[-121.8367,49.63994],[-121.83669,49.64041],[-121.83672,49.64054],[-121.83676,49.64065],[-121.83689,49.64107],[-121.83698,49.64127],[-121.83702,49.64144],[-121.83707,49.64158],[-121.8371,49.64178],[-121.83716,49.64195],[-121.83719,49.64213],[-121.83722,49.64226],[-121.83727,49.64244],[-121.83733,49.64264],[-121.83736,49.64277],[-121.83744,49.64298],[-121.83749,49.64315],[-121.83757,49.64337],[-121.83766,49.64358],[-121.83771,49.64372],[-121.83779,49.64386],[-121.83788,49.64406],[-121.838,49.64424],[-121.83814,49.64442],[-121.83834,49.64464],[-121.83846,49.64478],[-121.83863,49.64499],[-121.8388,49.64515],[-121.83895,49.64531],[-121.83911,49.64552],[-121.83926,49.6457],[-121.83939,49.6459],[-121.83955,49.6461],[-121.83968,49.6463],[-121.83985,49.64645],[-121.84001,49.64666],[-121.84022,49.64687],[-121.84044,49.64705],[-121.84077,49.64727],[-121.84106,49.64749],[-121.84124,49.64768],[-121.8415,49.64789],[-121.84182,49.64808],[-121.84203,49.64827],[-121.8422,49.6484],[-121.84246,49.64861],[-121.84266,49.6488],[-121.84285,49.64897],[-121.84312,49.64919],[-121.84339,49.64937],[-121.84361,49.64954],[-121.84387,49.64974],[-121.84416,49.64996],[-121.84437,49.65015],[-121.84463,49.65031],[-121.84488,49.65048],[-121.84519,49.65066],[-121.84549,49.65083],[-121.84579,49.65102],[-121.8459,49.65107],[-121.84613,49.65123],[-121.84641,49.65143],[-121.84662,49.65162],[-121.84691,49.65182],[-121.84718,49.652],[-121.84733,49.65218],[-121.84742,49.65237],[-121.84749,49.65252],[-121.84757,49.65267],[-121.84761,49.65283],[-121.84767,49.65303],[-121.84778,49.65325],[-121.84791,49.65345],[-121.848,49.65359],[-121.84803,49.65361],[-121.84819,49.65379],[-121.8484,49.65399],[-121.84864,49.65415],[-121.84892,49.65425],[-121.84914,49.65433],[-121.84944,49.65446],[-121.84973,49.6546],[-121.84996,49.65473],[-121.8502,49.65488],[-121.85044,49.65505],[-121.85054,49.65515],[-121.85065,49.65526],[-121.85086,49.65544],[-121.85111,49.65563],[-121.85138,49.65573],[-121.85168,49.65582],[-121.85186,49.65587],[-121.85212,49.65592],[-121.85242,49.65594],[-121.85276,49.65593],[-121.85294,49.65594],[-121.85312,49.65593],[-121.85346,49.65593],[-121.85364,49.65594],[-121.85382,49.65597],[-121.85414,49.65608],[-121.85445,49.6562],[-121.85477,49.65634],[-121.85499,49.65644],[-121.85529,49.65655],[-121.85548,49.65657],[-121.85565,49.65658],[-121.85598,49.6566],[-121.85616,49.65662],[-121.85637,49.65665],[-121.85667,49.65675],[-121.85674,49.65677],[-121.85707,49.6569],[-121.85739,49.65702],[-121.85756,49.65708],[-121.85789,49.65722],[-121.85803,49.6574],[-121.85811,49.65753],[-121.85816,49.65763],[-121.85827,49.65784],[-121.85831,49.65796],[-121.85832,49.65807],[-121.85831,49.65828],[-121.85828,49.65839],[-121.85811,49.65874],[-121.85805,49.65887],[-121.85793,49.65905],[-121.85774,49.65924],[-121.85752,49.65941],[-121.85735,49.65955],[-121.8573,49.65969],[-121.85721,49.6599],[-121.85713,49.66005],[-121.85706,49.66022],[-121.857,49.66038],[-121.85692,49.66054],[-121.85682,49.66069],[-121.85673,49.66086],[-121.85667,49.66107],[-121.85669,49.6612],[-121.8568,49.6614],[-121.85688,49.66158],[-121.8569,49.66171],[-121.85698,49.66203],[-121.857,49.66215],[-121.85701,49.66227],[-121.85705,49.66249],[-121.85709,49.66256],[-121.85714,49.66267],[-121.85729,49.66281],[-121.85755,49.66303],[-121.85781,49.66322],[-121.85796,49.66334],[-121.85815,49.66353],[-121.85832,49.66372],[-121.85854,49.66393],[-121.85868,49.66407],[-121.85881,49.66426],[-121.85892,49.66442],[-121.85905,49.66461],[-121.85921,49.66483],[-121.85933,49.66502],[-121.85943,49.66516],[-121.85938,49.66535],[-121.85932,49.66554],[-121.85925,49.66573],[-121.85922,49.66588],[-121.85916,49.66602],[-121.85903,49.66623],[-121.85882,49.66667],[-121.85878,49.6668],[-121.85872,49.66691],[-121.85865,49.66705],[-121.85859,49.66723],[-121.85853,49.66734],[-121.85841,49.66755],[-121.85833,49.66774],[-121.85823,49.66794],[-121.85817,49.66805],[-121.85812,49.66815],[-121.85801,49.66831],[-121.85794,49.66849],[-121.85786,49.6687],[-121.85786,49.66888],[-121.85786,49.66891],[-121.85787,49.66903],[-121.85789,49.66915],[-121.85793,49.66927],[-121.858,49.66948],[-121.85807,49.66964],[-121.85824,49.6698],[-121.85845,49.67],[-121.85863,49.67019],[-121.85871,49.67028]]}},
{"type":"Feature","properties":{"spotId":"B-grouse-drive-0006","kind":"roadside","km":4.3,"climbM":122,"name":"By Hornet Creek","flags":[]},"geometry":{"type":"LineString","coordinates":[[-121.82273,49.60449],[-121.82272,49.60464],[-121.82269,49.60486],[-121.82267,49.60499],[-121.82267,49.60503],[-121.82266,49.60535],[-121.82264,49.60557],[-121.82264,49.60577],[-121.82262,49.60595],[-121.82257,49.60617],[-121.82258,49.60635],[-121.82257,49.60654],[-121.82258,49.60666],[-121.82259,49.60676],[-121.82258,49.60699],[-121.82259,49.60711],[-121.82258,49.60746],[-121.82255,49.60766],[-121.82253,49.60783],[-121.82252,49.60799],[-121.82245,49.60826],[-121.82241,49.60845],[-121.82238,49.60865],[-121.82235,49.60878],[-121.82231,49.60891],[-121.82226,49.60903],[-121.82218,49.60916],[-121.82207,49.60934],[-121.82197,49.60952],[-121.82188,49.60971],[-121.82181,49.60989],[-121.82173,49.61009],[-121.82166,49.6103],[-121.82164,49.6105],[-121.82166,49.61071],[-121.82168,49.61102],[-121.82171,49.61118],[-121.82173,49.61133],[-121.82175,49.61155],[-121.82176,49.61173],[-121.82176,49.61189],[-121.82173,49.61206],[-121.82172,49.61221],[-121.8217,49.61239],[-121.82167,49.61258],[-121.82165,49.61279],[-121.82156,49.61322],[-121.82153,49.6134],[-121.82146,49.61372],[-121.82143,49.61391],[-121.82141,49.6141],[-121.8214,49.61431],[-121.82139,49.61468],[-121.82137,49.61482],[-121.82134,49.61498],[-121.82132,49.61516],[-121.8213,49.61528],[-121.8213,49.61538],[-121.82131,49.6156],[-121.82136,49.61598],[-121.82137,49.6161],[-121.82138,49.6162],[-121.82139,49.61634],[-121.82142,49.61653],[-121.82142,49.61666],[-121.82143,49.61683],[-121.8214,49.61699],[-121.82144,49.61713],[-121.82145,49.61731],[-121.82147,49.61747],[-121.8215,49.61763],[-121.82155,49.61781],[-121.82154,49.61801],[-121.82157,49.61812],[-121.82158,49.61825],[-121.82157,49.61843],[-121.8216,49.61858],[-121.82161,49.61875],[-121.82164,49.61897],[-121.82166,49.61901],[-121.82167,49.61909],[-121.82171,49.61922],[-121.82172,49.61935],[-121.8218,49.61973],[-121.82186,49.61991],[-121.82188,49.62009],[-121.8219,49.62029],[-121.82191,49.62043],[-121.82194,49.62058],[-121.82197,49.62074],[-121.82198,49.62089],[-121.82201,49.62106],[-121.82203,49.62121],[-121.82211,49.62155],[-121.82218,49.62177],[-121.82228,49.62199],[-121.82234,49.62215],[-121.82243,49.6223],[-121.82254,49.62242],[-121.82275,49.62264],[-121.82283,49.62275],[-121.82289,49.62289],[-121.82293,49.62304],[-121.82293,49.62315],[-121.82294,49.62326],[-121.82296,49.62339],[-121.82296,49.6236],[-121.82297,49.6238],[-121.82296,49.62398],[-121.82299,49.6241],[-121.82305,49.62432],[-121.82308,49.62442],[-121.82306,49.62454],[-121.82301,49.62467],[-121.82299,49.62474],[-121.82293,49.62486],[-121.82292,49.62503],[-121.82297,49.62522],[-121.82304,49.6254],[-121.82309,49.62558],[-121.82316,49.62574],[-121.8233,49.62596],[-121.82346,49.62616],[-121.82361,49.62635],[-121.82386,49.62655],[-121.82416,49.62676],[-121.82433,49.62693],[-121.82449,49.62711],[-121.82464,49.62728],[-121.8248,49.62746],[-121.82499,49.62765],[-121.82518,49.6278],[-121.82539,49.62797],[-121.82553,49.62815],[-121.82567,49.62832],[-121.82589,49.62851],[-121.82619,49.62867],[-121.82641,49.62876],[-121.82668,49.6289],[-121.82681,49.6291],[-121.82689,49.62928],[-121.82696,49.62949],[-121.82705,49.62971],[-121.82699,49.62992],[-121.82693,49.6301],[-121.8269,49.63022],[-121.82689,49.63035],[-121.82695,49.63048],[-121.82703,49.6306],[-121.82709,49.63072],[-121.82718,49.63093],[-121.82725,49.63106],[-121.82732,49.63118],[-121.82744,49.63138],[-121.82754,49.63153],[-121.82769,49.6317],[-121.82801,49.63192],[-121.82828,49.63202],[-121.82892,49.63208],[-121.82941,49.63216],[-121.82974,49.63223],[-121.83005,49.63233],[-121.83029,49.63245],[-121.83059,49.63256],[-121.83086,49.6326],[-121.83109,49.63266],[-121.83137,49.63273],[-121.83163,49.63286],[-121.8318,49.63307],[-121.83188,49.63327],[-121.83193,49.63343],[-121.83199,49.63363],[-121.83203,49.63374],[-121.83215,49.63394],[-121.83234,49.63413],[-121.8326,49.6343],[-121.83289,49.63446],[-121.8332,49.63467],[-121.83346,49.63484],[-121.83373,49.635],[-121.83435,49.63547],[-121.83463,49.63565],[-121.83489,49.63587],[-121.83516,49.63604],[-121.83545,49.63623],[-121.83571,49.63642],[-121.83604,49.63664],[-121.83628,49.63683],[-121.8364,49.63697],[-121.8365,49.63713],[-121.8366,49.63732],[-121.83668,49.63753],[-121.8367,49.6377],[-121.83674,49.63791],[-121.83675,49.63813],[-121.83674,49.63842],[-121.83676,49.63884],[-121.83675,49.63905]]}},
{"type":"Feature","properties":{"spotId":"B-grouse-drive-0011","kind":"roadside","km":5.38,"climbM":73,"name":"By Mystery Creek","flags":[]},"geometry":{"type":"LineString","coordinates":[[-121.91124,49.51785],[-121.91105,49.5178],[-121.91093,49.51771],[-121.91072,49.51755],[-121.91049,49.51743],[-121.9102,49.51736],[-121.90988,49.51737],[-121.90961,49.51739],[-121.90936,49.51746],[-121.90906,49.51757],[-121.90883,49.51768],[-121.90859,49.51783],[-121.90838,49.51798],[-121.90825,49.51804],[-121.90816,49.51807],[-121.90809,49.51806],[-121.90778,49.51803],[-121.90748,49.51791],[-121.90729,49.51778],[-121.90711,49.51763],[-121.90693,49.51742],[-121.90674,49.51725],[-121.90649,49.51709],[-121.90623,49.51695],[-121.90597,49.51683],[-121.9059,49.51682],[-121.90581,49.51681],[-121.90527,49.51672],[-121.90543,49.5171],[-121.90545,49.51724],[-121.90541,49.5173],[-121.90537,49.51737],[-121.90525,49.51755],[-121.90523,49.51768],[-121.90524,49.51786],[-121.90525,49.51805],[-121.90524,49.51824],[-121.90518,49.51832],[-121.90504,49.51842],[-121.90491,49.51846],[-121.90476,49.51846],[-121.90447,49.51844],[-121.90418,49.51834],[-121.90391,49.51816],[-121.90369,49.51805],[-121.9034,49.51798],[-121.90338,49.51798],[-121.90335,49.51797],[-121.90312,49.51782],[-121.90291,49.51767],[-121.9027,49.51752],[-121.90248,49.51735],[-121.90227,49.5172],[-121.90202,49.51704],[-121.90191,49.51703],[-121.90181,49.51702],[-121.90173,49.51704],[-121.90153,49.51717],[-121.90153,49.51726],[-121.90158,49.51744],[-121.90166,49.51761],[-121.90172,49.51771],[-121.90187,49.51789],[-121.90194,49.51798],[-121.90205,49.5181],[-121.9021,49.51815],[-121.90218,49.51829],[-121.902,49.51839],[-121.90186,49.51848],[-121.90164,49.51851],[-121.90139,49.51859],[-121.90105,49.5187],[-121.90072,49.51881],[-121.90044,49.5189],[-121.90016,49.51898],[-121.89991,49.51907],[-121.89961,49.51917],[-121.89947,49.51924],[-121.8993,49.51929],[-121.89904,49.51936],[-121.89876,49.51947],[-121.89857,49.51961],[-121.89843,49.51979],[-121.8983,49.51997],[-121.89822,49.52008],[-121.89817,49.52014],[-121.89803,49.52031],[-121.89799,49.52039],[-121.89795,49.52049],[-121.89787,49.52068],[-121.89783,49.5209],[-121.89779,49.52108],[-121.89778,49.52129],[-121.89772,49.52151],[-121.89768,49.52173],[-121.89765,49.52196],[-121.89765,49.52218],[-121.8976,49.5224],[-121.89758,49.52262],[-121.89758,49.52282],[-121.89758,49.52304],[-121.89758,49.52325],[-121.89757,49.52347],[-121.89757,49.52367],[-121.89757,49.52385],[-121.89756,49.52407],[-121.89757,49.52427],[-121.89757,49.52446],[-121.89755,49.5245],[-121.89753,49.52471],[-121.89749,49.52489],[-121.89742,49.52502],[-121.89737,49.52511],[-121.89715,49.52528],[-121.89692,49.52544],[-121.89686,49.52555],[-121.89681,49.52574],[-121.89684,49.52595],[-121.89687,49.52598],[-121.89692,49.5262],[-121.89701,49.52639],[-121.89712,49.52656],[-121.89727,49.52671],[-121.89746,49.52688],[-121.89766,49.52701],[-121.89785,49.52712],[-121.89817,49.52727],[-121.89833,49.52734],[-121.89848,49.52741],[-121.89867,49.52754],[-121.89879,49.52761],[-121.89897,49.52776],[-121.89898,49.5278],[-121.89912,49.52799],[-121.89922,49.5282],[-121.89937,49.52839],[-121.89951,49.52855],[-121.89965,49.52871],[-121.89967,49.52874],[-121.89976,49.52893],[-121.89981,49.52908],[-121.89984,49.5292],[-121.8999,49.52941],[-121.89997,49.5296],[-121.90003,49.52979],[-121.90006,49.52982],[-121.90012,49.53],[-121.90015,49.53018],[-121.90014,49.53036],[-121.90017,49.53055],[-121.90023,49.53064],[-121.90041,49.53085],[-121.9006,49.53104],[-121.90081,49.53119],[-121.90103,49.53134],[-121.90121,49.53148],[-121.9013,49.53165],[-121.90139,49.53184],[-121.90149,49.53204],[-121.90161,49.53223],[-121.90177,49.53239],[-121.90181,49.53258],[-121.90187,49.53279],[-121.90202,49.53297],[-121.90218,49.53315],[-121.90236,49.53334],[-121.90246,49.53342],[-121.90261,49.5336],[-121.90273,49.53379],[-121.90281,49.53397],[-121.90286,49.53415],[-121.90291,49.53437],[-121.90292,49.53446],[-121.90293,49.53478],[-121.90289,49.53496],[-121.90286,49.53502],[-121.90276,49.53508],[-121.90265,49.5351],[-121.90255,49.5351],[-121.9023,49.53506],[-121.90199,49.53502],[-121.90178,49.53502],[-121.90147,49.53502],[-121.90127,49.53511],[-121.90107,49.53527],[-121.90093,49.53545],[-121.90088,49.53556],[-121.90088,49.53563],[-121.90082,49.53579],[-121.90081,49.53582],[-121.9008,49.53601],[-121.9008,49.53621],[-121.90081,49.53642],[-121.9008,49.53661],[-121.9008,49.53681],[-121.90081,49.53684],[-121.90079,49.53705],[-121.90072,49.53714],[-121.90057,49.53731],[-121.90051,49.5375],[-121.9005,49.53768],[-121.90054,49.53789],[-121.90057,49.53793],[-121.9008,49.5381],[-121.90107,49.53824],[-121.90113,49.5383],[-121.90114,49.53838],[-121.90113,49.53857],[-121.90113,49.53877],[-121.90111,49.53896],[-121.90112,49.53917],[-121.90117,49.53935],[-121.90122,49.53953],[-121.90137,49.5397],[-121.90138,49.53973],[-121.90142,49.53976],[-121.90144,49.5398],[-121.9016,49.53996],[-121.90172,49.54012],[-121.90172,49.5403],[-121.90144,49.54032],[-121.90134,49.54028],[-121.90121,49.5402],[-121.90104,49.54003],[-121.90095,49.53993],[-121.90073,49.53978],[-121.90046,49.53958],[-121.90019,49.53945],[-121.89993,49.53932],[-121.89964,49.53921],[-121.89938,49.53915],[-121.89912,49.53906],[-121.89886,49.53898],[-121.8986,49.5389],[-121.89835,49.5388],[-121.89813,49.53867],[-121.89794,49.53852],[-121.89778,49.5384],[-121.89768,49.53835],[-121.89752,49.53828],[-121.89737,49.53828],[-121.89694,49.53828],[-121.8969,49.53828],[-121.89684,49.53829],[-121.8968,49.5383],[-121.89676,49.5383],[-121.89672,49.53833],[-121.89663,49.53837],[-121.89655,49.53838],[-121.89628,49.53851],[-121.896,49.53857],[-121.89587,49.53862],[-121.89561,49.53876],[-121.89543,49.53891],[-121.8954,49.53903],[-121.89537,49.53906],[-121.89534,49.53909],[-121.8952,49.53927],[-121.89513,49.53934],[-121.89495,49.53952],[-121.89493,49.53956],[-121.89489,49.53976],[-121.89484,49.53995],[-121.8949,49.54016],[-121.89494,49.54027],[-121.89506,49.54047],[-121.89516,49.54059],[-121.8952,49.54064],[-121.89526,49.54077],[-121.89534,49.54096],[-121.89538,49.54104],[-121.89545,49.54121],[-121.8955,49.5414],[-121.8956,49.5416],[-121.89571,49.54178],[-121.89581,49.54194],[-121.89582,49.54196],[-121.89601,49.54211],[-121.89623,49.54225],[-121.89647,49.54238],[-121.89673,49.54251],[-121.89699,49.54263],[-121.89727,49.54276],[-121.89753,49.54288],[-121.89777,49.54302],[-121.89802,49.54316],[-121.89828,49.54328],[-121.89848,49.54339],[-121.89854,49.54342],[-121.89878,49.54354],[-121.89906,49.54362],[-121.89935,49.54366],[-121.89965,49.54369],[-121.89968,49.54369]]}},
{"type":"Feature","properties":{"spotId":"B-grouse-drive-0012","kind":"roadside","km":5.38,"climbM":130,"name":"By Davidson Creek","flags":[]},"geometry":{"type":"LineString","coordinates":[[-121.95675,49.60938],[-121.95649,49.6094],[-121.95641,49.60954],[-121.95636,49.60969],[-121.95635,49.60981],[-121.95629,49.61],[-121.95615,49.61016],[-121.95595,49.61034],[-121.95574,49.61054],[-121.95555,49.61074],[-121.95542,49.61089],[-121.95533,49.61104],[-121.95518,49.6114],[-121.95508,49.6116],[-121.95502,49.61178],[-121.95499,49.61196],[-121.95495,49.61216],[-121.95494,49.61231],[-121.95497,49.6125],[-121.95487,49.61269],[-121.95481,49.61289],[-121.95472,49.6131],[-121.95459,49.61331],[-121.95445,49.61352],[-121.95432,49.6137],[-121.95426,49.61381],[-121.9542,49.61393],[-121.95395,49.6141],[-121.95367,49.6142],[-121.9535,49.61424],[-121.95324,49.61421],[-121.95295,49.61412],[-121.95265,49.61401],[-121.95243,49.61383],[-121.95234,49.61371],[-121.95223,49.61359],[-121.95206,49.6134],[-121.95156,49.61307],[-121.95126,49.61286],[-121.95103,49.61271],[-121.951,49.61271],[-121.95081,49.61274],[-121.95053,49.61284],[-121.95025,49.61297],[-121.94997,49.61313],[-121.9497,49.61329],[-121.94938,49.61346],[-121.94912,49.61351],[-121.94881,49.61348],[-121.94868,49.61345],[-121.94843,49.61324],[-121.94821,49.61313],[-121.94809,49.61304],[-121.94798,49.61298],[-121.94783,49.6128],[-121.94768,49.61261],[-121.94748,49.61239],[-121.94731,49.61217],[-121.94714,49.61198],[-121.9471,49.61195],[-121.94694,49.6118],[-121.94671,49.61162],[-121.9465,49.61145],[-121.94625,49.61126],[-121.94595,49.61107],[-121.94578,49.61098],[-121.94564,49.61092],[-121.94552,49.61086],[-121.94538,49.6108],[-121.9451,49.61065],[-121.94486,49.61055],[-121.94461,49.61052],[-121.94448,49.61054],[-121.94443,49.61054],[-121.94425,49.61054],[-121.94394,49.61055],[-121.94374,49.61054],[-121.94347,49.61048],[-121.94319,49.61039],[-121.94304,49.61033],[-121.94278,49.61016],[-121.94255,49.60998],[-121.94251,49.60994],[-121.94241,49.60987],[-121.94225,49.60977],[-121.94203,49.6096],[-121.94181,49.60942],[-121.94165,49.60924],[-121.94152,49.60908],[-121.9414,49.60892],[-121.94128,49.60871],[-121.94121,49.60853],[-121.94121,49.6085],[-121.94118,49.60844],[-121.94119,49.60841],[-121.94113,49.60821],[-121.94112,49.60805],[-121.94121,49.6079],[-121.94133,49.6077],[-121.9414,49.60751],[-121.9414,49.60732],[-121.94137,49.60714],[-121.94111,49.60692],[-121.94081,49.60672],[-121.9407,49.6066],[-121.94065,49.60647],[-121.94059,49.6063],[-121.94045,49.60609],[-121.94035,49.60593],[-121.94025,49.60576],[-121.94008,49.60556],[-121.93994,49.60536],[-121.93982,49.60518],[-121.93965,49.60497],[-121.93959,49.60485],[-121.93944,49.60465],[-121.93937,49.60453],[-121.93933,49.60446],[-121.93927,49.60436],[-121.93921,49.60424],[-121.93909,49.60406],[-121.93894,49.60388],[-121.93877,49.60366],[-121.93862,49.60344],[-121.93856,49.60325],[-121.93845,49.60305],[-121.93839,49.60287],[-121.93831,49.60271],[-121.93824,49.60253],[-121.93822,49.60238],[-121.93816,49.6022],[-121.93804,49.60201],[-121.93794,49.60185],[-121.93769,49.60163],[-121.93738,49.60154],[-121.93718,49.60149],[-121.937,49.60144],[-121.9368,49.6014],[-121.93647,49.60133],[-121.93616,49.60125],[-121.93584,49.60113],[-121.93559,49.60104],[-121.93531,49.60094],[-121.93507,49.60083],[-121.93479,49.60072],[-121.93456,49.6006],[-121.9344,49.60038],[-121.93425,49.60023],[-121.93403,49.60006],[-121.93384,49.6],[-121.93352,49.59984],[-121.93347,49.5998],[-121.93331,49.59961],[-121.93329,49.59958],[-121.93319,49.59938],[-121.93303,49.5992],[-121.93299,49.59918],[-121.93281,49.59902],[-121.93254,49.59882],[-121.93226,49.59864],[-121.93215,49.59854],[-121.93194,49.59832],[-121.9319,49.59832],[-121.93183,49.59821],[-121.93167,49.59807],[-121.93142,49.59785],[-121.93141,49.59765],[-121.93143,49.59745],[-121.93153,49.59723],[-121.93166,49.59713],[-121.93187,49.59706],[-121.93216,49.597],[-121.93237,49.59698],[-121.93259,49.59691],[-121.93279,49.59677],[-121.9328,49.59671],[-121.93292,49.59657],[-121.93302,49.59636],[-121.93313,49.59618],[-121.93323,49.59607],[-121.93346,49.5959],[-121.93354,49.59587],[-121.93386,49.59585],[-121.93418,49.59584],[-121.9344,49.59577],[-121.93446,49.59569],[-121.93446,49.59567],[-121.93449,49.59546],[-121.93443,49.59528],[-121.93425,49.59506],[-121.9341,49.59489],[-121.9339,49.59468],[-121.93357,49.59447],[-121.93328,49.59435],[-121.93308,49.59422],[-121.93275,49.59407],[-121.93248,49.59392],[-121.93219,49.59378],[-121.93189,49.59364],[-121.93161,49.59354],[-121.93137,49.5934],[-121.93119,49.59323],[-121.9311,49.59305],[-121.93099,49.59288],[-121.93092,49.5928],[-121.93085,49.5926],[-121.93084,49.59242],[-121.93082,49.59237],[-121.93072,49.59221],[-121.9306,49.59201],[-121.9305,49.59183],[-121.93044,49.59174],[-121.93022,49.59156],[-121.93016,49.59151],[-121.93011,49.59151],[-121.92997,49.59145],[-121.9297,49.59141],[-121.92956,49.5914],[-121.92925,49.59132],[-121.92899,49.59125],[-121.92887,49.59123],[-121.92858,49.59116],[-121.9283,49.5911],[-121.92803,49.59102],[-121.92793,49.59094],[-121.92781,49.59078],[-121.9278,49.59062],[-121.92764,49.59048],[-121.92752,49.59041],[-121.92737,49.59038],[-121.92708,49.59028],[-121.9268,49.59017],[-121.92658,49.59006],[-121.92648,49.58996],[-121.92644,49.58985],[-121.92645,49.58965],[-121.92648,49.58957],[-121.92667,49.58939],[-121.92686,49.58926],[-121.92706,49.5891],[-121.92725,49.58894],[-121.92733,49.58877],[-121.92738,49.58856],[-121.92737,49.5884],[-121.92737,49.58836],[-121.92728,49.58818],[-121.92715,49.58802],[-121.92703,49.58785],[-121.92689,49.58765],[-121.92677,49.58748],[-121.92664,49.58731],[-121.92652,49.58715],[-121.92643,49.58694],[-121.92634,49.58672],[-121.92633,49.5867],[-121.92634,49.58647],[-121.92658,49.58629],[-121.92671,49.58624],[-121.92686,49.58618],[-121.92689,49.58608],[-121.92691,49.58602],[-121.92692,49.58599],[-121.92684,49.58578],[-121.92653,49.58559],[-121.9263,49.58541],[-121.92621,49.58521],[-121.92617,49.585],[-121.92617,49.58481],[-121.92616,49.58462],[-121.92614,49.5844],[-121.92601,49.58418],[-121.92596,49.58406]]}},
{"type":"Feature","properties":{"spotId":"B-grouse-drive-0013","kind":"roadside","km":5.59,"climbM":26,"name":"3.6 km NE of Chehalis Lake North rec site","flags":[]},"geometry":{"type":"LineString","coordinates":[[-121.97442,49.50262],[-121.97376,49.50263],[-121.97347,49.50263],[-121.97339,49.50263],[-121.97308,49.5027],[-121.97282,49.50278],[-121.97255,49.50284],[-121.97225,49.50292],[-121.97197,49.50294],[-121.97187,49.50293],[-121.9716,49.50289],[-121.97139,49.50288],[-121.9712,49.50284],[-121.97101,49.50282],[-121.97069,49.50282],[-121.97037,49.5028],[-121.97008,49.50279],[-121.96978,49.5028],[-121.96965,49.50282],[-121.96949,49.50287],[-121.96922,49.50304],[-121.96915,49.5031],[-121.96899,49.50328],[-121.96884,49.50347],[-121.96881,49.5035],[-121.96877,49.50364],[-121.96868,49.50382],[-121.96859,49.50398],[-121.96846,49.50417],[-121.96837,49.50428],[-121.96817,49.50441],[-121.96799,49.50449],[-121.96785,49.50452],[-121.9677,49.50455],[-121.96739,49.50465],[-121.96709,49.50471],[-121.96684,49.50476],[-121.96652,49.50481],[-121.96623,49.50485],[-121.96592,49.50493],[-121.96563,49.50497],[-121.96531,49.50499],[-121.96499,49.50503],[-121.96483,49.50508],[-121.96459,49.50518],[-121.96438,49.50531],[-121.96416,49.50545],[-121.96392,49.50556],[-121.96365,49.50567],[-121.96333,49.50578],[-121.96325,49.50583],[-121.96319,49.50583],[-121.96289,49.50598],[-121.96258,49.50613],[-121.96251,49.50614],[-121.96225,49.50627],[-121.96211,49.50633],[-121.96191,49.50639],[-121.96159,49.5064],[-121.96132,49.50643],[-121.96101,49.50647],[-121.96071,49.50647],[-121.96042,49.5065],[-121.96013,49.5066],[-121.95981,49.5067],[-121.95953,49.50678],[-121.95921,49.50686],[-121.95903,49.50689],[-121.95876,49.50697],[-121.95849,49.50707],[-121.95821,49.5071],[-121.95793,49.5071],[-121.95779,49.5071],[-121.95755,49.50701],[-121.95732,49.50688],[-121.95708,49.50677],[-121.95679,49.50672],[-121.95654,49.50668],[-121.95649,49.50667],[-121.95619,49.50658],[-121.95615,49.50656],[-121.95587,49.50653],[-121.9556,49.50649],[-121.95556,49.50648],[-121.95525,49.50642],[-121.95494,49.50638],[-121.9548,49.50639],[-121.95472,49.50641],[-121.95442,49.50649],[-121.95415,49.50655],[-121.95384,49.50662],[-121.95351,49.50667],[-121.95319,49.50675],[-121.95287,49.50681],[-121.95259,49.50686],[-121.95252,49.50687],[-121.95229,49.50697],[-121.95202,49.5071],[-121.95169,49.50726],[-121.95157,49.50732],[-121.95146,49.50741],[-121.95143,49.50746],[-121.9514,49.50767],[-121.9514,49.50788],[-121.95141,49.50809],[-121.9514,49.50829],[-121.95139,49.50837],[-121.95127,49.50848],[-121.95111,49.50854],[-121.95083,49.50858],[-121.95051,49.50859],[-121.95017,49.5086],[-121.94985,49.50859],[-121.94954,49.5086],[-121.94925,49.50861],[-121.94898,49.50865],[-121.9488,49.50868],[-121.94874,49.50871],[-121.94867,49.50872],[-121.94848,49.50878],[-121.9482,49.50889],[-121.9479,49.50908],[-121.94779,49.50913],[-121.94746,49.50921],[-121.94714,49.50924],[-121.94685,49.50929],[-121.94654,49.50933],[-121.94639,49.50935],[-121.94607,49.50944],[-121.94582,49.50953],[-121.94572,49.5096],[-121.94568,49.50971],[-121.94558,49.50988],[-121.94542,49.51008],[-121.94532,49.51018],[-121.94505,49.51024],[-121.94473,49.51029],[-121.9444,49.51034],[-121.94408,49.51044],[-121.94376,49.51052],[-121.94352,49.51059],[-121.94339,49.51064],[-121.94328,49.51066],[-121.94319,49.51066],[-121.94294,49.51076],[-121.94273,49.5109],[-121.94246,49.51106],[-121.94222,49.51118],[-121.94211,49.51122],[-121.94182,49.5113],[-121.94171,49.51132],[-121.94139,49.51139],[-121.94107,49.5115],[-121.941,49.51151],[-121.94094,49.51153],[-121.94087,49.51154],[-121.94061,49.51162],[-121.94049,49.51166],[-121.94018,49.51174],[-121.9399,49.51186],[-121.93962,49.51194],[-121.93935,49.51195],[-121.93904,49.51195],[-121.93872,49.51195],[-121.93845,49.51196],[-121.93811,49.51204],[-121.93793,49.51211],[-121.93767,49.51222],[-121.93753,49.51225],[-121.93721,49.51225],[-121.9369,49.51218],[-121.93677,49.51216],[-121.93657,49.51213],[-121.93644,49.5121],[-121.93617,49.51208],[-121.93611,49.51208],[-121.93581,49.51204],[-121.9355,49.51202],[-121.93524,49.51197],[-121.93491,49.51193],[-121.93464,49.51189],[-121.93433,49.51189],[-121.93403,49.51188],[-121.93372,49.5119],[-121.93353,49.51194],[-121.93322,49.51204],[-121.93296,49.51214],[-121.9327,49.5122],[-121.93243,49.51232],[-121.93218,49.51242],[-121.93186,49.51254],[-121.93162,49.51265],[-121.93138,49.51277],[-121.93116,49.51293],[-121.93094,49.51307],[-121.9307,49.5132],[-121.93047,49.51334],[-121.93026,49.51346],[-121.9301,49.5136],[-121.92996,49.51363],[-121.92975,49.51405],[-121.92961,49.51423],[-121.9294,49.51444],[-121.92934,49.51452],[-121.92927,49.5147],[-121.92917,49.51487],[-121.92904,49.51505],[-121.92895,49.51524],[-121.92892,49.51543],[-121.92892,49.51563],[-121.92892,49.51568],[-121.92892,49.51575],[-121.92892,49.51579],[-121.92871,49.51592],[-121.92859,49.51602],[-121.92849,49.51621],[-121.92835,49.51637],[-121.92826,49.51648],[-121.92814,49.5166],[-121.92793,49.51679],[-121.92786,49.51687],[-121.92784,49.51707],[-121.92746,49.51719],[-121.92717,49.51734],[-121.9269,49.51746],[-121.92667,49.51755],[-121.9264,49.51764],[-121.92611,49.51772],[-121.92604,49.51774],[-121.92576,49.51784],[-121.9255,49.51795],[-121.92526,49.51805],[-121.92515,49.51809],[-121.92483,49.51816],[-121.9245,49.51817],[-121.92428,49.51822],[-121.92419,49.51823],[-121.92393,49.51836],[-121.92373,49.51852],[-121.92358,49.51861],[-121.92355,49.51865],[-121.92349,49.51868],[-121.92331,49.51885],[-121.92311,49.519],[-121.92292,49.51904],[-121.92265,49.51918],[-121.92234,49.51933],[-121.92222,49.51937],[-121.92211,49.51943],[-121.92208,49.51946],[-121.92176,49.51961],[-121.92156,49.51968],[-121.92151,49.5197],[-121.92141,49.51974],[-121.92115,49.51982],[-121.92087,49.51988],[-121.92065,49.51991],[-121.92055,49.51992],[-121.92024,49.51991],[-121.91994,49.51991],[-121.91965,49.51991],[-121.91935,49.51992],[-121.91904,49.51991],[-121.91892,49.51992],[-121.91877,49.51993],[-121.91845,49.51995],[-121.91827,49.51998],[-121.91792,49.51999],[-121.91759,49.51999],[-121.91729,49.51999],[-121.91701,49.51999],[-121.91673,49.51999],[-121.9164,49.51999],[-121.9161,49.51995],[-121.91549,49.51981],[-121.91523,49.51979],[-121.91493,49.51975],[-121.91469,49.51974],[-121.91458,49.51972],[-121.91442,49.51966],[-121.91438,49.51964],[-121.91408,49.51952],[-121.91404,49.51951],[-121.91397,49.51947],[-121.91374,49.5193],[-121.91363,49.51924],[-121.91352,49.51924],[-121.91341,49.5192],[-121.91337,49.51906],[-121.91329,49.519],[-121.91312,49.51895],[-121.9129,49.51884],[-121.91266,49.51858],[-121.91239,49.5184],[-121.91216,49.5183],[-121.9119,49.51819],[-121.91173,49.51812],[-121.91171,49.51809],[-121.91154,49.51802],[-121.91124,49.51785]]}},
{"type":"Feature","properties":{"spotId":"B-grouse-drive-0014","kind":"roadside","km":5.38,"climbM":111,"name":"310 m NE of Twenty Mile Creek","flags":[]},"geometry":{"type":"LineString","coordinates":[[-121.89968,49.54369],[-121.90001,49.5437],[-121.90029,49.5437],[-121.90062,49.5437],[-121.90095,49.5437],[-121.90129,49.54371],[-121.90161,49.5437],[-121.90194,49.54371],[-121.90226,49.54371],[-121.90254,49.54371],[-121.9027,49.54376],[-121.90299,49.5438],[-121.90313,49.54383],[-121.90329,49.54388],[-121.90342,49.54391],[-121.90373,49.54401],[-121.90386,49.54407],[-121.9041,49.54418],[-121.90421,49.54422],[-121.90435,49.54429],[-121.90451,49.54444],[-121.9047,49.54463],[-121.90484,49.54478],[-121.90509,49.545],[-121.90508,49.54519],[-121.90513,49.54534],[-121.90515,49.54548],[-121.90515,49.54553],[-121.90516,49.54569],[-121.90516,49.54573],[-121.90516,49.54591],[-121.9052,49.54601],[-121.90532,49.54623],[-121.90525,49.54648],[-121.90524,49.54653],[-121.90517,49.54659],[-121.90506,49.54669],[-121.90489,49.54684],[-121.90472,49.54701],[-121.90458,49.54714],[-121.90446,49.54736],[-121.9043,49.54754],[-121.90415,49.54772],[-121.90401,49.54791],[-121.90386,49.5481],[-121.90383,49.5483],[-121.90383,49.54848],[-121.90384,49.54866],[-121.90385,49.54888],[-121.90384,49.54909],[-121.90385,49.54927],[-121.90385,49.54948],[-121.90387,49.54968],[-121.90386,49.54989],[-121.90388,49.54991],[-121.904,49.55008],[-121.90414,49.55019],[-121.90418,49.55022],[-121.90441,49.55042],[-121.90451,49.55054],[-121.90469,49.5507],[-121.90491,49.55087],[-121.90515,49.55101],[-121.90543,49.55115],[-121.9057,49.55128],[-121.90599,49.55138],[-121.90624,49.55147],[-121.90651,49.55156],[-121.90676,49.55166],[-121.90699,49.55182],[-121.90701,49.55187],[-121.90711,49.55206],[-121.9072,49.55226],[-121.90731,49.55246],[-121.90736,49.55254],[-121.90744,49.55266],[-121.90756,49.55286],[-121.90769,49.55306],[-121.90784,49.55326],[-121.908,49.55346],[-121.90816,49.55366],[-121.90828,49.55381],[-121.90839,49.55402],[-121.9085,49.55419],[-121.90858,49.55437],[-121.90867,49.55455],[-121.90876,49.55474],[-121.90884,49.55492],[-121.90891,49.5551],[-121.90896,49.55521],[-121.90908,49.5554],[-121.90919,49.55558],[-121.90921,49.55561],[-121.90928,49.5557],[-121.90943,49.55587],[-121.90958,49.55606],[-121.9097,49.55625],[-121.90983,49.55645],[-121.90991,49.55663],[-121.90996,49.55683],[-121.91001,49.55702],[-121.91008,49.55721],[-121.91017,49.5574],[-121.91026,49.55759],[-121.91034,49.55779],[-121.91043,49.55799],[-121.91051,49.55818],[-121.9106,49.55837],[-121.91062,49.55844],[-121.91068,49.55863],[-121.91073,49.55883],[-121.9108,49.55902],[-121.91085,49.55922],[-121.9109,49.55942],[-121.91098,49.55962],[-121.91104,49.55982],[-121.91113,49.56001],[-121.91123,49.56018],[-121.91125,49.56021],[-121.91137,49.56044],[-121.91144,49.5606],[-121.91156,49.56081],[-121.91166,49.56105],[-121.91173,49.56123],[-121.91177,49.56128],[-121.91186,49.56152],[-121.91197,49.56173],[-121.91203,49.56184],[-121.91207,49.56191],[-121.91217,49.5621],[-121.91224,49.56231],[-121.91234,49.56251],[-121.91243,49.56271],[-121.91252,49.56291],[-121.91263,49.5631],[-121.91271,49.5633],[-121.91277,49.56349],[-121.91285,49.56367],[-121.91291,49.56386],[-121.91295,49.56397],[-121.91298,49.56405],[-121.91306,49.56424],[-121.91318,49.56445],[-121.91326,49.56467],[-121.91333,49.56487],[-121.91341,49.56509],[-121.91348,49.56529],[-121.9136,49.5655],[-121.91369,49.56568],[-121.91377,49.56591],[-121.91385,49.56609],[-121.91399,49.56631],[-121.91414,49.56649],[-121.91428,49.56669],[-121.91442,49.56688],[-121.91454,49.56705],[-121.91473,49.56726],[-121.91488,49.56744],[-121.91512,49.56784],[-121.91529,49.56822],[-121.91539,49.56839],[-121.91554,49.56852],[-121.91558,49.56856],[-121.9157,49.56864],[-121.91595,49.56877],[-121.91619,49.56893],[-121.91631,49.56903],[-121.91659,49.5692],[-121.91665,49.56924],[-121.91682,49.56934],[-121.91701,49.56949],[-121.91724,49.56963],[-121.91738,49.56969],[-121.91754,49.56974],[-121.91783,49.56974],[-121.91805,49.56974],[-121.9183,49.56976],[-121.91833,49.56976],[-121.91859,49.56985],[-121.91879,49.57001],[-121.91886,49.5701],[-121.91901,49.57028],[-121.91914,49.57047],[-121.91928,49.57066],[-121.91938,49.57085],[-121.91952,49.57104],[-121.91961,49.57123],[-121.91966,49.57142],[-121.91975,49.57161],[-121.91979,49.57182],[-121.9198,49.5719],[-121.91983,49.57202],[-121.91977,49.57223],[-121.91967,49.57241],[-121.91954,49.57259],[-121.91942,49.57278],[-121.91934,49.57298],[-121.91926,49.57318],[-121.91925,49.57337],[-121.91919,49.57355],[-121.91911,49.57373],[-121.91905,49.57395],[-121.91904,49.57411],[-121.91903,49.57434],[-121.91907,49.57454],[-121.91909,49.57462],[-121.91924,49.57477],[-121.91923,49.57489],[-121.91931,49.57503],[-121.91933,49.57508],[-121.91951,49.57528],[-121.91961,49.57546],[-121.91972,49.57565],[-121.91981,49.57585],[-121.91991,49.57605],[-121.92011,49.57626],[-121.92024,49.57647],[-121.92038,49.57667],[-121.92044,49.57686],[-121.92055,49.57703],[-121.92067,49.5772],[-121.9208,49.5774],[-121.92094,49.57753],[-121.92099,49.57762],[-121.92117,49.5778],[-121.92138,49.57802],[-121.92144,49.57807],[-121.92157,49.5782],[-121.92165,49.57827],[-121.92174,49.57837],[-121.92188,49.57852],[-121.92203,49.57868],[-121.92221,49.57884],[-121.92237,49.57901],[-121.92258,49.57918],[-121.92284,49.57932],[-121.92312,49.57943],[-121.92317,49.57945],[-121.92344,49.57952],[-121.92374,49.57956],[-121.92402,49.57956],[-121.92431,49.5796],[-121.92457,49.57969],[-121.92463,49.57973],[-121.92476,49.57983],[-121.92491,49.57998],[-121.92506,49.58015],[-121.92508,49.58022],[-121.92507,49.58036],[-121.92507,49.58042],[-121.92499,49.58062],[-121.925,49.58071],[-121.92504,49.58092],[-121.92519,49.58112],[-121.9252,49.58131],[-121.92521,49.5815],[-121.92523,49.58161],[-121.92525,49.58169],[-121.92532,49.58188],[-121.92546,49.58206],[-121.92551,49.58216],[-121.92562,49.58235],[-121.92567,49.58257],[-121.92569,49.58279],[-121.92573,49.58299],[-121.92575,49.58319],[-121.92578,49.58336],[-121.92584,49.58357],[-121.92589,49.58378],[-121.92593,49.58398],[-121.92596,49.58406]]}},
{"type":"Feature","properties":{"spotId":"B-grouse-drive-0017","kind":"roadside","km":4.26,"climbM":57,"name":"By Big Silver Creek","flags":[]},"geometry":{"type":"LineString","coordinates":[[-121.85524,49.70368],[-121.85521,49.70361],[-121.85521,49.7035],[-121.85518,49.70332],[-121.85517,49.70311],[-121.85509,49.70287],[-121.85501,49.70263],[-121.85502,49.70244],[-121.85504,49.70224],[-121.85512,49.70205],[-121.85506,49.7018],[-121.85489,49.70159],[-121.8548,49.70151],[-121.85467,49.70132],[-121.85449,49.70113],[-121.85429,49.70094],[-121.85411,49.70076],[-121.85398,49.70057],[-121.85389,49.70039],[-121.85381,49.70021],[-121.85374,49.7],[-121.85368,49.69984],[-121.85361,49.69965],[-121.85345,49.69946],[-121.8533,49.69925],[-121.85323,49.69903],[-121.85319,49.69888],[-121.85303,49.69845],[-121.85298,49.69828],[-121.85287,49.69809],[-121.85277,49.69792],[-121.8526,49.69775],[-121.85252,49.69761],[-121.85265,49.6974],[-121.85294,49.69721],[-121.85301,49.69715],[-121.85301,49.69695],[-121.853,49.69677],[-121.85295,49.69658],[-121.85286,49.69637],[-121.85279,49.69616],[-121.8527,49.69594],[-121.85264,49.69574],[-121.85259,49.69552],[-121.85252,49.69531],[-121.85247,49.6951],[-121.85249,49.69493],[-121.8526,49.69477],[-121.85273,49.69461],[-121.85297,49.69447],[-121.85318,49.69429],[-121.85341,49.69415],[-121.85368,49.69397],[-121.85393,49.69386],[-121.85418,49.69375],[-121.8545,49.69364],[-121.85476,49.69352],[-121.85502,49.69333],[-121.85519,49.69313],[-121.85528,49.69296],[-121.85538,49.69274],[-121.85548,49.69265],[-121.85562,49.69259],[-121.85591,49.6926],[-121.85613,49.69265],[-121.85644,49.69268],[-121.85674,49.69266],[-121.85708,49.69263],[-121.85734,49.69262],[-121.85759,49.6926],[-121.85777,49.69258],[-121.85809,49.69254],[-121.85823,49.69251],[-121.8584,49.69246],[-121.85855,49.69241],[-121.85874,49.69234],[-121.85904,49.69217],[-121.8593,49.692],[-121.85951,49.69183],[-121.85972,49.69169],[-121.85985,49.69161],[-121.86005,49.69142],[-121.86023,49.69125],[-121.86041,49.6911],[-121.86056,49.69095],[-121.8607,49.69081],[-121.8608,49.69069],[-121.86091,49.69058],[-121.86101,49.69047],[-121.86124,49.69025],[-121.86155,49.69006],[-121.86182,49.68985],[-121.862,49.68968],[-121.86209,49.68957],[-121.86213,49.68945],[-121.86219,49.68925],[-121.86221,49.68905],[-121.8622,49.68894],[-121.8622,49.68871],[-121.86218,49.6885],[-121.86217,49.6883],[-121.86216,49.68811],[-121.86215,49.68799],[-121.86221,49.6878],[-121.86235,49.68762],[-121.86251,49.68745],[-121.86262,49.68731],[-121.86281,49.68714],[-121.86301,49.68696],[-121.86314,49.68677],[-121.86324,49.68657],[-121.8633,49.68636],[-121.86334,49.68624],[-121.86342,49.68604],[-121.86348,49.68583],[-121.86354,49.68568],[-121.86357,49.68553],[-121.86358,49.6854],[-121.86362,49.68519],[-121.86363,49.68502],[-121.86364,49.68457],[-121.86366,49.68437],[-121.86364,49.68422],[-121.86364,49.68407],[-121.86363,49.68386],[-121.86357,49.6837],[-121.8635,49.68353],[-121.86342,49.68332],[-121.86334,49.68316],[-121.86328,49.68295],[-121.86319,49.68278],[-121.86312,49.68264],[-121.86301,49.68245],[-121.86292,49.68229],[-121.86279,49.68211],[-121.86262,49.68192],[-121.86249,49.68173],[-121.86237,49.68158],[-121.86226,49.68142],[-121.86211,49.6812],[-121.86194,49.68099],[-121.86175,49.68078],[-121.86162,49.68058],[-121.86155,49.68044],[-121.86144,49.68023],[-121.86131,49.68003],[-121.86119,49.67983],[-121.86117,49.67971],[-121.86113,49.67959],[-121.86106,49.67947],[-121.86098,49.67935],[-121.86089,49.67923],[-121.86072,49.67901],[-121.86065,49.6788],[-121.86062,49.67857],[-121.86061,49.67839],[-121.86061,49.67818],[-121.8606,49.67797],[-121.86055,49.67779],[-121.86043,49.67746],[-121.86038,49.67729],[-121.86037,49.67711],[-121.86036,49.67691],[-121.86035,49.67679],[-121.86034,49.67666],[-121.86031,49.67658],[-121.8603,49.67654],[-121.86026,49.67643],[-121.86007,49.67605],[-121.86005,49.67583],[-121.86005,49.67563],[-121.86009,49.67545],[-121.86013,49.67523],[-121.86018,49.67512],[-121.86019,49.67499],[-121.86023,49.67486],[-121.86024,49.67467],[-121.86028,49.6745],[-121.86027,49.67435],[-121.86024,49.67419],[-121.86022,49.67399],[-121.86021,49.67382],[-121.86021,49.67366],[-121.86025,49.67326],[-121.86027,49.67307],[-121.8603,49.67288],[-121.86028,49.67267],[-121.86001,49.67231],[-121.85991,49.67216],[-121.85979,49.67196],[-121.85967,49.67174],[-121.85958,49.67158],[-121.85949,49.67143],[-121.85946,49.6713],[-121.8594,49.67109],[-121.85929,49.67091],[-121.8592,49.67073],[-121.85898,49.67053],[-121.85878,49.67035],[-121.85871,49.67028]]}},
{"type":"Feature","properties":{"spotId":"B-grouse-drive-0024","kind":"roadside","km":4.48,"climbM":272,"name":"By Cogburn Creek","flags":[]},"geometry":{"type":"LineString","coordinates":[[-121.76226,49.53659],[-121.76208,49.53666],[-121.76189,49.53674],[-121.76164,49.53684],[-121.76139,49.53697],[-121.76117,49.53711],[-121.76095,49.53728],[-121.76069,49.53747],[-121.76049,49.53762],[-121.76037,49.53781],[-121.76029,49.53788],[-121.76023,49.53808],[-121.76021,49.53813],[-121.76013,49.53832],[-121.76011,49.53884],[-121.76027,49.53904],[-121.76034,49.53914],[-121.76047,49.53933],[-121.76054,49.53955],[-121.76048,49.53974],[-121.76041,49.53986],[-121.76001,49.54018],[-121.75997,49.54024],[-121.75995,49.54045],[-121.75994,49.54064],[-121.75995,49.54076],[-121.76,49.54101],[-121.76001,49.5412],[-121.76001,49.54139],[-121.76002,49.54158],[-121.76,49.54178],[-121.75994,49.54198],[-121.75988,49.54208],[-121.75964,49.54223],[-121.75911,49.54248],[-121.75887,49.54263],[-121.75863,49.54276],[-121.7583,49.54295],[-121.75796,49.54303],[-121.75757,49.54322],[-121.75739,49.54338],[-121.75734,49.54344],[-121.75729,49.5435],[-121.75719,49.54358],[-121.7569,49.54366],[-121.75662,49.54368],[-121.75634,49.54369],[-121.75602,49.54369],[-121.75573,49.54373],[-121.7557,49.54373],[-121.75544,49.54379],[-121.75512,49.54386],[-121.75479,49.54387],[-121.75448,49.54387],[-121.75421,49.54384],[-121.75415,49.54382],[-121.75393,49.54375],[-121.75366,49.54369],[-121.75349,49.54365],[-121.75319,49.54361],[-121.75292,49.54358],[-121.75264,49.54357],[-121.75238,49.5436],[-121.75224,49.54367],[-121.75201,49.54378],[-121.75183,49.54393],[-121.75171,49.54411],[-121.75159,49.54428],[-121.75155,49.54439],[-121.75147,49.54459],[-121.75145,49.54464],[-121.75142,49.54484],[-121.75139,49.54494],[-121.75138,49.54512],[-121.75135,49.54532],[-121.75129,49.54551],[-121.75119,49.54571],[-121.75109,49.5459],[-121.75092,49.54608],[-121.75076,49.54625],[-121.75053,49.54646],[-121.75042,49.54658],[-121.75036,49.54665],[-121.75016,49.54706],[-121.75017,49.54715],[-121.75015,49.54733],[-121.75006,49.54753],[-121.74999,49.54771],[-121.74995,49.54787],[-121.74994,49.54789],[-121.74995,49.54807],[-121.74996,49.54824],[-121.74997,49.54845],[-121.74997,49.54852],[-121.74998,49.54857],[-121.74994,49.54866],[-121.74988,49.54867],[-121.74967,49.54874],[-121.74937,49.54874],[-121.74912,49.54872],[-121.74885,49.54871],[-121.74872,49.5487],[-121.74842,49.5487],[-121.74808,49.54876],[-121.74794,49.5488],[-121.74772,49.5489],[-121.74754,49.54905],[-121.74738,49.54922],[-121.74701,49.54953],[-121.74677,49.54974],[-121.74668,49.54994],[-121.74671,49.55005],[-121.74672,49.55018],[-121.74671,49.55048],[-121.74666,49.55052],[-121.7465,49.55064],[-121.74621,49.55075],[-121.7461,49.55083],[-121.74583,49.55096],[-121.74569,49.55111],[-121.74565,49.5513],[-121.74569,49.5515],[-121.74572,49.55157],[-121.74573,49.55177],[-121.74572,49.55196],[-121.74573,49.55216],[-121.74567,49.55238],[-121.74557,49.55256],[-121.74534,49.55275],[-121.74503,49.55292],[-121.74499,49.55297],[-121.74499,49.55299],[-121.74488,49.5531],[-121.74471,49.55325],[-121.74452,49.5534],[-121.74431,49.55354],[-121.74411,49.55369],[-121.74393,49.55385],[-121.74376,49.55404],[-121.74363,49.55425],[-121.74347,49.55443],[-121.74323,49.5546],[-121.74312,49.55472],[-121.74295,49.5549],[-121.74264,49.55502],[-121.74246,49.5551],[-121.74232,49.55522],[-121.74218,49.55528],[-121.74206,49.55545],[-121.74201,49.55551],[-121.7419,49.55572],[-121.74189,49.5559],[-121.74184,49.5561],[-121.74181,49.55629],[-121.74179,49.55641],[-121.74177,49.55648],[-121.74174,49.5567],[-121.74169,49.55691],[-121.74166,49.5571],[-121.74162,49.55729],[-121.74158,49.5575],[-121.74157,49.55758],[-121.74148,49.5576],[-121.7412,49.55767],[-121.74107,49.55767],[-121.74059,49.55743],[-121.74047,49.55723],[-121.74031,49.55705],[-121.74013,49.55687],[-121.74011,49.55684],[-121.74009,49.5568],[-121.74004,49.5566],[-121.74003,49.55642],[-121.73996,49.55624],[-121.73994,49.55621],[-121.73985,49.55611],[-121.73962,49.556],[-121.73945,49.55586],[-121.73943,49.55582],[-121.73927,49.55564],[-121.73914,49.55551],[-121.73913,49.55548],[-121.73916,49.55537],[-121.7392,49.55533],[-121.73922,49.5553],[-121.7394,49.55511],[-121.73957,49.55492],[-121.7397,49.55472],[-121.73982,49.55453],[-121.73989,49.55435],[-121.73989,49.55431],[-121.73987,49.55425],[-121.73967,49.5541],[-121.73949,49.55392],[-121.73946,49.5539],[-121.73945,49.55387],[-121.73944,49.5538],[-121.7394,49.55378],[-121.73926,49.55364],[-121.73899,49.55346],[-121.73881,49.55331],[-121.73853,49.55312],[-121.73834,49.55298],[-121.73812,49.55285],[-121.73782,49.55286],[-121.73751,49.55292],[-121.73718,49.55297],[-121.73711,49.55298],[-121.73683,49.55303],[-121.73673,49.55304],[-121.73654,49.55305],[-121.73619,49.55305],[-121.73589,49.55305],[-121.73557,49.55305],[-121.7355,49.55305],[-121.73546,49.55306],[-121.73522,49.55313],[-121.73497,49.55328],[-121.73473,49.55344],[-121.73459,49.55349],[-121.73431,49.55356],[-121.73408,49.5537],[-121.73385,49.55384],[-121.73375,49.55392],[-121.73365,49.55399],[-121.7334,49.55411],[-121.73321,49.55413],[-121.73307,49.55415],[-121.73281,49.55408],[-121.73253,49.55407],[-121.73224,49.55408],[-121.73194,49.55408],[-121.73176,49.55403],[-121.73166,49.554],[-121.73134,49.55397],[-121.73103,49.5539],[-121.7308,49.5539]]}},
{"type":"Feature","properties":{"spotId":"B-grouse-drive-0031","kind":"roadside","km":5.02,"climbM":192,"name":"160 m W of Harrison Lake","flags":[]},"geometry":{"type":"LineString","coordinates":[[-121.984,49.64245],[-121.98394,49.6426],[-121.98392,49.64276],[-121.98392,49.64289],[-121.98397,49.64298],[-121.98413,49.64313],[-121.98434,49.64333],[-121.98445,49.64348],[-121.98448,49.64367],[-121.98447,49.64383],[-121.98446,49.64408],[-121.98444,49.64427],[-121.9845,49.64443],[-121.98462,49.64459],[-121.98481,49.64475],[-121.98505,49.64487],[-121.98532,49.64496],[-121.9856,49.64506],[-121.98586,49.64521],[-121.98607,49.64539],[-121.98619,49.64552],[-121.98635,49.64572],[-121.98649,49.64589],[-121.98658,49.64609],[-121.98661,49.64615],[-121.98666,49.64627],[-121.98673,49.6464],[-121.98678,49.6465],[-121.98685,49.64666],[-121.98693,49.6468],[-121.98702,49.64693],[-121.98705,49.64698],[-121.98714,49.64713],[-121.98723,49.64728],[-121.98738,49.64746],[-121.98757,49.64768],[-121.98773,49.64788],[-121.98783,49.64801],[-121.98792,49.64811],[-121.98817,49.64836],[-121.98825,49.64847],[-121.9883,49.64868],[-121.98834,49.64888],[-121.98838,49.64901],[-121.98844,49.64913],[-121.98854,49.64926],[-121.98871,49.64943],[-121.98888,49.64962],[-121.989,49.64971],[-121.98919,49.6499],[-121.98935,49.65005],[-121.98938,49.65016],[-121.98935,49.65036],[-121.98936,49.65046],[-121.98937,49.65067],[-121.98942,49.65072],[-121.98954,49.65092],[-121.98969,49.65112],[-121.98985,49.65133],[-121.98988,49.65139],[-121.98993,49.6515],[-121.99008,49.65172],[-121.99017,49.65183],[-121.99047,49.65217],[-121.99065,49.65235],[-121.99082,49.65253],[-121.99099,49.65272],[-121.99109,49.65286],[-121.9912,49.65303],[-121.99134,49.65323],[-121.9915,49.65345],[-121.99166,49.65364],[-121.99173,49.65374],[-121.99188,49.6539],[-121.99216,49.65428],[-121.99234,49.6545],[-121.99244,49.6547],[-121.99252,49.6549],[-121.99255,49.65505],[-121.99258,49.6552],[-121.99277,49.65564],[-121.99282,49.65574],[-121.99285,49.6558],[-121.99297,49.65601],[-121.99312,49.65616],[-121.99338,49.65636],[-121.99361,49.65653],[-121.99373,49.65662],[-121.99392,49.65674],[-121.99417,49.65684],[-121.9945,49.65696],[-121.99468,49.65707],[-121.99471,49.65709],[-121.99486,49.65724],[-121.99506,49.6574],[-121.99509,49.65743],[-121.99529,49.65759],[-121.99554,49.6578],[-121.99577,49.65799],[-121.99596,49.65816],[-121.99615,49.65833],[-121.99633,49.65848],[-121.99656,49.65868],[-121.99687,49.6589],[-121.99715,49.6591],[-121.99731,49.65923],[-121.99751,49.65945],[-121.99754,49.65948],[-121.99765,49.65962],[-121.9978,49.65981],[-121.99786,49.65999],[-121.99786,49.66009],[-121.99786,49.66012],[-121.99787,49.66019],[-121.99788,49.66032],[-121.99788,49.66039],[-121.99789,49.66052],[-121.99789,49.66072],[-121.99788,49.66086],[-121.9979,49.66099],[-121.99792,49.66111],[-121.99793,49.66126],[-121.9979,49.66141],[-121.9978,49.66157],[-121.99771,49.66179],[-121.99763,49.66196],[-121.99744,49.66214],[-121.99719,49.66236],[-121.99711,49.66239],[-121.99691,49.66248],[-121.99669,49.66253],[-121.99638,49.66249],[-121.99618,49.66243],[-121.99585,49.66227],[-121.99563,49.66216],[-121.99534,49.66207],[-121.99495,49.66193],[-121.99469,49.66187],[-121.99443,49.66182],[-121.99422,49.6618],[-121.99393,49.66182],[-121.99389,49.66186],[-121.99397,49.66191],[-121.99423,49.66195],[-121.99433,49.66199],[-121.99486,49.66221],[-121.99514,49.66242],[-121.99524,49.6626],[-121.99532,49.66273],[-121.99542,49.66294],[-121.99554,49.66311],[-121.99574,49.66328],[-121.99603,49.66341],[-121.99621,49.66346],[-121.9964,49.66356],[-121.99652,49.66368],[-121.99674,49.66382],[-121.99698,49.66395],[-121.99724,49.66408],[-121.99747,49.6642],[-121.99772,49.66428],[-121.99799,49.66439],[-121.9983,49.66447],[-121.99874,49.66458],[-121.99887,49.66467],[-121.99912,49.66485],[-121.9993,49.66501],[-121.99956,49.66523],[-121.99983,49.66544],[-122.00002,49.66565],[-122.00022,49.66581],[-122.00046,49.66594],[-122.00066,49.66607],[-122.00095,49.66618],[-122.00127,49.66625],[-122.00156,49.66635],[-122.00186,49.66638],[-122.00219,49.66634],[-122.0024,49.66631],[-122.00285,49.6662],[-122.0034,49.66619],[-122.00355,49.66618],[-122.00403,49.66619],[-122.00432,49.66621],[-122.00445,49.66623],[-122.00451,49.66623],[-122.00456,49.66624],[-122.00463,49.66625],[-122.00495,49.66636],[-122.00518,49.66643],[-122.00528,49.66645],[-122.0054,49.6665],[-122.0055,49.6665],[-122.00578,49.66656],[-122.00605,49.66665],[-122.00633,49.66678],[-122.00663,49.66688],[-122.00689,49.66695],[-122.00718,49.667],[-122.00786,49.667],[-122.00815,49.66707],[-122.00843,49.66717],[-122.0087,49.66728],[-122.009,49.66735],[-122.00928,49.66744],[-122.00953,49.66758],[-122.00979,49.66771],[-122.01008,49.66778],[-122.01039,49.66784],[-122.01071,49.66793],[-122.01097,49.66804],[-122.01123,49.66818],[-122.01129,49.6682],[-122.01141,49.66825],[-122.01148,49.66829],[-122.01197,49.66851],[-122.01228,49.66861],[-122.01259,49.66872],[-122.01281,49.66883],[-122.01306,49.66894],[-122.01312,49.66897],[-122.01331,49.66904],[-122.01356,49.66915],[-122.01383,49.66925],[-122.01409,49.66934],[-122.01435,49.6694],[-122.01463,49.6694],[-122.01474,49.66935],[-122.01501,49.66928],[-122.0153,49.66917],[-122.01537,49.66918],[-122.01551,49.66932],[-122.01559,49.6694],[-122.01572,49.66948],[-122.01587,49.66963],[-122.01598,49.6698],[-122.01617,49.67],[-122.01638,49.67012],[-122.01647,49.67014],[-122.01675,49.67016],[-122.01708,49.67017],[-122.01732,49.67029],[-122.01758,49.67041],[-122.01785,49.67053],[-122.01814,49.67061],[-122.01845,49.67062],[-122.01874,49.67064],[-122.01886,49.67068],[-122.01905,49.67081]]}},
{"type":"Feature","properties":{"spotId":"B-grouse-drive-0045","kind":"roadside","km":3.07,"climbM":401,"name":"By Big Silver Creek","flags":[]},"geometry":{"type":"LineString","coordinates":[[-121.8611,49.66628],[-121.86143,49.66643],[-121.86175,49.66661],[-121.86198,49.66671],[-121.86228,49.66684],[-121.86258,49.667],[-121.86265,49.66703],[-121.86287,49.66715],[-121.86315,49.66731],[-121.86324,49.66743],[-121.86319,49.66759],[-121.86308,49.66773],[-121.86297,49.66789],[-121.86284,49.66804],[-121.86268,49.66823],[-121.86272,49.66834],[-121.86282,49.6684],[-121.86302,49.6684],[-121.86323,49.66834],[-121.86333,49.66831],[-121.86365,49.66819],[-121.86397,49.66804],[-121.8643,49.66788],[-121.86441,49.66773],[-121.86448,49.66761],[-121.86456,49.66748],[-121.86463,49.66737],[-121.86476,49.66717],[-121.86483,49.66701],[-121.86489,49.66685],[-121.86495,49.6667],[-121.86499,49.66654],[-121.86504,49.66636],[-121.86507,49.66627],[-121.8651,49.66604],[-121.86513,49.66591],[-121.86525,49.66567],[-121.86535,49.66546],[-121.86533,49.66525],[-121.86525,49.66506],[-121.86517,49.66501],[-121.86499,49.6649],[-121.86473,49.66472],[-121.86449,49.66453],[-121.86441,49.66433],[-121.86444,49.66419],[-121.86461,49.66404],[-121.86493,49.66391],[-121.86517,49.66373],[-121.86537,49.66355],[-121.86544,49.66346],[-121.8655,49.66327],[-121.86557,49.66311],[-121.86564,49.66305],[-121.86575,49.66308],[-121.86595,49.66313],[-121.86623,49.66325],[-121.86649,49.66347],[-121.86653,49.66354],[-121.86674,49.66366],[-121.86712,49.66388],[-121.86734,49.66407],[-121.86753,49.66425],[-121.86766,49.66439],[-121.86778,49.66456],[-121.8679,49.66477],[-121.86797,49.66493],[-121.86812,49.6651],[-121.86824,49.66529],[-121.86841,49.66546],[-121.86851,49.66553],[-121.86848,49.66575],[-121.8686,49.66592],[-121.86875,49.66609],[-121.86889,49.66624],[-121.86907,49.66644],[-121.86932,49.66678],[-121.86945,49.66696],[-121.86962,49.66716],[-121.86974,49.66735],[-121.86989,49.66755],[-121.87001,49.66774],[-121.87014,49.6679],[-121.87027,49.66807],[-121.87033,49.66823],[-121.87045,49.66845],[-121.87057,49.66863],[-121.87083,49.66883],[-121.87107,49.66905],[-121.87128,49.66926],[-121.87145,49.66948],[-121.8716,49.66965],[-121.87175,49.66981],[-121.87191,49.66998],[-121.87206,49.67013],[-121.8722,49.67029],[-121.87233,49.67047],[-121.87242,49.67067],[-121.8725,49.67086],[-121.87254,49.67096],[-121.87279,49.67117],[-121.87306,49.67135],[-121.87328,49.67155],[-121.87348,49.67173],[-121.87374,49.67191],[-121.87398,49.67205],[-121.87426,49.67217],[-121.87448,49.67226],[-121.87481,49.67239],[-121.87508,49.6725],[-121.8753,49.67256],[-121.87554,49.67263],[-121.87584,49.67269],[-121.87602,49.67274],[-121.87634,49.67279],[-121.8766,49.67284],[-121.87685,49.67288],[-121.87714,49.67291],[-121.87732,49.67292],[-121.87748,49.67293],[-121.87766,49.67295],[-121.87818,49.67295],[-121.87868,49.67294],[-121.87893,49.67296],[-121.87919,49.67299],[-121.87941,49.67303],[-121.87966,49.67305],[-121.87988,49.67306],[-121.8802,49.67308],[-121.88049,49.67309],[-121.88075,49.67309],[-121.88102,49.67308],[-121.88132,49.67307],[-121.88149,49.67306],[-121.88171,49.67306],[-121.88193,49.67306],[-121.88218,49.67305],[-121.88242,49.67303],[-121.88267,49.673],[-121.88297,49.67299],[-121.88325,49.67298],[-121.88355,49.67298],[-121.88394,49.67296],[-121.88428,49.67296],[-121.88457,49.67297],[-121.88475,49.67296],[-121.88487,49.67296],[-121.88504,49.67296]]}},
{"type":"Feature","properties":{"spotId":"B-grouse-drive-0086","kind":"roadside","km":4.49,"climbM":41,"name":"By Snowshoe Creek","flags":[]},"geometry":{"type":"LineString","coordinates":[[-121.86186,49.7402],[-121.86206,49.74],[-121.86223,49.73984],[-121.86228,49.73962],[-121.8622,49.7394],[-121.86215,49.73919],[-121.86201,49.73895],[-121.86194,49.73875],[-121.86186,49.73854],[-121.86182,49.73834],[-121.86181,49.73815],[-121.86173,49.73794],[-121.8616,49.73774],[-121.86137,49.73757],[-121.86105,49.7374],[-121.8608,49.73724],[-121.8606,49.73712],[-121.86038,49.73701],[-121.86012,49.73689],[-121.8599,49.73674],[-121.85977,49.73658],[-121.85965,49.73638],[-121.85948,49.73615],[-121.85936,49.73597],[-121.85923,49.73576],[-121.85915,49.7355],[-121.85906,49.73528],[-121.85898,49.73507],[-121.85888,49.73486],[-121.85871,49.7347],[-121.85848,49.73448],[-121.85829,49.73428],[-121.85814,49.7341],[-121.85798,49.73392],[-121.85786,49.73373],[-121.85774,49.73356],[-121.85766,49.73337],[-121.85761,49.73318],[-121.85757,49.73298],[-121.8575,49.7328],[-121.85732,49.73261],[-121.85717,49.73243],[-121.85705,49.73223],[-121.85686,49.73204],[-121.8567,49.73182],[-121.85658,49.73161],[-121.8565,49.73138],[-121.85635,49.73118],[-121.85616,49.73098],[-121.856,49.73079],[-121.85587,49.7306],[-121.85571,49.73041],[-121.85556,49.73025],[-121.85544,49.72999],[-121.85537,49.72977],[-121.85519,49.72941],[-121.85507,49.72918],[-121.85493,49.72897],[-121.85477,49.72875],[-121.85462,49.72858],[-121.85448,49.72841],[-121.85431,49.72826],[-121.85407,49.72801],[-121.85392,49.72785],[-121.85379,49.72767],[-121.85365,49.72748],[-121.8535,49.72731],[-121.8533,49.72712],[-121.85312,49.72697],[-121.85295,49.72682],[-121.85291,49.72675],[-121.85291,49.72672],[-121.85295,49.72653],[-121.85292,49.72635],[-121.85274,49.72618],[-121.85264,49.72613],[-121.85245,49.72597],[-121.85228,49.72583],[-121.85204,49.72566],[-121.8518,49.72545],[-121.85168,49.72527],[-121.8515,49.72508],[-121.85139,49.72497],[-121.8512,49.72478],[-121.85108,49.72457],[-121.85103,49.72454],[-121.85085,49.72438],[-121.85074,49.7243],[-121.85061,49.7241],[-121.85052,49.72392],[-121.85038,49.7237],[-121.85029,49.72352],[-121.85021,49.72334],[-121.85011,49.72313],[-121.85001,49.72287],[-121.84996,49.72268],[-121.8499,49.7225],[-121.84981,49.72229],[-121.84974,49.72206],[-121.8496,49.72166],[-121.84951,49.72145],[-121.84947,49.72127],[-121.84945,49.72108],[-121.8494,49.72086],[-121.84933,49.72064],[-121.84925,49.72042],[-121.84912,49.72001],[-121.84897,49.71961],[-121.84892,49.71943],[-121.84884,49.71924],[-121.84882,49.7192],[-121.8488,49.71911],[-121.8488,49.71908],[-121.84879,49.71905],[-121.84878,49.71884],[-121.84879,49.71872],[-121.84895,49.71853],[-121.84918,49.71835],[-121.84939,49.71823],[-121.8497,49.71806],[-121.84998,49.71795],[-121.85033,49.71783],[-121.85048,49.71779],[-121.85072,49.71766],[-121.85081,49.71757],[-121.85085,49.71732],[-121.85091,49.71707],[-121.85092,49.7168],[-121.85094,49.71659],[-121.85095,49.71619],[-121.85097,49.71606],[-121.85098,49.71601],[-121.85101,49.71586],[-121.85114,49.71562],[-121.8512,49.71552],[-121.85126,49.71542],[-121.85137,49.71523],[-121.85145,49.71503],[-121.85149,49.71482],[-121.8515,49.71464],[-121.85152,49.71452],[-121.85145,49.71429],[-121.85143,49.71411],[-121.85143,49.71393],[-121.85153,49.71371],[-121.85169,49.7135],[-121.85178,49.7134],[-121.85207,49.71322],[-121.85209,49.71319],[-121.85241,49.71308],[-121.85269,49.71301],[-121.85298,49.71294],[-121.85325,49.71282],[-121.85336,49.71265],[-121.85338,49.71246],[-121.85339,49.71208],[-121.85345,49.7119],[-121.85365,49.71176],[-121.85397,49.7116],[-121.85415,49.71145],[-121.8542,49.71127],[-121.85427,49.71108],[-121.85438,49.71088],[-121.85445,49.71069],[-121.85447,49.71048],[-121.85456,49.71026],[-121.85462,49.71008],[-121.85468,49.7099],[-121.85472,49.70969],[-121.85474,49.70951],[-121.85474,49.70933],[-121.85476,49.70913],[-121.8548,49.70893],[-121.85484,49.70868],[-121.85492,49.70842],[-121.85494,49.70823],[-121.85494,49.70805],[-121.85497,49.70786],[-121.85503,49.70764],[-121.85505,49.7074],[-121.85506,49.70698],[-121.85506,49.70695],[-121.855,49.70673],[-121.85501,49.70651],[-121.85505,49.70627],[-121.8551,49.70609],[-121.85517,49.70589],[-121.85527,49.70571],[-121.85543,49.70555],[-121.85559,49.70538],[-121.85573,49.70528],[-121.85588,49.70507],[-121.8559,49.70489],[-121.85594,49.70471],[-121.85598,49.70452],[-121.85601,49.70433],[-121.85598,49.70414],[-121.85585,49.70406],[-121.85584,49.70401],[-121.85576,49.70393]]}}
]}
