{"type":"FeatureCollection","features":[
{"type":"Feature","properties":{"spotId":"B-duck-drive-0003","kind":"walk","km":0.23,"climbM":5,"name":"Unnamed wetland 170 m E of Stave River","flags":[]},"geometry":{"type":"LineString","coordinates":[[-122.26007,49.49816],[-122.25864,49.49632]]}},
{"type":"Feature","properties":{"spotId":"B-duck-drive-0008","kind":"walk","km":0.05,"climbM":0,"name":"Florence Lake","flags":[]},"geometry":{"type":"LineString","coordinates":[[-122.33181,49.35585],[-122.33129,49.35612]]}},
{"type":"Feature","properties":{"spotId":"B-duck-drive-0015","kind":"walk","km":0.02,"climbM":0,"name":"Unnamed wetland 260 m E of Stave Lake","flags":[]},"geometry":{"type":"LineString","coordinates":[[-122.27249,49.29923],[-122.27226,49.29921]]}},
{"type":"Feature","properties":{"spotId":"B-duck-drive-0024","kind":"walk","km":0.02,"climbM":0,"name":"Unnamed wetland 750 m NW of Weatherhead Creek","flags":[]},"geometry":{"type":"LineString","coordinates":[[-122.25244,49.32327],[-122.25265,49.32334]]}},
{"type":"Feature","properties":{"spotId":"B-duck-drive-0029","kind":"walk","km":0.21,"climbM":0,"name":"Unnamed wetland by Stave Lake","flags":[]},"geometry":{"type":"LineString","coordinates":[[-122.2652,49.2893],[-122.26746,49.28818]]}},
{"type":"Feature","properties":{"spotId":"B-duck-walk-0005","kind":"walk","km":0.84,"climbM":4,"name":"Unnamed wetland 230 m SE of Stave Lake","flags":["Route crosses private land (ParcelMap BC, updated 2026-09-26): get permission first or go around."]},"geometry":{"type":"LineString","coordinates":[[-122.26214,49.26365],[-122.26593,49.27076]]}},
{"type":"Feature","properties":{"spotId":"B-duck-walk-0009","kind":"walk","km":1.25,"climbM":127,"name":"Unnamed wetland 250 m SW of Stave River","flags":[]},"geometry":{"type":"LineString","coordinates":[[-122.23666,49.47713],[-122.25368,49.47914]]}},
{"type":"Feature","properties":{"spotId":"B-grouse-atv-0023","kind":"ride","km":3.0,"climbM":153,"name":"730 m SE of Lost Creek","flags":[]},"geometry":{"type":"LineString","coordinates":[[-122.25028,49.32545],[-122.2501,49.32546],[-122.24988,49.3255],[-122.24963,49.32552],[-122.24934,49.32553],[-122.24907,49.32551],[-122.24872,49.32548],[-122.24868,49.32547],[-122.24837,49.32541],[-122.24833,49.32541],[-122.24807,49.32534],[-122.24775,49.32525],[-122.24767,49.32524],[-122.24737,49.32514],[-122.24729,49.32512],[-122.2472,49.32511],[-122.24693,49.32506],[-122.24689,49.32505],[-122.24663,49.32501],[-122.24634,49.32498],[-122.24613,49.32497],[-122.24581,49.32497],[-122.24569,49.32498],[-122.24536,49.32497],[-122.24532,49.32497],[-122.24507,49.32494],[-122.24499,49.32493],[-122.2448,49.32492],[-122.2447,49.32491],[-122.24443,49.32492],[-122.24416,49.32501],[-122.24405,49.32501],[-122.24395,49.32515],[-122.24381,49.32534],[-122.2438,49.32537],[-122.24378,49.32543],[-122.24378,49.32585],[-122.24379,49.32606],[-122.24379,49.32613],[-122.24381,49.32635],[-122.24378,49.32653],[-122.24373,49.32665],[-122.24371,49.3267],[-122.24358,49.3269],[-122.24355,49.32711],[-122.24355,49.32733],[-122.24348,49.3275],[-122.24342,49.32768],[-122.24336,49.3279],[-122.24332,49.32811],[-122.24326,49.32829],[-122.24324,49.32848],[-122.24317,49.32862],[-122.24304,49.3288],[-122.24292,49.32897],[-122.24282,49.32909],[-122.24268,49.3293],[-122.24264,49.32936],[-122.24259,49.32957],[-122.2426,49.32977],[-122.24259,49.33001],[-122.24256,49.33011],[-122.24246,49.3303],[-122.24235,49.33045],[-122.2423,49.33061],[-122.24226,49.33081],[-122.24225,49.33102],[-122.24226,49.33121],[-122.2423,49.33141],[-122.24236,49.33158],[-122.24238,49.33177],[-122.24239,49.33195],[-122.2424,49.33215],[-122.24232,49.33235],[-122.24215,49.33254],[-122.24201,49.33276],[-122.24188,49.33294],[-122.24188,49.33315],[-122.24192,49.33325],[-122.24198,49.33343],[-122.24199,49.33362],[-122.24196,49.33382],[-122.24188,49.33393],[-122.24184,49.33395],[-122.24181,49.33398],[-122.24153,49.33409],[-122.24139,49.3341],[-122.24108,49.33412],[-122.24077,49.33418],[-122.24047,49.33418],[-122.24043,49.33417],[-122.24031,49.33411],[-122.24013,49.33408],[-122.24006,49.33409],[-122.23977,49.33409],[-122.23947,49.3342],[-122.23931,49.33434],[-122.23926,49.33435],[-122.23901,49.33441],[-122.23895,49.33443],[-122.23858,49.33456],[-122.23832,49.33466],[-122.23805,49.33479],[-122.23785,49.33488],[-122.23762,49.33499],[-122.23754,49.33502],[-122.23733,49.33504],[-122.23702,49.33514],[-122.23695,49.33514],[-122.23664,49.33523],[-122.23635,49.33533],[-122.23631,49.33534],[-122.23624,49.33538],[-122.23612,49.33545],[-122.23605,49.33549],[-122.23577,49.3356],[-122.23556,49.33574],[-122.23548,49.33585],[-122.23541,49.33591],[-122.23518,49.33608],[-122.23514,49.3361],[-122.2348,49.33628],[-122.23452,49.33641],[-122.23425,49.33652],[-122.23402,49.3366],[-122.23377,49.33673],[-122.23353,49.33687],[-122.23335,49.33704],[-122.23313,49.33719],[-122.23292,49.33732],[-122.2327,49.33746],[-122.23266,49.33746],[-122.23241,49.33768],[-122.23231,49.33775],[-122.23211,49.3379],[-122.232,49.33796],[-122.23177,49.33808],[-122.23153,49.3382],[-122.23127,49.33829],[-122.23105,49.33837],[-122.23073,49.33843],[-122.23049,49.33848],[-122.2303,49.33854],[-122.23016,49.33858],[-122.2299,49.33865],[-122.22961,49.33876],[-122.22943,49.3389],[-122.2294,49.33892],[-122.22918,49.3391],[-122.22893,49.33925],[-122.22862,49.33938],[-122.22832,49.33949],[-122.22804,49.33958],[-122.22776,49.33966],[-122.22753,49.33972],[-122.22718,49.33986],[-122.22685,49.33998],[-122.22659,49.34005],[-122.2263,49.34019],[-122.22627,49.34021],[-122.2261,49.34035],[-122.22586,49.34053],[-122.22566,49.34065],[-122.22532,49.34087],[-122.22531,49.34088],[-122.22522,49.34091],[-122.22495,49.34094]]}},
{"type":"Feature","properties":{"spotId":"B-grouse-drive-0051","kind":"roadside","km":3.15,"climbM":24,"name":"280 m SE of Lost Creek","flags":[]},"geometry":{"type":"LineString","coordinates":[[-122.25069,49.33122],[-122.25096,49.33137],[-122.25118,49.33149],[-122.25151,49.3316],[-122.25162,49.33166],[-122.25193,49.33167],[-122.25204,49.33167],[-122.25226,49.33164],[-122.25233,49.33163],[-122.25264,49.33161],[-122.25294,49.33151],[-122.25308,49.33148],[-122.2534,49.33135],[-122.25352,49.33127],[-122.25376,49.3311],[-122.25398,49.33096],[-122.25424,49.33087],[-122.25452,49.33081],[-122.25466,49.33077],[-122.25481,49.3307],[-122.25502,49.33057],[-122.25509,49.33045],[-122.25524,49.33028],[-122.25526,49.33025],[-122.25534,49.3302],[-122.25536,49.33017],[-122.25547,49.32999],[-122.25558,49.32984],[-122.25561,49.32981],[-122.25579,49.32963],[-122.25605,49.3295],[-122.25615,49.32947],[-122.25644,49.32935],[-122.25657,49.32931],[-122.25687,49.32924],[-122.25711,49.32913],[-122.25719,49.32906],[-122.25729,49.329],[-122.25736,49.32892],[-122.2574,49.3289],[-122.25746,49.32878],[-122.25754,49.32871],[-122.25761,49.32866],[-122.25766,49.32861],[-122.25769,49.32859],[-122.25787,49.32849],[-122.25809,49.32843],[-122.25813,49.32843],[-122.25826,49.32839],[-122.2583,49.32839],[-122.25848,49.32833],[-122.25861,49.32827],[-122.25885,49.32817],[-122.25909,49.32807],[-122.25912,49.32804],[-122.25941,49.32791],[-122.25951,49.32786],[-122.25974,49.32773],[-122.25978,49.32769],[-122.26002,49.32751],[-122.26012,49.32736],[-122.26017,49.32731],[-122.2604,49.32712],[-122.26051,49.32698],[-122.26057,49.32692],[-122.26069,49.32671],[-122.26069,49.32668],[-122.26082,49.32648],[-122.26102,49.32628],[-122.2611,49.32619],[-122.26117,49.32619],[-122.26142,49.32618],[-122.26158,49.32612],[-122.26161,49.32609],[-122.26165,49.32607],[-122.26175,49.32599],[-122.26195,49.32579],[-122.26214,49.32564],[-122.26218,49.32564],[-122.26224,49.3256],[-122.26232,49.32559],[-122.26246,49.3256],[-122.26258,49.32565],[-122.26262,49.32568],[-122.26266,49.32577],[-122.26267,49.32591],[-122.26267,49.3261],[-122.26268,49.3263],[-122.26269,49.32636],[-122.26268,49.3264],[-122.26269,49.32644],[-122.26265,49.32658],[-122.26262,49.32661],[-122.26262,49.32664],[-122.26259,49.32667],[-122.26255,49.32679],[-122.26256,49.3269],[-122.26263,49.32701],[-122.26289,49.32715],[-122.26297,49.32715],[-122.26303,49.32712],[-122.26318,49.32702],[-122.26323,49.32699],[-122.26351,49.32688],[-122.26361,49.32686],[-122.26376,49.32681],[-122.26382,49.32678],[-122.26388,49.32677],[-122.26394,49.32674],[-122.2642,49.32663],[-122.26444,49.32653],[-122.26474,49.32641],[-122.26499,49.32627],[-122.26533,49.32605],[-122.26537,49.32603],[-122.26559,49.32591],[-122.2659,49.32579],[-122.26617,49.32571],[-122.26627,49.32569],[-122.26638,49.32564],[-122.2667,49.32555],[-122.26674,49.32554],[-122.26678,49.32551],[-122.26689,49.32549],[-122.26721,49.32541],[-122.26725,49.32539],[-122.26729,49.32538],[-122.26742,49.32532],[-122.2675,49.3253],[-122.26778,49.3252],[-122.26793,49.32516],[-122.26811,49.32513],[-122.2682,49.32511],[-122.26824,49.32511],[-122.26847,49.32507],[-122.26855,49.32506],[-122.26882,49.32501],[-122.26891,49.32499],[-122.26913,49.32495],[-122.26946,49.32494],[-122.26968,49.32496],[-122.26987,49.32501],[-122.27012,49.3251],[-122.27018,49.32515],[-122.27021,49.32517],[-122.27025,49.32519],[-122.27034,49.32527],[-122.27047,49.32538],[-122.27061,49.32555],[-122.27067,49.32564],[-122.27075,49.3257],[-122.27089,49.32589],[-122.2709,49.32592],[-122.27087,49.32606],[-122.27078,49.3261],[-122.27051,49.32622],[-122.27024,49.32634],[-122.27021,49.32637],[-122.27007,49.32649],[-122.27004,49.32651],[-122.26997,49.32662],[-122.26994,49.32665],[-122.2699,49.3267],[-122.26983,49.32675],[-122.26982,49.32684],[-122.26966,49.32702],[-122.26948,49.32724],[-122.26941,49.32737],[-122.26944,49.32743],[-122.26946,49.32745],[-122.2696,49.32751],[-122.26964,49.3275],[-122.26967,49.32748],[-122.26996,49.32731],[-122.27004,49.32726],[-122.27014,49.32722],[-122.27038,49.32709],[-122.27067,49.32689],[-122.27082,49.32681],[-122.27088,49.32679],[-122.27103,49.3267],[-122.27125,49.32657],[-122.2714,49.32641],[-122.27156,49.32631],[-122.27165,49.32625],[-122.2717,49.3262],[-122.27174,49.326],[-122.27177,49.32593],[-122.27183,49.32585],[-122.27188,49.32583],[-122.27192,49.32583],[-122.27214,49.32587],[-122.27218,49.32589],[-122.27221,49.32592],[-122.27222,49.32599],[-122.27219,49.32611],[-122.27217,49.32615],[-122.27209,49.32627],[-122.27201,49.32645],[-122.27197,49.32652],[-122.2719,49.32665],[-122.27188,49.32676],[-122.27181,49.32693],[-122.27181,49.32697],[-122.27172,49.32713],[-122.27149,49.32733],[-122.27118,49.32751],[-122.27107,49.32759],[-122.27104,49.32761],[-122.27094,49.32772],[-122.27086,49.32779],[-122.27064,49.32792],[-122.27043,49.32809],[-122.27035,49.32817],[-122.27029,49.32824],[-122.2703,49.32827],[-122.27034,49.32827],[-122.27039,49.32825],[-122.2705,49.32818],[-122.27066,49.3281],[-122.2708,49.32801],[-122.27097,49.32794],[-122.271,49.32791],[-122.27127,49.32783],[-122.27159,49.32769],[-122.27167,49.32768],[-122.27183,49.32764],[-122.27202,49.32758],[-122.2722,49.3275],[-122.27246,49.32742],[-122.27257,49.32737],[-122.27274,49.32732],[-122.27293,49.32723],[-122.27314,49.32719],[-122.2732,49.32719],[-122.27325,49.32721]]}},
{"type":"Feature","properties":{"spotId":"B-grouse-drive-0058","kind":"roadside","km":4.73,"climbM":131,"name":"240 m NW of Morgan Lake","flags":["Route touches city limits: City of Mission. Local firearm bylaw applies."]},"geometry":{"type":"LineString","coordinates":[[-122.33642,49.35325],[-122.33631,49.3534],[-122.33626,49.3535],[-122.33622,49.3536],[-122.33618,49.35366],[-122.33611,49.35378],[-122.33604,49.35394],[-122.33588,49.35407],[-122.33568,49.35419],[-122.33536,49.35421],[-122.33513,49.3543],[-122.33489,49.35439],[-122.33465,49.35447],[-122.33441,49.35455],[-122.33419,49.35461],[-122.33394,49.35476],[-122.33374,49.35488],[-122.33348,49.35505],[-122.3332,49.35518],[-122.33299,49.35529],[-122.33282,49.35544],[-122.3326,49.35563],[-122.33248,49.35577],[-122.33239,49.35594],[-122.33237,49.356],[-122.33225,49.35619],[-122.33212,49.35646],[-122.33195,49.35669],[-122.33185,49.35688],[-122.33177,49.35699],[-122.33173,49.35719],[-122.33175,49.35731],[-122.332,49.35765],[-122.33207,49.35783],[-122.33213,49.35815],[-122.33208,49.35857],[-122.3321,49.35879],[-122.33215,49.359],[-122.3322,49.3591],[-122.33227,49.35922],[-122.33228,49.35937],[-122.33234,49.35959],[-122.33234,49.35965],[-122.33236,49.35976],[-122.33246,49.35986],[-122.33275,49.36003],[-122.33289,49.36016],[-122.33299,49.36027],[-122.33304,49.36037],[-122.33308,49.36049],[-122.33312,49.36065],[-122.33315,49.36085],[-122.33323,49.36107],[-122.3333,49.36134],[-122.33347,49.36156],[-122.33357,49.36167],[-122.33367,49.36176],[-122.33386,49.362],[-122.334,49.36221],[-122.33415,49.36245],[-122.3343,49.36273],[-122.33448,49.36295],[-122.33458,49.36308],[-122.3347,49.36326],[-122.33475,49.36342],[-122.33474,49.36369],[-122.33464,49.36388],[-122.33442,49.364],[-122.33414,49.36408],[-122.33356,49.36404],[-122.33326,49.36402],[-122.33298,49.36403],[-122.33272,49.36421],[-122.33256,49.36436],[-122.33231,49.36446],[-122.33208,49.36446],[-122.33195,49.36445],[-122.33182,49.36435],[-122.3317,49.36423],[-122.33157,49.36415],[-122.33137,49.36399],[-122.33121,49.36391],[-122.33088,49.3638],[-122.33067,49.36378],[-122.33054,49.36381],[-122.33037,49.36393],[-122.33025,49.36402],[-122.33011,49.36421],[-122.33001,49.36444],[-122.32985,49.36462],[-122.32955,49.36507],[-122.3293,49.36537],[-122.32913,49.3656],[-122.32896,49.36584],[-122.3289,49.36592],[-122.32882,49.36604],[-122.32855,49.36631],[-122.32838,49.36654],[-122.3283,49.36667],[-122.32825,49.36675],[-122.32818,49.36695],[-122.32807,49.36709],[-122.32781,49.36728],[-122.32758,49.36746],[-122.32737,49.36763],[-122.3272,49.36785],[-122.32704,49.36808],[-122.32695,49.36824],[-122.32678,49.36844],[-122.32665,49.3686],[-122.32659,49.36867],[-122.3264,49.36884],[-122.32619,49.36898],[-122.32595,49.36908],[-122.32563,49.36912],[-122.32541,49.36917],[-122.32525,49.36923],[-122.32509,49.36934],[-122.32494,49.36944],[-122.32483,49.3695],[-122.32458,49.36956],[-122.32417,49.3697],[-122.32391,49.3698],[-122.3237,49.36989],[-122.32347,49.36997],[-122.32317,49.3701],[-122.32271,49.37022],[-122.32265,49.37023],[-122.32245,49.37024],[-122.32205,49.37024],[-122.32168,49.37029],[-122.32158,49.37035],[-122.32129,49.37052],[-122.32104,49.37061],[-122.3207,49.37071],[-122.32053,49.37076],[-122.32014,49.37085],[-122.3198,49.37099],[-122.31956,49.37116],[-122.31931,49.37138],[-122.31875,49.37171],[-122.31854,49.37191],[-122.31842,49.37214],[-122.31826,49.37236],[-122.31815,49.37246],[-122.31793,49.37269],[-122.31786,49.37273],[-122.31755,49.37286],[-122.31732,49.37297],[-122.31719,49.37305],[-122.31712,49.37312],[-122.31696,49.37326],[-122.31665,49.37342],[-122.31639,49.37361],[-122.31604,49.37379],[-122.31569,49.37391],[-122.31535,49.37406],[-122.31504,49.37421],[-122.31474,49.37432],[-122.31439,49.37432],[-122.31426,49.37427],[-122.31427,49.37422],[-122.3146,49.374],[-122.3148,49.37389],[-122.31509,49.37376],[-122.31531,49.37357],[-122.31555,49.37336],[-122.31577,49.37314],[-122.31591,49.3729],[-122.31601,49.37264],[-122.31593,49.37262],[-122.31577,49.37265],[-122.31571,49.3727],[-122.31545,49.37286],[-122.31518,49.37304],[-122.31488,49.37319],[-122.31452,49.37329],[-122.31434,49.37335],[-122.314,49.37349],[-122.31373,49.37362],[-122.31364,49.37364],[-122.3133,49.37371],[-122.31284,49.3737],[-122.3126,49.37367],[-122.31258,49.37362],[-122.31261,49.37357],[-122.31268,49.37353],[-122.31301,49.37341],[-122.31329,49.37323],[-122.31349,49.37301],[-122.3137,49.37279],[-122.31395,49.37258],[-122.31413,49.37237],[-122.31434,49.37215],[-122.31442,49.3721],[-122.31466,49.37188],[-122.31466,49.37183],[-122.31464,49.37172],[-122.31462,49.37162],[-122.31454,49.37161],[-122.31439,49.37161],[-122.3142,49.3716],[-122.31414,49.3716],[-122.31382,49.37164],[-122.31342,49.37175],[-122.31317,49.37194],[-122.31306,49.37219],[-122.31281,49.37241],[-122.31256,49.3726],[-122.31239,49.37265],[-122.31205,49.37262],[-122.31206,49.37257],[-122.31214,49.37254],[-122.31231,49.3725],[-122.31239,49.37248],[-122.31246,49.37244],[-122.31248,49.37239],[-122.31259,49.3721],[-122.31269,49.37186],[-122.31274,49.37162],[-122.31293,49.37138],[-122.31306,49.37119]]}}
]}
