{"type":"FeatureCollection","features":[
{"type":"Feature","properties":{"spotId":"B-camp-camp-0061","kind":"walk","km":0.11,"climbM":0,"name":"120 m NE of Mamquam River","flags":[]},"geometry":{"type":"LineString","coordinates":[[-122.89357,49.63606],[-122.89461,49.6353]]}},
{"type":"Feature","properties":{"spotId":"B-deer-atv-0016","kind":"ride","km":3.37,"climbM":7,"name":"450 m NW of Hixon Creek","flags":[]},"geometry":{"type":"LineString","coordinates":[[-122.88275,49.51859],[-122.88267,49.51862],[-122.88241,49.51865],[-122.88228,49.51863],[-122.88216,49.51858],[-122.88209,49.51848],[-122.88207,49.51839],[-122.88208,49.51831],[-122.8821,49.51824],[-122.88224,49.51803],[-122.88256,49.51765],[-122.88275,49.51734],[-122.88279,49.51722],[-122.88288,49.51708],[-122.88297,49.51698],[-122.8831,49.51686],[-122.88326,49.51679],[-122.88348,49.51679],[-122.88373,49.51681],[-122.88393,49.51681],[-122.884,49.5168],[-122.88414,49.51676],[-122.88429,49.51665],[-122.88434,49.5166],[-122.88441,49.51647],[-122.88447,49.51638],[-122.88455,49.51629],[-122.88464,49.51623],[-122.88473,49.51619],[-122.88488,49.51618],[-122.88501,49.51621],[-122.88511,49.51625],[-122.88519,49.51633],[-122.88524,49.51641],[-122.88533,49.5165],[-122.88538,49.51658],[-122.8855,49.51667],[-122.88565,49.51674],[-122.88567,49.51674],[-122.88577,49.51673],[-122.88592,49.51668],[-122.88623,49.51656],[-122.8863,49.51653],[-122.88639,49.51645],[-122.88645,49.51638],[-122.88652,49.51629],[-122.88659,49.51621],[-122.88671,49.51613],[-122.88666,49.51605],[-122.88666,49.51599],[-122.88669,49.51579],[-122.8867,49.51562],[-122.88672,49.5154],[-122.88672,49.51521],[-122.88669,49.51511],[-122.88646,49.51495],[-122.88637,49.51473],[-122.88635,49.51463],[-122.88629,49.51456],[-122.88621,49.5145],[-122.88589,49.51437],[-122.88557,49.51429],[-122.88545,49.51426],[-122.88523,49.51419],[-122.88506,49.51418],[-122.88488,49.51418],[-122.88467,49.51421],[-122.88444,49.51427],[-122.88423,49.51434],[-122.88398,49.51446],[-122.88382,49.51451],[-122.88371,49.51454],[-122.8834,49.5146],[-122.88322,49.51463],[-122.88302,49.51468],[-122.88288,49.51468],[-122.88263,49.5147],[-122.88244,49.51474],[-122.8823,49.51478],[-122.88205,49.5148],[-122.8817,49.51482],[-122.88151,49.51483],[-122.88136,49.51485],[-122.88119,49.51493],[-122.88115,49.51494],[-122.88096,49.51501],[-122.88074,49.51501],[-122.88047,49.51502],[-122.87996,49.51501],[-122.8797,49.51501],[-122.8796,49.51499],[-122.87952,49.51494],[-122.87946,49.51491],[-122.87938,49.51468],[-122.87938,49.51463],[-122.87941,49.51456],[-122.87949,49.51449],[-122.87974,49.51433],[-122.87999,49.51423],[-122.88023,49.51412],[-122.88042,49.51405],[-122.88061,49.51399],[-122.88085,49.5139],[-122.88108,49.51377],[-122.8814,49.51365],[-122.88157,49.51355],[-122.88189,49.51338],[-122.88208,49.51324],[-122.88218,49.51315],[-122.88238,49.51296],[-122.88258,49.51279],[-122.88274,49.51268],[-122.88297,49.51258],[-122.88326,49.51244],[-122.88353,49.51233],[-122.88388,49.51224],[-122.88409,49.51223],[-122.88487,49.51223],[-122.88509,49.51222],[-122.88522,49.51218],[-122.88552,49.51208],[-122.88574,49.51195],[-122.88603,49.51178],[-122.88631,49.51163],[-122.88642,49.51159],[-122.88652,49.51155],[-122.88679,49.51147],[-122.8871,49.51131],[-122.88739,49.51115],[-122.88753,49.51106],[-122.88764,49.51102],[-122.88796,49.51098],[-122.88827,49.51099],[-122.88856,49.51119],[-122.88884,49.51136],[-122.88899,49.51144],[-122.88921,49.51155],[-122.88935,49.51161],[-122.88949,49.51168],[-122.8897,49.51178],[-122.89003,49.51184],[-122.89025,49.51185],[-122.89052,49.51185],[-122.89061,49.5118],[-122.89061,49.51167],[-122.89052,49.51157],[-122.89041,49.51149],[-122.89018,49.51137],[-122.89001,49.51126],[-122.88995,49.51116],[-122.88992,49.51108],[-122.88992,49.51081],[-122.88989,49.51068],[-122.88989,49.51062],[-122.88985,49.5105],[-122.88979,49.51044],[-122.88959,49.51027],[-122.88946,49.51012],[-122.8893,49.5099],[-122.88924,49.50979],[-122.88941,49.50954],[-122.88966,49.50942],[-122.8898,49.50933],[-122.88999,49.50921],[-122.89027,49.509],[-122.89048,49.50885],[-122.89054,49.50874],[-122.8906,49.50857],[-122.89067,49.50841],[-122.89079,49.5082],[-122.89086,49.508],[-122.89089,49.50786],[-122.89091,49.5078],[-122.89096,49.5076],[-122.891,49.50741],[-122.89107,49.50724],[-122.89111,49.50705],[-122.89116,49.50691],[-122.89123,49.50665],[-122.89132,49.50644],[-122.89136,49.50633],[-122.89142,49.50617],[-122.89148,49.50601],[-122.89155,49.50586],[-122.89159,49.50575],[-122.89166,49.50554],[-122.89167,49.50546],[-122.89173,49.50528],[-122.89175,49.50511],[-122.89192,49.50514],[-122.89207,49.50513],[-122.89222,49.50509],[-122.89245,49.50501],[-122.89278,49.50487],[-122.89301,49.5048],[-122.89326,49.50472],[-122.89354,49.5046],[-122.89384,49.50444],[-122.89412,49.50435]]}},
{"type":"Feature","properties":{"spotId":"B-deer-atv-0016","kind":"walk","km":0.04,"climbM":4,"name":"450 m NW of Hixon Creek","flags":[]},"geometry":{"type":"LineString","coordinates":[[-122.88275,49.51859],[-122.88298,49.51889]]}},
{"type":"Feature","properties":{"spotId":"B-deer-walk-0029","kind":"walk","km":0.89,"climbM":288,"name":"360 m NW of Brandt Creek","flags":[]},"geometry":{"type":"LineString","coordinates":[[-122.90763,49.53218],[-122.89714,49.53632]]}},
{"type":"Feature","properties":{"spotId":"B-grouse-atv-0034","kind":"walk","km":1.22,"climbM":248,"name":"300 m NW of Hixon Creek","flags":[]},"geometry":{"type":"LineString","coordinates":[[-122.90178,49.51152],[-122.88545,49.51426]]}},
{"type":"Feature","properties":{"spotId":"B-grouse-atv-0034","kind":"ride","km":3.76,"climbM":301,"name":"300 m NW of Hixon Creek","flags":[]},"geometry":{"type":"LineString","coordinates":[[-122.88545,49.51426],[-122.88557,49.51429],[-122.88589,49.51437],[-122.88621,49.5145],[-122.88629,49.51456],[-122.88635,49.51463],[-122.88637,49.51473],[-122.88646,49.51495],[-122.88669,49.51511],[-122.88672,49.51521],[-122.88672,49.5154],[-122.8867,49.51562],[-122.88669,49.51579],[-122.88666,49.51599],[-122.88666,49.51605],[-122.88671,49.51613],[-122.88694,49.51654],[-122.88699,49.51661],[-122.88702,49.5167],[-122.88711,49.5169],[-122.88713,49.51705],[-122.88713,49.5172],[-122.88711,49.51738],[-122.88708,49.51755],[-122.88704,49.51768],[-122.887,49.51788],[-122.88695,49.5181],[-122.88683,49.51839],[-122.88682,49.51846],[-122.88682,49.51864],[-122.88675,49.51882],[-122.88671,49.51896],[-122.88668,49.51911],[-122.88665,49.51933],[-122.88667,49.51949],[-122.88671,49.51964],[-122.88678,49.51986],[-122.88701,49.52026],[-122.88716,49.52039],[-122.88735,49.52054],[-122.88766,49.52072],[-122.88793,49.52088],[-122.88802,49.52102],[-122.88804,49.52112],[-122.88804,49.52131],[-122.88802,49.52142],[-122.88799,49.52162],[-122.88803,49.52174],[-122.88817,49.52189],[-122.88824,49.52198],[-122.88826,49.52209],[-122.88826,49.52263],[-122.88825,49.52298],[-122.88833,49.52324],[-122.88838,49.52347],[-122.88838,49.52364],[-122.88865,49.52369],[-122.88884,49.52381],[-122.88892,49.52383],[-122.88914,49.52384],[-122.88943,49.52394],[-122.88947,49.52395],[-122.88953,49.52397],[-122.88965,49.52404],[-122.88971,49.52409],[-122.88987,49.52429],[-122.88993,49.52447],[-122.88994,49.52467],[-122.88994,49.52477],[-122.88997,49.52484],[-122.88997,49.52498],[-122.88997,49.52501],[-122.89002,49.52516],[-122.89011,49.52534],[-122.8902,49.52552],[-122.89027,49.52564],[-122.89038,49.52581],[-122.8904,49.52589],[-122.8904,49.52596],[-122.89041,49.52606],[-122.89045,49.52617],[-122.89049,49.52639],[-122.89053,49.52657],[-122.89059,49.52675],[-122.8906,49.52687],[-122.89059,49.52695],[-122.89054,49.52707],[-122.89046,49.52724],[-122.89038,49.52738],[-122.89031,49.52747],[-122.89017,49.52774],[-122.8901,49.52799],[-122.89007,49.52813],[-122.89006,49.52832],[-122.89004,49.52852],[-122.89003,49.5287],[-122.89002,49.52882],[-122.88997,49.529],[-122.8899,49.52915],[-122.88974,49.52935],[-122.88963,49.5296],[-122.88956,49.52967],[-122.88939,49.52984],[-122.88928,49.52994],[-122.88914,49.53004],[-122.88889,49.53026],[-122.88878,49.53038],[-122.88859,49.53056],[-122.88849,49.53069],[-122.88837,49.53084],[-122.88823,49.531],[-122.88799,49.53121],[-122.8877,49.53142],[-122.88761,49.53155],[-122.88754,49.53166],[-122.88744,49.53184],[-122.88723,49.53223],[-122.88719,49.5323],[-122.88717,49.53236],[-122.88711,49.53247],[-122.88702,49.53262],[-122.88697,49.53269],[-122.88675,49.53297],[-122.88669,49.53315],[-122.88659,49.53335],[-122.88643,49.53355],[-122.88604,49.53386],[-122.88597,49.53398],[-122.88589,49.53405],[-122.88573,49.53417],[-122.88565,49.53422],[-122.88542,49.5344],[-122.88515,49.53464],[-122.88496,49.53478],[-122.88481,49.53488],[-122.8846,49.53506],[-122.88447,49.53516],[-122.88422,49.53532],[-122.88406,49.53541],[-122.88386,49.5355],[-122.8838,49.53554],[-122.88364,49.53567],[-122.88345,49.53578],[-122.88334,49.53586],[-122.88326,49.53595],[-122.88299,49.53613],[-122.8829,49.53617],[-122.88258,49.53629],[-122.88248,49.53633],[-122.88231,49.53639],[-122.88211,49.5365],[-122.88189,49.53659],[-122.88169,49.53667],[-122.88144,49.53677],[-122.88122,49.53686],[-122.88106,49.53692],[-122.88086,49.53703],[-122.88046,49.53713],[-122.88031,49.53715],[-122.88007,49.53723],[-122.87973,49.53734],[-122.87953,49.53743],[-122.87933,49.53754],[-122.87879,49.53777],[-122.87845,49.53788],[-122.87827,49.53793],[-122.87816,49.53795],[-122.87793,49.53801],[-122.87753,49.53813],[-122.87717,49.53816],[-122.87706,49.53816],[-122.87663,49.53832],[-122.87619,49.5386],[-122.87591,49.53873],[-122.87574,49.53883],[-122.87551,49.53895],[-122.87536,49.53907],[-122.87511,49.53923],[-122.875,49.53937],[-122.87486,49.53954],[-122.87479,49.53965],[-122.87465,49.53998],[-122.87458,49.54002],[-122.8744,49.54019],[-122.87432,49.54024],[-122.87416,49.54044],[-122.87387,49.54065],[-122.87369,49.54076],[-122.8735,49.5409],[-122.8734,49.54102],[-122.87335,49.54116],[-122.87328,49.54124],[-122.87321,49.54133],[-122.87307,49.54146],[-122.87299,49.54158],[-122.87289,49.54164]]}},
{"type":"Feature","properties":{"spotId":"B-grouse-atv-0055","kind":"walk","km":1.97,"climbM":338,"name":"1.4 km SW of Barnes Lake","flags":[]},"geometry":{"type":"LineString","coordinates":[[-122.7949,49.50944],[-122.8186,49.51815]]}},
{"type":"Feature","properties":{"spotId":"B-grouse-atv-0055","kind":"ride","km":4.04,"climbM":16,"name":"1.4 km SW of Barnes Lake","flags":[]},"geometry":{"type":"LineString","coordinates":[[-122.8186,49.51815],[-122.81864,49.5182],[-122.81867,49.51825],[-122.81868,49.51831],[-122.81868,49.51837],[-122.81862,49.51842],[-122.81854,49.51844],[-122.81845,49.51845],[-122.81836,49.51845],[-122.81827,49.51844],[-122.8181,49.51841],[-122.81803,49.51843],[-122.81809,49.51846],[-122.81817,49.5185],[-122.81822,49.51854],[-122.81831,49.51857],[-122.81839,49.51859],[-122.81849,49.5186],[-122.81858,49.5186],[-122.81867,49.51862],[-122.81883,49.51864],[-122.819,49.51868],[-122.81908,49.51869],[-122.81916,49.51871],[-122.81925,49.51873],[-122.81941,49.5188],[-122.81951,49.51884],[-122.81958,49.51888],[-122.81963,49.51892],[-122.81969,49.51896],[-122.81974,49.51901],[-122.81981,49.51907],[-122.81984,49.5191],[-122.81992,49.51916],[-122.81999,49.51919],[-122.8202,49.51934],[-122.82036,49.51943],[-122.8205,49.51952],[-122.82058,49.51955],[-122.82065,49.51958],[-122.82073,49.51961],[-122.8208,49.51963],[-122.82089,49.51966],[-122.82098,49.51969],[-122.82107,49.51971],[-122.82113,49.51974],[-122.82122,49.51977],[-122.82126,49.51981],[-122.82138,49.5199],[-122.82144,49.51994],[-122.82152,49.51998],[-122.82159,49.52],[-122.82167,49.52002],[-122.82177,49.52003],[-122.82182,49.52005],[-122.82185,49.52006],[-122.82192,49.52008],[-122.822,49.52012],[-122.82207,49.52015],[-122.82216,49.52018],[-122.82222,49.5202],[-122.82231,49.52025],[-122.82239,49.52028],[-122.82243,49.52031],[-122.82247,49.52033],[-122.82254,49.52038],[-122.82261,49.52042],[-122.8228,49.52051],[-122.82287,49.52055],[-122.82294,49.52057],[-122.82302,49.52061],[-122.82309,49.52064],[-122.82316,49.52068],[-122.82323,49.52072],[-122.8233,49.52075],[-122.82338,49.5208],[-122.82355,49.52087],[-122.82364,49.5209],[-122.82373,49.52093],[-122.8238,49.52095],[-122.82388,49.52099],[-122.82395,49.52101],[-122.82403,49.52105],[-122.8241,49.52108],[-122.82424,49.52115],[-122.82432,49.5212],[-122.82438,49.52125],[-122.82442,49.52129],[-122.82449,49.52134],[-122.82457,49.52138],[-122.82462,49.52142],[-122.82471,49.52148],[-122.82479,49.52152],[-122.82484,49.52156],[-122.82493,49.52159],[-122.82498,49.52164],[-122.82507,49.52166],[-122.82513,49.52171],[-122.82519,49.52175],[-122.82527,49.5218],[-122.82542,49.52191],[-122.82548,49.52194],[-122.82553,49.52199],[-122.82562,49.52202],[-122.82564,49.52204],[-122.8257,49.52207],[-122.82577,49.52212],[-122.82582,49.52217],[-122.82585,49.52219],[-122.82589,49.5222],[-122.82596,49.52224],[-122.82604,49.52227],[-122.82613,49.52229],[-122.82621,49.5223],[-122.82631,49.52231],[-122.82639,49.52232],[-122.82649,49.52233],[-122.82676,49.52233],[-122.82689,49.52235],[-122.82711,49.52237],[-122.8272,49.5224],[-122.82749,49.52246],[-122.82769,49.5225],[-122.82785,49.52257],[-122.82792,49.52262],[-122.82802,49.52266],[-122.82807,49.5227],[-122.82814,49.52273],[-122.82852,49.52273],[-122.8286,49.52274],[-122.82881,49.52278],[-122.8289,49.5228],[-122.829,49.52281],[-122.82911,49.52282],[-122.82921,49.52284],[-122.82937,49.52286],[-122.82945,49.52288],[-122.82955,49.52288],[-122.82979,49.52292],[-122.82987,49.52293],[-122.83073,49.52293],[-122.83081,49.52292],[-122.83091,49.5229],[-122.831,49.5229],[-122.83113,49.52288],[-122.83125,49.52287],[-122.83135,49.52287],[-122.83146,49.52287],[-122.83164,49.52286],[-122.83175,49.52285],[-122.83241,49.52285],[-122.83258,49.52287],[-122.83276,49.52289],[-122.83287,49.5229],[-122.83295,49.52291],[-122.83303,49.52293],[-122.83314,49.52295],[-122.83331,49.52299],[-122.83341,49.52301],[-122.83365,49.52306],[-122.83372,49.52309],[-122.83389,49.52312],[-122.83399,49.52314],[-122.83415,49.52318],[-122.83425,49.52322],[-122.83441,49.52329],[-122.8345,49.52331],[-122.83463,49.52337],[-122.83472,49.5234],[-122.83479,49.52342],[-122.83486,49.52347],[-122.83492,49.5235],[-122.83499,49.52356],[-122.83505,49.5236],[-122.83512,49.52364],[-122.83519,49.52367],[-122.83527,49.52369],[-122.83535,49.52371],[-122.83546,49.52377],[-122.83553,49.52381],[-122.8356,49.52384],[-122.83568,49.52386],[-122.83575,49.52387],[-122.83585,49.52387],[-122.83595,49.52386],[-122.83603,49.52385],[-122.83614,49.52383],[-122.83621,49.52381],[-122.83637,49.52379],[-122.83647,49.52379],[-122.83664,49.52377],[-122.83672,49.52375],[-122.83682,49.52374],[-122.83691,49.52372],[-122.837,49.52372],[-122.83708,49.52371],[-122.83726,49.52371],[-122.83742,49.52375],[-122.83751,49.52376],[-122.8376,49.52378],[-122.83789,49.52381],[-122.83798,49.52381],[-122.8381,49.52383],[-122.8382,49.52384],[-122.83828,49.52385],[-122.83838,49.52387],[-122.83846,49.52389],[-122.83854,49.52391],[-122.83863,49.52392],[-122.83871,49.52396],[-122.83879,49.52398],[-122.83896,49.52403],[-122.83903,49.52405],[-122.83927,49.5241],[-122.83936,49.52414],[-122.83944,49.52414],[-122.83954,49.52416],[-122.83962,49.52418],[-122.8397,49.52419],[-122.8398,49.5242],[-122.83988,49.52421],[-122.83997,49.52423],[-122.84014,49.52425],[-122.84042,49.52425],[-122.8405,49.52426],[-122.84104,49.52426],[-122.84113,49.52427],[-122.84186,49.52427],[-122.84194,49.52425],[-122.84202,49.52424],[-122.84219,49.52424],[-122.84234,49.52423],[-122.84242,49.52423],[-122.84252,49.52421],[-122.84269,49.52421],[-122.84274,49.5242],[-122.84277,49.5242],[-122.84285,49.52419],[-122.84294,49.52416],[-122.8431,49.52413],[-122.84317,49.52411],[-122.84328,49.52409],[-122.84338,49.52408],[-122.84345,49.52406],[-122.84354,49.52405],[-122.84363,49.52403],[-122.84372,49.52402],[-122.84381,49.524],[-122.8439,49.524],[-122.84399,49.52398],[-122.84418,49.52397],[-122.84435,49.52395],[-122.84443,49.52393],[-122.8446,49.52391],[-122.84468,49.5239],[-122.84476,49.52389],[-122.84486,49.52389],[-122.84495,49.52388],[-122.84515,49.52388],[-122.84524,49.52387],[-122.84625,49.52387],[-122.84634,49.52388],[-122.84643,49.52389],[-122.84653,49.52389],[-122.8467,49.52391],[-122.84679,49.52392],[-122.8469,49.52393],[-122.84707,49.52395],[-122.84719,49.52396],[-122.84729,49.52397],[-122.84739,49.52399],[-122.84758,49.52401],[-122.84766,49.52403],[-122.84779,49.52403],[-122.84787,49.52404],[-122.84797,49.52405],[-122.84805,49.52406],[-122.84815,49.52407],[-122.84845,49.5241],[-122.84855,49.52411],[-122.84866,49.52411],[-122.84873,49.52412],[-122.84881,49.52413],[-122.84899,49.52413],[-122.84907,49.52412],[-122.84917,49.52411],[-122.84925,49.5241],[-122.84936,49.5241],[-122.84946,49.52409],[-122.84954,49.52409],[-122.84962,49.52408],[-122.84976,49.52407],[-122.85002,49.52407],[-122.85012,49.52406],[-122.85015,49.52406],[-122.8502,49.52406],[-122.85029,49.52404],[-122.85038,49.52403],[-122.85047,49.52402],[-122.85056,49.52401],[-122.85073,49.524],[-122.85083,49.52398],[-122.85094,49.52396],[-122.85102,49.52394],[-122.8511,49.52393],[-122.8512,49.52392],[-122.85128,49.5239],[-122.85138,49.5239],[-122.85161,49.52386],[-122.8517,49.52383],[-122.85186,49.5238],[-122.85196,49.52378],[-122.85203,49.52376],[-122.85214,49.52374],[-122.85222,49.52372],[-122.85229,49.52369],[-122.8524,49.52367],[-122.85249,49.52365],[-122.85265,49.5236],[-122.85272,49.52356],[-122.8528,49.52356],[-122.85289,49.52353],[-122.85298,49.52352],[-122.85307,49.5235],[-122.85315,49.52349],[-122.85344,49.52344],[-122.85354,49.52343],[-122.85362,49.52342],[-122.8537,49.52339],[-122.85377,49.52337],[-122.85385,49.52334],[-122.85392,49.52331],[-122.85403,49.52322],[-122.8541,49.52319],[-122.85416,49.52315],[-122.85424,49.52312],[-122.8543,49.52308],[-122.85453,49.52303],[-122.85463,49.52301],[-122.85471,49.52298],[-122.8548,49.52296],[-122.85488,49.52294],[-122.85499,49.52292],[-122.85509,49.5229],[-122.85517,49.52288],[-122.85527,49.52287],[-122.85535,49.52287],[-122.85554,49.52285],[-122.85583,49.52285],[-122.85593,49.52284],[-122.85601,49.52283],[-122.85611,49.52281],[-122.85616,49.5228],[-122.85636,49.52274],[-122.85644,49.52272],[-122.85652,49.5227],[-122.85669,49.52266],[-122.85679,49.52262],[-122.85686,49.52261],[-122.85695,49.5226],[-122.85703,49.52259],[-122.8572,49.52254],[-122.85749,49.52245],[-122.8576,49.52241],[-122.8577,49.52238],[-122.8578,49.52235],[-122.85791,49.52233],[-122.85799,49.52231],[-122.85807,49.52228],[-122.85815,49.52225],[-122.85825,49.52222],[-122.85842,49.52219],[-122.85849,49.52216],[-122.85857,49.52214],[-122.85865,49.52211],[-122.85872,49.52208],[-122.85879,49.52205],[-122.85889,49.52203],[-122.85898,49.52202],[-122.85907,49.52199],[-122.85918,49.52196],[-122.8593,49.52193],[-122.85941,49.52189],[-122.85961,49.52184],[-122.85972,49.52182],[-122.85981,49.52179],[-122.8599,49.52177],[-122.85999,49.52175],[-122.86016,49.52169],[-122.86026,49.52166],[-122.86034,49.52164],[-122.86042,49.5216],[-122.8606,49.52155],[-122.86067,49.52151],[-122.86077,49.52147],[-122.86098,49.52138],[-122.86117,49.52133],[-122.86124,49.5213],[-122.86132,49.52126],[-122.86149,49.52121],[-122.86174,49.52116],[-122.86183,49.52112],[-122.86194,49.52108],[-122.86207,49.52107],[-122.86218,49.52103],[-122.86228,49.521],[-122.86239,49.52099],[-122.86248,49.52096],[-122.86258,49.52094],[-122.86262,49.52093],[-122.86266,49.52092],[-122.86276,49.52091],[-122.86284,49.52087],[-122.86304,49.52085],[-122.86315,49.52085],[-122.86335,49.52082],[-122.86345,49.52082],[-122.86355,49.5208],[-122.86364,49.52077],[-122.86377,49.52075],[-122.86443,49.52075],[-122.86451,49.52074],[-122.8646,49.52071],[-122.86468,49.52069],[-122.86476,49.52066],[-122.86483,49.52064],[-122.86492,49.52062],[-122.865,49.52059],[-122.86516,49.52056],[-122.86525,49.52053],[-122.86562,49.52045],[-122.8657,49.52042],[-122.86579,49.5204],[-122.86587,49.52038],[-122.86597,49.52036],[-122.86605,49.52033],[-122.86613,49.52032],[-122.86623,49.52031],[-122.86631,49.52029],[-122.86638,49.52026],[-122.86646,49.52024],[-122.86673,49.52019],[-122.86689,49.52015],[-122.86706,49.5201],[-122.86716,49.52007],[-122.86728,49.52006],[-122.86736,49.52003],[-122.86746,49.52001],[-122.86756,49.51998],[-122.86765,49.51997],[-122.86782,49.51991],[-122.86789,49.51989],[-122.86796,49.51985],[-122.86811,49.5198],[-122.86814,49.51979]]}},
{"type":"Feature","properties":{"spotId":"B-grouse-atv-0095","kind":"ride","km":3.16,"climbM":360,"name":"260 m W of Coquitlam River","flags":[]},"geometry":{"type":"LineString","coordinates":[[-122.7929,49.51133],[-122.79283,49.51147],[-122.79279,49.51176],[-122.79277,49.51204],[-122.79268,49.51229],[-122.79261,49.51235],[-122.79244,49.51249],[-122.79227,49.51272],[-122.79221,49.51277],[-122.79186,49.5129],[-122.79173,49.51294],[-122.7915,49.51299],[-122.79115,49.51312],[-122.79078,49.51314],[-122.79041,49.51319],[-122.78979,49.51335],[-122.78959,49.51339],[-122.78941,49.51343],[-122.78901,49.51348],[-122.78865,49.51353],[-122.78775,49.5136],[-122.78757,49.51362],[-122.78744,49.51368],[-122.78721,49.51377],[-122.78687,49.51389],[-122.78659,49.51403],[-122.78625,49.51412],[-122.78583,49.5142],[-122.78544,49.51424],[-122.78508,49.51429],[-122.78475,49.51435],[-122.78439,49.51442],[-122.78396,49.51443],[-122.7838,49.51441],[-122.78373,49.51436],[-122.7837,49.51429],[-122.7837,49.51424],[-122.78372,49.51422],[-122.78374,49.5141],[-122.78377,49.51403],[-122.78382,49.51378],[-122.78387,49.51373],[-122.78408,49.51365],[-122.78441,49.51354],[-122.78448,49.5135],[-122.78478,49.51331],[-122.78495,49.51306],[-122.78516,49.51282],[-122.78542,49.51262],[-122.78566,49.51244],[-122.78583,49.51215],[-122.78584,49.51193],[-122.78584,49.51163],[-122.7859,49.51137],[-122.78595,49.51114],[-122.78602,49.51101],[-122.78611,49.51076],[-122.78611,49.51053],[-122.78607,49.51043],[-122.78594,49.5104],[-122.78556,49.51037],[-122.78546,49.51033],[-122.78513,49.5102],[-122.78484,49.51006],[-122.78455,49.50988],[-122.7844,49.50981],[-122.78425,49.50974],[-122.78423,49.50968],[-122.78406,49.50944],[-122.78378,49.50923],[-122.78375,49.5092],[-122.78352,49.50901],[-122.78327,49.50879],[-122.78308,49.50858],[-122.78284,49.50841],[-122.7826,49.50826],[-122.78235,49.50805],[-122.78222,49.50799],[-122.78194,49.50785],[-122.78167,49.50768],[-122.7814,49.50755],[-122.78138,49.50749],[-122.78144,49.50726],[-122.78158,49.50705],[-122.78183,49.50681],[-122.78198,49.50655],[-122.78209,49.50619],[-122.78215,49.506],[-122.78218,49.50593],[-122.7823,49.50565],[-122.7824,49.50546],[-122.78257,49.50526],[-122.78276,49.50501],[-122.78296,49.5048],[-122.78311,49.50455],[-122.78333,49.50433],[-122.78349,49.50409],[-122.78362,49.50387],[-122.78383,49.50364],[-122.78403,49.50342],[-122.78426,49.5032],[-122.78443,49.503],[-122.78461,49.50275],[-122.78483,49.50252],[-122.78504,49.50228],[-122.78522,49.50202],[-122.78528,49.50187],[-122.78524,49.50165],[-122.78511,49.50139],[-122.78498,49.50111],[-122.78493,49.50106],[-122.78491,49.50101],[-122.78478,49.50094],[-122.78462,49.50093],[-122.78425,49.50088],[-122.78405,49.50089],[-122.784,49.50095],[-122.78382,49.50118],[-122.78368,49.50131],[-122.78357,49.5013],[-122.78346,49.50127],[-122.7831,49.50118],[-122.78285,49.50121],[-122.78249,49.50135],[-122.78229,49.50162],[-122.78218,49.50186],[-122.78224,49.50206],[-122.78226,49.50232],[-122.78221,49.50251],[-122.78214,49.50255],[-122.78206,49.50258],[-122.78201,49.50263],[-122.78196,49.50266],[-122.78188,49.50267],[-122.78181,49.50263],[-122.78167,49.50257],[-122.78157,49.50257],[-122.78152,49.50257],[-122.78114,49.50258],[-122.78085,49.50269],[-122.78084,49.50274],[-122.7808,49.50279],[-122.78078,49.50285],[-122.78066,49.50309],[-122.78041,49.50328],[-122.78015,49.50343]]}},
{"type":"Feature","properties":{"spotId":"B-grouse-drive-0109","kind":"roadside","km":3.32,"climbM":29,"name":"460 m N of Mamquam River","flags":[]},"geometry":{"type":"LineString","coordinates":[[-122.88546,49.63722],[-122.88512,49.63708],[-122.88501,49.63708],[-122.88495,49.63706],[-122.88492,49.63706],[-122.88486,49.63704],[-122.88481,49.63702],[-122.88477,49.63701],[-122.8847,49.63699],[-122.88468,49.63697],[-122.88462,49.63695],[-122.88452,49.6369],[-122.8844,49.63684],[-122.88427,49.6368],[-122.88425,49.63678],[-122.8841,49.63674],[-122.88407,49.63674],[-122.8839,49.63672],[-122.88364,49.6367],[-122.88349,49.63667],[-122.88346,49.63667],[-122.88326,49.63662],[-122.88292,49.63657],[-122.88283,49.63657],[-122.88281,49.63656],[-122.88277,49.63656],[-122.88273,49.63655],[-122.88257,49.63655],[-122.88252,49.63656],[-122.88248,49.63656],[-122.88229,49.63661],[-122.88214,49.63661],[-122.88209,49.6366],[-122.88202,49.6366],[-122.88193,49.63657],[-122.88184,49.63649],[-122.88171,49.63642],[-122.8817,49.6364],[-122.88163,49.63636],[-122.88153,49.63631],[-122.88147,49.63629],[-122.88124,49.6362],[-122.88112,49.63617],[-122.88104,49.63617],[-122.88097,49.63616],[-122.88094,49.63616],[-122.8808,49.63612],[-122.88068,49.6361],[-122.88041,49.63604],[-122.8803,49.63599],[-122.88026,49.63595],[-122.88025,49.63592],[-122.88025,49.63585],[-122.88029,49.63578],[-122.88032,49.63576],[-122.8804,49.63573],[-122.88044,49.63573],[-122.88055,49.63572],[-122.88058,49.6357],[-122.88061,49.6357],[-122.88079,49.63563],[-122.88084,49.63563],[-122.8809,49.63561],[-122.88093,49.63559],[-122.88118,49.63554],[-122.88126,49.6355],[-122.88131,49.63546],[-122.88137,49.63545],[-122.88141,49.63541],[-122.88151,49.63535],[-122.88155,49.6353],[-122.88158,49.63529],[-122.88159,49.63528],[-122.88165,49.63524],[-122.88176,49.63519],[-122.8818,49.63519],[-122.88192,49.6352],[-122.88208,49.6352],[-122.88213,49.63523],[-122.8822,49.63529],[-122.88223,49.63532],[-122.88226,49.63534],[-122.88228,49.63538],[-122.88235,49.63544],[-122.88238,49.63546],[-122.88241,49.63546],[-122.88249,49.63547],[-122.88269,49.63547],[-122.88281,49.63546],[-122.88289,49.63546],[-122.88294,49.63545],[-122.88298,49.63545],[-122.883,49.63544],[-122.88304,49.63544],[-122.8831,49.63542],[-122.88325,49.63541],[-122.88331,49.6354],[-122.88359,49.6354],[-122.88371,49.63538],[-122.88392,49.63531],[-122.88395,49.63531],[-122.88402,49.63529],[-122.88446,49.63519],[-122.88451,49.63517],[-122.88467,49.63514],[-122.88472,49.63514],[-122.88475,49.63515],[-122.88487,49.63516],[-122.88497,49.63518],[-122.88507,49.63519],[-122.88514,49.63521],[-122.88518,49.63521],[-122.88551,49.63528],[-122.88558,49.63528],[-122.88562,49.63529],[-122.88571,49.63529],[-122.8858,49.63531],[-122.88584,49.63531],[-122.88587,49.63532],[-122.88595,49.63533],[-122.88606,49.63533],[-122.88612,49.63533],[-122.88618,49.63533],[-122.88629,49.63536],[-122.88638,49.63536],[-122.88652,49.63539],[-122.88656,49.63539],[-122.88662,49.63541],[-122.88676,49.63542],[-122.88692,49.63546],[-122.88705,49.63546],[-122.8871,49.63545],[-122.88719,49.63545],[-122.88728,49.63543],[-122.88731,49.63543],[-122.88744,49.63541],[-122.88762,49.6354],[-122.88773,49.63538],[-122.88777,49.63538],[-122.88805,49.63534],[-122.88814,49.63523],[-122.8883,49.63518],[-122.88882,49.63513],[-122.889,49.63513],[-122.88932,49.63511],[-122.88975,49.6351],[-122.89014,49.6351],[-122.89062,49.63509],[-122.8908,49.63509],[-122.89097,49.63506],[-122.89108,49.63502],[-122.89118,49.63505],[-122.8913,49.63509],[-122.89162,49.63521],[-122.89191,49.63534],[-122.89202,49.63538],[-122.89219,49.63544],[-122.89238,49.63552],[-122.8926,49.63564],[-122.89291,49.63573],[-122.8931,49.63581],[-122.89324,49.63587],[-122.89338,49.63595],[-122.89363,49.6361],[-122.89397,49.63627],[-122.89428,49.63638],[-122.89461,49.6365],[-122.89491,49.63656],[-122.89511,49.63663],[-122.89544,49.6368],[-122.89571,49.63693],[-122.89599,49.63702],[-122.89609,49.63705],[-122.89636,49.63708],[-122.89695,49.63714],[-122.89718,49.63717],[-122.8975,49.63719],[-122.89783,49.63721],[-122.8981,49.63724],[-122.89818,49.63726],[-122.89859,49.63735],[-122.89877,49.63738],[-122.89894,49.63743],[-122.89908,49.6375],[-122.89912,49.63752],[-122.89933,49.6377],[-122.89942,49.63776],[-122.89976,49.63787],[-122.89984,49.63791],[-122.90019,49.63806],[-122.90041,49.63816],[-122.90068,49.63826],[-122.90077,49.63829],[-122.90096,49.63841],[-122.90106,49.63843],[-122.90131,49.63853],[-122.90143,49.6386],[-122.90168,49.63868],[-122.902,49.63882],[-122.90223,49.63892],[-122.90251,49.63911],[-122.90272,49.63918],[-122.90288,49.63928],[-122.90308,49.63945],[-122.90317,49.63953],[-122.90335,49.63962],[-122.90345,49.63967],[-122.90356,49.63971],[-122.90385,49.63982],[-122.90406,49.63994],[-122.90414,49.63997],[-122.90439,49.6401],[-122.90447,49.64013],[-122.90461,49.64015],[-122.90478,49.64019],[-122.90521,49.64026],[-122.90568,49.64042],[-122.90586,49.64051],[-122.90596,49.6406],[-122.90608,49.64069],[-122.90636,49.6408],[-122.90662,49.64093],[-122.90692,49.64107],[-122.90705,49.64114],[-122.90721,49.64119],[-122.90742,49.64123],[-122.90769,49.64133],[-122.90798,49.6414],[-122.9081,49.64143],[-122.90838,49.64156],[-122.90846,49.64159],[-122.90859,49.64169],[-122.90868,49.6418],[-122.90871,49.64188],[-122.90872,49.64206],[-122.90875,49.64219],[-122.90881,49.64241],[-122.90881,49.64257],[-122.90883,49.64278],[-122.90886,49.64288],[-122.90894,49.64303],[-122.90903,49.6432],[-122.90909,49.64335],[-122.90915,49.64351],[-122.90919,49.6437],[-122.90922,49.64376],[-122.90925,49.64394],[-122.90929,49.64409],[-122.90923,49.64421],[-122.90933,49.64443],[-122.90934,49.64449],[-122.90937,49.64465],[-122.90937,49.64477],[-122.90938,49.64497],[-122.90938,49.64503],[-122.9094,49.64522],[-122.9094,49.64541],[-122.90941,49.64548],[-122.90939,49.64564],[-122.90939,49.64572],[-122.90937,49.64591],[-122.90938,49.64604],[-122.90945,49.6462],[-122.90948,49.64627],[-122.90963,49.64645]]}}
]}
