{"type":"FeatureCollection","features":[
{"type":"Feature","properties":{"id":"C-camp-camp-0001","kind":"Rec site","name":"Ripley Lake rec site","campsites":7,"water":"Water: Ripley Lake 40 m NE.","nearSpots":41,"closure":null,"spotIds":["C-deer-atv-0014","C-deer-atv-0033","C-deer-atv-0094","C-deer-drive-0017","C-deer-drive-0046","C-deer-drive-0056","C-deer-drive-0058","C-deer-drive-0079","C-deer-drive-0081","C-deer-walk-0009","C-deer-walk-0027","C-deer-walk-0041","C-deer-walk-0065","C-deer-walk-0068","C-duck-drive-0005","C-duck-drive-0011","C-duck-drive-0034","C-duck-drive-0046","C-duck-drive-0109","C-duck-walk-0001","C-grouse-atv-0032","C-grouse-drive-0008","C-grouse-drive-0081","C-moose-atv-0039","C-moose-atv-0063","C-moose-atv-0064","C-moose-drive-0041","C-moose-drive-0045","C-moose-drive-0057","C-moose-drive-0061","C-moose-walk-0052","C-moose-walk-0055","C-quail-drive-0020","C-quail-drive-0024","C-quail-drive-0027","C-quail-drive-0043","C-quail-drive-0053","C-quail-walk-0005","C-quail-walk-0020","C-quail-walk-0023"],"note":"Official rec site"},"geometry":{"type":"Point","coordinates":[-119.63071,49.24271]}},
{"type":"Feature","properties":{"id":"C-camp-camp-0002","kind":"Rec site","name":"Nickel Plate Lake rec site","campsites":4,"water":"Water: Nickel Plate Lake 80 m E.","nearSpots":13,"closure":null,"spotIds":["C-grouse-drive-0093","C-grouse-walk-0003","C-grouse-walk-0011","C-grouse-walk-0012","C-grouse-walk-0025","C-grouse-walk-0027","C-grouse-walk-0032","C-grouse-walk-0035","C-grouse-walk-0036","C-moose-walk-0048","C-moose-walk-0056","C-moose-walk-0061","C-moose-walk-0067"],"note":"Official rec site"},"geometry":{"type":"Point","coordinates":[-119.96398,49.39379]}},
{"type":"Feature","properties":{"id":"C-camp-camp-0003","kind":"Rec site","name":"Trout Creek rec site","campsites":11,"water":"Water: Trout Creek right here.","nearSpots":38,"closure":"The Recreation Site remains closed for wildfire recovery activities (for example, danger tree assessing and falling, area assessments, etc.) and to prevent negative impacts to ecosystems and wildlife.","spotIds":["C-deer-atv-0022","C-deer-atv-0029","C-deer-atv-0047","C-deer-atv-0066","C-deer-atv-0088","C-deer-atv-0093","C-deer-atv-0095","C-deer-drive-0035","C-deer-drive-0048","C-deer-drive-0064","C-deer-drive-0073","C-deer-drive-0091","C-deer-drive-0095","C-deer-drive-0121","C-deer-drive-0122","C-deer-walk-0037","C-deer-walk-0100","C-deer-walk-0131","C-deer-walk-0167","C-duck-drive-0049","C-duck-drive-0076","C-grouse-atv-0021","C-grouse-atv-0041","C-grouse-atv-0043","C-grouse-drive-0030","C-grouse-drive-0060","C-grouse-drive-0068","C-grouse-walk-0028","C-grouse-walk-0030","C-moose-atv-0042","C-moose-atv-0069","C-moose-drive-0001","C-moose-drive-0012","C-moose-drive-0042","C-moose-walk-0007","C-moose-walk-0023","C-moose-walk-0028"],"note":"Official rec site"},"geometry":{"type":"Point","coordinates":[-119.86839,49.62169]}},
{"type":"Feature","properties":{"id":"C-camp-camp-0004","kind":"Crown land candidate","name":"180 m NW of Chute Creek","campsites":null,"water":"Water: Chute Creek 180 m SE.","nearSpots":27,"closure":null,"spotIds":["C-duck-drive-0025","C-duck-drive-0026","C-duck-drive-0028","C-duck-drive-0065","C-duck-drive-0073","C-duck-drive-0085","C-duck-drive-0099","C-grouse-drive-0032","C-grouse-drive-0070","C-grouse-drive-0074","C-grouse-drive-0091","C-grouse-walk-0001","C-grouse-walk-0013","C-grouse-walk-0014","C-moose-atv-0046","C-moose-atv-0062","C-moose-drive-0044","C-moose-drive-0046","C-moose-drive-0049","C-moose-drive-0053","C-moose-walk-0003","C-moose-walk-0019","C-moose-walk-0051","C-moose-walk-0081","C-moose-walk-0090"],"note":"Candidate, scout it first (estimate)"},"geometry":{"type":"Point","coordinates":[-119.48428,49.68106]}},
{"type":"Feature","properties":{"id":"C-camp-camp-0005","kind":"Crown land candidate","name":"130 m W of Stump Creek","campsites":null,"water":"Water: Stump Creek 130 m E.","nearSpots":24,"closure":null,"spotIds":["C-duck-drive-0086","C-duck-drive-0090","C-duck-drive-0093","C-duck-drive-0104","C-duck-drive-0107","C-duck-drive-0117","C-duck-walk-0006","C-grouse-atv-0045","C-grouse-drive-0052","C-grouse-drive-0088","C-grouse-walk-0008","C-grouse-walk-0019","C-grouse-walk-0037","C-grouse-walk-0049","C-grouse-walk-0062","C-moose-drive-0004","C-moose-drive-0009","C-moose-drive-0011","C-moose-drive-0060","C-moose-walk-0008","C-moose-walk-0012","C-moose-walk-0025","C-moose-walk-0072","C-moose-walk-0091"],"note":"Candidate, scout it first (estimate)"},"geometry":{"type":"Point","coordinates":[-119.21031,49.66158]}},
{"type":"Feature","properties":{"id":"C-camp-camp-0006","kind":"Crown land candidate","name":"By Wilkinson Creek","campsites":null,"water":"Water: Wilkinson Creek 80 m SW.","nearSpots":16,"closure":null,"spotIds":["C-duck-drive-0056","C-duck-drive-0087","C-duck-drive-0090","C-grouse-atv-0045","C-grouse-drive-0065","C-grouse-drive-0067","C-grouse-walk-0005","C-grouse-walk-0021","C-grouse-walk-0043","C-grouse-walk-0056","C-moose-drive-0009","C-moose-walk-0004","C-moose-walk-0009","C-moose-walk-0069"],"note":"Candidate, scout it first (estimate)"},"geometry":{"type":"Point","coordinates":[-119.32602,49.65972]}},
{"type":"Feature","properties":{"id":"C-camp-camp-0007","kind":"Crown land candidate","name":"130 m NE of Trout Creek","campsites":null,"water":"Water: Trout Creek 130 m SW.","nearSpots":24,"closure":null,"spotIds":["C-deer-atv-0021","C-deer-atv-0063","C-deer-atv-0076","C-deer-drive-0072","C-deer-drive-0080","C-deer-drive-0084","C-deer-drive-0094","C-deer-drive-0138","C-deer-drive-0144","C-deer-walk-0103","C-deer-walk-0106","C-deer-walk-0129","C-deer-walk-0140","C-duck-drive-0012","C-duck-drive-0037","C-duck-walk-0016","C-grouse-atv-0040","C-grouse-drive-0085","C-grouse-drive-0086","C-grouse-drive-0087","C-grouse-drive-0089","C-grouse-walk-0031","C-moose-atv-0047","C-moose-walk-0074"],"note":"Candidate, scout it first (estimate)"},"geometry":{"type":"Point","coordinates":[-119.97613,49.68414]}},
{"type":"Feature","properties":{"id":"C-camp-camp-0008","kind":"Crown land candidate","name":"180 m W of Wilkinson Creek","campsites":null,"water":"Water: Wilkinson Creek 180 m E.","nearSpots":29,"closure":null,"spotIds":["C-duck-drive-0038","C-duck-drive-0052","C-duck-drive-0056","C-duck-drive-0086","C-duck-drive-0087","C-duck-drive-0088","C-duck-drive-0090","C-duck-drive-0104","C-grouse-atv-0014","C-grouse-atv-0037","C-grouse-atv-0045","C-grouse-drive-0012","C-grouse-drive-0052","C-grouse-drive-0067","C-grouse-walk-0005","C-grouse-walk-0008","C-grouse-walk-0019","C-grouse-walk-0021","C-grouse-walk-0038","C-grouse-walk-0047","C-grouse-walk-0056","C-grouse-walk-0062","C-moose-drive-0005","C-moose-drive-0009","C-moose-walk-0004","C-moose-walk-0009","C-moose-walk-0011"],"note":"Candidate, scout it first (estimate)"},"geometry":{"type":"Point","coordinates":[-119.28191,49.63802]}},
{"type":"Feature","properties":{"id":"C-camp-camp-0009","kind":"Crown land candidate","name":"By Bearpaw Creek","campsites":null,"water":"Water: Bearpaw Creek right here.","nearSpots":21,"closure":null,"spotIds":["C-deer-atv-0049","C-deer-atv-0060","C-deer-atv-0063","C-deer-walk-0119","C-deer-walk-0151","C-duck-drive-0040","C-duck-walk-0004","C-duck-walk-0024","C-duck-walk-0029","C-grouse-atv-0002","C-grouse-atv-0040","C-grouse-drive-0021","C-moose-atv-0020","C-moose-atv-0029","C-moose-drive-0023","C-moose-drive-0055","C-moose-walk-0030","C-moose-walk-0031","C-moose-walk-0032","C-moose-walk-0050"],"note":"Candidate, scout it first (estimate)"},"geometry":{"type":"Point","coordinates":[-120.00298,49.61702]}},
{"type":"Feature","properties":{"id":"C-camp-camp-0010","kind":"Crown land candidate","name":"By Bull Creek","campsites":null,"water":"Water: Bull Creek 40 m W.","nearSpots":23,"closure":null,"spotIds":["C-deer-walk-0151","C-duck-drive-0027","C-duck-drive-0040","C-duck-drive-0044","C-duck-walk-0024","C-duck-walk-0027","C-duck-walk-0028","C-duck-walk-0029","C-grouse-atv-0002","C-grouse-atv-0029","C-grouse-drive-0018","C-grouse-drive-0048","C-grouse-drive-0058","C-grouse-walk-0007","C-grouse-walk-0045","C-grouse-walk-0057","C-moose-atv-0054","C-moose-drive-0023","C-moose-drive-0026","C-moose-drive-0055","C-moose-walk-0032","C-moose-walk-0050","C-moose-walk-0053"],"note":"Candidate, scout it first (estimate)"},"geometry":{"type":"Point","coordinates":[-119.99667,49.56972]}},
{"type":"Feature","properties":{"id":"C-camp-camp-0011","kind":"Crown land candidate","name":"150 m NW of Isintok Creek","campsites":null,"water":"Water: Isintok Creek 150 m SE.","nearSpots":19,"closure":null,"spotIds":["C-deer-drive-0073","C-deer-drive-0091","C-deer-drive-0109","C-deer-walk-0100","C-deer-walk-0146","C-deer-walk-0147","C-deer-walk-0151","C-deer-walk-0156","C-deer-walk-0191","C-duck-drive-0027","C-duck-drive-0044","C-duck-walk-0027","C-grouse-atv-0002","C-grouse-atv-0029","C-grouse-drive-0015","C-grouse-drive-0048","C-grouse-drive-0060","C-grouse-walk-0045","C-moose-walk-0053"],"note":"Candidate, scout it first (estimate)"},"geometry":{"type":"Point","coordinates":[-119.93484,49.56538]}},
{"type":"Feature","properties":{"id":"C-camp-camp-0012","kind":"Crown land candidate","name":"140 m NE of Riddle Creek","campsites":null,"water":"Water: Riddle Creek 140 m SW.","nearSpots":33,"closure":null,"spotIds":["C-deer-atv-0097","C-deer-drive-0109","C-deer-drive-0129","C-deer-drive-0130","C-deer-drive-0139","C-deer-drive-0140","C-deer-drive-0157","C-deer-walk-0037","C-deer-walk-0061","C-deer-walk-0084","C-deer-walk-0146","C-deer-walk-0147","C-deer-walk-0156","C-deer-walk-0187","C-deer-walk-0191","C-deer-walk-0195","C-deer-walk-0196","C-duck-drive-0049","C-duck-walk-0031","C-grouse-drive-0015","C-grouse-drive-0095","C-grouse-walk-0045","C-moose-atv-0009","C-moose-atv-0019","C-moose-atv-0069","C-moose-drive-0001","C-moose-walk-0006","C-moose-walk-0007","C-moose-walk-0029"],"note":"Candidate, scout it first (estimate)"},"geometry":{"type":"Point","coordinates":[-119.86895,49.54994]}},
{"type":"Feature","properties":{"id":"C-camp-camp-0013","kind":"Crown land candidate","name":"By Ellis Creek","campsites":null,"water":"Water: Ellis Creek right here.","nearSpots":24,"closure":null,"spotIds":["C-duck-drive-0018","C-duck-drive-0023","C-duck-drive-0030","C-duck-drive-0054","C-duck-drive-0069","C-duck-drive-0092","C-duck-drive-0100","C-duck-walk-0002","C-duck-walk-0003","C-duck-walk-0032","C-grouse-atv-0033","C-grouse-drive-0016","C-grouse-drive-0033","C-grouse-drive-0034","C-grouse-drive-0041","C-grouse-drive-0059","C-grouse-drive-0094","C-grouse-walk-0052","C-moose-atv-0026","C-moose-atv-0030","C-moose-atv-0032","C-moose-atv-0070","C-moose-drive-0025","C-moose-walk-0033"],"note":"Candidate, scout it first (estimate)"},"geometry":{"type":"Point","coordinates":[-119.34737,49.5029]}},
{"type":"Feature","properties":{"id":"C-camp-camp-0014","kind":"Crown land candidate","name":"190 m NE of Skulaow Creek","campsites":null,"water":"Water: Skulaow Creek 190 m SW.","nearSpots":17,"closure":null,"spotIds":["C-deer-atv-0082","C-deer-drive-0049","C-deer-drive-0111","C-deer-drive-0125","C-deer-drive-0140","C-deer-drive-0157","C-deer-walk-0084","C-deer-walk-0146","C-deer-walk-0187","C-deer-walk-0193","C-deer-walk-0194","C-deer-walk-0209","C-grouse-atv-0050","C-grouse-drive-0038","C-grouse-drive-0095","C-moose-atv-0049","C-moose-walk-0066"],"note":"Candidate, scout it first (estimate)"},"geometry":{"type":"Point","coordinates":[-119.8623,49.50622]}},
{"type":"Feature","properties":{"id":"C-camp-camp-0015","kind":"Crown land candidate","name":"By Saunier Creek","campsites":null,"water":"Water: Saunier Creek 30 m NW.","nearSpots":18,"closure":null,"spotIds":["C-duck-drive-0064","C-grouse-atv-0036","C-grouse-atv-0039","C-grouse-drive-0009","C-grouse-drive-0057","C-grouse-drive-0082","C-grouse-drive-0090","C-moose-atv-0012","C-moose-atv-0026","C-moose-atv-0032","C-moose-drive-0010","C-moose-drive-0017","C-moose-drive-0018","C-moose-drive-0024","C-moose-drive-0025","C-moose-walk-0014","C-moose-walk-0022","C-moose-walk-0033"],"note":"Candidate, scout it first (estimate)"},"geometry":{"type":"Point","coordinates":[-119.24157,49.46833]}},
{"type":"Feature","properties":{"id":"C-camp-camp-0016","kind":"Crown land candidate","name":"By Maurice Creek","campsites":null,"water":"Water: Maurice Creek 40 m NW.","nearSpots":28,"closure":null,"spotIds":["C-deer-atv-0005","C-deer-atv-0016","C-deer-drive-0018","C-deer-drive-0023","C-deer-drive-0024","C-deer-drive-0027","C-deer-drive-0029","C-deer-drive-0067","C-deer-walk-0014","C-duck-drive-0032","C-duck-drive-0041","C-duck-drive-0060","C-duck-drive-0075","C-duck-walk-0011","C-duck-walk-0012","C-duck-walk-0014","C-grouse-atv-0017","C-grouse-atv-0020","C-grouse-drive-0020","C-grouse-drive-0023","C-grouse-walk-0033","C-grouse-walk-0048","C-moose-atv-0014","C-moose-atv-0022","C-moose-atv-0028","C-moose-walk-0016"],"note":"Candidate, scout it first (estimate)"},"geometry":{"type":"Point","coordinates":[-119.41468,49.37147]}},
{"type":"Feature","properties":{"id":"C-camp-camp-0017","kind":"Crown land candidate","name":"180 m NW of Shuttleworth Creek","campsites":null,"water":"Water: Shuttleworth Creek 180 m SE.","nearSpots":26,"closure":null,"spotIds":["C-deer-drive-0023","C-deer-drive-0024","C-deer-drive-0029","C-deer-drive-0067","C-deer-walk-0014","C-deer-walk-0211","C-duck-drive-0019","C-duck-drive-0020","C-duck-drive-0032","C-duck-drive-0041","C-duck-drive-0050","C-duck-drive-0057","C-duck-drive-0060","C-duck-drive-0067","C-duck-drive-0075","C-duck-drive-0089","C-duck-walk-0011","C-duck-walk-0012","C-duck-walk-0017","C-duck-walk-0019","C-grouse-drive-0003","C-grouse-drive-0020","C-grouse-drive-0023","C-moose-atv-0022","C-moose-drive-0035"],"note":"Candidate, scout it first (estimate)"},"geometry":{"type":"Point","coordinates":[-119.35968,49.35996]}},
{"type":"Feature","properties":{"id":"C-camp-camp-0018","kind":"Crown land candidate","name":"By McIntyre Creek","campsites":null,"water":"Water: McIntyre Creek 20 m NW.","nearSpots":19,"closure":null,"spotIds":["C-deer-drive-0097","C-deer-drive-0152","C-deer-walk-0158","C-duck-drive-0042","C-duck-drive-0047","C-duck-drive-0053","C-duck-drive-0072","C-duck-drive-0098","C-duck-drive-0113","C-duck-walk-0020","C-duck-walk-0021","C-grouse-drive-0001","C-grouse-drive-0013","C-grouse-drive-0029","C-grouse-drive-0078","C-grouse-drive-0079","C-grouse-walk-0017","C-moose-drive-0037","C-moose-walk-0044"],"note":"Candidate, scout it first (estimate)"},"geometry":{"type":"Point","coordinates":[-119.25483,49.23593]}},
{"type":"Feature","properties":{"id":"C-camp-camp-0019","kind":"Crown land candidate","name":"By Underdown Creek","campsites":null,"water":"Water: Underdown Creek 50 m W.","nearSpots":20,"closure":null,"spotIds":["C-deer-atv-0067","C-deer-drive-0097","C-deer-drive-0108","C-deer-drive-0154","C-deer-walk-0159","C-duck-drive-0045","C-duck-drive-0072","C-duck-drive-0098","C-duck-walk-0020","C-grouse-drive-0029","C-grouse-drive-0078","C-grouse-drive-0079","C-grouse-drive-0084","C-grouse-walk-0017","C-moose-atv-0035","C-moose-atv-0067","C-moose-drive-0037","C-moose-walk-0042","C-moose-walk-0044","C-moose-walk-0047"],"note":"Candidate, scout it first (estimate)"},"geometry":{"type":"Point","coordinates":[-119.29299,49.21029]}},
{"type":"Feature","properties":{"id":"C-camp-camp-0020","kind":"Crown land candidate","name":"By McKinney Creek","campsites":null,"water":"Water: McKinney Creek 120 m E.","nearSpots":28,"closure":null,"spotIds":["C-deer-atv-0034","C-deer-drive-0086","C-duck-drive-0043","C-duck-drive-0062","C-duck-walk-0013","C-duck-walk-0025","C-grouse-atv-0026","C-grouse-drive-0010","C-grouse-drive-0028","C-grouse-drive-0071","C-grouse-walk-0066","C-moose-atv-0001","C-moose-atv-0004","C-moose-atv-0006","C-moose-atv-0013","C-moose-atv-0050","C-moose-atv-0056","C-moose-drive-0003","C-moose-drive-0006","C-moose-drive-0016","C-moose-drive-0062","C-moose-walk-0002","C-moose-walk-0010","C-moose-walk-0013","C-moose-walk-0070"],"note":"Candidate, scout it first (estimate)"},"geometry":{"type":"Point","coordinates":[-119.22072,49.10177]}},
{"type":"Feature","properties":{"id":"C-camp-camp-0021","kind":"Crown land candidate","name":"150 m NW of Mica Creek","campsites":null,"water":"Water: Mica Creek 150 m SE.","nearSpots":37,"closure":null,"spotIds":["C-deer-atv-0006","C-deer-atv-0010","C-deer-atv-0019","C-deer-atv-0042","C-deer-atv-0062","C-deer-atv-0065","C-deer-drive-0019","C-deer-drive-0021","C-deer-drive-0068","C-deer-drive-0070","C-deer-walk-0003","C-deer-walk-0004","C-deer-walk-0013","C-deer-walk-0015","C-deer-walk-0021","C-deer-walk-0036","C-deer-walk-0066","C-deer-walk-0101","C-deer-walk-0212","C-duck-drive-0055","C-duck-drive-0097","C-duck-walk-0015","C-grouse-atv-0019","C-grouse-drive-0006","C-grouse-drive-0044","C-moose-atv-0045","C-moose-atv-0060","C-moose-atv-0068","C-moose-drive-0048","C-moose-drive-0064","C-moose-drive-0065","C-moose-walk-0083","C-moose-walk-0084","C-moose-walk-0087","C-quail-walk-0059"],"note":"Candidate, scout it first (estimate)"},"geometry":{"type":"Point","coordinates":[-119.39807,49.10107]}},
{"type":"Feature","properties":{"id":"C-camp-camp-0022","kind":"Crown land candidate","name":"160 m W of Inkaneep Creek","campsites":null,"water":"Water: Inkaneep Creek 160 m E.","nearSpots":36,"closure":null,"spotIds":["C-deer-atv-0024","C-deer-atv-0062","C-deer-atv-0065","C-deer-atv-0069","C-deer-drive-0068","C-deer-drive-0070","C-deer-drive-0101","C-deer-drive-0106","C-deer-walk-0004","C-deer-walk-0101","C-deer-walk-0212","C-duck-drive-0017","C-duck-drive-0029","C-duck-drive-0058","C-duck-drive-0063","C-duck-drive-0097","C-duck-drive-0112","C-duck-drive-0115","C-duck-walk-0015","C-grouse-drive-0004","C-grouse-drive-0028","C-grouse-drive-0044","C-moose-atv-0013","C-moose-atv-0043","C-moose-atv-0053","C-moose-atv-0056","C-moose-atv-0060","C-moose-atv-0061","C-moose-atv-0068","C-moose-drive-0038","C-moose-drive-0062","C-moose-drive-0064","C-moose-walk-0070","C-moose-walk-0084"],"note":"Candidate, scout it first (estimate)"},"geometry":{"type":"Point","coordinates":[-119.32602,49.09571]}},
{"type":"Feature","properties":{"id":"C-camp-camp-0023","kind":"Crown land candidate","name":"180 m NW of Mica Creek","campsites":null,"water":"Water: Mica Creek 180 m SE.","nearSpots":22,"closure":null,"spotIds":["C-deer-atv-0006","C-deer-atv-0010","C-deer-atv-0019","C-deer-atv-0026","C-deer-atv-0042","C-deer-atv-0065","C-deer-drive-0019","C-deer-drive-0021","C-deer-walk-0003","C-deer-walk-0013","C-deer-walk-0015","C-deer-walk-0021","C-deer-walk-0036","C-deer-walk-0054","C-deer-walk-0066","C-duck-drive-0055","C-grouse-atv-0019","C-moose-atv-0045","C-moose-atv-0068","C-moose-drive-0048","C-moose-drive-0065","C-moose-walk-0087"],"note":"Candidate, scout it first (estimate)"},"geometry":{"type":"Point","coordinates":[-119.43405,49.07978]}},
{"type":"Feature","properties":{"id":"C-camp-camp-0024","kind":"Rec site","name":"Red Bridge rec site","campsites":11,"water":"Water: Ashnola River 30 m E.","nearSpots":12,"closure":null,"spotIds":["C-deer-drive-0052","C-deer-walk-0088","C-deer-walk-0111","C-deer-walk-0118","C-deer-walk-0125","C-grouse-atv-0024","C-grouse-walk-0009","C-grouse-walk-0024","C-grouse-walk-0067","C-moose-walk-0049","C-moose-walk-0079","C-quail-walk-0056"],"note":"Official rec site"},"geometry":{"type":"Point","coordinates":[-120.00298,49.18236]}},
{"type":"Feature","properties":{"id":"C-camp-camp-0025","kind":"Rec site","name":"Horseshoe Canyon rec site","campsites":5,"water":"Water: Ashnola River 40 m SE.","nearSpots":9,"closure":null,"spotIds":["C-deer-drive-0052","C-deer-walk-0062","C-deer-walk-0088","C-deer-walk-0111","C-deer-walk-0118","C-deer-walk-0125","C-grouse-walk-0009","C-grouse-walk-0024","C-grouse-walk-0067"],"note":"Official rec site"},"geometry":{"type":"Point","coordinates":[-120.01121,49.15484]}},
{"type":"Feature","properties":{"id":"C-camp-camp-0026","kind":"Rec site","name":"Allendale Lake rec site","campsites":6,"water":"Water: Allendale Lake 20 m E.","nearSpots":33,"closure":"Allendale Lake will be closed until further notice due to dam removal and restoration work.","spotIds":["C-deer-drive-0029","C-deer-walk-0211","C-duck-drive-0019","C-duck-drive-0020","C-duck-drive-0022","C-duck-drive-0031","C-duck-drive-0041","C-duck-drive-0050","C-duck-drive-0057","C-duck-drive-0060","C-duck-drive-0066","C-duck-drive-0067","C-duck-drive-0070","C-duck-drive-0074","C-duck-drive-0075","C-duck-drive-0094","C-duck-drive-0095","C-duck-drive-0110","C-duck-walk-0011","C-duck-walk-0012","C-duck-walk-0014","C-duck-walk-0017","C-grouse-drive-0003","C-grouse-drive-0020","C-grouse-drive-0023","C-grouse-drive-0062","C-moose-atv-0022","C-moose-drive-0028","C-moose-drive-0029","C-moose-drive-0035","C-moose-walk-0038","C-moose-walk-0073"],"note":"Official rec site"},"geometry":{"type":"Point","coordinates":[-119.33388,49.38542]}},
{"type":"Feature","properties":{"id":"C-camp-camp-0027","kind":"Crown land candidate","name":"460 m NW of Affleck Creek","campsites":null,"water":"Water: unnamed wetland 190 m S.","nearSpots":20,"closure":null,"spotIds":["C-duck-drive-0090","C-duck-drive-0093","C-duck-drive-0107","C-duck-drive-0117","C-duck-walk-0006","C-grouse-atv-0045","C-grouse-drive-0046","C-grouse-drive-0088","C-grouse-walk-0008","C-grouse-walk-0019","C-grouse-walk-0037","C-moose-drive-0004","C-moose-drive-0009","C-moose-drive-0011","C-moose-drive-0060","C-moose-walk-0012","C-moose-walk-0025","C-moose-walk-0069","C-moose-walk-0072","C-moose-walk-0091"],"note":"Candidate, scout it first (estimate)"},"geometry":{"type":"Point","coordinates":[-119.22012,49.6893]}},
{"type":"Feature","properties":{"id":"C-camp-camp-0028","kind":"Crown land candidate","name":"2.2 km SW of Affleck Creek","campsites":null,"water":"Water: unnamed wetland 100 m E.","nearSpots":29,"closure":null,"spotIds":["C-duck-drive-0086","C-duck-drive-0087","C-duck-drive-0090","C-duck-drive-0104","C-duck-drive-0107","C-duck-drive-0117","C-duck-walk-0006","C-grouse-atv-0045","C-grouse-drive-0052","C-grouse-drive-0088","C-grouse-walk-0008","C-grouse-walk-0019","C-grouse-walk-0021","C-grouse-walk-0037","C-grouse-walk-0043","C-grouse-walk-0062","C-moose-drive-0004","C-moose-drive-0009","C-moose-drive-0011","C-moose-drive-0060","C-moose-walk-0004","C-moose-walk-0009","C-moose-walk-0012","C-moose-walk-0025","C-moose-walk-0069","C-moose-walk-0072","C-moose-walk-0091"],"note":"Candidate, scout it first (estimate)"},"geometry":{"type":"Point","coordinates":[-119.25979,49.66557]}},
{"type":"Feature","properties":{"id":"C-camp-camp-0029","kind":"Crown land candidate","name":"1.3 km NE of Fenton Creek","campsites":null,"water":"Water: unnamed wetland 90 m E.","nearSpots":28,"closure":null,"spotIds":["C-deer-atv-0020","C-deer-atv-0021","C-deer-atv-0046","C-deer-atv-0056","C-deer-atv-0058","C-deer-atv-0076","C-deer-drive-0013","C-deer-drive-0072","C-deer-drive-0077","C-deer-drive-0084","C-deer-drive-0138","C-deer-walk-0025","C-deer-walk-0086","C-deer-walk-0103","C-deer-walk-0150","C-duck-drive-0061","C-duck-drive-0076","C-duck-walk-0016","C-grouse-atv-0042","C-grouse-drive-0019","C-grouse-drive-0087","C-grouse-drive-0089","C-moose-atv-0025","C-moose-atv-0033","C-moose-atv-0047","C-moose-drive-0036","C-moose-drive-0042","C-moose-walk-0043"],"note":"Candidate, scout it first (estimate)"},"geometry":{"type":"Point","coordinates":[-119.9036,49.69635]}},
{"type":"Feature","properties":{"id":"C-camp-camp-0030","kind":"Crown land candidate","name":"2.0 km E of Naramata Lake","campsites":null,"water":"Water: unnamed wetland 130 m NE.","nearSpots":38,"closure":null,"spotIds":["C-deer-atv-0064","C-deer-drive-0033","C-deer-drive-0036","C-deer-drive-0071","C-deer-drive-0074","C-deer-walk-0098","C-deer-walk-0116","C-deer-walk-0153","C-duck-drive-0025","C-duck-drive-0026","C-duck-drive-0028","C-duck-drive-0065","C-duck-drive-0073","C-duck-drive-0085","C-duck-drive-0099","C-grouse-atv-0016","C-grouse-atv-0056","C-grouse-drive-0031","C-grouse-drive-0032","C-grouse-drive-0070","C-grouse-drive-0074","C-grouse-walk-0001","C-grouse-walk-0013","C-grouse-walk-0014","C-moose-atv-0007","C-moose-atv-0046","C-moose-atv-0062","C-moose-drive-0008","C-moose-drive-0044","C-moose-drive-0046","C-moose-drive-0049","C-moose-drive-0053","C-moose-walk-0003","C-moose-walk-0021","C-moose-walk-0081","C-moose-walk-0085"],"note":"Candidate, scout it first (estimate)"},"geometry":{"type":"Point","coordinates":[-119.50589,49.65616]}},
{"type":"Feature","properties":{"id":"C-camp-camp-0031","kind":"Crown land candidate","name":"1.1 km SW of Stirling Creek","campsites":null,"water":"Water: unnamed wetland 190 m S.","nearSpots":28,"closure":null,"spotIds":["C-duck-drive-0086","C-duck-drive-0090","C-duck-drive-0104","C-duck-walk-0006","C-grouse-atv-0037","C-grouse-atv-0045","C-grouse-drive-0012","C-grouse-drive-0052","C-grouse-drive-0088","C-grouse-walk-0008","C-grouse-walk-0019","C-grouse-walk-0038","C-grouse-walk-0047","C-grouse-walk-0049","C-grouse-walk-0062","C-moose-drive-0004","C-moose-drive-0005","C-moose-drive-0009","C-moose-drive-0060","C-moose-walk-0004","C-moose-walk-0008","C-moose-walk-0009","C-moose-walk-0011","C-moose-walk-0020","C-moose-walk-0025","C-moose-walk-0072"],"note":"Candidate, scout it first (estimate)"},"geometry":{"type":"Point","coordinates":[-119.23993,49.63993]}},
{"type":"Feature","properties":{"id":"C-camp-camp-0032","kind":"Crown land candidate","name":"4.4 km NE of Trout Creek Crossing rec site","campsites":null,"water":"Water: unnamed wetland 160 m E.","nearSpots":34,"closure":null,"spotIds":["C-deer-atv-0020","C-deer-atv-0046","C-deer-atv-0056","C-deer-atv-0058","C-deer-atv-0088","C-deer-drive-0013","C-deer-drive-0042","C-deer-drive-0048","C-deer-drive-0077","C-deer-drive-0084","C-deer-drive-0095","C-deer-walk-0025","C-deer-walk-0038","C-deer-walk-0086","C-deer-walk-0131","C-deer-walk-0150","C-deer-walk-0167","C-duck-drive-0061","C-duck-drive-0076","C-duck-walk-0016","C-grouse-atv-0021","C-grouse-atv-0042","C-grouse-atv-0043","C-grouse-drive-0019","C-grouse-drive-0068","C-grouse-drive-0089","C-grouse-walk-0028","C-grouse-walk-0029","C-moose-atv-0025","C-moose-atv-0033","C-moose-atv-0042","C-moose-drive-0036","C-moose-drive-0042","C-moose-walk-0043"],"note":"Candidate, scout it first (estimate)"},"geometry":{"type":"Point","coordinates":[-119.86789,49.66184]}},
{"type":"Feature","properties":{"id":"C-camp-camp-0033","kind":"Crown land candidate","name":"1.1 km NW of Naramata Creek","campsites":null,"water":"Water: unnamed wetland 60 m N.","nearSpots":29,"closure":null,"spotIds":["C-deer-atv-0064","C-deer-atv-0071","C-deer-drive-0033","C-deer-drive-0034","C-deer-drive-0071","C-deer-drive-0074","C-deer-drive-0104","C-deer-drive-0120","C-deer-drive-0135","C-deer-walk-0033","C-deer-walk-0116","C-deer-walk-0153","C-deer-walk-0169","C-deer-walk-0186","C-duck-drive-0026","C-duck-drive-0085","C-duck-drive-0099","C-grouse-atv-0016","C-grouse-atv-0056","C-grouse-drive-0031","C-grouse-drive-0032","C-grouse-drive-0054","C-grouse-walk-0068","C-moose-atv-0046","C-moose-drive-0044","C-moose-drive-0053","C-moose-walk-0085","C-quail-drive-0006","C-quail-drive-0068"],"note":"Candidate, scout it first (estimate)"},"geometry":{"type":"Point","coordinates":[-119.5236,49.62922]}},
{"type":"Feature","properties":{"id":"C-camp-camp-0034","kind":"Crown land candidate","name":"2.2 km N of Campbell Creek","campsites":null,"water":"Water: unnamed wetland 90 m W.","nearSpots":26,"closure":null,"spotIds":["C-duck-drive-0038","C-duck-drive-0052","C-duck-drive-0056","C-duck-drive-0086","C-duck-drive-0088","C-duck-drive-0104","C-grouse-atv-0014","C-grouse-atv-0037","C-grouse-drive-0012","C-grouse-drive-0025","C-grouse-drive-0067","C-grouse-walk-0004","C-grouse-walk-0005","C-grouse-walk-0038","C-grouse-walk-0047","C-grouse-walk-0050","C-grouse-walk-0062","C-moose-drive-0002","C-moose-drive-0005","C-moose-walk-0001","C-moose-walk-0004","C-moose-walk-0009","C-moose-walk-0011"],"note":"Candidate, scout it first (estimate)"},"geometry":{"type":"Point","coordinates":[-119.28997,49.61141]}},
{"type":"Feature","properties":{"id":"C-camp-camp-0035","kind":"Crown land candidate","name":"1.1 km NW of Saunier Creek","campsites":null,"water":"Water: unnamed wetland 100 m SW.","nearSpots":24,"closure":null,"spotIds":["C-duck-drive-0023","C-duck-drive-0064","C-duck-drive-0092","C-duck-drive-0116","C-duck-drive-0118","C-duck-walk-0023","C-grouse-atv-0030","C-grouse-atv-0039","C-grouse-drive-0009","C-grouse-drive-0016","C-grouse-drive-0050","C-grouse-drive-0053","C-grouse-drive-0075","C-grouse-drive-0082","C-moose-atv-0002","C-moose-atv-0003","C-moose-atv-0026","C-moose-atv-0059","C-moose-drive-0007","C-moose-drive-0010","C-moose-drive-0017","C-moose-drive-0024","C-moose-drive-0025","C-moose-walk-0033"],"note":"Candidate, scout it first (estimate)"},"geometry":{"type":"Point","coordinates":[-119.2384,49.5088]}},
{"type":"Feature","properties":{"id":"C-camp-camp-0036","kind":"Crown land candidate","name":"1.3 km E of Ellis Creek","campsites":null,"water":"Water: unnamed wetland 130 m S.","nearSpots":29,"closure":null,"spotIds":["C-duck-drive-0018","C-duck-drive-0030","C-duck-drive-0054","C-duck-drive-0069","C-duck-drive-0079","C-duck-drive-0081","C-duck-drive-0092","C-duck-drive-0100","C-duck-drive-0111","C-duck-walk-0002","C-duck-walk-0003","C-duck-walk-0007","C-duck-walk-0032","C-grouse-atv-0033","C-grouse-drive-0016","C-grouse-drive-0034","C-grouse-drive-0037","C-grouse-drive-0041","C-grouse-drive-0059","C-grouse-drive-0090","C-grouse-drive-0094","C-grouse-walk-0052","C-grouse-walk-0060","C-moose-atv-0021","C-moose-atv-0026","C-moose-atv-0030","C-moose-atv-0032","C-moose-atv-0070","C-moose-walk-0033"],"note":"Candidate, scout it first (estimate)"},"geometry":{"type":"Point","coordinates":[-119.3453,49.46934]}},
{"type":"Feature","properties":{"id":"C-camp-camp-0037","kind":"Crown land candidate","name":"410 m S of Saunier Creek","campsites":null,"water":"Water: unnamed wetland 200 m S.","nearSpots":27,"closure":null,"spotIds":["C-duck-drive-0030","C-duck-drive-0031","C-duck-drive-0070","C-duck-drive-0074","C-duck-drive-0077","C-duck-drive-0078","C-duck-drive-0079","C-duck-drive-0081","C-duck-drive-0094","C-duck-drive-0110","C-duck-drive-0111","C-duck-walk-0003","C-duck-walk-0007","C-duck-walk-0032","C-grouse-atv-0036","C-grouse-drive-0034","C-grouse-drive-0037","C-grouse-drive-0057","C-grouse-drive-0062","C-grouse-drive-0090","C-grouse-drive-0094","C-grouse-walk-0060","C-moose-atv-0021","C-moose-atv-0032","C-moose-atv-0051","C-moose-drive-0028"],"note":"Candidate, scout it first (estimate)"},"geometry":{"type":"Point","coordinates":[-119.31449,49.44304]}},
{"type":"Feature","properties":{"id":"C-camp-camp-0038","kind":"Crown land candidate","name":"190 m N of Clark Creek","campsites":null,"water":"Water: unnamed wetland 190 m SE.","nearSpots":25,"closure":null,"spotIds":["C-deer-atv-0030","C-deer-atv-0077","C-deer-atv-0079","C-deer-atv-0082","C-deer-atv-0085","C-deer-atv-0106","C-deer-drive-0111","C-deer-drive-0125","C-deer-drive-0132","C-deer-drive-0137","C-deer-walk-0058","C-deer-walk-0165","C-deer-walk-0179","C-deer-walk-0182","C-deer-walk-0193","C-deer-walk-0208","C-deer-walk-0209","C-duck-drive-0008","C-duck-drive-0068","C-grouse-drive-0080","C-moose-atv-0049","C-moose-walk-0066","C-moose-walk-0075","C-moose-walk-0089"],"note":"Candidate, scout it first (estimate)"},"geometry":{"type":"Point","coordinates":[-119.80378,49.46766]}},
{"type":"Feature","properties":{"id":"C-camp-camp-0039","kind":"Crown land candidate","name":"4.1 km N of Tuzo Lake","campsites":null,"water":"Water: unnamed wetland 190 m S.","nearSpots":20,"closure":null,"spotIds":["C-duck-drive-0066","C-duck-drive-0070","C-duck-drive-0074","C-duck-drive-0078","C-duck-drive-0079","C-duck-drive-0094","C-duck-drive-0095","C-duck-walk-0007","C-grouse-atv-0036","C-grouse-drive-0014","C-grouse-drive-0039","C-grouse-drive-0057","C-grouse-drive-0062","C-moose-atv-0021","C-moose-atv-0051","C-moose-drive-0028","C-moose-drive-0029","C-moose-walk-0038","C-moose-walk-0073"],"note":"Candidate, scout it first (estimate)"},"geometry":{"type":"Point","coordinates":[-119.26688,49.41839]}},
{"type":"Feature","properties":{"id":"C-camp-camp-0040","kind":"Crown land candidate","name":"1.6 km NW of Hedley Creek","campsites":null,"water":"Water: unnamed wetland 60 m N.","nearSpots":15,"closure":null,"spotIds":["C-deer-drive-0105","C-deer-drive-0110","C-deer-walk-0099","C-deer-walk-0128","C-deer-walk-0149","C-duck-drive-0059","C-duck-drive-0084","C-duck-drive-0096","C-duck-walk-0008","C-grouse-atv-0007","C-grouse-atv-0027","C-grouse-drive-0083","C-grouse-walk-0034","C-grouse-walk-0054","C-moose-drive-0027"],"note":"Candidate, scout it first (estimate)"},"geometry":{"type":"Point","coordinates":[-120.05523,49.44926]}},
{"type":"Feature","properties":{"id":"C-camp-camp-0041","kind":"Crown land candidate","name":"4.7 km N of Venner Meadows","campsites":null,"water":"Water: unnamed wetland 180 m SE.","nearSpots":27,"closure":null,"spotIds":["C-deer-drive-0024","C-deer-drive-0029","C-deer-drive-0030","C-deer-drive-0067","C-duck-drive-0016","C-duck-drive-0020","C-duck-drive-0024","C-duck-drive-0036","C-duck-drive-0041","C-duck-drive-0051","C-duck-drive-0067","C-duck-drive-0071","C-duck-drive-0080","C-duck-drive-0082","C-duck-drive-0089","C-duck-walk-0019","C-duck-walk-0022","C-grouse-drive-0003","C-grouse-drive-0011","C-grouse-drive-0017","C-grouse-drive-0020","C-grouse-drive-0036","C-grouse-drive-0055","C-moose-atv-0027","C-moose-drive-0034","C-moose-walk-0041"],"note":"Candidate, scout it first (estimate)"},"geometry":{"type":"Point","coordinates":[-119.34828,49.32401]}},
{"type":"Feature","properties":{"id":"C-camp-camp-0042","kind":"Crown land candidate","name":"2.2 km N of Venner Meadows","campsites":null,"water":"Water: unnamed wetland 180 m W.","nearSpots":22,"closure":null,"spotIds":["C-deer-walk-0134","C-duck-drive-0016","C-duck-drive-0024","C-duck-drive-0036","C-duck-drive-0042","C-duck-drive-0051","C-duck-drive-0071","C-duck-drive-0080","C-duck-drive-0089","C-duck-walk-0019","C-duck-walk-0022","C-grouse-atv-0046","C-grouse-drive-0011","C-grouse-drive-0013","C-grouse-drive-0017","C-grouse-drive-0036","C-grouse-drive-0055","C-grouse-walk-0065","C-moose-atv-0027","C-moose-drive-0030","C-moose-drive-0034","C-moose-walk-0041"],"note":"Candidate, scout it first (estimate)"},"geometry":{"type":"Point","coordinates":[-119.32389,49.30171]}},
{"type":"Feature","properties":{"id":"C-camp-camp-0043","kind":"Crown land candidate","name":"1.2 km E of Solco Creek","campsites":null,"water":"Water: unnamed wetland right here.","nearSpots":21,"closure":null,"spotIds":["C-deer-drive-0152","C-deer-walk-0134","C-deer-walk-0158","C-duck-drive-0016","C-duck-drive-0036","C-duck-drive-0042","C-duck-drive-0071","C-duck-drive-0080","C-duck-drive-0102","C-duck-drive-0113","C-duck-walk-0021","C-grouse-atv-0046","C-grouse-drive-0011","C-grouse-drive-0013","C-grouse-drive-0017","C-grouse-drive-0055","C-grouse-walk-0064","C-grouse-walk-0065","C-moose-drive-0030","C-moose-drive-0034","C-moose-walk-0041"],"note":"Candidate, scout it first (estimate)"},"geometry":{"type":"Point","coordinates":[-119.28253,49.29191]}},
{"type":"Feature","properties":{"id":"C-camp-camp-0044","kind":"Crown land candidate","name":"1.2 km E of Horn Creek","campsites":null,"water":"Water: unnamed wetland right here.","nearSpots":47,"closure":null,"spotIds":["C-deer-atv-0004","C-deer-atv-0044","C-deer-atv-0048","C-deer-atv-0050","C-deer-atv-0054","C-deer-drive-0014","C-deer-drive-0015","C-deer-drive-0037","C-deer-drive-0063","C-deer-drive-0069","C-deer-drive-0076","C-deer-drive-0090","C-deer-drive-0093","C-deer-drive-0149","C-deer-walk-0028","C-deer-walk-0034","C-deer-walk-0051","C-deer-walk-0057","C-deer-walk-0063","C-deer-walk-0076","C-deer-walk-0079","C-deer-walk-0089","C-deer-walk-0095","C-deer-walk-0097","C-deer-walk-0124","C-deer-walk-0175","C-deer-walk-0181","C-deer-walk-0200","C-duck-drive-0006","C-duck-drive-0083","C-duck-drive-0105","C-duck-drive-0114","C-grouse-atv-0048","C-grouse-atv-0051","C-grouse-atv-0053","C-grouse-drive-0022","C-grouse-drive-0049","C-grouse-drive-0076","C-moose-atv-0038","C-moose-atv-0065"],"note":"Candidate, scout it first (estimate)"},"geometry":{"type":"Point","coordinates":[-119.74498,49.28902]}},
{"type":"Feature","properties":{"id":"C-camp-camp-0045","kind":"Crown land candidate","name":"640 m SW of Horn Creek","campsites":null,"water":"Water: unnamed wetland 80 m SW.","nearSpots":39,"closure":null,"spotIds":["C-deer-atv-0044","C-deer-atv-0048","C-deer-atv-0050","C-deer-atv-0078","C-deer-atv-0092","C-deer-drive-0037","C-deer-drive-0040","C-deer-drive-0047","C-deer-drive-0063","C-deer-drive-0069","C-deer-drive-0076","C-deer-drive-0090","C-deer-drive-0149","C-deer-walk-0034","C-deer-walk-0042","C-deer-walk-0076","C-deer-walk-0079","C-deer-walk-0089","C-deer-walk-0097","C-deer-walk-0175","C-deer-walk-0181","C-deer-walk-0200","C-duck-drive-0083","C-duck-drive-0105","C-grouse-atv-0053","C-grouse-drive-0022","C-grouse-drive-0049","C-grouse-drive-0051","C-grouse-drive-0076","C-moose-drive-0043","C-moose-drive-0047","C-moose-drive-0050","C-moose-drive-0054","C-moose-walk-0060","C-quail-drive-0062","C-quail-drive-0063","C-quail-drive-0067","C-quail-walk-0052","C-quail-walk-0055"],"note":"Candidate, scout it first (estimate)"},"geometry":{"type":"Point","coordinates":[-119.79068,49.27721]}},
{"type":"Feature","properties":{"id":"C-camp-camp-0046","kind":"Crown land candidate","name":"940 m NE of Underdown Creek","campsites":null,"water":"Water: unnamed wetland 60 m SW.","nearSpots":23,"closure":null,"spotIds":["C-deer-drive-0097","C-deer-drive-0152","C-deer-walk-0134","C-deer-walk-0158","C-deer-walk-0159","C-duck-drive-0042","C-duck-drive-0053","C-duck-drive-0072","C-duck-drive-0098","C-duck-drive-0113","C-duck-walk-0020","C-grouse-atv-0047","C-grouse-drive-0001","C-grouse-drive-0013","C-grouse-drive-0029","C-grouse-drive-0078","C-grouse-drive-0079","C-grouse-walk-0017","C-moose-atv-0035","C-moose-drive-0030","C-moose-drive-0037","C-moose-walk-0044","C-moose-walk-0058"],"note":"Candidate, scout it first (estimate)"},"geometry":{"type":"Point","coordinates":[-119.29593,49.2376]}},
{"type":"Feature","properties":{"id":"C-camp-camp-0047","kind":"Crown land candidate","name":"2.2 km NW of Wolfcub Creek","campsites":null,"water":"Water: unnamed wetland 40 m E.","nearSpots":18,"closure":null,"spotIds":["C-deer-atv-0002","C-deer-drive-0001","C-deer-drive-0006","C-deer-drive-0009","C-deer-drive-0026","C-deer-drive-0031","C-deer-walk-0011","C-deer-walk-0023","C-deer-walk-0031","C-deer-walk-0120","C-grouse-atv-0018","C-grouse-atv-0057","C-grouse-drive-0042","C-grouse-drive-0043"],"note":"Candidate, scout it first (estimate)"},"geometry":{"type":"Point","coordinates":[-119.4458,49.21067]}},
{"type":"Feature","properties":{"id":"C-camp-camp-0048","kind":"Crown land candidate","name":"1.6 km NW of Baldy Creek","campsites":null,"water":"Water: unnamed lake 120 m S.","nearSpots":33,"closure":null,"spotIds":["C-deer-atv-0001","C-deer-atv-0002","C-deer-atv-0008","C-deer-atv-0059","C-deer-atv-0067","C-deer-drive-0001","C-deer-drive-0002","C-deer-drive-0102","C-deer-drive-0108","C-deer-drive-0154","C-deer-walk-0011","C-deer-walk-0144","C-deer-walk-0148","C-duck-drive-0101","C-duck-walk-0020","C-grouse-atv-0003","C-grouse-atv-0018","C-grouse-atv-0057","C-grouse-drive-0005","C-grouse-drive-0042","C-grouse-drive-0043","C-grouse-drive-0079","C-moose-atv-0034","C-moose-atv-0035","C-moose-atv-0052","C-moose-atv-0067","C-moose-atv-0071","C-moose-drive-0032","C-moose-drive-0033","C-moose-drive-0040","C-moose-drive-0052","C-moose-walk-0046","C-moose-walk-0088"],"note":"Candidate, scout it first (estimate)"},"geometry":{"type":"Point","coordinates":[-119.36731,49.1914]}},
{"type":"Feature","properties":{"id":"C-camp-camp-0049","kind":"Crown land candidate","name":"1.0 km E of Baldy Creek","campsites":null,"water":"Water: unnamed wetland 160 m E.","nearSpots":42,"closure":null,"spotIds":["C-deer-atv-0001","C-deer-atv-0002","C-deer-atv-0008","C-deer-atv-0059","C-deer-atv-0067","C-deer-atv-0069","C-deer-drive-0002","C-deer-drive-0003","C-deer-drive-0068","C-deer-drive-0070","C-deer-drive-0102","C-deer-drive-0106","C-deer-drive-0108","C-deer-drive-0154","C-deer-walk-0004","C-deer-walk-0011","C-deer-walk-0144","C-deer-walk-0148","C-duck-drive-0091","C-duck-drive-0097","C-duck-drive-0101","C-duck-drive-0108","C-grouse-atv-0003","C-grouse-drive-0002","C-grouse-drive-0005","C-grouse-drive-0006","C-grouse-drive-0043","C-grouse-drive-0044","C-moose-atv-0052","C-moose-atv-0057","C-moose-atv-0071","C-moose-drive-0032","C-moose-drive-0033","C-moose-drive-0038","C-moose-drive-0040","C-moose-drive-0052","C-moose-drive-0059","C-moose-drive-0064","C-moose-walk-0084","C-moose-walk-0088"],"note":"Candidate, scout it first (estimate)"},"geometry":{"type":"Point","coordinates":[-119.36289,49.15496]}},
{"type":"Feature","properties":{"id":"C-camp-camp-0050","kind":"Crown land candidate","name":"2.8 km S of Mckinney Cross Country Ski Area rec site","campsites":null,"water":"Water: unnamed wetland 190 m SE.","nearSpots":31,"closure":null,"spotIds":["C-deer-atv-0034","C-deer-atv-0051","C-deer-atv-0057","C-deer-drive-0086","C-deer-walk-0093","C-duck-drive-0017","C-duck-drive-0029","C-duck-drive-0043","C-duck-drive-0058","C-duck-drive-0062","C-duck-drive-0063","C-duck-drive-0112","C-duck-walk-0013","C-duck-walk-0025","C-grouse-drive-0004","C-grouse-drive-0010","C-grouse-drive-0028","C-grouse-walk-0066","C-moose-atv-0001","C-moose-atv-0013","C-moose-atv-0024","C-moose-atv-0041","C-moose-atv-0050","C-moose-atv-0053","C-moose-atv-0056","C-moose-drive-0003","C-moose-drive-0006","C-moose-drive-0062","C-moose-walk-0002","C-moose-walk-0070"],"note":"Candidate, scout it first (estimate)"},"geometry":{"type":"Point","coordinates":[-119.26722,49.07485]}},
{"type":"Feature","properties":{"id":"C-camp-camp-0051","kind":"Crown land candidate","name":"By Darke Creek","campsites":null,"water":"Water: Darke Creek 90 m N.","nearSpots":19,"closure":null,"spotIds":["C-deer-atv-0020","C-deer-atv-0056","C-deer-atv-0088","C-deer-atv-0104","C-deer-drive-0013","C-deer-drive-0042","C-deer-drive-0048","C-deer-drive-0077","C-deer-walk-0025","C-deer-walk-0038","C-deer-walk-0059","C-deer-walk-0108","C-deer-walk-0133","C-duck-drive-0076","C-grouse-atv-0042","C-grouse-drive-0019","C-moose-atv-0033","C-moose-atv-0042","C-moose-drive-0042"],"note":"Candidate, scout it first (estimate)"},"geometry":{"type":"Point","coordinates":[-119.8211,49.67905]}},
{"type":"Feature","properties":{"id":"C-camp-camp-0052","kind":"Crown land candidate","name":"By Skaha Lake","campsites":null,"water":"Water: Skaha Lake right here.","nearSpots":30,"closure":null,"spotIds":["C-deer-atv-0084","C-deer-drive-0039","C-deer-drive-0099","C-deer-drive-0136","C-deer-drive-0142","C-deer-drive-0145","C-deer-drive-0146","C-deer-drive-0156","C-deer-walk-0043","C-deer-walk-0085","C-deer-walk-0170","C-deer-walk-0192","C-duck-drive-0002","C-duck-drive-0013","C-quail-drive-0002","C-quail-drive-0008","C-quail-drive-0021","C-quail-drive-0037","C-quail-drive-0039","C-quail-drive-0040","C-quail-drive-0049","C-quail-drive-0050","C-quail-drive-0052","C-quail-walk-0002","C-quail-walk-0013","C-quail-walk-0025","C-quail-walk-0033","C-quail-walk-0035","C-quail-walk-0040"],"note":"Candidate, scout it first (estimate)"},"geometry":{"type":"Point","coordinates":[-119.57923,49.3606]}},
{"type":"Feature","properties":{"id":"C-camp-camp-0053","kind":"Crown land candidate","name":"By Prather Lake","campsites":null,"water":"Water: Prather Lake right here.","nearSpots":38,"closure":null,"spotIds":["C-deer-atv-0053","C-deer-atv-0055","C-deer-atv-0070","C-deer-atv-0073","C-deer-atv-0096","C-deer-drive-0059","C-deer-drive-0061","C-deer-drive-0099","C-deer-drive-0117","C-deer-drive-0136","C-deer-drive-0145","C-deer-drive-0147","C-deer-walk-0070","C-deer-walk-0072","C-deer-walk-0085","C-deer-walk-0110","C-deer-walk-0164","C-deer-walk-0170","C-deer-walk-0173","C-deer-walk-0180","C-duck-drive-0010","C-duck-drive-0013","C-duck-walk-0033","C-quail-drive-0003","C-quail-drive-0004","C-quail-drive-0008","C-quail-drive-0021","C-quail-drive-0033","C-quail-drive-0035","C-quail-drive-0037","C-quail-drive-0039","C-quail-drive-0052","C-quail-walk-0001","C-quail-walk-0015","C-quail-walk-0017","C-quail-walk-0021","C-quail-walk-0033","C-quail-walk-0035"],"note":"Candidate, scout it first (estimate)"},"geometry":{"type":"Point","coordinates":[-119.63325,49.3394]}},
{"type":"Feature","properties":{"id":"C-camp-camp-0054","kind":"Crown land candidate","name":"By Toy Lake","campsites":null,"water":"Water: Toy Lake 60 m NE.","nearSpots":37,"closure":null,"spotIds":["C-deer-atv-0023","C-deer-atv-0027","C-deer-atv-0038","C-deer-atv-0040","C-deer-atv-0070","C-deer-atv-0096","C-deer-atv-0102","C-deer-drive-0011","C-deer-drive-0041","C-deer-drive-0059","C-deer-drive-0085","C-deer-drive-0093","C-deer-walk-0008","C-deer-walk-0040","C-deer-walk-0047","C-deer-walk-0055","C-deer-walk-0057","C-deer-walk-0060","C-deer-walk-0072","C-deer-walk-0083","C-deer-walk-0095","C-deer-walk-0173","C-deer-walk-0174","C-deer-walk-0204","C-duck-drive-0006","C-duck-drive-0007","C-duck-drive-0014","C-grouse-drive-0049","C-moose-atv-0037","C-moose-atv-0065","C-moose-atv-0066","C-moose-drive-0063","C-moose-walk-0054","C-moose-walk-0076","C-moose-walk-0077","C-quail-drive-0061"],"note":"Candidate, scout it first (estimate)"},"geometry":{"type":"Point","coordinates":[-119.73931,49.34109]}},
{"type":"Feature","properties":{"id":"C-camp-camp-0055","kind":"Crown land candidate","name":"By Shoemaker Creek","campsites":null,"water":"Water: Shoemaker Creek right here.","nearSpots":17,"closure":null,"spotIds":["C-deer-drive-0054","C-deer-walk-0113","C-deer-walk-0141","C-deer-walk-0142","C-deer-walk-0176","C-deer-walk-0207","C-grouse-atv-0012","C-grouse-atv-0024","C-grouse-atv-0055","C-grouse-walk-0016","C-grouse-walk-0055","C-quail-drive-0009","C-quail-drive-0014","C-quail-drive-0017","C-quail-walk-0038","C-quail-walk-0051","C-quail-walk-0057"],"note":"Candidate, scout it first (estimate)"},"geometry":{"type":"Point","coordinates":[-120.01184,49.25089]}},
{"type":"Feature","properties":{"id":"C-camp-camp-0056","kind":"Crown land candidate","name":"120 m NE of Spotted Lake","campsites":null,"water":"Water: Spotted Lake 120 m SW.","nearSpots":16,"closure":null,"spotIds":["C-deer-atv-0025","C-deer-walk-0039","C-duck-drive-0001","C-duck-drive-0003","C-duck-drive-0004","C-duck-drive-0009","C-quail-atv-0003","C-quail-drive-0015","C-quail-drive-0030","C-quail-drive-0036","C-quail-drive-0047","C-quail-drive-0057","C-quail-walk-0008","C-quail-walk-0043","C-quail-walk-0060"],"note":"Candidate, scout it first (estimate)"},"geometry":{"type":"Point","coordinates":[-119.56711,49.08061]}},
{"type":"Feature","properties":{"id":"C-camp-camp-0057","kind":"Crown land candidate","name":"190 m SW of Similkameen River","campsites":null,"water":"Water: Similkameen River 190 m NE.","nearSpots":28,"closure":null,"spotIds":["C-deer-atv-0032","C-deer-drive-0010","C-deer-drive-0022","C-deer-drive-0028","C-deer-drive-0038","C-deer-drive-0043","C-deer-drive-0053","C-deer-drive-0098","C-deer-walk-0044","C-deer-walk-0052","C-deer-walk-0053","C-deer-walk-0073","C-deer-walk-0117","C-deer-walk-0143","C-quail-drive-0012","C-quail-drive-0023","C-quail-drive-0031","C-quail-drive-0032","C-quail-drive-0038","C-quail-drive-0042","C-quail-walk-0009","C-quail-walk-0030","C-quail-walk-0037","C-quail-walk-0046","C-quail-walk-0058"],"note":"Candidate, scout it first (estimate)"},"geometry":{"type":"Point","coordinates":[-119.7178,49.05249]}},
{"type":"Feature","properties":{"id":"C-camp-camp-0058","kind":"Crown land candidate","name":"170 m W of Osoyoos Lake","campsites":null,"water":"Water: Osoyoos Lake 170 m E.","nearSpots":5,"closure":null,"spotIds":["C-deer-drive-0062","C-quail-atv-0004","C-quail-drive-0044","C-quail-drive-0055","C-quail-walk-0044"],"note":"Candidate, scout it first (estimate)"},"geometry":{"type":"Point","coordinates":[-119.46037,49.00001]}},
{"type":"Feature","properties":{"id":"C-camp-camp-0059","kind":"Rec site","name":"Chute Lake rec site","campsites":4,"water":"Water: unnamed wetland 30 m N.","nearSpots":28,"closure":null,"spotIds":["C-deer-drive-0036","C-deer-drive-0074","C-deer-walk-0077","C-deer-walk-0098","C-duck-drive-0026","C-duck-drive-0028","C-duck-drive-0065","C-duck-drive-0073","C-duck-drive-0099","C-grouse-atv-0052","C-grouse-drive-0032","C-grouse-drive-0070","C-grouse-walk-0001","C-grouse-walk-0014","C-moose-atv-0007","C-moose-atv-0008","C-moose-atv-0046","C-moose-atv-0062","C-moose-drive-0008","C-moose-drive-0046","C-moose-drive-0049","C-moose-drive-0053","C-moose-walk-0003","C-moose-walk-0019","C-moose-walk-0021","C-moose-walk-0081"],"note":"Official rec site"},"geometry":{"type":"Point","coordinates":[-119.53332,49.68913]}},
{"type":"Feature","properties":{"id":"C-camp-camp-0060","kind":"Rec site","name":"Isintok Lake rec site","campsites":6,"water":"Water: Isintok Lake 30 m S.","nearSpots":16,"closure":"The Recreation Site is closed due to an active wildfire in the area. Primary access route travels through burnt area of Bald Range Fire.","spotIds":["C-deer-walk-0147","C-duck-drive-0027","C-duck-drive-0039","C-duck-drive-0044","C-duck-walk-0027","C-grouse-atv-0011","C-grouse-atv-0029","C-grouse-drive-0018","C-grouse-drive-0048","C-grouse-walk-0007","C-grouse-walk-0045","C-grouse-walk-0057","C-grouse-walk-0061","C-moose-drive-0026","C-moose-walk-0034","C-moose-walk-0053"],"note":"Official rec site"},"geometry":{"type":"Point","coordinates":[-119.97567,49.54456]}},
{"type":"Feature","properties":{"id":"C-camp-camp-0061","kind":"Rec site","name":"Burnell Lake rec site","campsites":9,"water":"Water: Burnell Lake 50 m S.","nearSpots":37,"closure":null,"spotIds":["C-deer-drive-0046","C-deer-drive-0055","C-deer-drive-0056","C-deer-drive-0058","C-deer-drive-0078","C-deer-drive-0079","C-deer-drive-0081","C-deer-walk-0009","C-deer-walk-0016","C-deer-walk-0064","C-deer-walk-0065","C-deer-walk-0068","C-deer-walk-0078","C-deer-walk-0152","C-duck-drive-0005","C-duck-drive-0011","C-duck-drive-0034","C-duck-drive-0109","C-duck-walk-0001","C-grouse-drive-0081","C-moose-drive-0041","C-moose-drive-0057","C-moose-drive-0061","C-moose-walk-0052","C-quail-drive-0005","C-quail-drive-0020","C-quail-drive-0024","C-quail-drive-0028","C-quail-drive-0053","C-quail-drive-0054","C-quail-walk-0020","C-quail-walk-0024","C-quail-walk-0028","C-quail-walk-0031","C-quail-walk-0032","C-quail-walk-0045","C-quail-walk-0062"],"note":"Official rec site"},"geometry":{"type":"Point","coordinates":[-119.61856,49.2087]}},
{"type":"Feature","properties":{"id":"C-camp-camp-0062","kind":"Rec site","name":"Idleback Lake rec site","campsites":21,"water":"Water: Idleback Lake 30 m E.","nearSpots":24,"closure":null,"spotIds":["C-duck-drive-0018","C-duck-drive-0023","C-duck-drive-0030","C-duck-drive-0054","C-duck-drive-0064","C-duck-drive-0069","C-duck-drive-0092","C-duck-drive-0116","C-duck-walk-0002","C-duck-walk-0032","C-grouse-drive-0009","C-grouse-drive-0016","C-grouse-drive-0033","C-grouse-drive-0034","C-grouse-drive-0041","C-grouse-drive-0053","C-grouse-drive-0090","C-grouse-walk-0051","C-moose-atv-0026","C-moose-atv-0030","C-moose-atv-0032","C-moose-drive-0024","C-moose-drive-0025","C-moose-walk-0033"],"note":"Official rec site"},"geometry":{"type":"Point","coordinates":[-119.29926,49.50941]}},
{"type":"Feature","properties":{"id":"C-camp-camp-0063","kind":"Rec site","name":"Solco Lake rec site","campsites":6,"water":"Water: Solco Lake 70 m SE.","nearSpots":19,"closure":null,"spotIds":["C-duck-drive-0020","C-duck-drive-0021","C-duck-drive-0050","C-duck-drive-0057","C-duck-drive-0066","C-duck-drive-0067","C-duck-drive-0080","C-duck-drive-0095","C-duck-walk-0017","C-grouse-drive-0003","C-grouse-drive-0011","C-grouse-walk-0065","C-moose-drive-0029","C-moose-drive-0034","C-moose-drive-0035","C-moose-walk-0038","C-moose-walk-0040","C-moose-walk-0041","C-moose-walk-0073"],"note":"Official rec site"},"geometry":{"type":"Point","coordinates":[-119.27703,49.35949]}},
{"type":"Feature","properties":{"id":"C-camp-camp-0064","kind":"Crown land candidate","name":"170 m W of Okanagan Lake","campsites":null,"water":"Water: Okanagan Lake 170 m E.","nearSpots":3,"closure":null,"spotIds":["C-deer-drive-0133","C-quail-drive-0056","C-quail-walk-0016"],"note":"Candidate, scout it first (estimate)"},"geometry":{"type":"Point","coordinates":[-119.63599,49.55006]}},
{"type":"Feature","properties":{"id":"C-camp-camp-0065","kind":"Rec site","name":"Tunnel rec site","campsites":4,"water":"Water: Ashnola River 20 m SE.","nearSpots":9,"closure":null,"spotIds":["C-deer-drive-0052","C-deer-walk-0088","C-deer-walk-0111","C-deer-walk-0118","C-deer-walk-0125","C-grouse-atv-0024","C-grouse-walk-0009","C-grouse-walk-0024","C-grouse-walk-0067"],"note":"Official rec site"},"geometry":{"type":"Point","coordinates":[-120.00168,49.16879]}},
{"type":"Feature","properties":{"id":"C-camp-camp-0066","kind":"Rec site","name":"Ashnola River rec site","campsites":2,"water":"Water: Ashnola River 30 m S.","nearSpots":6,"closure":null,"spotIds":["C-deer-drive-0052","C-deer-walk-0026","C-deer-walk-0062","C-deer-walk-0087","C-deer-walk-0088","C-grouse-walk-0067"],"note":"Official rec site"},"geometry":{"type":"Point","coordinates":[-120.02824,49.14008]}},
{"type":"Feature","properties":{"id":"C-camp-camp-0067","kind":"Rec site","name":"Okanagan Falls Trails rec site","campsites":12,"water":null,"nearSpots":44,"closure":null,"spotIds":["C-deer-atv-0005","C-deer-atv-0011","C-deer-atv-0016","C-deer-atv-0084","C-deer-drive-0004","C-deer-drive-0005","C-deer-drive-0007","C-deer-drive-0008","C-deer-drive-0016","C-deer-drive-0018","C-deer-drive-0020","C-deer-drive-0025","C-deer-drive-0027","C-deer-drive-0146","C-deer-drive-0156","C-deer-walk-0005","C-deer-walk-0010","C-deer-walk-0012","C-deer-walk-0043","C-deer-walk-0192","C-grouse-atv-0013","C-grouse-atv-0020","C-grouse-atv-0044","C-grouse-drive-0047","C-grouse-walk-0033","C-grouse-walk-0059","C-moose-atv-0014","C-moose-atv-0015","C-moose-atv-0016","C-moose-atv-0017","C-moose-drive-0020","C-moose-drive-0022","C-moose-walk-0016","C-moose-walk-0024","C-quail-drive-0049","C-quail-drive-0058","C-quail-walk-0002","C-quail-walk-0003","C-quail-walk-0025","C-quail-walk-0040"],"note":"Official rec site"},"geometry":{"type":"Point","coordinates":[-119.5007,49.33995]}},
{"type":"Feature","properties":{"id":"C-camp-camp-0068","kind":"Rec site","name":"Trout Creek Crossing rec site","campsites":3,"water":"Water: Trout Creek 120 m NE.","nearSpots":33,"closure":"The Recreation Site is closed due to an active wildfire in the area. The area is currently under Evacuation Order. Find further information at BC Wildfire Service .","spotIds":["C-deer-atv-0022","C-deer-atv-0046","C-deer-atv-0049","C-deer-atv-0060","C-deer-atv-0063","C-deer-atv-0066","C-deer-atv-0076","C-deer-atv-0093","C-deer-drive-0048","C-deer-drive-0077","C-deer-drive-0080","C-deer-drive-0084","C-deer-drive-0091","C-deer-drive-0094","C-deer-drive-0095","C-deer-walk-0106","C-deer-walk-0119","C-deer-walk-0131","C-deer-walk-0150","C-duck-drive-0012","C-duck-drive-0076","C-grouse-atv-0021","C-grouse-atv-0040","C-grouse-atv-0041","C-grouse-atv-0043","C-grouse-drive-0019","C-grouse-drive-0060","C-grouse-drive-0068","C-grouse-drive-0085","C-grouse-drive-0089","C-grouse-walk-0028","C-grouse-walk-0029","C-moose-drive-0042"],"note":"Official rec site"},"geometry":{"type":"Point","coordinates":[-119.92321,49.6463]}},
{"type":"Feature","properties":{"id":"C-camp-camp-0069","kind":"Rec site","name":"Madden Lake rec site","campsites":9,"water":"Water: unnamed wetland 130 m NE.","nearSpots":36,"closure":null,"spotIds":["C-deer-atv-0033","C-deer-atv-0094","C-deer-drive-0017","C-deer-drive-0046","C-deer-drive-0056","C-deer-drive-0058","C-deer-drive-0079","C-deer-drive-0081","C-deer-walk-0009","C-deer-walk-0041","C-deer-walk-0064","C-deer-walk-0065","C-deer-walk-0068","C-duck-drive-0005","C-duck-drive-0011","C-duck-drive-0034","C-duck-drive-0046","C-duck-drive-0109","C-duck-walk-0001","C-grouse-atv-0032","C-grouse-drive-0081","C-moose-atv-0063","C-moose-drive-0041","C-moose-drive-0045","C-moose-drive-0057","C-moose-drive-0061","C-moose-walk-0052","C-quail-drive-0020","C-quail-drive-0024","C-quail-drive-0043","C-quail-drive-0053","C-quail-walk-0005","C-quail-walk-0020","C-quail-walk-0023","C-quail-walk-0032","C-quail-walk-0062"],"note":"Official rec site"},"geometry":{"type":"Point","coordinates":[-119.63055,49.23052]}},
{"type":"Feature","properties":{"id":"C-camp-camp-0070","kind":"Rec site","name":"Agur Lake rec site","campsites":2,"water":"Water: unnamed wetland right here.","nearSpots":43,"closure":"The Recreation Site remains closed for wildfire recovery activities (for example, danger tree assessing and falling, area assessments, etc.) and to prevent negative impacts to ecosystems and wildlife.","spotIds":["C-deer-atv-0029","C-deer-atv-0090","C-deer-atv-0091","C-deer-atv-0093","C-deer-atv-0095","C-deer-atv-0097","C-deer-drive-0035","C-deer-drive-0064","C-deer-drive-0073","C-deer-drive-0109","C-deer-drive-0121","C-deer-drive-0122","C-deer-drive-0129","C-deer-drive-0130","C-deer-drive-0139","C-deer-walk-0037","C-deer-walk-0061","C-deer-walk-0167","C-deer-walk-0187","C-deer-walk-0191","C-deer-walk-0195","C-deer-walk-0196","C-duck-drive-0049","C-duck-walk-0031","C-grouse-drive-0030","C-grouse-walk-0030","C-moose-atv-0009","C-moose-atv-0018","C-moose-atv-0019","C-moose-atv-0069","C-moose-drive-0001","C-moose-drive-0012","C-moose-walk-0006","C-moose-walk-0007","C-moose-walk-0028","C-moose-walk-0029","C-quail-drive-0007","C-quail-drive-0059"],"note":"Official rec site"},"geometry":{"type":"Point","coordinates":[-119.83181,49.58255]}},
{"type":"Feature","properties":{"id":"C-camp-camp-0071","kind":"Rec site","name":"Crump rec site","campsites":2,"water":null,"nearSpots":39,"closure":"The Recreation Site remains closed for wildfire recovery activities (for example, danger tree assessing and falling, area assessments, etc.) and to prevent negative impacts to ecosystems and wildlife.","spotIds":["C-deer-atv-0022","C-deer-atv-0029","C-deer-atv-0047","C-deer-atv-0088","C-deer-atv-0090","C-deer-atv-0093","C-deer-atv-0095","C-deer-drive-0035","C-deer-drive-0048","C-deer-drive-0064","C-deer-drive-0073","C-deer-drive-0095","C-deer-drive-0115","C-deer-drive-0121","C-deer-drive-0122","C-deer-walk-0037","C-deer-walk-0061","C-deer-walk-0100","C-deer-walk-0131","C-deer-walk-0167","C-duck-drive-0049","C-duck-walk-0031","C-grouse-atv-0041","C-grouse-atv-0043","C-grouse-drive-0030","C-grouse-drive-0068","C-grouse-walk-0028","C-grouse-walk-0030","C-moose-atv-0018","C-moose-atv-0069","C-moose-drive-0001","C-moose-drive-0012","C-moose-walk-0006","C-moose-walk-0007","C-moose-walk-0023","C-moose-walk-0028","C-quail-drive-0059"],"note":"Official rec site"},"geometry":{"type":"Point","coordinates":[-119.84586,49.61659]}},
{"type":"Feature","properties":{"id":"C-moose-backcountry-0001-camp","kind":"Backcountry camp","name":"Camp for 850 m N of Olalla Creek","campsites":null,"water":"unnamed wetland 130 m SE","elev":1923,"spotIds":["C-moose-backcountry-0001"],"note":"Flat ground near water from the data (estimate). Scout it first."},"geometry":{"type":"Point","coordinates":[-119.92086,49.31444]}},
{"type":"Feature","properties":{"id":"C-moose-backcountry-0002-camp","kind":"Backcountry camp","name":"Camp for 4.0 km W of Brent, Mount","campsites":null,"water":"unnamed wetland 30 m W","elev":1722,"spotIds":["C-moose-backcountry-0002"],"note":"Flat ground near water from the data (estimate). Scout it first."},"geometry":{"type":"Point","coordinates":[-119.96026,49.47741]}},
{"type":"Feature","properties":{"id":"C-moose-backcountry-0003-camp","kind":"Backcountry camp","name":"Camp for 2.3 km E of Winters Creek","campsites":null,"water":"unnamed wetland 340 m E","elev":1800,"spotIds":["C-moose-backcountry-0003"],"note":"Flat ground near water from the data (estimate). Scout it first."},"geometry":{"type":"Point","coordinates":[-119.93893,49.33443]}}
]}
