{"type":"FeatureCollection","features":[
{"type":"Feature","properties":{"spotId":"C-camp-camp-0040","kind":"walk","km":0.13,"climbM":0,"name":"1.6 km NW of Hedley Creek","flags":[]},"geometry":{"type":"LineString","coordinates":[[-120.05651,49.44848],[-120.05523,49.44926]]}},
{"type":"Feature","properties":{"spotId":"C-camp-camp-0055","kind":"walk","km":0.14,"climbM":0,"name":"By Shoemaker Creek","flags":[]},"geometry":{"type":"LineString","coordinates":[[-120.01034,49.25168],[-120.01184,49.25089]]}},
{"type":"Feature","properties":{"spotId":"C-deer-atv-0039","kind":"ride","km":3.69,"climbM":292,"name":"230 m W of McNulty Creek","flags":[]},"geometry":{"type":"LineString","coordinates":[[-120.09747,49.41207],[-120.09751,49.41221],[-120.09752,49.4124],[-120.09759,49.41258],[-120.09771,49.41278],[-120.09786,49.41296],[-120.09803,49.4132],[-120.09805,49.41324],[-120.09812,49.41346],[-120.09838,49.41389],[-120.09841,49.41408],[-120.09841,49.41429],[-120.09844,49.4145],[-120.09856,49.41488],[-120.09864,49.41506],[-120.09886,49.41528],[-120.09895,49.41546],[-120.09895,49.41566],[-120.09898,49.41584],[-120.09897,49.41682],[-120.09899,49.41702],[-120.09897,49.4172],[-120.0988,49.4176],[-120.09876,49.41779],[-120.0988,49.41806],[-120.09883,49.41811],[-120.09887,49.41812],[-120.09893,49.41809],[-120.09912,49.41787],[-120.09947,49.41743],[-120.09978,49.41728],[-120.09986,49.41725],[-120.09994,49.4172],[-120.1,49.41678],[-120.10023,49.41639],[-120.10031,49.41621],[-120.10042,49.41579],[-120.1006,49.4156],[-120.10091,49.41546],[-120.10123,49.41532],[-120.1015,49.41515],[-120.10173,49.41505],[-120.10191,49.41489],[-120.10204,49.41473],[-120.10214,49.41427],[-120.1022,49.41419],[-120.10228,49.41414],[-120.10239,49.41413],[-120.10265,49.41421],[-120.10266,49.41422],[-120.10268,49.41422],[-120.10269,49.41423],[-120.10286,49.41441],[-120.10293,49.41463],[-120.10287,49.41484],[-120.10255,49.41496],[-120.10229,49.41512],[-120.10206,49.41529],[-120.10198,49.41551],[-120.10198,49.41557],[-120.10203,49.41562],[-120.10211,49.41565],[-120.10221,49.41565],[-120.10229,49.41564],[-120.10237,49.41561],[-120.10245,49.41556],[-120.10269,49.41539],[-120.10275,49.41533],[-120.10301,49.41513],[-120.10327,49.41494],[-120.1033,49.41492],[-120.10351,49.41478],[-120.10364,49.41465],[-120.10365,49.4146],[-120.10359,49.41454],[-120.10355,49.41431],[-120.10368,49.41395],[-120.10381,49.41375],[-120.10394,49.41367],[-120.10427,49.41358],[-120.10462,49.41351],[-120.10504,49.41339],[-120.10514,49.41333],[-120.10531,49.41323],[-120.10549,49.41302],[-120.10568,49.41282],[-120.10587,49.41263],[-120.10602,49.41253],[-120.10624,49.41232],[-120.10645,49.41215],[-120.10653,49.41205],[-120.10648,49.41193],[-120.1064,49.41181],[-120.10643,49.41159],[-120.1065,49.41155],[-120.10685,49.41144],[-120.10719,49.41132],[-120.10756,49.41119],[-120.10787,49.41107],[-120.108,49.411],[-120.10807,49.41096],[-120.10807,49.41091],[-120.10802,49.41085],[-120.10782,49.41074],[-120.10745,49.41067],[-120.10708,49.41058],[-120.10671,49.4105],[-120.10636,49.41042],[-120.1062,49.41036],[-120.10616,49.41031],[-120.10609,49.41016],[-120.10603,49.40978],[-120.10602,49.4097],[-120.10604,49.40881],[-120.10605,49.40866],[-120.10613,49.40845],[-120.10631,49.40827],[-120.10634,49.40825],[-120.10633,49.40821],[-120.10634,49.40798],[-120.10655,49.40773],[-120.10683,49.40758],[-120.10709,49.4074],[-120.10716,49.40732],[-120.10718,49.40729],[-120.10721,49.40706],[-120.10722,49.4068],[-120.10718,49.40653],[-120.10758,49.4065],[-120.10794,49.40647],[-120.1081,49.40642],[-120.10804,49.4064],[-120.1078,49.40628],[-120.10771,49.40623],[-120.10746,49.40602],[-120.1072,49.40581],[-120.107,49.40562],[-120.10695,49.40557],[-120.10676,49.40535],[-120.10653,49.40526],[-120.10643,49.40522],[-120.10611,49.40507],[-120.10584,49.40491],[-120.10579,49.40487],[-120.10557,49.40472],[-120.10547,49.40467],[-120.10524,49.40456],[-120.10496,49.40443],[-120.10465,49.4043],[-120.10439,49.40415],[-120.10411,49.40396],[-120.10408,49.40394],[-120.10385,49.4037],[-120.10364,49.40348],[-120.10342,49.40328],[-120.10307,49.40315],[-120.10273,49.40302],[-120.1024,49.40295],[-120.10198,49.40288],[-120.1019,49.40287],[-120.10159,49.40278],[-120.10159,49.40272],[-120.10164,49.40262],[-120.10171,49.40259],[-120.10189,49.40253],[-120.10204,49.40248],[-120.10238,49.40236],[-120.10275,49.40223],[-120.10302,49.40205],[-120.10314,49.40195],[-120.10321,49.40193],[-120.10328,49.40185]]}},
{"type":"Feature","properties":{"spotId":"C-deer-atv-0039","kind":"walk","km":0.09,"climbM":10,"name":"230 m W of McNulty Creek","flags":[]},"geometry":{"type":"LineString","coordinates":[[-120.09747,49.41207],[-120.09874,49.41191]]}},
{"type":"Feature","properties":{"spotId":"C-deer-atv-0068","kind":"ride","km":5.19,"climbM":147,"name":"By Larcan Creek","flags":["Route crosses reserve land: ASHNOLA 10. Get permission from the band office to hunt on or across it (synopsis page 9, 99%)."]},"geometry":{"type":"LineString","coordinates":[[-120.08861,49.27704],[-120.08863,49.27703],[-120.08894,49.27687],[-120.08925,49.27672],[-120.08956,49.27658],[-120.08983,49.27649],[-120.08991,49.27646],[-120.09081,49.27649],[-120.09089,49.2765],[-120.09097,49.27652],[-120.09107,49.27661],[-120.09121,49.27669],[-120.09129,49.27672],[-120.09163,49.27676],[-120.09171,49.27677],[-120.09178,49.27679],[-120.09186,49.2768],[-120.09207,49.27668],[-120.09226,49.27649],[-120.0925,49.27629],[-120.09257,49.27623],[-120.09262,49.27601],[-120.09264,49.27595],[-120.0929,49.27579],[-120.09296,49.27569],[-120.09299,49.27544],[-120.09299,49.27538],[-120.09287,49.27527],[-120.09282,49.27516],[-120.09294,49.275],[-120.09301,49.27496],[-120.09306,49.27491],[-120.09306,49.27484],[-120.09302,49.27479],[-120.09281,49.27468],[-120.09274,49.27465],[-120.09268,49.27456],[-120.09258,49.27442],[-120.09253,49.27439],[-120.09226,49.27426],[-120.09216,49.27422],[-120.09211,49.27417],[-120.09203,49.27394],[-120.09192,49.27372],[-120.09181,49.27345],[-120.09156,49.27326],[-120.0913,49.27306],[-120.09102,49.27289],[-120.09075,49.27272],[-120.0902,49.27236],[-120.08988,49.2722],[-120.08957,49.27205],[-120.08941,49.27192],[-120.08927,49.27182],[-120.08888,49.27179],[-120.08873,49.27179],[-120.08853,49.2718],[-120.08827,49.27196],[-120.0883,49.27197],[-120.08855,49.27204],[-120.0888,49.2721],[-120.08877,49.27215],[-120.08871,49.27221],[-120.0887,49.27225],[-120.08862,49.27246],[-120.08868,49.2727],[-120.08878,49.27292],[-120.08873,49.27297],[-120.08865,49.27299],[-120.08817,49.27297],[-120.08795,49.27301],[-120.08786,49.27305],[-120.08778,49.27306],[-120.08768,49.27306],[-120.08734,49.27306],[-120.08714,49.27307],[-120.08706,49.27306],[-120.08697,49.27307],[-120.0867,49.27306],[-120.0866,49.27304],[-120.0864,49.27303],[-120.08627,49.27303],[-120.08602,49.27301],[-120.08592,49.27301],[-120.08571,49.27298],[-120.08546,49.27297],[-120.0852,49.27296],[-120.08507,49.27297],[-120.0848,49.27296],[-120.08469,49.27295],[-120.08433,49.27294],[-120.08399,49.27296],[-120.08373,49.27296],[-120.08355,49.27296],[-120.08333,49.27295],[-120.08315,49.27293],[-120.08303,49.27292],[-120.08278,49.27287],[-120.08253,49.27278],[-120.08237,49.27269],[-120.0821,49.27261],[-120.08196,49.27257],[-120.08185,49.27254],[-120.0816,49.27245],[-120.08137,49.27238],[-120.08123,49.27235],[-120.08095,49.27228],[-120.08081,49.27224],[-120.0808,49.27223],[-120.08048,49.27207],[-120.08019,49.27186],[-120.07991,49.27168],[-120.07974,49.27151],[-120.07965,49.27137],[-120.07965,49.27119],[-120.07967,49.27091],[-120.07972,49.27074],[-120.07978,49.2706],[-120.07986,49.27047],[-120.07988,49.27033],[-120.07988,49.2701],[-120.07989,49.27],[-120.07994,49.26982],[-120.07996,49.26967],[-120.07999,49.26915],[-120.07998,49.26909],[-120.08001,49.26858],[-120.07993,49.2684],[-120.07986,49.26828],[-120.0796,49.26813],[-120.07956,49.26811],[-120.07933,49.26802],[-120.07925,49.268],[-120.07869,49.26798],[-120.07848,49.26799],[-120.07829,49.26797],[-120.07812,49.26796],[-120.07778,49.26789],[-120.07762,49.26785],[-120.07735,49.2678],[-120.07707,49.26766],[-120.07681,49.26747],[-120.07649,49.26726],[-120.07636,49.26713],[-120.07618,49.26695],[-120.0761,49.26688],[-120.07593,49.26674],[-120.07588,49.26665],[-120.07561,49.26645],[-120.07535,49.26635],[-120.07524,49.26634],[-120.07513,49.26632],[-120.07485,49.26629],[-120.07455,49.26625],[-120.07423,49.2662],[-120.07406,49.26619],[-120.07376,49.26615],[-120.07374,49.26615],[-120.07312,49.26613],[-120.07298,49.26614],[-120.07266,49.26615],[-120.07239,49.26616],[-120.07222,49.26616],[-120.07194,49.26613],[-120.07177,49.26607],[-120.07146,49.26597],[-120.07134,49.26594],[-120.07107,49.26583],[-120.07101,49.26579],[-120.07093,49.26573],[-120.0709,49.26566],[-120.07091,49.26558],[-120.07093,49.26545],[-120.071,49.26523],[-120.07101,49.26507],[-120.07094,49.26491],[-120.07066,49.26472],[-120.07038,49.26455],[-120.07016,49.26438],[-120.07005,49.26426],[-120.06995,49.26413],[-120.06982,49.26397],[-120.06973,49.26375],[-120.06965,49.26362],[-120.06955,49.26348],[-120.06947,49.26337],[-120.06928,49.2632],[-120.06897,49.26304],[-120.06887,49.26295],[-120.06871,49.26275],[-120.06865,49.26258],[-120.06863,49.26251],[-120.06866,49.26244],[-120.06878,49.26238],[-120.06887,49.26236],[-120.06896,49.26232],[-120.06911,49.26225],[-120.06929,49.26205],[-120.0693,49.2618],[-120.06932,49.26158],[-120.06937,49.26141],[-120.06943,49.26125],[-120.06952,49.26111],[-120.06963,49.26092],[-120.06983,49.26076],[-120.0701,49.26069],[-120.07038,49.26067],[-120.0706,49.26066],[-120.07075,49.26066],[-120.07098,49.26064],[-120.07105,49.26062],[-120.07138,49.26049],[-120.07164,49.26036],[-120.07179,49.26026],[-120.07201,49.26014],[-120.07234,49.25995],[-120.07252,49.25979],[-120.07255,49.25973],[-120.07259,49.25954],[-120.07263,49.25948],[-120.07275,49.25939],[-120.07282,49.25935],[-120.0729,49.25927],[-120.07323,49.25912],[-120.07344,49.25902],[-120.07376,49.25894],[-120.07386,49.2589],[-120.07395,49.25887],[-120.07403,49.25882],[-120.0743,49.25872],[-120.07463,49.25865],[-120.07473,49.25864],[-120.075,49.25863],[-120.07535,49.25864],[-120.0755,49.25864],[-120.0757,49.25865],[-120.07588,49.25866],[-120.07632,49.25868],[-120.0764,49.25869],[-120.07655,49.2587],[-120.07668,49.25871],[-120.07684,49.25875],[-120.07718,49.25882],[-120.07749,49.25886],[-120.0776,49.2589],[-120.0777,49.2589],[-120.07793,49.25896],[-120.07813,49.259],[-120.07832,49.25903],[-120.07858,49.2591],[-120.07874,49.25913],[-120.07901,49.25921],[-120.07928,49.25925],[-120.07942,49.25927],[-120.07965,49.25926],[-120.07993,49.25923],[-120.08006,49.25922],[-120.08032,49.25921],[-120.08053,49.2591],[-120.08069,49.25897],[-120.08078,49.25886],[-120.08095,49.25868],[-120.081,49.25862],[-120.08107,49.25857],[-120.08114,49.2585],[-120.08123,49.25846],[-120.08127,49.25839],[-120.08139,49.25833],[-120.08147,49.25825],[-120.08169,49.25804],[-120.08184,49.25792],[-120.08208,49.25775],[-120.08238,49.25757],[-120.08265,49.25741],[-120.08278,49.25734],[-120.08295,49.25729],[-120.08312,49.2572],[-120.08331,49.25716],[-120.08362,49.25705],[-120.08372,49.25702],[-120.08382,49.25698],[-120.0839,49.25693],[-120.08415,49.25686],[-120.08441,49.25679],[-120.08449,49.25675],[-120.0847,49.25663],[-120.08482,49.25659],[-120.0851,49.25651],[-120.08519,49.25648],[-120.08536,49.25641],[-120.08566,49.25634],[-120.08591,49.25629],[-120.0861,49.25622],[-120.08624,49.25616],[-120.08658,49.2561],[-120.08688,49.25611],[-120.08718,49.25614],[-120.08753,49.25619]]}},
{"type":"Feature","properties":{"spotId":"C-deer-atv-0068","kind":"walk","km":0.17,"climbM":0,"name":"By Larcan Creek","flags":["Route crosses reserve land: ASHNOLA 10. Get permission from the band office to hunt on or across it (synopsis page 9, 99%)."]},"geometry":{"type":"LineString","coordinates":[[-120.08861,49.27704],[-120.08715,49.27583]]}},
{"type":"Feature","properties":{"spotId":"C-deer-atv-0101","kind":"ride","km":6.66,"climbM":160,"name":"590 m S of Johns Creek","flags":[]},"geometry":{"type":"LineString","coordinates":[[-120.06309,49.28909],[-120.06317,49.28934],[-120.06316,49.28964],[-120.06333,49.28979],[-120.06342,49.28983],[-120.06366,49.29001],[-120.06386,49.29021],[-120.06404,49.29028],[-120.06402,49.2904],[-120.06404,49.29049],[-120.06409,49.29063],[-120.0642,49.29078],[-120.06422,49.29088],[-120.06424,49.29114],[-120.06435,49.29131],[-120.06448,49.29142],[-120.06457,49.2915],[-120.06467,49.29152],[-120.06491,49.29159],[-120.06532,49.29156],[-120.06549,49.29148],[-120.06548,49.29154],[-120.06584,49.29161],[-120.06602,49.29162],[-120.06621,49.29164],[-120.0666,49.2917],[-120.06692,49.29183],[-120.0672,49.29202],[-120.06748,49.29218],[-120.06778,49.29233],[-120.06812,49.29247],[-120.06841,49.29263],[-120.06863,49.29282],[-120.06876,49.29304],[-120.06881,49.29329],[-120.06891,49.29356],[-120.06903,49.2938],[-120.0692,49.29411],[-120.06934,49.29437],[-120.06938,49.29447],[-120.06944,49.29462],[-120.06946,49.29469],[-120.06954,49.29489],[-120.06967,49.29514],[-120.06983,49.2954],[-120.06987,49.29544],[-120.07006,49.29565],[-120.07018,49.29576],[-120.07037,49.29599],[-120.07061,49.29621],[-120.07081,49.29641],[-120.071,49.29668],[-120.07116,49.29688],[-120.07127,49.29701],[-120.07148,49.29723],[-120.07166,49.29741],[-120.07172,49.29745],[-120.0719,49.29765],[-120.07211,49.29784],[-120.07229,49.29804],[-120.07255,49.29828],[-120.07277,49.29849],[-120.07298,49.29869],[-120.07321,49.29889],[-120.07352,49.2991],[-120.07378,49.29934],[-120.07399,49.29954],[-120.07418,49.29977],[-120.07433,49.29998],[-120.07433,49.3],[-120.0743,49.30024],[-120.07429,49.30044],[-120.07443,49.30065],[-120.07463,49.30081],[-120.07511,49.30107],[-120.07529,49.30121],[-120.0753,49.30135],[-120.07529,49.30144],[-120.07544,49.30163],[-120.07558,49.30191],[-120.07567,49.30214],[-120.07577,49.30241],[-120.0757,49.30257],[-120.07566,49.3028],[-120.07567,49.30301],[-120.07583,49.3033],[-120.07593,49.30346],[-120.07611,49.30368],[-120.07614,49.30374],[-120.07634,49.30393],[-120.0764,49.30409],[-120.07642,49.30421],[-120.07618,49.30446],[-120.07586,49.30457],[-120.07573,49.30473],[-120.07554,49.30492],[-120.07548,49.30499],[-120.07538,49.30502],[-120.07538,49.30526],[-120.07548,49.30548],[-120.07552,49.30553],[-120.07549,49.30578],[-120.07542,49.30602],[-120.0754,49.30626],[-120.07544,49.30653],[-120.07548,49.30675],[-120.07554,49.30699],[-120.07554,49.30724],[-120.07565,49.30745],[-120.07585,49.30757],[-120.07598,49.30773],[-120.07618,49.3078],[-120.07643,49.30792],[-120.07655,49.308],[-120.07658,49.30806],[-120.07672,49.30813],[-120.07694,49.30822],[-120.07715,49.3083],[-120.07721,49.30833],[-120.07723,49.30837],[-120.07731,49.30844],[-120.07736,49.30847],[-120.07751,49.30858],[-120.0776,49.30869],[-120.07781,49.30878],[-120.07789,49.30893],[-120.0779,49.30913],[-120.07791,49.30916],[-120.07793,49.30917],[-120.07795,49.30921],[-120.078,49.30934],[-120.07802,49.30951],[-120.07802,49.3097],[-120.07806,49.30991],[-120.07808,49.31006],[-120.0781,49.31026],[-120.07818,49.31041],[-120.0783,49.31064],[-120.07833,49.31075],[-120.07837,49.31095],[-120.0784,49.31114],[-120.07843,49.31123],[-120.07845,49.31129],[-120.07846,49.31137],[-120.07844,49.3117],[-120.07848,49.31186],[-120.07851,49.31191],[-120.07852,49.31198],[-120.07851,49.3122],[-120.07853,49.3123],[-120.07858,49.31249],[-120.07872,49.31272],[-120.07876,49.31283],[-120.07875,49.31291],[-120.07876,49.31303],[-120.07884,49.31313],[-120.0789,49.31317],[-120.07916,49.31339],[-120.07947,49.31354],[-120.07972,49.31358],[-120.07974,49.31358],[-120.08007,49.31364],[-120.08018,49.31367],[-120.08022,49.3137],[-120.08047,49.31371],[-120.0808,49.31371],[-120.08092,49.31371],[-120.08118,49.31373],[-120.08148,49.31371],[-120.08168,49.31371],[-120.08202,49.31367],[-120.08233,49.31366],[-120.08263,49.31364],[-120.08284,49.31363],[-120.08373,49.31365],[-120.08383,49.31365],[-120.08402,49.31361],[-120.08464,49.31362],[-120.0849,49.31365],[-120.08493,49.31365],[-120.08523,49.31369],[-120.08543,49.31373],[-120.08556,49.31376],[-120.08574,49.31384],[-120.08605,49.31399],[-120.08622,49.31414],[-120.08643,49.31433],[-120.08645,49.31451],[-120.08651,49.31458],[-120.08674,49.31476],[-120.08697,49.31492],[-120.08711,49.31511],[-120.08715,49.3152],[-120.08719,49.31541],[-120.08727,49.3155],[-120.08732,49.3156],[-120.0874,49.31579],[-120.08749,49.31591],[-120.08752,49.31596],[-120.08759,49.31616],[-120.0876,49.31617],[-120.08758,49.31622],[-120.08748,49.31638],[-120.08742,49.31641],[-120.08732,49.31646],[-120.08716,49.31658],[-120.08709,49.31663],[-120.08694,49.31666],[-120.08687,49.31667],[-120.08666,49.31666],[-120.08652,49.31659],[-120.08641,49.31652],[-120.08633,49.31646],[-120.08629,49.31639],[-120.08611,49.31625],[-120.08591,49.31616],[-120.08576,49.31608],[-120.08564,49.31601],[-120.08547,49.31586],[-120.08516,49.3158],[-120.0849,49.31577],[-120.08468,49.31577],[-120.08462,49.31579],[-120.08458,49.31584],[-120.0846,49.31592],[-120.08479,49.31598],[-120.08495,49.31602],[-120.0851,49.31607],[-120.08517,49.31611],[-120.08526,49.31626],[-120.08551,49.31643],[-120.08555,49.3166],[-120.08556,49.31667],[-120.08556,49.31674],[-120.08562,49.31688],[-120.08563,49.31697],[-120.08575,49.31717],[-120.08587,49.31736],[-120.08601,49.31756],[-120.08623,49.31778],[-120.08629,49.31784],[-120.08639,49.31805],[-120.08661,49.31824],[-120.08668,49.31829],[-120.08686,49.31839],[-120.08699,49.31842],[-120.08719,49.31853],[-120.0872,49.31854],[-120.08739,49.31877],[-120.08747,49.31883],[-120.08759,49.31899],[-120.0876,49.31901],[-120.08764,49.31923],[-120.08768,49.31929],[-120.08769,49.31936],[-120.08768,49.31943],[-120.08772,49.31968],[-120.08777,49.31989],[-120.08776,49.31996],[-120.08774,49.32013],[-120.08772,49.3202],[-120.0876,49.32033],[-120.08753,49.32047],[-120.08748,49.32056],[-120.08746,49.32073],[-120.08742,49.32088],[-120.08742,49.32095],[-120.08744,49.32102],[-120.08762,49.32121],[-120.08774,49.32135],[-120.08795,49.32153],[-120.08815,49.32161],[-120.08839,49.32175],[-120.08845,49.32182],[-120.08853,49.32186],[-120.08872,49.32194],[-120.08881,49.32199],[-120.08901,49.3221],[-120.08905,49.32217],[-120.08912,49.3223],[-120.08919,49.32238],[-120.08931,49.3226],[-120.08932,49.32277],[-120.08931,49.32286],[-120.08928,49.32301],[-120.08922,49.32309],[-120.089,49.32323],[-120.08894,49.32327],[-120.08879,49.32335],[-120.08868,49.32337],[-120.08847,49.32345],[-120.08826,49.32349],[-120.08824,49.32349],[-120.08827,49.32357],[-120.08833,49.32364],[-120.08843,49.32375],[-120.08855,49.32382],[-120.08863,49.32386],[-120.08888,49.32388],[-120.08927,49.32389],[-120.08995,49.32394],[-120.09005,49.32394],[-120.09019,49.32401],[-120.09031,49.32413],[-120.09041,49.32416],[-120.09062,49.32421],[-120.09087,49.32426],[-120.09115,49.32431],[-120.0914,49.32434],[-120.09173,49.32436],[-120.09195,49.32442],[-120.09208,49.32447],[-120.09217,49.32454],[-120.09246,49.32454],[-120.09256,49.32455],[-120.09282,49.32454],[-120.09293,49.32453],[-120.09321,49.32448],[-120.09342,49.32446],[-120.0936,49.32445],[-120.09394,49.3244],[-120.09423,49.32439],[-120.09444,49.32441],[-120.09468,49.32441],[-120.09518,49.32445],[-120.09546,49.32449],[-120.09573,49.3245],[-120.09585,49.3245],[-120.09607,49.32447],[-120.09692,49.3245],[-120.09702,49.32449],[-120.09706,49.32448],[-120.09727,49.32442],[-120.09738,49.32441],[-120.09752,49.32436],[-120.0978,49.32428],[-120.09808,49.32428],[-120.0983,49.32428],[-120.09846,49.32428],[-120.09856,49.32427],[-120.09875,49.32425],[-120.09897,49.32418],[-120.09912,49.32414],[-120.09923,49.32413],[-120.09952,49.32416],[-120.10018,49.32417],[-120.10047,49.32419],[-120.10049,49.32418],[-120.10053,49.32419],[-120.10091,49.3242],[-120.10114,49.32421],[-120.10137,49.32424],[-120.10149,49.32427],[-120.10164,49.32433],[-120.10182,49.32436],[-120.10212,49.32437],[-120.10238,49.32439],[-120.10282,49.32444],[-120.10311,49.32445],[-120.10342,49.32447],[-120.10353,49.32449],[-120.10379,49.32452],[-120.1039,49.32454],[-120.10415,49.32456],[-120.10441,49.32456],[-120.10494,49.32457],[-120.10507,49.32455],[-120.10533,49.32454]]}},
{"type":"Feature","properties":{"spotId":"C-deer-atv-0101","kind":"walk","km":0.28,"climbM":23,"name":"590 m S of Johns Creek","flags":[]},"geometry":{"type":"LineString","coordinates":[[-120.06309,49.28909],[-120.05931,49.28874]]}},
{"type":"Feature","properties":{"spotId":"C-deer-drive-0105","kind":"walk","km":0.28,"climbM":0,"name":"620 m SE of Hedley Creek","flags":[]},"geometry":{"type":"LineString","coordinates":[[-120.02596,49.4403],[-120.02507,49.44276]]}},
{"type":"Feature","properties":{"spotId":"C-deer-drive-0110","kind":"walk","km":0.1,"climbM":0,"name":"420 m NE of McNulty Creek","flags":[]},"geometry":{"type":"LineString","coordinates":[[-120.09668,49.44028],[-120.09793,49.43986]]}},
{"type":"Feature","properties":{"spotId":"C-deer-drive-0118","kind":"walk","km":0.05,"climbM":8,"name":"220 m SE of Hedley Creek","flags":[]},"geometry":{"type":"LineString","coordinates":[[-120.06881,49.35901],[-120.06826,49.35877]]}},
{"type":"Feature","properties":{"spotId":"C-deer-drive-0151","kind":"walk","km":0.18,"climbM":2,"name":"1.3 km SW of Similkameen River","flags":[]},"geometry":{"type":"LineString","coordinates":[[-120.0912,49.33466],[-120.08917,49.33554]]}},
{"type":"Feature","properties":{"spotId":"C-deer-drive-0153","kind":"walk","km":0.07,"climbM":31,"name":"420 m W of Cahill Creek","flags":["Route crosses reserve land: CHUCHUWAYHA 2. Get permission from the band office to hunt on or across it (synopsis page 9, 99%)."]},"geometry":{"type":"LineString","coordinates":[[-120.04023,49.33745],[-120.03928,49.33731]]}},
{"type":"Feature","properties":{"spotId":"C-deer-walk-0091","kind":"walk","km":0.72,"climbM":0,"name":"1.6 km N of Aberdeen Ridge","flags":[]},"geometry":{"type":"LineString","coordinates":[[-120.05023,49.3953],[-120.05747,49.39972]]}},
{"type":"Feature","properties":{"spotId":"C-deer-walk-0099","kind":"walk","km":0.97,"climbM":18,"name":"1.0 km E of Hedley Creek","flags":[]},"geometry":{"type":"LineString","coordinates":[[-120.02419,49.43396],[-120.02915,49.42582]]}},
{"type":"Feature","properties":{"spotId":"C-deer-walk-0128","kind":"walk","km":0.58,"climbM":0,"name":"By McNulty Creek","flags":[]},"geometry":{"type":"LineString","coordinates":[[-120.10561,49.42786],[-120.09907,49.43089]]}},
{"type":"Feature","properties":{"spotId":"C-deer-walk-0137","kind":"walk","km":1.86,"climbM":356,"name":"1.2 km W of Winters Creek","flags":["Route crosses private land (ParcelMap BC, updated 2026-09-25): get permission first or go around."]},"geometry":{"type":"LineString","coordinates":[[-120.02386,49.34026],[-120.00127,49.33249]]}},
{"type":"Feature","properties":{"spotId":"C-deer-walk-0149","kind":"walk","km":0.55,"climbM":0,"name":"530 m E of Hedley Creek","flags":[]},"geometry":{"type":"LineString","coordinates":[[-120.01902,49.44308],[-120.02442,49.4465]]}},
{"type":"Feature","properties":{"spotId":"C-deer-walk-0176","kind":"walk","km":1.15,"climbM":374,"name":"By Bradshaw Creek","flags":["Route crosses private land (ParcelMap BC, updated 2026-09-25): get permission first or go around."]},"geometry":{"type":"LineString","coordinates":[[-120.02665,49.29103],[-120.01095,49.28968]]}},
{"type":"Feature","properties":{"spotId":"C-deer-walk-0177","kind":"walk","km":0.83,"climbM":166,"name":"By Hedley Creek","flags":["Route crosses private land (ParcelMap BC, updated 2026-09-25): get permission first or go around."]},"geometry":{"type":"LineString","coordinates":[[-120.06463,49.36817],[-120.06893,49.37506]]}},
{"type":"Feature","properties":{"spotId":"C-deer-walk-0190","kind":"walk","km":1.76,"climbM":313,"name":"By Winters Creek","flags":["Route crosses private land (ParcelMap BC, updated 2026-09-25): get permission first or go around."]},"geometry":{"type":"LineString","coordinates":[[-120.02789,49.30653],[-120.00645,49.31382]]}},
{"type":"Feature","properties":{"spotId":"C-deer-walk-0199","kind":"walk","km":1.24,"climbM":0,"name":"1.8 km E of Hedley","flags":[]},"geometry":{"type":"LineString","coordinates":[[-120.03707,49.35836],[-120.05239,49.35339]]}},
{"type":"Feature","properties":{"spotId":"C-deer-walk-0203","kind":"walk","km":0.37,"climbM":25,"name":"1.0 km N of Stemwinder Mountain","flags":[]},"geometry":{"type":"LineString","coordinates":[[-120.10328,49.40185],[-120.09885,49.40018]]}},
{"type":"Feature","properties":{"spotId":"C-duck-drive-0059","kind":"walk","km":0.26,"climbM":4,"name":"Unnamed wetland 3.5 km NW of Hedley Creek","flags":[]},"geometry":{"type":"LineString","coordinates":[[-120.06324,49.48509],[-120.06474,49.48725]]}},
{"type":"Feature","properties":{"spotId":"C-duck-drive-0084","kind":"walk","km":0.01,"climbM":0,"name":"Unnamed wetland 1.7 km E of McNulty Creek","flags":[]},"geometry":{"type":"LineString","coordinates":[[-120.08442,49.45423],[-120.0845,49.45411]]}},
{"type":"Feature","properties":{"spotId":"C-duck-drive-0096","kind":"walk","km":0.09,"climbM":0,"name":"Unnamed wetland 1.7 km W of Hedley Creek","flags":[]},"geometry":{"type":"LineString","coordinates":[[-120.05761,49.45042],[-120.05645,49.45063]]}},
{"type":"Feature","properties":{"spotId":"C-duck-walk-0008","kind":"walk","km":0.47,"climbM":0,"name":"Unnamed wetland 3.1 km NE of McNulty Creek","flags":[]},"geometry":{"type":"LineString","coordinates":[[-120.0733,49.48187],[-120.07293,49.47768]]}},
{"type":"Feature","properties":{"spotId":"C-grouse-atv-0007","kind":"ride","km":3.87,"climbM":16,"name":"1.7 km NW of Strayhorse Creek","flags":[]},"geometry":{"type":"LineString","coordinates":[[-120.00113,49.4402],[-120.00152,49.44035],[-120.00185,49.44045],[-120.00228,49.44059],[-120.00252,49.44069],[-120.00272,49.44088],[-120.00291,49.44116],[-120.00319,49.44159],[-120.00346,49.44204],[-120.00372,49.44243],[-120.00397,49.44275],[-120.0042,49.44304],[-120.00438,49.44332],[-120.00452,49.44349],[-120.00462,49.44375],[-120.00457,49.44397],[-120.00447,49.44414],[-120.00423,49.44432],[-120.00398,49.44456],[-120.00373,49.44478],[-120.00338,49.44497],[-120.00296,49.44522],[-120.00256,49.4455],[-120.00216,49.44567],[-120.00177,49.44588],[-120.00154,49.44602],[-120.00127,49.44613],[-120.0012,49.44622],[-120.00115,49.4464],[-120.00117,49.44657],[-120.00119,49.44666],[-120.00137,49.44678],[-120.00156,49.44684],[-120.00183,49.44687],[-120.0026,49.44684],[-120.00291,49.44683],[-120.00316,49.44681],[-120.00341,49.44682],[-120.00349,49.44685],[-120.00371,49.44695],[-120.00399,49.44715],[-120.00421,49.44735],[-120.00437,49.44754],[-120.00456,49.44777],[-120.00465,49.44795],[-120.00461,49.44816],[-120.00451,49.44837],[-120.00432,49.44859],[-120.00405,49.44893],[-120.00342,49.44938],[-120.00317,49.44964],[-120.00299,49.44991],[-120.00288,49.45027],[-120.0027,49.4507],[-120.00254,49.45088],[-120.00211,49.45134],[-120.00169,49.4518],[-120.00154,49.452],[-120.00144,49.45223],[-120.00147,49.45241],[-120.00159,49.45261],[-120.00177,49.45281],[-120.002,49.45301],[-120.0022,49.45319],[-120.00238,49.4534],[-120.00246,49.45375],[-120.00239,49.4542],[-120.00222,49.45477],[-120.00208,49.45529],[-120.00206,49.45573],[-120.00219,49.4563],[-120.00226,49.45682],[-120.00238,49.45715],[-120.00256,49.45744],[-120.00278,49.45774],[-120.00318,49.45841],[-120.0036,49.45912],[-120.00378,49.45966],[-120.00374,49.46006],[-120.00359,49.46072],[-120.00356,49.46108],[-120.00368,49.46145],[-120.00384,49.46172],[-120.0043,49.46222],[-120.00479,49.46263],[-120.0054,49.4629],[-120.00608,49.46309],[-120.00663,49.46315],[-120.00735,49.46316],[-120.00777,49.46319],[-120.00826,49.46335],[-120.00892,49.46361],[-120.00976,49.46396],[-120.01038,49.46419],[-120.01087,49.46442],[-120.01164,49.4646],[-120.0127,49.46478],[-120.01582,49.46511]]}},
{"type":"Feature","properties":{"spotId":"C-grouse-atv-0022","kind":"walk","km":0.3,"climbM":35,"name":"1.6 km NW of Paul Creek","flags":["Route crosses reserve land: ASHNOLA 10. Get permission from the band office to hunt on or across it (synopsis page 9, 99%)."]},"geometry":{"type":"LineString","coordinates":[[-120.08753,49.25619],[-120.08865,49.25364]]}},
{"type":"Feature","properties":{"spotId":"C-grouse-atv-0022","kind":"ride","km":3.88,"climbM":219,"name":"1.6 km NW of Paul Creek","flags":["Route crosses reserve land: ASHNOLA 10. Get permission from the band office to hunt on or across it (synopsis page 9, 99%)."]},"geometry":{"type":"LineString","coordinates":[[-120.08865,49.25364],[-120.08876,49.25369],[-120.08888,49.25375],[-120.089,49.2538],[-120.08906,49.25381],[-120.08922,49.25376],[-120.0894,49.25369],[-120.08945,49.25366],[-120.0895,49.25352],[-120.08956,49.25339],[-120.08959,49.25324],[-120.08966,49.25313],[-120.08972,49.253],[-120.08973,49.25289],[-120.08972,49.25277],[-120.08969,49.25267],[-120.08969,49.25258],[-120.08965,49.25246],[-120.08965,49.2523],[-120.08966,49.25222],[-120.0898,49.25213],[-120.0899,49.25206],[-120.08994,49.25199],[-120.09008,49.25196],[-120.0903,49.25182],[-120.09047,49.25176],[-120.09071,49.25163],[-120.09077,49.2516],[-120.09083,49.25147],[-120.09084,49.25135],[-120.09085,49.25123],[-120.09084,49.2511],[-120.09081,49.2509],[-120.09081,49.2508],[-120.09074,49.2507],[-120.0907,49.2506],[-120.09064,49.25052],[-120.09056,49.25039],[-120.09053,49.25031],[-120.0905,49.25018],[-120.09044,49.25003],[-120.09042,49.24992],[-120.09044,49.24981],[-120.09051,49.24973],[-120.0906,49.24962],[-120.0907,49.24953],[-120.09083,49.24941],[-120.09099,49.24931],[-120.09107,49.24925],[-120.09121,49.24915],[-120.09128,49.2491],[-120.09143,49.24905],[-120.09157,49.249],[-120.09173,49.24892],[-120.09184,49.24885],[-120.09194,49.2488],[-120.09197,49.24876],[-120.092,49.24863],[-120.09198,49.24853],[-120.09195,49.24838],[-120.09198,49.2483],[-120.092,49.24812],[-120.09207,49.24799],[-120.0921,49.24784],[-120.0921,49.24775],[-120.09211,49.24764],[-120.09209,49.24745],[-120.0921,49.24734],[-120.09213,49.24721],[-120.09224,49.24709],[-120.09235,49.247],[-120.09248,49.24696],[-120.09262,49.2469],[-120.09274,49.24686],[-120.09289,49.24681],[-120.09305,49.24672],[-120.09312,49.24664],[-120.09316,49.24655],[-120.09314,49.24639],[-120.09312,49.24623],[-120.09312,49.24616],[-120.0931,49.24604],[-120.09303,49.24593],[-120.09295,49.24586],[-120.09292,49.24578],[-120.09288,49.24566],[-120.0928,49.24555],[-120.09272,49.24546],[-120.09265,49.24538],[-120.09255,49.24527],[-120.09243,49.2451],[-120.0924,49.24498],[-120.09237,49.24488],[-120.09233,49.24477],[-120.09231,49.2447],[-120.09228,49.2446],[-120.09223,49.2445],[-120.09215,49.24445],[-120.09201,49.24436],[-120.0919,49.24432],[-120.09187,49.24424],[-120.09191,49.24414],[-120.09197,49.24405],[-120.09208,49.24401],[-120.09217,49.24401],[-120.09233,49.24397],[-120.09252,49.24391],[-120.09256,49.24381],[-120.09256,49.24369],[-120.09247,49.24362],[-120.09233,49.24355],[-120.09219,49.2435],[-120.092,49.24342],[-120.09194,49.24334],[-120.09181,49.24326],[-120.09165,49.24318],[-120.09148,49.24302],[-120.09134,49.24294],[-120.09122,49.24283],[-120.09122,49.24274],[-120.09125,49.24268],[-120.09132,49.24256],[-120.09153,49.2425],[-120.09175,49.24245],[-120.09204,49.24246],[-120.09233,49.24246],[-120.09268,49.24247],[-120.09297,49.24246],[-120.09316,49.24241],[-120.09335,49.24236],[-120.09351,49.24228],[-120.09369,49.24218],[-120.09384,49.24209],[-120.09398,49.24198],[-120.09406,49.24193],[-120.09424,49.24185],[-120.09444,49.24172],[-120.09458,49.2416],[-120.09473,49.24151],[-120.09488,49.2414],[-120.09507,49.24127],[-120.09523,49.24116],[-120.09534,49.24103],[-120.09548,49.24092],[-120.09559,49.24079],[-120.09574,49.24068],[-120.09587,49.24058],[-120.09606,49.24046],[-120.09627,49.24029],[-120.09645,49.24019],[-120.09664,49.24003],[-120.09681,49.23987],[-120.09694,49.23978],[-120.09724,49.23968],[-120.09749,49.23955],[-120.09773,49.23948],[-120.09798,49.23941],[-120.09824,49.23932],[-120.09857,49.23922],[-120.09881,49.23923],[-120.09904,49.23917],[-120.09927,49.23917],[-120.09959,49.23907],[-120.09989,49.23903],[-120.10013,49.23902],[-120.10037,49.23902],[-120.10085,49.23901],[-120.10103,49.23899],[-120.10136,49.23894],[-120.10167,49.23883],[-120.10217,49.23868],[-120.10261,49.23862],[-120.10311,49.23856],[-120.10332,49.23854],[-120.10384,49.23854],[-120.10423,49.23855],[-120.10519,49.23856],[-120.10587,49.23854],[-120.10633,49.2386],[-120.10647,49.23862],[-120.10656,49.23864],[-120.10673,49.2387],[-120.10694,49.23876],[-120.10733,49.23891],[-120.10768,49.23896],[-120.10781,49.23902],[-120.10798,49.23911],[-120.10819,49.23914],[-120.1086,49.23917],[-120.10911,49.23919],[-120.1095,49.2392],[-120.10978,49.23919],[-120.11009,49.23916],[-120.11032,49.2392],[-120.11062,49.23924],[-120.1109,49.23928],[-120.11117,49.23936],[-120.11141,49.23943],[-120.11169,49.23948],[-120.11198,49.23955],[-120.11236,49.23965],[-120.11249,49.23968],[-120.11259,49.2397],[-120.11282,49.23976],[-120.11312,49.23985],[-120.11331,49.23993],[-120.11355,49.24002],[-120.11368,49.24003],[-120.11392,49.24001],[-120.11414,49.23999],[-120.11441,49.23991],[-120.11475,49.23979],[-120.11499,49.23971],[-120.1153,49.23956],[-120.11559,49.23941],[-120.1157,49.23931],[-120.11584,49.23915],[-120.11603,49.23902],[-120.11616,49.23891],[-120.11624,49.23888],[-120.1164,49.23882],[-120.11653,49.23877],[-120.11699,49.23863],[-120.1171,49.23854],[-120.11729,49.23844],[-120.1175,49.2383],[-120.11773,49.23813],[-120.11791,49.23792],[-120.11812,49.23771],[-120.11838,49.2376],[-120.11863,49.23752],[-120.11888,49.23746],[-120.11898,49.23745],[-120.11926,49.23743],[-120.11928,49.23743]]}},
{"type":"Feature","properties":{"spotId":"C-grouse-atv-0027","kind":"ride","km":3.12,"climbM":83,"name":"3.1 km E of McNulty Creek","flags":[]},"geometry":{"type":"LineString","coordinates":[[-120.07406,49.48187],[-120.074,49.48183],[-120.07393,49.48179],[-120.07388,49.48176],[-120.07385,49.48174],[-120.07383,49.48172],[-120.07379,49.4817],[-120.07375,49.48167],[-120.0737,49.48163],[-120.07363,49.48158],[-120.0736,49.48155],[-120.07356,49.48152],[-120.07346,49.48144],[-120.07341,49.4814],[-120.07335,49.48135],[-120.0733,49.48132],[-120.07325,49.48129],[-120.07317,49.48124],[-120.07308,49.48119],[-120.07298,49.48113],[-120.07287,49.48108],[-120.0728,49.48105],[-120.07271,49.48101],[-120.07262,49.48097],[-120.07252,49.48094],[-120.07239,49.48088],[-120.07224,49.48083],[-120.07216,49.4808],[-120.07208,49.48076],[-120.072,49.48073],[-120.07189,49.48068],[-120.07182,49.48065],[-120.0718,49.48064],[-120.07176,49.48062],[-120.07169,49.48058],[-120.0716,49.48052],[-120.07151,49.48046],[-120.07141,49.48038],[-120.07131,49.48028],[-120.07128,49.48025],[-120.07124,49.4802],[-120.07112,49.48005],[-120.07103,49.47995],[-120.07096,49.47987],[-120.07092,49.47983],[-120.07087,49.47978],[-120.07083,49.47975],[-120.07069,49.47962],[-120.07055,49.47952],[-120.07044,49.47944],[-120.07026,49.47932],[-120.07003,49.47917],[-120.06991,49.47909],[-120.06973,49.47899],[-120.06952,49.47887],[-120.06949,49.47885],[-120.06945,49.47881],[-120.06935,49.47874],[-120.06931,49.47871],[-120.06929,49.47869],[-120.06927,49.47867],[-120.0692,49.4786],[-120.06917,49.47857],[-120.0691,49.4785],[-120.06905,49.47845],[-120.06903,49.47843],[-120.06902,49.47841],[-120.06901,49.47839],[-120.06898,49.47836],[-120.06896,49.47833],[-120.06894,49.4783],[-120.06892,49.47827],[-120.06889,49.47825],[-120.06886,49.47823],[-120.06881,49.4782],[-120.06874,49.47816],[-120.06859,49.4781],[-120.06839,49.478],[-120.0682,49.47791],[-120.06798,49.47781],[-120.06784,49.47774],[-120.06769,49.47766],[-120.06738,49.47748],[-120.0673,49.47743],[-120.06724,49.4774],[-120.06719,49.47736],[-120.06706,49.47727],[-120.06697,49.47721],[-120.06692,49.47718],[-120.06684,49.47712],[-120.06679,49.47709],[-120.06672,49.47703],[-120.06664,49.47697],[-120.06659,49.47692],[-120.06652,49.47685],[-120.06645,49.47679],[-120.06638,49.47672],[-120.06632,49.47665],[-120.06627,49.47659],[-120.06623,49.47654],[-120.06622,49.47652],[-120.06617,49.47646],[-120.06613,49.47641],[-120.06607,49.47635],[-120.06603,49.4763],[-120.06594,49.47621],[-120.06583,49.47612],[-120.06577,49.47608],[-120.06567,49.476],[-120.06558,49.47594],[-120.06548,49.47588],[-120.06541,49.47584],[-120.06533,49.47579],[-120.06527,49.47575],[-120.06523,49.47573],[-120.06519,49.47571],[-120.06507,49.47566],[-120.06496,49.47562],[-120.06481,49.47556],[-120.06464,49.4755],[-120.06445,49.47542],[-120.06429,49.47536],[-120.06406,49.47529],[-120.06402,49.47528],[-120.06398,49.47527],[-120.06394,49.47526],[-120.06382,49.47523],[-120.06376,49.47522],[-120.06369,49.4752],[-120.06366,49.47519],[-120.06358,49.47517],[-120.06351,49.47515],[-120.06339,49.47511],[-120.0633,49.47508],[-120.06321,49.47504],[-120.06308,49.47499],[-120.06296,49.47494],[-120.06282,49.47488],[-120.0627,49.47483],[-120.06263,49.4748],[-120.06255,49.47476],[-120.06248,49.47473],[-120.06235,49.47467],[-120.0623,49.47465],[-120.06224,49.47462],[-120.06217,49.4746],[-120.06214,49.47458],[-120.06208,49.47456],[-120.06198,49.47453],[-120.0619,49.47451],[-120.06183,49.47449],[-120.06178,49.47447],[-120.06172,49.47445],[-120.0616,49.47442],[-120.06153,49.4744],[-120.06152,49.4744],[-120.06149,49.47439],[-120.06144,49.47437],[-120.0614,49.47436],[-120.06137,49.47435],[-120.06136,49.47435],[-120.06135,49.47434],[-120.06133,49.47434],[-120.06133,49.47433],[-120.0613,49.47431],[-120.06128,49.4743],[-120.06125,49.47428],[-120.06122,49.47426],[-120.06119,49.47424],[-120.06115,49.47421],[-120.06111,49.47418],[-120.06106,49.47414],[-120.06099,49.47408],[-120.06093,49.47402],[-120.06089,49.474],[-120.06084,49.47397],[-120.06082,49.47396],[-120.06077,49.47393],[-120.06067,49.47388],[-120.06062,49.47385],[-120.06061,49.47384],[-120.06059,49.47383],[-120.06058,49.47382],[-120.06057,49.47381],[-120.06056,49.4738],[-120.06053,49.47378],[-120.06051,49.47377],[-120.06049,49.47374],[-120.06045,49.4737],[-120.06041,49.47367],[-120.06038,49.47363],[-120.06033,49.47357],[-120.06029,49.47353],[-120.06021,49.47346],[-120.0601,49.47336],[-120.06004,49.47331],[-120.05997,49.47325],[-120.05993,49.47322],[-120.05988,49.47318],[-120.05985,49.47316],[-120.05982,49.47315],[-120.05981,49.47314],[-120.05977,49.47312],[-120.05975,49.47311],[-120.05973,49.4731],[-120.05969,49.47308],[-120.05965,49.47306],[-120.05958,49.47304],[-120.05953,49.47303],[-120.05947,49.47301],[-120.05943,49.473],[-120.05938,49.47299],[-120.05931,49.47298],[-120.05927,49.47297],[-120.05923,49.47297],[-120.05915,49.47296],[-120.05912,49.47295],[-120.05907,49.47295],[-120.05899,49.47295],[-120.05894,49.47294],[-120.05884,49.47294],[-120.05873,49.47294],[-120.05856,49.47293],[-120.05837,49.47292],[-120.05828,49.47292],[-120.05816,49.47291],[-120.05805,49.4729],[-120.05798,49.47289],[-120.05789,49.47288],[-120.05777,49.47287],[-120.05767,49.47287],[-120.05762,49.47286],[-120.05757,49.47285],[-120.05753,49.47285],[-120.05749,49.47284],[-120.05743,49.47283],[-120.05739,49.47282],[-120.05727,49.4728],[-120.05714,49.47278],[-120.05695,49.47275],[-120.05686,49.47273],[-120.05675,49.47271],[-120.05651,49.47268],[-120.0563,49.47268],[-120.05607,49.47269],[-120.05575,49.47265],[-120.05557,49.47264],[-120.05541,49.47265],[-120.05538,49.47265],[-120.05533,49.47267],[-120.05522,49.47272],[-120.05515,49.47275],[-120.05496,49.47286],[-120.05486,49.47293],[-120.05473,49.47303],[-120.05445,49.47327],[-120.05418,49.47352],[-120.0539,49.47362],[-120.05383,49.47364],[-120.05331,49.47376],[-120.0532,49.47379],[-120.05313,49.47382],[-120.05308,49.47385],[-120.05298,49.47392],[-120.05288,49.47398],[-120.05284,49.47399],[-120.05265,49.47404],[-120.05262,49.47405],[-120.05253,49.47409],[-120.05245,49.47415],[-120.05237,49.47423],[-120.05232,49.47429],[-120.05222,49.47445],[-120.05213,49.47462],[-120.05208,49.47466],[-120.05201,49.47473],[-120.05188,49.4749],[-120.05184,49.47494],[-120.05174,49.47503],[-120.05142,49.47527],[-120.05138,49.47531],[-120.05119,49.47548],[-120.0511,49.4756],[-120.05101,49.47575],[-120.05092,49.47591],[-120.05034,49.47702],[-120.0502,49.47726],[-120.0501,49.47745],[-120.04996,49.4777],[-120.04984,49.47793],[-120.04974,49.4781],[-120.04972,49.47815],[-120.04971,49.47825],[-120.0497,49.4783],[-120.0497,49.47842],[-120.04971,49.47844],[-120.04973,49.47851],[-120.04977,49.47857],[-120.04981,49.47861],[-120.04985,49.47865],[-120.04997,49.47874],[-120.05005,49.47878],[-120.05017,49.47883],[-120.05042,49.47893],[-120.05083,49.47906],[-120.05142,49.47924],[-120.05177,49.47936],[-120.05196,49.47942],[-120.0523,49.47952],[-120.05237,49.47955],[-120.05249,49.4796],[-120.05371,49.4804],[-120.05381,49.48047],[-120.05391,49.48056],[-120.05397,49.48063],[-120.05404,49.48071],[-120.05431,49.48118],[-120.05436,49.48126],[-120.05445,49.48138],[-120.05453,49.48147],[-120.05461,49.48155],[-120.05465,49.48158],[-120.05479,49.48167],[-120.05491,49.48172],[-120.05492,49.48172]]}},
{"type":"Feature","properties":{"spotId":"C-grouse-atv-0049","kind":"ride","km":4.83,"climbM":203,"name":"2.0 km NE of McNulty Creek","flags":["Route enters a Motor Vehicle Closed Area: Thompson, Cariboo and Okanagan Alpines. Closed Year Round. Exemption: Snowmobiles exempt year round (January 1 to December 31). Synopsis map 1-82/24."]},"geometry":{"type":"LineString","coordinates":[[-120.0925,49.4927],[-120.09252,49.49335],[-120.09245,49.49356],[-120.09244,49.49367],[-120.09238,49.49376],[-120.09238,49.49387],[-120.09232,49.494],[-120.09232,49.49407],[-120.09227,49.49414],[-120.09227,49.49421],[-120.09216,49.49437],[-120.09213,49.49448],[-120.09203,49.49456],[-120.09199,49.49467],[-120.09181,49.49489],[-120.09157,49.49504],[-120.09132,49.49511],[-120.09117,49.49521],[-120.09112,49.49527],[-120.09108,49.49543],[-120.09119,49.49556],[-120.09124,49.49574],[-120.09132,49.49583],[-120.09142,49.49604],[-120.09147,49.49629],[-120.09152,49.49639],[-120.09154,49.49653],[-120.09165,49.4967],[-120.09163,49.4968],[-120.09175,49.49696],[-120.09185,49.49728],[-120.09199,49.49739],[-120.09213,49.49745],[-120.09221,49.49754],[-120.09222,49.49765],[-120.09233,49.49785],[-120.09238,49.49802],[-120.09244,49.49812],[-120.09242,49.49819],[-120.09248,49.49833],[-120.09246,49.49844],[-120.09249,49.49866],[-120.09257,49.49882],[-120.09261,49.499],[-120.09261,49.49907],[-120.09268,49.49921],[-120.09271,49.49932],[-120.09275,49.49938],[-120.0928,49.49963],[-120.09269,49.50009],[-120.09261,49.50022],[-120.09262,49.50033],[-120.09252,49.50065],[-120.09246,49.50071],[-120.09223,49.50086],[-120.09219,49.50093],[-120.09207,49.50105],[-120.09196,49.50113],[-120.09187,49.5013],[-120.09181,49.50136],[-120.09173,49.50161],[-120.09165,49.5017],[-120.09164,49.50173],[-120.09167,49.50184],[-120.09157,49.50208],[-120.09161,49.50215],[-120.09162,49.50226],[-120.09155,49.50236],[-120.09149,49.50264],[-120.09131,49.50289],[-120.09127,49.50291],[-120.09127,49.50294],[-120.09109,49.50303],[-120.09094,49.50314],[-120.09068,49.50327],[-120.09058,49.50329],[-120.0905,49.50334],[-120.09045,49.50335],[-120.09023,49.50351],[-120.08991,49.5037],[-120.08985,49.50395],[-120.08986,49.50406],[-120.0898,49.5042],[-120.08973,49.50425],[-120.08971,49.50433],[-120.08965,49.50438],[-120.08962,49.50445],[-120.08962,49.50456],[-120.08979,49.5047],[-120.08978,49.50473],[-120.08985,49.50479],[-120.08996,49.5051],[-120.08991,49.50524],[-120.08983,49.50529],[-120.08981,49.50532],[-120.08981,49.50543],[-120.08985,49.50557],[-120.08986,49.50594],[-120.08984,49.50598],[-120.08988,49.5063],[-120.09002,49.50635],[-120.09001,49.50639],[-120.08992,49.50643],[-120.08989,49.50646],[-120.08994,49.5066],[-120.08993,49.50674],[-120.08997,49.50689],[-120.08997,49.50699],[-120.08994,49.50706],[-120.08997,49.50721],[-120.08995,49.50746],[-120.08989,49.50751],[-120.0898,49.50772],[-120.08975,49.50773],[-120.08974,49.5078],[-120.08971,49.50783],[-120.08953,49.50796],[-120.08948,49.50807],[-120.0894,49.50811],[-120.08931,49.5082],[-120.08923,49.50824],[-120.08916,49.50834],[-120.08907,49.50843],[-120.089,49.5086],[-120.08901,49.50871],[-120.08897,49.50889],[-120.08901,49.50895],[-120.08898,49.50902],[-120.08905,49.50912],[-120.08903,49.50922],[-120.08908,49.50928],[-120.08906,49.50957],[-120.0891,49.50975],[-120.08918,49.50992],[-120.08923,49.50998],[-120.08931,49.51027],[-120.08941,49.51039],[-120.08948,49.51045],[-120.08948,49.51048],[-120.08962,49.51067],[-120.08966,49.51077],[-120.08966,49.51085],[-120.08969,49.51088],[-120.08969,49.51096],[-120.0897,49.511],[-120.08974,49.5111],[-120.0897,49.51124],[-120.0897,49.51142],[-120.08975,49.51156],[-120.08974,49.51173],[-120.08977,49.51184],[-120.08976,49.51191],[-120.08977,49.51205],[-120.08974,49.51216],[-120.08976,49.51245],[-120.08971,49.51255],[-120.08974,49.51262],[-120.08972,49.51264],[-120.08968,49.51263],[-120.0896,49.51277],[-120.08952,49.51286],[-120.08936,49.51301],[-120.08932,49.51311],[-120.08922,49.51319],[-120.08914,49.51333],[-120.0891,49.51335],[-120.08893,49.51344],[-120.08868,49.51352],[-120.08852,49.51361],[-120.08844,49.51364],[-120.08821,49.51379],[-120.0881,49.51381],[-120.08804,49.51391],[-120.08799,49.51392],[-120.08793,49.51398],[-120.08777,49.51398],[-120.0876,49.51408],[-120.08756,49.51414],[-120.08738,49.51423],[-120.08728,49.51425],[-120.08723,49.51435],[-120.08718,49.51436],[-120.08713,49.51435],[-120.08708,49.51437],[-120.08705,49.51444],[-120.08696,49.51448],[-120.08683,49.51464],[-120.08675,49.51469],[-120.08661,49.51468],[-120.08645,49.51465],[-120.08626,49.51466],[-120.086,49.51476],[-120.08562,49.5149],[-120.08533,49.51494],[-120.08498,49.51512],[-120.08472,49.51524],[-120.08451,49.51535],[-120.08413,49.5155],[-120.08376,49.51559],[-120.0835,49.51568],[-120.08343,49.5157],[-120.08335,49.51576],[-120.08322,49.51573],[-120.08302,49.51577],[-120.08264,49.51589],[-120.0822,49.51605],[-120.0819,49.51621],[-120.08163,49.51635],[-120.08123,49.51654],[-120.08107,49.51664],[-120.08078,49.51688],[-120.08043,49.51709],[-120.08016,49.51728],[-120.07988,49.51755],[-120.07979,49.5177],[-120.07962,49.51801],[-120.07944,49.51834],[-120.07937,49.51839],[-120.07932,49.51852],[-120.07922,49.51869],[-120.0791,49.51885],[-120.07901,49.51897],[-120.0789,49.51912],[-120.0789,49.51927],[-120.07887,49.51937],[-120.07885,49.51948],[-120.07881,49.51956],[-120.07883,49.51968],[-120.07883,49.51988],[-120.07879,49.52003],[-120.07875,49.52018],[-120.07871,49.52034],[-120.07875,49.52041],[-120.0787,49.52052],[-120.07861,49.52075],[-120.0786,49.5209],[-120.07849,49.52104],[-120.07832,49.52125],[-120.07816,49.52141],[-120.07798,49.52161],[-120.07778,49.52181],[-120.07761,49.52194],[-120.07742,49.52208],[-120.0773,49.52221],[-120.07703,49.52242],[-120.07672,49.52264],[-120.07642,49.52285],[-120.07613,49.52306],[-120.07592,49.52318],[-120.07579,49.52335],[-120.0757,49.52354],[-120.07553,49.52381],[-120.0754,49.52397],[-120.07521,49.52414],[-120.07503,49.52436],[-120.07495,49.52449],[-120.07493,49.52469],[-120.07493,49.5249],[-120.07492,49.52513],[-120.075,49.52523],[-120.07494,49.52531],[-120.07503,49.5254],[-120.07518,49.52565],[-120.07542,49.52589],[-120.07578,49.5261],[-120.07604,49.52629],[-120.0762,49.52637],[-120.07639,49.52642],[-120.07668,49.52645],[-120.07703,49.52656],[-120.0773,49.52665],[-120.07756,49.52678],[-120.07772,49.52697],[-120.07775,49.52714],[-120.07772,49.52741],[-120.07767,49.52764],[-120.0775,49.52775],[-120.07745,49.52786],[-120.07737,49.52799],[-120.07735,49.52814],[-120.0773,49.52834],[-120.07724,49.52852],[-120.07719,49.52862],[-120.07722,49.52869],[-120.07735,49.52877]]}},
{"type":"Feature","properties":{"spotId":"C-grouse-drive-0063","kind":"roadside","km":3.91,"climbM":229,"name":"1.0 km E of McNulty Creek","flags":["Route enters a Motor Vehicle Closed Area: Thompson, Cariboo and Okanagan Alpines. Closed Year Round. Exemption: Snowmobiles exempt year round (January 1 to December 31). Synopsis map 1-82/24."]},"geometry":{"type":"LineString","coordinates":[[-120.10289,49.48333],[-120.10276,49.48328],[-120.10262,49.48303],[-120.10269,49.48279],[-120.10288,49.48257],[-120.10291,49.48232],[-120.10285,49.48214],[-120.10273,49.48205],[-120.10255,49.48191],[-120.10224,49.48178],[-120.10191,49.48166],[-120.10163,49.48152],[-120.10132,49.48136],[-120.10101,49.4812],[-120.10068,49.48109],[-120.10032,49.48096],[-120.1,49.48084],[-120.0999,49.48083],[-120.09984,49.48081],[-120.09955,49.48079],[-120.09924,49.48067],[-120.09891,49.48055],[-120.09871,49.48049],[-120.09861,49.48046],[-120.0986,49.48046],[-120.09826,49.48035],[-120.09788,49.48026],[-120.09749,49.48018],[-120.09712,49.4801],[-120.09669,49.48002],[-120.0963,49.47995],[-120.09593,49.4799],[-120.09549,49.47984],[-120.09508,49.4798],[-120.09471,49.47977],[-120.09424,49.47977],[-120.09386,49.47986],[-120.09355,49.47996],[-120.09317,49.48008],[-120.09287,49.48024],[-120.09272,49.48037],[-120.09262,49.48047],[-120.09236,49.48065],[-120.09207,49.48084],[-120.09198,49.48088],[-120.09167,49.48099],[-120.09125,49.48109],[-120.09085,49.48121],[-120.09043,49.48142],[-120.09008,49.48159],[-120.08977,49.48169],[-120.08942,49.48176],[-120.08903,49.48185],[-120.08864,49.48193],[-120.08857,49.48196],[-120.08845,49.48208],[-120.08819,49.48227],[-120.08789,49.48246],[-120.08747,49.48262],[-120.08706,49.48269],[-120.08671,49.48277],[-120.08654,49.48287],[-120.0865,49.48291],[-120.08631,49.4831],[-120.08612,49.48323],[-120.08577,49.48336],[-120.08539,49.48338],[-120.08496,49.48341],[-120.08455,49.48344],[-120.08417,49.48349],[-120.08379,49.48356],[-120.08344,49.48365],[-120.0834,49.4837],[-120.08323,49.48392],[-120.08293,49.48416],[-120.08283,49.48419],[-120.0825,49.48436],[-120.08218,49.48453],[-120.08183,49.4847],[-120.08156,49.48486],[-120.08129,49.48496],[-120.0811,49.48498],[-120.08091,49.48492],[-120.08077,49.48475],[-120.08067,49.48449],[-120.08051,49.48426],[-120.08031,49.48403],[-120.08008,49.48379],[-120.07981,49.48347],[-120.07976,49.48342],[-120.07965,49.4833],[-120.0795,49.48306],[-120.07922,49.48285],[-120.07913,49.48282],[-120.07876,49.48277],[-120.07837,49.48275],[-120.07831,49.48272],[-120.07817,49.48264],[-120.07798,49.48241],[-120.07773,49.48218],[-120.0776,49.4821],[-120.07755,49.48204],[-120.07747,49.48201],[-120.07706,49.48192],[-120.07663,49.4819],[-120.07529,49.48187],[-120.07492,49.48185],[-120.0744,49.48183],[-120.07397,49.48185],[-120.07347,49.48186],[-120.07304,49.48188],[-120.07261,49.48192],[-120.07219,49.48197],[-120.07179,49.48197],[-120.07135,49.48192],[-120.0702,49.48189],[-120.07011,49.48191],[-120.06943,49.48196],[-120.06903,49.48199],[-120.06867,49.48202],[-120.06827,49.48205],[-120.06789,49.4821],[-120.06711,49.48217],[-120.06709,49.48217],[-120.06661,49.4822],[-120.06613,49.48224],[-120.06589,49.48227],[-120.0657,49.48229],[-120.06514,49.48242],[-120.06505,49.48246],[-120.06476,49.48266],[-120.06441,49.48296],[-120.0643,49.48319],[-120.06422,49.48345],[-120.06411,49.48368],[-120.06407,49.48393],[-120.06395,49.48445],[-120.06394,49.48449],[-120.0638,49.48471],[-120.06357,49.4849],[-120.06329,49.48507],[-120.06318,49.48511],[-120.06297,49.48517],[-120.06259,49.48524],[-120.06218,49.48531],[-120.06183,49.48538],[-120.06177,49.48539],[-120.06139,49.48545],[-120.06104,49.48552],[-120.06067,49.48559],[-120.06064,49.4856],[-120.06025,49.48559]]}},
{"type":"Feature","properties":{"spotId":"C-grouse-drive-0083","kind":"roadside","km":3.42,"climbM":24,"name":"2.1 km E of McNulty Creek","flags":[]},"geometry":{"type":"LineString","coordinates":[[-120.07062,49.43491],[-120.0708,49.43489],[-120.0712,49.43482],[-120.07157,49.43478],[-120.07193,49.43478],[-120.07234,49.43479],[-120.07274,49.43483],[-120.07312,49.43492],[-120.07346,49.43499],[-120.07354,49.43503],[-120.07362,49.43506],[-120.07393,49.43518],[-120.07426,49.4353],[-120.0746,49.43538],[-120.07491,49.43553],[-120.07507,49.43559],[-120.07524,49.43564],[-120.07559,49.43568],[-120.07572,49.43577],[-120.07577,49.43579],[-120.07581,49.4358],[-120.07584,49.43579],[-120.07608,49.43569],[-120.07626,49.43549],[-120.07634,49.43538],[-120.07639,49.43515],[-120.0765,49.43494],[-120.07661,49.43486],[-120.07693,49.43474],[-120.07727,49.43474],[-120.07762,49.43482],[-120.07793,49.43496],[-120.07823,49.43508],[-120.07855,49.43518],[-120.07895,49.43529],[-120.0791,49.43534],[-120.07946,49.43543],[-120.07989,49.43552],[-120.08024,49.43555],[-120.0806,49.43556],[-120.08096,49.43555],[-120.08132,49.43555],[-120.08168,49.43555],[-120.082,49.43553],[-120.08237,49.43548],[-120.08273,49.43541],[-120.08303,49.43529],[-120.08314,49.43524],[-120.08332,49.43515],[-120.08334,49.43514],[-120.08365,49.43502],[-120.08393,49.43495],[-120.08399,49.43495],[-120.08432,49.43488],[-120.08467,49.4348],[-120.08508,49.43475],[-120.08544,49.43469],[-120.08571,49.43461],[-120.08578,49.4346],[-120.08612,49.43453],[-120.08621,49.43452],[-120.08638,49.43448],[-120.08664,49.43442],[-120.08723,49.43422],[-120.0876,49.43413],[-120.088,49.43406],[-120.08836,49.434],[-120.08878,49.434],[-120.08914,49.434],[-120.08955,49.43403],[-120.08973,49.43398],[-120.08977,49.434],[-120.09038,49.43439],[-120.09063,49.43456],[-120.09114,49.43485],[-120.09138,49.43501],[-120.09166,49.43516],[-120.0919,49.43533],[-120.09223,49.43551],[-120.09247,49.4357],[-120.09268,49.43592],[-120.09293,49.43611],[-120.09322,49.43631],[-120.09342,49.43652],[-120.09362,49.43671],[-120.09381,49.4369],[-120.09397,49.43712],[-120.09421,49.43734],[-120.09439,49.43754],[-120.09458,49.43782],[-120.09472,49.43805],[-120.09473,49.43807],[-120.09483,49.43832],[-120.09489,49.43838],[-120.0951,49.43856],[-120.09513,49.43863],[-120.09531,49.43882],[-120.09554,49.43901],[-120.0959,49.43932],[-120.09611,49.43951],[-120.09628,49.43971],[-120.09646,49.43994],[-120.09659,49.44018],[-120.09666,49.44025],[-120.09676,49.44038],[-120.09678,49.44043],[-120.09688,49.44066],[-120.09702,49.4409],[-120.09713,49.44113],[-120.09721,49.44135],[-120.09724,49.44143],[-120.09728,49.44159],[-120.09741,49.44184],[-120.0975,49.44206],[-120.09756,49.44221],[-120.0976,49.44229],[-120.09765,49.44252],[-120.09779,49.4428],[-120.09786,49.44302],[-120.09794,49.44326],[-120.09809,49.44348],[-120.09823,49.4437],[-120.09832,49.44379],[-120.09851,49.44399],[-120.09869,49.44421],[-120.09884,49.44443],[-120.09886,49.44446],[-120.09901,49.44463],[-120.09911,49.44477],[-120.09915,49.44483],[-120.09924,49.44492],[-120.09936,49.44523],[-120.09935,49.44529],[-120.09943,49.44546],[-120.09945,49.44553],[-120.09952,49.44576],[-120.09952,49.44577],[-120.09956,49.446],[-120.09961,49.44629],[-120.09964,49.44645],[-120.09965,49.44652],[-120.09971,49.44676],[-120.09973,49.44684],[-120.09976,49.44699],[-120.09981,49.44722],[-120.09989,49.44745],[-120.10001,49.44768],[-120.10015,49.44792],[-120.10026,49.44814],[-120.10037,49.4484],[-120.10047,49.44875],[-120.10047,49.44877],[-120.1005,49.44884]]}},
{"type":"Feature","properties":{"spotId":"C-grouse-drive-0093","kind":"roadside","km":5.22,"climbM":18,"name":"By Sunset Creek","flags":["Route enters a Motor Vehicle Closed Area: Thompson, Cariboo and Okanagan Alpines. Closed Year Round. Exemption: Snowmobiles exempt year round (January 1 to December 31). Synopsis map 1-82/24.","Route crosses private land (ParcelMap BC, updated 2026-09-25): get permission first or go around."]},"geometry":{"type":"LineString","coordinates":[[-120.00445,49.3762],[-120.00452,49.37625],[-120.00484,49.37637],[-120.00522,49.37643],[-120.00541,49.37643],[-120.00563,49.37639],[-120.00599,49.37627],[-120.00636,49.37614],[-120.00673,49.37604],[-120.00714,49.37601],[-120.00758,49.37605],[-120.00798,49.37618],[-120.00907,49.37669],[-120.00949,49.37681],[-120.00971,49.37684],[-120.01017,49.37682],[-120.01025,49.3768],[-120.01037,49.37677],[-120.01055,49.3767],[-120.01084,49.37652],[-120.0112,49.37618],[-120.01163,49.37587],[-120.01195,49.37571],[-120.01268,49.37543],[-120.01302,49.37523],[-120.01329,49.37496],[-120.01466,49.37302],[-120.015,49.37261],[-120.01513,49.37249],[-120.01545,49.37229],[-120.01582,49.37214],[-120.01624,49.37206],[-120.01668,49.37206],[-120.01711,49.37212],[-120.01731,49.37218],[-120.01787,49.37241],[-120.01795,49.37246],[-120.01869,49.37293],[-120.01928,49.37321],[-120.01969,49.37336],[-120.02031,49.37354],[-120.02113,49.37371],[-120.02132,49.37372],[-120.02178,49.37373],[-120.02213,49.37372],[-120.02308,49.37369],[-120.0235,49.37363],[-120.02389,49.37351],[-120.02421,49.37332],[-120.02444,49.37309],[-120.02457,49.37283],[-120.02456,49.37257],[-120.02443,49.37232],[-120.02415,49.37199],[-120.02407,49.37191],[-120.02378,49.37163],[-120.02372,49.37159],[-120.02366,49.37155],[-120.02267,49.37079],[-120.02224,49.37058],[-120.02172,49.37032],[-120.02129,49.37008],[-120.02062,49.36956],[-120.02037,49.3693],[-120.01958,49.36859],[-120.01951,49.36832],[-120.01905,49.36785],[-120.01891,49.36708],[-120.01907,49.36657],[-120.01994,49.36504],[-120.02025,49.36459],[-120.0207,49.36405],[-120.02116,49.36363],[-120.02151,49.36308],[-120.02174,49.36297],[-120.02184,49.36292],[-120.02232,49.36291],[-120.02286,49.36303],[-120.02312,49.36301],[-120.02323,49.36299],[-120.02337,49.3628],[-120.0234,49.36273],[-120.02358,49.36239],[-120.02385,49.36198],[-120.02456,49.36128],[-120.02501,49.36103],[-120.02533,49.36086],[-120.02588,49.36068],[-120.02657,49.36057],[-120.02673,49.36046],[-120.0266,49.36036],[-120.02574,49.36043],[-120.02549,49.36037],[-120.02524,49.36032],[-120.02455,49.36009],[-120.02434,49.36002],[-120.02352,49.36002],[-120.02295,49.36013],[-120.02258,49.36021],[-120.02239,49.36021],[-120.02234,49.36021],[-120.02231,49.36009],[-120.02286,49.35951],[-120.02368,49.35865],[-120.02405,49.35834],[-120.0252,49.35759],[-120.02598,49.35709],[-120.02746,49.35618],[-120.0276,49.35609],[-120.02821,49.35565],[-120.02879,49.35515],[-120.02901,49.35496],[-120.03025,49.35382],[-120.03027,49.35378],[-120.03044,49.35354],[-120.03072,49.35304],[-120.03106,49.35211],[-120.03129,49.35146]]}},
{"type":"Feature","properties":{"spotId":"C-grouse-walk-0010","kind":"roadside","km":5.04,"climbM":158,"name":"2.7 km E of McNulty Creek","flags":["Route enters a Motor Vehicle Closed Area: Thompson, Cariboo and Okanagan Alpines. Closed Year Round. Exemption: Snowmobiles exempt year round (January 1 to December 31). Synopsis map 1-82/24."]},"geometry":{"type":"LineString","coordinates":[[-120.08236,49.49414],[-120.08222,49.49424],[-120.08191,49.49436],[-120.0816,49.49452],[-120.08132,49.4947],[-120.08103,49.4949],[-120.0808,49.49506],[-120.08052,49.49526],[-120.08035,49.4955],[-120.08024,49.49573],[-120.08003,49.49595],[-120.0797,49.49612],[-120.07932,49.49624],[-120.07897,49.49636],[-120.07858,49.49646],[-120.07821,49.49659],[-120.07805,49.49673],[-120.07789,49.49698],[-120.07757,49.49717],[-120.07721,49.49727],[-120.07685,49.49737],[-120.07649,49.49751],[-120.07641,49.49756],[-120.07617,49.49777],[-120.07596,49.49797],[-120.07574,49.49817],[-120.0757,49.4982],[-120.07561,49.49827],[-120.0752,49.49855],[-120.07488,49.49869],[-120.07481,49.49872],[-120.07451,49.49888],[-120.0742,49.49903],[-120.07386,49.49913],[-120.0735,49.49924],[-120.07313,49.49931],[-120.07273,49.49938],[-120.07237,49.49942],[-120.07231,49.49945],[-120.07221,49.49948],[-120.07169,49.49966],[-120.07162,49.49971],[-120.07135,49.49985],[-120.07108,49.49995],[-120.07096,49.50001],[-120.07072,49.5001],[-120.0704,49.50021],[-120.07029,49.50026],[-120.06996,49.50039],[-120.06984,49.50047],[-120.0697,49.50058],[-120.06946,49.50074],[-120.06922,49.50092],[-120.06898,49.5011],[-120.06873,49.50131],[-120.0685,49.50153],[-120.06818,49.50173],[-120.06793,49.50194],[-120.06767,49.50214],[-120.06744,49.50234],[-120.06715,49.50249],[-120.06686,49.50262],[-120.06656,49.50275],[-120.06624,49.50285],[-120.06586,49.50293],[-120.06553,49.50312],[-120.06532,49.50332],[-120.06528,49.50335],[-120.06514,49.50345],[-120.0649,49.50364],[-120.0647,49.50383],[-120.06444,49.50401],[-120.06421,49.50418],[-120.06398,49.50434],[-120.06373,49.50454],[-120.06354,49.50468],[-120.0635,49.50471],[-120.06327,49.50492],[-120.0629,49.50522],[-120.06263,49.50537],[-120.06235,49.50553],[-120.06207,49.50567],[-120.06194,49.50575],[-120.06161,49.50584],[-120.06148,49.50584],[-120.06124,49.50582],[-120.06089,49.50585],[-120.06057,49.50593],[-120.06023,49.50602],[-120.0599,49.50617],[-120.05962,49.50633],[-120.05937,49.50649],[-120.05911,49.50667],[-120.05887,49.50682],[-120.05855,49.50701],[-120.0585,49.50706],[-120.05825,49.50726],[-120.058,49.50745],[-120.05781,49.50769],[-120.05766,49.50793],[-120.05749,49.50815],[-120.05737,49.50837],[-120.05724,49.50863],[-120.05719,49.50871],[-120.0571,49.50887],[-120.05687,49.50908],[-120.05665,49.50921],[-120.05662,49.50923],[-120.05661,49.50924],[-120.05631,49.50945],[-120.05607,49.50964],[-120.05581,49.50984],[-120.05554,49.51004],[-120.05519,49.51036],[-120.05502,49.51059],[-120.05492,49.51067],[-120.0548,49.51077],[-120.05445,49.51089],[-120.05405,49.51095],[-120.05363,49.51094],[-120.05342,49.51088],[-120.05329,49.51085],[-120.0531,49.51082],[-120.05291,49.51077],[-120.05251,49.51075],[-120.05213,49.51073],[-120.05204,49.51074],[-120.05162,49.5108],[-120.05154,49.51081],[-120.05125,49.51085],[-120.05089,49.5109],[-120.05052,49.51101],[-120.05042,49.51102],[-120.04998,49.51106],[-120.0496,49.51111],[-120.0492,49.51117],[-120.04878,49.51124],[-120.04838,49.5113],[-120.04799,49.51134],[-120.04761,49.51139],[-120.04743,49.51144],[-120.0471,49.51153],[-120.04676,49.51159],[-120.04636,49.51169],[-120.04561,49.51176],[-120.04558,49.51176],[-120.04498,49.51186],[-120.04474,49.51195],[-120.04443,49.51211],[-120.04409,49.51224],[-120.04377,49.51237],[-120.04374,49.51238],[-120.04357,49.51245],[-120.04321,49.51262],[-120.04308,49.5127],[-120.04256,49.51305],[-120.04225,49.51326],[-120.04215,49.51333],[-120.04191,49.51351],[-120.04166,49.51368],[-120.04132,49.5138],[-120.04095,49.51389],[-120.04059,49.51397],[-120.04024,49.51401],[-120.03974,49.51411],[-120.03954,49.51413],[-120.03939,49.51414],[-120.03899,49.5141],[-120.0386,49.51402],[-120.03827,49.51391],[-120.03796,49.51378],[-120.03777,49.51372],[-120.03743,49.51362],[-120.03705,49.51351],[-120.03667,49.51344],[-120.0363,49.51334],[-120.03606,49.51329],[-120.03592,49.51326],[-120.03558,49.51317],[-120.03521,49.5131],[-120.03484,49.51304],[-120.03443,49.51298],[-120.03424,49.513],[-120.03393,49.51307],[-120.03374,49.51319],[-120.03367,49.51323],[-120.0335,49.51335],[-120.03341,49.51367],[-120.03323,49.5139],[-120.03286,49.51409],[-120.0325,49.51422],[-120.03214,49.51433],[-120.03184,49.5145],[-120.0316,49.51473],[-120.03138,49.51495],[-120.03122,49.51515],[-120.03107,49.51537],[-120.03093,49.51563],[-120.03077,49.51589],[-120.03055,49.51612],[-120.03027,49.51635],[-120.03026,49.51636],[-120.02996,49.51653],[-120.02935,49.51678],[-120.029,49.51686]]}},
{"type":"Feature","properties":{"spotId":"C-grouse-walk-0011","kind":"roadside","km":4.96,"climbM":211,"name":"By Sunset Creek","flags":["Route enters a Motor Vehicle Closed Area: Thompson, Cariboo and Okanagan Alpines. Closed Year Round. Exemption: Snowmobiles exempt year round (January 1 to December 31). Synopsis map 1-82/24."]},"geometry":{"type":"LineString","coordinates":[[-120.00445,49.3762],[-120.00428,49.37608],[-120.0041,49.37594],[-120.00383,49.37575],[-120.00357,49.37562],[-120.00328,49.37553],[-120.00294,49.37547],[-120.0028,49.37546],[-120.00274,49.37546],[-120.00237,49.37544],[-120.00135,49.37543],[-120.00072,49.37546],[-120.00062,49.37547],[-120.0001,49.37554],[-120.0,49.37555],[-119.99852,49.37572],[-119.99773,49.37587],[-119.99641,49.37613],[-119.99583,49.37617],[-119.99477,49.37615],[-119.99428,49.37619],[-119.99413,49.37623],[-119.99387,49.37637],[-119.99339,49.37675],[-119.99324,49.37684],[-119.99293,49.37702],[-119.99224,49.37737],[-119.99219,49.37739],[-119.99165,49.37761],[-119.9912,49.37768],[-119.99097,49.37769],[-119.99009,49.37766],[-119.98936,49.37774],[-119.98903,49.37777],[-119.98679,49.37811],[-119.98657,49.37814],[-119.98555,49.37837],[-119.98497,49.37848],[-119.9845,49.37869],[-119.98423,49.37889],[-119.98371,49.37933],[-119.98294,49.37999],[-119.98269,49.38016],[-119.98207,49.3806],[-119.9812,49.38112],[-119.981,49.38122],[-119.98025,49.3816],[-119.98,49.38176],[-119.97948,49.38209],[-119.97914,49.38224],[-119.97788,49.38258],[-119.977,49.38275],[-119.97693,49.38277],[-119.97647,49.38289],[-119.97625,49.38297],[-119.97588,49.38317],[-119.97557,49.38341],[-119.97545,49.38352],[-119.9753,49.38367],[-119.97497,49.38407],[-119.97469,49.3845],[-119.97457,49.3848],[-119.9745,49.3851],[-119.97448,49.38539],[-119.97443,49.3862],[-119.97438,49.38651],[-119.97422,49.38679],[-119.97414,49.38686],[-119.97408,49.38692],[-119.97372,49.38711],[-119.9735,49.38718],[-119.97327,49.38721],[-119.97307,49.38721],[-119.97299,49.38719],[-119.97265,49.38713],[-119.97227,49.38697],[-119.97098,49.38603],[-119.97048,49.38574],[-119.96897,49.38523],[-119.96824,49.38499],[-119.96731,49.38467],[-119.96647,49.38449],[-119.96616,49.38446],[-119.9658,49.38442],[-119.96534,49.38441],[-119.96487,49.38444],[-119.9644,49.38449],[-119.96299,49.38474],[-119.96295,49.38475],[-119.96229,49.38481],[-119.96053,49.38489],[-119.95919,49.38499],[-119.9572,49.38502],[-119.95604,49.38508],[-119.95531,49.3852],[-119.95517,49.38525],[-119.95429,49.38553],[-119.95383,49.38561],[-119.95335,49.38561],[-119.95239,49.38555],[-119.95147,49.38545],[-119.95085,49.38533],[-119.95059,49.38525],[-119.95026,49.38516],[-119.94965,49.38504],[-119.949,49.385],[-119.94855,49.38503],[-119.94812,49.38511],[-119.94799,49.38515],[-119.94791,49.38517],[-119.94729,49.38536],[-119.94694,49.38551],[-119.94689,49.38554]]}},
{"type":"Feature","properties":{"spotId":"C-grouse-walk-0035","kind":"walk","km":2.16,"climbM":95,"name":"940 m SW of Nickel Plate Creek","flags":[]},"geometry":{"type":"LineString","coordinates":[[-120.04683,49.3925],[-120.02424,49.40507]]}},
{"type":"Feature","properties":{"spotId":"C-grouse-walk-0035","kind":"roadside","km":3.72,"climbM":131,"name":"940 m SW of Nickel Plate Creek","flags":[]},"geometry":{"type":"LineString","coordinates":[[-120.02424,49.40507],[-120.02361,49.40548],[-120.02316,49.40588],[-120.02279,49.40613],[-120.02224,49.4063],[-120.02168,49.40634],[-120.02112,49.40636],[-120.02078,49.40633],[-120.02062,49.40628],[-120.01998,49.40599],[-120.01924,49.4056],[-120.01853,49.4052],[-120.01802,49.40496],[-120.01744,49.4049],[-120.01647,49.40464],[-120.01603,49.40452],[-120.01555,49.40445],[-120.015,49.40443],[-120.01428,49.40445],[-120.01392,49.40449],[-120.01373,49.40461],[-120.01326,49.40462],[-120.01275,49.40463],[-120.01243,49.40462],[-120.01203,49.40452],[-120.0116,49.4043],[-120.01145,49.40417],[-120.01097,49.40392],[-120.01049,49.40377],[-120.01041,49.40366],[-120.01019,49.40341],[-120.01001,49.40323],[-120.00975,49.40316],[-120.00948,49.40314],[-120.00898,49.40323],[-120.00876,49.40329],[-120.00862,49.40325],[-120.00819,49.40316],[-120.00768,49.40302],[-120.00705,49.40294],[-120.00629,49.40282],[-120.00593,49.40277],[-120.00547,49.40276],[-120.0053,49.40286],[-120.00492,49.40291],[-120.00485,49.40297],[-120.00463,49.40302],[-120.00412,49.40321],[-120.00344,49.40364],[-120.0031,49.40398],[-120.00245,49.40434],[-120.00213,49.40446],[-120.00172,49.4045],[-120.00131,49.40441],[-120.00067,49.40402],[-120.00033,49.40381],[-120.00006,49.40355],[-120.0,49.40347],[-119.99993,49.40342],[-119.99951,49.4031],[-119.99942,49.40299],[-119.9992,49.40257],[-119.99913,49.40242],[-119.9989,49.40222],[-119.99866,49.40208],[-119.99812,49.40204],[-119.99749,49.40201],[-119.99713,49.40196],[-119.99687,49.40189],[-119.99652,49.40173],[-119.99634,49.4017],[-119.99587,49.40152],[-119.99537,49.40118],[-119.9953,49.40111],[-119.99464,49.40077],[-119.99392,49.40048],[-119.99342,49.40041],[-119.99284,49.40043],[-119.99228,49.40048],[-119.99192,49.40055],[-119.99168,49.40066],[-119.99133,49.4007],[-119.9909,49.4007],[-119.99066,49.40075],[-119.98999,49.40079],[-119.98881,49.40082],[-119.98776,49.40091],[-119.98687,49.40084],[-119.98614,49.40067],[-119.98561,49.40036],[-119.98506,49.39993],[-119.98436,49.3994],[-119.98378,49.39905],[-119.98342,49.39883],[-119.98336,49.39877],[-119.9831,49.39879],[-119.98298,49.39876],[-119.98257,49.39865],[-119.98237,49.39858],[-119.98172,49.39834],[-119.98124,49.39811]]}},
{"type":"Feature","properties":{"spotId":"C-grouse-walk-0054","kind":"roadside","km":3.88,"climbM":21,"name":"3.2 km NW of Hedley Creek","flags":[]},"geometry":{"type":"LineString","coordinates":[[-120.06015,49.48559],[-120.06021,49.48559],[-120.06049,49.48558],[-120.06069,49.48556],[-120.06099,49.48551],[-120.06154,49.48541],[-120.06195,49.48533],[-120.06259,49.48522],[-120.06294,49.48515],[-120.06296,49.48515],[-120.06322,49.48507],[-120.06349,49.48495],[-120.06371,49.48479],[-120.06385,49.48467],[-120.06391,49.48452],[-120.06396,49.4843],[-120.06402,49.48403],[-120.06409,49.48372],[-120.06417,49.4835],[-120.06424,49.48329],[-120.06431,49.48315],[-120.06448,49.48292],[-120.06457,49.48284],[-120.06459,49.48284],[-120.06469,49.48273],[-120.06512,49.48245],[-120.0654,49.48234],[-120.06566,49.48228],[-120.06588,49.48226],[-120.06643,49.48223],[-120.06724,49.48212],[-120.06899,49.48202],[-120.06937,49.48197],[-120.07028,49.48181],[-120.07033,49.48181],[-120.07043,49.48184],[-120.07163,49.48197],[-120.07196,49.48198],[-120.07272,49.48188],[-120.07277,49.48186],[-120.07403,49.48187],[-120.07497,49.48183],[-120.07546,49.48186],[-120.07694,49.48192],[-120.07727,49.48196],[-120.07752,49.48203],[-120.07765,49.4821],[-120.07781,49.48224],[-120.07798,49.48247],[-120.0781,49.48259],[-120.07836,49.48273],[-120.07846,49.48276],[-120.07872,49.48273],[-120.07894,49.48275],[-120.07915,49.4828],[-120.07925,49.48283],[-120.07933,49.48288],[-120.07986,49.48347],[-120.07999,49.48362],[-120.08016,49.48389],[-120.08044,49.48415],[-120.08061,49.48434],[-120.08068,49.48448],[-120.08076,49.48473],[-120.08087,49.48489],[-120.08096,49.48493],[-120.08106,49.48496],[-120.08143,49.48498],[-120.08182,49.48481],[-120.08222,49.48456],[-120.0829,49.48425],[-120.08349,49.48382],[-120.08378,49.48362],[-120.08429,49.48357],[-120.08501,49.48344],[-120.0861,49.48326],[-120.08646,49.48297],[-120.08682,49.48278],[-120.08782,49.48255],[-120.08846,49.48213],[-120.08902,49.48192],[-120.09033,49.48153],[-120.09105,49.4812],[-120.09184,49.48097],[-120.09243,49.48053],[-120.09341,49.48011],[-120.0942,49.47992],[-120.09545,49.47985],[-120.09661,49.47996],[-120.09754,49.48015],[-120.09865,49.48046],[-120.09967,49.48068],[-120.10153,49.48139],[-120.10193,49.48175],[-120.1025,49.48191],[-120.10288,49.48217],[-120.10292,49.48239],[-120.10279,49.48273],[-120.10275,49.48296],[-120.10288,49.48315]]}},
{"type":"Feature","properties":{"spotId":"C-moose-drive-0027","kind":"walk","km":0.25,"climbM":0,"name":"3.0 km NW of Hedley Creek","flags":[]},"geometry":{"type":"LineString","coordinates":[[-120.06025,49.48559],[-120.05996,49.48336]]}},
{"type":"Feature","properties":{"spotId":"C-moose-walk-0036","kind":"walk","km":3.2,"climbM":157,"name":"1.9 km NW of Hedley Creek","flags":["Route enters a Motor Vehicle Closed Area: Thompson, Cariboo and Okanagan Alpines. Closed Year Round. Exemption: Snowmobiles exempt year round (January 1 to December 31). Synopsis map 1-82/24."]},"geometry":{"type":"LineString","coordinates":[[-120.06025,49.48559],[-120.02112,49.49885]]}},
{"type":"Feature","properties":{"spotId":"C-quail-drive-0060","kind":"walk","km":0.09,"climbM":19,"name":"By Hedley Creek","flags":[]},"geometry":{"type":"LineString","coordinates":[[-120.06634,49.36634],[-120.06722,49.36684]]}},
{"type":"Feature","properties":{"spotId":"C-quail-walk-0049","kind":"walk","km":0.44,"climbM":35,"name":"By Hedley Creek","flags":["Route crosses private land (ParcelMap BC, updated 2026-09-25): get permission first or go around."]},"geometry":{"type":"LineString","coordinates":[[-120.06463,49.36817],[-120.06516,49.37215]]}},
{"type":"Feature","properties":{"spotId":"C-quail-walk-0050","kind":"walk","km":0.52,"climbM":117,"name":"By Bradshaw Creek","flags":["Route crosses private land (ParcelMap BC, updated 2026-09-25): get permission first or go around."]},"geometry":{"type":"LineString","coordinates":[[-120.02697,49.29537],[-120.01984,49.29559]]}},
{"type":"Feature","properties":{"spotId":"C-quail-walk-0051","kind":"walk","km":0.5,"climbM":100,"name":"By Shoemaker Creek","flags":["Route crosses private land (ParcelMap BC, updated 2026-09-25): get permission first or go around."]},"geometry":{"type":"LineString","coordinates":[[-120.00985,49.25129],[-120.00454,49.2541]]}},
{"type":"Feature","properties":{"spotId":"C-quail-walk-0053","kind":"walk","km":1.79,"climbM":15,"name":"By Hedley Creek","flags":["Route crosses private land (ParcelMap BC, updated 2026-09-25): get permission first or go around."]},"geometry":{"type":"LineString","coordinates":[[-120.10434,49.39806],[-120.08205,49.39114]]}},
{"type":"Feature","properties":{"spotId":"C-quail-walk-0057","kind":"walk","km":1.43,"climbM":198,"name":"By Larcan Creek","flags":["Route crosses reserve land: ASHNOLA 10. Get permission from the band office to hunt on or across it (synopsis page 9, 99%).","Route crosses private land (ParcelMap BC, updated 2026-09-25): get permission first or go around."]},"geometry":{"type":"LineString","coordinates":[[-120.0276,49.28305],[-120.04667,49.27992]]}},
{"type":"Feature","properties":{"spotId":"C-quail-walk-0061","kind":"walk","km":0.52,"climbM":65,"name":"250 m SW of Similkameen River","flags":["Route crosses reserve land: CHUCHUWAYHA 2. Get permission from the band office to hunt on or across it (synopsis page 9, 99%)."]},"geometry":{"type":"LineString","coordinates":[[-120.08801,49.3523],[-120.09168,49.34832]]}}
]}
