{"type":"FeatureCollection","features":[
{"type":"Feature","properties":{"id":"G-camp-camp-0001","kind":"Rec site","name":"Hidden Lake rec site","campsites":48,"water":"Water: Hidden Lake 40 m SE.","nearSpots":26,"closure":null,"spotIds":["G-deer-atv-0042","G-deer-atv-0050","G-deer-drive-0044","G-duck-drive-0040","G-duck-drive-0057","G-duck-drive-0062","G-duck-drive-0068","G-duck-drive-0081","G-duck-drive-0084","G-duck-drive-0104","G-duck-walk-0016","G-duck-walk-0018","G-grouse-atv-0066","G-grouse-drive-0052","G-moose-atv-0054","G-quail-atv-0004","G-quail-atv-0005","G-quail-atv-0011","G-quail-drive-0003","G-quail-drive-0014","G-quail-drive-0016","G-quail-drive-0019","G-quail-walk-0008","G-quail-walk-0013","G-quail-walk-0014","G-quail-walk-0019"],"note":"Official rec site"},"geometry":{"type":"Point","coordinates":[-118.82179,50.57811]}},
{"type":"Feature","properties":{"id":"G-camp-camp-0002","kind":"Rec site","name":"Baird Lake rec site","campsites":7,"water":"Water: Baird Lake 40 m S.","nearSpots":21,"closure":null,"spotIds":["G-deer-atv-0050","G-deer-drive-0044","G-duck-drive-0040","G-duck-drive-0057","G-duck-drive-0062","G-duck-drive-0068","G-duck-drive-0081","G-duck-drive-0084","G-duck-drive-0104","G-duck-walk-0016","G-duck-walk-0018","G-grouse-atv-0066","G-grouse-drive-0052","G-moose-atv-0054","G-quail-atv-0005","G-quail-atv-0007","G-quail-drive-0016","G-quail-walk-0009","G-quail-walk-0013","G-quail-walk-0019"],"note":"Official rec site"},"geometry":{"type":"Point","coordinates":[-118.79369,50.57096]}},
{"type":"Feature","properties":{"id":"G-camp-camp-0003","kind":"Crown land candidate","name":"170 m NW of Tsikwustum Lake","campsites":null,"water":"Water: Tsikwustum Lake 170 m SE.","nearSpots":23,"closure":null,"spotIds":["G-duck-drive-0108","G-duck-drive-0112","G-duck-drive-0115","G-duck-drive-0117","G-duck-drive-0118","G-duck-drive-0125","G-duck-drive-0132","G-duck-drive-0137","G-duck-drive-0141","G-duck-drive-0150","G-duck-walk-0036","G-duck-walk-0045","G-duck-walk-0046","G-duck-walk-0056","G-duck-walk-0058","G-duck-walk-0062","G-duck-walk-0065","G-duck-walk-0070","G-grouse-drive-0011","G-moose-atv-0043","G-moose-atv-0044","G-moose-drive-0048","G-moose-walk-0048"],"note":"Candidate, scout it first (estimate)"},"geometry":{"type":"Point","coordinates":[-119.26507,51.42672]}},
{"type":"Feature","properties":{"id":"G-camp-camp-0004","kind":"Crown land candidate","name":"150 m NE of Seymour River","campsites":null,"water":"Water: Seymour River 150 m SW.","nearSpots":21,"closure":null,"spotIds":["G-duck-drive-0008","G-duck-drive-0009","G-duck-drive-0014","G-duck-drive-0087","G-duck-drive-0105","G-duck-drive-0110","G-duck-walk-0022","G-duck-walk-0024","G-duck-walk-0027","G-duck-walk-0073","G-grouse-atv-0036","G-grouse-drive-0014","G-grouse-drive-0021","G-grouse-drive-0025","G-moose-atv-0001","G-moose-atv-0002","G-moose-drive-0001","G-moose-drive-0002","G-moose-drive-0006","G-moose-walk-0001","G-moose-walk-0004"],"note":"Candidate, scout it first (estimate)"},"geometry":{"type":"Point","coordinates":[-118.89758,51.29239]}},
{"type":"Feature","properties":{"id":"G-camp-camp-0005","kind":"Crown land candidate","name":"170 m NW of Akolkolex River","campsites":null,"water":"Water: Akolkolex River 170 m SE.","nearSpots":18,"closure":null,"spotIds":["G-deer-atv-0026","G-deer-atv-0038","G-deer-drive-0011","G-deer-drive-0016","G-deer-drive-0023","G-deer-drive-0026","G-deer-drive-0028","G-deer-drive-0036","G-deer-drive-0052","G-deer-drive-0075","G-deer-walk-0023","G-deer-walk-0085","G-duck-drive-0162","G-duck-walk-0078","G-grouse-atv-0070","G-grouse-drive-0015","G-grouse-drive-0038","G-moose-walk-0024"],"note":"Candidate, scout it first (estimate)"},"geometry":{"type":"Point","coordinates":[-118.03089,50.83955]}},
{"type":"Feature","properties":{"id":"G-camp-camp-0006","kind":"Crown land candidate","name":"170 m N of Tank Creek","campsites":null,"water":"Water: Tank Creek 170 m S.","nearSpots":16,"closure":null,"spotIds":["G-deer-atv-0014","G-deer-atv-0026","G-deer-drive-0022","G-deer-drive-0023","G-deer-drive-0026","G-deer-drive-0029","G-deer-drive-0038","G-deer-walk-0026","G-deer-walk-0038","G-deer-walk-0049","G-duck-drive-0164","G-duck-walk-0019","G-grouse-atv-0055","G-grouse-drive-0015","G-moose-atv-0017","G-moose-drive-0037"],"note":"Candidate, scout it first (estimate)"},"geometry":{"type":"Point","coordinates":[-117.98405,50.78196]}},
{"type":"Feature","properties":{"id":"G-camp-camp-0007","kind":"Crown land candidate","name":"By Kingfisher Creek","campsites":null,"water":"Water: Kingfisher Creek 100 m E.","nearSpots":21,"closure":null,"spotIds":["G-duck-drive-0099","G-duck-drive-0163","G-duck-walk-0026","G-duck-walk-0042","G-grouse-atv-0074","G-grouse-drive-0008","G-grouse-drive-0032","G-grouse-drive-0063","G-grouse-walk-0024","G-grouse-walk-0047","G-grouse-walk-0053","G-grouse-walk-0054","G-moose-atv-0021","G-moose-atv-0025","G-moose-drive-0024","G-moose-drive-0035","G-moose-drive-0038","G-moose-drive-0039","G-moose-walk-0030","G-moose-walk-0040","G-moose-walk-0043"],"note":"Candidate, scout it first (estimate)"},"geometry":{"type":"Point","coordinates":[-118.7583,50.71666]}},
{"type":"Feature","properties":{"id":"G-camp-camp-0008","kind":"Crown land candidate","name":"By Larch Hills Creek","campsites":null,"water":"Water: Larch Hills Creek 90 m W.","nearSpots":16,"closure":null,"spotIds":["G-deer-atv-0028","G-deer-atv-0039","G-deer-walk-0025","G-deer-walk-0035","G-deer-walk-0051","G-duck-drive-0082","G-duck-walk-0077","G-grouse-atv-0046","G-grouse-atv-0069","G-grouse-walk-0019","G-grouse-walk-0037","G-grouse-walk-0056","G-moose-atv-0056","G-quail-atv-0013","G-quail-walk-0002","G-quail-walk-0006"],"note":"Candidate, scout it first (estimate)"},"geometry":{"type":"Point","coordinates":[-119.0845,50.73469]}},
{"type":"Feature","properties":{"id":"G-camp-camp-0009","kind":"Crown land candidate","name":"By Seymour River","campsites":null,"water":"Water: Seymour River 40 m W.","nearSpots":17,"closure":null,"spotIds":["G-duck-drive-0008","G-duck-drive-0009","G-duck-drive-0014","G-duck-drive-0087","G-duck-drive-0105","G-duck-walk-0024","G-duck-walk-0027","G-grouse-atv-0036","G-grouse-drive-0014","G-grouse-drive-0025","G-moose-atv-0001","G-moose-atv-0002","G-moose-drive-0001","G-moose-drive-0002","G-moose-drive-0006","G-moose-walk-0001","G-moose-walk-0004"],"note":"Candidate, scout it first (estimate)"},"geometry":{"type":"Point","coordinates":[-118.90332,51.26568]}},
{"type":"Feature","properties":{"id":"G-camp-camp-0010","kind":"Crown land candidate","name":"By Perry River","campsites":null,"water":"Water: Perry River 90 m NW.","nearSpots":14,"closure":null,"spotIds":["G-duck-drive-0005","G-duck-drive-0024","G-duck-walk-0075","G-grouse-atv-0056","G-grouse-walk-0016","G-grouse-walk-0039","G-grouse-walk-0048","G-grouse-walk-0062","G-moose-atv-0020","G-moose-drive-0027","G-moose-drive-0042","G-moose-walk-0021","G-moose-walk-0025","G-moose-walk-0037"],"note":"Candidate, scout it first (estimate)"},"geometry":{"type":"Point","coordinates":[-118.66572,51.11598]}},
{"type":"Feature","properties":{"id":"G-camp-camp-0011","kind":"Crown land candidate","name":"By Whip Creek","campsites":null,"water":"Water: Whip Creek 110 m W.","nearSpots":7,"closure":null,"spotIds":["G-duck-drive-0143","G-duck-drive-0148","G-duck-drive-0154","G-duck-walk-0060","G-grouse-drive-0041","G-moose-drive-0040","G-moose-walk-0027"],"note":"Candidate, scout it first (estimate)"},"geometry":{"type":"Point","coordinates":[-118.52265,50.6008]}},
{"type":"Feature","properties":{"id":"G-camp-camp-0012","kind":"Crown land candidate","name":"By Shuswap River","campsites":null,"water":"Water: Shuswap River right here.","nearSpots":9,"closure":null,"spotIds":["G-duck-drive-0023","G-grouse-atv-0008","G-grouse-drive-0016","G-moose-atv-0015","G-moose-atv-0026","G-moose-drive-0012","G-moose-drive-0013","G-moose-walk-0007","G-moose-walk-0018"],"note":"Candidate, scout it first (estimate)"},"geometry":{"type":"Point","coordinates":[-118.43102,50.5205]}},
{"type":"Feature","properties":{"id":"G-camp-camp-0013","kind":"Crown land candidate","name":"By Perry River","campsites":null,"water":"Water: Perry River 80 m NE.","nearSpots":6,"closure":null,"spotIds":["G-duck-drive-0018","G-duck-drive-0024","G-duck-drive-0100","G-grouse-drive-0039","G-moose-drive-0042","G-moose-walk-0037"],"note":"Candidate, scout it first (estimate)"},"geometry":{"type":"Point","coordinates":[-118.67903,51.17462]}},
{"type":"Feature","properties":{"id":"G-camp-camp-0014","kind":"Crown land candidate","name":"140 m SW of Jordan River","campsites":null,"water":"Water: Jordan River 140 m NE.","nearSpots":6,"closure":null,"spotIds":["G-duck-drive-0010","G-duck-drive-0083","G-grouse-atv-0054","G-grouse-drive-0050","G-grouse-walk-0021","G-grouse-walk-0050"],"note":"Candidate, scout it first (estimate)"},"geometry":{"type":"Point","coordinates":[-118.29877,51.0598]}},
{"type":"Feature","properties":{"id":"G-camp-camp-0015","kind":"Crown land candidate","name":"By Valerian Creek","campsites":null,"water":"Water: Valerian Creek 100 m SW.","nearSpots":6,"closure":null,"spotIds":["G-duck-drive-0142","G-duck-walk-0063","G-grouse-atv-0072","G-grouse-drive-0031","G-moose-drive-0061","G-moose-walk-0060"],"note":"Candidate, scout it first (estimate)"},"geometry":{"type":"Point","coordinates":[-118.37003,50.74582]}},
{"type":"Feature","properties":{"id":"G-camp-camp-0016","kind":"Crown land candidate","name":"160 m NE of Spa Creek","campsites":null,"water":"Water: Spa Creek 160 m SW.","nearSpots":5,"closure":null,"spotIds":["G-deer-atv-0047","G-deer-drive-0046","G-deer-drive-0068","G-deer-drive-0074","G-deer-walk-0048"],"note":"Candidate, scout it first (estimate)"},"geometry":{"type":"Point","coordinates":[-119.39817,50.54891]}},
{"type":"Feature","properties":{"id":"G-camp-camp-0017","kind":"Rec site","name":"Cooke Creek rec site","campsites":22,"water":"Water: Shuswap River 60 m SE.","nearSpots":24,"closure":null,"spotIds":["G-deer-atv-0042","G-deer-atv-0050","G-deer-atv-0052","G-deer-drive-0044","G-deer-drive-0071","G-deer-walk-0081","G-deer-walk-0082","G-duck-drive-0040","G-duck-drive-0062","G-duck-drive-0068","G-duck-drive-0081","G-duck-drive-0084","G-grouse-atv-0066","G-quail-atv-0004","G-quail-atv-0005","G-quail-atv-0011","G-quail-drive-0003","G-quail-drive-0014","G-quail-drive-0016","G-quail-drive-0019","G-quail-walk-0008","G-quail-walk-0013","G-quail-walk-0014","G-quail-walk-0019"],"note":"Official rec site"},"geometry":{"type":"Point","coordinates":[-118.84322,50.60174]}},
{"type":"Feature","properties":{"id":"G-camp-camp-0018","kind":"Rec site","name":"Dale Lake rec site","campsites":2,"water":"Water: unnamed wetland right here.","nearSpots":13,"closure":"Road access has been lost via Cooke Creek Forest Service Road","spotIds":["G-deer-atv-0042","G-deer-atv-0052","G-deer-drive-0071","G-duck-drive-0037","G-duck-drive-0152","G-duck-walk-0017","G-duck-walk-0051","G-grouse-walk-0017","G-grouse-walk-0060","G-moose-atv-0005","G-moose-atv-0013","G-moose-walk-0030","G-quail-walk-0014"],"note":"Official rec site"},"geometry":{"type":"Point","coordinates":[-118.82601,50.65763]}},
{"type":"Feature","properties":{"id":"G-camp-camp-0019","kind":"Rec site","name":"Spruce Lake rec site","campsites":1,"water":"Water: unnamed wetland right here.","nearSpots":15,"closure":null,"spotIds":["G-deer-atv-0052","G-deer-drive-0071","G-duck-drive-0037","G-duck-drive-0152","G-duck-walk-0017","G-duck-walk-0051","G-grouse-drive-0032","G-grouse-walk-0017","G-grouse-walk-0024","G-grouse-walk-0054","G-grouse-walk-0060","G-moose-atv-0005","G-moose-atv-0013","G-moose-drive-0039","G-moose-walk-0030"],"note":"Official rec site"},"geometry":{"type":"Point","coordinates":[-118.81583,50.66838]}},
{"type":"Feature","properties":{"id":"G-camp-camp-0020","kind":"Crown land candidate","name":"1.5 km E of Adams River","campsites":null,"water":"Water: unnamed wetland 30 m W.","nearSpots":19,"closure":null,"spotIds":["G-duck-drive-0034","G-duck-drive-0059","G-duck-drive-0064","G-duck-drive-0088","G-duck-drive-0097","G-duck-drive-0101","G-duck-walk-0010","G-duck-walk-0013","G-grouse-atv-0017","G-grouse-atv-0071","G-grouse-drive-0073","G-moose-atv-0038","G-moose-atv-0039","G-moose-atv-0047","G-moose-atv-0051","G-moose-drive-0046","G-moose-drive-0050","G-moose-walk-0045","G-moose-walk-0046"],"note":"Candidate, scout it first (estimate)"},"geometry":{"type":"Point","coordinates":[-119.24475,51.57787]}},
{"type":"Feature","properties":{"id":"G-camp-camp-0021","kind":"Crown land candidate","name":"240 m SE of Upper Harbour Lake","campsites":null,"water":"Water: unnamed wetland 30 m N.","nearSpots":15,"closure":null,"spotIds":["G-duck-drive-0044","G-duck-drive-0048","G-duck-drive-0107","G-duck-drive-0153","G-duck-walk-0008","G-duck-walk-0029","G-grouse-atv-0017","G-grouse-atv-0071","G-grouse-drive-0043","G-grouse-drive-0078","G-moose-atv-0037","G-moose-atv-0038","G-moose-drive-0045","G-moose-walk-0044","G-moose-walk-0045"],"note":"Candidate, scout it first (estimate)"},"geometry":{"type":"Point","coordinates":[-119.16014,51.56199]}},
{"type":"Feature","properties":{"id":"G-camp-camp-0022","kind":"Crown land candidate","name":"190 m NE of Harbour Creek","campsites":null,"water":"Water: unnamed wetland 70 m N.","nearSpots":21,"closure":null,"spotIds":["G-duck-drive-0035","G-duck-drive-0044","G-duck-drive-0048","G-duck-drive-0055","G-duck-drive-0059","G-duck-drive-0064","G-duck-drive-0088","G-duck-drive-0097","G-duck-drive-0101","G-duck-drive-0107","G-duck-walk-0008","G-duck-walk-0010","G-duck-walk-0013","G-duck-walk-0069","G-grouse-atv-0071","G-moose-atv-0039","G-moose-atv-0040","G-moose-atv-0047","G-moose-drive-0046","G-moose-drive-0050","G-moose-walk-0046"],"note":"Candidate, scout it first (estimate)"},"geometry":{"type":"Point","coordinates":[-119.23397,51.53486]}},
{"type":"Feature","properties":{"id":"G-camp-camp-0023","kind":"Crown land candidate","name":"2.0 km SE of Tsikwustum Lake","campsites":null,"water":"Water: unnamed wetland 110 m E.","nearSpots":16,"closure":null,"spotIds":["G-duck-drive-0108","G-duck-drive-0112","G-duck-drive-0125","G-duck-drive-0132","G-duck-drive-0137","G-duck-drive-0141","G-duck-drive-0150","G-duck-walk-0056","G-duck-walk-0058","G-duck-walk-0062","G-duck-walk-0065","G-grouse-atv-0006","G-grouse-drive-0011","G-moose-atv-0043","G-moose-atv-0044","G-moose-drive-0048"],"note":"Candidate, scout it first (estimate)"},"geometry":{"type":"Point","coordinates":[-119.22099,51.41237]}},
{"type":"Feature","properties":{"id":"G-camp-camp-0024","kind":"Crown land candidate","name":"By Humamilt Lake","campsites":null,"water":"Water: unnamed wetland 70 m NE.","nearSpots":14,"closure":null,"spotIds":["G-deer-atv-0009","G-deer-drive-0015","G-deer-walk-0019","G-duck-drive-0041","G-duck-drive-0067","G-duck-drive-0138","G-grouse-atv-0045","G-grouse-atv-0051","G-grouse-drive-0006","G-grouse-drive-0023","G-moose-drive-0007","G-moose-drive-0019"],"note":"Candidate, scout it first (estimate)"},"geometry":{"type":"Point","coordinates":[-119.12679,51.28403]}},
{"type":"Feature","properties":{"id":"G-camp-camp-0025","kind":"Crown land candidate","name":"1.1 km NW of Pari Creek","campsites":null,"water":"Water: unnamed wetland 50 m SW.","nearSpots":24,"closure":null,"spotIds":["G-deer-atv-0036","G-deer-atv-0041","G-deer-atv-0055","G-deer-drive-0062","G-deer-walk-0011","G-deer-walk-0059","G-deer-walk-0070","G-deer-walk-0075","G-deer-walk-0083","G-duck-drive-0032","G-duck-drive-0086","G-duck-drive-0106","G-duck-walk-0023","G-grouse-atv-0041","G-grouse-walk-0049","G-moose-atv-0007","G-moose-atv-0058","G-moose-drive-0004","G-moose-drive-0022","G-moose-drive-0028","G-moose-drive-0031","G-moose-drive-0041","G-moose-walk-0003"],"note":"Candidate, scout it first (estimate)"},"geometry":{"type":"Point","coordinates":[-119.28856,50.91227]}},
{"type":"Feature","properties":{"id":"G-camp-camp-0026","kind":"Crown land candidate","name":"780 m SE of Cavanaugh Creek","campsites":null,"water":"Water: unnamed wetland 190 m S.","nearSpots":18,"closure":null,"spotIds":["G-duck-drive-0001","G-duck-drive-0006","G-duck-drive-0022","G-duck-drive-0077","G-duck-drive-0121","G-duck-walk-0001","G-duck-walk-0002","G-duck-walk-0003","G-duck-walk-0020","G-duck-walk-0021","G-grouse-atv-0037","G-grouse-drive-0022","G-moose-atv-0010","G-moose-atv-0012","G-moose-drive-0005","G-moose-walk-0005","G-moose-walk-0010"],"note":"Candidate, scout it first (estimate)"},"geometry":{"type":"Point","coordinates":[-118.5994,50.80735]}},
{"type":"Feature","properties":{"id":"G-camp-camp-0027","kind":"Crown land candidate","name":"1.8 km W of Hidden Lake","campsites":null,"water":"Water: unnamed wetland 170 m SE.","nearSpots":23,"closure":null,"spotIds":["G-deer-atv-0050","G-deer-drive-0032","G-deer-walk-0081","G-duck-drive-0040","G-duck-drive-0057","G-duck-drive-0062","G-duck-drive-0068","G-duck-drive-0081","G-duck-drive-0084","G-duck-drive-0104","G-duck-walk-0016","G-duck-walk-0018","G-grouse-atv-0066","G-moose-atv-0054","G-quail-atv-0004","G-quail-atv-0005","G-quail-atv-0011","G-quail-drive-0014","G-quail-drive-0018","G-quail-drive-0019","G-quail-walk-0008","G-quail-walk-0013","G-quail-walk-0019"],"note":"Candidate, scout it first (estimate)"},"geometry":{"type":"Point","coordinates":[-118.85702,50.56232]}},
{"type":"Feature","properties":{"id":"G-camp-camp-0028","kind":"Crown land candidate","name":"710 m E of Rabie Lake","campsites":null,"water":"Water: Mossy Lake 180 m S.","nearSpots":16,"closure":null,"spotIds":["G-deer-atv-0005","G-deer-atv-0006","G-deer-atv-0036","G-deer-atv-0054","G-deer-drive-0069","G-deer-walk-0005","G-deer-walk-0006","G-deer-walk-0011","G-deer-walk-0059","G-deer-walk-0084","G-duck-drive-0032","G-duck-drive-0050","G-grouse-walk-0049","G-moose-atv-0058","G-moose-drive-0022","G-moose-walk-0069"],"note":"Candidate, scout it first (estimate)"},"geometry":{"type":"Point","coordinates":[-119.34238,50.84873]}},
{"type":"Feature","properties":{"id":"G-camp-camp-0029","kind":"Crown land candidate","name":"2.2 km SE of Bower Creek","campsites":null,"water":"Water: unnamed wetland 190 m E.","nearSpots":13,"closure":null,"spotIds":["G-duck-drive-0055","G-duck-drive-0123","G-duck-drive-0126","G-duck-drive-0131","G-duck-walk-0030","G-duck-walk-0032","G-duck-walk-0040","G-duck-walk-0055","G-grouse-drive-0043","G-moose-atv-0041","G-moose-atv-0042","G-moose-drive-0047","G-moose-walk-0047"],"note":"Candidate, scout it first (estimate)"},"geometry":{"type":"Point","coordinates":[-119.1071,51.52091]}},
{"type":"Feature","properties":{"id":"G-camp-camp-0030","kind":"Crown land candidate","name":"230 m N of Downie Creek","campsites":null,"water":"Water: unnamed wetland 90 m W.","nearSpots":18,"closure":null,"spotIds":["G-duck-drive-0003","G-duck-drive-0004","G-duck-drive-0007","G-duck-drive-0016","G-duck-drive-0025","G-duck-walk-0005","G-duck-walk-0006","G-duck-walk-0067","G-duck-walk-0071","G-grouse-atv-0022","G-grouse-drive-0001","G-grouse-drive-0007","G-moose-atv-0050","G-moose-atv-0061","G-moose-drive-0051","G-moose-drive-0066","G-moose-walk-0055","G-moose-walk-0059"],"note":"Candidate, scout it first (estimate)"},"geometry":{"type":"Point","coordinates":[-118.28246,51.51651]}},
{"type":"Feature","properties":{"id":"G-camp-camp-0031","kind":"Crown land candidate","name":"1.0 km E of Haines Creek","campsites":null,"water":"Water: unnamed wetland 170 m SE.","nearSpots":14,"closure":null,"spotIds":["G-deer-atv-0030","G-deer-atv-0033","G-deer-atv-0034","G-deer-atv-0040","G-deer-atv-0051","G-deer-drive-0074","G-deer-walk-0065","G-duck-drive-0145","G-grouse-atv-0031","G-moose-atv-0023","G-moose-drive-0056","G-quail-atv-0009","G-quail-drive-0020","G-quail-walk-0016"],"note":"Candidate, scout it first (estimate)"},"geometry":{"type":"Point","coordinates":[-119.28654,50.5747]}},
{"type":"Feature","properties":{"id":"G-camp-camp-0032","kind":"Crown land candidate","name":"160 m NW of Trinity Creek","campsites":null,"water":"Water: Trinity Creek 160 m SE.","nearSpots":14,"closure":null,"spotIds":["G-deer-drive-0024","G-deer-drive-0025","G-deer-drive-0027","G-deer-drive-0033","G-deer-walk-0029","G-grouse-drive-0061","G-quail-atv-0012","G-quail-drive-0005","G-quail-drive-0007","G-quail-drive-0018","G-quail-drive-0022","G-quail-walk-0017"],"note":"Candidate, scout it first (estimate)"},"geometry":{"type":"Point","coordinates":[-118.9756,50.53017]}},
{"type":"Feature","properties":{"id":"G-camp-camp-0033","kind":"Crown land candidate","name":"1.4 km W of Aline Hill","campsites":null,"water":"Water: unnamed wetland 40 m W.","nearSpots":13,"closure":null,"spotIds":["G-deer-atv-0032","G-deer-atv-0045","G-deer-drive-0031","G-deer-drive-0039","G-deer-drive-0067","G-deer-walk-0045","G-deer-walk-0079","G-duck-drive-0063","G-duck-walk-0014","G-moose-atv-0003","G-moose-atv-0004","G-moose-drive-0003","G-moose-walk-0002"],"note":"Candidate, scout it first (estimate)"},"geometry":{"type":"Point","coordinates":[-119.05515,50.96028]}},
{"type":"Feature","properties":{"id":"G-camp-camp-0034","kind":"Crown land candidate","name":"150 m N of King-Baker Creek","campsites":null,"water":"Water: King-Baker Creek 150 m S.","nearSpots":13,"closure":null,"spotIds":["G-deer-drive-0049","G-deer-walk-0004","G-deer-walk-0025","G-deer-walk-0056","G-deer-walk-0063","G-grouse-drive-0048","G-grouse-drive-0055","G-grouse-walk-0044","G-moose-walk-0050","G-quail-drive-0001","G-quail-walk-0002","G-quail-walk-0006","G-quail-walk-0011"],"note":"Candidate, scout it first (estimate)"},"geometry":{"type":"Point","coordinates":[-119.01301,50.7546]}},
{"type":"Feature","properties":{"id":"G-camp-camp-0035","kind":"Crown land candidate","name":"190 m W of Reinecker Creek","campsites":null,"water":"Water: unnamed wetland 150 m E.","nearSpots":12,"closure":null,"spotIds":["G-deer-atv-0046","G-deer-drive-0056","G-deer-walk-0055","G-deer-walk-0076","G-duck-drive-0157","G-grouse-atv-0010","G-grouse-atv-0023","G-grouse-walk-0012","G-grouse-walk-0046","G-moose-atv-0008","G-moose-walk-0011","G-moose-walk-0029"],"note":"Candidate, scout it first (estimate)"},"geometry":{"type":"Point","coordinates":[-119.22645,50.83184]}},
{"type":"Feature","properties":{"id":"G-camp-camp-0036","kind":"Crown land candidate","name":"By Downie Creek","campsites":null,"water":"Water: Downie Creek 60 m NW.","nearSpots":12,"closure":null,"spotIds":["G-duck-drive-0003","G-duck-drive-0016","G-duck-drive-0025","G-duck-walk-0005","G-duck-walk-0067","G-duck-walk-0071","G-grouse-atv-0022","G-grouse-drive-0001","G-moose-atv-0050","G-moose-atv-0061","G-moose-drive-0051","G-moose-walk-0055"],"note":"Candidate, scout it first (estimate)"},"geometry":{"type":"Point","coordinates":[-118.34267,51.51247]}},
{"type":"Feature","properties":{"id":"G-camp-camp-0037","kind":"Crown land candidate","name":"By Illecillewaet River","campsites":null,"water":"Water: Illecillewaet River 40 m NW.","nearSpots":11,"closure":null,"spotIds":["G-deer-atv-0017","G-deer-drive-0035","G-deer-drive-0066","G-deer-walk-0080","G-duck-drive-0013","G-duck-drive-0019","G-duck-drive-0021","G-duck-walk-0004","G-grouse-drive-0027","G-moose-atv-0059","G-moose-walk-0068"],"note":"Candidate, scout it first (estimate)"},"geometry":{"type":"Point","coordinates":[-118.06169,51.01977]}},
{"type":"Feature","properties":{"id":"G-camp-camp-0038","kind":"Crown land candidate","name":"150 m N of Upper Arrow Lake","campsites":null,"water":"Water: unnamed wetland 40 m SW.","nearSpots":10,"closure":null,"spotIds":["G-deer-atv-0048","G-deer-drive-0041","G-deer-drive-0042","G-deer-drive-0053","G-deer-walk-0030","G-deer-walk-0058","G-deer-walk-0086","G-duck-drive-0093","G-grouse-drive-0053","G-moose-walk-0061"],"note":"Candidate, scout it first (estimate)"},"geometry":{"type":"Point","coordinates":[-117.71568,50.75779]}},
{"type":"Feature","properties":{"id":"G-camp-camp-0039","kind":"Crown land candidate","name":"1.8 km W of Cache Cabin rec site","campsites":null,"water":"Water: unnamed wetland 160 m S.","nearSpots":7,"closure":null,"spotIds":["G-deer-walk-0022","G-duck-drive-0120","G-duck-drive-0124","G-duck-walk-0043","G-grouse-walk-0022","G-grouse-walk-0029","G-grouse-walk-0051"],"note":"Candidate, scout it first (estimate)"},"geometry":{"type":"Point","coordinates":[-118.85735,50.82778]}},
{"type":"Feature","properties":{"id":"G-camp-camp-0040","kind":"Crown land candidate","name":"870 m NW of Jenning Creek","campsites":null,"water":"Water: unnamed wetland 110 m E.","nearSpots":9,"closure":null,"spotIds":["G-duck-drive-0043","G-duck-drive-0049","G-duck-drive-0051","G-duck-drive-0096","G-grouse-atv-0004","G-grouse-drive-0062","G-moose-drive-0049","G-moose-drive-0052","G-moose-walk-0067"],"note":"Candidate, scout it first (estimate)"},"geometry":{"type":"Point","coordinates":[-117.82623,50.63756]}},
{"type":"Feature","properties":{"id":"G-camp-camp-0041","kind":"Crown land candidate","name":"570 m S of Pettipiece Pass","campsites":null,"water":"Water: unnamed lake 90 m S.","nearSpots":6,"closure":null,"spotIds":["G-duck-drive-0109","G-duck-drive-0116","G-duck-drive-0128","G-duck-walk-0034","G-duck-walk-0044","G-moose-atv-0036"],"note":"Candidate, scout it first (estimate)"},"geometry":{"type":"Point","coordinates":[-118.61645,51.41151]}},
{"type":"Feature","properties":{"id":"G-camp-camp-0042","kind":"Crown land candidate","name":"190 m NE of Little Fish Creek","campsites":null,"water":"Water: unnamed wetland 110 m W.","nearSpots":8,"closure":null,"spotIds":["G-grouse-atv-0033","G-grouse-drive-0036","G-moose-atv-0034","G-moose-drive-0008","G-moose-drive-0025","G-moose-drive-0065","G-moose-walk-0022","G-moose-walk-0031"],"note":"Candidate, scout it first (estimate)"},"geometry":{"type":"Point","coordinates":[-118.01832,50.65425]}},
{"type":"Feature","properties":{"id":"G-camp-camp-0043","kind":"Crown land candidate","name":"610 m W of Shuswap Lake","campsites":null,"water":"Water: unnamed lake right here.","nearSpots":6,"closure":null,"spotIds":["G-deer-atv-0025","G-deer-walk-0060","G-deer-walk-0079","G-duck-drive-0090","G-grouse-atv-0057","G-grouse-drive-0080"],"note":"Candidate, scout it first (estimate)"},"geometry":{"type":"Point","coordinates":[-119.06672,51.0422]}},
{"type":"Feature","properties":{"id":"G-camp-camp-0044","kind":"Crown land candidate","name":"390 m N of Goldstream River","campsites":null,"water":"Water: unnamed wetland 100 m SW.","nearSpots":6,"closure":null,"spotIds":["G-duck-drive-0119","G-duck-drive-0133","G-duck-drive-0134","G-grouse-drive-0045","G-moose-drive-0053","G-moose-walk-0071"],"note":"Candidate, scout it first (estimate)"},"geometry":{"type":"Point","coordinates":[-118.05026,51.59619]}},
{"type":"Feature","properties":{"id":"G-camp-camp-0045","kind":"Crown land candidate","name":"180 m NW of Bachelor Creek","campsites":null,"water":"Water: Bachelor Creek 180 m SE.","nearSpots":4,"closure":null,"spotIds":["G-duck-drive-0135","G-grouse-atv-0052","G-grouse-drive-0030","G-moose-drive-0059"],"note":"Candidate, scout it first (estimate)"},"geometry":{"type":"Point","coordinates":[-117.79338,51.54629]}},
{"type":"Feature","properties":{"id":"G-camp-camp-0046","kind":"Crown land candidate","name":"2.6 km E of Cayenne Creek","campsites":null,"water":"Water: unnamed wetland 120 m SW.","nearSpots":5,"closure":null,"spotIds":["G-duck-drive-0146","G-duck-walk-0048","G-duck-walk-0050","G-grouse-drive-0071","G-moose-atv-0042"],"note":"Candidate, scout it first (estimate)"},"geometry":{"type":"Point","coordinates":[-118.99549,51.47529]}},
{"type":"Feature","properties":{"id":"G-camp-camp-0047","kind":"Crown land candidate","name":"By Kwikoit Creek","campsites":null,"water":"Water: Kwikoit Creek 20 m NW.","nearSpots":6,"closure":null,"spotIds":["G-grouse-atv-0030","G-grouse-atv-0038","G-moose-atv-0045","G-moose-atv-0048","G-moose-atv-0049","G-moose-walk-0052"],"note":"Candidate, scout it first (estimate)"},"geometry":{"type":"Point","coordinates":[-119.31496,51.1745]}},
{"type":"Feature","properties":{"id":"G-camp-camp-0048","kind":"Crown land candidate","name":"By Akolkolex River","campsites":null,"water":"Water: Akolkolex River 40 m W.","nearSpots":2,"closure":null,"spotIds":["G-deer-drive-0016","G-grouse-atv-0070"],"note":"Candidate, scout it first (estimate)"},"geometry":{"type":"Point","coordinates":[-117.95934,50.87147]}},
{"type":"Feature","properties":{"id":"G-camp-camp-0049","kind":"Crown land candidate","name":"By Carnes Creek","campsites":null,"water":"Water: Carnes Creek right here.","nearSpots":3,"closure":null,"spotIds":["G-grouse-atv-0011","G-grouse-atv-0035","G-grouse-drive-0077"],"note":"Candidate, scout it first (estimate)"},"geometry":{"type":"Point","coordinates":[-118.1248,51.26272]}},
{"type":"Feature","properties":{"id":"G-camp-camp-0050","kind":"Crown land candidate","name":"By Tangier River","campsites":null,"water":"Water: Tangier River 30 m NW.","nearSpots":1,"closure":null,"spotIds":["G-grouse-drive-0069"],"note":"Candidate, scout it first (estimate)"},"geometry":{"type":"Point","coordinates":[-117.8261,51.19173]}},
{"type":"Feature","properties":{"id":"G-camp-camp-0051","kind":"Crown land candidate","name":"180 m N of Bullard Creek","campsites":null,"water":"Water: Bullard Creek 180 m S.","nearSpots":2,"closure":null,"spotIds":["G-grouse-drive-0076","G-moose-drive-0063"],"note":"Candidate, scout it first (estimate)"},"geometry":{"type":"Point","coordinates":[-117.6024,50.93471]}},
{"type":"Feature","properties":{"id":"G-camp-camp-0052","kind":"Crown land candidate","name":"By Thor Creek","campsites":null,"water":"Water: Thor Creek 30 m NE.","nearSpots":3,"closure":null,"spotIds":["G-grouse-atv-0033","G-grouse-drive-0036","G-moose-drive-0065"],"note":"Candidate, scout it first (estimate)"},"geometry":{"type":"Point","coordinates":[-118.08368,50.6309]}},
{"type":"Feature","properties":{"id":"G-camp-camp-0053","kind":"Crown land candidate","name":"790 m E of South Pass Creek","campsites":null,"water":"Water: unnamed lake 150 m S.","nearSpots":5,"closure":null,"spotIds":["G-duck-drive-0066","G-duck-drive-0158","G-duck-drive-0168","G-grouse-drive-0049","G-moose-atv-0028"],"note":"Candidate, scout it first (estimate)"},"geometry":{"type":"Point","coordinates":[-118.40164,50.92051]}},
{"type":"Feature","properties":{"id":"G-camp-camp-0054","kind":"Rec site","name":"Gannett Lake rec site","campsites":3,"water":"Water: Gannett Lake 60 m SE.","nearSpots":9,"closure":null,"spotIds":["G-duck-drive-0111","G-duck-walk-0033","G-duck-walk-0036","G-duck-walk-0046","G-duck-walk-0057","G-grouse-atv-0025","G-grouse-drive-0013","G-grouse-drive-0034"],"note":"Official rec site"},"geometry":{"type":"Point","coordinates":[-119.35322,51.46253]}},
{"type":"Feature","properties":{"id":"G-camp-camp-0055","kind":"Rec site","name":"Downie Creek rec site","campsites":23,"water":"Water: Revelstoke Lake 120 m E.","nearSpots":2,"closure":null,"spotIds":["G-duck-drive-0169","G-grouse-atv-0014"],"note":"Official rec site"},"geometry":{"type":"Point","coordinates":[-118.45655,51.47425]}},
{"type":"Feature","properties":{"id":"G-camp-camp-0056","kind":"Rec site","name":"Wap Lake West rec site","campsites":2,"water":"Water: Wap Lake 50 m N.","nearSpots":10,"closure":null,"spotIds":["G-duck-drive-0001","G-duck-walk-0001","G-duck-walk-0002","G-grouse-atv-0037","G-grouse-drive-0022","G-moose-drive-0005","G-moose-drive-0016","G-moose-drive-0017","G-moose-drive-0032","G-moose-walk-0005"],"note":"Official rec site"},"geometry":{"type":"Point","coordinates":[-118.55784,50.8577]}},
{"type":"Feature","properties":{"id":"G-camp-camp-0057","kind":"Rec site","name":"Kidney Lake rec site","campsites":3,"water":"Water: Kidney Lake 20 m SW.","nearSpots":14,"closure":"BRIDGE OUT","spotIds":["G-deer-walk-0013","G-deer-walk-0018","G-duck-drive-0022","G-duck-drive-0030","G-duck-drive-0077","G-duck-drive-0080","G-duck-drive-0161","G-duck-walk-0003","G-duck-walk-0007","G-duck-walk-0020","G-duck-walk-0021","G-grouse-drive-0028","G-moose-atv-0012","G-moose-walk-0010"],"note":"Official rec site"},"geometry":{"type":"Point","coordinates":[-118.62668,50.76012]}},
{"type":"Feature","properties":{"id":"G-camp-camp-0058","kind":"Rec site","name":"Grassy Lake rec site","campsites":1,"water":"Water: Grassy Lake 20 m SE.","nearSpots":18,"closure":null,"spotIds":["G-deer-atv-0016","G-deer-atv-0042","G-deer-atv-0052","G-deer-drive-0044","G-deer-drive-0071","G-duck-drive-0037","G-duck-drive-0152","G-duck-walk-0017","G-duck-walk-0051","G-grouse-walk-0017","G-grouse-walk-0024","G-moose-atv-0005","G-moose-atv-0013","G-moose-drive-0039","G-moose-walk-0030","G-quail-atv-0002","G-quail-drive-0016","G-quail-walk-0014"],"note":"Official rec site"},"geometry":{"type":"Point","coordinates":[-118.79142,50.64567]}},
{"type":"Feature","properties":{"id":"G-camp-camp-0059","kind":"Rec site","name":"Holiday Lake rec site","campsites":1,"water":"Water: Holiday Lake 70 m W.","nearSpots":18,"closure":null,"spotIds":["G-duck-drive-0099","G-duck-drive-0163","G-duck-walk-0026","G-duck-walk-0042","G-grouse-drive-0008","G-grouse-drive-0032","G-grouse-drive-0063","G-grouse-walk-0024","G-grouse-walk-0054","G-moose-atv-0021","G-moose-atv-0025","G-moose-drive-0024","G-moose-drive-0035","G-moose-drive-0038","G-moose-drive-0039","G-moose-walk-0040","G-moose-walk-0043","G-quail-drive-0013"],"note":"Official rec site"},"geometry":{"type":"Point","coordinates":[-118.71156,50.70113]}},
{"type":"Feature","properties":{"id":"G-camp-camp-0060","kind":"Rec site","name":"Stoney Lake rec site","campsites":0,"water":"Water: Stony Lake 20 m E.","nearSpots":17,"closure":null,"spotIds":["G-duck-drive-0099","G-duck-drive-0163","G-duck-walk-0026","G-duck-walk-0042","G-grouse-atv-0074","G-grouse-drive-0008","G-grouse-drive-0032","G-grouse-drive-0063","G-grouse-walk-0024","G-grouse-walk-0054","G-moose-atv-0021","G-moose-atv-0025","G-moose-drive-0024","G-moose-drive-0035","G-moose-drive-0038","G-moose-walk-0040","G-moose-walk-0043"],"note":"Official rec site"},"geometry":{"type":"Point","coordinates":[-118.70442,50.7109]}},
{"type":"Feature","properties":{"id":"G-camp-camp-0061","kind":"Rec site","name":"Cummins Lake rec site","campsites":1,"water":"Water: unnamed lake 20 m SE.","nearSpots":2,"closure":null,"spotIds":["G-grouse-walk-0070","G-grouse-walk-0071"],"note":"Official rec site"},"geometry":{"type":"Point","coordinates":[-118.73119,50.84524]}},
{"type":"Feature","properties":{"id":"G-camp-camp-0062","kind":"Rec site","name":"Greenbush Lake rec site","campsites":3,"water":"Water: Greenbush Lake right here.","nearSpots":5,"closure":null,"spotIds":["G-grouse-atv-0072","G-grouse-drive-0031","G-grouse-walk-0031","G-moose-drive-0061","G-moose-walk-0060"],"note":"Official rec site"},"geometry":{"type":"Point","coordinates":[-118.35025,50.78384]}},
{"type":"Feature","properties":{"id":"G-camp-camp-0063","kind":"Rec site","name":"Humamilt Lake West rec site","campsites":6,"water":"Water: Humamilt Lake 90 m N.","nearSpots":27,"closure":null,"spotIds":["G-deer-atv-0002","G-deer-atv-0009","G-deer-drive-0001","G-deer-drive-0013","G-deer-drive-0015","G-deer-walk-0003","G-deer-walk-0014","G-deer-walk-0019","G-duck-drive-0041","G-duck-drive-0058","G-duck-drive-0067","G-duck-drive-0103","G-duck-drive-0138","G-duck-walk-0011","G-duck-walk-0038","G-duck-walk-0066","G-grouse-atv-0045","G-grouse-atv-0051","G-grouse-drive-0006","G-moose-atv-0016","G-moose-drive-0007","G-moose-drive-0019","G-moose-drive-0055","G-moose-walk-0057"],"note":"Official rec site"},"geometry":{"type":"Point","coordinates":[-119.17165,51.29609]}},
{"type":"Feature","properties":{"id":"G-camp-camp-0064","kind":"Rec site","name":"Herman Lake rec site","campsites":1,"water":"Water: unnamed wetland right here.","nearSpots":12,"closure":null,"spotIds":["G-deer-atv-0022","G-deer-drive-0051","G-deer-drive-0062","G-deer-drive-0073","G-deer-walk-0066","G-duck-drive-0033","G-duck-drive-0089","G-duck-drive-0095","G-duck-walk-0009","G-grouse-drive-0044","G-moose-drive-0014","G-moose-walk-0013"],"note":"Official rec site"},"geometry":{"type":"Point","coordinates":[-119.165,50.91684]}},
{"type":"Feature","properties":{"id":"G-camp-camp-0065","kind":"Rec site","name":"Mccrae Lake rec site","campsites":3,"water":"Water: unnamed lake right here.","nearSpots":3,"closure":null,"spotIds":["G-deer-drive-0026","G-deer-drive-0029","G-grouse-drive-0015"],"note":"Official rec site"},"geometry":{"type":"Point","coordinates":[-117.93401,50.82112]}},
{"type":"Feature","properties":{"id":"G-camp-camp-0066","kind":"Rec site","name":"Stukemapten Lake rec site","campsites":1,"water":"Water: Stukemapten Lake right here.","nearSpots":20,"closure":null,"spotIds":["G-deer-drive-0001","G-deer-drive-0013","G-deer-walk-0003","G-deer-walk-0014","G-duck-drive-0002","G-duck-drive-0017","G-duck-drive-0031","G-duck-drive-0039","G-duck-drive-0041","G-duck-drive-0053","G-duck-drive-0058","G-duck-drive-0103","G-duck-walk-0011","G-duck-walk-0038","G-grouse-drive-0010","G-moose-atv-0016","G-moose-drive-0007","G-moose-drive-0055","G-moose-walk-0057"],"note":"Official rec site"},"geometry":{"type":"Point","coordinates":[-119.23054,51.3356]}},
{"type":"Feature","properties":{"id":"G-camp-camp-0067","kind":"Crown land candidate","name":"950 m SW of Upper Arrow Lake","campsites":null,"water":"Water: unnamed lake 130 m S.","nearSpots":17,"closure":null,"spotIds":["G-deer-atv-0026","G-deer-drive-0023","G-deer-drive-0028","G-deer-drive-0036","G-deer-drive-0052","G-deer-drive-0075","G-deer-walk-0023","G-duck-drive-0028","G-duck-walk-0078","G-grouse-atv-0050","G-grouse-drive-0038","G-grouse-drive-0054","G-moose-atv-0017","G-moose-drive-0021","G-moose-drive-0029","G-moose-walk-0024"],"note":"Candidate, scout it first (estimate)"},"geometry":{"type":"Point","coordinates":[-118.0694,50.80795]}},
{"type":"Feature","properties":{"id":"G-camp-camp-0068","kind":"Crown land candidate","name":"2.7 km NE of Parmater Lake","campsites":null,"water":"Water: unnamed lake 20 m SW.","nearSpots":4,"closure":null,"spotIds":["G-duck-drive-0109","G-duck-drive-0116","G-duck-walk-0044","G-duck-walk-0049"],"note":"Candidate, scout it first (estimate)"},"geometry":{"type":"Point","coordinates":[-118.53589,51.43421]}},
{"type":"Feature","properties":{"id":"G-camp-camp-0069","kind":"Crown land candidate","name":"180 m SE of Incomappleux River","campsites":null,"water":"Water: Incomappleux River 180 m NW.","nearSpots":4,"closure":null,"spotIds":["G-deer-walk-0086","G-duck-drive-0065","G-grouse-atv-0073","G-grouse-drive-0067"],"note":"Candidate, scout it first (estimate)"},"geometry":{"type":"Point","coordinates":[-117.63331,50.80861]}},
{"type":"Feature","properties":{"id":"G-camp-camp-0070","kind":"Crown land candidate","name":"230 m N of Halfway River","campsites":null,"water":"Water: unnamed wetland 140 m SE.","nearSpots":3,"closure":null,"spotIds":["G-duck-drive-0092","G-grouse-atv-0063","G-grouse-drive-0059"],"note":"Candidate, scout it first (estimate)"},"geometry":{"type":"Point","coordinates":[-117.71457,50.50987]}},
{"type":"Feature","properties":{"id":"G-camp-camp-0071","kind":"Rec site","name":"Cottonwood Beach rec site","campsites":49,"water":"Water: Mabel Lake 50 m W.","nearSpots":15,"closure":null,"spotIds":["G-deer-drive-0007","G-deer-drive-0055","G-deer-walk-0007","G-deer-walk-0016","G-grouse-atv-0058","G-grouse-drive-0020","G-moose-atv-0031","G-moose-atv-0032","G-moose-walk-0035","G-moose-walk-0070","G-quail-atv-0003","G-quail-atv-0007","G-quail-drive-0015","G-quail-drive-0021","G-quail-walk-0009"],"note":"Official rec site"},"geometry":{"type":"Point","coordinates":[-118.67964,50.61535]}},
{"type":"Feature","properties":{"id":"G-camp-camp-0072","kind":"Rec site","name":"Halfway River Hotsprings rec site","campsites":20,"water":"Water: Halfway River 30 m N.","nearSpots":1,"closure":null,"spotIds":["G-grouse-atv-0063"],"note":"Official rec site"},"geometry":{"type":"Point","coordinates":[-117.78979,50.50371]}},
{"type":"Feature","properties":{"id":"G-camp-camp-0073","kind":"Rec site","name":"Echo Lake rec site","campsites":4,"water":"Water: unnamed lake right here.","nearSpots":16,"closure":null,"spotIds":["G-deer-atv-0020","G-deer-atv-0038","G-deer-drive-0011","G-deer-drive-0016","G-deer-drive-0028","G-deer-drive-0036","G-deer-drive-0048","G-deer-drive-0052","G-deer-drive-0075","G-deer-walk-0023","G-deer-walk-0074","G-deer-walk-0078","G-deer-walk-0085","G-duck-drive-0162","G-duck-walk-0078","G-grouse-drive-0038"],"note":"Official rec site"},"geometry":{"type":"Point","coordinates":[-118.06623,50.85745]}},
{"type":"Feature","properties":{"id":"G-camp-camp-0074","kind":"Rec site","name":"Noisy Creek rec site","campsites":60,"water":"Water: Mabel Lake 160 m S.","nearSpots":9,"closure":null,"spotIds":["G-deer-walk-0013","G-duck-drive-0163","G-duck-walk-0042","G-grouse-drive-0063","G-moose-atv-0021","G-moose-drive-0035","G-moose-drive-0038","G-moose-walk-0040","G-quail-drive-0013"],"note":"Official rec site"},"geometry":{"type":"Point","coordinates":[-118.66245,50.70885]}},
{"type":"Feature","properties":{"id":"G-camp-camp-0075","kind":"Rec site","name":"Frog Falls rec site","campsites":5,"water":"Water: Wap Creek 20 m S.","nearSpots":8,"closure":null,"spotIds":["G-duck-drive-0027","G-duck-drive-0066","G-duck-drive-0168","G-grouse-drive-0024","G-moose-atv-0028","G-moose-drive-0017","G-moose-walk-0014","G-quail-drive-0010"],"note":"Official rec site"},"geometry":{"type":"Point","coordinates":[-118.47986,50.89508]}},
{"type":"Feature","properties":{"id":"G-camp-camp-0076","kind":"Rec site","name":"Elbow Lake rec site","campsites":1,"water":"Water: unnamed wetland right here.","nearSpots":16,"closure":null,"spotIds":["G-deer-atv-0016","G-deer-atv-0042","G-deer-atv-0052","G-deer-drive-0044","G-deer-drive-0071","G-duck-drive-0037","G-duck-drive-0152","G-duck-walk-0017","G-duck-walk-0051","G-grouse-walk-0017","G-moose-atv-0005","G-moose-atv-0013","G-quail-atv-0002","G-quail-drive-0003","G-quail-drive-0016","G-quail-walk-0014"],"note":"Official rec site"},"geometry":{"type":"Point","coordinates":[-118.80495,50.64041]}},
{"type":"Feature","properties":{"id":"G-camp-camp-0077","kind":"Rec site","name":"Noreen Lake rec site","campsites":1,"water":"Water: unnamed lake 30 m NW.","nearSpots":10,"closure":null,"spotIds":["G-duck-drive-0099","G-duck-walk-0026","G-duck-walk-0042","G-grouse-drive-0008","G-grouse-drive-0032","G-grouse-walk-0024","G-moose-drive-0024","G-moose-drive-0039","G-moose-walk-0040","G-quail-drive-0013"],"note":"Official rec site"},"geometry":{"type":"Point","coordinates":[-118.70294,50.67928]}},
{"type":"Feature","properties":{"id":"G-camp-camp-0078","kind":"Rec site","name":"Nellie Lake rec site","campsites":4,"water":"Water: unnamed lake 20 m SE.","nearSpots":10,"closure":null,"spotIds":["G-duck-drive-0042","G-duck-drive-0045","G-duck-drive-0054","G-duck-drive-0073","G-moose-atv-0014","G-moose-atv-0024","G-moose-atv-0063","G-moose-walk-0009"],"note":"Official rec site"},"geometry":{"type":"Point","coordinates":[-119.0042,51.21988]}},
{"type":"Feature","properties":{"id":"G-camp-camp-0079","kind":"Rec site","name":"Cascade Falls rec site","campsites":6,"water":"Water: Mabel Lake 70 m W.","nearSpots":13,"closure":null,"spotIds":["G-deer-drive-0002","G-deer-drive-0003","G-deer-drive-0004","G-deer-drive-0006","G-deer-walk-0002","G-deer-walk-0015","G-duck-walk-0037","G-grouse-drive-0009","G-moose-drive-0058","G-quail-drive-0006","G-quail-drive-0012","G-quail-drive-0024","G-quail-walk-0015"],"note":"Official rec site"},"geometry":{"type":"Point","coordinates":[-118.71717,50.50392]}},
{"type":"Feature","properties":{"id":"G-camp-camp-0080","kind":"Rec site","name":"Humamilt Lake East rec site","campsites":2,"water":"Water: Humamilt Lake right here.","nearSpots":8,"closure":null,"spotIds":["G-deer-drive-0014","G-deer-walk-0020","G-duck-drive-0026","G-duck-drive-0029","G-duck-drive-0078","G-duck-drive-0129","G-duck-walk-0015","G-duck-walk-0028"],"note":"Official rec site"},"geometry":{"type":"Point","coordinates":[-119.02612,51.29535]}},
{"type":"Feature","properties":{"id":"G-camp-camp-0081","kind":"Rec site","name":"Eagle Bay rec site","campsites":18,"water":"Water: Upper Arrow Lake 30 m S.","nearSpots":8,"closure":null,"spotIds":["G-deer-drive-0040","G-deer-drive-0050","G-deer-drive-0058","G-deer-walk-0064","G-duck-drive-0060","G-duck-drive-0166","G-grouse-drive-0033","G-moose-atv-0030"],"note":"Official rec site"},"geometry":{"type":"Point","coordinates":[-117.95242,50.56615]}},
{"type":"Feature","properties":{"id":"G-camp-camp-0082","kind":"Rec site","name":"Hadow Creek rec site","campsites":8,"water":"Water: Upper Arrow Lake right here.","nearSpots":5,"closure":null,"spotIds":["G-deer-drive-0053","G-deer-walk-0027","G-deer-walk-0030","G-deer-walk-0058","G-grouse-drive-0053"],"note":"Official rec site"},"geometry":{"type":"Point","coordinates":[-117.79717,50.74494]}},
{"type":"Feature","properties":{"id":"G-camp-camp-0083","kind":"Rec site","name":"Harris Lake rec site","campsites":0,"water":"Water: unnamed lake 30 m N.","nearSpots":3,"closure":null,"spotIds":["G-duck-drive-0060","G-duck-drive-0166","G-duck-walk-0012"],"note":"Official rec site"},"geometry":{"type":"Point","coordinates":[-117.88869,50.55283]}},
{"type":"Feature","properties":{"id":"G-camp-camp-0084","kind":"Rec site","name":"Carnes Creek rec site","campsites":44,"water":"Water: Revelstoke Lake 60 m W.","nearSpots":1,"closure":null,"spotIds":["G-grouse-atv-0078"],"note":"Official rec site"},"geometry":{"type":"Point","coordinates":[-118.28666,51.30109]}},
{"type":"Feature","properties":{"id":"G-camp-camp-0085","kind":"Rec site","name":"Begbie Falls rec site","campsites":26,"water":"Water: unnamed wetland 190 m S.","nearSpots":19,"closure":null,"spotIds":["G-deer-drive-0047","G-deer-walk-0044","G-duck-drive-0047","G-duck-drive-0061","G-duck-drive-0069","G-duck-drive-0076","G-duck-drive-0085","G-duck-drive-0102","G-grouse-walk-0015","G-grouse-walk-0073","G-moose-atv-0006","G-moose-drive-0009","G-moose-drive-0010","G-moose-drive-0015","G-moose-drive-0026","G-moose-walk-0008","G-moose-walk-0012","G-moose-walk-0015"],"note":"Official rec site"},"geometry":{"type":"Point","coordinates":[-118.20887,50.93902]}},
{"type":"Feature","properties":{"id":"G-camp-camp-0086","kind":"Rec site","name":"Wadey rec site","campsites":30,"water":"Water: Revelstoke Lake 80 m W.","nearSpots":2,"closure":null,"spotIds":["G-grouse-atv-0029","G-grouse-drive-0064"],"note":"Official rec site"},"geometry":{"type":"Point","coordinates":[-118.20553,51.21659]}},
{"type":"Feature","properties":{"id":"G-camp-camp-0087","kind":"Rec site","name":"Mount Begbie Campground rec site","campsites":3,"water":null,"nearSpots":11,"closure":null,"spotIds":["G-duck-drive-0047","G-duck-drive-0061","G-duck-drive-0069","G-duck-drive-0076","G-duck-drive-0102","G-grouse-walk-0073","G-moose-atv-0006","G-moose-drive-0010","G-moose-drive-0015","G-moose-walk-0008","G-moose-walk-0012"],"note":"Official rec site"},"geometry":{"type":"Point","coordinates":[-118.24428,50.89835]}},
{"type":"Feature","properties":{"id":"G-camp-camp-0088","kind":"Rec site","name":"Queest Mountain South rec site","campsites":1,"water":null,"nearSpots":4,"closure":null,"spotIds":["G-deer-atv-0027","G-grouse-walk-0036","G-grouse-walk-0058","G-grouse-walk-0063"],"note":"Official rec site"},"geometry":{"type":"Point","coordinates":[-118.87077,50.98673]}},
{"type":"Feature","properties":{"id":"G-camp-camp-0089","kind":"Rec site","name":"Eagle Pass Ridge rec site","campsites":0,"water":null,"nearSpots":2,"closure":null,"spotIds":["G-grouse-atv-0012","G-grouse-drive-0074"],"note":"Official rec site"},"geometry":{"type":"Point","coordinates":[-118.54306,51.06548]}},
{"type":"Feature","properties":{"id":"G-camp-camp-0090","kind":"Rec site","name":"Mt Begbie Area rec site","campsites":4,"water":null,"nearSpots":16,"closure":null,"spotIds":["G-deer-drive-0047","G-deer-walk-0044","G-duck-drive-0047","G-duck-drive-0061","G-duck-drive-0069","G-duck-drive-0076","G-duck-drive-0085","G-duck-drive-0102","G-grouse-walk-0015","G-grouse-walk-0073","G-moose-atv-0006","G-moose-drive-0009","G-moose-drive-0010","G-moose-drive-0015","G-moose-walk-0008","G-moose-walk-0012"],"note":"Official rec site"},"geometry":{"type":"Point","coordinates":[-118.21097,50.92228]}},
{"type":"Feature","properties":{"id":"G-duck-backcountry-0001-camp","kind":"Backcountry camp","name":"Camp for Unnamed wetland by Downie Creek","campsites":null,"water":"Downie Creek 70 m N","elev":756,"spotIds":["G-duck-backcountry-0001"],"note":"Flat ground near water from the data (estimate). Scout it first."},"geometry":{"type":"Point","coordinates":[-118.13974,51.43807]}},
{"type":"Feature","properties":{"id":"G-duck-backcountry-0002-camp","kind":"Backcountry camp","name":"Camp for Unnamed wetland by Pass Creek","campsites":null,"water":"unnamed wetland 180 m SE","elev":773,"spotIds":["G-duck-backcountry-0002"],"note":"Flat ground near water from the data (estimate). Scout it first."},"geometry":{"type":"Point","coordinates":[-118.13785,51.4244]}},
{"type":"Feature","properties":{"id":"G-moose-backcountry-0001-camp","kind":"Backcountry camp","name":"Camp for 2.5 km NE of Pukeashun Mountain","campsites":null,"water":"unnamed wetland 80 m SW","elev":1867,"spotIds":["G-moose-backcountry-0001"],"note":"Flat ground near water from the data (estimate). Scout it first."},"geometry":{"type":"Point","coordinates":[-119.21797,51.22552]}},
{"type":"Feature","properties":{"id":"G-moose-backcountry-0002-camp","kind":"Backcountry camp","name":"Camp for 170 m W of Downie Creek","campsites":null,"water":"Downie Creek 70 m W","elev":760,"spotIds":["G-moose-backcountry-0002"],"note":"Flat ground near water from the data (estimate). Scout it first."},"geometry":{"type":"Point","coordinates":[-118.138,51.43163]}},
{"type":"Feature","properties":{"id":"G-moose-backcountry-0003-camp","kind":"Backcountry camp","name":"Camp for 5.9 km S of Humamilt Lake West rec site","campsites":null,"water":"unnamed wetland 90 m SW","elev":1712,"spotIds":["G-moose-backcountry-0003"],"note":"Flat ground near water from the data (estimate). Scout it first."},"geometry":{"type":"Point","coordinates":[-119.17771,51.24383]}},
{"type":"Feature","properties":{"id":"G-moose-backcountry-0004-camp","kind":"Backcountry camp","name":"Camp for 810 m NW of Bastion Creek","campsites":null,"water":"unnamed wetland 70 m SW","elev":1612,"spotIds":["G-moose-backcountry-0004"],"note":"Flat ground near water from the data (estimate). Scout it first."},"geometry":{"type":"Point","coordinates":[-119.15135,50.85613]}},
{"type":"Feature","properties":{"id":"G-moose-backcountry-0005-camp","kind":"Backcountry camp","name":"Camp for By Downie Creek","campsites":null,"water":"Downie Creek 140 m N","elev":825,"spotIds":["G-moose-backcountry-0005"],"note":"Flat ground near water from the data (estimate). Scout it first."},"geometry":{"type":"Point","coordinates":[-118.04625,51.37012]}},
{"type":"Feature","properties":{"id":"G-moose-backcountry-0006-camp","kind":"Backcountry camp","name":"Camp for 220 m S of Downie Creek","campsites":null,"water":"Downie Creek 70 m W","elev":790,"spotIds":["G-moose-backcountry-0006"],"note":"Flat ground near water from the data (estimate). Scout it first."},"geometry":{"type":"Point","coordinates":[-118.09893,51.39911]}},
{"type":"Feature","properties":{"id":"G-moose-backcountry-0007-camp","kind":"Backcountry camp","name":"Camp for 1.6 km W of Ratchford Creek","campsites":null,"water":"unnamed wetland 60 m N","elev":1619,"spotIds":["G-moose-backcountry-0007"],"note":"Flat ground near water from the data (estimate). Scout it first."},"geometry":{"type":"Point","coordinates":[-118.74658,51.45602]}}
]}
