{"type":"FeatureCollection","features":[
{"type":"Feature","properties":{"uwr":"u-8-005","unit":"26","sp1":"goat","sp2":null,"species":"Mountain goat","approved":"2006-07-24","ha":810.4,"months":[11,12,1,2,3,4],"monthsKey":",11,12,1,2,3,4,"},"geometry":{"type":"Polygon","coordinates":[[[-119.56635,50.21064],[-119.58792,50.21599],[-119.60163,50.21679],[-119.61932,50.21577],[-119.63485,50.21872],[-119.63246,50.22438],[-119.62902,50.22997],[-119.60614,50.23001],[-119.593,50.22891],[-119.57641,50.22589],[-119.55546,50.22365],[-119.55365,50.21399],[-119.55686,50.21009],[-119.56635,50.21064]]]}},
{"type":"Feature","properties":{"uwr":"u-8-005","unit":"27","sp1":"goat","sp2":null,"species":"Mountain goat","approved":"2006-07-24","ha":1723.7,"months":[11,12,1,2,3,4],"monthsKey":",11,12,1,2,3,4,"},"geometry":{"type":"Polygon","coordinates":[[[-119.58901,50.1407],[-119.60274,50.13741],[-119.62393,50.12636],[-119.62574,50.12226],[-119.6332,50.12435],[-119.63586,50.1264],[-119.63648,50.12895],[-119.63825,50.13032],[-119.64196,50.13179],[-119.64683,50.13207],[-119.65151,50.13278],[-119.65446,50.13366],[-119.65806,50.13587],[-119.65886,50.13718],[-119.66178,50.13735],[-119.66899,50.1388],[-119.67306,50.14694],[-119.68432,50.15372],[-119.67227,50.16019],[-119.65426,50.15608],[-119.64531,50.15556],[-119.62836,50.14776],[-119.62304,50.1478],[-119.61685,50.1505],[-119.61271,50.15152],[-119.6097,50.15198],[-119.60758,50.15311],[-119.59732,50.1563],[-119.58902,50.15838],[-119.5758,50.15528],[-119.56351,50.13341],[-119.58901,50.1407]]]}}
]}
