{"type":"FeatureCollection","features":[
{"type":"Feature","properties":{"species":"California quail","band":"resident all year","months":[1,2,3,4,5,6,7,8,9,10,11,12],"monthsKey":",1,2,3,4,5,6,7,8,9,10,11,12,","monthsText":"all year","zones":"BG, PP","elevM":"250 to 750 m","where":"Winter coveys, sometimes very large, near farms, orchards and suburbs with thick brush. Same small range all winter. Winter coveys in thick cover near feed. Coveys start to break up into pairs.","cert":60,"label":"general pattern, no migration"},"geometry":{"type":"Polygon","coordinates":[[[-119.80519,49.7093],[-119.80495,49.71109],[-119.80219,49.71093],[-119.80171,49.71452],[-119.80699,49.71662],[-119.80602,49.72379],[-119.80326,49.72363],[-119.80277,49.72722],[-119.80001,49.72706],[-119.80049,49.72348],[-119.79497,49.72316],[-119.79594,49.71599],[-119.79318,49.71584],[-119.79366,49.71225],[-119.7909,49.71209],[-119.79114,49.7103],[-119.77734,49.70951],[-119.77758,49.70772],[-119.77482,49.70756],[-119.77579,49.7004],[-119.78408,49.70087],[-119.78432,49.69908],[-119.80088,49.70002],[-119.79991,49.70719],[-119.80268,49.70735],[-119.80243,49.70914],[-119.80519,49.7093]]]}},
{"type":"Feature","properties":{"species":"California quail","band":"resident all year","months":[1,2,3,4,5,6,7,8,9,10,11,12],"monthsKey":",1,2,3,4,5,6,7,8,9,10,11,12,","monthsText":"all year","zones":"BG, PP","elevM":"250 to 750 m","where":"Winter coveys, sometimes very large, near farms, orchards and suburbs with thick brush. Same small range all winter. Winter coveys in thick cover near feed. Coveys start to break up into pairs.","cert":60,"label":"general pattern, no migration"},"geometry":{"type":"Polygon","coordinates":[[[-119.75825,49.70662],[-119.76102,49.70677],[-119.76581,49.71247],[-119.77133,49.71278],[-119.77109,49.71457],[-119.77385,49.71473],[-119.77433,49.71115],[-119.7771,49.71131],[-119.77742,49.72938],[-119.78019,49.72954],[-119.78173,49.73866],[-119.78449,49.73881],[-119.79181,49.74645],[-119.81368,49.7495],[-119.81344,49.7513],[-119.81872,49.7534],[-119.81824,49.75699],[-119.81271,49.75667],[-119.81247,49.75846],[-119.8097,49.75831],[-119.80946,49.7601],[-119.80393,49.75978],[-119.80369,49.76158],[-119.80093,49.76142],[-119.80117,49.75963],[-119.79287,49.75915],[-119.79239,49.76274],[-119.77857,49.76195],[-119.77832,49.76374],[-119.77556,49.76358],[-119.77507,49.76717],[-119.76954,49.76685],[-119.76905,49.77043],[-119.76629,49.77028],[-119.7658,49.77386],[-119.76304,49.7737],[-119.75929,49.78071],[-119.75653,49.78055],[-119.75628,49.78234],[-119.751,49.78023],[-119.75002,49.7874],[-119.73871,49.78856],[-119.73846,49.79035],[-119.74123,49.79051],[-119.74099,49.7923],[-119.73822,49.79214],[-119.73748,49.79752],[-119.74025,49.79767],[-119.74,49.79947],[-119.75034,49.80548],[-119.74985,49.80906],[-119.74708,49.8089],[-119.74683,49.81069],[-119.72193,49.80926],[-119.71867,49.81268],[-119.71314,49.81237],[-119.70582,49.80472],[-119.70029,49.8044],[-119.70053,49.80261],[-119.69777,49.80245],[-119.69752,49.80424],[-119.68645,49.8036],[-119.68621,49.80539],[-119.67741,49.80849],[-119.67692,49.81208],[-119.67415,49.81192],[-119.6744,49.81013],[-119.66886,49.8098],[-119.66638,49.82772],[-119.67419,49.83178],[-119.67572,49.8409],[-119.68101,49.84301],[-119.68026,49.84839],[-119.67749,49.84822],[-119.6765,49.85539],[-119.67373,49.85523],[-119.67348,49.85702],[-119.65687,49.85606],[-119.65662,49.85785],[-119.65108,49.85753],[-119.65083,49.85932],[-119.64806,49.85916],[-119.64756,49.86274],[-119.64202,49.86242],[-119.64227,49.86062],[-119.6395,49.86046],[-119.63925,49.86225],[-119.63648,49.86209],[-119.63598,49.86568],[-119.63044,49.86535],[-119.62717,49.86877],[-119.62163,49.86845],[-119.62113,49.87203],[-119.61559,49.87171],[-119.61509,49.87529],[-119.60098,49.87627],[-119.60073,49.87806],[-119.6035,49.87822],[-119.60325,49.88001],[-119.60048,49.87985],[-119.59973,49.88523],[-119.58864,49.88458],[-119.58839,49.88637],[-119.58285,49.88604],[-119.5826,49.88783],[-119.56899,49.88523],[-119.56874,49.88702],[-119.5632,49.88669],[-119.56269,49.89027],[-119.55992,49.89011],[-119.55916,49.89548],[-119.55639,49.89532],[-119.55589,49.8989],[-119.55311,49.89874],[-119.5521,49.9059],[-119.54933,49.90574],[-119.54832,49.9129],[-119.54554,49.91274],[-119.54453,49.9199],[-119.5473,49.92006],[-119.5483,49.93276],[-119.54553,49.9326],[-119.54527,49.93439],[-119.53973,49.93406],[-119.53947,49.93585],[-119.54477,49.93797],[-119.54375,49.94513],[-119.52988,49.94431],[-119.52761,49.94057],[-119.51929,49.94008],[-119.51878,49.94366],[-119.51323,49.94333],[-119.51221,49.95049],[-119.50944,49.95033],[-119.50918,49.95212],[-119.50641,49.95195],[-119.5059,49.95553],[-119.50312,49.95537],[-119.5021,49.96253],[-119.50739,49.96465],[-119.50309,49.97523],[-119.50586,49.9754],[-119.50736,49.98451],[-119.51014,49.98468],[-119.50733,50.00437],[-119.50455,50.00421],[-119.50554,50.01691],[-119.50276,50.01674],[-119.50174,50.0239],[-119.50704,50.02602],[-119.50627,50.0314],[-119.50905,50.03156],[-119.50854,50.03514],[-119.51132,50.03531],[-119.51081,50.03889],[-119.51359,50.03905],[-119.51283,50.04442],[-119.51005,50.04426],[-119.50928,50.04963],[-119.51206,50.04979],[-119.51053,50.06054],[-119.51331,50.0607],[-119.5128,50.06428],[-119.51001,50.06412],[-119.50976,50.06591],[-119.51254,50.06607],[-119.51203,50.06965],[-119.50925,50.06949],[-119.50899,50.07128],[-119.51177,50.07144],[-119.51152,50.07323],[-119.50873,50.07307],[-119.5072,50.08381],[-119.50442,50.08365],[-119.49808,50.08869],[-119.48417,50.08786],[-119.48391,50.08965],[-119.47278,50.08899],[-119.47252,50.09078],[-119.44469,50.08912],[-119.44495,50.08733],[-119.43938,50.087],[-119.43789,50.07788],[-119.43511,50.07772],[-119.43284,50.07397],[-119.42197,50.07151],[-119.42146,50.07509],[-119.41563,50.07655],[-119.41181,50.08354],[-119.40903,50.08338],[-119.40268,50.08841],[-119.39155,50.08774],[-119.39181,50.08595],[-119.38903,50.08578],[-119.38929,50.08399],[-119.38651,50.08383],[-119.38677,50.08204],[-119.37642,50.07599],[-119.37695,50.07241],[-119.37138,50.07208],[-119.36991,50.06296],[-119.36713,50.06279],[-119.37382,50.03611],[-119.37104,50.03594],[-119.36879,50.03219],[-119.36323,50.03186],[-119.36349,50.03007],[-119.35263,50.0276],[-119.3529,50.02581],[-119.3476,50.02368],[-119.34839,50.01831],[-119.34309,50.01619],[-119.34361,50.01261],[-119.35473,50.01328],[-119.35499,50.01149],[-119.36054,50.01183],[-119.36159,50.00467],[-119.36437,50.00483],[-119.3629,49.99572],[-119.36012,49.99555],[-119.3642,49.98676],[-119.36142,49.9866],[-119.36169,49.98481],[-119.35336,49.9843],[-119.35362,49.98251],[-119.35084,49.98234],[-119.35136,49.97876],[-119.34859,49.97859],[-119.34911,49.97501],[-119.34382,49.97288],[-119.34539,49.96214],[-119.34262,49.96197],[-119.3434,49.9566],[-119.34063,49.95643],[-119.34141,49.95106],[-119.33864,49.95089],[-119.33969,49.94373],[-119.33691,49.94356],[-119.33744,49.93998],[-119.32713,49.93394],[-119.32765,49.93036],[-119.3332,49.93069],[-119.33346,49.9289],[-119.33927,49.92745],[-119.34371,49.89702],[-119.34094,49.89685],[-119.3412,49.89506],[-119.34397,49.89523],[-119.34805,49.88644],[-119.35359,49.88678],[-119.35385,49.88499],[-119.35965,49.88354],[-119.36373,49.87475],[-119.34988,49.87391],[-119.35014,49.87212],[-119.33629,49.87127],[-119.33655,49.86948],[-119.32825,49.86898],[-119.32877,49.8654],[-119.32349,49.86327],[-119.32454,49.8561],[-119.32731,49.85627],[-119.32757,49.85448],[-119.33311,49.85482],[-119.33337,49.85303],[-119.3422,49.84996],[-119.34272,49.84638],[-119.34549,49.84655],[-119.34878,49.84313],[-119.36011,49.84202],[-119.36037,49.84023],[-119.36616,49.83877],[-119.36694,49.8334],[-119.36971,49.83357],[-119.37602,49.82853],[-119.39565,49.82792],[-119.39591,49.82613],[-119.40698,49.8268],[-119.40724,49.82501],[-119.41277,49.82534],[-119.41303,49.82355],[-119.41856,49.82388],[-119.41882,49.82209],[-119.43015,49.82097],[-119.4304,49.81918],[-119.43317,49.81934],[-119.43343,49.81755],[-119.44526,49.81285],[-119.44578,49.80927],[-119.44854,49.80943],[-119.45485,49.80439],[-119.46591,49.80505],[-119.46616,49.80326],[-119.47723,49.80393],[-119.47748,49.80214],[-119.4888,49.80101],[-119.4951,49.79596],[-119.50063,49.79629],[-119.50114,49.79271],[-119.5039,49.79288],[-119.50416,49.79108],[-119.50969,49.79141],[-119.51598,49.78637],[-119.52151,49.7867],[-119.52478,49.78328],[-119.53031,49.78361],[-119.53057,49.78182],[-119.53333,49.78198],[-119.53358,49.78019],[-119.53911,49.78052],[-119.54238,49.7771],[-119.56199,49.77646],[-119.56224,49.77466],[-119.56777,49.77499],[-119.56802,49.7732],[-119.57355,49.77353],[-119.5738,49.77173],[-119.58209,49.77222],[-119.58234,49.77043],[-119.58787,49.77076],[-119.58812,49.76897],[-119.62129,49.77091],[-119.62154,49.76912],[-119.62707,49.76945],[-119.63034,49.76602],[-119.64139,49.76667],[-119.64164,49.76488],[-119.65571,49.76389],[-119.65596,49.7621],[-119.65872,49.76226],[-119.65897,49.76047],[-119.67077,49.75574],[-119.67127,49.75216],[-119.67403,49.75232],[-119.67626,49.73619],[-119.67349,49.73603],[-119.67024,49.73946],[-119.66496,49.73734],[-119.66546,49.73376],[-119.66822,49.73392],[-119.66847,49.73213],[-119.6657,49.73197],[-119.66669,49.7248],[-119.67247,49.72333],[-119.67271,49.72154],[-119.66995,49.72138],[-119.6737,49.71437],[-119.67094,49.71421],[-119.67119,49.71242],[-119.66843,49.71226],[-119.66868,49.71047],[-119.65838,49.70445],[-119.65912,49.69908],[-119.72285,49.70097],[-119.7231,49.69917],[-119.75623,49.70108],[-119.75825,49.70662]],[[-119.68124,49.72023],[-119.6805,49.7256],[-119.68326,49.72576],[-119.68401,49.72039],[-119.68124,49.72023]],[[-119.67147,49.7305],[-119.67172,49.72871],[-119.66896,49.72855],[-119.66871,49.73034],[-119.67147,49.7305]],[[-119.68883,49.74595],[-119.6916,49.74611],[-119.69184,49.74432],[-119.68908,49.74416],[-119.68883,49.74595]]]}}
]}
