{"type":"FeatureCollection","features":[
{"type":"Feature","properties":{"uwr":"u-8-007","unit":"1","sp1":"moose","sp2":null,"species":"Moose","approved":"2006-05-08","ha":3813.9,"months":[1,2,3,4,12],"monthsKey":",1,2,3,4,12,"},"geometry":{"type":"Polygon","coordinates":[[[-119.06056,49.53908],[-119.06264,49.53886],[-119.06504,49.53932],[-119.06884,49.53922],[-119.06971,49.53878],[-119.07108,49.54014],[-119.07174,49.54238],[-119.07173,49.54351],[-119.07102,49.54463],[-119.06894,49.54609],[-119.06805,49.54777],[-119.0649,49.55157],[-119.0647,49.55427],[-119.0612,49.55797],[-119.06137,49.55898],[-119.06239,49.55988],[-119.06186,49.56033],[-119.05772,49.56042],[-119.05702,49.56064],[-119.05475,49.56287],[-119.05559,49.56502],[-119.05575,49.56648],[-119.05453,49.56771],[-119.0538,49.57007],[-119.05414,49.5713],[-119.05499,49.57243],[-119.05494,49.57648],[-119.0542,49.58007],[-119.05398,49.58468],[-119.05115,49.59074],[-119.05131,49.59187],[-119.05265,49.59513],[-119.05295,49.59907],[-119.05483,49.60155],[-119.05532,49.60301],[-119.05565,49.60504],[-119.05529,49.60661],[-119.05544,49.60796],[-119.05611,49.60943],[-119.05625,49.61212],[-119.0576,49.6155],[-119.05949,49.61731],[-119.06032,49.61991],[-119.06169,49.62126],[-119.06203,49.62283],[-119.06148,49.62418],[-119.05868,49.62641],[-119.05521,49.62808],[-119.05433,49.62943],[-119.05531,49.63438],[-119.05753,49.6372],[-119.05834,49.64159],[-119.06004,49.64385],[-119.06039,49.64531],[-119.0645,49.64825],[-119.06499,49.65039],[-119.06602,49.65118],[-119.06672,49.65129],[-119.06788,49.65286],[-119.06474,49.65286],[-119.05787,49.64119],[-119.04583,49.63516],[-119.01874,49.63237],[-118.99342,49.62863],[-118.97995,49.62145],[-118.98378,49.60697],[-119.00041,49.5912],[-119.01801,49.5734],[-119.03014,49.56049],[-119.03765,49.55046],[-119.03864,49.53898],[-119.03913,49.53908],[-119.04467,49.53854],[-119.0514,49.53836],[-119.05554,49.53905],[-119.06056,49.53908]]]}},
{"type":"Feature","properties":{"uwr":"u-8-007","unit":"2","sp1":"moose","sp2":null,"species":"Moose","approved":"2006-05-08","ha":8236.3,"months":[1,2,3,4,12],"monthsKey":",1,2,3,4,12,"},"geometry":{"type":"Polygon","coordinates":[[[-119.07773,49.53151],[-119.07896,49.52971],[-119.07949,49.52803],[-119.0802,49.52769],[-119.08192,49.52759],[-119.08228,49.52692],[-119.08229,49.52546],[-119.08333,49.52501],[-119.08559,49.52334],[-119.08802,49.52279],[-119.08907,49.52178],[-119.08908,49.51987],[-119.08978,49.51942],[-119.09116,49.5191],[-119.09256,49.51752],[-119.09447,49.51753],[-119.10071,49.5152],[-119.10347,49.51488],[-119.10538,49.51387],[-119.10695,49.51242],[-119.10868,49.5113],[-119.10836,49.50962],[-119.10854,49.50916],[-119.11149,49.50783],[-119.11322,49.50638],[-119.11341,49.50525],[-119.11551,49.50268],[-119.11877,49.50438],[-119.11928,49.5055],[-119.11996,49.50596],[-119.12133,49.50619],[-119.12253,49.50731],[-119.12443,49.50744],[-119.12494,49.50789],[-119.12527,49.50969],[-119.12631,49.51059],[-119.12751,49.51071],[-119.12836,49.51172],[-119.13353,49.51309],[-119.14025,49.51357],[-119.14231,49.51482],[-119.14317,49.51595],[-119.14816,49.51833],[-119.15313,49.5215],[-119.15364,49.52228],[-119.15433,49.52252],[-119.15536,49.52342],[-119.1576,49.52354],[-119.16052,49.52535],[-119.16274,49.52738],[-119.16498,49.52829],[-119.16584,49.5292],[-119.16686,49.52954],[-119.17032,49.52955],[-119.17221,49.53012],[-119.17498,49.53058],[-119.17943,49.53408],[-119.18289,49.53455],[-119.18376,49.53399],[-119.18462,49.53264],[-119.18641,49.532],[-119.18648,49.5367],[-119.17092,49.55428],[-119.16949,49.55232],[-119.15954,49.55096],[-119.15199,49.55853],[-119.15227,49.55927],[-119.15114,49.56275],[-119.15245,49.56618],[-119.15438,49.56945],[-119.15953,49.56938],[-119.16069,49.56865],[-119.16041,49.56939],[-119.16236,49.56814],[-119.16196,49.5689],[-119.15916,49.57073],[-119.15523,49.57378],[-119.15404,49.57415],[-119.15352,49.57495],[-119.15257,49.57538],[-119.15243,49.57602],[-119.15003,49.577],[-119.14484,49.57592],[-119.14323,49.57726],[-119.14222,49.57776],[-119.14224,49.57883],[-119.14166,49.57965],[-119.14216,49.58055],[-119.14397,49.58171],[-119.14501,49.5838],[-119.14602,49.58427],[-119.14609,49.58554],[-119.14519,49.58592],[-119.14419,49.5876],[-119.14281,49.58808],[-119.14183,49.58873],[-119.13959,49.58787],[-119.13115,49.58875],[-119.12807,49.59074],[-119.12363,49.58942],[-119.12219,49.58975],[-119.12162,49.59086],[-119.12128,49.5988],[-119.11718,49.60001],[-119.11506,49.60341],[-119.11118,49.60511],[-119.10813,49.60864],[-119.10657,49.61556],[-119.10495,49.62833],[-119.10732,49.6324],[-119.10907,49.63694],[-119.10598,49.63703],[-119.10297,49.63647],[-119.10182,49.6367],[-119.09983,49.63618],[-119.09896,49.63646],[-119.09875,49.63701],[-119.09801,49.63744],[-119.09762,49.63811],[-119.09571,49.63752],[-119.0947,49.63797],[-119.09492,49.64217],[-119.09402,49.64318],[-119.09402,49.64405],[-119.09299,49.64471],[-119.09308,49.64657],[-119.09191,49.6469],[-119.08996,49.64621],[-119.08932,49.64656],[-119.08868,49.64751],[-119.08762,49.64776],[-119.08813,49.64965],[-119.08884,49.65017],[-119.08869,49.6509],[-119.08812,49.65113],[-119.09028,49.65165],[-119.09034,49.65287],[-119.06788,49.65286],[-119.06672,49.65129],[-119.06602,49.65118],[-119.06499,49.65039],[-119.0645,49.64825],[-119.06039,49.64531],[-119.06004,49.64385],[-119.05834,49.64159],[-119.05753,49.6372],[-119.05531,49.63438],[-119.05433,49.62943],[-119.05521,49.62808],[-119.05868,49.62641],[-119.06148,49.62418],[-119.06203,49.62283],[-119.06169,49.62126],[-119.06032,49.61991],[-119.05949,49.61731],[-119.0576,49.6155],[-119.05625,49.61212],[-119.05611,49.60943],[-119.05544,49.60796],[-119.05529,49.60661],[-119.05565,49.60504],[-119.05532,49.60301],[-119.05483,49.60155],[-119.05295,49.59907],[-119.05265,49.59513],[-119.05131,49.59187],[-119.05115,49.59074],[-119.05398,49.58468],[-119.0542,49.58007],[-119.05494,49.57648],[-119.05499,49.57243],[-119.05414,49.5713],[-119.0538,49.57007],[-119.05453,49.56771],[-119.05575,49.56648],[-119.05559,49.56502],[-119.05475,49.56287],[-119.05702,49.56064],[-119.05772,49.56042],[-119.06186,49.56033],[-119.06239,49.55988],[-119.06137,49.55898],[-119.0612,49.55797],[-119.0647,49.55427],[-119.0649,49.55157],[-119.06805,49.54777],[-119.06894,49.54609],[-119.07102,49.54463],[-119.07173,49.54351],[-119.07174,49.54238],[-119.07108,49.54014],[-119.06954,49.53833],[-119.0694,49.53607],[-119.07024,49.53492],[-119.07773,49.53151]]]}},
{"type":"Feature","properties":{"uwr":"u-8-006","unit":"3","sp1":"moose","sp2":null,"species":"Moose","approved":"2006-07-24","ha":32833.7,"months":[1,2,3,4,12],"monthsKey":",1,2,3,4,12,"},"geometry":{"type":"Polygon","coordinates":[[[-118.4573,50.94254],[-118.45362,50.94229],[-118.45003,50.94146],[-118.44674,50.93889],[-118.44353,50.937],[-118.43986,50.93548],[-118.43618,50.93523],[-118.43657,50.93291],[-118.43605,50.93052],[-118.43644,50.9282],[-118.44664,50.92301],[-118.44611,50.92063],[-118.44384,50.91754],[-118.43654,50.91116],[-118.4396,50.90961],[-118.44348,50.9087],[-118.45269,50.90932],[-118.45739,50.90905],[-118.45779,50.90672],[-118.45775,50.90143],[-118.4567,50.89666],[-118.45535,50.89363],[-118.45594,50.89015],[-118.45827,50.88736],[-118.46705,50.88502],[-118.4746,50.88435],[-118.47829,50.8846],[-118.48492,50.88387],[-118.48624,50.88161],[-118.4859,50.87806],[-118.48669,50.87341],[-118.48432,50.8709],[-118.48491,50.86742],[-118.48957,50.86185],[-118.49006,50.85895],[-118.49229,50.85675],[-118.49646,50.85409],[-118.50125,50.85324],[-118.50769,50.85367],[-118.50992,50.85147],[-118.51389,50.84997],[-118.5195,50.84976],[-118.52418,50.84684],[-118.52795,50.84651],[-118.53047,50.84256],[-118.53706,50.83654],[-118.53856,50.83312],[-118.53639,50.82944],[-118.53799,50.82544],[-118.54511,50.8218],[-118.55048,50.81746],[-118.55391,50.81357],[-118.55643,50.80963],[-118.55701,50.80614],[-118.55505,50.80395],[-118.55259,50.80203],[-118.55124,50.799],[-118.54887,50.79649],[-118.54834,50.7941],[-118.54597,50.79159],[-118.5438,50.78792],[-118.54327,50.78554],[-118.53751,50.78199],[-118.53664,50.78084],[-118.53455,50.78042],[-118.53425,50.77971],[-118.53324,50.77953],[-118.53114,50.77829],[-118.52831,50.77806],[-118.52545,50.77821],[-118.52461,50.77849],[-118.52449,50.7788],[-118.52303,50.77815],[-118.52071,50.77819],[-118.51935,50.77774],[-118.51237,50.77838],[-118.51078,50.77911],[-118.50834,50.77869],[-118.50667,50.77911],[-118.50431,50.77916],[-118.50324,50.7796],[-118.50169,50.77964],[-118.5005,50.77998],[-118.49949,50.77966],[-118.49806,50.78002],[-118.49702,50.77998],[-118.49034,50.78128],[-118.48879,50.78116],[-118.4869,50.78152],[-118.48691,50.78129],[-118.48909,50.78044],[-118.48989,50.77979],[-118.49213,50.77872],[-118.49237,50.77825],[-118.49382,50.77795],[-118.49458,50.77724],[-118.49876,50.77573],[-118.49965,50.77483],[-118.50064,50.77459],[-118.50154,50.7737],[-118.50502,50.77243],[-118.50574,50.77196],[-118.50771,50.77138],[-118.51172,50.76902],[-118.51283,50.76791],[-118.51347,50.76529],[-118.51348,50.7638],[-118.514,50.76316],[-118.51448,50.76329],[-118.51722,50.76566],[-118.51932,50.76606],[-118.52289,50.76495],[-118.52491,50.76474],[-118.52993,50.76305],[-118.53065,50.76258],[-118.53134,50.76134],[-118.53284,50.75999],[-118.53364,50.75814],[-118.53479,50.75763],[-118.53541,50.75586],[-118.53596,50.75529],[-118.53538,50.75453],[-118.5375,50.75433],[-118.53841,50.75402],[-118.54007,50.75234],[-118.54072,50.75127],[-118.54054,50.75062],[-118.53864,50.7481],[-118.53766,50.74758],[-118.5365,50.74611],[-118.53491,50.74491],[-118.53787,50.74491],[-118.5391,50.74385],[-118.54224,50.74236],[-118.54571,50.74174],[-118.54647,50.74092],[-118.54649,50.74044],[-118.55012,50.73791],[-118.551,50.73625],[-118.55108,50.73526],[-118.5505,50.73417],[-118.55065,50.73389],[-118.54982,50.73314],[-118.5479,50.73218],[-118.54866,50.73117],[-118.54926,50.73085],[-118.55031,50.73076],[-118.55081,50.73097],[-118.55258,50.73066],[-118.5536,50.72971],[-118.55493,50.72923],[-118.5577,50.7273],[-118.55924,50.7254],[-118.55978,50.72379],[-118.55946,50.72265],[-118.55883,50.72213],[-118.55842,50.72121],[-118.55991,50.72062],[-118.56058,50.72064],[-118.56204,50.71986],[-118.56326,50.71879],[-118.56425,50.71727],[-118.56531,50.71681],[-118.56891,50.7172],[-118.57036,50.71758],[-118.57424,50.71773],[-118.57802,50.71629],[-118.58141,50.71449],[-118.58518,50.71058],[-118.58517,50.71008],[-118.58669,50.70836],[-118.58685,50.70755],[-118.58643,50.70575],[-118.58732,50.7024],[-118.58942,50.70405],[-118.59198,50.70518],[-118.59567,50.70516],[-118.59719,50.70537],[-118.5989,50.70505],[-118.60078,50.70363],[-118.60476,50.70153],[-118.60732,50.70076],[-118.61158,50.69898],[-118.61219,50.69896],[-118.61294,50.69834],[-118.61362,50.69834],[-118.61414,50.69732],[-118.61515,50.69657],[-118.61922,50.6968],[-118.62062,50.69721],[-118.62138,50.69708],[-118.62383,50.6952],[-118.62667,50.69354],[-118.62779,50.69206],[-118.62806,50.69042],[-118.6265,50.68751],[-118.62659,50.68522],[-118.62569,50.68333],[-118.62556,50.68224],[-118.62632,50.68086],[-118.62636,50.67923],[-118.62526,50.6772],[-118.62595,50.67637],[-118.6251,50.67584],[-118.62486,50.6752],[-118.62533,50.67475],[-118.62824,50.67424],[-118.6287,50.67239],[-118.62757,50.67057],[-118.62651,50.6696],[-118.62457,50.66976],[-118.62221,50.66769],[-118.62119,50.6676],[-118.62048,50.66728],[-118.62149,50.66688],[-118.62281,50.66587],[-118.62295,50.66506],[-118.62236,50.66428],[-118.62513,50.66444],[-118.62636,50.66418],[-118.62937,50.66265],[-118.63024,50.66044],[-118.63216,50.65949],[-118.63428,50.65697],[-118.63365,50.65573],[-118.63455,50.65545],[-118.63623,50.65567],[-118.63685,50.6554],[-118.63809,50.65528],[-118.6418,50.65411],[-118.64301,50.65305],[-118.64336,50.65226],[-118.64321,50.65145],[-118.64395,50.65022],[-118.64431,50.64859],[-118.6439,50.64821],[-118.64329,50.64816],[-118.64404,50.64778],[-118.64401,50.64729],[-118.64594,50.6446],[-118.64817,50.64318],[-118.64819,50.64289],[-118.64969,50.64177],[-118.65191,50.63816],[-118.65143,50.63524],[-118.65249,50.62881],[-118.65224,50.62855],[-118.65021,50.62827],[-118.64548,50.62881],[-118.64224,50.62815],[-118.64018,50.62825],[-118.63752,50.62766],[-118.63442,50.62759],[-118.63263,50.62821],[-118.63168,50.62949],[-118.6301,50.62997],[-118.62919,50.62783],[-118.6282,50.62648],[-118.62443,50.62335],[-118.62325,50.62306],[-118.62066,50.6231],[-118.61826,50.62247],[-118.61595,50.62233],[-118.60937,50.62238],[-118.60853,50.62739],[-118.60676,50.6255],[-118.60483,50.62441],[-118.60343,50.62322],[-118.60028,50.62218],[-118.59679,50.62196],[-118.59555,50.62228],[-118.59315,50.62226],[-118.59174,50.62273],[-118.587,50.62304],[-118.58447,50.6241],[-118.58301,50.62307],[-118.58176,50.62282],[-118.57993,50.62256],[-118.57499,50.62265],[-118.57362,50.62292],[-118.57237,50.62374],[-118.57207,50.62365],[-118.57223,50.62446],[-118.5718,50.62494],[-118.57024,50.62369],[-118.56727,50.62302],[-118.56488,50.62297],[-118.56063,50.62382],[-118.55889,50.62427],[-118.55439,50.62627],[-118.55428,50.62682],[-118.55322,50.62661],[-118.55021,50.62824],[-118.54938,50.62836],[-118.54863,50.62886],[-118.54765,50.62911],[-118.54418,50.6316],[-118.54325,50.63281],[-118.54152,50.63372],[-118.5425,50.63406],[-118.54125,50.63433],[-118.54119,50.63523],[-118.53926,50.63723],[-118.53742,50.64041],[-118.53684,50.6436],[-118.53703,50.64455],[-118.53658,50.64483],[-118.53673,50.64584],[-118.5361,50.64701],[-118.53671,50.64725],[-118.53597,50.64725],[-118.53473,50.64869],[-118.53556,50.64914],[-118.53489,50.64919],[-118.53449,50.64955],[-118.53519,50.65033],[-118.53396,50.65238],[-118.53427,50.6527],[-118.53316,50.65382],[-118.53092,50.65478],[-118.52988,50.65576],[-118.52979,50.65704],[-118.52836,50.65699],[-118.52839,50.65747],[-118.52733,50.65822],[-118.52766,50.65881],[-118.52695,50.65961],[-118.52658,50.65957],[-118.52633,50.65914],[-118.52695,50.6552],[-118.52797,50.65258],[-118.5292,50.65052],[-118.52898,50.64941],[-118.5283,50.64896],[-118.52776,50.64767],[-118.52831,50.64265],[-118.52813,50.63976],[-118.52859,50.63863],[-118.52715,50.63744],[-118.52461,50.63621],[-118.52368,50.63604],[-118.5247,50.63552],[-118.52551,50.63579],[-118.52806,50.63577],[-118.52846,50.63633],[-118.52988,50.63616],[-118.53025,50.63584],[-118.52961,50.63559],[-118.52987,50.63543],[-118.52971,50.63477],[-118.53096,50.63423],[-118.53281,50.6326],[-118.53352,50.63188],[-118.5339,50.63059],[-118.5406,50.62592],[-118.54338,50.62302],[-118.54363,50.62236],[-118.54781,50.61933],[-118.54842,50.61841],[-118.55066,50.61695],[-118.55187,50.61565],[-118.5512,50.61354],[-118.55175,50.61278],[-118.55297,50.61283],[-118.55303,50.61257],[-118.55233,50.61229],[-118.55045,50.61046],[-118.54821,50.60921],[-118.54794,50.60827],[-118.55054,50.6094],[-118.55291,50.60958],[-118.5533,50.60944],[-118.55422,50.60971],[-118.55525,50.60956],[-118.55746,50.61046],[-118.55905,50.61052],[-118.56035,50.61031],[-118.56188,50.61056],[-118.56285,50.61029],[-118.56385,50.60932],[-118.56376,50.6078],[-118.56618,50.60366],[-118.57173,50.59862],[-118.57304,50.59797],[-118.57321,50.59763],[-118.57386,50.59756],[-118.57384,50.5981],[-118.57283,50.59914],[-118.57122,50.60644],[-118.57161,50.60776],[-118.57333,50.60915],[-118.57466,50.60915],[-118.57583,50.60953],[-118.57955,50.60967],[-118.58807,50.60967],[-118.59158,50.60887],[-118.596,50.60701],[-118.59892,50.6062],[-118.6017,50.60387],[-118.60288,50.60425],[-118.60493,50.60445],[-118.60612,50.60509],[-118.60687,50.60518],[-118.61332,50.60487],[-118.61447,50.60443],[-118.61533,50.60456],[-118.61805,50.60426],[-118.6188,50.60483],[-118.62133,50.60517],[-118.6226,50.60503],[-118.62639,50.60558],[-118.63115,50.60724],[-118.63288,50.60822],[-118.63391,50.60831],[-118.63467,50.60823],[-118.63782,50.60709],[-118.64031,50.60665],[-118.6427,50.60525],[-118.6431,50.60483],[-118.64301,50.60428],[-118.64425,50.60359],[-118.64552,50.60342],[-118.64798,50.60253],[-118.64947,50.60226],[-118.65035,50.60167],[-118.65193,50.6011],[-118.65253,50.59975],[-118.65112,50.59855],[-118.65161,50.59724],[-118.65138,50.59668],[-118.65254,50.59573],[-118.65435,50.5949],[-118.65705,50.59453],[-118.6574,50.59427],[-118.65727,50.59387],[-118.65851,50.59349],[-118.65954,50.59214],[-118.66066,50.59193],[-118.66245,50.59066],[-118.66265,50.58865],[-118.66455,50.5877],[-118.66511,50.58712],[-118.66525,50.5863],[-118.66659,50.58574],[-118.6679,50.58368],[-118.66795,50.58265],[-118.66731,50.58054],[-118.66884,50.58019],[-118.67084,50.57852],[-118.67286,50.57806],[-118.67496,50.57651],[-118.67585,50.57565],[-118.67611,50.57448],[-118.67767,50.57285],[-118.67843,50.57081],[-118.67943,50.57054],[-118.68057,50.5694],[-118.68219,50.56853],[-118.68281,50.56654],[-118.68428,50.56612],[-118.68649,50.56465],[-118.68684,50.56313],[-118.6865,50.55989],[-118.68848,50.55747],[-118.68955,50.55699],[-118.69218,50.55699],[-118.69443,50.55607],[-118.69504,50.55532],[-118.69495,50.55363],[-118.69277,50.55191],[-118.68939,50.55139],[-118.68778,50.5518],[-118.68903,50.55082],[-118.69062,50.55019],[-118.69146,50.54955],[-118.69385,50.54931],[-118.69707,50.54976],[-118.69899,50.54746],[-118.69936,50.54509],[-118.69913,50.5439],[-118.69876,50.54332],[-118.69844,50.54339],[-118.69801,50.54308],[-118.69521,50.54],[-118.68487,50.53657],[-118.68942,50.53652],[-118.69222,50.5371],[-118.69736,50.53698],[-118.69824,50.53634],[-118.6991,50.53474],[-118.69863,50.53202],[-118.6987,50.53049],[-118.6981,50.52883],[-118.6972,50.52819],[-118.69523,50.52764],[-118.69409,50.52698],[-118.69041,50.52385],[-118.69043,50.5236],[-118.68848,50.52268],[-118.68777,50.52143],[-118.68647,50.52083],[-118.68452,50.52042],[-118.68423,50.51932],[-118.68346,50.51842],[-118.68275,50.51791],[-118.6809,50.51722],[-118.68173,50.5162],[-118.68034,50.51534],[-118.68025,50.51461],[-118.6808,50.5151],[-118.68117,50.51488],[-118.68024,50.51444],[-118.68371,50.51365],[-118.68993,50.51172],[-118.69117,50.51082],[-118.69248,50.50822],[-118.69248,50.50565],[-118.69175,50.50456],[-118.69099,50.50408],[-118.68974,50.50386],[-118.68847,50.50277],[-118.68664,50.50281],[-118.6862,50.50264],[-118.68616,50.50245],[-118.68723,50.50195],[-118.68705,50.50165],[-118.68653,50.50155],[-118.68668,50.50183],[-118.68617,50.50232],[-118.68586,50.50231],[-118.68572,50.50202],[-118.68622,50.50114],[-118.68858,50.50087],[-118.69,50.5],[-118.68983,50.49925],[-118.68942,50.49897],[-118.69008,50.49712],[-118.69048,50.49657],[-118.69123,50.49634],[-118.69148,50.49573],[-118.69507,50.494],[-118.69544,50.49221],[-118.69596,50.49183],[-118.69575,50.49124],[-118.69607,50.48995],[-118.69674,50.48956],[-118.69685,50.48863],[-118.69624,50.48733],[-118.69696,50.4837],[-118.69644,50.48316],[-118.6962,50.48216],[-118.69776,50.47987],[-118.6977,50.47929],[-118.69926,50.47516],[-118.6986,50.47448],[-118.69827,50.47285],[-118.69861,50.47244],[-118.69806,50.47198],[-118.69863,50.46917],[-118.69785,50.46629],[-118.69658,50.46558],[-118.69233,50.46598],[-118.68927,50.46773],[-118.68573,50.46933],[-118.68463,50.46937],[-118.6833,50.46982],[-118.68008,50.4704],[-118.67926,50.47129],[-118.67718,50.47214],[-118.67536,50.4733],[-118.67464,50.47333],[-118.6757,50.4727],[-118.67658,50.47118],[-118.67691,50.46924],[-118.67831,50.46717],[-118.67811,50.46658],[-118.67883,50.46629],[-118.6809,50.46608],[-118.68223,50.4649],[-118.68417,50.46393],[-118.68649,50.46168],[-118.68856,50.46082],[-118.68991,50.45962],[-118.69079,50.4579],[-118.69405,50.45686],[-118.69484,50.45612],[-118.6951,50.45476],[-118.69463,50.45425],[-118.69454,50.45269],[-118.69335,50.45076],[-118.69327,50.45],[-118.69267,50.44972],[-118.69228,50.44913],[-118.69111,50.44978],[-118.69065,50.44954],[-118.6898,50.44957],[-118.68743,50.45007],[-118.68606,50.44961],[-118.68531,50.44868],[-118.68609,50.44782],[-118.6862,50.44728],[-118.68583,50.44524],[-118.68492,50.44493],[-118.68298,50.44514],[-118.68169,50.44466],[-118.68237,50.44441],[-118.68236,50.44384],[-118.70382,50.44116],[-118.70628,50.44147],[-118.70909,50.44383],[-118.71187,50.45056],[-118.71471,50.45408],[-118.71922,50.45584],[-118.72733,50.45637],[-118.73262,50.45644],[-118.73733,50.45613],[-118.74116,50.46271],[-118.73645,50.47699],[-118.73608,50.47926],[-118.73391,50.48526],[-118.7358,50.48845],[-118.73219,50.49589],[-118.73334,50.50364],[-118.73282,50.51435],[-118.73455,50.52598],[-118.73087,50.54876],[-118.72187,50.58194],[-118.71046,50.5927],[-118.69988,50.60582],[-118.69613,50.61402],[-118.6921,50.62096],[-118.69102,50.62344],[-118.69063,50.62586],[-118.68935,50.62961],[-118.68735,50.63363],[-118.68176,50.6422],[-118.68055,50.64553],[-118.677,50.65083],[-118.67372,50.65445],[-118.66916,50.66181],[-118.66593,50.66926],[-118.66346,50.68048],[-118.66378,50.68544],[-118.66719,50.68682],[-118.67177,50.68712],[-118.67534,50.68795],[-118.67781,50.68987],[-118.6833,50.69023],[-118.68779,50.69112],[-118.69108,50.69368],[-118.6986,50.693],[-118.70337,50.69214],[-118.70834,50.69011],[-118.71147,50.68797],[-118.7145,50.68641],[-118.71826,50.68606],[-118.72404,50.68468],[-118.73396,50.68063],[-118.73782,50.6797],[-118.74332,50.68006],[-118.75102,50.67822],[-118.75516,50.67555],[-118.76122,50.67242],[-118.76507,50.67149],[-118.76975,50.67121],[-118.78159,50.66669],[-118.78626,50.66641],[-118.7935,50.66746],[-118.79771,50.67009],[-118.801,50.67265],[-118.80281,50.67864],[-118.80225,50.68213],[-118.80261,50.68568],[-118.8013,50.69382],[-118.80412,50.69929],[-118.803,50.70627],[-118.80354,50.70865],[-118.80214,50.71737],[-118.79772,50.72179],[-118.79377,50.72329],[-118.78973,50.72538],[-118.77632,50.72804],[-118.76924,50.73169],[-118.76602,50.73442],[-118.76298,50.73598],[-118.76068,50.73877],[-118.7558,50.74022],[-118.74625,50.74195],[-118.7423,50.74345],[-118.74008,50.74566],[-118.73603,50.74774],[-118.73116,50.74919],[-118.72803,50.75133],[-118.71939,50.75312],[-118.71157,50.75554],[-118.70999,50.75955],[-118.70613,50.76047],[-118.70309,50.76204],[-118.69913,50.76354],[-118.6947,50.76795],[-118.68963,50.77056],[-118.68264,50.77362],[-118.67554,50.77727],[-118.67006,50.77955],[-118.66692,50.7817],[-118.66562,50.78396],[-118.65697,50.78574],[-118.64968,50.79055],[-118.64302,50.79716],[-118.63481,50.80191],[-118.63167,50.80405],[-118.62863,50.80561],[-118.62263,50.80815],[-118.61949,50.81029],[-118.61562,50.81121],[-118.61258,50.81278],[-118.60136,50.81321],[-118.59638,50.81523],[-118.59057,50.8166],[-118.58743,50.81874],[-118.58346,50.82024],[-118.57737,50.82336],[-118.5734,50.82486],[-118.56934,50.82694],[-118.57727,50.83511],[-118.57689,50.83743],[-118.57722,50.84098],[-118.57684,50.84331],[-118.57737,50.84569],[-118.5765,50.85092],[-118.57519,50.85319],[-118.57185,50.85649],[-118.5688,50.85805],[-118.56657,50.86025],[-118.55689,50.86254],[-118.5521,50.8634],[-118.5474,50.86367],[-118.54077,50.8644],[-118.53587,50.86584],[-118.52335,50.87117],[-118.52204,50.87344],[-118.51899,50.87499],[-118.51361,50.87933],[-118.51137,50.88154],[-118.50875,50.88606],[-118.50642,50.88884],[-118.50308,50.89214],[-118.50045,50.89667],[-118.49986,50.90015],[-118.49336,50.90559],[-118.49267,50.90966],[-118.49383,50.91385],[-118.49416,50.9174],[-118.49551,50.92043],[-118.49924,50.92597],[-118.50171,50.92789],[-118.50451,50.93337],[-118.5079,50.93536],[-118.5111,50.93851],[-118.51449,50.9405],[-118.5141,50.94283],[-118.5174,50.9454],[-118.51875,50.94843],[-118.51928,50.95081],[-118.51185,50.95619],[-118.50797,50.95711],[-118.49865,50.95707],[-118.49549,50.95921],[-118.49049,50.96122],[-118.48661,50.96214],[-118.48088,50.96293],[-118.47598,50.96436],[-118.47127,50.96463],[-118.46676,50.96374],[-118.46439,50.96123],[-118.4658,50.95839],[-118.46896,50.95625],[-118.46771,50.95264],[-118.46675,50.94729],[-118.46428,50.94536],[-118.46069,50.94453],[-118.4573,50.94254]]]}},
{"type":"Feature","properties":{"uwr":"u-8-006","unit":"7","sp1":"moose","sp2":null,"species":"Moose","approved":"2020-03-31","ha":16634.7,"months":[1,2,3,4,12],"monthsKey":",1,2,3,4,12,"},"geometry":{"type":"Polygon","coordinates":[[[-119.39579,50.77915],[-119.4,50.77687],[-119.4,50.78878],[-119.39397,50.78659],[-119.39579,50.77915]]]}},
{"type":"Feature","properties":{"uwr":"u-8-006","unit":"8","sp1":"moose","sp2":null,"species":"Moose","approved":"2006-07-24","ha":15856.9,"months":[1,2,3,4,12],"monthsKey":",1,2,3,4,12,"},"geometry":{"type":"Polygon","coordinates":[[[-118.37537,50.5427],[-118.37766,50.53965],[-118.384,50.53683],[-118.39299,50.53493],[-118.39706,50.53337],[-118.40081,50.53072],[-118.40473,50.52697],[-118.40802,50.52478],[-118.42195,50.5092],[-118.42376,50.4953],[-118.42256,50.49519],[-118.42172,50.49538],[-118.41933,50.49507],[-118.41719,50.49571],[-118.41502,50.49704],[-118.41402,50.49712],[-118.41193,50.49789],[-118.40924,50.49916],[-118.40869,50.49978],[-118.40762,50.50006],[-118.40239,50.50237],[-118.39888,50.50343],[-118.39498,50.5037],[-118.39247,50.50413],[-118.38838,50.50612],[-118.38681,50.50642],[-118.38266,50.50779],[-118.38088,50.50797],[-118.37741,50.50908],[-118.37484,50.50924],[-118.37396,50.50957],[-118.36959,50.50984],[-118.36803,50.51042],[-118.36721,50.51131],[-118.3667,50.51088],[-118.36493,50.51018],[-118.36205,50.50945],[-118.35894,50.50934],[-118.35472,50.50952],[-118.35375,50.50925],[-118.34992,50.5094],[-118.34678,50.50868],[-118.34145,50.50911],[-118.33955,50.5104],[-118.33942,50.50968],[-118.33864,50.50904],[-118.33039,50.50666],[-118.32953,50.50667],[-118.32918,50.50622],[-118.32378,50.50514],[-118.31916,50.50483],[-118.31718,50.50508],[-118.31658,50.50478],[-118.31555,50.50471],[-118.31372,50.50505],[-118.31141,50.50457],[-118.30883,50.50459],[-118.30376,50.50584],[-118.30005,50.50628],[-118.29944,50.50472],[-118.29849,50.5041],[-118.29692,50.50162],[-118.29619,50.50123],[-118.29596,50.50467],[-118.29555,50.50528],[-118.29341,50.50644],[-118.29322,50.50682],[-118.28888,50.5068],[-118.28714,50.50614],[-118.28641,50.50621],[-118.28614,50.50585],[-118.28661,50.50466],[-118.28633,50.50368],[-118.2849,50.50303],[-118.28332,50.50292],[-118.28286,50.50332],[-118.283,50.50396],[-118.28273,50.50441],[-118.28085,50.50504],[-118.28146,50.5047],[-118.28095,50.50294],[-118.28171,50.50259],[-118.28201,50.5021],[-118.28329,50.50194],[-118.28331,50.50112],[-118.28381,50.50077],[-118.29031,50.49968],[-118.29247,50.49903],[-118.2936,50.4995],[-118.29548,50.49914],[-118.29676,50.4992],[-118.29829,50.49822],[-118.30838,50.49547],[-118.30824,50.49442],[-118.30722,50.49262],[-118.30758,50.48933],[-118.30792,50.4887],[-118.30727,50.48796],[-118.30754,50.48636],[-118.30911,50.48464],[-118.3094,50.48382],[-118.31011,50.48345],[-118.31019,50.48279],[-118.31705,50.48046],[-118.31764,50.48225],[-118.31979,50.48286],[-118.31844,50.4836],[-118.31843,50.4843],[-118.32051,50.48515],[-118.31915,50.48599],[-118.31873,50.48841],[-118.32043,50.48964],[-118.32389,50.49047],[-118.32556,50.49208],[-118.3287,50.49316],[-118.32974,50.49492],[-118.33081,50.4945],[-118.33194,50.49491],[-118.33507,50.49541],[-118.33819,50.49514],[-118.33873,50.49563],[-118.34052,50.49592],[-118.34169,50.49641],[-118.34471,50.49674],[-118.34723,50.49629],[-118.34929,50.49691],[-118.3507,50.49707],[-118.35539,50.49665],[-118.35649,50.49621],[-118.35787,50.49495],[-118.35866,50.49349],[-118.35859,50.49266],[-118.35987,50.49015],[-118.35968,50.48939],[-118.36117,50.48857],[-118.36169,50.48954],[-118.36412,50.49226],[-118.36482,50.49367],[-118.36666,50.49489],[-118.36861,50.49681],[-118.36977,50.49699],[-118.37199,50.49666],[-118.37296,50.4961],[-118.37456,50.49588],[-118.37505,50.49537],[-118.37624,50.49539],[-118.37674,50.4943],[-118.37789,50.49435],[-118.37959,50.49399],[-118.38066,50.49327],[-118.38205,50.49292],[-118.38496,50.49169],[-118.38588,50.49087],[-118.38821,50.49024],[-118.39192,50.48845],[-118.39354,50.48679],[-118.39392,50.48478],[-118.39472,50.48534],[-118.39682,50.48552],[-118.39827,50.48463],[-118.40232,50.48337],[-118.40534,50.48129],[-118.406,50.48017],[-118.40551,50.47918],[-118.4072,50.47932],[-118.40819,50.47993],[-118.40867,50.4799],[-118.41078,50.4793],[-118.41124,50.47892],[-118.41138,50.47819],[-118.41249,50.47836],[-118.41874,50.47688],[-118.41895,50.47628],[-118.41836,50.47494],[-118.41699,50.47379],[-118.41805,50.47095],[-118.42018,50.46933],[-118.42138,50.46882],[-118.42105,50.46816],[-118.41915,50.46685],[-118.41837,50.46487],[-118.41628,50.46151],[-118.41596,50.46044],[-118.41672,50.46],[-118.41764,50.45982],[-118.41921,50.46007],[-118.42033,50.46071],[-118.42258,50.46108],[-118.4248,50.46215],[-118.42778,50.4628],[-118.42909,50.46276],[-118.42984,50.46361],[-118.43182,50.4643],[-118.434,50.46463],[-118.43504,50.46433],[-118.43626,50.46456],[-118.43755,50.46368],[-118.43994,50.46308],[-118.44139,50.46238],[-118.44316,50.46266],[-118.44352,50.46328],[-118.44464,50.46305],[-118.44559,50.46253],[-118.44678,50.46141],[-118.44735,50.46118],[-118.44767,50.46045],[-118.4499,50.45999],[-118.45129,50.45915],[-118.4518,50.45856],[-118.45139,50.45782],[-118.4516,50.45712],[-118.45434,50.45565],[-118.45665,50.45523],[-118.4579,50.45397],[-118.45899,50.45345],[-118.45946,50.45258],[-118.4611,50.4517],[-118.46146,50.45113],[-118.46411,50.44934],[-118.46586,50.44871],[-118.46649,50.44813],[-118.46738,50.44793],[-118.46758,50.44743],[-118.46834,50.44687],[-118.46849,50.4465],[-118.46739,50.44571],[-118.46758,50.44445],[-118.46726,50.44318],[-118.46644,50.44266],[-118.46624,50.44366],[-118.46591,50.44371],[-118.46544,50.44309],[-118.46481,50.44282],[-118.46464,50.44204],[-118.46555,50.44041],[-118.46563,50.43976],[-118.46512,50.43912],[-118.46536,50.43781],[-118.46662,50.43641],[-118.46646,50.43573],[-118.46549,50.43448],[-118.4654,50.43372],[-118.46705,50.4298],[-118.46691,50.42707],[-118.46722,50.4265],[-118.46691,50.42601],[-118.46376,50.42446],[-118.46044,50.42452],[-118.45942,50.42435],[-118.45418,50.42492],[-118.45272,50.42518],[-118.45158,50.42573],[-118.44811,50.42625],[-118.4409,50.42872],[-118.43742,50.42964],[-118.438,50.42743],[-118.43791,50.42554],[-118.43609,50.42505],[-118.43204,50.42483],[-118.43109,50.42496],[-118.43003,50.42476],[-118.43629,50.42188],[-118.43846,50.4212],[-118.44173,50.41922],[-118.44476,50.41655],[-118.44588,50.41362],[-118.44563,50.41286],[-118.44496,50.41262],[-118.44201,50.41018],[-118.44276,50.4098],[-118.44197,50.40978],[-118.44114,50.40931],[-118.4408,50.40762],[-118.44103,50.40593],[-118.44154,50.40567],[-118.44151,50.40504],[-118.44232,50.40357],[-118.44196,50.40282],[-118.44224,50.40215],[-118.44188,50.40161],[-118.4421,50.39913],[-118.44066,50.39802],[-118.44102,50.39619],[-118.43201,50.39258],[-118.43166,50.38383],[-118.43783,50.3796],[-118.44731,50.37734],[-118.46598,50.37455],[-118.47248,50.37383],[-118.47565,50.37114],[-118.48641,50.36663],[-118.50243,50.35784],[-118.49331,50.35257],[-118.48062,50.34952],[-118.47368,50.34483],[-118.49034,50.34306],[-118.51202,50.34395],[-118.53566,50.34948],[-118.54348,50.34946],[-118.54375,50.35003],[-118.54338,50.35086],[-118.54302,50.35107],[-118.54234,50.35095],[-118.54277,50.35163],[-118.54259,50.35216],[-118.53915,50.3543],[-118.53934,50.35624],[-118.53897,50.35655],[-118.53893,50.35714],[-118.53829,50.35768],[-118.53875,50.35863],[-118.53812,50.35992],[-118.53628,50.3609],[-118.53419,50.36048],[-118.53354,50.36133],[-118.53185,50.36173],[-118.53204,50.36221],[-118.53334,50.36308],[-118.53433,50.36437],[-118.53393,50.36483],[-118.5325,50.36511],[-118.53193,50.36727],[-118.52998,50.36876],[-118.52964,50.36959],[-118.52996,50.3711],[-118.52834,50.37148],[-118.52743,50.37124],[-118.527,50.37085],[-118.52649,50.37092],[-118.52578,50.37243],[-118.5254,50.37449],[-118.52461,50.37484],[-118.52487,50.37505],[-118.526,50.37515],[-118.5266,50.37598],[-118.52893,50.37708],[-118.52936,50.37663],[-118.53038,50.37669],[-118.53426,50.37892],[-118.53494,50.37939],[-118.53612,50.381],[-118.53831,50.38243],[-118.54037,50.38439],[-118.54096,50.38628],[-118.54051,50.3878],[-118.54157,50.39126],[-118.54166,50.39363],[-118.54168,50.39649],[-118.54092,50.39814],[-118.54169,50.39963],[-118.541,50.40199],[-118.5404,50.4035],[-118.53961,50.40439],[-118.53937,50.40586],[-118.53733,50.40775],[-118.5362,50.40977],[-118.53703,50.41151],[-118.53651,50.41329],[-118.53427,50.41569],[-118.53436,50.41718],[-118.53343,50.41819],[-118.53398,50.4193],[-118.53333,50.42068],[-118.53338,50.42137],[-118.53217,50.42298],[-118.53283,50.42404],[-118.53284,50.42519],[-118.53184,50.42645],[-118.53164,50.42753],[-118.53093,50.42801],[-118.53134,50.42827],[-118.53125,50.42859],[-118.52994,50.42937],[-118.52748,50.42998],[-118.52606,50.43089],[-118.52352,50.43166],[-118.52279,50.43257],[-118.5222,50.43269],[-118.52102,50.43364],[-118.5203,50.43596],[-118.52135,50.43728],[-118.52245,50.43795],[-118.52268,50.43873],[-118.52236,50.43933],[-118.51698,50.44163],[-118.51495,50.44323],[-118.51365,50.44367],[-118.51458,50.44416],[-118.52013,50.44533],[-118.52177,50.44797],[-118.52359,50.44932],[-118.52705,50.45092],[-118.53029,50.45187],[-118.53125,50.45256],[-118.53404,50.45363],[-118.53502,50.45446],[-118.53154,50.45393],[-118.52702,50.45458],[-118.52598,50.45446],[-118.5254,50.45461],[-118.52306,50.45609],[-118.52308,50.45743],[-118.52252,50.45891],[-118.52164,50.4586],[-118.52056,50.45767],[-118.51891,50.45742],[-118.51858,50.45698],[-118.51759,50.45661],[-118.51379,50.45604],[-118.51076,50.45692],[-118.50949,50.45791],[-118.50742,50.45863],[-118.50636,50.45936],[-118.50513,50.46091],[-118.50087,50.46391],[-118.49992,50.46539],[-118.49952,50.46671],[-118.49976,50.46731],[-118.49946,50.4676],[-118.49984,50.46963],[-118.49942,50.47365],[-118.49958,50.47429],[-118.5003,50.47492],[-118.49919,50.47511],[-118.49804,50.47568],[-118.49635,50.47599],[-118.49543,50.4769],[-118.49244,50.47729],[-118.48774,50.4797],[-118.48383,50.48404],[-118.48311,50.48574],[-118.48337,50.48658],[-118.48293,50.48686],[-118.48286,50.48743],[-118.4824,50.48754],[-118.48134,50.4888],[-118.48142,50.48948],[-118.48106,50.49015],[-118.48155,50.49059],[-118.48039,50.49089],[-118.47909,50.49204],[-118.47797,50.49398],[-118.4745,50.49715],[-118.47414,50.49925],[-118.47503,50.49967],[-118.47251,50.50479],[-118.47006,50.50875],[-118.46891,50.5121],[-118.4686,50.51558],[-118.46895,50.51604],[-118.4704,50.5163],[-118.47321,50.51426],[-118.4768,50.5139],[-118.47842,50.51344],[-118.47715,50.51475],[-118.4741,50.51654],[-118.47476,50.51749],[-118.47493,50.51908],[-118.47415,50.5204],[-118.47123,50.5214],[-118.47052,50.52217],[-118.46937,50.52265],[-118.46603,50.52479],[-118.46536,50.52573],[-118.46249,50.52738],[-118.46144,50.5292],[-118.46167,50.53025],[-118.46115,50.53199],[-118.46154,50.5328],[-118.46102,50.53324],[-118.46123,50.53382],[-118.45998,50.53335],[-118.45897,50.5336],[-118.45704,50.53571],[-118.45673,50.53655],[-118.45704,50.53729],[-118.4561,50.53765],[-118.45497,50.53886],[-118.45441,50.53916],[-118.45279,50.53912],[-118.45022,50.54003],[-118.45104,50.54099],[-118.45118,50.54163],[-118.44843,50.54074],[-118.44624,50.54099],[-118.44541,50.54142],[-118.44281,50.54204],[-118.43705,50.54466],[-118.43326,50.547],[-118.4325,50.54773],[-118.43026,50.54893],[-118.42841,50.55047],[-118.42717,50.55262],[-118.42718,50.5535],[-118.42823,50.55533],[-118.42916,50.55583],[-118.42764,50.55635],[-118.42583,50.55594],[-118.42473,50.55598],[-118.42205,50.5569],[-118.42027,50.55802],[-118.41956,50.55878],[-118.41963,50.55947],[-118.41881,50.5595],[-118.41788,50.55988],[-118.41601,50.56163],[-118.41508,50.56365],[-118.41363,50.56534],[-118.41108,50.57076],[-118.41058,50.5736],[-118.4058,50.57727],[-118.40193,50.58075],[-118.39965,50.5835],[-118.39897,50.58998],[-118.40025,50.59233],[-118.40422,50.59717],[-118.40619,50.59889],[-118.4059,50.60582],[-118.40685,50.60754],[-118.40956,50.61578],[-118.40641,50.62078],[-118.39959,50.62508],[-118.3956,50.62948],[-118.39341,50.63442],[-118.38356,50.64204],[-118.38167,50.64532],[-118.37854,50.64723],[-118.36145,50.65393],[-118.3594,50.65555],[-118.35898,50.65795],[-118.36053,50.6624],[-118.36178,50.66818],[-118.36176,50.67001],[-118.3623,50.67283],[-118.3616,50.67511],[-118.35799,50.67356],[-118.35695,50.67044],[-118.35484,50.66608],[-118.3521,50.66237],[-118.35202,50.65239],[-118.35348,50.64783],[-118.36151,50.64152],[-118.3656,50.63863],[-118.37295,50.63241],[-118.37651,50.62629],[-118.38271,50.62163],[-118.38333,50.61624],[-118.38223,50.61173],[-118.37972,50.60894],[-118.37652,50.60615],[-118.37314,50.60448],[-118.36441,50.60175],[-118.35543,50.59521],[-118.35389,50.59028],[-118.35384,50.58315],[-118.35801,50.57232],[-118.369,50.55476],[-118.37537,50.5427]]]}},
{"type":"Feature","properties":{"uwr":"u-8-006","unit":"12","sp1":"moose","sp2":null,"species":"Moose","approved":"2006-07-24","ha":37858.5,"months":[1,2,3,4,12],"monthsKey":",1,2,3,4,12,"},"geometry":{"type":"Polygon","coordinates":[[[-119.13763,50.17245],[-119.12924,50.17054],[-119.1229,50.16944],[-119.11861,50.16918],[-119.11022,50.16726],[-119.10399,50.16547],[-119.09862,50.16514],[-119.09142,50.1626],[-119.08862,50.15963],[-119.08796,50.15681],[-119.08624,50.15391],[-119.08344,50.15095],[-119.07763,50.14641],[-119.07462,50.14483],[-119.06613,50.1436],[-119.06226,50.14057],[-119.05808,50.13961],[-119.05378,50.13934],[-119.04048,50.14128],[-119.0289,50.14611],[-119.02471,50.14515],[-119.02128,50.14633],[-119.01516,50.14385],[-119.00024,50.14917],[-118.99488,50.14882],[-118.99048,50.14924],[-118.98414,50.14814],[-118.98006,50.14649],[-118.97416,50.14263],[-118.9689,50.14159],[-118.96718,50.1387],[-118.9631,50.13704],[-118.96128,50.13484],[-118.95956,50.13194],[-118.97034,50.12184],[-118.98149,50.11977],[-118.97763,50.11673],[-118.98063,50.11136],[-118.98534,50.10887],[-118.99649,50.1068],[-119.00121,50.10431],[-119.00163,50.10156],[-119.0042,50.09893],[-119.00892,50.09645],[-119.0162,50.09134],[-119.02562,50.08637],[-119.03462,50.08416],[-119.03505,50.0814],[-119.03804,50.07602],[-119.03846,50.07326],[-119.04616,50.06539],[-119.04785,50.05436],[-119.05041,50.05173],[-119.05083,50.04898],[-119.0534,50.04635],[-119.05382,50.04359],[-119.05252,50.03794],[-119.05508,50.03532],[-119.05551,50.03256],[-119.05379,50.02966],[-119.05656,50.02566],[-119.05698,50.0229],[-119.05547,50.01863],[-119.0593,50.00773],[-119.064,50.00524],[-119.07042,50.00565],[-119.07449,50.0073],[-119.07877,50.00757],[-119.08049,50.01046],[-119.08415,50.01487],[-119.08994,50.01942],[-119.08952,50.02218],[-119.09359,50.02382],[-119.09511,50.0281],[-119.09918,50.02975],[-119.1056,50.03015],[-119.11052,50.02628],[-119.11521,50.02379],[-119.11798,50.01979],[-119.12566,50.01192],[-119.13036,50.00942],[-119.13526,50.00555],[-119.14424,50.00333],[-119.15108,50.00097],[-119.15577,49.99848],[-119.16006,49.99875],[-119.1694,49.99746],[-119.17696,49.99587],[-119.18176,49.99587],[-119.19098,49.99541],[-119.19531,49.99553],[-119.19937,49.99593],[-119.20563,49.99691],[-119.20992,49.99732],[-119.21348,49.99799],[-119.21864,50.00018],[-119.21834,49.99981],[-119.21984,49.99876],[-119.22258,49.99783],[-119.22488,49.99729],[-119.22875,49.99687],[-119.23387,49.99665],[-119.2394,49.99496],[-119.24763,49.99091],[-119.2517,49.99004],[-119.26493,49.98868],[-119.26924,49.98755],[-119.2715,49.98595],[-119.27629,49.98053],[-119.28007,49.97705],[-119.28139,49.97417],[-119.28136,49.97185],[-119.27968,49.96558],[-119.2783,49.96255],[-119.27107,49.95246],[-119.26836,49.94942],[-119.26762,49.9478],[-119.26718,49.94061],[-119.26663,49.93924],[-119.26512,49.93761],[-119.26448,49.93616],[-119.26463,49.92953],[-119.26411,49.92325],[-119.26331,49.92103],[-119.26189,49.91891],[-119.26083,49.91599],[-119.2595,49.91418],[-119.25838,49.91319],[-119.25758,49.91289],[-119.25585,49.91297],[-119.25391,49.91423],[-119.25157,49.91898],[-119.24872,49.92177],[-119.24648,49.92297],[-119.24521,49.92322],[-119.2438,49.923],[-119.24244,49.9224],[-119.23881,49.91979],[-119.23692,49.91715],[-119.23627,49.91552],[-119.23547,49.91082],[-119.23494,49.90391],[-119.2335,49.90066],[-119.23196,49.89837],[-119.23039,49.89611],[-119.22916,49.89501],[-119.22675,49.89326],[-119.21924,49.88903],[-119.22186,49.88341],[-119.22619,49.88078],[-119.22781,49.87949],[-119.22957,49.87729],[-119.23034,49.87424],[-119.2321,49.87387],[-119.23318,49.87318],[-119.23381,49.87247],[-119.23473,49.87042],[-119.23564,49.86976],[-119.24028,49.86805],[-119.24353,49.86727],[-119.25074,49.8645],[-119.25696,49.86363],[-119.25908,49.86311],[-119.26372,49.86098],[-119.26794,49.86043],[-119.27183,49.86066],[-119.27328,49.86099],[-119.27451,49.86156],[-119.27569,49.863],[-119.27588,49.8648],[-119.27558,49.86633],[-119.27466,49.86791],[-119.27501,49.86825],[-119.27461,49.86964],[-119.27462,49.87159],[-119.27539,49.87333],[-119.2772,49.8749],[-119.279,49.87575],[-119.28099,49.87633],[-119.28719,49.87732],[-119.28934,49.8781],[-119.30963,49.88884],[-119.31839,49.89301],[-119.32125,49.89489],[-119.32273,49.8968],[-119.32518,49.903],[-119.325,49.90627],[-119.32455,49.90767],[-119.32344,49.90909],[-119.32254,49.90969],[-119.3149,49.91241],[-119.31415,49.91288],[-119.31439,49.91347],[-119.31658,49.91478],[-119.31851,49.91684],[-119.3189,49.91834],[-119.31859,49.91943],[-119.31685,49.92092],[-119.30741,49.92554],[-119.30496,49.92723],[-119.30918,49.92828],[-119.31089,49.92821],[-119.31444,49.92893],[-119.32068,49.92807],[-119.32364,49.92822],[-119.32503,49.9287],[-119.32508,49.92983],[-119.32324,49.93087],[-119.3181,49.93255],[-119.31556,49.93438],[-119.31427,49.9348],[-119.31287,49.93481],[-119.31119,49.93451],[-119.30782,49.93296],[-119.3061,49.93254],[-119.30543,49.93258],[-119.30407,49.9333],[-119.30731,49.93451],[-119.30817,49.93516],[-119.30895,49.93627],[-119.30967,49.93904],[-119.30899,49.94333],[-119.31185,49.94317],[-119.31434,49.94431],[-119.31744,49.94467],[-119.31969,49.94602],[-119.32063,49.94764],[-119.32101,49.94965],[-119.32082,49.9508],[-119.31779,49.9553],[-119.31692,49.95781],[-119.3182,49.96319],[-119.31906,49.97339],[-119.31977,49.97602],[-119.32076,49.97715],[-119.32355,49.97852],[-119.3253,49.97992],[-119.32953,49.98232],[-119.33042,49.98317],[-119.3309,49.98528],[-119.32905,49.9883],[-119.33005,49.98971],[-119.33212,49.99059],[-119.3345,49.99068],[-119.34087,49.99002],[-119.34353,49.99029],[-119.34598,49.9923],[-119.34677,49.99461],[-119.34635,49.99786],[-119.34721,49.99975],[-119.34472,50.00544],[-119.33947,50.00961],[-119.33235,50.01204],[-119.3204,50.01532],[-119.31707,50.01681],[-119.31016,50.01824],[-119.29902,50.0197],[-119.29519,50.02365],[-119.29287,50.0268],[-119.28901,50.02846],[-119.29126,50.03193],[-119.29309,50.03413],[-119.296,50.0364],[-119.30202,50.03955],[-119.30631,50.03981],[-119.31427,50.04447],[-119.31152,50.04848],[-119.30775,50.05939],[-119.305,50.0634],[-119.30342,50.06678],[-119.30056,50.07148],[-119.30209,50.07575],[-119.30169,50.07851],[-119.29168,50.08765],[-119.28806,50.09021],[-119.28167,50.09678],[-119.27805,50.09934],[-119.27345,50.10115],[-119.26436,50.10407],[-119.26063,50.10732],[-119.25485,50.10975],[-119.24856,50.11563],[-119.2459,50.11895],[-119.23777,50.12262],[-119.23435,50.1238],[-119.22442,50.13224],[-119.21778,50.13322],[-119.21425,50.13509],[-119.21266,50.13848],[-119.20767,50.13921],[-119.20716,50.14266],[-119.20265,50.14378],[-119.19826,50.1442],[-119.19483,50.14538],[-119.18776,50.14912],[-119.18434,50.1503],[-119.17713,50.14776],[-119.1737,50.14894],[-119.17554,50.15114],[-119.17384,50.15522],[-119.17751,50.15962],[-119.17817,50.16245],[-119.17724,50.16865],[-119.17478,50.17059],[-119.17221,50.17321],[-119.16781,50.17364],[-119.16223,50.17468],[-119.15804,50.17372],[-119.15256,50.17408],[-119.14797,50.17319],[-119.13763,50.17245]]]}},
{"type":"Feature","properties":{"uwr":"u-8-006","unit":"13","sp1":"moose","sp2":null,"species":"Moose","approved":"2006-07-24","ha":603.9,"months":[1,2,3,4,12],"monthsKey":",1,2,3,4,12,"},"geometry":{"type":"Polygon","coordinates":[[[-119.87792,50.12216],[-119.88837,50.12472],[-119.89297,50.12498],[-119.89666,50.12618],[-119.90049,50.12639],[-119.90534,50.12468],[-119.9106,50.12001],[-119.91335,50.11669],[-119.9237,50.11429],[-119.92906,50.11459],[-119.93352,50.11583],[-119.93678,50.11598],[-119.93679,50.12592],[-119.93297,50.12571],[-119.92678,50.12586],[-119.92295,50.12565],[-119.91822,50.12638],[-119.91496,50.12769],[-119.91164,50.12948],[-119.90775,50.12976],[-119.89587,50.13208],[-119.89121,50.13232],[-119.88202,50.1318],[-119.8727,50.13228],[-119.87014,50.13412],[-119.86751,50.13645],[-119.86348,50.13771],[-119.85536,50.14072],[-119.85083,50.13998],[-119.8504,50.13747],[-119.85303,50.13514],[-119.8549,50.13277],[-119.86168,50.12819],[-119.87313,50.12338],[-119.87792,50.12216]]]}},
{"type":"Feature","properties":{"uwr":"u-8-006","unit":"14","sp1":"moose","sp2":null,"species":"Moose","approved":"2006-07-24","ha":13146.0,"months":[1,2,3,4,12],"monthsKey":",1,2,3,4,12,"},"geometry":{"type":"Polygon","coordinates":[[[-119.56517,50.08828],[-119.55786,50.08404],[-119.54663,50.07956],[-119.54093,50.07796],[-119.54236,50.06786],[-119.54468,50.06546],[-119.54898,50.06584],[-119.55234,50.06718],[-119.55591,50.06993],[-119.56375,50.07039],[-119.56607,50.06798],[-119.56678,50.06294],[-119.5691,50.06053],[-119.56981,50.05548],[-119.57213,50.05308],[-119.57053,50.05044],[-119.57516,50.04562],[-119.57587,50.04057],[-119.58032,50.03702],[-119.58122,50.03071],[-119.57765,50.02796],[-119.57285,50.02004],[-119.57142,50.01614],[-119.56982,50.0135],[-119.57232,50.00984],[-119.57339,50.00226],[-119.58175,49.99894],[-119.58815,49.9955],[-119.59225,49.99446],[-119.61182,49.99561],[-119.61556,49.9971],[-119.62356,49.99629],[-119.62766,49.99526],[-119.63335,49.99686],[-119.63744,49.99583],[-119.64349,49.99491],[-119.64758,49.99387],[-119.65541,49.99433],[-119.6595,49.99329],[-119.66394,49.98973],[-119.66803,49.9887],[-119.67247,49.98514],[-119.67656,49.9841],[-119.67919,49.96517],[-119.68594,49.9592],[-119.69089,49.95186],[-119.70259,49.93854],[-119.70507,49.93486],[-119.70542,49.93234],[-119.70968,49.93004],[-119.71411,49.92648],[-119.71641,49.92407],[-119.72067,49.92177],[-119.7244,49.92325],[-119.72831,49.92348],[-119.73648,49.9214],[-119.74251,49.92048],[-119.7482,49.92207],[-119.75211,49.9223],[-119.75976,49.92401],[-119.76349,49.92549],[-119.76953,49.92456],[-119.77344,49.92479],[-119.77258,49.9311],[-119.76867,49.93087],[-119.7605,49.93295],[-119.75625,49.93525],[-119.75395,49.93767],[-119.74952,49.94123],[-119.75291,49.94524],[-119.75256,49.94776],[-119.75647,49.94799],[-119.76004,49.95073],[-119.76573,49.95233],[-119.76539,49.95485],[-119.76896,49.9576],[-119.76079,49.95968],[-119.75365,49.95418],[-119.74583,49.95374],[-119.74122,49.95856],[-119.73875,49.96224],[-119.7384,49.96476],[-119.7361,49.96717],[-119.73184,49.96947],[-119.73027,49.98083],[-119.72371,49.98554],[-119.72123,49.98921],[-119.72284,49.99185],[-119.71953,50.01583],[-119.7103,50.02547],[-119.70621,50.02651],[-119.7039,50.02892],[-119.70355,50.03145],[-119.69501,50.03604],[-119.69662,50.03868],[-119.69806,50.04258],[-119.69967,50.04521],[-119.69718,50.04889],[-119.69683,50.05141],[-119.69827,50.05531],[-119.69757,50.06036],[-119.69277,50.06644],[-119.69225,50.07022],[-119.68994,50.07263],[-119.68745,50.07631],[-119.68318,50.07861],[-119.67855,50.08343],[-119.67606,50.0871],[-119.66965,50.09054],[-119.65788,50.08987],[-119.6429,50.08391],[-119.63933,50.08116],[-119.63541,50.08093],[-119.63131,50.08197],[-119.62685,50.08552],[-119.62293,50.0853],[-119.61063,50.0884],[-119.60671,50.08817],[-119.60047,50.09035],[-119.59262,50.08989],[-119.58656,50.09081],[-119.57676,50.09024],[-119.56909,50.08851],[-119.56517,50.08828]]]}},
{"type":"Feature","properties":{"uwr":"u-8-006","unit":"15","sp1":"moose","sp2":null,"species":"Moose","approved":"2006-07-24","ha":1138.9,"months":[1,2,3,4,12],"monthsKey":",1,2,3,4,12,"},"geometry":{"type":"Polygon","coordinates":[[[-119.87822,50.07137],[-119.87626,50.06878],[-119.87612,50.06409],[-119.87635,50.06235],[-119.87771,50.05796],[-119.88207,50.05424],[-119.88545,50.05195],[-119.89209,50.04835],[-119.89561,50.04508],[-119.89614,50.04115],[-119.9054,50.03522],[-119.91101,50.03355],[-119.91573,50.03282],[-119.92038,50.03258],[-119.93064,50.03067],[-119.93446,50.03088],[-119.94223,50.03032],[-119.94771,50.02963],[-119.95235,50.02939],[-119.95687,50.03014],[-119.9603,50.0333],[-119.96772,50.04114],[-119.96879,50.04467],[-119.96847,50.04713],[-119.9696,50.05017],[-119.96836,50.05951],[-119.96592,50.06632],[-119.95226,50.06639],[-119.95376,50.06515],[-119.95102,50.06252],[-119.95065,50.05953],[-119.95098,50.05707],[-119.95207,50.05465],[-119.95343,50.05027],[-119.95312,50.04678],[-119.95351,50.04383],[-119.95161,50.04075],[-119.94799,50.03906],[-119.9441,50.03934],[-119.94041,50.03815],[-119.93646,50.03892],[-119.92793,50.03944],[-119.92003,50.04098],[-119.91594,50.04274],[-119.91059,50.04244],[-119.90644,50.04469],[-119.90223,50.04743],[-119.90177,50.05088],[-119.89838,50.05317],[-119.89639,50.05652],[-119.89606,50.05898],[-119.89496,50.0614],[-119.8945,50.06485],[-119.89493,50.06735],[-119.89371,50.07075],[-119.89115,50.07259],[-119.8865,50.07283],[-119.88204,50.07159],[-119.87822,50.07137]]]}},
{"type":"Feature","properties":{"uwr":"u-8-006","unit":"16","sp1":"moose","sp2":null,"species":"Moose","approved":"2006-07-24","ha":9754.1,"months":[1,2,3,4,12],"monthsKey":",1,2,3,4,12,"},"geometry":{"type":"Polygon","coordinates":[[[-120.00345,50.05374],[-120.00925,50.04833],[-120.01589,50.04623],[-120.01863,50.04474],[-120.02526,50.04265],[-120.03074,50.03967],[-120.0337,50.03655],[-120.04161,50.0247],[-120.04077,50.02137],[-120.04257,50.01738],[-120.04079,50.01155],[-120.03743,50.00809],[-120.03017,50.00523],[-120.02134,50.00475],[-120.01398,50.00271],[-120.01041,50.00088],[-120.00662,50.00067],[-119.99927,49.99863],[-119.9918,49.9974],[-119.98686,49.99631],[-119.97814,49.99501],[-119.96953,49.9929],[-119.96322,49.99255],[-119.95586,49.99051],[-119.95168,49.98372],[-119.95074,49.98121],[-119.95128,49.97715],[-119.95802,49.97424],[-119.96191,49.97364],[-119.96959,49.97324],[-119.97243,49.97094],[-119.97927,49.96722],[-119.9797,49.96397],[-119.98266,49.96085],[-119.98687,49.95781],[-119.98982,49.95469],[-119.99529,49.95171],[-119.9995,49.94867],[-120.00298,49.94149],[-120.00204,49.93898],[-120.00499,49.93586],[-120.01119,49.93702],[-120.01086,49.93946],[-120.01296,49.94285],[-120.01264,49.94529],[-120.01494,49.94706],[-120.02755,49.94775],[-120.0327,49.94721],[-120.03795,49.94585],[-120.04299,49.94613],[-120.04782,49.94803],[-120.05139,49.94986],[-120.05485,49.95251],[-120.05842,49.95434],[-120.06294,49.95868],[-120.06713,49.96546],[-120.07081,49.96648],[-120.08594,49.9673],[-120.09246,49.96601],[-120.10002,49.96642],[-120.10276,49.96493],[-120.10307,49.96249],[-120.10465,49.96012],[-120.10496,49.95768],[-120.09688,49.95151],[-120.09604,49.94818],[-120.09667,49.9433],[-120.10003,49.93693],[-120.11516,49.93775],[-120.11883,49.93876],[-120.12261,49.93897],[-120.12618,49.9408],[-120.13616,49.94215],[-120.13616,49.94628],[-120.13819,49.94634],[-120.13828,49.94684],[-120.13909,49.94704],[-120.13922,49.94747],[-120.13884,49.9487],[-120.13762,49.94979],[-120.13684,49.95019],[-120.1359,49.94979],[-120.13571,49.95019],[-120.1367,49.95124],[-120.13712,49.9526],[-120.13803,49.9529],[-120.13793,49.95398],[-120.1388,49.95535],[-120.1386,49.95592],[-120.13749,49.9565],[-120.13744,49.95679],[-120.13896,49.95729],[-120.14088,49.95839],[-120.14278,49.959],[-120.14282,49.95944],[-120.15454,49.95949],[-120.15453,49.98145],[-120.15359,49.98175],[-120.15354,49.98249],[-120.15453,49.98331],[-120.15454,49.98726],[-120.15697,49.98928],[-120.15794,49.9914],[-120.15729,49.99187],[-120.15589,49.99216],[-120.15455,49.99205],[-120.15445,50.00484],[-120.1539,50.0053],[-120.15444,50.00559],[-120.1544,50.00876],[-120.15431,50.0091],[-120.15351,50.0088],[-120.15284,50.00907],[-120.15328,50.01139],[-120.1528,50.01235],[-120.15206,50.01256],[-120.15202,50.01383],[-120.15093,50.01447],[-120.15116,50.01498],[-120.15247,50.01526],[-120.15365,50.01497],[-120.15444,50.01425],[-120.15443,50.01698],[-120.13212,50.01689],[-120.13227,50.03135],[-120.1099,50.03136],[-120.1099,50.01689],[-120.10463,50.01687],[-120.10463,50.0098],[-120.09582,50.0098],[-120.09506,50.0127],[-120.09395,50.01485],[-120.0918,50.01665],[-120.09235,50.01802],[-120.0934,50.01904],[-120.09351,50.01949],[-120.09327,50.02088],[-120.09227,50.02181],[-120.09096,50.0217],[-120.08824,50.02213],[-120.08656,50.02128],[-120.08474,50.02122],[-120.08298,50.02171],[-120.08278,50.02273],[-120.08234,50.02295],[-120.07809,50.02275],[-120.07807,50.02415],[-120.07766,50.02443],[-120.07598,50.02457],[-120.07424,50.02558],[-120.07374,50.02632],[-120.07357,50.02804],[-120.07271,50.02858],[-120.071,50.02846],[-120.06991,50.02869],[-120.06757,50.02826],[-120.06591,50.02773],[-120.0651,50.02678],[-120.06337,50.02714],[-120.06211,50.02684],[-120.06124,50.0269],[-120.05981,50.02746],[-120.05864,50.02802],[-120.05663,50.02989],[-120.05614,50.03052],[-120.05583,50.03222],[-120.05474,50.03266],[-120.05332,50.03375],[-120.05058,50.03434],[-120.04818,50.03564],[-120.04838,50.03603],[-120.04962,50.03678],[-120.04868,50.03692],[-120.04553,50.03828],[-120.04378,50.03955],[-120.04331,50.04009],[-120.04412,50.04212],[-120.04391,50.04269],[-120.04206,50.04269],[-120.04088,50.04317],[-120.03741,50.04363],[-120.03546,50.04279],[-120.03336,50.04274],[-120.03102,50.04363],[-120.02948,50.04466],[-120.02849,50.04448],[-120.02731,50.0446],[-120.0263,50.04508],[-120.02417,50.04736],[-120.02338,50.04922],[-120.02111,50.05008],[-120.02045,50.0501],[-120.02014,50.05158],[-120.01936,50.05241],[-120.01803,50.05235],[-120.01576,50.05327],[-120.01474,50.05344],[-120.01379,50.05438],[-120.01202,50.05465],[-120.01094,50.05515],[-120.0101,50.05512],[-120.00909,50.0546],[-120.00651,50.05485],[-120.00624,50.05739],[-120.00547,50.05815],[-120.00483,50.06026],[-120.00548,50.06185],[-120.00743,50.06399],[-120.00833,50.06638],[-120.00072,50.06634],[-119.99794,50.06655],[-119.99815,50.06492],[-119.99985,50.06174],[-120.00302,50.057],[-120.00345,50.05374]]]}},
{"type":"Feature","properties":{"uwr":"u-8-006","unit":"17","sp1":"moose","sp2":null,"species":"Moose","approved":"2006-07-24","ha":24589.1,"months":[1,2,3,4,12],"monthsKey":",1,2,3,4,12,"},"geometry":{"type":"Polygon","coordinates":[[[-119.12083,49.77373],[-119.11262,49.7747],[-119.10875,49.77744],[-119.10499,49.77944],[-119.10146,49.77997],[-119.09951,49.7776],[-119.09995,49.77465],[-119.10394,49.77117],[-119.10585,49.76606],[-119.10744,49.76318],[-119.10833,49.75727],[-119.11014,49.7529],[-119.1107,49.7492],[-119.10909,49.74462],[-119.10519,49.7399],[-119.102,49.7382],[-119.1005,49.73289],[-119.1015,49.72623],[-119.10081,49.7232],[-119.1017,49.71729],[-119.101,49.71426],[-119.09711,49.70953],[-119.09381,49.70858],[-119.09073,49.70614],[-119.09117,49.70318],[-119.08956,49.6986],[-119.09068,49.69121],[-119.08885,49.68811],[-119.08574,49.67821],[-119.08244,49.67725],[-119.07525,49.67157],[-119.07331,49.6692],[-119.07376,49.66625],[-119.0684,49.6631],[-119.065,49.6623],[-119.06386,49.66291],[-119.06387,49.65286],[-119.09034,49.65287],[-119.09028,49.65165],[-119.08877,49.65137],[-119.0885,49.65098],[-119.08888,49.65063],[-119.08884,49.65017],[-119.08813,49.64965],[-119.0879,49.64833],[-119.08824,49.64765],[-119.089,49.64726],[-119.08923,49.64666],[-119.08985,49.64627],[-119.09191,49.6469],[-119.09308,49.64657],[-119.09307,49.64465],[-119.09402,49.64405],[-119.09398,49.64351],[-119.09526,49.64275],[-119.09482,49.64001],[-119.09472,49.63821],[-119.09497,49.63785],[-119.09635,49.63768],[-119.09762,49.63811],[-119.09886,49.63667],[-119.10061,49.63642],[-119.10182,49.6367],[-119.10297,49.63647],[-119.10396,49.63658],[-119.10696,49.63748],[-119.10871,49.63726],[-119.10924,49.637],[-119.11755,49.63799],[-119.12144,49.63744],[-119.12271,49.63697],[-119.12275,49.63628],[-119.12371,49.63588],[-119.12386,49.6349],[-119.12453,49.63397],[-119.12647,49.63233],[-119.1279,49.63053],[-119.12743,49.62958],[-119.12637,49.62907],[-119.12307,49.6292],[-119.12234,49.62886],[-119.12159,49.62803],[-119.12123,49.62695],[-119.12121,49.62532],[-119.12166,49.62464],[-119.123,49.62381],[-119.12356,49.62304],[-119.12482,49.62231],[-119.12498,49.62173],[-119.12423,49.62063],[-119.12534,49.61867],[-119.12676,49.61745],[-119.12691,49.61702],[-119.12559,49.61592],[-119.12628,49.61513],[-119.1268,49.61493],[-119.12768,49.61344],[-119.12771,49.61282],[-119.12876,49.61206],[-119.12874,49.61],[-119.12953,49.60936],[-119.13134,49.60926],[-119.13218,49.60891],[-119.13291,49.60782],[-119.13257,49.60555],[-119.13178,49.60505],[-119.13118,49.60374],[-119.13144,49.60305],[-119.13187,49.6029],[-119.13248,49.60197],[-119.13443,49.60107],[-119.13437,49.59921],[-119.13465,49.5986],[-119.13544,49.5984],[-119.13633,49.59851],[-119.13739,49.59818],[-119.13734,49.59701],[-119.13677,49.59566],[-119.13724,49.59539],[-119.13723,49.59431],[-119.13904,49.59349],[-119.1392,49.59276],[-119.14075,49.59084],[-119.1412,49.58944],[-119.14178,49.58878],[-119.14224,49.58836],[-119.14419,49.5876],[-119.14519,49.58592],[-119.14611,49.58549],[-119.14602,49.58427],[-119.14501,49.5838],[-119.14413,49.58187],[-119.14331,49.58117],[-119.14241,49.58086],[-119.14166,49.57965],[-119.14224,49.57883],[-119.1422,49.57804],[-119.1431,49.57729],[-119.14562,49.57609],[-119.14985,49.57699],[-119.15127,49.57675],[-119.15243,49.57602],[-119.15379,49.57437],[-119.15523,49.57378],[-119.15916,49.57073],[-119.16196,49.5689],[-119.16313,49.5673],[-119.16262,49.56717],[-119.16273,49.56693],[-119.1621,49.56639],[-119.15999,49.56592],[-119.16012,49.56456],[-119.16103,49.56293],[-119.16201,49.56235],[-119.16282,49.56139],[-119.16359,49.56112],[-119.16475,49.56109],[-119.16901,49.55708],[-119.16932,49.55609],[-119.18648,49.5367],[-119.18635,49.52852],[-119.19431,49.52757],[-119.20156,49.52504],[-119.2061,49.52532],[-119.20928,49.52701],[-119.20775,49.53737],[-119.20959,49.54047],[-119.21278,49.54216],[-119.21347,49.54519],[-119.21644,49.54836],[-119.21952,49.5508],[-119.22022,49.55383],[-119.22048,49.55981],[-119.22448,49.56379],[-119.23622,49.56975],[-119.24157,49.57233],[-119.24589,49.57409],[-119.25044,49.57437],[-119.25682,49.57775],[-119.25877,49.58011],[-119.26185,49.58254],[-119.26245,49.58631],[-119.26326,49.5886],[-119.26239,49.59452],[-119.26439,49.60435],[-119.26612,49.60819],[-119.26888,49.61283],[-119.27197,49.61527],[-119.2763,49.61703],[-119.27982,49.6165],[-119.28302,49.61819],[-119.28746,49.61921],[-119.29044,49.62238],[-119.29,49.62534],[-119.28843,49.62823],[-119.28789,49.63192],[-119.28952,49.6365],[-119.28887,49.64094],[-119.28708,49.64531],[-119.28562,49.64746],[-119.28107,49.64717],[-119.27776,49.64622],[-119.27424,49.64675],[-119.26947,49.64795],[-119.26253,49.64827],[-119.25858,49.65175],[-119.25689,49.65538],[-119.25261,49.66108],[-119.25217,49.66404],[-119.25299,49.66633],[-119.25141,49.66922],[-119.24642,49.67189],[-119.24485,49.67478],[-119.24224,49.67686],[-119.2392,49.68189],[-119.2366,49.68397],[-119.23502,49.68686],[-119.23025,49.68805],[-119.22742,49.69161],[-119.22585,49.69449],[-119.2253,49.69819],[-119.22009,49.70234],[-119.21726,49.7059],[-119.21682,49.70886],[-119.21084,49.71818],[-119.2104,49.72114],[-119.21235,49.7235],[-119.21181,49.7272],[-119.21343,49.73178],[-119.2163,49.73569],[-119.21689,49.73946],[-119.21623,49.74389],[-119.21683,49.74766],[-119.22095,49.7509],[-119.21926,49.75453],[-119.21654,49.75734],[-119.21545,49.76474],[-119.21604,49.76851],[-119.21457,49.77065],[-119.21082,49.77266],[-119.20717,49.77392],[-119.20445,49.77674],[-119.2007,49.77874],[-119.19798,49.78156],[-119.19536,49.78363],[-119.19036,49.78631],[-119.18682,49.78683],[-119.18351,49.78588],[-119.17916,49.78411],[-119.1714,49.78213],[-119.16433,49.78318],[-119.15122,49.78609],[-119.13525,49.78509],[-119.12884,49.7817],[-119.12391,49.77616],[-119.12083,49.77373]]]}},
{"type":"Feature","properties":{"uwr":"u-8-006","unit":"18","sp1":"moose","sp2":null,"species":"Moose","approved":"2006-07-24","ha":1168.1,"months":[1,2,3,4,12],"monthsKey":",1,2,3,4,12,"},"geometry":{"type":"Polygon","coordinates":[[[-119.53403,49.69869],[-119.53488,49.69562],[-119.53694,49.69085],[-119.53743,49.68873],[-119.5372,49.68718],[-119.53575,49.6843],[-119.53555,49.68312],[-119.53739,49.68133],[-119.54052,49.6795],[-119.55092,49.67534],[-119.55778,49.67447],[-119.57541,49.66973],[-119.57915,49.66934],[-119.58262,49.66988],[-119.58447,49.67194],[-119.58531,49.67563],[-119.58464,49.68705],[-119.58405,49.6891],[-119.58309,49.69031],[-119.58105,49.69154],[-119.57457,49.69351],[-119.57053,49.69629],[-119.56942,49.69631],[-119.56806,49.69549],[-119.56597,49.69569],[-119.56232,49.69657],[-119.55875,49.69829],[-119.55812,49.69931],[-119.55827,49.70113],[-119.55999,49.70559],[-119.56136,49.70776],[-119.56164,49.70894],[-119.56108,49.70991],[-119.55731,49.71188],[-119.55571,49.71233],[-119.55471,49.71224],[-119.55242,49.71095],[-119.55197,49.71001],[-119.55155,49.7075],[-119.55112,49.70697],[-119.55033,49.70684],[-119.54945,49.70737],[-119.54809,49.70896],[-119.54667,49.71283],[-119.54543,49.71446],[-119.54357,49.71585],[-119.54236,49.71624],[-119.54148,49.71625],[-119.53915,49.71545],[-119.5343,49.7127],[-119.53352,49.71196],[-119.53282,49.71104],[-119.53262,49.71022],[-119.53396,49.7032],[-119.53403,49.69869]]]}}
]}
