{"type":"FeatureCollection","features":[
{"type":"Feature","properties":{"spotId":"G-camp-camp-0038","kind":"walk","km":0.17,"climbM":0,"name":"150 m N of Upper Arrow Lake","flags":[]},"geometry":{"type":"LineString","coordinates":[[-117.71426,50.75907],[-117.71568,50.75779]]}},
{"type":"Feature","properties":{"spotId":"G-camp-camp-0051","kind":"walk","km":0.02,"climbM":0,"name":"180 m N of Bullard Creek","flags":[]},"geometry":{"type":"LineString","coordinates":[[-117.60264,50.93468],[-117.6024,50.93471]]}},
{"type":"Feature","properties":{"spotId":"G-camp-camp-0069","kind":"walk","km":0.23,"climbM":0,"name":"180 m SE of Incomappleux River","flags":[]},"geometry":{"type":"LineString","coordinates":[[-117.63142,50.80693],[-117.63331,50.80861]]}},
{"type":"Feature","properties":{"spotId":"G-deer-drive-0041","kind":"walk","km":0.08,"climbM":6,"name":"280 m NW of Upper Arrow Lake","flags":[]},"geometry":{"type":"LineString","coordinates":[[-117.72895,50.75908],[-117.7282,50.75956]]}},
{"type":"Feature","properties":{"spotId":"G-deer-walk-0058","kind":"walk","km":0.86,"climbM":253,"name":"410 m SW of Town Creek","flags":[]},"geometry":{"type":"LineString","coordinates":[[-117.7468,50.76394],[-117.7459,50.77161]]}},
{"type":"Feature","properties":{"spotId":"G-deer-walk-0086","kind":"walk","km":0.86,"climbM":722,"name":"780 m NW of Incomappleux River","flags":[]},"geometry":{"type":"LineString","coordinates":[[-117.66233,50.78271],[-117.66991,50.78874]]}},
{"type":"Feature","properties":{"spotId":"G-duck-drive-0093","kind":"walk","km":0.28,"climbM":0,"name":"Unnamed wetland 630 m SW of Mackinnon Creek","flags":[]},"geometry":{"type":"LineString","coordinates":[[-117.71055,50.76715],[-117.70856,50.7693]]}},
{"type":"Feature","properties":{"spotId":"G-grouse-atv-0073","kind":"ride","km":5.69,"climbM":97,"name":"410 m E of Incomappleux River","flags":[]},"geometry":{"type":"LineString","coordinates":[[-117.62137,50.83469],[-117.62137,50.83476],[-117.62136,50.83484],[-117.62136,50.83499],[-117.62136,50.83514],[-117.62138,50.83521],[-117.62138,50.83529],[-117.62142,50.83538],[-117.62147,50.83549],[-117.62153,50.83558],[-117.62157,50.83566],[-117.62163,50.83573],[-117.62171,50.83586],[-117.62189,50.83605],[-117.62209,50.83622],[-117.62216,50.8363],[-117.62223,50.83636],[-117.6223,50.83644],[-117.62263,50.83676],[-117.62272,50.83685],[-117.62295,50.83713],[-117.6231,50.83732],[-117.6231,50.83733],[-117.62333,50.83767],[-117.62337,50.83777],[-117.62343,50.83802],[-117.62346,50.83819],[-117.62347,50.83859],[-117.62346,50.83868],[-117.62346,50.83876],[-117.62342,50.83895],[-117.62339,50.8391],[-117.62334,50.83932],[-117.6233,50.83958],[-117.62324,50.83976],[-117.6232,50.83986],[-117.62312,50.84003],[-117.62309,50.8401],[-117.62304,50.8402],[-117.62298,50.84027],[-117.62294,50.84034],[-117.62278,50.84052],[-117.6227,50.8406],[-117.62249,50.84082],[-117.62243,50.84089],[-117.62238,50.84097],[-117.62227,50.84111],[-117.62221,50.84117],[-117.62217,50.84122],[-117.62211,50.84137],[-117.62209,50.84157],[-117.62209,50.84161],[-117.6221,50.84166],[-117.6221,50.84175],[-117.62213,50.84183],[-117.62215,50.8419],[-117.62215,50.84197],[-117.62217,50.84204],[-117.62217,50.84211],[-117.62215,50.84219],[-117.62216,50.84241],[-117.62214,50.84247],[-117.62213,50.84248],[-117.6221,50.84262],[-117.62206,50.84272],[-117.62205,50.8428],[-117.62202,50.84287],[-117.62198,50.84293],[-117.62195,50.84301],[-117.62191,50.84309],[-117.62185,50.84318],[-117.62174,50.84334],[-117.6217,50.84341],[-117.62163,50.84348],[-117.62153,50.84356],[-117.62142,50.84365],[-117.62129,50.84373],[-117.62105,50.8439],[-117.62087,50.84402],[-117.62079,50.84408],[-117.62073,50.84412],[-117.62062,50.8442],[-117.62052,50.84428],[-117.62041,50.84436],[-117.62028,50.84444],[-117.62015,50.84454],[-117.62005,50.8446],[-117.6199,50.8447],[-117.61983,50.84475],[-117.61965,50.84487],[-117.61958,50.84492],[-117.61952,50.84498],[-117.61945,50.84502],[-117.61938,50.84506],[-117.61931,50.84511],[-117.61924,50.84514],[-117.61913,50.84523],[-117.61908,50.8453],[-117.61906,50.84537],[-117.61904,50.84543],[-117.61904,50.84555],[-117.61902,50.84568],[-117.61896,50.8458],[-117.61895,50.84584],[-117.61889,50.84589],[-117.61886,50.84592],[-117.61881,50.84594],[-117.6187,50.84599],[-117.61861,50.84602],[-117.6185,50.84606],[-117.61827,50.84612],[-117.61819,50.84616],[-117.61813,50.84622],[-117.61809,50.84628],[-117.61808,50.84634],[-117.61805,50.8464],[-117.61801,50.84658],[-117.61795,50.8467],[-117.6179,50.84685],[-117.61787,50.84695],[-117.61787,50.84726],[-117.61789,50.84733],[-117.61789,50.84743],[-117.61791,50.84748],[-117.61791,50.84753],[-117.61795,50.84771],[-117.61795,50.84777],[-117.61797,50.84785],[-117.61797,50.84809],[-117.61796,50.84817],[-117.61796,50.84827],[-117.61792,50.84849],[-117.61792,50.84855],[-117.61795,50.84866],[-117.61804,50.84882],[-117.61809,50.84886],[-117.61817,50.84892],[-117.61834,50.84903],[-117.61844,50.84909],[-117.61857,50.84923],[-117.61863,50.84928],[-117.6187,50.84939],[-117.61874,50.84944],[-117.61881,50.84951],[-117.6189,50.84957],[-117.619,50.84965],[-117.61907,50.84972],[-117.61914,50.84982],[-117.61922,50.84996],[-117.61926,50.8501],[-117.61929,50.85022],[-117.61929,50.8505],[-117.61928,50.85063],[-117.61928,50.85075],[-117.61927,50.85086],[-117.61928,50.85115],[-117.61929,50.85122],[-117.61932,50.85129],[-117.61936,50.85136],[-117.61942,50.85144],[-117.61949,50.85153],[-117.61957,50.8516],[-117.61964,50.85166],[-117.61981,50.85177],[-117.61984,50.85178],[-117.61999,50.85187],[-117.62025,50.85201],[-117.62037,50.85208],[-117.62047,50.85215],[-117.62058,50.85222],[-117.62067,50.8523],[-117.62083,50.85246],[-117.62088,50.85253],[-117.62094,50.8526],[-117.62099,50.85267],[-117.6211,50.8529],[-117.62118,50.85303],[-117.62135,50.85349],[-117.62142,50.85361],[-117.62154,50.85386],[-117.62161,50.85397],[-117.62161,50.85398],[-117.62166,50.85406],[-117.62169,50.85413],[-117.62174,50.85421],[-117.62177,50.85429],[-117.62179,50.85431],[-117.62196,50.85466],[-117.62208,50.85487],[-117.6222,50.85529],[-117.62223,50.8554],[-117.62225,50.85551],[-117.62228,50.85562],[-117.6223,50.85571],[-117.62235,50.85582],[-117.62238,50.85593],[-117.62242,50.85605],[-117.62251,50.85627],[-117.6226,50.85653],[-117.62269,50.85675],[-117.62272,50.85687],[-117.62275,50.85709],[-117.62271,50.85737],[-117.62271,50.85747],[-117.62274,50.85759],[-117.62277,50.85768],[-117.6228,50.85771],[-117.62284,50.85781],[-117.62289,50.85787],[-117.62292,50.85794],[-117.62295,50.85802],[-117.62296,50.85811],[-117.62296,50.8582],[-117.62295,50.85829],[-117.62292,50.85837],[-117.62287,50.85847],[-117.62283,50.85852],[-117.6228,50.85859],[-117.62277,50.85866],[-117.62277,50.85868],[-117.62274,50.85881],[-117.62275,50.85939],[-117.62277,50.85948],[-117.6228,50.85961],[-117.62287,50.85975],[-117.62294,50.85983],[-117.62304,50.85996],[-117.62313,50.86005],[-117.62329,50.8602],[-117.62336,50.86028],[-117.62345,50.86043],[-117.62351,50.86051],[-117.62353,50.86058],[-117.62358,50.86064],[-117.62362,50.86069],[-117.62371,50.86085],[-117.62377,50.86099],[-117.62378,50.86105],[-117.62378,50.86121],[-117.62377,50.86132],[-117.62375,50.86145],[-117.6237,50.86158],[-117.62366,50.86168],[-117.62361,50.86178],[-117.62355,50.86186],[-117.62329,50.86215],[-117.6232,50.86227],[-117.62316,50.86233],[-117.62313,50.8624],[-117.62309,50.86245],[-117.62308,50.8625],[-117.62304,50.86257],[-117.62299,50.86266],[-117.62294,50.86274],[-117.6229,50.86284],[-117.62287,50.86287],[-117.6228,50.86299],[-117.62279,50.86303],[-117.62276,50.86306],[-117.62273,50.86311],[-117.62269,50.86316],[-117.62266,50.86319],[-117.62265,50.86322],[-117.62253,50.86334],[-117.62245,50.86344],[-117.62238,50.86352],[-117.6223,50.86361],[-117.62221,50.86369],[-117.62213,50.86378],[-117.62209,50.86383],[-117.62206,50.86388],[-117.62197,50.86397],[-117.62189,50.86406],[-117.62182,50.86414],[-117.62176,50.8642],[-117.62169,50.86427],[-117.62162,50.86433],[-117.62153,50.8644],[-117.62141,50.86448],[-117.62133,50.86456],[-117.62124,50.86461],[-117.62123,50.86462],[-117.62116,50.86467],[-117.62109,50.86473],[-117.62102,50.86477],[-117.62091,50.86484],[-117.62078,50.8649],[-117.62064,50.86495],[-117.62048,50.86502],[-117.62034,50.86508],[-117.62021,50.86511],[-117.62007,50.86515],[-117.61992,50.86517],[-117.61975,50.8652],[-117.61955,50.86522],[-117.61939,50.86523],[-117.61926,50.86523],[-117.61913,50.86524],[-117.61902,50.86524],[-117.61889,50.86524],[-117.61879,50.86524],[-117.61869,50.86523],[-117.61859,50.86524],[-117.61851,50.86524],[-117.61841,50.86524],[-117.6183,50.86524],[-117.61818,50.86523],[-117.61805,50.86523],[-117.61793,50.86522],[-117.61776,50.86521],[-117.61764,50.8652],[-117.61753,50.8652],[-117.61743,50.86519],[-117.61734,50.86519],[-117.61724,50.86519],[-117.61712,50.86519],[-117.61699,50.86521],[-117.61686,50.86523],[-117.61673,50.86525],[-117.61662,50.86528],[-117.61648,50.86534],[-117.61634,50.86538],[-117.61621,50.86545],[-117.61605,50.86551],[-117.61589,50.86557],[-117.61574,50.86562],[-117.61562,50.86566],[-117.6155,50.86569],[-117.61539,50.86572],[-117.61528,50.86574],[-117.61516,50.86577],[-117.61505,50.86579],[-117.61495,50.86582],[-117.61482,50.86585],[-117.61472,50.86589],[-117.6146,50.86593],[-117.61447,50.86599],[-117.61434,50.86604],[-117.61419,50.86609],[-117.61402,50.86616],[-117.61383,50.86621],[-117.61368,50.86626],[-117.61354,50.8663],[-117.61339,50.86633],[-117.61325,50.86636],[-117.61311,50.8664],[-117.61295,50.86643],[-117.6128,50.86645],[-117.61263,50.86649],[-117.61247,50.86652],[-117.61242,50.86653],[-117.61232,50.86655],[-117.61215,50.86657],[-117.61199,50.8666],[-117.61183,50.86663],[-117.61159,50.86668],[-117.61155,50.86669],[-117.61141,50.86673],[-117.61125,50.86678],[-117.6111,50.86685],[-117.61091,50.86692],[-117.61072,50.867],[-117.61056,50.86707],[-117.61042,50.86713],[-117.61029,50.86719],[-117.61015,50.86727],[-117.60997,50.86738],[-117.6098,50.86748],[-117.60963,50.86758],[-117.60948,50.86768],[-117.60932,50.86777],[-117.60921,50.86784],[-117.60908,50.86791],[-117.60897,50.86798],[-117.60884,50.86807],[-117.60871,50.86818],[-117.60862,50.86828],[-117.60852,50.86836],[-117.60845,50.86844],[-117.60838,50.86853],[-117.60835,50.86855],[-117.60831,50.86862],[-117.60822,50.8687],[-117.60815,50.86878],[-117.6081,50.86885],[-117.60803,50.86893],[-117.60797,50.86901],[-117.60789,50.86911],[-117.6078,50.86922],[-117.60773,50.86934],[-117.60767,50.86946],[-117.60758,50.86959],[-117.60751,50.86969],[-117.60744,50.86977],[-117.60739,50.86985],[-117.60734,50.86993],[-117.60729,50.87002],[-117.60726,50.87011],[-117.60723,50.87017],[-117.60721,50.87024],[-117.60718,50.8703],[-117.60714,50.87036],[-117.60708,50.87041],[-117.60702,50.87046],[-117.60695,50.8705],[-117.60688,50.87056],[-117.60681,50.87062],[-117.60672,50.87071],[-117.60665,50.87079],[-117.60659,50.87086],[-117.60653,50.87095],[-117.60648,50.87104],[-117.60641,50.87114],[-117.60634,50.87124],[-117.60627,50.87133],[-117.60621,50.87142],[-117.60616,50.87151],[-117.6061,50.8716],[-117.60603,50.8717],[-117.60599,50.87179],[-117.60593,50.87189],[-117.60587,50.87201],[-117.60582,50.87213],[-117.60577,50.87224],[-117.60573,50.87234],[-117.60569,50.87243],[-117.60564,50.87256],[-117.6056,50.87267],[-117.60558,50.87278],[-117.60555,50.87288],[-117.60552,50.87297],[-117.60551,50.87306],[-117.6055,50.87314],[-117.60548,50.8732],[-117.60547,50.87328],[-117.60546,50.87336],[-117.60544,50.87343],[-117.60544,50.87346],[-117.60543,50.87351],[-117.60543,50.87358],[-117.60542,50.87365],[-117.6054,50.87372],[-117.60538,50.87379],[-117.60533,50.87387],[-117.60529,50.87395],[-117.60527,50.87402],[-117.60522,50.87407],[-117.60517,50.87414],[-117.60514,50.87419],[-117.6051,50.87424],[-117.60506,50.8743],[-117.605,50.87436],[-117.60496,50.87443],[-117.60489,50.87454],[-117.60485,50.87465],[-117.60479,50.87475],[-117.60475,50.87485],[-117.60472,50.87493],[-117.6047,50.875],[-117.60468,50.87507],[-117.60467,50.87515],[-117.60464,50.87521],[-117.60463,50.87528],[-117.60459,50.87537],[-117.60456,50.87545],[-117.60453,50.87554],[-117.6045,50.87563],[-117.60448,50.87575],[-117.60445,50.87586],[-117.60444,50.87595],[-117.60442,50.87604],[-117.60441,50.87612],[-117.60441,50.8762],[-117.60443,50.87626],[-117.60444,50.87633],[-117.60446,50.87639],[-117.60449,50.87646],[-117.6045,50.87652],[-117.60453,50.87663],[-117.60453,50.87672],[-117.60454,50.87689]]}},
{"type":"Feature","properties":{"spotId":"G-grouse-drive-0067","kind":"roadside","km":5.8,"climbM":56,"name":"300 m N of Incomappleux River","flags":[]},"geometry":{"type":"LineString","coordinates":[[-117.62768,50.84856],[-117.62766,50.84859],[-117.62758,50.84869],[-117.62751,50.84879],[-117.62743,50.84888],[-117.62737,50.84896],[-117.62732,50.84904],[-117.62725,50.84912],[-117.62719,50.84921],[-117.62713,50.8493],[-117.62708,50.84942],[-117.62705,50.84947],[-117.62698,50.84961],[-117.62694,50.84977],[-117.62692,50.84992],[-117.62692,50.8501],[-117.62692,50.8502],[-117.62692,50.85028],[-117.62694,50.85036],[-117.62694,50.85044],[-117.62695,50.85051],[-117.627,50.85063],[-117.62705,50.85075],[-117.62713,50.85086],[-117.62721,50.85098],[-117.62731,50.85109],[-117.6274,50.85118],[-117.6275,50.85126],[-117.62759,50.85133],[-117.6277,50.85142],[-117.62785,50.85152],[-117.62803,50.85167],[-117.62821,50.8518],[-117.62836,50.85192],[-117.62849,50.85203],[-117.62864,50.85214],[-117.62874,50.85221],[-117.62884,50.85228],[-117.62894,50.85237],[-117.62904,50.85245],[-117.62917,50.85253],[-117.62933,50.85268],[-117.62947,50.85279],[-117.6296,50.8529],[-117.62974,50.85303],[-117.62981,50.85309],[-117.62991,50.85316],[-117.63004,50.85327],[-117.63016,50.85337],[-117.63027,50.85345],[-117.63039,50.85354],[-117.6305,50.85362],[-117.63065,50.85373],[-117.63079,50.85385],[-117.63095,50.85396],[-117.63111,50.85408],[-117.63128,50.8542],[-117.63139,50.85428],[-117.63151,50.85436],[-117.63161,50.85444],[-117.63172,50.85452],[-117.63182,50.85463],[-117.63192,50.85474],[-117.63201,50.85484],[-117.63207,50.85494],[-117.63213,50.85503],[-117.63217,50.85512],[-117.63219,50.85521],[-117.6322,50.85531],[-117.6322,50.85541],[-117.63219,50.8555],[-117.63213,50.8556],[-117.63207,50.85575],[-117.63197,50.85587],[-117.63186,50.85598],[-117.63173,50.8561],[-117.63159,50.85624],[-117.63149,50.85635],[-117.63139,50.85645],[-117.63131,50.85655],[-117.63123,50.85664],[-117.63114,50.85673],[-117.63104,50.85684],[-117.63093,50.85695],[-117.6308,50.85708],[-117.63069,50.85719],[-117.63055,50.85732],[-117.63041,50.85747],[-117.63029,50.85758],[-117.63017,50.85771],[-117.63003,50.85784],[-117.62991,50.85799],[-117.62978,50.85813],[-117.62968,50.85824],[-117.62959,50.85836],[-117.62949,50.85847],[-117.62939,50.85858],[-117.62926,50.85869],[-117.62922,50.85874],[-117.62914,50.85881],[-117.62901,50.85893],[-117.62887,50.85906],[-117.62874,50.85919],[-117.62867,50.85927],[-117.62863,50.85931],[-117.62853,50.85943],[-117.62845,50.85953],[-117.62835,50.85964],[-117.62824,50.85977],[-117.62814,50.85987],[-117.62806,50.85996],[-117.62797,50.86005],[-117.6279,50.86012],[-117.62781,50.8602],[-117.62772,50.86027],[-117.62762,50.86033],[-117.62753,50.8604],[-117.62743,50.86047],[-117.62734,50.86052],[-117.62685,50.86077],[-117.62617,50.86115],[-117.62565,50.86142],[-117.6254,50.8617],[-117.62538,50.86172],[-117.6253,50.86201],[-117.62515,50.8623],[-117.62511,50.86273],[-117.62522,50.86309],[-117.62528,50.86335],[-117.62532,50.86351],[-117.62535,50.86364],[-117.62506,50.86395],[-117.62495,50.86428],[-117.62477,50.86448],[-117.62478,50.8648],[-117.62474,50.86486],[-117.62448,50.86514],[-117.6241,50.86555],[-117.62396,50.86581],[-117.62385,50.86602],[-117.62382,50.86609],[-117.62356,50.86639],[-117.62345,50.86681],[-117.62349,50.86707],[-117.62351,50.86715],[-117.62358,50.86751],[-117.62356,50.86787],[-117.62356,50.86791],[-117.6233,50.86824],[-117.62293,50.86858],[-117.62258,50.86884],[-117.6219,50.86917],[-117.6212,50.86955],[-117.62057,50.86985],[-117.61995,50.87012],[-117.61947,50.87051],[-117.61915,50.871],[-117.61895,50.87165],[-117.61886,50.87214],[-117.61871,50.87276],[-117.61876,50.87327],[-117.61899,50.87387],[-117.61904,50.87449],[-117.61905,50.87494],[-117.61885,50.87513],[-117.61871,50.87528],[-117.61823,50.87556],[-117.61814,50.87562],[-117.61805,50.87568],[-117.61795,50.87574],[-117.61784,50.87581],[-117.61771,50.87587],[-117.61764,50.8759],[-117.61761,50.87591],[-117.61751,50.87595],[-117.61743,50.87598],[-117.61734,50.87601],[-117.61725,50.87605],[-117.61715,50.87611],[-117.61705,50.87616],[-117.61696,50.87621],[-117.61688,50.87625],[-117.61681,50.87631],[-117.61674,50.87636],[-117.61665,50.87642],[-117.61658,50.8765],[-117.6165,50.87658],[-117.61643,50.87667],[-117.61635,50.87677],[-117.61628,50.87685],[-117.61626,50.87687],[-117.61622,50.87693],[-117.61616,50.877],[-117.61612,50.87709],[-117.61605,50.87722],[-117.616,50.87734],[-117.61594,50.87745],[-117.6159,50.87756],[-117.61586,50.87767],[-117.61586,50.87776],[-117.61585,50.87785],[-117.61585,50.87795],[-117.61585,50.87805],[-117.61585,50.87816],[-117.61585,50.87828],[-117.61584,50.87836],[-117.61584,50.87845],[-117.61584,50.87854],[-117.61583,50.87864],[-117.61583,50.8787],[-117.61582,50.87874],[-117.61582,50.87877],[-117.6158,50.87883],[-117.6158,50.87888],[-117.61582,50.87895],[-117.61585,50.87898],[-117.61588,50.87904],[-117.61595,50.87912],[-117.61604,50.87921],[-117.61615,50.87929],[-117.61624,50.87939],[-117.6163,50.87946],[-117.61637,50.87956],[-117.61641,50.87964],[-117.61644,50.87972],[-117.61644,50.87982],[-117.61643,50.87989],[-117.61642,50.87996],[-117.61639,50.88002],[-117.61636,50.88009],[-117.61632,50.88014],[-117.61621,50.88022],[-117.61608,50.8803],[-117.61594,50.88038],[-117.61575,50.88044],[-117.61558,50.8805],[-117.61546,50.88056],[-117.61536,50.88059],[-117.61525,50.88064],[-117.61513,50.88069],[-117.61498,50.88072],[-117.61483,50.88076],[-117.61469,50.88079],[-117.61457,50.88081],[-117.61445,50.88084],[-117.61434,50.88086],[-117.61421,50.88089],[-117.61407,50.88091],[-117.61393,50.88093],[-117.61379,50.88096],[-117.61364,50.88099],[-117.61347,50.88103],[-117.61332,50.88105],[-117.61316,50.88109],[-117.61301,50.88114],[-117.61284,50.88119],[-117.61272,50.88124],[-117.61262,50.88128],[-117.61252,50.88133],[-117.61244,50.88136],[-117.61236,50.88141],[-117.61217,50.8815],[-117.61199,50.88159],[-117.6118,50.88169],[-117.61162,50.88179],[-117.61155,50.88184],[-117.61145,50.88189],[-117.61135,50.88196],[-117.61125,50.88202],[-117.61116,50.88209],[-117.61104,50.88217],[-117.61092,50.88227],[-117.61075,50.8824],[-117.61061,50.88251],[-117.61049,50.88262],[-117.61037,50.88271],[-117.61026,50.8828],[-117.61014,50.88287],[-117.61002,50.88294],[-117.60989,50.88301],[-117.60976,50.88309],[-117.60961,50.88317],[-117.60949,50.88325],[-117.60935,50.88333],[-117.60923,50.88342],[-117.60908,50.88352],[-117.60892,50.88362],[-117.60886,50.88366],[-117.6088,50.8837],[-117.60872,50.88377],[-117.60863,50.88382],[-117.60854,50.88389],[-117.60842,50.88395],[-117.60832,50.88401],[-117.60822,50.88407],[-117.60813,50.88412],[-117.60806,50.88417],[-117.60796,50.88421],[-117.6079,50.88424],[-117.60783,50.88428],[-117.60777,50.8843],[-117.6077,50.88435],[-117.60763,50.88439],[-117.60756,50.88443],[-117.60752,50.88446],[-117.60748,50.88449],[-117.60743,50.88452],[-117.60738,50.88456],[-117.60728,50.88462],[-117.60719,50.88467],[-117.6071,50.88471],[-117.60701,50.88476],[-117.60693,50.88478],[-117.60683,50.88481],[-117.60674,50.88485],[-117.60664,50.88487],[-117.60653,50.88489],[-117.6064,50.88493],[-117.60625,50.88496],[-117.60612,50.885],[-117.60601,50.88503],[-117.60588,50.88506],[-117.60574,50.88508],[-117.60557,50.88509],[-117.60541,50.88509],[-117.60525,50.88508],[-117.60511,50.88507],[-117.60497,50.88508],[-117.60485,50.88509],[-117.60476,50.88511],[-117.60463,50.88514],[-117.6045,50.88517],[-117.60434,50.88519],[-117.60413,50.88524],[-117.60396,50.88527],[-117.60381,50.8853],[-117.60365,50.88533],[-117.60348,50.88537],[-117.60325,50.88541],[-117.60304,50.88546],[-117.60284,50.88552],[-117.60277,50.88552],[-117.60264,50.88555],[-117.60244,50.8856],[-117.60229,50.88563],[-117.60212,50.88565],[-117.60195,50.88568],[-117.60175,50.88572],[-117.60155,50.88576],[-117.60139,50.88579],[-117.60125,50.88581],[-117.60113,50.88584],[-117.601,50.88588],[-117.60086,50.88593],[-117.60077,50.88598],[-117.60067,50.88602],[-117.6006,50.88607],[-117.60052,50.88611],[-117.60046,50.88616],[-117.60039,50.88621],[-117.60032,50.88627],[-117.60025,50.88635],[-117.60019,50.88642],[-117.60012,50.88651],[-117.60005,50.8866],[-117.6,50.88667],[-117.59994,50.88674],[-117.59989,50.88683],[-117.59982,50.88691],[-117.59975,50.887],[-117.59968,50.88708],[-117.59965,50.88712],[-117.59961,50.88717],[-117.59955,50.88724],[-117.5995,50.88732],[-117.59944,50.88739],[-117.5994,50.88747],[-117.59934,50.88754],[-117.59927,50.88762],[-117.5992,50.88772],[-117.59912,50.88781],[-117.59906,50.88788],[-117.59901,50.88795],[-117.59895,50.88803],[-117.59888,50.88811],[-117.5988,50.88819],[-117.59873,50.88827],[-117.59866,50.88835],[-117.59859,50.88842],[-117.59852,50.88851],[-117.59843,50.88859],[-117.59836,50.88867],[-117.59829,50.88875],[-117.59822,50.88883],[-117.59815,50.8889],[-117.59809,50.88898],[-117.59805,50.88906],[-117.598,50.88913],[-117.59795,50.88919]]}},
{"type":"Feature","properties":{"spotId":"G-grouse-drive-0076","kind":"roadside","km":3.58,"climbM":141,"name":"280 m SE of Bullard Creek","flags":[]},"geometry":{"type":"LineString","coordinates":[[-117.60081,50.9306],[-117.60089,50.93056],[-117.60095,50.93054],[-117.60099,50.93052],[-117.60103,50.9305],[-117.60107,50.93048],[-117.60112,50.93046],[-117.60116,50.93042],[-117.60119,50.93039],[-117.60122,50.93034],[-117.60124,50.93032],[-117.60127,50.93027],[-117.6013,50.93022],[-117.60131,50.93015],[-117.60131,50.9301],[-117.60133,50.93004],[-117.60134,50.92997],[-117.60134,50.92992],[-117.60135,50.92986],[-117.60135,50.9298],[-117.60136,50.92976],[-117.60136,50.9297],[-117.60136,50.92961],[-117.60136,50.92954],[-117.60137,50.92947],[-117.60137,50.92941],[-117.60139,50.92935],[-117.60141,50.92929],[-117.60144,50.92923],[-117.60147,50.92916],[-117.60148,50.92909],[-117.6015,50.92902],[-117.60151,50.92895],[-117.60151,50.92888],[-117.60151,50.92881],[-117.60151,50.92874],[-117.60152,50.92867],[-117.60152,50.92859],[-117.60153,50.92852],[-117.60155,50.92844],[-117.60155,50.92839],[-117.60155,50.92835],[-117.60154,50.9283],[-117.60154,50.92825],[-117.60154,50.92819],[-117.60154,50.92814],[-117.60154,50.92807],[-117.60154,50.928],[-117.60155,50.92793],[-117.60155,50.92787],[-117.60155,50.9278],[-117.60157,50.92772],[-117.60157,50.92771],[-117.60156,50.92762],[-117.60156,50.92752],[-117.60155,50.92745],[-117.60155,50.92737],[-117.60155,50.92731],[-117.60154,50.92723],[-117.60156,50.92713],[-117.60156,50.92703],[-117.60157,50.92693],[-117.60157,50.9269],[-117.60158,50.92684],[-117.6016,50.92675],[-117.60161,50.92667],[-117.60162,50.92657],[-117.60162,50.92647],[-117.60162,50.92643],[-117.60161,50.92639],[-117.6016,50.92636],[-117.6016,50.92632],[-117.6016,50.9263],[-117.60159,50.92626],[-117.60159,50.92621],[-117.60156,50.92615],[-117.60156,50.92608],[-117.60154,50.92602],[-117.60154,50.92596],[-117.60153,50.92591],[-117.60153,50.92586],[-117.60153,50.92581],[-117.60153,50.92576],[-117.60154,50.92567],[-117.60154,50.9256],[-117.60154,50.92552],[-117.60155,50.92546],[-117.60155,50.92541],[-117.60155,50.92535],[-117.60156,50.92528],[-117.60158,50.92521],[-117.6016,50.92512],[-117.60162,50.92504],[-117.60163,50.92495],[-117.60164,50.92487],[-117.60166,50.92478],[-117.60165,50.92471],[-117.60165,50.92463],[-117.60164,50.92457],[-117.60164,50.92455],[-117.60162,50.92451],[-117.60161,50.92444],[-117.60161,50.92439],[-117.60159,50.92434],[-117.60158,50.92432],[-117.60158,50.92429],[-117.60156,50.92428],[-117.60156,50.92424],[-117.60155,50.92419],[-117.60153,50.92415],[-117.60153,50.92409],[-117.60153,50.92404],[-117.60153,50.92399],[-117.60152,50.92394],[-117.60152,50.92389],[-117.6015,50.92381],[-117.60149,50.92375],[-117.60147,50.92368],[-117.60147,50.92362],[-117.60147,50.92358],[-117.60147,50.92352],[-117.60148,50.92343],[-117.60148,50.92332],[-117.60146,50.92322],[-117.60145,50.92311],[-117.60143,50.92308],[-117.60142,50.92303],[-117.60139,50.923],[-117.60136,50.92296],[-117.60133,50.92292],[-117.6013,50.92288],[-117.60128,50.92285],[-117.60125,50.92283],[-117.60122,50.92281],[-117.60119,50.92279],[-117.60117,50.92276],[-117.60116,50.92273],[-117.60114,50.92268],[-117.60114,50.92263],[-117.60114,50.92258],[-117.60116,50.92254],[-117.60116,50.92249],[-117.60117,50.92246],[-117.60118,50.92241],[-117.6012,50.92238],[-117.60124,50.92232],[-117.60128,50.92228],[-117.60132,50.92223],[-117.60135,50.92219],[-117.60139,50.92216],[-117.60144,50.92214],[-117.60148,50.92211],[-117.60155,50.92208],[-117.60161,50.92204],[-117.60166,50.922],[-117.6017,50.92196],[-117.60175,50.92191],[-117.60177,50.92188],[-117.6018,50.92182],[-117.60182,50.92178],[-117.60183,50.92173],[-117.60186,50.92168],[-117.60187,50.92163],[-117.6019,50.92159],[-117.60191,50.92155],[-117.60194,50.92152],[-117.60194,50.92147],[-117.60194,50.92141],[-117.60194,50.92136],[-117.60191,50.9213],[-117.60189,50.92128],[-117.60188,50.92124],[-117.60187,50.92121],[-117.60184,50.92119],[-117.60181,50.92116],[-117.60179,50.92113],[-117.60176,50.92111],[-117.60175,50.92109],[-117.60172,50.92106],[-117.60171,50.92103],[-117.60172,50.92099],[-117.60175,50.92094],[-117.60176,50.92091],[-117.60179,50.92086],[-117.6018,50.92083],[-117.60182,50.92076],[-117.60183,50.9207],[-117.60184,50.92065],[-117.60187,50.92059],[-117.60189,50.92055],[-117.6019,50.9205],[-117.60191,50.92046],[-117.6019,50.92039],[-117.60188,50.92033],[-117.60188,50.92031],[-117.60185,50.92028],[-117.60184,50.92024],[-117.60181,50.92021],[-117.60178,50.92018],[-117.60174,50.92014],[-117.60171,50.92012],[-117.60164,50.92007],[-117.60158,50.92004],[-117.60151,50.92],[-117.60145,50.91996],[-117.60141,50.91993],[-117.60137,50.91991],[-117.60129,50.91989],[-117.60124,50.91988],[-117.60115,50.91986],[-117.60108,50.91985],[-117.60104,50.91984],[-117.60099,50.91983],[-117.60095,50.91981],[-117.60092,50.9198],[-117.60088,50.91979],[-117.60084,50.91974],[-117.60082,50.91968],[-117.60082,50.91962],[-117.60082,50.91956],[-117.60081,50.91951],[-117.6008,50.91947],[-117.6008,50.91943],[-117.60079,50.91938],[-117.60079,50.91934],[-117.60079,50.91929],[-117.60079,50.91924],[-117.6008,50.91919],[-117.60083,50.91915],[-117.60084,50.9191],[-117.60087,50.91904],[-117.60088,50.91898],[-117.60091,50.91891],[-117.60092,50.91884],[-117.60094,50.91878],[-117.60094,50.91874],[-117.60094,50.9187],[-117.60094,50.91865],[-117.60092,50.9186],[-117.60089,50.91855],[-117.60089,50.91854],[-117.60086,50.91849],[-117.60082,50.91842],[-117.60078,50.91836],[-117.60073,50.91831],[-117.60068,50.91824],[-117.6006,50.91817],[-117.60053,50.9181],[-117.60047,50.91804],[-117.60042,50.91797],[-117.60037,50.91792],[-117.60034,50.91787],[-117.6003,50.91782],[-117.60026,50.91776],[-117.60021,50.91771],[-117.60016,50.91763],[-117.6001,50.91758],[-117.60005,50.91752],[-117.6,50.91746],[-117.59995,50.91741],[-117.5999,50.91736],[-117.59984,50.91728],[-117.59977,50.9172],[-117.59971,50.91713],[-117.59966,50.91707],[-117.59962,50.91701],[-117.59958,50.91695],[-117.59953,50.9169],[-117.59948,50.91685],[-117.59942,50.91679],[-117.59936,50.91673],[-117.5993,50.91668],[-117.59926,50.91663],[-117.59925,50.91663],[-117.59922,50.91659],[-117.59917,50.91654],[-117.59912,50.91651],[-117.59906,50.91644],[-117.59899,50.91638],[-117.59893,50.91634],[-117.59886,50.91629],[-117.59881,50.91625],[-117.59877,50.9162],[-117.59876,50.91617],[-117.59873,50.91612],[-117.59871,50.91607],[-117.5987,50.91602],[-117.59868,50.91597],[-117.59867,50.91591],[-117.59865,50.91587],[-117.59864,50.91582],[-117.59861,50.91577],[-117.59858,50.91572],[-117.59854,50.91567],[-117.59851,50.91564],[-117.59848,50.91559],[-117.59844,50.91556],[-117.59842,50.91551],[-117.59841,50.91548],[-117.59839,50.91546],[-117.59841,50.91543],[-117.59841,50.9154],[-117.59843,50.91539],[-117.59846,50.91537],[-117.5985,50.91537],[-117.59855,50.91537],[-117.59859,50.91538],[-117.59865,50.91538],[-117.59873,50.91542],[-117.59882,50.91546],[-117.59888,50.91549],[-117.59893,50.91553],[-117.59898,50.91556],[-117.599,50.91558],[-117.59906,50.91562],[-117.59913,50.91565],[-117.59921,50.91568],[-117.59929,50.9157],[-117.59936,50.91574],[-117.59943,50.91576],[-117.59951,50.91578],[-117.59958,50.9158],[-117.59965,50.91583],[-117.59973,50.91586],[-117.59982,50.91591],[-117.59983,50.91591],[-117.59992,50.91594],[-117.59999,50.91598],[-117.60001,50.91599],[-117.60005,50.91601],[-117.60011,50.91603],[-117.60016,50.91607],[-117.60025,50.9161],[-117.60032,50.91614],[-117.60041,50.91618],[-117.60048,50.91622],[-117.60054,50.91625],[-117.60061,50.91629],[-117.60066,50.91633],[-117.60074,50.91636],[-117.60079,50.91641],[-117.60087,50.91645],[-117.60094,50.91651],[-117.60101,50.91654],[-117.60105,50.91658],[-117.6011,50.91661],[-117.60117,50.91666],[-117.60122,50.91671],[-117.60128,50.91677],[-117.60134,50.91684],[-117.6014,50.91691],[-117.60147,50.91697],[-117.60151,50.91703],[-117.60158,50.9171],[-117.60164,50.91715],[-117.6017,50.9172],[-117.60177,50.91726],[-117.60182,50.91729],[-117.60183,50.91731],[-117.6019,50.91735],[-117.60194,50.91738],[-117.60207,50.91747],[-117.60216,50.91753],[-117.60225,50.9176],[-117.6023,50.91764],[-117.60237,50.91767],[-117.60242,50.91769],[-117.60249,50.91774],[-117.60256,50.9178],[-117.60265,50.91787],[-117.60273,50.91796],[-117.60276,50.918],[-117.60282,50.91806],[-117.60288,50.91814],[-117.60292,50.9182],[-117.60298,50.91828],[-117.60302,50.91835],[-117.60307,50.91841],[-117.60311,50.91848],[-117.60315,50.91855],[-117.60318,50.91862],[-117.60321,50.91867],[-117.60323,50.91871],[-117.60326,50.91875],[-117.60329,50.9188],[-117.60333,50.91885],[-117.60339,50.9189],[-117.60344,50.91895],[-117.60347,50.91898],[-117.60352,50.91902],[-117.60357,50.91905],[-117.60363,50.91908],[-117.6037,50.91911],[-117.60377,50.91914],[-117.60386,50.91917],[-117.60393,50.91919],[-117.604,50.91921],[-117.60405,50.91921],[-117.6041,50.91923],[-117.60417,50.91924],[-117.60424,50.91926],[-117.60433,50.91927],[-117.6044,50.91928],[-117.60447,50.91929],[-117.60452,50.9193],[-117.60457,50.91931],[-117.60463,50.91932],[-117.60464,50.91933],[-117.60467,50.91934],[-117.60473,50.91935],[-117.60474,50.91935],[-117.60477,50.91937],[-117.60482,50.91938],[-117.60486,50.9194],[-117.60492,50.91941],[-117.60497,50.91943],[-117.60503,50.91944],[-117.6051,50.91947],[-117.60516,50.91951],[-117.60524,50.91955],[-117.60532,50.91959],[-117.60536,50.91962],[-117.60542,50.91966],[-117.60546,50.9197],[-117.60552,50.91975],[-117.60557,50.9198],[-117.60562,50.91986],[-117.60566,50.91992],[-117.60568,50.91997],[-117.60569,50.92002],[-117.60571,50.92009],[-117.60572,50.92016],[-117.60577,50.92023],[-117.60582,50.9203],[-117.60585,50.92034],[-117.6059,50.92036],[-117.60594,50.92039],[-117.60598,50.92042],[-117.60602,50.92044],[-117.60607,50.92046],[-117.60611,50.92048],[-117.60615,50.9205],[-117.60618,50.92052],[-117.60622,50.92052],[-117.60624,50.92054],[-117.60625,50.92056],[-117.60624,50.9206],[-117.60623,50.92064],[-117.60621,50.92069],[-117.60619,50.92078],[-117.60617,50.92085],[-117.60617,50.9209],[-117.60616,50.92096],[-117.60615,50.92102],[-117.60615,50.92106],[-117.60613,50.92111],[-117.60612,50.92115],[-117.60611,50.92119],[-117.60609,50.92123],[-117.60606,50.92126],[-117.60606,50.92127],[-117.60605,50.92132],[-117.60604,50.92137],[-117.60604,50.92143],[-117.60605,50.9215],[-117.60607,50.92157],[-117.6061,50.92163],[-117.60613,50.92169],[-117.60617,50.92173],[-117.60623,50.92178],[-117.60628,50.92182],[-117.60634,50.92186],[-117.60638,50.92188],[-117.60644,50.92191],[-117.60647,50.92193],[-117.60651,50.92195],[-117.60659,50.92199],[-117.60669,50.92203],[-117.60679,50.92208],[-117.6069,50.92211],[-117.607,50.92215],[-117.6071,50.92217],[-117.60719,50.92221],[-117.60727,50.92224],[-117.60736,50.92226],[-117.60747,50.92229],[-117.60757,50.92233],[-117.60767,50.92236],[-117.60777,50.9224],[-117.60783,50.92241],[-117.6079,50.92243],[-117.60797,50.92247],[-117.60806,50.92251],[-117.60814,50.92257],[-117.60814,50.92258],[-117.60823,50.92263],[-117.6083,50.92268],[-117.60837,50.92273],[-117.60843,50.92278],[-117.60849,50.92282],[-117.60855,50.92287],[-117.60862,50.92292],[-117.60869,50.92298],[-117.60875,50.92302],[-117.60882,50.92306],[-117.60886,50.92309],[-117.6089,50.92312],[-117.60896,50.92316],[-117.60902,50.92321],[-117.60908,50.92326],[-117.60913,50.92332],[-117.60919,50.92338],[-117.60925,50.92343],[-117.60929,50.92349],[-117.60931,50.92349],[-117.60934,50.92354],[-117.60938,50.92359],[-117.60941,50.92365],[-117.60944,50.9237],[-117.60945,50.92375],[-117.60948,50.9238],[-117.60948,50.92384],[-117.60951,50.92388],[-117.60956,50.92393],[-117.60961,50.924],[-117.60969,50.92408],[-117.60976,50.92415],[-117.60987,50.92426],[-117.6099,50.92427],[-117.60994,50.92432],[-117.60997,50.92436],[-117.61003,50.92443],[-117.61009,50.92452],[-117.61015,50.92461],[-117.61019,50.92468],[-117.61023,50.92474],[-117.61026,50.92479],[-117.61031,50.92486],[-117.61035,50.92493],[-117.61041,50.92502],[-117.61045,50.92511],[-117.6105,50.92518],[-117.61053,50.92525],[-117.61056,50.9253],[-117.61058,50.92537],[-117.6106,50.92543],[-117.61063,50.92549],[-117.61064,50.92556],[-117.61067,50.92564],[-117.61069,50.92571],[-117.61072,50.92577],[-117.61072,50.92583],[-117.61073,50.92591],[-117.61075,50.92598],[-117.61076,50.92606],[-117.61078,50.92612],[-117.61079,50.9262],[-117.61081,50.92627],[-117.61084,50.92634],[-117.61087,50.92639],[-117.6109,50.92644],[-117.61091,50.92647],[-117.61094,50.9265],[-117.61096,50.92653],[-117.61097,50.92657],[-117.61099,50.92662],[-117.61099,50.92668],[-117.61099,50.92672],[-117.61099,50.92676],[-117.61097,50.92679],[-117.61096,50.92683],[-117.61096,50.92688],[-117.61095,50.92693],[-117.61092,50.92699],[-117.61092,50.92704],[-117.61091,50.92708],[-117.61089,50.92714],[-117.61088,50.92719],[-117.61087,50.92725],[-117.61084,50.92731],[-117.61081,50.92738],[-117.61078,50.92743],[-117.61075,50.92748],[-117.61074,50.92752],[-117.61071,50.92756],[-117.6107,50.9276]]}},
{"type":"Feature","properties":{"spotId":"G-moose-drive-0063","kind":"walk","km":0.03,"climbM":0,"name":"870 m SW of Incomappleux River","flags":[]},"geometry":{"type":"LineString","coordinates":[[-117.601,50.91983],[-117.60085,50.92012]]}},
{"type":"Feature","properties":{"spotId":"G-moose-walk-0061","kind":"walk","km":0.67,"climbM":146,"name":"930 m NE of Upper Arrow Lake","flags":[]},"geometry":{"type":"LineString","coordinates":[[-117.7365,50.76083],[-117.73271,50.76631]]}}
]}
