{"type":"FeatureCollection","features":[
{"type":"Feature","properties":{"spotId":"G-camp-camp-0040","kind":"walk","km":0.19,"climbM":5,"name":"870 m NW of Jenning Creek","flags":[]},"geometry":{"type":"LineString","coordinates":[[-117.82384,50.63671],[-117.82623,50.63756]]}},
{"type":"Feature","properties":{"spotId":"G-deer-atv-0012","kind":"ride","km":3.43,"climbM":91,"name":"270 m E of Upper Arrow Lake","flags":["Route crosses private land (ParcelMap BC, updated 2026-09-25): get permission first or go around."]},"geometry":{"type":"LineString","coordinates":[[-117.93517,50.71084],[-117.93518,50.7109],[-117.93514,50.71096],[-117.93514,50.71103],[-117.93517,50.71109],[-117.93521,50.71114],[-117.93521,50.71117],[-117.9352,50.71123],[-117.93521,50.71131],[-117.93523,50.71135],[-117.93529,50.71143],[-117.93534,50.71148],[-117.9354,50.71152],[-117.93543,50.71158],[-117.93543,50.71162],[-117.9354,50.71168],[-117.93537,50.71172],[-117.9354,50.71177],[-117.93542,50.71182],[-117.9354,50.71189],[-117.93539,50.71195],[-117.93536,50.71202],[-117.93537,50.71207],[-117.93537,50.71212],[-117.93539,50.71217],[-117.93544,50.71222],[-117.93543,50.71227],[-117.93543,50.71232],[-117.93548,50.71235],[-117.93556,50.71238],[-117.93562,50.71242],[-117.93569,50.71247],[-117.93575,50.7125],[-117.93581,50.71253],[-117.93585,50.71258],[-117.93592,50.71261],[-117.93601,50.71265],[-117.93602,50.71269],[-117.93605,50.71273],[-117.93618,50.71281],[-117.93625,50.71283],[-117.93632,50.71285],[-117.93641,50.71286],[-117.93649,50.7129],[-117.93658,50.71296],[-117.93666,50.71301],[-117.9367,50.71307],[-117.93674,50.71314],[-117.9368,50.7132],[-117.93686,50.71326],[-117.93689,50.71332],[-117.93696,50.71343],[-117.93702,50.71349],[-117.93707,50.71356],[-117.93714,50.71364],[-117.93725,50.71378],[-117.9373,50.71385],[-117.93736,50.7139],[-117.93743,50.71395],[-117.93756,50.71401],[-117.93763,50.71407],[-117.93773,50.71411],[-117.93781,50.71417],[-117.93788,50.71423],[-117.93793,50.7143],[-117.93795,50.71436],[-117.93796,50.71443],[-117.93795,50.7145],[-117.93792,50.71455],[-117.93794,50.71461],[-117.93799,50.71468],[-117.93802,50.71474],[-117.9381,50.71478],[-117.93817,50.71484],[-117.93826,50.71489],[-117.9383,50.71494],[-117.93837,50.71497],[-117.93846,50.715],[-117.93848,50.715],[-117.93853,50.71504],[-117.93858,50.71507],[-117.93863,50.71511],[-117.93867,50.71514],[-117.9387,50.7152],[-117.93873,50.71526],[-117.93874,50.71532],[-117.93872,50.71542],[-117.9387,50.7155],[-117.93867,50.7156],[-117.93867,50.71567],[-117.9387,50.71575],[-117.93876,50.71585],[-117.93888,50.716],[-117.93896,50.71615],[-117.93908,50.7163],[-117.93919,50.71643],[-117.93925,50.71654],[-117.93924,50.71664],[-117.93925,50.71675],[-117.93928,50.71687],[-117.93934,50.71697],[-117.93942,50.71711],[-117.93949,50.71726],[-117.93953,50.71743],[-117.93952,50.71758],[-117.93949,50.71775],[-117.93943,50.71789],[-117.93939,50.71804],[-117.93939,50.71816],[-117.93941,50.71826],[-117.93943,50.7184],[-117.93946,50.71855],[-117.93944,50.71868],[-117.93938,50.71879],[-117.9393,50.71894],[-117.93924,50.7191],[-117.93918,50.71919],[-117.93915,50.7193],[-117.93912,50.71944],[-117.93908,50.71956],[-117.93903,50.7197],[-117.93899,50.7199],[-117.93896,50.72009],[-117.93897,50.72026],[-117.93899,50.72043],[-117.93907,50.72055],[-117.93915,50.72068],[-117.93927,50.72079],[-117.93942,50.72094],[-117.93958,50.7211],[-117.93967,50.72123],[-117.93977,50.72138],[-117.93988,50.72156],[-117.93999,50.72171],[-117.9401,50.72181],[-117.94027,50.72197],[-117.94035,50.72209],[-117.9404,50.72222],[-117.9405,50.72238],[-117.94062,50.72256],[-117.94071,50.72276],[-117.94077,50.72297],[-117.94081,50.72317],[-117.94086,50.72339],[-117.94094,50.72358],[-117.941,50.72372],[-117.94106,50.72389],[-117.9411,50.72409],[-117.94112,50.72427],[-117.94112,50.72436],[-117.94129,50.72437],[-117.94155,50.72439],[-117.94177,50.72444],[-117.94185,50.72446],[-117.94199,50.72453],[-117.94209,50.72457],[-117.94236,50.72462],[-117.94272,50.72475],[-117.94283,50.72477],[-117.94296,50.72477],[-117.94303,50.72476],[-117.94339,50.72464],[-117.94372,50.72449],[-117.94388,50.72438],[-117.94419,50.72409],[-117.94425,50.72402],[-117.94427,50.72392],[-117.94425,50.7236],[-117.94422,50.72346],[-117.94419,50.72329],[-117.94414,50.72322],[-117.94407,50.72311],[-117.94397,50.72295],[-117.94371,50.72266],[-117.94366,50.72258],[-117.94367,50.72238],[-117.94367,50.72224],[-117.94368,50.72207],[-117.94369,50.72189],[-117.94376,50.72177],[-117.94384,50.72169],[-117.94387,50.72161],[-117.9438,50.72144],[-117.94379,50.72134],[-117.94388,50.72112],[-117.94391,50.72093],[-117.94398,50.7208],[-117.94405,50.72062],[-117.94409,50.72054],[-117.94409,50.7204],[-117.94405,50.72013],[-117.94392,50.71974],[-117.94392,50.7197],[-117.9439,50.7194],[-117.94379,50.71907],[-117.94366,50.71894],[-117.94346,50.71876],[-117.94334,50.71861],[-117.94331,50.71857],[-117.9433,50.71853],[-117.94328,50.71849],[-117.94328,50.71831],[-117.94328,50.71807],[-117.94329,50.718],[-117.94331,50.71766],[-117.94335,50.71748],[-117.94339,50.71741],[-117.94345,50.71734],[-117.94353,50.71726],[-117.94364,50.71722],[-117.94381,50.71719],[-117.94389,50.71715],[-117.94395,50.71701],[-117.94397,50.71683],[-117.94401,50.71676],[-117.94429,50.71658],[-117.94441,50.71654],[-117.94466,50.71651],[-117.9449,50.71645],[-117.94503,50.71659],[-117.94505,50.71661],[-117.94532,50.71668],[-117.94549,50.71671],[-117.94563,50.71674],[-117.94578,50.71675],[-117.94596,50.71677],[-117.94625,50.7168],[-117.94644,50.71683],[-117.94661,50.71686],[-117.94678,50.71692],[-117.94704,50.71703],[-117.94722,50.7171],[-117.94737,50.71716],[-117.94752,50.71722],[-117.94779,50.71734],[-117.94791,50.71741],[-117.94815,50.71752],[-117.94838,50.71757],[-117.9485,50.71747],[-117.94842,50.71731],[-117.94839,50.71722],[-117.94842,50.717],[-117.94845,50.71689],[-117.94855,50.71678],[-117.9487,50.71675],[-117.94884,50.71675],[-117.94907,50.71688],[-117.94926,50.71705],[-117.94938,50.71714],[-117.94949,50.71723],[-117.94968,50.71739],[-117.94989,50.71752],[-117.95014,50.71757],[-117.95031,50.71758],[-117.95048,50.71757],[-117.95077,50.71752],[-117.95082,50.71751]]}},
{"type":"Feature","properties":{"spotId":"G-deer-atv-0012","kind":"walk","km":0.3,"climbM":15,"name":"270 m E of Upper Arrow Lake","flags":["Route crosses private land (ParcelMap BC, updated 2026-09-25): get permission first or go around."]},"geometry":{"type":"LineString","coordinates":[[-117.95082,50.71751],[-117.95232,50.72001]]}},
{"type":"Feature","properties":{"spotId":"G-deer-drive-0020","kind":"walk","km":0.14,"climbM":0,"name":"420 m NE of Upper Arrow Lake","flags":[]},"geometry":{"type":"LineString","coordinates":[[-117.9575,50.74027],[-117.95915,50.73949]]}},
{"type":"Feature","properties":{"spotId":"G-deer-drive-0034","kind":"walk","km":0.28,"climbM":0,"name":"220 m E of Reid Creek","flags":[]},"geometry":{"type":"LineString","coordinates":[[-117.93902,50.71091],[-117.9428,50.71012]]}},
{"type":"Feature","properties":{"spotId":"G-deer-drive-0040","kind":"walk","km":0.25,"climbM":81,"name":"540 m W of Upper Arrow Lake","flags":[]},"geometry":{"type":"LineString","coordinates":[[-117.95359,50.52044],[-117.95673,50.52141]]}},
{"type":"Feature","properties":{"spotId":"G-deer-drive-0058","kind":"walk","km":0.1,"climbM":0,"name":"250 m NW of Upper Arrow Lake","flags":[]},"geometry":{"type":"LineString","coordinates":[[-117.95439,50.58583],[-117.9535,50.5851]]}},
{"type":"Feature","properties":{"spotId":"G-deer-drive-0061","kind":"walk","km":0.02,"climbM":5,"name":"120 m N of Upper Arrow Lake","flags":[]},"geometry":{"type":"LineString","coordinates":[[-117.94467,50.62715],[-117.94485,50.62724]]}},
{"type":"Feature","properties":{"spotId":"G-deer-drive-0063","kind":"walk","km":0.2,"climbM":0,"name":"660 m S of Arrowhead","flags":[]},"geometry":{"type":"LineString","coordinates":[[-117.92097,50.70597],[-117.9235,50.70508]]}},
{"type":"Feature","properties":{"spotId":"G-deer-walk-0027","kind":"walk","km":0.52,"climbM":22,"name":"150 m NW of Upper Arrow Lake","flags":[]},"geometry":{"type":"LineString","coordinates":[[-117.81698,50.72535],[-117.81936,50.7209]]}},
{"type":"Feature","properties":{"spotId":"G-deer-walk-0034","kind":"walk","km":0.41,"climbM":73,"name":"200 m NE of Wallis Creek","flags":[]},"geometry":{"type":"LineString","coordinates":[[-117.94974,50.73517],[-117.944,50.73471]]}},
{"type":"Feature","properties":{"spotId":"G-deer-walk-0064","kind":"walk","km":0.67,"climbM":233,"name":"920 m W of Upper Arrow Lake","flags":[]},"geometry":{"type":"LineString","coordinates":[[-117.95219,50.52989],[-117.96123,50.52806]]}},
{"type":"Feature","properties":{"spotId":"G-duck-drive-0043","kind":"walk","km":0.11,"climbM":0,"name":"Unnamed wetland 1.2 km N of Jenning Creek","flags":[]},"geometry":{"type":"LineString","coordinates":[[-117.81598,50.64261],[-117.81736,50.64306]]}},
{"type":"Feature","properties":{"spotId":"G-duck-drive-0049","kind":"walk","km":0.14,"climbM":0,"name":"Unnamed wetland by Hill Creek","flags":[]},"geometry":{"type":"LineString","coordinates":[[-117.82139,50.67419],[-117.82115,50.67543]]}},
{"type":"Feature","properties":{"spotId":"G-duck-drive-0051","kind":"walk","km":0.06,"climbM":0,"name":"Unnamed wetland by Mackenzie Creek","flags":[]},"geometry":{"type":"LineString","coordinates":[[-117.79704,50.6587],[-117.79621,50.65861]]}},
{"type":"Feature","properties":{"spotId":"G-duck-drive-0060","kind":"walk","km":0.04,"climbM":0,"name":"Unnamed wetland 650 m E of Upper Arrow Lake","flags":[]},"geometry":{"type":"LineString","coordinates":[[-117.8989,50.58106],[-117.89837,50.58128]]}},
{"type":"Feature","properties":{"spotId":"G-duck-drive-0075","kind":"walk","km":0.01,"climbM":0,"name":"Unnamed lake 550 m NE of Hill Creek","flags":[]},"geometry":{"type":"LineString","coordinates":[[-117.75603,50.69546],[-117.75596,50.69535]]}},
{"type":"Feature","properties":{"spotId":"G-duck-drive-0096","kind":"walk","km":0.04,"climbM":0,"name":"Unnamed wetland by Mackenzie Creek","flags":[]},"geometry":{"type":"LineString","coordinates":[[-117.81934,50.65509],[-117.81983,50.65515]]}},
{"type":"Feature","properties":{"spotId":"G-duck-drive-0098","kind":"walk","km":0.02,"climbM":0,"name":"Unnamed wetland 510 m E of Nacillewaet Creek","flags":[]},"geometry":{"type":"LineString","coordinates":[[-117.87478,50.59901],[-117.87452,50.59888]]}},
{"type":"Feature","properties":{"spotId":"G-duck-drive-0166","kind":"walk","km":0.05,"climbM":0,"name":"Unnamed lake by Harris Lake rec site","flags":[]},"geometry":{"type":"LineString","coordinates":[[-117.89014,50.55371],[-117.88937,50.55366]]}},
{"type":"Feature","properties":{"spotId":"G-duck-walk-0012","kind":"walk","km":0.31,"climbM":25,"name":"Unnamed wetland 370 m E of Nacillewaet Creek","flags":[]},"geometry":{"type":"LineString","coordinates":[[-117.87421,50.59027],[-117.87004,50.59109]]}},
{"type":"Feature","properties":{"spotId":"G-grouse-atv-0004","kind":"ride","km":3.16,"climbM":214,"name":"170 m N of Mackenzie Creek","flags":[]},"geometry":{"type":"LineString","coordinates":[[-117.82024,50.65668],[-117.82018,50.65654],[-117.82013,50.65641],[-117.82007,50.65631],[-117.82,50.65619],[-117.8199,50.656],[-117.8198,50.65581],[-117.81967,50.65561],[-117.81959,50.65549],[-117.81948,50.6553],[-117.81945,50.65526],[-117.81937,50.65513],[-117.81934,50.65509],[-117.81927,50.65504],[-117.81906,50.65489],[-117.81883,50.6549],[-117.81851,50.65491],[-117.81832,50.65494],[-117.81816,50.65495],[-117.81785,50.65502],[-117.81766,50.65505],[-117.81734,50.65507],[-117.81715,50.65506],[-117.81701,50.65502],[-117.81682,50.65492],[-117.81674,50.65483],[-117.81668,50.65472],[-117.81662,50.65463],[-117.81658,50.65453],[-117.81656,50.6544],[-117.81656,50.65418],[-117.81654,50.65398],[-117.8165,50.65388],[-117.8164,50.65382],[-117.81617,50.65385],[-117.81593,50.65397],[-117.81572,50.65413],[-117.81551,50.6543],[-117.81537,50.6544],[-117.81522,50.65447],[-117.81509,50.65453],[-117.81497,50.65456],[-117.8148,50.65464],[-117.81453,50.65468],[-117.81439,50.65468],[-117.8142,50.65465],[-117.81403,50.65462],[-117.81388,50.65457],[-117.81376,50.65451],[-117.81366,50.65438],[-117.81366,50.65425],[-117.81364,50.65414],[-117.81366,50.65404],[-117.81368,50.65392],[-117.81379,50.65373],[-117.81386,50.65364],[-117.81392,50.65356],[-117.81383,50.65345],[-117.81377,50.65343],[-117.81367,50.6534],[-117.81336,50.65334],[-117.8132,50.65332],[-117.81289,50.65327],[-117.81271,50.65322],[-117.81254,50.6532],[-117.81237,50.65316],[-117.8122,50.65311],[-117.81191,50.65303],[-117.81163,50.65296],[-117.81151,50.65291],[-117.81127,50.65268],[-117.81118,50.65252],[-117.81115,50.65218],[-117.81102,50.65196],[-117.81087,50.65185],[-117.81073,50.65178],[-117.81059,50.65172],[-117.81035,50.65168],[-117.81012,50.65167],[-117.80999,50.65165],[-117.80994,50.65164],[-117.80968,50.65154],[-117.80955,50.65134],[-117.8094,50.65078],[-117.80926,50.65033],[-117.80917,50.65009],[-117.80931,50.64981],[-117.80939,50.64958],[-117.80953,50.64928],[-117.80972,50.64899],[-117.80986,50.6487],[-117.8099,50.64849],[-117.80988,50.6484],[-117.80988,50.64838],[-117.80986,50.64827],[-117.80985,50.64813],[-117.80984,50.64805],[-117.80977,50.6476],[-117.80979,50.64735],[-117.8099,50.64704],[-117.80991,50.64702],[-117.80994,50.64687],[-117.81001,50.64674],[-117.81002,50.6467],[-117.81012,50.64659],[-117.81021,50.64648],[-117.81035,50.64629],[-117.8107,50.64587],[-117.81111,50.64534],[-117.81136,50.64497],[-117.81162,50.64459],[-117.81178,50.6443],[-117.81186,50.64404],[-117.81189,50.64371],[-117.81187,50.64339],[-117.81181,50.64305],[-117.81175,50.64264],[-117.81171,50.64229],[-117.81174,50.64211],[-117.81175,50.64201],[-117.81176,50.64198],[-117.8118,50.64187],[-117.81189,50.64174],[-117.81198,50.6416],[-117.81239,50.64131],[-117.81278,50.6409],[-117.81303,50.64053],[-117.81323,50.64017],[-117.81351,50.6398],[-117.81377,50.63937],[-117.81392,50.63911],[-117.81382,50.63886],[-117.8138,50.63884],[-117.81366,50.63865],[-117.81341,50.63837],[-117.81294,50.63793],[-117.81262,50.63757],[-117.81253,50.63743],[-117.81249,50.63737],[-117.81241,50.63705],[-117.81249,50.6368],[-117.8126,50.63649],[-117.81265,50.6362],[-117.81269,50.63595],[-117.81277,50.6355]]}},
{"type":"Feature","properties":{"spotId":"G-grouse-drive-0042","kind":"roadside","km":5.51,"climbM":111,"name":"By Dupont Creek","flags":[]},"geometry":{"type":"LineString","coordinates":[[-117.94974,50.73517],[-117.9498,50.73518],[-117.94985,50.73519],[-117.94993,50.7352],[-117.94998,50.73521],[-117.95005,50.73522],[-117.95015,50.73524],[-117.95025,50.73526],[-117.95035,50.7353],[-117.95044,50.73532],[-117.9505,50.73535],[-117.95057,50.7354],[-117.95065,50.73546],[-117.95075,50.73554],[-117.95086,50.73562],[-117.95097,50.7357],[-117.9511,50.73578],[-117.95121,50.73585],[-117.95133,50.73591],[-117.95144,50.73596],[-117.95156,50.73603],[-117.95167,50.7361],[-117.95179,50.73618],[-117.9519,50.73625],[-117.952,50.73632],[-117.95209,50.73636],[-117.95216,50.73638],[-117.95226,50.73641],[-117.95237,50.73645],[-117.9525,50.73648],[-117.95263,50.73651],[-117.95277,50.73654],[-117.9529,50.73657],[-117.95301,50.73659],[-117.95314,50.73661],[-117.95326,50.73665],[-117.95344,50.73669],[-117.95361,50.73676],[-117.95377,50.73683],[-117.95391,50.73689],[-117.95401,50.73696],[-117.95407,50.737],[-117.95414,50.73704],[-117.95423,50.73711],[-117.9543,50.73717],[-117.95436,50.73724],[-117.95438,50.73729],[-117.95438,50.73733],[-117.95438,50.73737],[-117.95436,50.7374],[-117.95436,50.73745],[-117.95441,50.73756],[-117.95448,50.73766],[-117.95461,50.73776],[-117.95474,50.73783],[-117.95488,50.73787],[-117.95501,50.73788],[-117.95514,50.73791],[-117.95527,50.73795],[-117.95538,50.73801],[-117.95552,50.73806],[-117.95567,50.73811],[-117.95581,50.73818],[-117.95594,50.73824],[-117.95604,50.73832],[-117.95608,50.73837],[-117.95613,50.73842],[-117.95619,50.73853],[-117.95623,50.73864],[-117.95626,50.73875],[-117.95626,50.73885],[-117.95627,50.73892],[-117.95628,50.73896],[-117.9563,50.73901],[-117.95633,50.73908],[-117.95637,50.73914],[-117.95641,50.7392],[-117.95649,50.73929],[-117.95656,50.73935],[-117.95657,50.73937],[-117.95664,50.73944],[-117.95672,50.73951],[-117.9568,50.73959],[-117.9569,50.73968],[-117.95699,50.73977],[-117.95709,50.73987],[-117.95716,50.73995],[-117.95722,50.74001],[-117.95731,50.74009],[-117.95741,50.74019],[-117.95753,50.74029],[-117.95763,50.74041],[-117.95773,50.74052],[-117.9578,50.74063],[-117.95785,50.74075],[-117.95788,50.74085],[-117.95788,50.74098],[-117.9579,50.74111],[-117.9579,50.74122],[-117.9579,50.74134],[-117.9579,50.74146],[-117.95789,50.74155],[-117.95789,50.74161],[-117.95789,50.74166],[-117.9579,50.74175],[-117.95791,50.74185],[-117.95791,50.74196],[-117.95792,50.74206],[-117.95792,50.74215],[-117.95793,50.74224],[-117.95794,50.74232],[-117.95794,50.74239],[-117.95794,50.74247],[-117.95794,50.74256],[-117.95794,50.74265],[-117.95796,50.74273],[-117.958,50.74282],[-117.95805,50.74292],[-117.95811,50.74298],[-117.95818,50.74305],[-117.95824,50.7431],[-117.95831,50.74313],[-117.95838,50.74316],[-117.95848,50.74319],[-117.95858,50.74322],[-117.95869,50.74327],[-117.95881,50.7433],[-117.95892,50.74335],[-117.95899,50.74337],[-117.95904,50.74339],[-117.95914,50.74343],[-117.95924,50.74348],[-117.95934,50.74354],[-117.95944,50.74359],[-117.95954,50.74366],[-117.95962,50.74374],[-117.95972,50.7438],[-117.9598,50.74385],[-117.95985,50.7439],[-117.95991,50.74393],[-117.96,50.74397],[-117.96008,50.74402],[-117.96018,50.74407],[-117.96027,50.74413],[-117.96036,50.74418],[-117.96041,50.74422],[-117.96048,50.74427],[-117.96056,50.74432],[-117.96063,50.74437],[-117.96071,50.74443],[-117.96082,50.74449],[-117.96092,50.74454],[-117.961,50.74459],[-117.96107,50.74462],[-117.96116,50.74466],[-117.96126,50.7447],[-117.96137,50.74476],[-117.96147,50.74482],[-117.96159,50.74488],[-117.96166,50.74493],[-117.96172,50.74498],[-117.96178,50.74503],[-117.96185,50.74509],[-117.96191,50.74515],[-117.96195,50.74518],[-117.96198,50.74522],[-117.96201,50.74525],[-117.96204,50.74528],[-117.96207,50.74531],[-117.96209,50.74534],[-117.96212,50.7454],[-117.96217,50.74546],[-117.9622,50.74552],[-117.96223,50.74558],[-117.96224,50.74566],[-117.96226,50.74573],[-117.96226,50.7458],[-117.96227,50.74586],[-117.96229,50.74594],[-117.96232,50.74604],[-117.96239,50.74615],[-117.96248,50.74624],[-117.96258,50.74631],[-117.96268,50.74635],[-117.9628,50.74638],[-117.9629,50.74641],[-117.96301,50.74645],[-117.96312,50.7465],[-117.96324,50.74656],[-117.96331,50.74662],[-117.96338,50.74667],[-117.96344,50.74674],[-117.96347,50.74682],[-117.9635,50.7469],[-117.9635,50.74697],[-117.9635,50.74704],[-117.96349,50.74711],[-117.96346,50.74718],[-117.96345,50.74722],[-117.96341,50.74727],[-117.96338,50.74736],[-117.96336,50.74745],[-117.96333,50.74754],[-117.96332,50.74764],[-117.96331,50.74772],[-117.96329,50.74781],[-117.96329,50.74789],[-117.9633,50.74796],[-117.9633,50.74805],[-117.9633,50.74811],[-117.9633,50.74817],[-117.9633,50.74824],[-117.9633,50.7483],[-117.9633,50.74835],[-117.9633,50.7484],[-117.96332,50.74844],[-117.96333,50.74848],[-117.96335,50.74853],[-117.96338,50.74857],[-117.96342,50.74865],[-117.96348,50.74873],[-117.96353,50.74882],[-117.96357,50.7489],[-117.96361,50.74899],[-117.96364,50.74906],[-117.96365,50.74913],[-117.96365,50.74922],[-117.96365,50.7493],[-117.96362,50.74938],[-117.96361,50.74947],[-117.96358,50.74956],[-117.96356,50.74965],[-117.96352,50.7497],[-117.96345,50.74972],[-117.96343,50.74979],[-117.96342,50.74986],[-117.96341,50.74995],[-117.9634,50.75003],[-117.96338,50.75011],[-117.96337,50.75021],[-117.96336,50.7503],[-117.96336,50.75038],[-117.96338,50.75047],[-117.96339,50.75053],[-117.96344,50.7506],[-117.96349,50.75069],[-117.96358,50.75078],[-117.96367,50.75087],[-117.96378,50.75094],[-117.9639,50.75099],[-117.96403,50.75103],[-117.96417,50.75105],[-117.96432,50.75104],[-117.96448,50.75103],[-117.96459,50.75102],[-117.96469,50.751],[-117.96479,50.75097],[-117.96487,50.75093],[-117.96493,50.7509],[-117.965,50.75088],[-117.9651,50.75085],[-117.9652,50.75081],[-117.96532,50.75079],[-117.96544,50.75077],[-117.96552,50.75076],[-117.96562,50.75075],[-117.96572,50.75074],[-117.96582,50.75074],[-117.96592,50.75075],[-117.96602,50.75076],[-117.9661,50.75078],[-117.96619,50.75079],[-117.96626,50.75081],[-117.9663,50.75084],[-117.96636,50.75087],[-117.9664,50.7509],[-117.96646,50.75094],[-117.96653,50.75097],[-117.96659,50.75102],[-117.96666,50.75109],[-117.96672,50.75116],[-117.96675,50.75123],[-117.96678,50.7513],[-117.96681,50.75137],[-117.96681,50.75144],[-117.96684,50.7515],[-117.96686,50.75156],[-117.96687,50.75163],[-117.96689,50.75167],[-117.96693,50.75175],[-117.96696,50.75183],[-117.96701,50.75192],[-117.96702,50.75203],[-117.96704,50.75214],[-117.96703,50.7522],[-117.96701,50.75225],[-117.96699,50.7523],[-117.96697,50.75234],[-117.96695,50.75239],[-117.96692,50.75244],[-117.9669,50.75251],[-117.96688,50.75256],[-117.96686,50.75261],[-117.96685,50.75266],[-117.96684,50.7527],[-117.96682,50.75273],[-117.9668,50.75278],[-117.96678,50.75282],[-117.96677,50.75288],[-117.96674,50.75295],[-117.96675,50.75301],[-117.96675,50.75307],[-117.96678,50.75313],[-117.96682,50.75317],[-117.96688,50.75323],[-117.96696,50.75327],[-117.96706,50.75331],[-117.96715,50.75334],[-117.96725,50.75337],[-117.96733,50.75339],[-117.96742,50.75341],[-117.96752,50.75343],[-117.96762,50.75345],[-117.96775,50.75346],[-117.96787,50.75348],[-117.96799,50.75349],[-117.96807,50.75349],[-117.96817,50.75348],[-117.96824,50.75347],[-117.96836,50.75347],[-117.96847,50.75347],[-117.96858,50.75348],[-117.96871,50.75349],[-117.96883,50.75351],[-117.96895,50.75352],[-117.96907,50.75355],[-117.96918,50.75358],[-117.9693,50.75362],[-117.96942,50.75366],[-117.96955,50.75371],[-117.96965,50.75376],[-117.96974,50.75381],[-117.96981,50.75386],[-117.9699,50.75392],[-117.96998,50.75397],[-117.97007,50.75403],[-117.97017,50.75408],[-117.97026,50.75413],[-117.97033,50.75417],[-117.97038,50.7542],[-117.97043,50.75423],[-117.97049,50.75427],[-117.97056,50.75431],[-117.9706,50.75436],[-117.97064,50.7544],[-117.97066,50.75445],[-117.97067,50.75449],[-117.97066,50.75454],[-117.97066,50.75459],[-117.97065,50.75465],[-117.97064,50.75472],[-117.97064,50.75478],[-117.97062,50.75484],[-117.97061,50.75489],[-117.9706,50.75495],[-117.97059,50.75501],[-117.97056,50.75509],[-117.97053,50.75517],[-117.97051,50.75526],[-117.97049,50.75533],[-117.97047,50.75538],[-117.97045,50.75544],[-117.97044,50.7555],[-117.97043,50.75556],[-117.97041,50.7556],[-117.97041,50.75564],[-117.97042,50.75568],[-117.97042,50.75572],[-117.97042,50.75575],[-117.97043,50.75579],[-117.97045,50.75582],[-117.97046,50.75587],[-117.97049,50.75592],[-117.97053,50.75596],[-117.97062,50.75601],[-117.97072,50.75604],[-117.97083,50.75604],[-117.97092,50.75603],[-117.971,50.756],[-117.97104,50.75595],[-117.97107,50.75592],[-117.97109,50.75586],[-117.97108,50.75581],[-117.97107,50.75576],[-117.97105,50.75572],[-117.97105,50.75567],[-117.97107,50.75563],[-117.97107,50.75557],[-117.97108,50.7555],[-117.97109,50.75543],[-117.9711,50.75537],[-117.97113,50.75531],[-117.97119,50.75528],[-117.97126,50.75525],[-117.97131,50.75525],[-117.97136,50.75525],[-117.97141,50.75526],[-117.97146,50.75527],[-117.97148,50.75529],[-117.9715,50.75532],[-117.97151,50.75535],[-117.97153,50.75538],[-117.97154,50.75543],[-117.97157,50.75546],[-117.9716,50.75549],[-117.97163,50.75552],[-117.97165,50.75553],[-117.97166,50.75555],[-117.97172,50.75559],[-117.97178,50.75561],[-117.97183,50.75565],[-117.97189,50.75568],[-117.97195,50.75571],[-117.972,50.75574],[-117.97209,50.75576],[-117.97218,50.7558],[-117.97226,50.75583],[-117.97236,50.75588],[-117.97251,50.75595],[-117.97262,50.75601],[-117.97273,50.75607],[-117.97283,50.75614],[-117.97294,50.75619],[-117.97301,50.75622],[-117.97309,50.75626],[-117.97315,50.75629],[-117.97321,50.75633],[-117.97327,50.75637],[-117.97329,50.75643],[-117.97331,50.75648],[-117.97331,50.75655],[-117.9733,50.75661],[-117.97327,50.75668],[-117.97324,50.75673],[-117.97322,50.75676],[-117.97317,50.7568],[-117.97313,50.75683],[-117.97309,50.75686],[-117.97303,50.75689],[-117.97298,50.75693],[-117.97294,50.75696],[-117.9729,50.757],[-117.9729,50.75703],[-117.97292,50.75703],[-117.97297,50.75703],[-117.97302,50.75703],[-117.97309,50.75702],[-117.97315,50.75701],[-117.97322,50.757],[-117.97328,50.75698],[-117.97333,50.75696],[-117.97336,50.75694],[-117.97339,50.75692],[-117.97342,50.7569],[-117.97347,50.75686],[-117.97352,50.75682],[-117.97357,50.75678],[-117.97364,50.75673],[-117.97371,50.75669],[-117.97378,50.75664],[-117.97384,50.75659],[-117.97388,50.75655],[-117.97391,50.7565],[-117.97392,50.75647],[-117.97393,50.75644],[-117.97393,50.75641],[-117.97393,50.75638],[-117.97393,50.75635],[-117.9739,50.7563],[-117.97387,50.75623],[-117.97383,50.75617],[-117.97378,50.75609],[-117.97375,50.75602],[-117.97374,50.75597],[-117.97372,50.75591],[-117.97371,50.75586],[-117.97371,50.75581],[-117.97371,50.75576],[-117.9737,50.7557],[-117.97369,50.75563],[-117.97369,50.75558],[-117.97367,50.75552],[-117.97366,50.75547],[-117.97363,50.75542],[-117.97361,50.75534],[-117.97358,50.75526],[-117.97354,50.75517],[-117.97349,50.75509],[-117.97344,50.75501],[-117.97339,50.75493],[-117.97333,50.75486],[-117.97329,50.75479],[-117.97324,50.75471],[-117.97323,50.75467],[-117.97321,50.75462],[-117.9732,50.75459],[-117.9732,50.75455],[-117.9732,50.75451],[-117.9732,50.75448],[-117.9732,50.75443],[-117.9732,50.75438],[-117.97321,50.75432],[-117.97321,50.75426],[-117.97322,50.75422],[-117.97323,50.75417],[-117.97323,50.75414],[-117.97325,50.7541],[-117.97327,50.75405],[-117.97329,50.754],[-117.97331,50.75395],[-117.97334,50.75389],[-117.97338,50.75386],[-117.97347,50.75385],[-117.97351,50.75385],[-117.97358,50.75385],[-117.97362,50.75385],[-117.97368,50.75389],[-117.97371,50.75392],[-117.97373,50.75398],[-117.97373,50.75403],[-117.97371,50.7541],[-117.97372,50.75416],[-117.97372,50.75422],[-117.97372,50.75428],[-117.97373,50.75432],[-117.97375,50.75436],[-117.97376,50.75438],[-117.97379,50.75442],[-117.97382,50.75445],[-117.97384,50.75449],[-117.97388,50.75454],[-117.97392,50.75457],[-117.97395,50.75461],[-117.97399,50.75463],[-117.97402,50.75466],[-117.97405,50.7547],[-117.97408,50.75473],[-117.9741,50.75477],[-117.97411,50.75481],[-117.97413,50.75485],[-117.97414,50.75488],[-117.97417,50.75492],[-117.9742,50.75496],[-117.97423,50.755],[-117.97427,50.75504],[-117.97432,50.75509],[-117.97439,50.75515],[-117.97449,50.7552],[-117.97457,50.75525],[-117.97469,50.75527],[-117.97479,50.75531],[-117.9749,50.75534],[-117.97502,50.75536],[-117.97512,50.75538],[-117.97522,50.75541],[-117.9753,50.75543],[-117.97539,50.75547],[-117.97549,50.75552],[-117.97559,50.75557],[-117.97565,50.75564],[-117.97565,50.75569],[-117.97563,50.75571],[-117.97562,50.75573],[-117.97561,50.75574],[-117.97559,50.75577],[-117.97556,50.7558],[-117.97551,50.75585],[-117.97544,50.75591],[-117.97538,50.75596],[-117.97534,50.75602],[-117.97531,50.75607],[-117.97532,50.75612],[-117.97532,50.75617],[-117.97533,50.75621],[-117.97536,50.75627],[-117.97539,50.75632],[-117.97543,50.75637],[-117.97549,50.75643],[-117.97555,50.75647],[-117.97562,50.75653],[-117.97571,50.75659],[-117.97577,50.75663],[-117.97582,50.75668],[-117.97587,50.75671],[-117.9759,50.75675],[-117.97592,50.75678],[-117.97594,50.75685],[-117.97596,50.75691],[-117.97597,50.75698],[-117.97602,50.75704],[-117.97606,50.7571],[-117.97613,50.75715],[-117.97623,50.75718],[-117.97634,50.75719],[-117.97646,50.75719],[-117.97656,50.75719],[-117.9766,50.75719],[-117.97664,50.75719],[-117.97673,50.75719],[-117.97684,50.75716],[-117.97695,50.75714],[-117.97704,50.7571],[-117.97714,50.75706],[-117.97722,50.75702],[-117.97729,50.75698],[-117.97737,50.75693],[-117.97742,50.75692],[-117.97746,50.75689],[-117.97757,50.75683],[-117.97765,50.7568],[-117.97774,50.75675],[-117.97781,50.75671],[-117.97789,50.75668],[-117.97798,50.75663],[-117.97812,50.75657],[-117.97823,50.75651],[-117.97833,50.75648],[-117.97844,50.75643],[-117.97855,50.75639],[-117.97867,50.75636],[-117.97878,50.75633],[-117.97888,50.75628],[-117.97899,50.75624],[-117.9791,50.75618],[-117.97917,50.75614],[-117.97924,50.75608],[-117.97928,50.75603],[-117.97934,50.75597],[-117.97941,50.75591],[-117.97952,50.75583],[-117.97963,50.75576],[-117.97976,50.75572],[-117.97987,50.75567],[-117.98,50.75563],[-117.98007,50.7556],[-117.98012,50.75555],[-117.98018,50.75552],[-117.98024,50.75548],[-117.98028,50.75543],[-117.98036,50.75534],[-117.98043,50.75522],[-117.98047,50.75517],[-117.98053,50.7551],[-117.98064,50.75501],[-117.98079,50.75497],[-117.98089,50.75497],[-117.98093,50.75498],[-117.98101,50.755],[-117.98112,50.75504],[-117.98119,50.7551],[-117.98126,50.75517],[-117.98131,50.75527],[-117.98134,50.75538],[-117.98134,50.7555],[-117.98133,50.7556],[-117.98132,50.75562],[-117.9813,50.75568],[-117.98125,50.75577],[-117.98121,50.75589],[-117.98114,50.756],[-117.98107,50.75613],[-117.981,50.75626],[-117.98089,50.75641],[-117.9808,50.75655],[-117.98069,50.75668],[-117.9806,50.75678],[-117.98051,50.75686],[-117.98045,50.75692],[-117.98038,50.75699],[-117.9803,50.75707],[-117.98021,50.75716],[-117.98015,50.75724],[-117.98005,50.75733],[-117.97995,50.75741],[-117.97985,50.75749],[-117.97974,50.75756],[-117.97963,50.75764],[-117.97948,50.75774],[-117.97932,50.75784],[-117.97918,50.75794],[-117.97906,50.75803],[-117.97897,50.7581],[-117.97887,50.75818],[-117.97875,50.75827],[-117.97862,50.75838],[-117.97848,50.75849],[-117.97833,50.7586],[-117.97816,50.75871],[-117.97799,50.75882],[-117.97783,50.75893],[-117.97766,50.75904],[-117.97748,50.75916],[-117.97737,50.75926],[-117.97723,50.75938]]}},
{"type":"Feature","properties":{"spotId":"G-grouse-drive-0062","kind":"roadside","km":4.41,"climbM":630,"name":"580 m S of Mackenzie Creek","flags":[]},"geometry":{"type":"LineString","coordinates":[[-117.80126,50.64833],[-117.8013,50.64819],[-117.80148,50.64802],[-117.80168,50.64782],[-117.80176,50.64775],[-117.80197,50.64757],[-117.80215,50.64741],[-117.80226,50.64725],[-117.80231,50.64709],[-117.80238,50.64685],[-117.80245,50.64669],[-117.80248,50.64648],[-117.80244,50.64619],[-117.80235,50.64597],[-117.80241,50.64573],[-117.80248,50.64558],[-117.80268,50.64535],[-117.80284,50.64525],[-117.80302,50.64507],[-117.803,50.64494],[-117.80287,50.64487],[-117.80267,50.64491],[-117.80252,50.64502],[-117.80204,50.64535],[-117.80182,50.64551],[-117.80151,50.64573],[-117.80131,50.64597],[-117.80122,50.64609],[-117.80117,50.64618],[-117.801,50.64633],[-117.80077,50.64645],[-117.80047,50.64652],[-117.79992,50.6466],[-117.79957,50.64676],[-117.7992,50.64695],[-117.79884,50.64711],[-117.79853,50.64726],[-117.79828,50.64736],[-117.79793,50.64748],[-117.79754,50.64764],[-117.79666,50.64818],[-117.79648,50.64827],[-117.79615,50.64844],[-117.79586,50.64851],[-117.79547,50.64867],[-117.79529,50.64875],[-117.79492,50.64895],[-117.79434,50.64919],[-117.79401,50.64934],[-117.79362,50.64948],[-117.79341,50.64958],[-117.79309,50.64973],[-117.79283,50.64987],[-117.79259,50.64998],[-117.79236,50.65008],[-117.79201,50.65022],[-117.79174,50.65036],[-117.7915,50.65048],[-117.79125,50.65056],[-117.79095,50.65069],[-117.79065,50.65087],[-117.79036,50.65102],[-117.79007,50.65118],[-117.78979,50.65134],[-117.78958,50.65148],[-117.7894,50.65162],[-117.7893,50.65172],[-117.78856,50.65228],[-117.78814,50.65253],[-117.78796,50.65262],[-117.78772,50.65275],[-117.78722,50.65301],[-117.787,50.65313],[-117.78684,50.65323],[-117.78665,50.65336],[-117.7865,50.65345],[-117.78625,50.65357],[-117.78606,50.65367],[-117.78581,50.6538],[-117.78563,50.65387],[-117.7854,50.65396],[-117.78518,50.654],[-117.78486,50.65421],[-117.7846,50.65434],[-117.78433,50.6545],[-117.784,50.65464],[-117.78376,50.65476],[-117.78344,50.65486],[-117.7831,50.65494],[-117.78275,50.65503],[-117.78235,50.65509],[-117.78199,50.65515],[-117.7816,50.65523],[-117.78126,50.6553],[-117.78103,50.65534],[-117.7807,50.65533],[-117.78033,50.65525],[-117.77996,50.65525],[-117.7797,50.65528],[-117.77939,50.65532],[-117.77916,50.65526],[-117.77877,50.65505],[-117.77849,50.65491],[-117.77829,50.65482],[-117.77802,50.65474],[-117.7777,50.65476],[-117.77743,50.65481],[-117.7769,50.65497],[-117.77662,50.65504],[-117.77629,50.65506],[-117.77606,50.65503],[-117.77567,50.65488],[-117.77546,50.65478],[-117.77504,50.65465],[-117.77463,50.65452],[-117.77412,50.65428],[-117.77374,50.654],[-117.77349,50.65378],[-117.7733,50.65355],[-117.77309,50.65329],[-117.77298,50.65317],[-117.77273,50.65288],[-117.77257,50.65266],[-117.77257,50.65232],[-117.7725,50.65207],[-117.77234,50.65181],[-117.77215,50.6516],[-117.77195,50.65138],[-117.77176,50.65115],[-117.77154,50.65091],[-117.77127,50.6507],[-117.77115,50.6506],[-117.77115,50.65048],[-117.77128,50.65042],[-117.77145,50.65045],[-117.77164,50.65054],[-117.77203,50.65068],[-117.7723,50.65073],[-117.773,50.65085],[-117.77338,50.65092],[-117.77375,50.65091],[-117.77412,50.65096],[-117.77431,50.65101],[-117.77465,50.65116],[-117.77489,50.65129],[-117.77513,50.65141],[-117.77544,50.65155],[-117.77618,50.65151],[-117.7766,50.65152],[-117.77736,50.65159],[-117.77773,50.65162],[-117.77817,50.65157],[-117.77845,50.65152],[-117.7786,50.65148],[-117.77898,50.65139],[-117.77932,50.65126],[-117.77975,50.65113],[-117.78006,50.65108],[-117.78029,50.65105],[-117.78076,50.65096],[-117.78087,50.65089],[-117.78089,50.65079],[-117.7808,50.65072],[-117.78057,50.6507],[-117.7803,50.65073],[-117.77985,50.65074],[-117.77951,50.65075],[-117.77914,50.6507],[-117.77879,50.65065],[-117.77838,50.65055],[-117.77799,50.65048],[-117.77774,50.6505],[-117.77762,50.65044]]}},
{"type":"Feature","properties":{"spotId":"G-grouse-walk-0027","kind":"walk","km":0.29,"climbM":13,"name":"By Wallis Creek","flags":[]},"geometry":{"type":"LineString","coordinates":[[-117.94974,50.73517],[-117.94791,50.73281]]}},
{"type":"Feature","properties":{"spotId":"G-grouse-walk-0027","kind":"roadside","km":4.51,"climbM":439,"name":"By Wallis Creek","flags":[]},"geometry":{"type":"LineString","coordinates":[[-117.94791,50.73281],[-117.94776,50.73274],[-117.94764,50.73266],[-117.94753,50.7325],[-117.94749,50.73241],[-117.94746,50.73232],[-117.94743,50.73223],[-117.94728,50.73206],[-117.9471,50.73196],[-117.94687,50.73204],[-117.94679,50.73219],[-117.94672,50.73238],[-117.94666,50.73258],[-117.94653,50.73276],[-117.94643,50.73283],[-117.94617,50.73284],[-117.94595,50.73277],[-117.94588,50.73271],[-117.94584,50.73268],[-117.94576,50.73258],[-117.9457,50.73239],[-117.94564,50.7322],[-117.94555,50.73202],[-117.94545,50.73185],[-117.94536,50.73166],[-117.94536,50.73154],[-117.94531,50.73141],[-117.9452,50.7312],[-117.94509,50.73101],[-117.94501,50.73083],[-117.94495,50.7307],[-117.94481,50.73049],[-117.94471,50.73032],[-117.94461,50.73013],[-117.94458,50.73004],[-117.94452,50.72986],[-117.94456,50.72964],[-117.94457,50.72953],[-117.94459,50.72932],[-117.94457,50.72912],[-117.94453,50.72907],[-117.94433,50.72889],[-117.9442,50.72882],[-117.9441,50.72875],[-117.94406,50.72874],[-117.94387,50.72865],[-117.94378,50.72861],[-117.94353,50.72852],[-117.94327,50.72841],[-117.943,50.72829],[-117.94274,50.72814],[-117.94253,50.72803],[-117.9424,50.72797],[-117.94224,50.72789],[-117.94211,50.72782],[-117.94187,50.72767],[-117.94167,50.72751],[-117.94158,50.72742],[-117.94142,50.72723],[-117.9413,50.72704],[-117.94117,50.72683],[-117.94107,50.72664],[-117.94095,50.72643],[-117.94089,50.72632],[-117.94082,50.72612],[-117.94073,50.72591],[-117.94068,50.72571],[-117.94042,50.72564],[-117.94028,50.72558],[-117.94011,50.72552],[-117.94007,50.7255],[-117.93998,50.72546],[-117.93985,50.72542],[-117.93955,50.72529],[-117.9393,50.72518],[-117.93905,50.72506],[-117.93894,50.72501],[-117.93867,50.7249],[-117.93854,50.72483],[-117.93842,50.72478],[-117.93829,50.72469],[-117.93805,50.72453],[-117.93791,50.72444],[-117.93766,50.7243],[-117.93756,50.72422],[-117.93748,50.72413],[-117.93742,50.72408],[-117.93737,50.72404],[-117.93729,50.72394],[-117.9372,50.72385],[-117.93714,50.72376],[-117.93695,50.72359],[-117.93687,50.72338],[-117.93683,50.72316],[-117.93684,50.72297],[-117.93683,50.72285],[-117.93682,50.72264],[-117.93681,50.72252],[-117.93679,50.7223],[-117.93676,50.72221],[-117.9367,50.72209],[-117.93665,50.72198],[-117.93661,50.72189],[-117.93651,50.72168],[-117.93639,50.7215],[-117.93633,50.72141],[-117.93624,50.72129],[-117.93617,50.72118],[-117.93611,50.72108],[-117.93605,50.72099],[-117.93598,50.72088],[-117.93591,50.72077],[-117.93585,50.72069],[-117.93579,50.7206],[-117.93564,50.72041],[-117.93549,50.72024],[-117.93534,50.72006],[-117.93515,50.71987],[-117.93505,50.71977],[-117.93496,50.7197],[-117.93481,50.71953],[-117.93466,50.71933],[-117.93449,50.71914],[-117.93438,50.71904],[-117.93421,50.71887],[-117.93412,50.71876],[-117.9341,50.71873],[-117.93405,50.71865],[-117.93391,50.71847],[-117.93382,50.71835],[-117.93379,50.71831],[-117.93375,50.71824],[-117.93372,50.71814],[-117.93364,50.71806],[-117.93358,50.71793],[-117.93351,50.71782],[-117.93342,50.71769],[-117.93336,50.71758],[-117.93329,50.71738],[-117.93326,50.71727],[-117.93316,50.71705],[-117.93308,50.71696],[-117.93297,50.71686],[-117.93287,50.71676],[-117.93274,50.71665],[-117.93252,50.71651],[-117.93242,50.71644],[-117.9322,50.71628],[-117.93203,50.71612],[-117.93195,50.71604],[-117.93192,50.71596],[-117.93187,50.71579],[-117.93185,50.71567],[-117.93184,50.7156],[-117.93182,50.7155],[-117.93178,50.71533],[-117.9317,50.71525],[-117.93162,50.71515],[-117.93147,50.71498],[-117.93138,50.71484],[-117.93135,50.7148],[-117.93128,50.7147],[-117.93116,50.71452],[-117.93112,50.71438],[-117.9311,50.71426],[-117.931,50.71411],[-117.93093,50.71403],[-117.93086,50.71397],[-117.93074,50.71391],[-117.93046,50.71382],[-117.93033,50.71377],[-117.93021,50.71371],[-117.93014,50.71368],[-117.9301,50.71366],[-117.92996,50.71359],[-117.9297,50.71348],[-117.92948,50.7134],[-117.92937,50.71355],[-117.92945,50.71365],[-117.92959,50.71382],[-117.92974,50.71399],[-117.9298,50.71409],[-117.92988,50.71421],[-117.92994,50.71432],[-117.92992,50.71442],[-117.92985,50.71461],[-117.92982,50.71471],[-117.92978,50.71483],[-117.92973,50.71497],[-117.92965,50.71517],[-117.92957,50.71538],[-117.92954,50.71549],[-117.92956,50.7156],[-117.92966,50.7158],[-117.92972,50.71592],[-117.92976,50.716],[-117.92982,50.71604],[-117.92995,50.71616],[-117.93012,50.71635],[-117.93035,50.71652],[-117.93043,50.7166],[-117.93056,50.71678],[-117.93062,50.71688],[-117.93066,50.71698],[-117.93069,50.71709],[-117.93072,50.71721],[-117.93074,50.71741],[-117.93073,50.71756],[-117.93069,50.71777],[-117.93064,50.71788],[-117.93058,50.718],[-117.93051,50.71814],[-117.93035,50.71833],[-117.93021,50.71851],[-117.93009,50.71872],[-117.92999,50.71886],[-117.92993,50.71896],[-117.92992,50.71898],[-117.92987,50.71907],[-117.9298,50.71919],[-117.92976,50.71926],[-117.92972,50.71938],[-117.92969,50.71948],[-117.92968,50.71958],[-117.92962,50.71974],[-117.9296,50.71986],[-117.92959,50.71997],[-117.92952,50.72017],[-117.92948,50.7203],[-117.92944,50.7204],[-117.9294,50.72054],[-117.92936,50.72066],[-117.92924,50.72087],[-117.92915,50.72096],[-117.92907,50.72104],[-117.92894,50.72117],[-117.92888,50.72125],[-117.92876,50.72135],[-117.92864,50.72149],[-117.92857,50.72154],[-117.92847,50.72173],[-117.92845,50.72178],[-117.92836,50.72194],[-117.92831,50.72205],[-117.9282,50.72225],[-117.92809,50.72243],[-117.92804,50.72252],[-117.92787,50.72271],[-117.92779,50.72282],[-117.92772,50.72293],[-117.92757,50.72312],[-117.92739,50.72329],[-117.9273,50.72339],[-117.92723,50.7235],[-117.92707,50.72369],[-117.92697,50.72381],[-117.92692,50.7239],[-117.92683,50.724],[-117.92682,50.72416],[-117.9268,50.72431],[-117.9268,50.72442],[-117.9268,50.72452],[-117.92679,50.72462],[-117.92679,50.72472],[-117.92679,50.72475],[-117.92681,50.72484],[-117.92687,50.72504],[-117.92691,50.72515],[-117.927,50.72535],[-117.92705,50.72544],[-117.92709,50.72554],[-117.92714,50.72574],[-117.92717,50.72595],[-117.9272,50.72605],[-117.92725,50.72625],[-117.92726,50.72635],[-117.92728,50.72648],[-117.92727,50.72658],[-117.92725,50.72665],[-117.92725,50.72669],[-117.92724,50.72681],[-117.92719,50.72696],[-117.92718,50.72703],[-117.92719,50.72715],[-117.92717,50.72727],[-117.92713,50.72737],[-117.92702,50.72753],[-117.92698,50.72759]]}},
{"type":"Feature","properties":{"spotId":"G-grouse-walk-0057","kind":"walk","km":1.4,"climbM":138,"name":"420 m S of Wallis Creek","flags":[]},"geometry":{"type":"LineString","coordinates":[[-117.92884,50.7151],[-117.92698,50.72759]]}},
{"type":"Feature","properties":{"spotId":"G-grouse-walk-0057","kind":"roadside","km":4.51,"climbM":374,"name":"420 m S of Wallis Creek","flags":[]},"geometry":{"type":"LineString","coordinates":[[-117.92698,50.72759],[-117.92691,50.72774],[-117.92691,50.72779],[-117.92688,50.72795],[-117.92688,50.72806],[-117.92682,50.72827],[-117.92679,50.72836],[-117.92675,50.72846],[-117.9267,50.72856],[-117.92656,50.72869],[-117.92634,50.72872],[-117.9263,50.72869],[-117.92619,50.72861],[-117.92614,50.72855],[-117.92611,50.72835],[-117.92608,50.72826],[-117.92606,50.72816],[-117.92598,50.72796],[-117.9259,50.72777],[-117.92584,50.72766],[-117.92578,50.72755],[-117.92568,50.72735],[-117.92562,50.72725],[-117.92555,50.72716],[-117.92546,50.72704],[-117.92535,50.72693],[-117.9252,50.72676],[-117.92503,50.72657],[-117.925,50.72654],[-117.92491,50.72644],[-117.92484,50.72635],[-117.92474,50.72628],[-117.92456,50.7261],[-117.92445,50.72597],[-117.92442,50.72593],[-117.92436,50.72582],[-117.92432,50.7257],[-117.92427,50.72559],[-117.9242,50.72541],[-117.92414,50.72533],[-117.92409,50.72521],[-117.92393,50.72503],[-117.92385,50.72495],[-117.92376,50.72488],[-117.92366,50.72472],[-117.92364,50.72469],[-117.92353,50.72448],[-117.9235,50.7244],[-117.92342,50.7243],[-117.92338,50.72415],[-117.92336,50.72409],[-117.92332,50.72397],[-117.92332,50.72387],[-117.92327,50.72378],[-117.92326,50.72367],[-117.9232,50.72348],[-117.92319,50.7234],[-117.92314,50.72334],[-117.92305,50.72322],[-117.92299,50.72307],[-117.92299,50.723],[-117.92299,50.72297],[-117.9229,50.72273],[-117.92285,50.72255],[-117.92272,50.72223],[-117.92257,50.722],[-117.92247,50.72175],[-117.92232,50.7216],[-117.92224,50.72152],[-117.92213,50.72138],[-117.92203,50.72124],[-117.92194,50.72109],[-117.92193,50.72107],[-117.92186,50.72093],[-117.92181,50.72078],[-117.92182,50.72049],[-117.92186,50.72026],[-117.92188,50.72014],[-117.92188,50.71997],[-117.92186,50.7199],[-117.92179,50.71975],[-117.92179,50.71972],[-117.92179,50.71968],[-117.92176,50.71959],[-117.92166,50.71944],[-117.92152,50.7192],[-117.92138,50.719],[-117.92133,50.71885],[-117.92128,50.71875],[-117.92119,50.71867],[-117.92112,50.71858],[-117.92107,50.71849],[-117.92104,50.7183],[-117.92102,50.71799],[-117.92096,50.71782],[-117.92079,50.71761],[-117.92056,50.71747],[-117.9204,50.71732],[-117.92015,50.71709],[-117.91986,50.71688],[-117.91973,50.71677],[-117.91955,50.71667],[-117.91945,50.71661],[-117.91925,50.71651],[-117.91918,50.71646],[-117.91912,50.7164],[-117.91906,50.71624],[-117.91901,50.7161],[-117.91897,50.71598],[-117.91897,50.71594],[-117.91895,50.71587],[-117.91892,50.71578],[-117.91889,50.71568],[-117.91886,50.71558],[-117.91884,50.71538],[-117.91884,50.71526],[-117.91881,50.71507],[-117.91879,50.71485],[-117.91879,50.71472],[-117.91877,50.71461],[-117.91875,50.71447],[-117.91846,50.71454],[-117.9183,50.7146],[-117.91819,50.71467],[-117.91801,50.71483],[-117.91782,50.715],[-117.91782,50.71494],[-117.91784,50.71493],[-117.9178,50.71485],[-117.91757,50.71458],[-117.91745,50.71441],[-117.91732,50.71427],[-117.91722,50.71415],[-117.91714,50.71391],[-117.917,50.71375],[-117.91684,50.71362],[-117.91666,50.71331],[-117.91642,50.71302],[-117.9163,50.7129],[-117.91622,50.71282],[-117.91601,50.71268],[-117.91594,50.71261],[-117.91589,50.71232],[-117.91588,50.71226],[-117.91586,50.71217],[-117.91582,50.71212],[-117.91569,50.71196],[-117.91567,50.71194],[-117.91562,50.71188],[-117.91553,50.71182],[-117.91539,50.71174],[-117.91516,50.71161],[-117.91502,50.71156],[-117.91462,50.71145],[-117.9145,50.71141],[-117.91436,50.71135],[-117.91432,50.71133],[-117.91403,50.7112],[-117.91386,50.71109],[-117.91354,50.71082],[-117.91343,50.71068],[-117.9134,50.7106],[-117.91334,50.71045],[-117.9133,50.71008],[-117.91327,50.70999],[-117.91324,50.7099],[-117.9132,50.7098],[-117.91317,50.70969],[-117.91312,50.70958],[-117.91308,50.70947],[-117.91302,50.70936],[-117.91297,50.70927],[-117.91293,50.70919],[-117.9129,50.70913],[-117.91286,50.70907],[-117.91277,50.709],[-117.91264,50.70892],[-117.91251,50.70883],[-117.91238,50.70875],[-117.9123,50.70869],[-117.91221,50.70862],[-117.91215,50.70856],[-117.91209,50.70849],[-117.91204,50.70841],[-117.91201,50.7083],[-117.91198,50.7082],[-117.91196,50.7081],[-117.91193,50.70802],[-117.9119,50.70796],[-117.91184,50.70791],[-117.91171,50.70786],[-117.91157,50.70782],[-117.9114,50.70775],[-117.91126,50.7077],[-117.91117,50.70765],[-117.9111,50.70759],[-117.91103,50.70754],[-117.91096,50.70748],[-117.91087,50.70742],[-117.91071,50.70732],[-117.91056,50.70724],[-117.9104,50.70717],[-117.91024,50.70711],[-117.91013,50.70705],[-117.91001,50.707],[-117.90987,50.70693],[-117.90973,50.70685],[-117.90958,50.70676],[-117.90945,50.70667],[-117.90931,50.70658],[-117.90917,50.70649],[-117.90902,50.70641],[-117.90888,50.70631],[-117.90871,50.70621],[-117.90855,50.70611],[-117.90841,50.70602],[-117.90826,50.70594],[-117.90815,50.70586],[-117.90805,50.70581],[-117.90795,50.70575],[-117.90781,50.70569],[-117.90766,50.70561],[-117.90749,50.70552],[-117.90733,50.70543],[-117.90719,50.70535],[-117.90706,50.70527],[-117.90692,50.70519],[-117.90676,50.70511],[-117.90659,50.70504],[-117.90643,50.70499],[-117.90628,50.70493],[-117.90612,50.70489],[-117.90599,50.70486],[-117.90588,50.70483],[-117.90576,50.70479],[-117.90562,50.70475],[-117.90546,50.7047],[-117.90529,50.70464],[-117.90512,50.70457],[-117.90499,50.70452],[-117.90485,50.70448],[-117.90472,50.70443],[-117.90458,50.70439],[-117.90442,50.70437],[-117.90434,50.70436],[-117.90427,50.70437],[-117.9042,50.70437],[-117.90414,50.70436],[-117.90407,50.70436],[-117.904,50.7044],[-117.90393,50.70445],[-117.90386,50.70449],[-117.9038,50.70451],[-117.90376,50.70454],[-117.90372,50.70456],[-117.90366,50.70459],[-117.90359,50.70463],[-117.90352,50.70468],[-117.90347,50.70472],[-117.90337,50.70481],[-117.90329,50.7049],[-117.90322,50.70499],[-117.90315,50.70506],[-117.90308,50.70509],[-117.90299,50.70512],[-117.90287,50.70514],[-117.90271,50.70516],[-117.90257,50.70518],[-117.90244,50.70519],[-117.90232,50.7052],[-117.90217,50.70521],[-117.90203,50.70522],[-117.90188,50.70524],[-117.90174,50.70527],[-117.9016,50.7053],[-117.90145,50.70534],[-117.90133,50.70539],[-117.90123,50.70542],[-117.90115,50.70546],[-117.9011,50.70547],[-117.90106,50.70549],[-117.901,50.70551],[-117.90095,50.70552],[-117.90091,50.70554],[-117.90081,50.70558],[-117.90072,50.70562],[-117.90064,50.70567],[-117.90058,50.70573],[-117.9005,50.70579],[-117.90046,50.70583],[-117.9004,50.70588],[-117.90035,50.70592],[-117.90029,50.70595],[-117.90025,50.70597],[-117.90016,50.70598],[-117.90008,50.706],[-117.89998,50.70602],[-117.89988,50.70604],[-117.8998,50.70606],[-117.89966,50.70613],[-117.89955,50.70621],[-117.89945,50.70631],[-117.89934,50.70642],[-117.89923,50.70652],[-117.89911,50.70659],[-117.899,50.70665],[-117.8989,50.70671],[-117.89881,50.70676],[-117.89874,50.70681],[-117.89865,50.70688],[-117.89857,50.70699],[-117.89847,50.70711],[-117.89839,50.70723],[-117.89832,50.70733],[-117.89822,50.70744],[-117.89813,50.70755],[-117.89801,50.70765],[-117.89789,50.70776],[-117.89775,50.70789],[-117.8977,50.70803],[-117.89763,50.70811],[-117.89721,50.70844],[-117.89712,50.70849],[-117.89706,50.70856],[-117.897,50.70875],[-117.89699,50.70891],[-117.89692,50.70898],[-117.89684,50.70903],[-117.89677,50.7091],[-117.89674,50.70918],[-117.89669,50.70926],[-117.89649,50.70941],[-117.89631,50.70952],[-117.89616,50.70967],[-117.89612,50.70989],[-117.89605,50.71005],[-117.89602,50.7102],[-117.89598,50.71028],[-117.89595,50.71031]]}},
{"type":"Feature","properties":{"spotId":"G-moose-atv-0030","kind":"ride","km":1.78,"climbM":186,"name":"920 m W of Upper Arrow Lake","flags":[]},"geometry":{"type":"LineString","coordinates":[[-117.94902,50.60447],[-117.94907,50.60444],[-117.94916,50.60443],[-117.94923,50.6044],[-117.9493,50.60438],[-117.94935,50.60437],[-117.94941,50.60434],[-117.94949,50.60432],[-117.94959,50.60428],[-117.94969,50.60423],[-117.94977,50.60421],[-117.94986,50.60418],[-117.94994,50.60415],[-117.95003,50.60412],[-117.95012,50.6041],[-117.95022,50.60408],[-117.95031,50.60407],[-117.95039,50.60407],[-117.95048,50.60406],[-117.95055,50.60404],[-117.95062,50.60402],[-117.95066,50.60401],[-117.95072,50.60399],[-117.95077,50.60396],[-117.95083,50.60394],[-117.95087,50.60393],[-117.95094,50.60391],[-117.95101,50.60389],[-117.95108,50.60387],[-117.95117,50.60385],[-117.95124,50.60382],[-117.95132,50.60379],[-117.9514,50.60374],[-117.95146,50.6037],[-117.95153,50.60365],[-117.95158,50.60361],[-117.95164,50.60359],[-117.9517,50.60355],[-117.95175,50.60352],[-117.95179,50.6035],[-117.95185,50.60347],[-117.95192,50.60341],[-117.95197,50.60336],[-117.95202,50.60329],[-117.95206,50.60321],[-117.95211,50.60312],[-117.95215,50.60305],[-117.95221,50.60298],[-117.95226,50.60293],[-117.95231,50.60287],[-117.95235,50.60283],[-117.95239,50.60277],[-117.95244,50.60272],[-117.95248,50.60265],[-117.95254,50.60258],[-117.95259,50.60252],[-117.95265,50.60245],[-117.9527,50.60237],[-117.95276,50.6023],[-117.95281,50.60223],[-117.95287,50.60214],[-117.95291,50.60208],[-117.95295,50.60202],[-117.95299,50.60197],[-117.95303,50.60191],[-117.95305,50.60187],[-117.95309,50.60181],[-117.95312,50.60175],[-117.95317,50.60168],[-117.95321,50.6016],[-117.95325,50.60154],[-117.95329,50.6015],[-117.95332,50.60145],[-117.95336,50.60141],[-117.95342,50.60136],[-117.95346,50.60131],[-117.9535,50.60126],[-117.95354,50.60122],[-117.95357,50.60118],[-117.95361,50.60114],[-117.95364,50.60111],[-117.95367,50.60109],[-117.95369,50.60106],[-117.95372,50.60103],[-117.95376,50.60102],[-117.95379,50.60099],[-117.95383,50.60097],[-117.95389,50.60095],[-117.95395,50.60093],[-117.95402,50.60092],[-117.95409,50.60091],[-117.9542,50.6009],[-117.95423,50.60089],[-117.95431,50.60088],[-117.95441,50.60086],[-117.9545,50.60085],[-117.95458,50.60084],[-117.95468,50.60081],[-117.95478,50.60078],[-117.95488,50.60075],[-117.95499,50.60071],[-117.95507,50.60067],[-117.95514,50.60064],[-117.95523,50.60062],[-117.9553,50.60058],[-117.95538,50.60054],[-117.95545,50.60051],[-117.95553,50.60047],[-117.9556,50.60043],[-117.95569,50.60038],[-117.95576,50.60033],[-117.95581,50.60029],[-117.95585,50.60025],[-117.95591,50.60021],[-117.95597,50.60016],[-117.95601,50.60012],[-117.95606,50.60008],[-117.95609,50.60004],[-117.95615,50.6],[-117.95617,50.59996],[-117.95622,50.59992],[-117.95624,50.59987],[-117.95628,50.59983],[-117.95631,50.59977],[-117.95632,50.59973],[-117.95635,50.59968],[-117.95636,50.59964],[-117.95639,50.59958],[-117.95643,50.59953],[-117.95649,50.59947],[-117.95653,50.59943],[-117.95657,50.59938],[-117.95661,50.59936],[-117.95665,50.59931],[-117.95668,50.59927],[-117.95671,50.59922],[-117.95672,50.59917],[-117.95674,50.59912],[-117.95673,50.59907],[-117.95673,50.59902],[-117.95675,50.59898],[-117.95676,50.59893],[-117.95677,50.5989],[-117.9568,50.59888],[-117.95683,50.59884],[-117.95687,50.59881],[-117.9569,50.59879],[-117.95694,50.59876],[-117.95697,50.59875],[-117.957,50.59874],[-117.95704,50.59874],[-117.95707,50.59875],[-117.9571,50.59875],[-117.95712,50.59877],[-117.95715,50.59882],[-117.95715,50.59887],[-117.95714,50.59895],[-117.95714,50.59899],[-117.95713,50.59904],[-117.95712,50.59909],[-117.95712,50.59914],[-117.95712,50.59919],[-117.95712,50.59924],[-117.95712,50.59929],[-117.95712,50.59933],[-117.95714,50.59941],[-117.95714,50.59947],[-117.95714,50.59953],[-117.95714,50.59959],[-117.95714,50.59963],[-117.95714,50.59968],[-117.95716,50.59975],[-117.95716,50.59984],[-117.95716,50.59993],[-117.95716,50.6],[-117.95716,50.60007],[-117.95717,50.60012],[-117.95718,50.60016],[-117.95718,50.6002],[-117.95718,50.60023],[-117.95718,50.60032],[-117.95719,50.6004],[-117.95717,50.60049],[-117.95718,50.60059],[-117.95718,50.60071],[-117.95717,50.60079],[-117.95715,50.60087],[-117.95715,50.60093],[-117.95716,50.60099],[-117.95714,50.60106],[-117.95714,50.6011],[-117.95713,50.60116],[-117.95713,50.60121],[-117.95713,50.60127],[-117.95712,50.60131],[-117.95712,50.60139],[-117.95712,50.60147],[-117.9571,50.60155],[-117.95707,50.60164],[-117.95703,50.60174],[-117.95699,50.60181],[-117.95695,50.60187],[-117.95691,50.60193],[-117.95686,50.602],[-117.95682,50.60205],[-117.9568,50.60211],[-117.95677,50.60215],[-117.95674,50.6022],[-117.95671,50.60225],[-117.95669,50.6023],[-117.95663,50.60237],[-117.95659,50.60243],[-117.95655,50.60249],[-117.95652,50.60258],[-117.95648,50.60267],[-117.95646,50.60274],[-117.95644,50.6028],[-117.95642,50.60286],[-117.9564,50.60291],[-117.9564,50.60296],[-117.95639,50.60304],[-117.95639,50.60311],[-117.95638,50.60319],[-117.95638,50.60326],[-117.95637,50.60333],[-117.95634,50.60342],[-117.95632,50.60351],[-117.95629,50.60361],[-117.95626,50.60371],[-117.95625,50.60383],[-117.95624,50.60395],[-117.95624,50.60404],[-117.95624,50.60413],[-117.95625,50.60422],[-117.95625,50.60431],[-117.95625,50.60438],[-117.95625,50.60444],[-117.95625,50.60451],[-117.95625,50.60459],[-117.95625,50.60462],[-117.95625,50.60466],[-117.95627,50.60472],[-117.95627,50.60478],[-117.95629,50.60484],[-117.95629,50.60491],[-117.95632,50.60499],[-117.95633,50.60507],[-117.95634,50.60514],[-117.95635,50.60519],[-117.95637,50.60526],[-117.9564,50.60531],[-117.95642,50.60535],[-117.95645,50.60538],[-117.9565,50.60543],[-117.95653,50.60547],[-117.95655,50.60552],[-117.9566,50.60557],[-117.95661,50.60562],[-117.95663,50.60568],[-117.95664,50.60573],[-117.95667,50.60579],[-117.9567,50.60583],[-117.95672,50.60587],[-117.95675,50.60589],[-117.95677,50.60593],[-117.95679,50.60596],[-117.95682,50.60601],[-117.95686,50.60607],[-117.95691,50.60613],[-117.95695,50.6062],[-117.95701,50.60625],[-117.95704,50.60629],[-117.95708,50.60631],[-117.95711,50.60634]]}},
{"type":"Feature","properties":{"spotId":"G-moose-atv-0030","kind":"walk","km":0.15,"climbM":0,"name":"920 m W of Upper Arrow Lake","flags":[]},"geometry":{"type":"LineString","coordinates":[[-117.95711,50.60634],[-117.95556,50.60722]]}},
{"type":"Feature","properties":{"spotId":"G-moose-drive-0008","kind":"walk","km":0.15,"climbM":0,"name":"200 m SW of Upper Arrow Lake","flags":["Route crosses private land (ParcelMap BC, updated 2026-09-25): get permission first or go around."]},"geometry":{"type":"LineString","coordinates":[[-117.95253,50.66542],[-117.95058,50.66602]]}},
{"type":"Feature","properties":{"spotId":"G-moose-drive-0025","kind":"walk","km":0.07,"climbM":5,"name":"240 m SW of Bannock Creek","flags":[]},"geometry":{"type":"LineString","coordinates":[[-117.95707,50.64403],[-117.95758,50.64353]]}},
{"type":"Feature","properties":{"spotId":"G-moose-drive-0049","kind":"walk","km":0.06,"climbM":0,"name":"By Mackenzie Creek","flags":[]},"geometry":{"type":"LineString","coordinates":[[-117.81934,50.65509],[-117.82016,50.65526]]}},
{"type":"Feature","properties":{"spotId":"G-moose-drive-0052","kind":"walk","km":0.22,"climbM":0,"name":"1.0 km NW of Jenning Creek","flags":[]},"geometry":{"type":"LineString","coordinates":[[-117.8218,50.63796],[-117.82378,50.63944]]}},
{"type":"Feature","properties":{"spotId":"G-moose-walk-0022","kind":"walk","km":0.89,"climbM":0,"name":"420 m E of Little Fish Creek","flags":[]},"geometry":{"type":"LineString","coordinates":[[-118.00274,50.66604],[-117.99138,50.66948]]}},
{"type":"Feature","properties":{"spotId":"G-moose-walk-0031","kind":"walk","km":0.43,"climbM":82,"name":"1.4 km W of Bannock Creek","flags":["Route crosses private land (ParcelMap BC, updated 2026-09-25): get permission first or go around."]},"geometry":{"type":"LineString","coordinates":[[-117.97273,50.64717],[-117.97601,50.64396]]}},
{"type":"Feature","properties":{"spotId":"G-moose-walk-0036","kind":"walk","km":0.49,"climbM":0,"name":"810 m NW of Upper Arrow Lake","flags":[]},"geometry":{"type":"LineString","coordinates":[[-117.96127,50.51993],[-117.95986,50.51938],[-117.95987,50.51926],[-117.95988,50.51916],[-117.95988,50.51905],[-117.95988,50.51894],[-117.95989,50.51882],[-117.95988,50.51868],[-117.95987,50.51854],[-117.95985,50.51839],[-117.95984,50.51824],[-117.95983,50.51811],[-117.95982,50.51798],[-117.9598,50.51784],[-117.95979,50.51769],[-117.95976,50.51755],[-117.95971,50.51741],[-117.95967,50.51725],[-117.95965,50.51709],[-117.95963,50.51693],[-117.95962,50.51676],[-117.95961,50.51659],[-117.95961,50.51643],[-117.95959,50.5163],[-117.95948,50.5162],[-117.9593,50.51617],[-117.95926,50.51616]]}},
{"type":"Feature","properties":{"spotId":"G-moose-walk-0039","kind":"walk","km":0.3,"climbM":0,"name":"1.6 km W of Upper Arrow Lake","flags":[]},"geometry":{"type":"LineString","coordinates":[[-117.97935,50.51431],[-117.97516,50.5137]]}},
{"type":"Feature","properties":{"spotId":"G-moose-walk-0067","kind":"walk","km":0.83,"climbM":558,"name":"1.5 km NE of Jenning Creek","flags":[]},"geometry":{"type":"LineString","coordinates":[[-117.79768,50.64759],[-117.79137,50.64131]]}}
]}
