{"type":"FeatureCollection","features":[
{"type":"Feature","properties":{"spotId":"G-camp-camp-0006","kind":"walk","km":0.16,"climbM":0,"name":"170 m N of Tank Creek","flags":[]},"geometry":{"type":"LineString","coordinates":[[-117.98177,50.78228],[-117.98405,50.78196]]}},
{"type":"Feature","properties":{"spotId":"G-camp-camp-0048","kind":"walk","km":0.13,"climbM":0,"name":"By Akolkolex River","flags":[]},"geometry":{"type":"LineString","coordinates":[[-117.96097,50.87195],[-117.95934,50.87147]]}},
{"type":"Feature","properties":{"spotId":"G-deer-atv-0014","kind":"ride","km":1.44,"climbM":110,"name":"1.1 km E of Upper Arrow Lake","flags":[]},"geometry":{"type":"LineString","coordinates":[[-117.9789,50.76417],[-117.97876,50.76411],[-117.9786,50.76401],[-117.9785,50.76394],[-117.97843,50.76389],[-117.97808,50.76375],[-117.97775,50.76362],[-117.9775,50.76356],[-117.97721,50.76355],[-117.97712,50.76356],[-117.97707,50.76355],[-117.97701,50.76348],[-117.97696,50.76338],[-117.97693,50.76329],[-117.97698,50.76318],[-117.9772,50.7631],[-117.97707,50.7629],[-117.97697,50.76281],[-117.97686,50.76275],[-117.97673,50.76262],[-117.97661,50.76253],[-117.97652,50.76244],[-117.97642,50.76232],[-117.97636,50.76226],[-117.97632,50.76221],[-117.97622,50.76211],[-117.97609,50.76195],[-117.97593,50.76176],[-117.97591,50.76174],[-117.97577,50.7616],[-117.97557,50.76142],[-117.97545,50.76131],[-117.97525,50.76116],[-117.97514,50.76107],[-117.97501,50.76097],[-117.97486,50.76088],[-117.97465,50.76074],[-117.9744,50.76061],[-117.97426,50.76053],[-117.9741,50.76046],[-117.97397,50.76039],[-117.97381,50.7603],[-117.97369,50.76024],[-117.97354,50.76016],[-117.97344,50.76009],[-117.97334,50.76],[-117.97333,50.75997],[-117.97328,50.75991],[-117.97324,50.75981],[-117.97319,50.75971],[-117.97318,50.75961],[-117.97318,50.7596],[-117.97319,50.75948],[-117.97321,50.75937],[-117.97321,50.75935],[-117.97314,50.75918],[-117.97291,50.75917],[-117.97281,50.75922],[-117.97279,50.75923],[-117.97265,50.75937],[-117.97255,50.75948],[-117.97248,50.75957],[-117.97236,50.75968],[-117.97227,50.75976],[-117.97219,50.75986],[-117.97199,50.76005],[-117.97188,50.76016],[-117.97173,50.76027],[-117.97159,50.76036],[-117.97146,50.76044],[-117.97132,50.76053],[-117.97116,50.76061],[-117.97101,50.76067],[-117.9709,50.76075],[-117.97071,50.76093],[-117.97064,50.76102],[-117.97057,50.76115],[-117.97049,50.76133],[-117.97041,50.76153],[-117.97027,50.76171],[-117.97022,50.76184],[-117.97018,50.76193],[-117.97016,50.76204],[-117.97019,50.76213],[-117.97022,50.76223],[-117.97027,50.76234],[-117.97037,50.76251],[-117.97043,50.7626],[-117.97045,50.76271],[-117.97044,50.76283],[-117.97025,50.76296],[-117.97048,50.76311],[-117.97081,50.76341],[-117.9714,50.76385],[-117.97186,50.76424]]}},
{"type":"Feature","properties":{"spotId":"G-deer-atv-0014","kind":"walk","km":0.03,"climbM":0,"name":"1.1 km E of Upper Arrow Lake","flags":[]},"geometry":{"type":"LineString","coordinates":[[-117.97186,50.76424],[-117.97219,50.76409]]}},
{"type":"Feature","properties":{"spotId":"G-deer-drive-0022","kind":"walk","km":0.27,"climbM":0,"name":"430 m S of Tank Creek","flags":[]},"geometry":{"type":"LineString","coordinates":[[-117.96863,50.77844],[-117.97121,50.77665]]}},
{"type":"Feature","properties":{"spotId":"G-deer-drive-0029","kind":"walk","km":0.05,"climbM":14,"name":"1.1 km E of Upper Arrow Lake","flags":[]},"geometry":{"type":"LineString","coordinates":[[-117.98729,50.79091],[-117.98655,50.79103]]}},
{"type":"Feature","properties":{"spotId":"G-deer-drive-0038","kind":"walk","km":0.25,"climbM":0,"name":"350 m SE of Crawford Creek","flags":[]},"geometry":{"type":"LineString","coordinates":[[-117.95485,50.75549],[-117.95835,50.75573]]}},
{"type":"Feature","properties":{"spotId":"G-deer-drive-0053","kind":"walk","km":0.23,"climbM":6,"name":"410 m N of Upper Arrow Lake","flags":[]},"geometry":{"type":"LineString","coordinates":[[-117.7681,50.75861],[-117.77126,50.75825]]}},
{"type":"Feature","properties":{"spotId":"G-deer-walk-0026","kind":"walk","km":0.45,"climbM":59,"name":"330 m NE of Upper Arrow Lake","flags":[]},"geometry":{"type":"LineString","coordinates":[[-117.98227,50.76051],[-117.97939,50.76121],[-117.97936,50.76121],[-117.97914,50.76117],[-117.97881,50.76114],[-117.97867,50.7611],[-117.97854,50.76104],[-117.97837,50.76095],[-117.97821,50.76086],[-117.97808,50.76078],[-117.97798,50.76067],[-117.97789,50.76056],[-117.97774,50.76037],[-117.97766,50.7603],[-117.97751,50.76021],[-117.9775,50.7602],[-117.97724,50.76004],[-117.97711,50.75998],[-117.97697,50.75991]]}},
{"type":"Feature","properties":{"spotId":"G-deer-walk-0030","kind":"walk","km":0.55,"climbM":37,"name":"560 m NW of Upper Arrow Lake","flags":[]},"geometry":{"type":"LineString","coordinates":[[-117.7867,50.75395],[-117.78017,50.75662]]}},
{"type":"Feature","properties":{"spotId":"G-deer-walk-0038","kind":"walk","km":0.58,"climbM":11,"name":"650 m E of Upper Arrow Lake","flags":[]},"geometry":{"type":"LineString","coordinates":[[-117.98527,50.78718],[-117.99223,50.78435]]}},
{"type":"Feature","properties":{"spotId":"G-deer-walk-0049","kind":"walk","km":0.39,"climbM":0,"name":"900 m S of Tank Creek","flags":[]},"geometry":{"type":"LineString","coordinates":[[-117.96561,50.7756],[-117.96849,50.77257]]}},
{"type":"Feature","properties":{"spotId":"G-duck-drive-0164","kind":"walk","km":0.12,"climbM":0,"name":"Unnamed wetland 1.1 km E of Upper Arrow Lake","flags":[]},"geometry":{"type":"LineString","coordinates":[[-117.9852,50.78711],[-117.98662,50.78652]]}},
{"type":"Feature","properties":{"spotId":"G-duck-walk-0019","kind":"walk","km":0.44,"climbM":0,"name":"Unnamed wetland by Upper Arrow Lake","flags":[]},"geometry":{"type":"LineString","coordinates":[[-117.9814,50.76706],[-117.98727,50.76567]]}},
{"type":"Feature","properties":{"spotId":"G-grouse-atv-0040","kind":"walk","km":0.8,"climbM":5,"name":"By Akolkolex River","flags":[]},"geometry":{"type":"LineString","coordinates":[[-117.84277,50.95302],[-117.84008,50.95998]]}},
{"type":"Feature","properties":{"spotId":"G-grouse-atv-0040","kind":"ride","km":4.61,"climbM":272,"name":"By Akolkolex River","flags":[]},"geometry":{"type":"LineString","coordinates":[[-117.84008,50.95998],[-117.84011,50.96053],[-117.84008,50.96126],[-117.84005,50.96168],[-117.84005,50.96179],[-117.83999,50.96215],[-117.83996,50.96248],[-117.83988,50.96271],[-117.83983,50.96292],[-117.83972,50.96325],[-117.83974,50.96403],[-117.83972,50.96412],[-117.83959,50.96447],[-117.83959,50.96463],[-117.83969,50.96491],[-117.83971,50.96519],[-117.83969,50.96525],[-117.83946,50.96547],[-117.83921,50.96563],[-117.83907,50.96568],[-117.83895,50.96574],[-117.83846,50.96611],[-117.8384,50.96635],[-117.8382,50.96638],[-117.83814,50.96649],[-117.83814,50.96656],[-117.83805,50.96673],[-117.83774,50.96693],[-117.83753,50.9672],[-117.83748,50.96748],[-117.83752,50.96774],[-117.83757,50.96792],[-117.83778,50.96828],[-117.83791,50.96848],[-117.83798,50.96865],[-117.838,50.96875],[-117.83796,50.96899],[-117.83789,50.9691],[-117.83764,50.96935],[-117.83744,50.96948],[-117.83703,50.96974],[-117.83701,50.96976],[-117.83674,50.97009],[-117.83635,50.97051],[-117.83624,50.97085],[-117.83613,50.97114],[-117.83609,50.97122],[-117.83587,50.97141],[-117.83558,50.97157],[-117.8353,50.97171],[-117.8352,50.97178],[-117.83505,50.97198],[-117.83487,50.97232],[-117.8343,50.97291],[-117.83425,50.97321],[-117.83426,50.9734],[-117.83437,50.97358],[-117.8345,50.97375],[-117.83455,50.97397],[-117.83449,50.9741],[-117.83444,50.97419],[-117.83415,50.97438],[-117.83398,50.97448],[-117.83353,50.97482],[-117.83341,50.97496],[-117.83333,50.9753],[-117.83328,50.97543],[-117.83321,50.97565],[-117.8331,50.97622],[-117.83256,50.97671],[-117.83228,50.977],[-117.83186,50.97762],[-117.8318,50.97798],[-117.8318,50.97823],[-117.83179,50.9784],[-117.83148,50.97863],[-117.8311,50.97885],[-117.831,50.97893],[-117.8307,50.9794],[-117.83063,50.97958],[-117.83062,50.97966],[-117.83069,50.97988],[-117.83085,50.98019],[-117.83081,50.9804],[-117.83063,50.98056],[-117.83056,50.98071],[-117.83055,50.98082],[-117.83047,50.98094],[-117.83035,50.98101],[-117.83002,50.98114],[-117.82994,50.98121],[-117.82985,50.98141],[-117.82903,50.98141],[-117.82844,50.98157],[-117.82775,50.98208],[-117.82696,50.9829],[-117.82647,50.98327],[-117.82616,50.98373],[-117.82617,50.9841],[-117.82622,50.98451],[-117.82618,50.9848],[-117.8258,50.98541],[-117.82491,50.98589],[-117.82386,50.98634],[-117.82358,50.98657],[-117.82338,50.98725],[-117.82302,50.98819],[-117.82268,50.98872],[-117.82208,50.98963],[-117.82133,50.99007],[-117.82055,50.99087],[-117.81971,50.99179],[-117.81915,50.99266],[-117.81846,50.99356],[-117.81805,50.99401],[-117.81737,50.99459],[-117.81675,50.99505],[-117.81661,50.99527],[-117.81657,50.99557],[-117.81666,50.99594]]}},
{"type":"Feature","properties":{"spotId":"G-grouse-atv-0055","kind":"ride","km":3.41,"climbM":236,"name":"690 m S of Tank Creek","flags":[]},"geometry":{"type":"LineString","coordinates":[[-117.96476,50.77528],[-117.96461,50.77513],[-117.96455,50.77505],[-117.96446,50.77492],[-117.96431,50.77478],[-117.96421,50.77466],[-117.96414,50.77456],[-117.96395,50.77441],[-117.96376,50.77425],[-117.96366,50.77414],[-117.96346,50.77397],[-117.96336,50.77389],[-117.9632,50.77382],[-117.96307,50.77379],[-117.9629,50.77374],[-117.96272,50.7737],[-117.96256,50.77366],[-117.96228,50.77358],[-117.96211,50.77355],[-117.96195,50.77349],[-117.96176,50.77343],[-117.96162,50.77338],[-117.96142,50.77334],[-117.96122,50.77331],[-117.96104,50.77328],[-117.96086,50.77322],[-117.96074,50.77315],[-117.9606,50.773],[-117.96042,50.77282],[-117.96033,50.77275],[-117.96023,50.77265],[-117.96007,50.77246],[-117.95985,50.77233],[-117.95965,50.77216],[-117.95958,50.77203],[-117.95953,50.77194],[-117.95954,50.77178],[-117.95953,50.77157],[-117.95951,50.77144],[-117.95944,50.77135],[-117.95922,50.77121],[-117.95894,50.77112],[-117.95881,50.77105],[-117.95873,50.77097],[-117.95867,50.77075],[-117.95861,50.77064],[-117.95846,50.77054],[-117.95834,50.77049],[-117.95816,50.77043],[-117.95786,50.77035],[-117.95769,50.77033],[-117.95751,50.77029],[-117.95737,50.77026],[-117.9571,50.77012],[-117.95686,50.76999],[-117.95661,50.76989],[-117.95644,50.76982],[-117.95628,50.76978],[-117.95611,50.76974],[-117.95596,50.7697],[-117.95574,50.76968],[-117.95544,50.76963],[-117.95512,50.76956],[-117.95479,50.7695],[-117.95446,50.76944],[-117.95413,50.76937],[-117.95398,50.76932],[-117.95368,50.76923],[-117.95352,50.76919],[-117.95328,50.76921],[-117.95313,50.76924],[-117.95296,50.76931],[-117.95268,50.76942],[-117.95253,50.7695],[-117.95237,50.76956],[-117.95218,50.76956],[-117.95198,50.76957],[-117.95178,50.76956],[-117.95157,50.76953],[-117.95126,50.76951],[-117.95093,50.76951],[-117.95061,50.76954],[-117.95039,50.76956],[-117.95025,50.76959],[-117.94998,50.76962],[-117.94973,50.76965],[-117.94953,50.76968],[-117.94936,50.7697],[-117.94918,50.76972],[-117.94902,50.76976],[-117.94874,50.76982],[-117.9486,50.76987],[-117.9484,50.76994],[-117.94825,50.77],[-117.94805,50.77003],[-117.94785,50.77005],[-117.94765,50.77007],[-117.94747,50.77006],[-117.94729,50.77007],[-117.94707,50.77006],[-117.94686,50.77003],[-117.94667,50.77],[-117.94635,50.76997],[-117.94613,50.76997],[-117.94579,50.77],[-117.9455,50.77007],[-117.94516,50.77012],[-117.94482,50.77016],[-117.94451,50.77024],[-117.94435,50.7703],[-117.9442,50.77036],[-117.94399,50.77044],[-117.94383,50.77049],[-117.94368,50.77058],[-117.9435,50.77066],[-117.9432,50.77079],[-117.94305,50.77085],[-117.94291,50.77091],[-117.94265,50.77104],[-117.94251,50.77112],[-117.94237,50.77119],[-117.94226,50.77125],[-117.94215,50.77131],[-117.94202,50.77141],[-117.94191,50.77147],[-117.94167,50.77162],[-117.94139,50.77174],[-117.94124,50.7718],[-117.94105,50.77186],[-117.9409,50.77189],[-117.94071,50.77191],[-117.94052,50.77193],[-117.9403,50.77194],[-117.94012,50.77197],[-117.93998,50.77201],[-117.93984,50.77208],[-117.93974,50.77212],[-117.93968,50.77215],[-117.93956,50.77218],[-117.93947,50.77219],[-117.93929,50.7722],[-117.93912,50.77219],[-117.93896,50.77215],[-117.9388,50.77209],[-117.93867,50.77202],[-117.9385,50.77196],[-117.93834,50.7719],[-117.938,50.77191],[-117.93768,50.77193],[-117.93745,50.77196],[-117.93716,50.77202],[-117.93697,50.77201],[-117.93677,50.77202],[-117.93653,50.77201],[-117.93639,50.77199],[-117.93619,50.77197],[-117.93602,50.77194],[-117.93585,50.77191],[-117.93555,50.77186],[-117.93525,50.77183],[-117.93507,50.77184],[-117.93474,50.77192],[-117.93457,50.77198],[-117.93453,50.77199],[-117.93433,50.77204],[-117.93418,50.77208],[-117.93397,50.77213],[-117.93377,50.7722],[-117.9336,50.77228],[-117.93346,50.77236],[-117.93331,50.77239],[-117.93297,50.77242],[-117.93281,50.77244],[-117.93257,50.77246],[-117.93243,50.77251],[-117.93226,50.77255],[-117.93209,50.7726],[-117.93196,50.77265],[-117.93177,50.77276],[-117.93154,50.77286],[-117.93137,50.77291],[-117.93119,50.77296],[-117.93091,50.77305],[-117.93065,50.77314],[-117.9306,50.77319],[-117.93034,50.77325],[-117.93009,50.77334],[-117.92992,50.77338],[-117.92979,50.77343],[-117.92964,50.77348],[-117.92946,50.77359],[-117.92922,50.77373],[-117.92897,50.77389],[-117.92869,50.77401],[-117.92857,50.77407],[-117.9285,50.77411],[-117.92843,50.77414],[-117.92828,50.77419],[-117.92798,50.77427],[-117.9278,50.77431],[-117.92761,50.77434],[-117.92746,50.77438],[-117.92729,50.77444],[-117.92699,50.77456],[-117.92688,50.77462],[-117.92666,50.77478],[-117.92644,50.77495],[-117.92635,50.77504],[-117.92623,50.77521],[-117.92617,50.77531],[-117.92606,50.77544],[-117.92595,50.77562],[-117.92585,50.77571],[-117.92564,50.77583],[-117.9255,50.77576],[-117.92536,50.7757],[-117.9252,50.77562],[-117.9251,50.77554]]}},
{"type":"Feature","properties":{"spotId":"G-grouse-atv-0070","kind":"ride","km":3.93,"climbM":425,"name":"380 m NW of Akolkolex River","flags":[]},"geometry":{"type":"LineString","coordinates":[[-117.97956,50.86308],[-117.9798,50.86314],[-117.97991,50.8632],[-117.97995,50.86329],[-117.97989,50.86337],[-117.97976,50.86345],[-117.97922,50.86371],[-117.97897,50.86388],[-117.97885,50.86402],[-117.97853,50.86426],[-117.97832,50.86451],[-117.97827,50.86481],[-117.97828,50.86495],[-117.97821,50.86521],[-117.97823,50.8653],[-117.97838,50.86545],[-117.97838,50.86552],[-117.97828,50.86557],[-117.97814,50.86559],[-117.978,50.86557],[-117.97765,50.86547],[-117.97744,50.86531],[-117.97728,50.86523],[-117.97711,50.8653],[-117.97695,50.86553],[-117.97682,50.86573],[-117.97678,50.86585],[-117.97664,50.86613],[-117.97622,50.86672],[-117.97595,50.86702],[-117.97551,50.8677],[-117.97533,50.86801],[-117.97529,50.86822],[-117.97552,50.8685],[-117.97554,50.86872],[-117.97554,50.86895],[-117.97547,50.86916],[-117.97527,50.86932],[-117.97493,50.86954],[-117.97463,50.86973],[-117.97443,50.86988],[-117.97437,50.87001],[-117.9744,50.87012],[-117.97449,50.87019],[-117.9746,50.87025],[-117.97474,50.87026],[-117.97488,50.87015],[-117.97514,50.87001],[-117.97553,50.86989],[-117.9758,50.8698],[-117.97606,50.86977],[-117.9763,50.86967],[-117.97652,50.86958],[-117.97663,50.86944],[-117.97669,50.86939],[-117.97696,50.86906],[-117.9772,50.86861],[-117.97724,50.86847],[-117.97738,50.86829],[-117.97751,50.86825],[-117.97763,50.86825],[-117.97774,50.86829],[-117.97779,50.86837],[-117.97778,50.86845],[-117.97756,50.86874],[-117.97746,50.8689],[-117.9774,50.8691],[-117.97734,50.86943],[-117.97729,50.86953],[-117.97716,50.86982],[-117.97694,50.8703],[-117.97683,50.87053],[-117.97664,50.87083],[-117.9765,50.87096],[-117.97629,50.8712],[-117.97615,50.87132],[-117.97614,50.87145],[-117.97622,50.87153],[-117.97635,50.87157],[-117.97652,50.87156],[-117.97679,50.87135],[-117.97729,50.87106],[-117.97786,50.87061],[-117.97832,50.87027],[-117.97858,50.87007],[-117.97878,50.86991],[-117.9789,50.86979],[-117.97906,50.86967],[-117.97944,50.86946],[-117.97955,50.86935],[-117.98006,50.86911],[-117.98044,50.86897],[-117.98075,50.86887],[-117.98181,50.86873],[-117.98206,50.86874],[-117.98222,50.86876],[-117.98228,50.86884],[-117.98226,50.86893],[-117.98191,50.86911],[-117.98175,50.86926],[-117.98148,50.86948],[-117.98135,50.86971],[-117.98125,50.86996],[-117.98124,50.87016],[-117.98114,50.87041],[-117.98108,50.87053],[-117.98093,50.87069],[-117.98072,50.87091],[-117.98054,50.8711],[-117.98026,50.87128],[-117.98004,50.87147],[-117.97989,50.87167],[-117.97959,50.8721],[-117.97943,50.87245],[-117.97936,50.87274],[-117.97933,50.87299],[-117.97935,50.87314],[-117.97949,50.87319],[-117.97963,50.87318],[-117.97973,50.873],[-117.97986,50.8727],[-117.98028,50.87236],[-117.98096,50.87211],[-117.98161,50.87192],[-117.98202,50.87178],[-117.98272,50.87159],[-117.98323,50.87144],[-117.98383,50.87127],[-117.98449,50.87118],[-117.98494,50.87118],[-117.98517,50.87124],[-117.98517,50.87137],[-117.98504,50.87148],[-117.98477,50.87155],[-117.98444,50.87158],[-117.98407,50.87167],[-117.98356,50.87196],[-117.98326,50.87217],[-117.98318,50.87234],[-117.98309,50.87267],[-117.98301,50.87323],[-117.98295,50.87361],[-117.98295,50.87378],[-117.98304,50.87386],[-117.98317,50.87391],[-117.98329,50.87391],[-117.9834,50.87387],[-117.98346,50.87379],[-117.98365,50.87347],[-117.98381,50.87322],[-117.98413,50.87304],[-117.98446,50.87282]]}},
{"type":"Feature","properties":{"spotId":"G-grouse-drive-0002","kind":"roadside","km":4.73,"climbM":69,"name":"By Standfast Creek","flags":[]},"geometry":{"type":"LineString","coordinates":[[-117.87858,50.91605],[-117.87867,50.91597],[-117.87872,50.91594],[-117.87873,50.91591],[-117.87877,50.91588],[-117.8788,50.91586],[-117.87883,50.91583],[-117.87888,50.91577],[-117.87894,50.91571],[-117.87897,50.91568],[-117.87898,50.91565],[-117.87899,50.91562],[-117.87901,50.9156],[-117.87902,50.91557],[-117.87902,50.91554],[-117.87904,50.91553],[-117.87903,50.9155],[-117.87905,50.91547],[-117.87906,50.91544],[-117.87906,50.91541],[-117.87908,50.91539],[-117.87908,50.91537],[-117.87907,50.91535],[-117.87909,50.91533],[-117.87909,50.91528],[-117.87909,50.91525],[-117.8791,50.91521],[-117.87911,50.91517],[-117.87911,50.91515],[-117.87913,50.91511],[-117.87914,50.91507],[-117.87915,50.91504],[-117.87918,50.91499],[-117.87921,50.91496],[-117.87924,50.91493],[-117.87927,50.91491],[-117.87929,50.91489],[-117.87932,50.91488],[-117.87935,50.91486],[-117.87941,50.91483],[-117.87943,50.91481],[-117.87948,50.91479],[-117.87952,50.91478],[-117.87955,50.91477],[-117.8796,50.91474],[-117.87965,50.91471],[-117.8797,50.91467],[-117.87976,50.91464],[-117.87981,50.9146],[-117.87984,50.91458],[-117.87989,50.91457],[-117.87991,50.91455],[-117.87994,50.91453],[-117.87998,50.91451],[-117.88005,50.91447],[-117.88012,50.91445],[-117.88021,50.91443],[-117.88028,50.91442],[-117.88035,50.9144],[-117.88044,50.91438],[-117.88052,50.91436],[-117.88061,50.91435],[-117.88071,50.91434],[-117.88081,50.91432],[-117.88088,50.91432],[-117.88093,50.91431],[-117.881,50.91431],[-117.88108,50.91431],[-117.88116,50.91431],[-117.88123,50.91431],[-117.88129,50.91431],[-117.88135,50.9143],[-117.88139,50.91429],[-117.88143,50.91428],[-117.88147,50.91427],[-117.88152,50.91426],[-117.88156,50.91424],[-117.8816,50.91421],[-117.88164,50.91419],[-117.8817,50.91416],[-117.88174,50.91413],[-117.88178,50.91409],[-117.88182,50.91406],[-117.88188,50.91402],[-117.88191,50.91399],[-117.88194,50.91397],[-117.88198,50.91394],[-117.88201,50.91392],[-117.88203,50.9139],[-117.88206,50.91389],[-117.88211,50.91387],[-117.88215,50.91386],[-117.88219,50.91385],[-117.88222,50.91382],[-117.88226,50.9138],[-117.88229,50.91377],[-117.88232,50.91375],[-117.88234,50.91372],[-117.88237,50.91368],[-117.88241,50.91365],[-117.88246,50.91361],[-117.8825,50.91358],[-117.88254,50.91356],[-117.88258,50.91352],[-117.88267,50.91345],[-117.88269,50.91342],[-117.88275,50.91339],[-117.88279,50.91336],[-117.88282,50.91332],[-117.88285,50.91329],[-117.88288,50.91326],[-117.88289,50.91323],[-117.8829,50.91318],[-117.88292,50.91315],[-117.88292,50.91311],[-117.88291,50.91306],[-117.88291,50.913],[-117.88291,50.91295],[-117.88291,50.91292],[-117.8829,50.9129],[-117.8829,50.91288],[-117.8829,50.91285],[-117.88288,50.91282],[-117.88288,50.91278],[-117.88287,50.91274],[-117.88287,50.91272],[-117.88287,50.91269],[-117.88286,50.91265],[-117.88286,50.91262],[-117.88285,50.91258],[-117.88285,50.91255],[-117.88286,50.91251],[-117.88286,50.91247],[-117.88286,50.91245],[-117.88286,50.91242],[-117.88286,50.91239],[-117.88286,50.91237],[-117.88287,50.91233],[-117.88289,50.91229],[-117.8829,50.91225],[-117.88291,50.91221],[-117.88291,50.91218],[-117.88294,50.91214],[-117.88298,50.91208],[-117.88301,50.91201],[-117.88305,50.91194],[-117.88306,50.91187],[-117.88309,50.91181],[-117.8831,50.91178],[-117.8831,50.91175],[-117.8831,50.91173],[-117.8831,50.9117],[-117.88312,50.91165],[-117.88312,50.91163],[-117.88311,50.91159],[-117.88311,50.91156],[-117.88311,50.91153],[-117.88311,50.91149],[-117.88311,50.91145],[-117.88311,50.9114],[-117.8831,50.91135],[-117.88309,50.91129],[-117.88308,50.91125],[-117.88306,50.9112],[-117.88305,50.91114],[-117.88302,50.91109],[-117.88299,50.91102],[-117.88296,50.91094],[-117.88296,50.9109],[-117.88294,50.91086],[-117.88294,50.91085],[-117.88293,50.91082],[-117.88293,50.9108],[-117.88291,50.91073],[-117.88288,50.91066],[-117.88287,50.91058],[-117.88284,50.91051],[-117.88282,50.91043],[-117.88279,50.91039],[-117.88276,50.91034],[-117.88273,50.91029],[-117.88271,50.91024],[-117.88268,50.91018],[-117.88263,50.91012],[-117.88262,50.91007],[-117.88259,50.91001],[-117.88256,50.90997],[-117.88254,50.90992],[-117.88253,50.90989],[-117.88251,50.90985],[-117.8825,50.90982],[-117.88248,50.90979],[-117.88248,50.90975],[-117.88247,50.90972],[-117.88247,50.90968],[-117.88247,50.90965],[-117.88247,50.9096],[-117.88246,50.90956],[-117.88246,50.90949],[-117.88246,50.90945],[-117.88246,50.9094],[-117.88248,50.90937],[-117.88247,50.90932],[-117.88249,50.90928],[-117.8825,50.90922],[-117.8825,50.90917],[-117.88251,50.90911],[-117.88253,50.90906],[-117.88254,50.90902],[-117.88255,50.90898],[-117.88257,50.90893],[-117.88258,50.90888],[-117.88259,50.90883],[-117.88261,50.90877],[-117.88262,50.90872],[-117.88263,50.90867],[-117.88264,50.90865],[-117.88265,50.90864],[-117.88265,50.9086],[-117.88266,50.90855],[-117.88267,50.90848],[-117.88267,50.90842],[-117.88268,50.90837],[-117.8827,50.9083],[-117.88271,50.90827],[-117.88271,50.90823],[-117.88272,50.90819],[-117.88272,50.90814],[-117.88274,50.9081],[-117.88273,50.90802],[-117.88275,50.90796],[-117.88275,50.9079],[-117.88276,50.90784],[-117.88276,50.90778],[-117.88277,50.90774],[-117.88277,50.90767],[-117.88278,50.90762],[-117.8828,50.90757],[-117.8828,50.90752],[-117.88281,50.90748],[-117.88281,50.90744],[-117.88281,50.90739],[-117.88281,50.90734],[-117.88281,50.90729],[-117.8828,50.90722],[-117.8828,50.90717],[-117.8828,50.90712],[-117.8828,50.90709],[-117.8828,50.90704],[-117.8828,50.90697],[-117.8828,50.9069],[-117.8828,50.90683],[-117.8828,50.90676],[-117.88279,50.90668],[-117.88279,50.90665],[-117.88278,50.90661],[-117.88278,50.90658],[-117.88278,50.90653],[-117.88276,50.90649],[-117.88275,50.90643],[-117.88275,50.90638],[-117.88273,50.90633],[-117.88272,50.9063],[-117.88272,50.90625],[-117.8827,50.90618],[-117.8827,50.90611],[-117.88271,50.90603],[-117.88271,50.90595],[-117.88271,50.90588],[-117.88271,50.90583],[-117.88271,50.90579],[-117.88271,50.90573],[-117.88269,50.90567],[-117.88269,50.9056],[-117.88267,50.90555],[-117.88267,50.90551],[-117.88267,50.90547],[-117.88267,50.90544],[-117.88267,50.90542],[-117.88267,50.90536],[-117.88269,50.90515],[-117.88271,50.90507],[-117.88271,50.90503],[-117.88271,50.90498],[-117.8827,50.90493],[-117.88272,50.90489],[-117.88272,50.90485],[-117.88272,50.90481],[-117.88272,50.90478],[-117.88271,50.90473],[-117.88273,50.90469],[-117.88273,50.90465],[-117.88274,50.90462],[-117.88274,50.90459],[-117.88274,50.90456],[-117.88275,50.90453],[-117.88275,50.90449],[-117.88277,50.90445],[-117.88277,50.90442],[-117.88277,50.90439],[-117.88278,50.90435],[-117.88279,50.90432],[-117.88282,50.90427],[-117.88285,50.90424],[-117.88289,50.90419],[-117.88292,50.90414],[-117.88297,50.90408],[-117.88301,50.90403],[-117.88306,50.90398],[-117.8831,50.90393],[-117.88315,50.90387],[-117.88318,50.90382],[-117.88321,50.90378],[-117.88322,50.90374],[-117.88325,50.90369],[-117.88326,50.90366],[-117.88328,50.90363],[-117.88329,50.9036],[-117.8833,50.90359],[-117.88333,50.90356],[-117.88335,50.90352],[-117.88337,50.90348],[-117.88342,50.90344],[-117.88344,50.90341],[-117.88349,50.90337],[-117.88353,50.90333],[-117.88358,50.90329],[-117.88364,50.90325],[-117.8837,50.90321],[-117.88375,50.90317],[-117.88379,50.90313],[-117.88385,50.90311],[-117.88388,50.90307],[-117.88392,50.90303],[-117.88396,50.903],[-117.88402,50.90294],[-117.88406,50.9029],[-117.8841,50.90285],[-117.88414,50.90282],[-117.88417,50.90278],[-117.88423,50.90274],[-117.88428,50.90271],[-117.88435,50.90267],[-117.88444,50.90264],[-117.8845,50.90262],[-117.88457,50.90261],[-117.88461,50.9026],[-117.88465,50.90258],[-117.88469,50.90257],[-117.88474,50.90255],[-117.88479,50.90253],[-117.88486,50.9025],[-117.88492,50.90246],[-117.88495,50.90241],[-117.88499,50.90237],[-117.88504,50.90232],[-117.88507,50.90229],[-117.8851,50.90226],[-117.88513,50.90223],[-117.88516,50.90221],[-117.88518,50.90219],[-117.88523,50.90216],[-117.88524,50.90213],[-117.88528,50.90211],[-117.88531,50.90207],[-117.88534,50.90204],[-117.88538,50.902],[-117.88539,50.90196],[-117.88541,50.90192],[-117.88542,50.90189],[-117.88543,50.90184],[-117.88543,50.90178],[-117.88543,50.90173],[-117.88544,50.90167],[-117.88544,50.90162],[-117.88544,50.90156],[-117.88546,50.90152],[-117.88547,50.90148],[-117.88548,50.90144],[-117.88548,50.90139],[-117.8855,50.90135],[-117.88551,50.90129],[-117.88552,50.90125],[-117.88554,50.90121],[-117.88555,50.90117],[-117.88556,50.90112],[-117.88558,50.90107],[-117.88559,50.90102],[-117.88562,50.90097],[-117.88563,50.90092],[-117.88564,50.90089],[-117.88567,50.90084],[-117.8857,50.90081],[-117.88571,50.90076],[-117.88574,50.90072],[-117.88577,50.90067],[-117.88579,50.90063],[-117.88582,50.90059],[-117.88585,50.90056],[-117.88588,50.90054],[-117.88591,50.9005],[-117.88596,50.90043],[-117.88602,50.90036],[-117.88607,50.9003],[-117.88613,50.90024],[-117.88618,50.90017],[-117.88621,50.90015],[-117.88624,50.90011],[-117.88628,50.90007],[-117.88631,50.90003],[-117.88634,50.9],[-117.88639,50.89994],[-117.88643,50.89988],[-117.88648,50.89982],[-117.88652,50.89976],[-117.88659,50.89968],[-117.8866,50.89964],[-117.88663,50.8996],[-117.88664,50.89958],[-117.88666,50.89955],[-117.88667,50.89952],[-117.88668,50.89951],[-117.8867,50.89948],[-117.88671,50.89945],[-117.88672,50.89942],[-117.88674,50.89939],[-117.88677,50.89934],[-117.88678,50.8993],[-117.88681,50.89925],[-117.88683,50.89921],[-117.88686,50.89915],[-117.88689,50.89913],[-117.88692,50.89909],[-117.88693,50.89906],[-117.88696,50.89904],[-117.88697,50.89902],[-117.88701,50.89898],[-117.88704,50.89894],[-117.88708,50.89891],[-117.88713,50.89887],[-117.88717,50.89883],[-117.88724,50.89875],[-117.88729,50.89869],[-117.88735,50.89864],[-117.88742,50.89857],[-117.88749,50.89853],[-117.8875,50.89851],[-117.88756,50.89848],[-117.8876,50.89845],[-117.88764,50.89843],[-117.88769,50.89841],[-117.88773,50.89839],[-117.88778,50.89835],[-117.88784,50.89832],[-117.8879,50.89827],[-117.88795,50.89823],[-117.88801,50.89818],[-117.88813,50.89806],[-117.88823,50.89796],[-117.88833,50.89786],[-117.88841,50.89773],[-117.88855,50.89758],[-117.88861,50.89753],[-117.88865,50.89748],[-117.88869,50.89744],[-117.88873,50.89739],[-117.88876,50.89736],[-117.8888,50.89731],[-117.88884,50.89728],[-117.8889,50.89722],[-117.88896,50.89717],[-117.88903,50.89711],[-117.88911,50.89704],[-117.88918,50.89698],[-117.88924,50.89692],[-117.88929,50.89688],[-117.88932,50.89684],[-117.88935,50.89681],[-117.88936,50.8968],[-117.88939,50.89678],[-117.8894,50.89675],[-117.88947,50.89666],[-117.88951,50.89658],[-117.88954,50.8965],[-117.8896,50.89641],[-117.88969,50.89631],[-117.88978,50.89624],[-117.88986,50.8962],[-117.88996,50.89616],[-117.89005,50.89614],[-117.89013,50.89613],[-117.89024,50.89611],[-117.89036,50.8961],[-117.89049,50.89609],[-117.89061,50.89606],[-117.89067,50.89605],[-117.89073,50.89604],[-117.89087,50.89601],[-117.891,50.89599],[-117.89112,50.89596],[-117.89127,50.89593],[-117.89145,50.89588],[-117.8916,50.89584],[-117.89175,50.8958],[-117.89186,50.89576],[-117.89196,50.89571],[-117.89203,50.89566],[-117.89211,50.89558],[-117.8922,50.8955],[-117.89228,50.8954],[-117.89235,50.8953],[-117.89243,50.8952],[-117.89245,50.89517],[-117.89247,50.89513],[-117.8925,50.89509],[-117.8925,50.89505],[-117.89251,50.89501],[-117.8925,50.89496],[-117.89244,50.8949],[-117.89237,50.89487],[-117.89228,50.89482],[-117.89221,50.89478],[-117.89211,50.89471],[-117.89204,50.89464],[-117.89198,50.89455],[-117.89193,50.89447],[-117.89189,50.89439],[-117.89185,50.89432],[-117.8918,50.89426],[-117.89177,50.89419],[-117.89171,50.89411],[-117.89168,50.89401],[-117.89165,50.89394],[-117.89164,50.89387],[-117.89165,50.89381],[-117.89166,50.89375],[-117.89168,50.89368],[-117.89169,50.89361],[-117.89173,50.89355],[-117.89177,50.8935],[-117.89183,50.89345],[-117.89189,50.8934],[-117.89197,50.89338],[-117.89207,50.89335],[-117.89217,50.89332],[-117.89228,50.89328],[-117.89239,50.89326],[-117.89251,50.89322],[-117.89261,50.89318],[-117.89271,50.89316],[-117.89279,50.89313],[-117.89289,50.89309],[-117.893,50.89305],[-117.89311,50.89302],[-117.89323,50.89297],[-117.89335,50.89293],[-117.89348,50.89289],[-117.89367,50.89283],[-117.89384,50.89279],[-117.89399,50.89276],[-117.89418,50.89272],[-117.89427,50.89269],[-117.8944,50.89267],[-117.89454,50.89265],[-117.89467,50.89263],[-117.89477,50.89261],[-117.89487,50.89258],[-117.89497,50.89255],[-117.89511,50.89248],[-117.89525,50.8924],[-117.89539,50.8923],[-117.89552,50.89219],[-117.89564,50.8921],[-117.89574,50.89203],[-117.89582,50.89198],[-117.89591,50.89192],[-117.89601,50.89185],[-117.89611,50.89177],[-117.8962,50.89167],[-117.89626,50.89159],[-117.89631,50.8915],[-117.89635,50.89142],[-117.8964,50.89134],[-117.89645,50.89126],[-117.89652,50.89119],[-117.89658,50.89112],[-117.89665,50.89104],[-117.8967,50.89098],[-117.89679,50.8909],[-117.89685,50.89082],[-117.89692,50.89073],[-117.89699,50.89063],[-117.89708,50.89051],[-117.89715,50.89041],[-117.8972,50.89031],[-117.89726,50.89022],[-117.89731,50.89014],[-117.89738,50.89007],[-117.89746,50.89],[-117.89758,50.88993],[-117.89769,50.88986],[-117.89782,50.8898],[-117.89791,50.88974],[-117.89803,50.88967],[-117.89813,50.8896],[-117.89822,50.88952],[-117.89834,50.88942],[-117.89845,50.88932],[-117.89853,50.88923],[-117.8986,50.88917],[-117.89866,50.88911],[-117.89871,50.88904],[-117.89877,50.88899],[-117.89882,50.88894],[-117.89889,50.8889],[-117.89896,50.88884],[-117.89903,50.8888],[-117.8991,50.88875],[-117.8992,50.88869],[-117.89927,50.88863],[-117.89936,50.88855],[-117.89945,50.88848],[-117.89957,50.8884],[-117.89971,50.8883],[-117.89983,50.88821],[-117.89995,50.88814],[-117.90006,50.88806],[-117.90017,50.88798],[-117.90028,50.88791],[-117.90039,50.88783],[-117.90051,50.88774],[-117.90062,50.88767],[-117.90073,50.8876],[-117.90082,50.88754],[-117.90091,50.88746],[-117.90101,50.8874],[-117.90112,50.88731],[-117.90125,50.88722],[-117.90135,50.88714],[-117.90142,50.88707],[-117.9015,50.88702],[-117.90157,50.88696],[-117.90166,50.88691],[-117.90174,50.88687],[-117.90185,50.88683],[-117.90195,50.88679],[-117.90205,50.88675],[-117.90212,50.88672],[-117.90223,50.88669],[-117.90236,50.88663],[-117.90249,50.88658],[-117.90262,50.88651],[-117.90276,50.88643],[-117.90287,50.88637],[-117.90295,50.8863],[-117.90302,50.88625],[-117.90309,50.88619],[-117.90318,50.88611],[-117.90326,50.88604],[-117.90336,50.88596],[-117.90344,50.88589],[-117.90353,50.88581],[-117.90358,50.88576],[-117.90362,50.88572],[-117.90367,50.88566],[-117.90373,50.8856],[-117.9038,50.88553],[-117.90389,50.88547],[-117.90397,50.88542],[-117.90406,50.88539],[-117.90414,50.88537],[-117.90424,50.88536],[-117.90433,50.88536],[-117.90443,50.88537],[-117.90453,50.88538],[-117.90463,50.88538],[-117.90471,50.8854],[-117.90478,50.88542],[-117.9049,50.88542],[-117.90503,50.88543],[-117.90515,50.88542],[-117.90531,50.88542],[-117.90547,50.88542],[-117.90561,50.88542],[-117.90574,50.88542],[-117.90586,50.88542],[-117.90599,50.88541],[-117.90613,50.8854],[-117.90626,50.88538],[-117.90639,50.88536],[-117.9065,50.88534],[-117.90662,50.88534],[-117.90669,50.88536],[-117.90674,50.88537],[-117.90679,50.88539],[-117.90684,50.88542],[-117.9069,50.88546],[-117.90696,50.88549],[-117.90703,50.88554],[-117.90709,50.88558],[-117.90713,50.88562],[-117.90718,50.88567],[-117.90722,50.88572],[-117.90728,50.88577],[-117.90734,50.88582],[-117.90739,50.88587],[-117.90744,50.88589],[-117.90747,50.88591],[-117.90749,50.88595],[-117.90754,50.88598],[-117.90757,50.88602],[-117.90761,50.88606],[-117.90767,50.88611],[-117.90774,50.88615],[-117.90777,50.88617],[-117.9078,50.88619],[-117.90813,50.88626],[-117.90823,50.88628],[-117.90834,50.88629],[-117.90841,50.8863],[-117.90848,50.88631],[-117.90854,50.88631],[-117.9086,50.8863],[-117.90864,50.8863],[-117.90875,50.8863],[-117.90887,50.8863],[-117.90899,50.8863],[-117.90912,50.8863],[-117.90924,50.8863],[-117.90931,50.8863],[-117.90938,50.8863],[-117.90941,50.88629],[-117.90949,50.88629],[-117.90956,50.88629],[-117.90963,50.88628],[-117.9097,50.88628],[-117.90976,50.88627],[-117.90986,50.88625],[-117.90996,50.88621],[-117.90999,50.8862]]}},
{"type":"Feature","properties":{"spotId":"G-grouse-drive-0015","kind":"roadside","km":4.96,"climbM":470,"name":"300 m SE of Upper Arrow Creek","flags":[]},"geometry":{"type":"LineString","coordinates":[[-117.99784,50.81076],[-117.99774,50.81079],[-117.99765,50.81083],[-117.99756,50.81087],[-117.99749,50.81091],[-117.99742,50.81095],[-117.99734,50.81098],[-117.99725,50.81102],[-117.99715,50.81106],[-117.99707,50.81109],[-117.99697,50.81112],[-117.99689,50.81115],[-117.99682,50.81118],[-117.99673,50.81121],[-117.99666,50.81126],[-117.99658,50.81131],[-117.99649,50.8114],[-117.99641,50.81146],[-117.99636,50.81152],[-117.9963,50.8116],[-117.99626,50.81167],[-117.99622,50.81174],[-117.99619,50.8118],[-117.99616,50.81186],[-117.99616,50.81188],[-117.99614,50.81194],[-117.99612,50.812],[-117.9961,50.81207],[-117.99608,50.81215],[-117.99609,50.81222],[-117.9961,50.8123],[-117.99613,50.81239],[-117.99616,50.81247],[-117.99618,50.81254],[-117.99622,50.8126],[-117.99625,50.81267],[-117.9963,50.81275],[-117.99635,50.81282],[-117.99641,50.81289],[-117.99646,50.81296],[-117.9965,50.81303],[-117.99653,50.8131],[-117.99655,50.81316],[-117.99656,50.81321],[-117.99658,50.81327],[-117.99659,50.81333],[-117.99662,50.8134],[-117.99665,50.81347],[-117.99667,50.81353],[-117.99671,50.81357],[-117.99674,50.81362],[-117.99676,50.81369],[-117.99679,50.81376],[-117.99682,50.81383],[-117.99683,50.8139],[-117.99685,50.81397],[-117.99686,50.81403],[-117.99688,50.81411],[-117.99689,50.81419],[-117.99692,50.81428],[-117.99697,50.81437],[-117.99701,50.81446],[-117.99706,50.81455],[-117.9971,50.81462],[-117.99713,50.81469],[-117.99718,50.81476],[-117.99722,50.81485],[-117.99727,50.81494],[-117.9973,50.81503],[-117.99733,50.81511],[-117.99736,50.81518],[-117.99737,50.81526],[-117.99739,50.81535],[-117.9974,50.81543],[-117.99741,50.81551],[-117.99742,50.8156],[-117.99745,50.81569],[-117.99747,50.81578],[-117.9975,50.81585],[-117.99753,50.81593],[-117.99756,50.81601],[-117.9976,50.81611],[-117.99763,50.81622],[-117.99765,50.81631],[-117.99768,50.8164],[-117.9977,50.81649],[-117.99774,50.81657],[-117.99778,50.81664],[-117.99784,50.8167],[-117.99789,50.81677],[-117.9979,50.81683],[-117.9979,50.8169],[-117.99788,50.81693],[-117.99785,50.81698],[-117.99781,50.81701],[-117.99778,50.81707],[-117.99777,50.81712],[-117.99778,50.81723],[-117.99783,50.81732],[-117.99789,50.8174],[-117.99794,50.81747],[-117.99802,50.81754],[-117.99806,50.81762],[-117.99811,50.8177],[-117.99815,50.81779],[-117.99819,50.81786],[-117.99824,50.81793],[-117.99828,50.81799],[-117.99834,50.81804],[-117.99838,50.81812],[-117.99841,50.81821],[-117.99844,50.8183],[-117.99846,50.81842],[-117.99846,50.81852],[-117.99845,50.8186],[-117.99844,50.81869],[-117.99844,50.81877],[-117.99844,50.81885],[-117.99846,50.81893],[-117.99846,50.81901],[-117.99848,50.8191],[-117.99849,50.81916],[-117.99851,50.81922],[-117.99852,50.81928],[-117.99855,50.81935],[-117.9986,50.81942],[-117.99865,50.8195],[-117.9987,50.81956],[-117.99874,50.81962],[-117.99879,50.81968],[-117.99883,50.81972],[-117.99886,50.81978],[-117.99892,50.81985],[-117.99896,50.81994],[-117.99899,50.82003],[-117.99904,50.82011],[-117.99907,50.82018],[-117.99908,50.82025],[-117.99911,50.82031],[-117.99913,50.82039],[-117.99916,50.82047],[-117.9992,50.82057],[-117.99923,50.82067],[-117.99928,50.82075],[-117.99931,50.82082],[-117.99934,50.8209],[-117.99937,50.82098],[-117.9994,50.82104],[-117.99943,50.82111],[-117.99946,50.82117],[-117.99949,50.82125],[-117.99952,50.8213],[-117.99955,50.82138],[-117.99958,50.82145],[-117.99962,50.82154],[-117.99967,50.82163],[-117.99972,50.82174],[-117.99978,50.82184],[-117.99984,50.82192],[-117.99989,50.82199],[-117.99993,50.82205],[-117.99997,50.82212],[-118.0,50.82217],[-118.00002,50.82219],[-118.00006,50.82227],[-118.00009,50.82234],[-118.00014,50.82241],[-118.00017,50.82247],[-118.0002,50.82253],[-118.00021,50.82258],[-118.00024,50.82263],[-118.0003,50.8227],[-118.00031,50.82271],[-118.00036,50.82276],[-118.00043,50.82281],[-118.00049,50.82286],[-118.00056,50.8229],[-118.00064,50.82295],[-118.00077,50.82303],[-118.00086,50.82309],[-118.00095,50.82314],[-118.00102,50.82318],[-118.00108,50.82321],[-118.00113,50.82324],[-118.00121,50.82327],[-118.00126,50.82333],[-118.00135,50.8234],[-118.00142,50.82347],[-118.00148,50.82354],[-118.00152,50.82358],[-118.00157,50.82364],[-118.0016,50.82368],[-118.00163,50.82374],[-118.00167,50.8238],[-118.00171,50.82387],[-118.00176,50.82393],[-118.00179,50.82399],[-118.0018,50.82403],[-118.00183,50.82409],[-118.00188,50.82417],[-118.00191,50.82427],[-118.00197,50.82437],[-118.00201,50.82449],[-118.00206,50.82458],[-118.0021,50.82465],[-118.00213,50.82472],[-118.00217,50.82478],[-118.00222,50.82485],[-118.00226,50.82493],[-118.00232,50.82501],[-118.00238,50.82509],[-118.00242,50.82516],[-118.00245,50.82522],[-118.00248,50.82527],[-118.00253,50.82532],[-118.00257,50.82539],[-118.00263,50.82546],[-118.00266,50.8255],[-118.0027,50.82554],[-118.00277,50.82563],[-118.00285,50.8257],[-118.00291,50.82577],[-118.00296,50.82583],[-118.00301,50.82589],[-118.00307,50.82598],[-118.00311,50.82606],[-118.00314,50.82616],[-118.00319,50.82625],[-118.0032,50.82633],[-118.00323,50.82639],[-118.00328,50.82646],[-118.00332,50.82654],[-118.00339,50.82662],[-118.00347,50.82671],[-118.00354,50.82678],[-118.0036,50.82685],[-118.00365,50.8269],[-118.00373,50.82695],[-118.00378,50.827],[-118.00386,50.82704],[-118.00393,50.82709],[-118.00399,50.82712],[-118.00407,50.82716],[-118.00414,50.82719],[-118.0042,50.82722],[-118.00426,50.82726],[-118.00432,50.82729],[-118.00434,50.82734],[-118.00436,50.8274],[-118.00438,50.82744],[-118.00438,50.82749],[-118.00436,50.82753],[-118.00435,50.82757],[-118.00434,50.8276],[-118.00429,50.82763],[-118.00424,50.82767],[-118.00418,50.8277],[-118.00413,50.82772],[-118.00407,50.82773],[-118.00401,50.82775],[-118.00394,50.82777],[-118.00389,50.82779],[-118.0038,50.82782],[-118.00372,50.82785],[-118.00365,50.8279],[-118.00358,50.82795],[-118.00354,50.82799],[-118.00349,50.82803],[-118.00342,50.82806],[-118.00335,50.82809],[-118.00325,50.82811],[-118.00316,50.82813],[-118.00306,50.82815],[-118.00297,50.82817],[-118.0029,50.82818],[-118.00283,50.8282],[-118.00275,50.82822],[-118.00265,50.82824],[-118.00253,50.82827],[-118.00241,50.8283],[-118.00231,50.82832],[-118.00221,50.82834],[-118.00211,50.82835],[-118.00202,50.82835],[-118.00192,50.82836],[-118.00182,50.82835],[-118.00173,50.82834],[-118.00163,50.82833],[-118.00153,50.82833],[-118.00146,50.82833],[-118.00138,50.82833],[-118.00131,50.82832],[-118.00126,50.8283],[-118.0012,50.82826],[-118.00115,50.82821],[-118.00114,50.82816],[-118.00112,50.82811],[-118.00111,50.82807],[-118.00109,50.82802],[-118.00108,50.82797],[-118.00105,50.82791],[-118.00102,50.82786],[-118.00099,50.82782],[-118.00097,50.82777],[-118.00097,50.82773],[-118.00096,50.82767],[-118.00093,50.82761],[-118.0009,50.82754],[-118.00084,50.82747],[-118.0008,50.82743],[-118.00075,50.82739],[-118.00071,50.82736],[-118.00065,50.82732],[-118.00061,50.82729],[-118.00055,50.82724],[-118.00049,50.82719],[-118.00044,50.82715],[-118.00038,50.82709],[-118.00033,50.82705],[-118.00031,50.82701],[-118.00026,50.82697],[-118.00023,50.82691],[-118.00019,50.82687],[-118.00016,50.82681],[-118.00013,50.82675],[-118.00011,50.8267],[-118.00009,50.82666],[-118.00007,50.82662],[-118.00003,50.82658],[-118.0,50.82656],[-117.99998,50.82655],[-117.99991,50.82652],[-117.99985,50.82649],[-117.99978,50.82648],[-117.99971,50.82647],[-117.99964,50.82646],[-117.99958,50.82644],[-117.99953,50.82642],[-117.99947,50.82638],[-117.9994,50.82634],[-117.99934,50.82627],[-117.99929,50.82621],[-117.99928,50.82616],[-117.99924,50.8261],[-117.99921,50.82605],[-117.99916,50.82601],[-117.9991,50.82597],[-117.99905,50.82593],[-117.99898,50.8259],[-117.99892,50.82588],[-117.99888,50.82586],[-117.9988,50.82586],[-117.99873,50.82585],[-117.99866,50.82585],[-117.99859,50.82584],[-117.99842,50.82587],[-117.99827,50.8259],[-117.99811,50.82593],[-117.99804,50.82596],[-117.99796,50.82599],[-117.9978,50.82607],[-117.99773,50.82611],[-117.99769,50.82614],[-117.99763,50.82618],[-117.99758,50.82622],[-117.99752,50.82625],[-117.99745,50.82629],[-117.99739,50.82633],[-117.99734,50.82635],[-117.99727,50.82638],[-117.99721,50.8264],[-117.99714,50.82641],[-117.99707,50.82641],[-117.997,50.8264],[-117.99693,50.82638],[-117.99684,50.82638],[-117.99678,50.82636],[-117.99673,50.82635],[-117.99668,50.82634],[-117.99663,50.82632],[-117.99657,50.82632],[-117.99649,50.8263],[-117.9964,50.82629],[-117.99631,50.82627],[-117.99624,50.82626],[-117.99617,50.82626],[-117.99607,50.82624],[-117.99599,50.82621],[-117.9959,50.82619],[-117.9958,50.82615],[-117.9957,50.82612],[-117.99561,50.82608],[-117.99554,50.82605],[-117.99549,50.82603],[-117.99541,50.826],[-117.99533,50.82598],[-117.99523,50.82593],[-117.99514,50.82589],[-117.99506,50.82585],[-117.99497,50.82582],[-117.9949,50.82578],[-117.99481,50.82575],[-117.99471,50.82571],[-117.99461,50.82567],[-117.9945,50.82562],[-117.99444,50.8256],[-117.99437,50.82557],[-117.99422,50.82551],[-117.9941,50.82546],[-117.99398,50.82542],[-117.99387,50.82538],[-117.99377,50.82533],[-117.99365,50.82529],[-117.99355,50.82523],[-117.99345,50.82518],[-117.99335,50.82513],[-117.99326,50.82508],[-117.99322,50.82506],[-117.99316,50.82504],[-117.99312,50.82501],[-117.99306,50.82499],[-117.99299,50.82496],[-117.99292,50.82493],[-117.99285,50.82491],[-117.99278,50.82488],[-117.99272,50.82486],[-117.99268,50.82485],[-117.99258,50.82482],[-117.99248,50.82478],[-117.99236,50.82474],[-117.99225,50.8247],[-117.99215,50.82465],[-117.99208,50.82464],[-117.99202,50.82461],[-117.99195,50.82457],[-117.99188,50.82455],[-117.99183,50.82452],[-117.9918,50.8245],[-117.99172,50.82445],[-117.99165,50.82441],[-117.99157,50.82436],[-117.99152,50.82432],[-117.99147,50.82427],[-117.99141,50.82422],[-117.99136,50.82417],[-117.99127,50.82409],[-117.99121,50.82403],[-117.99115,50.82397],[-117.9911,50.8239],[-117.99104,50.82384],[-117.99098,50.82377],[-117.99092,50.8237],[-117.99086,50.82362],[-117.99079,50.82354],[-117.99075,50.82347],[-117.99069,50.82341],[-117.99064,50.82334],[-117.99059,50.82329],[-117.99054,50.82324],[-117.99047,50.82317],[-117.99041,50.82312],[-117.99033,50.82307],[-117.99025,50.82301],[-117.99018,50.82296],[-117.99009,50.82291],[-117.99002,50.82285],[-117.98995,50.82279],[-117.98986,50.82272],[-117.98981,50.82266],[-117.98975,50.8226],[-117.9897,50.82253],[-117.98966,50.82248],[-117.98963,50.82244],[-117.98959,50.82239],[-117.98953,50.82234],[-117.98946,50.82229],[-117.98939,50.82224],[-117.98931,50.8222],[-117.98924,50.82215],[-117.98917,50.82212],[-117.98908,50.82208],[-117.98901,50.82204],[-117.98891,50.822],[-117.98881,50.82195],[-117.9887,50.82191],[-117.98861,50.82187],[-117.98854,50.82183],[-117.98847,50.82181],[-117.9884,50.82177],[-117.98831,50.82174],[-117.98821,50.82168],[-117.98811,50.82164],[-117.98801,50.82159],[-117.98792,50.82155],[-117.98782,50.82151],[-117.98772,50.82145],[-117.98762,50.8214],[-117.98751,50.82133],[-117.98739,50.82125],[-117.98729,50.82118],[-117.98719,50.82112],[-117.98712,50.82106],[-117.98704,50.82101],[-117.98699,50.82096],[-117.98691,50.8209],[-117.98685,50.82087],[-117.98683,50.82085],[-117.98674,50.82079],[-117.98666,50.82074],[-117.9866,50.82071],[-117.98654,50.82068],[-117.98647,50.82065],[-117.98641,50.82062],[-117.98634,50.82059],[-117.98623,50.82054],[-117.98613,50.8205],[-117.98604,50.82045],[-117.98597,50.82042],[-117.98591,50.82039],[-117.98582,50.82035],[-117.98575,50.82031],[-117.98565,50.82027],[-117.98555,50.82022],[-117.98547,50.82018],[-117.98538,50.82012],[-117.98528,50.82008],[-117.98519,50.82003],[-117.98511,50.81997],[-117.98501,50.81991],[-117.98491,50.81985],[-117.98482,50.81979],[-117.98473,50.81972],[-117.98466,50.81967],[-117.9846,50.81963],[-117.98453,50.81957],[-117.98444,50.81951],[-117.98434,50.81945],[-117.98426,50.81939],[-117.98416,50.81933],[-117.9841,50.81928],[-117.98403,50.81924],[-117.98395,50.81919],[-117.98387,50.81916],[-117.98377,50.81911],[-117.98371,50.81909],[-117.98365,50.81908],[-117.9836,50.81906],[-117.98355,50.81904],[-117.98351,50.81903],[-117.98345,50.81903],[-117.98338,50.81902],[-117.98331,50.819],[-117.98324,50.81898],[-117.98318,50.81896],[-117.98315,50.81894],[-117.98313,50.81891],[-117.98311,50.81888],[-117.9831,50.81885],[-117.98308,50.8188],[-117.98305,50.81873],[-117.98302,50.81866],[-117.98298,50.81861],[-117.98295,50.81855],[-117.98293,50.81851],[-117.98289,50.81846],[-117.98286,50.8184],[-117.98281,50.81834],[-117.98277,50.81828],[-117.98273,50.81822],[-117.9827,50.81818],[-117.98265,50.81813],[-117.98263,50.81809],[-117.9826,50.81804],[-117.98254,50.81799],[-117.98249,50.81793],[-117.98244,50.81788],[-117.98239,50.81783],[-117.98235,50.81779],[-117.98231,50.81775],[-117.98228,50.8177],[-117.98225,50.81765],[-117.9822,50.8176],[-117.98216,50.81753],[-117.98212,50.81748],[-117.98207,50.81742],[-117.98201,50.81736],[-117.98196,50.8173],[-117.9819,50.81724],[-117.98184,50.81717],[-117.98178,50.8171],[-117.98172,50.81703],[-117.98168,50.81696],[-117.98165,50.81691],[-117.98162,50.81686],[-117.98159,50.8168],[-117.98157,50.81674],[-117.98154,50.81667],[-117.98153,50.8166],[-117.9815,50.81653],[-117.98147,50.8165],[-117.98144,50.81645],[-117.98143,50.81642],[-117.9814,50.81637],[-117.98135,50.81632],[-117.98132,50.81626],[-117.98128,50.8162],[-117.98125,50.81615],[-117.98122,50.8161],[-117.98119,50.81606],[-117.98116,50.81601],[-117.98113,50.81596],[-117.9811,50.81589],[-117.98107,50.81583],[-117.98104,50.81576],[-117.98103,50.81573],[-117.981,50.81569],[-117.98098,50.81566],[-117.98095,50.81561],[-117.98093,50.81557],[-117.9809,50.81551],[-117.98085,50.81545],[-117.98082,50.81541],[-117.98079,50.81536],[-117.98076,50.81532],[-117.98074,50.81528],[-117.98069,50.81524],[-117.98065,50.81519],[-117.9806,50.81514],[-117.98056,50.81509],[-117.98053,50.81505],[-117.98049,50.815],[-117.98044,50.81496],[-117.9804,50.81491],[-117.98034,50.81486],[-117.98029,50.81481],[-117.98024,50.81475],[-117.98018,50.81471],[-117.98014,50.81466],[-117.9801,50.81464],[-117.98005,50.81459],[-117.97998,50.81455],[-117.97992,50.8145],[-117.97985,50.81444],[-117.97978,50.81439],[-117.97974,50.81435],[-117.97969,50.81432],[-117.97965,50.81429],[-117.97959,50.81426],[-117.97952,50.81423],[-117.97943,50.8142],[-117.97936,50.81418],[-117.97929,50.81416],[-117.97922,50.81415],[-117.97916,50.81413],[-117.97911,50.81412],[-117.97904,50.81411],[-117.97895,50.8141],[-117.97886,50.81408],[-117.97879,50.81407],[-117.97875,50.81406],[-117.97871,50.81406],[-117.97865,50.81406],[-117.97858,50.81405],[-117.97849,50.81402],[-117.97839,50.814],[-117.97831,50.81397],[-117.97821,50.81393],[-117.97809,50.81388],[-117.97804,50.81386],[-117.97798,50.81384],[-117.97794,50.81382],[-117.97789,50.81379],[-117.97786,50.81378],[-117.97782,50.81376],[-117.97776,50.81373],[-117.97772,50.8137],[-117.97766,50.81367],[-117.97762,50.81364],[-117.97756,50.81361],[-117.97752,50.81356],[-117.97748,50.81353],[-117.97743,50.81348],[-117.97737,50.81343],[-117.9773,50.81338],[-117.97724,50.81332],[-117.97717,50.81329],[-117.97713,50.81324],[-117.97709,50.81321],[-117.97703,50.81317],[-117.97697,50.81313],[-117.97691,50.81307],[-117.97684,50.81303],[-117.97678,50.81297],[-117.97674,50.81294],[-117.97668,50.8129],[-117.97666,50.81288]]}},
{"type":"Feature","properties":{"spotId":"G-grouse-drive-0017","kind":"roadside","km":4.41,"climbM":46,"name":"300 m W of West Twin Creek","flags":[]},"geometry":{"type":"LineString","coordinates":[[-117.9583,50.97337],[-117.95827,50.97352],[-117.9583,50.9737],[-117.95832,50.97389],[-117.95834,50.97412],[-117.95834,50.97428],[-117.9583,50.97451],[-117.95828,50.97455],[-117.95824,50.97468],[-117.95814,50.97484],[-117.95803,50.97506],[-117.958,50.97521],[-117.95794,50.97532],[-117.9578,50.97547],[-117.95768,50.97562],[-117.95759,50.97581],[-117.95752,50.97593],[-117.95744,50.97611],[-117.95725,50.9763],[-117.95713,50.97647],[-117.9569,50.97684],[-117.95671,50.9769],[-117.95654,50.97703],[-117.95638,50.97719],[-117.9563,50.9773],[-117.95615,50.97749],[-117.95593,50.97768],[-117.9558,50.97787],[-117.95569,50.97796],[-117.9556,50.97806],[-117.95546,50.97819],[-117.95524,50.9784],[-117.95504,50.97858],[-117.95486,50.97881],[-117.95475,50.97899],[-117.95468,50.97911],[-117.95441,50.9794],[-117.95424,50.97964],[-117.95403,50.97989],[-117.95398,50.98001],[-117.95387,50.98016],[-117.9537,50.98041],[-117.9535,50.98061],[-117.95337,50.98082],[-117.95322,50.98096],[-117.95315,50.98104],[-117.95302,50.98111],[-117.95301,50.98124],[-117.953,50.98129],[-117.95297,50.98133],[-117.95285,50.9814],[-117.95262,50.98146],[-117.95251,50.98154],[-117.95154,50.98235],[-117.95138,50.98258],[-117.95125,50.98278],[-117.95111,50.98293],[-117.95094,50.98315],[-117.95079,50.98352],[-117.95071,50.98366],[-117.95068,50.9837],[-117.95057,50.9839],[-117.95047,50.98401],[-117.95032,50.98423],[-117.95023,50.98439],[-117.95008,50.98475],[-117.94993,50.98496],[-117.94977,50.98522],[-117.94961,50.98563],[-117.94945,50.98587],[-117.94933,50.98615],[-117.94918,50.9864],[-117.94911,50.98664],[-117.94903,50.98684],[-117.94896,50.98707],[-117.94891,50.98736],[-117.94889,50.98771],[-117.94885,50.98819],[-117.94888,50.98848],[-117.94891,50.98869],[-117.94897,50.98881],[-117.94906,50.98895],[-117.94923,50.98908],[-117.94933,50.98922],[-117.9495,50.98944],[-117.94966,50.98963],[-117.94986,50.98984],[-117.95001,50.99011],[-117.95016,50.99042],[-117.95015,50.99064],[-117.95018,50.99092],[-117.95023,50.9912],[-117.95029,50.99133],[-117.95028,50.99148],[-117.9504,50.99181],[-117.95042,50.99205],[-117.95051,50.99227],[-117.95061,50.99259],[-117.95063,50.99302],[-117.95064,50.99312],[-117.95072,50.99337],[-117.95084,50.99365],[-117.95087,50.99391],[-117.95085,50.99411],[-117.95078,50.99435],[-117.95081,50.99458],[-117.95083,50.99472],[-117.95088,50.9948],[-117.95099,50.99496],[-117.95107,50.9952],[-117.95114,50.99546],[-117.95108,50.99569],[-117.95098,50.99606],[-117.95099,50.99645],[-117.95094,50.99675],[-117.95099,50.99683],[-117.9511,50.99689],[-117.9513,50.99692],[-117.95163,50.99695],[-117.95181,50.99697],[-117.95194,50.99699],[-117.95201,50.99704],[-117.95205,50.9971],[-117.95205,50.99716],[-117.95201,50.99729],[-117.95195,50.99744],[-117.95192,50.99757],[-117.95193,50.99765],[-117.952,50.99773],[-117.95206,50.99779],[-117.95226,50.99804],[-117.95243,50.99842],[-117.95254,50.99868],[-117.95261,50.999],[-117.95259,50.9992],[-117.95256,50.99938],[-117.95265,50.9996],[-117.95266,50.99965],[-117.95276,50.99995],[-117.95282,51.00026],[-117.95288,51.00042],[-117.95301,51.00068],[-117.95315,51.00103],[-117.95323,51.00128],[-117.95326,51.00142],[-117.95325,51.00145],[-117.95325,51.00161],[-117.95327,51.0019],[-117.95328,51.00213],[-117.95329,51.00229],[-117.9533,51.00237],[-117.95338,51.00258],[-117.95348,51.00268],[-117.95363,51.00277],[-117.95373,51.00289],[-117.95382,51.00305],[-117.95384,51.00317],[-117.95383,51.00323],[-117.95383,51.00327],[-117.95385,51.00345],[-117.95391,51.00371],[-117.9539,51.00385],[-117.95388,51.00397],[-117.95386,51.00412],[-117.95388,51.0042],[-117.95388,51.00426],[-117.95384,51.00447],[-117.95377,51.00467],[-117.95364,51.00506],[-117.95352,51.00536],[-117.95337,51.0055],[-117.95309,51.00568],[-117.95277,51.00579],[-117.95262,51.00584],[-117.95247,51.0059],[-117.95233,51.00597],[-117.95215,51.00608],[-117.95205,51.00619],[-117.95195,51.00634],[-117.95192,51.00651],[-117.95195,51.00668],[-117.95195,51.0069],[-117.95196,51.00699],[-117.95197,51.00727],[-117.95189,51.00755],[-117.95168,51.00787],[-117.95165,51.00793],[-117.95153,51.00813],[-117.95152,51.0083],[-117.95163,51.00843],[-117.95181,51.00872],[-117.95195,51.00892],[-117.95209,51.00917],[-117.95219,51.00944],[-117.95228,51.00973],[-117.95232,51.00983]]}},
{"type":"Feature","properties":{"spotId":"G-grouse-drive-0053","kind":"roadside","km":3.8,"climbM":71,"name":"340 m NW of Upper Arrow Lake","flags":[]},"geometry":{"type":"LineString","coordinates":[[-117.7681,50.75861],[-117.76735,50.75882],[-117.76649,50.75896],[-117.76612,50.75905],[-117.76513,50.75945],[-117.76422,50.75972],[-117.76367,50.75996],[-117.7627,50.76044],[-117.76089,50.76107],[-117.76023,50.76147],[-117.7598,50.76184],[-117.75945,50.76207],[-117.75891,50.76236],[-117.75746,50.76286],[-117.75608,50.76324],[-117.7558,50.76336],[-117.75539,50.76359],[-117.75528,50.76362],[-117.75523,50.76356],[-117.75527,50.76338],[-117.75562,50.76272],[-117.75568,50.76241],[-117.7555,50.76227],[-117.75528,50.76226],[-117.75509,50.76234],[-117.75508,50.76258],[-117.75506,50.76261],[-117.7545,50.7629],[-117.75419,50.76293],[-117.75395,50.76289],[-117.75355,50.76278],[-117.75316,50.76254],[-117.75289,50.76241],[-117.75253,50.76236],[-117.75173,50.7624],[-117.75103,50.76242],[-117.75062,50.76249],[-117.7501,50.76266],[-117.74957,50.76292],[-117.74914,50.76308],[-117.748,50.76345],[-117.74756,50.76366],[-117.74724,50.76388],[-117.74713,50.76394],[-117.7468,50.76394],[-117.74659,50.76388],[-117.7466,50.76381],[-117.7465,50.76364],[-117.74584,50.76326],[-117.74517,50.76264],[-117.74492,50.76238],[-117.74463,50.76186],[-117.74448,50.76172],[-117.7443,50.76161],[-117.74397,50.76151],[-117.74349,50.76144],[-117.74247,50.76144],[-117.74186,50.76148],[-117.74152,50.76146],[-117.74075,50.7613],[-117.73904,50.76111],[-117.73859,50.76107],[-117.73785,50.76107],[-117.7373,50.76102],[-117.7365,50.76083],[-117.73579,50.7606],[-117.73512,50.76034],[-117.73463,50.76022],[-117.73415,50.76019],[-117.73306,50.76024],[-117.73142,50.76014],[-117.73119,50.76007],[-117.73097,50.75995],[-117.73004,50.75938],[-117.72939,50.75926],[-117.729,50.75911],[-117.72859,50.75885],[-117.72839,50.7588],[-117.72771,50.75878],[-117.72738,50.75881],[-117.72585,50.75939],[-117.72443,50.75981]]}},
{"type":"Feature","properties":{"spotId":"G-moose-walk-0066","kind":"walk","km":1.12,"climbM":450,"name":"1.4 km W of West Twin Creek","flags":[]},"geometry":{"type":"LineString","coordinates":[[-117.953,50.98129],[-117.96729,50.98575]]}}
]}
