{"type":"FeatureCollection","features":[
{"type":"Feature","properties":{"spotId":"G-grouse-atv-0079","kind":"ride","km":7.29,"climbM":708,"name":"1.0 km NW of Halfway River","flags":[]},"geometry":{"type":"LineString","coordinates":[[-117.87855,50.48576],[-117.87848,50.48582],[-117.87841,50.48589],[-117.8784,50.48603],[-117.87845,50.48618],[-117.87846,50.48636],[-117.87847,50.48649],[-117.87835,50.48659],[-117.87816,50.48665],[-117.87802,50.48666],[-117.87792,50.48666],[-117.87774,50.48667],[-117.87765,50.48672],[-117.87764,50.48692],[-117.87764,50.48706],[-117.87766,50.48725],[-117.87768,50.48743],[-117.87765,50.48755],[-117.87754,50.48768],[-117.87736,50.4878],[-117.87721,50.48791],[-117.87704,50.48806],[-117.87683,50.48825],[-117.87667,50.4884],[-117.87652,50.48857],[-117.87636,50.48873],[-117.87621,50.48889],[-117.87607,50.48906],[-117.876,50.48916],[-117.87595,50.48921],[-117.87576,50.4894],[-117.87563,50.48953],[-117.87542,50.48969],[-117.8752,50.48988],[-117.87502,50.49006],[-117.87498,50.4901],[-117.87487,50.49021],[-117.87469,50.49041],[-117.87458,50.4906],[-117.87451,50.49074],[-117.87439,50.49089],[-117.87428,50.49107],[-117.87411,50.49127],[-117.87389,50.49156],[-117.87377,50.49175],[-117.87369,50.49189],[-117.87361,50.49204],[-117.87348,50.49231],[-117.87338,50.49253],[-117.87325,50.49275],[-117.87313,50.49292],[-117.87306,50.49309],[-117.87299,50.49329],[-117.87298,50.49349],[-117.87299,50.49377],[-117.87302,50.49401],[-117.87302,50.49419],[-117.87304,50.49438],[-117.87303,50.49467],[-117.87298,50.49489],[-117.8729,50.49506],[-117.87288,50.49526],[-117.87287,50.49548],[-117.87287,50.4958],[-117.87287,50.49583],[-117.87286,50.49596],[-117.87289,50.49618],[-117.87299,50.49635],[-117.8731,50.49652],[-117.87316,50.49667],[-117.87302,50.49685],[-117.8727,50.4971],[-117.87257,50.49726],[-117.8725,50.49733],[-117.87239,50.49743],[-117.87233,50.49754],[-117.87224,50.49766],[-117.87199,50.49779],[-117.87181,50.49789],[-117.87175,50.49794],[-117.87162,50.49805],[-117.8715,50.49814],[-117.87139,50.49822],[-117.87116,50.49834],[-117.87102,50.49846],[-117.87078,50.49869],[-117.87062,50.49886],[-117.87045,50.499],[-117.87024,50.49916],[-117.87,50.49929],[-117.86978,50.49942],[-117.86958,50.49954],[-117.86946,50.49961],[-117.86925,50.49969],[-117.86859,50.5],[-117.86849,50.50008],[-117.86838,50.50015],[-117.8683,50.50022],[-117.86826,50.50026],[-117.86823,50.50028],[-117.86819,50.50033],[-117.86815,50.50037],[-117.86811,50.50042],[-117.86804,50.5005],[-117.868,50.50056],[-117.86795,50.50064],[-117.86791,50.5007],[-117.86786,50.50077],[-117.86778,50.50087],[-117.86771,50.50097],[-117.86764,50.50105],[-117.86755,50.50113],[-117.86747,50.50121],[-117.86737,50.50127],[-117.86728,50.50134],[-117.86718,50.50142],[-117.8671,50.5015],[-117.86701,50.5016],[-117.86696,50.50169],[-117.86692,50.50178],[-117.86689,50.50186],[-117.86688,50.50194],[-117.86684,50.50204],[-117.86681,50.5021],[-117.86677,50.50216],[-117.86676,50.50221],[-117.86672,50.50227],[-117.8667,50.50231],[-117.86666,50.5024],[-117.86663,50.50248],[-117.86661,50.50258],[-117.86658,50.50267],[-117.86656,50.50278],[-117.86651,50.50286],[-117.86647,50.50293],[-117.86643,50.503],[-117.86642,50.50308],[-117.86641,50.50316],[-117.86642,50.50324],[-117.86645,50.50331],[-117.86648,50.50338],[-117.86651,50.50344],[-117.86656,50.50352],[-117.86658,50.50357],[-117.86661,50.50362],[-117.86664,50.50369],[-117.86666,50.50375],[-117.86669,50.50383],[-117.8667,50.50393],[-117.86671,50.50401],[-117.86672,50.50408],[-117.86672,50.50417],[-117.86674,50.50426],[-117.86675,50.50438],[-117.86678,50.50448],[-117.86678,50.50449],[-117.86681,50.5046],[-117.86684,50.5047],[-117.86689,50.5048],[-117.86692,50.50486],[-117.86695,50.50493],[-117.86698,50.505],[-117.86702,50.50507],[-117.86706,50.50516],[-117.86711,50.50524],[-117.86714,50.50531],[-117.86718,50.50537],[-117.86721,50.50543],[-117.86725,50.50551],[-117.8673,50.50561],[-117.86734,50.5057],[-117.86737,50.50579],[-117.86743,50.50588],[-117.86753,50.50596],[-117.86756,50.50599],[-117.86759,50.50602],[-117.86762,50.50604],[-117.86763,50.50607],[-117.86763,50.50609],[-117.86759,50.50613],[-117.86755,50.50615],[-117.86751,50.50617],[-117.86744,50.50619],[-117.86737,50.50619],[-117.86722,50.50618],[-117.8671,50.50617],[-117.86698,50.50613],[-117.8669,50.50609],[-117.8668,50.50604],[-117.86671,50.50601],[-117.86663,50.50597],[-117.86654,50.50594],[-117.86644,50.50589],[-117.86634,50.50586],[-117.8662,50.5058],[-117.86609,50.50577],[-117.86599,50.50573],[-117.86592,50.50571],[-117.86586,50.50569],[-117.86573,50.50564],[-117.86559,50.5056],[-117.86546,50.50557],[-117.86535,50.50553],[-117.86525,50.5055],[-117.86515,50.50546],[-117.86504,50.5054],[-117.86494,50.50534],[-117.86482,50.50527],[-117.86468,50.50521],[-117.86453,50.50516],[-117.86448,50.50515],[-117.86444,50.50514],[-117.8644,50.50513],[-117.86437,50.50514],[-117.86433,50.50515],[-117.8643,50.50518],[-117.86429,50.50521],[-117.86427,50.50523],[-117.86427,50.50525],[-117.86429,50.5053],[-117.86433,50.50534],[-117.86436,50.50539],[-117.8644,50.50543],[-117.86445,50.50547],[-117.86446,50.50549],[-117.86446,50.50551],[-117.86448,50.50554],[-117.86449,50.50556],[-117.86449,50.50557],[-117.86458,50.50566],[-117.86465,50.50576],[-117.86471,50.50584],[-117.86478,50.50591],[-117.86482,50.50597],[-117.86487,50.50602],[-117.86494,50.50608],[-117.86501,50.50615],[-117.8651,50.50623],[-117.86518,50.50633],[-117.8653,50.50645],[-117.86538,50.50655],[-117.86546,50.50663],[-117.86553,50.50671],[-117.8656,50.50679],[-117.86567,50.50689],[-117.86574,50.50699],[-117.86582,50.50709],[-117.86589,50.50718],[-117.86595,50.50726],[-117.86599,50.50732],[-117.86603,50.50739],[-117.86609,50.50746],[-117.86616,50.50755],[-117.86625,50.50766],[-117.86638,50.50781],[-117.86639,50.50783],[-117.86647,50.50793],[-117.86655,50.50804],[-117.86664,50.50815],[-117.86673,50.50826],[-117.86678,50.50834],[-117.86686,50.50843],[-117.86693,50.50852],[-117.86699,50.5086],[-117.86704,50.50867],[-117.86709,50.50872],[-117.86713,50.50879],[-117.86719,50.50887],[-117.86725,50.50896],[-117.86731,50.50906],[-117.86733,50.50914],[-117.86736,50.50921],[-117.86739,50.50927],[-117.86742,50.50934],[-117.86745,50.5094],[-117.8675,50.50949],[-117.86754,50.50957],[-117.86758,50.50966],[-117.86764,50.50974],[-117.86767,50.5098],[-117.86773,50.50989],[-117.86782,50.50998],[-117.8679,50.51008],[-117.86802,50.51019],[-117.86815,50.51031],[-117.86828,50.51044],[-117.8684,50.51054],[-117.8685,50.51064],[-117.86862,50.51073],[-117.86872,50.51084],[-117.86878,50.51089],[-117.86885,50.51095],[-117.86891,50.51101],[-117.86896,50.51106],[-117.86901,50.51111],[-117.86909,50.51118],[-117.86921,50.51126],[-117.86925,50.51129],[-117.86932,50.51136],[-117.86947,50.51147],[-117.86959,50.51161],[-117.86972,50.51173],[-117.86981,50.51183],[-117.8699,50.51192],[-117.86997,50.51201],[-117.87005,50.51211],[-117.87014,50.5122],[-117.87024,50.51232],[-117.87033,50.51244],[-117.87042,50.51253],[-117.87046,50.51262],[-117.8705,50.5127],[-117.87053,50.51278],[-117.87056,50.51288],[-117.87061,50.51298],[-117.87068,50.51312],[-117.87078,50.51329],[-117.87088,50.51343],[-117.87098,50.51355],[-117.87109,50.51366],[-117.87117,50.5138],[-117.87123,50.5139],[-117.87129,50.51399],[-117.87133,50.51408],[-117.87139,50.51415],[-117.87146,50.51419],[-117.8715,50.5142],[-117.87155,50.51421],[-117.8716,50.51421],[-117.87167,50.51422],[-117.87176,50.51422],[-117.87191,50.51425],[-117.87204,50.51427],[-117.87215,50.51428],[-117.87225,50.51432],[-117.87235,50.51436],[-117.87244,50.51441],[-117.87254,50.51447],[-117.87261,50.51453],[-117.87268,50.5146],[-117.87273,50.51466],[-117.87275,50.51471],[-117.87276,50.51477],[-117.87277,50.51485],[-117.87277,50.51493],[-117.8728,50.51503],[-117.87285,50.51519],[-117.87289,50.5153],[-117.87295,50.51541],[-117.87299,50.5155],[-117.87305,50.51561],[-117.87311,50.51572],[-117.87317,50.51583],[-117.87321,50.51595],[-117.87326,50.51606],[-117.87329,50.51616],[-117.87329,50.51625],[-117.87329,50.51635],[-117.87328,50.51646],[-117.87327,50.51658],[-117.87324,50.51671],[-117.87324,50.51679],[-117.87325,50.51687],[-117.87323,50.51693],[-117.87323,50.51699],[-117.87322,50.51706],[-117.8732,50.51718],[-117.87317,50.51732],[-117.87313,50.51746],[-117.87309,50.5176],[-117.87306,50.51771],[-117.87302,50.5178],[-117.873,50.51789],[-117.87294,50.518],[-117.87289,50.51811],[-117.87282,50.51824],[-117.87275,50.51836],[-117.87268,50.51846],[-117.87263,50.51856],[-117.87256,50.51865],[-117.87248,50.51873],[-117.87242,50.5188],[-117.87234,50.51885],[-117.87227,50.51892],[-117.87218,50.51897],[-117.8721,50.51903],[-117.87206,50.51904],[-117.87202,50.51906],[-117.87197,50.51908],[-117.87192,50.51911],[-117.87185,50.51913],[-117.87174,50.5192],[-117.87164,50.51923],[-117.87157,50.51927],[-117.87149,50.51932],[-117.87142,50.51936],[-117.87132,50.51944],[-117.87124,50.51953],[-117.87114,50.51963],[-117.87108,50.51971],[-117.87103,50.5198],[-117.871,50.51984],[-117.87097,50.51989],[-117.87093,50.51993],[-117.87089,50.51998],[-117.87082,50.52004],[-117.87072,50.52013],[-117.87063,50.52021],[-117.87054,50.5203],[-117.87045,50.52036],[-117.87033,50.52042],[-117.87025,50.52046],[-117.87017,50.5205],[-117.87007,50.52053],[-117.86998,50.52056],[-117.86987,50.52058],[-117.86977,50.5206],[-117.86969,50.52062],[-117.86959,50.52062],[-117.86951,50.5206],[-117.86943,50.52057],[-117.86936,50.52051],[-117.86933,50.52044],[-117.86933,50.52036],[-117.86933,50.52027],[-117.86933,50.52017],[-117.86932,50.51995],[-117.86931,50.51976],[-117.86928,50.5196],[-117.86924,50.51945],[-117.86919,50.51931],[-117.86916,50.51923],[-117.86911,50.51914],[-117.86907,50.51904],[-117.86902,50.51893],[-117.86897,50.51881],[-117.86888,50.51863],[-117.8688,50.51846],[-117.86873,50.5183],[-117.86864,50.51814],[-117.86854,50.51796],[-117.86848,50.51787],[-117.86842,50.51778],[-117.86837,50.51769],[-117.86832,50.51761],[-117.86825,50.51754],[-117.86818,50.51747],[-117.86809,50.5174],[-117.86799,50.51732],[-117.86788,50.51725],[-117.86774,50.51717],[-117.86758,50.5171],[-117.86745,50.51704],[-117.86732,50.51697],[-117.8672,50.5169],[-117.86705,50.51682],[-117.86688,50.51671],[-117.86674,50.5166],[-117.86662,50.51649],[-117.86649,50.5164],[-117.86638,50.51631],[-117.86631,50.51624],[-117.86622,50.51619],[-117.86615,50.51614],[-117.86607,50.51607],[-117.86597,50.51599],[-117.86592,50.51596],[-117.86587,50.51592],[-117.86584,50.51589],[-117.86578,50.51585],[-117.86574,50.51582],[-117.86565,50.51575],[-117.86556,50.51568],[-117.86548,50.51562],[-117.86541,50.51557],[-117.86532,50.51551],[-117.86524,50.51545],[-117.86515,50.51539],[-117.86505,50.51533],[-117.86494,50.51526],[-117.86479,50.5152],[-117.86472,50.51518],[-117.86467,50.51515],[-117.86461,50.51512],[-117.86452,50.5151],[-117.86448,50.51508],[-117.8644,50.51504],[-117.86433,50.51501],[-117.86424,50.51497],[-117.86415,50.51494],[-117.86407,50.5149],[-117.864,50.51486],[-117.86393,50.51482],[-117.86384,50.51479],[-117.86376,50.51474],[-117.86367,50.5147],[-117.86353,50.51464],[-117.8634,50.51457],[-117.86329,50.51452],[-117.86317,50.51448],[-117.86306,50.51443],[-117.86303,50.51442],[-117.86297,50.51441],[-117.86293,50.51439],[-117.86289,50.51437],[-117.86285,50.51435],[-117.86272,50.51431],[-117.86261,50.51427],[-117.86248,50.51423],[-117.86235,50.5142],[-117.86221,50.51418],[-117.86207,50.51416],[-117.86193,50.51415],[-117.8618,50.51415],[-117.86167,50.51416],[-117.86159,50.51417],[-117.86152,50.51418],[-117.86146,50.51421],[-117.86139,50.51423],[-117.86132,50.51426],[-117.86124,50.51428],[-117.8611,50.5143],[-117.86096,50.51431],[-117.86082,50.51433],[-117.86067,50.51435],[-117.86055,50.5144],[-117.86048,50.51443],[-117.86041,50.51447],[-117.86035,50.51452],[-117.86031,50.51455],[-117.8603,50.51457],[-117.86027,50.51459],[-117.86026,50.51462],[-117.86024,50.51467],[-117.86024,50.51472],[-117.86026,50.51479],[-117.86026,50.51484],[-117.86028,50.51491],[-117.86028,50.51498],[-117.86028,50.51504],[-117.86026,50.5151],[-117.86027,50.51516],[-117.86027,50.51529],[-117.86027,50.51541],[-117.86029,50.51552],[-117.86029,50.51563],[-117.8603,50.51571],[-117.86032,50.51579],[-117.86035,50.51589],[-117.86038,50.516],[-117.86042,50.51612],[-117.86047,50.51622],[-117.86048,50.51631],[-117.86051,50.51639],[-117.86053,50.51646],[-117.86057,50.51654],[-117.8606,50.51663],[-117.86066,50.51674],[-117.86071,50.51683],[-117.86072,50.51685],[-117.86076,50.51693],[-117.86082,50.51702],[-117.86087,50.51711],[-117.86087,50.51722],[-117.86088,50.51732],[-117.86089,50.51742],[-117.86087,50.51748],[-117.86087,50.51751],[-117.86087,50.5176],[-117.86088,50.51763],[-117.86086,50.51767],[-117.86085,50.51771],[-117.86083,50.51775],[-117.86082,50.51781],[-117.8608,50.5179],[-117.86078,50.51798],[-117.86077,50.51805],[-117.86076,50.51811],[-117.86072,50.51817],[-117.86069,50.51821],[-117.86063,50.51826],[-117.86059,50.51831],[-117.86054,50.51836],[-117.86049,50.51842],[-117.86044,50.51848],[-117.8604,50.51855],[-117.86037,50.51862],[-117.86036,50.5187],[-117.86035,50.51879],[-117.86036,50.51888],[-117.86038,50.51896],[-117.86038,50.51903],[-117.86039,50.51909],[-117.86039,50.51916],[-117.86038,50.51922],[-117.86036,50.51929],[-117.86033,50.51936],[-117.8603,50.51942],[-117.86026,50.51949],[-117.86022,50.51963],[-117.86018,50.51974],[-117.86017,50.51986],[-117.86017,50.51999],[-117.86022,50.52013],[-117.86029,50.52026],[-117.86036,50.52038],[-117.86043,50.52049],[-117.86051,50.52059],[-117.86058,50.52068],[-117.86061,50.52073],[-117.86062,50.52077],[-117.86065,50.52084],[-117.86068,50.52089],[-117.86071,50.52095],[-117.86075,50.52105],[-117.86078,50.52114],[-117.86083,50.52122],[-117.86084,50.52131],[-117.86086,50.52142],[-117.86088,50.52153],[-117.86088,50.52163],[-117.86086,50.52172],[-117.86085,50.52181],[-117.86084,50.5219],[-117.86081,50.52199],[-117.86077,50.52209],[-117.86073,50.52218],[-117.86069,50.52228],[-117.86065,50.52239],[-117.86064,50.52242],[-117.86063,50.5225],[-117.8606,50.5226],[-117.86059,50.52269],[-117.86056,50.52278],[-117.86055,50.5228],[-117.86051,50.52291],[-117.86044,50.52302],[-117.86038,50.52313],[-117.86033,50.52322],[-117.86027,50.52331],[-117.86019,50.5234],[-117.86012,50.52348],[-117.86005,50.52356],[-117.86002,50.52358],[-117.85997,50.52362],[-117.85988,50.52369],[-117.85979,50.52376],[-117.85972,50.52381],[-117.85963,50.52386],[-117.85952,50.5239],[-117.85941,50.52395],[-117.85927,50.52399],[-117.85912,50.52403],[-117.85897,50.52407],[-117.85885,50.52411],[-117.85874,50.52413],[-117.85861,50.52415],[-117.85851,50.52415],[-117.85841,50.52416],[-117.85831,50.52416],[-117.85821,50.52417],[-117.85812,50.52418],[-117.85805,50.52419],[-117.85796,50.52421],[-117.85789,50.52424],[-117.85784,50.52427],[-117.85777,50.52432],[-117.85768,50.52438],[-117.85763,50.52443],[-117.85757,50.52448],[-117.85753,50.52453],[-117.8575,50.52458],[-117.85748,50.52465],[-117.85746,50.52471],[-117.85744,50.52477],[-117.85741,50.52484],[-117.85737,50.52487],[-117.85735,50.52489],[-117.8573,50.52494],[-117.85723,50.52496],[-117.85714,50.52497],[-117.85704,50.52497]]}},
{"type":"Feature","properties":{"spotId":"G-grouse-drive-0072","kind":"roadside","km":4.27,"climbM":412,"name":"1.7 km W of Upper Arrow Lake","flags":[]},"geometry":{"type":"LineString","coordinates":[[-117.97862,50.49682],[-117.97882,50.49685],[-117.97892,50.49689],[-117.97901,50.49694],[-117.97904,50.49699],[-117.97904,50.49708],[-117.97897,50.49716],[-117.97893,50.49724],[-117.97889,50.49728],[-117.97883,50.49734],[-117.97876,50.49742],[-117.97868,50.49754],[-117.97857,50.49763],[-117.97842,50.49776],[-117.97832,50.49784],[-117.97824,50.49791],[-117.97813,50.49799],[-117.97801,50.49806],[-117.97796,50.49814],[-117.97788,50.49825],[-117.97782,50.49832],[-117.97778,50.49841],[-117.97773,50.49856],[-117.97763,50.4987],[-117.97755,50.49879],[-117.97745,50.49891],[-117.97739,50.49901],[-117.9773,50.49912],[-117.97725,50.49919],[-117.97715,50.49926],[-117.97703,50.49936],[-117.9769,50.49947],[-117.97675,50.49952],[-117.97652,50.49961],[-117.97637,50.4997],[-117.97594,50.5],[-117.97591,50.50002],[-117.97583,50.50009],[-117.97574,50.50015],[-117.97566,50.50023],[-117.97559,50.50029],[-117.97554,50.50034],[-117.97548,50.5004],[-117.97545,50.50045],[-117.97541,50.50051],[-117.9754,50.5006],[-117.97539,50.50068],[-117.97538,50.50075],[-117.97538,50.50082],[-117.97539,50.50089],[-117.97541,50.50096],[-117.97541,50.501],[-117.97544,50.50111],[-117.97548,50.50122],[-117.97553,50.50133],[-117.97559,50.50145],[-117.9756,50.50151],[-117.97563,50.50157],[-117.97565,50.50163],[-117.97568,50.50169],[-117.97571,50.50175],[-117.97574,50.50183],[-117.97578,50.50191],[-117.97581,50.50199],[-117.97584,50.50206],[-117.97586,50.50213],[-117.97589,50.50221],[-117.9759,50.50229],[-117.97592,50.50238],[-117.97592,50.50247],[-117.97591,50.50258],[-117.97588,50.50269],[-117.97587,50.50278],[-117.97586,50.50287],[-117.97583,50.50296],[-117.97579,50.50306],[-117.97575,50.50314],[-117.97572,50.50321],[-117.97568,50.50327],[-117.97566,50.50335],[-117.97563,50.50341],[-117.9756,50.50347],[-117.97557,50.50354],[-117.97556,50.50361],[-117.97555,50.50368],[-117.97554,50.50375],[-117.97552,50.50383],[-117.97553,50.5039],[-117.97553,50.50396],[-117.97553,50.50402],[-117.97552,50.5041],[-117.97549,50.50417],[-117.97548,50.50425],[-117.97545,50.50432],[-117.97542,50.50437],[-117.97541,50.50444],[-117.9754,50.50447],[-117.9754,50.5045],[-117.97538,50.50453],[-117.97538,50.50457],[-117.97539,50.50462],[-117.97539,50.50466],[-117.97537,50.5047],[-117.97539,50.50474],[-117.97542,50.50478],[-117.97546,50.5048],[-117.97552,50.50481],[-117.97559,50.50482],[-117.97564,50.50482],[-117.97571,50.50482],[-117.97577,50.50481],[-117.97584,50.50478],[-117.9759,50.50476],[-117.97595,50.50473],[-117.97601,50.5047],[-117.97605,50.50467],[-117.9761,50.50463],[-117.97615,50.50457],[-117.9762,50.50452],[-117.97626,50.50446],[-117.97631,50.50439],[-117.97638,50.50432],[-117.97645,50.50426],[-117.97649,50.5042],[-117.97656,50.50416],[-117.97662,50.5041],[-117.97669,50.50407],[-117.97676,50.50402],[-117.97682,50.50397],[-117.97689,50.50393],[-117.97695,50.50388],[-117.977,50.50382],[-117.97706,50.50375],[-117.97714,50.50368],[-117.97724,50.50362],[-117.97737,50.50358],[-117.97745,50.50356],[-117.97754,50.50355],[-117.97762,50.50354],[-117.97769,50.50354],[-117.97777,50.50354],[-117.97785,50.50357],[-117.97792,50.50361],[-117.97799,50.50365],[-117.97805,50.50369],[-117.97809,50.50373],[-117.97813,50.50378],[-117.97816,50.50385],[-117.97816,50.50391],[-117.97816,50.50399],[-117.97817,50.50408],[-117.97817,50.50419],[-117.97818,50.50427],[-117.97819,50.50435],[-117.9782,50.50442],[-117.97819,50.50449],[-117.97818,50.50459],[-117.97815,50.50469],[-117.97814,50.50479],[-117.97811,50.50489],[-117.9781,50.50491],[-117.97809,50.50498],[-117.97809,50.50503],[-117.97809,50.5051],[-117.97809,50.50517],[-117.97809,50.50524],[-117.97809,50.50532],[-117.9781,50.50539],[-117.97811,50.50545],[-117.97811,50.5055],[-117.97811,50.50556],[-117.97811,50.5056],[-117.97811,50.50565],[-117.97812,50.50571],[-117.97812,50.50577],[-117.97813,50.50582],[-117.97813,50.50588],[-117.97815,50.50592],[-117.97816,50.50597],[-117.97816,50.50602],[-117.97819,50.50608],[-117.97824,50.50614],[-117.9783,50.50624],[-117.97835,50.50632],[-117.97841,50.50638],[-117.97846,50.50644],[-117.9785,50.50651],[-117.97853,50.50656],[-117.97856,50.5066],[-117.97859,50.50665],[-117.9786,50.50671],[-117.97863,50.50677],[-117.97866,50.50683],[-117.97869,50.50689],[-117.97872,50.50694],[-117.97878,50.50699],[-117.97886,50.50702],[-117.9789,50.50703],[-117.97895,50.50704],[-117.979,50.50704],[-117.97905,50.50704],[-117.97909,50.50703],[-117.97913,50.50701],[-117.97917,50.50699],[-117.9792,50.50696],[-117.97923,50.50692],[-117.97925,50.50687],[-117.97931,50.5068],[-117.97936,50.50671],[-117.97943,50.50663],[-117.97949,50.50654],[-117.97954,50.50645],[-117.97957,50.5064],[-117.9796,50.50634],[-117.97962,50.50629],[-117.97962,50.50624],[-117.97964,50.50622],[-117.97965,50.50617],[-117.97968,50.50612],[-117.97972,50.50605],[-117.97977,50.50599],[-117.97983,50.50593],[-117.9799,50.50587],[-117.97995,50.50583],[-117.98002,50.50578],[-117.98009,50.50574],[-117.98015,50.50569],[-117.98023,50.50564],[-117.98031,50.50557],[-117.98041,50.50551],[-117.98048,50.50545],[-117.98055,50.50542],[-117.98061,50.50539],[-117.98067,50.50535],[-117.98076,50.50532],[-117.98084,50.50527],[-117.98093,50.50523],[-117.981,50.50519],[-117.98105,50.50515],[-117.98112,50.50512],[-117.98118,50.50508],[-117.98123,50.50503],[-117.98132,50.50497],[-117.98141,50.5049],[-117.9815,50.50483],[-117.98157,50.50476],[-117.98162,50.50471],[-117.98165,50.50467],[-117.98169,50.50463],[-117.98173,50.50457],[-117.98177,50.50452],[-117.98183,50.50447],[-117.98187,50.50444],[-117.98192,50.50439],[-117.98198,50.50437],[-117.98202,50.50434],[-117.98208,50.50434],[-117.98215,50.50435],[-117.98219,50.50436],[-117.98226,50.50437],[-117.98232,50.50442],[-117.98232,50.50447],[-117.98232,50.50451],[-117.98232,50.50458],[-117.98232,50.50463],[-117.98234,50.50468],[-117.98234,50.50473],[-117.98235,50.50476],[-117.98237,50.50481],[-117.98239,50.50485],[-117.98241,50.50491],[-117.98244,50.50495],[-117.98247,50.50501],[-117.9825,50.50505],[-117.98253,50.5051],[-117.98256,50.50514],[-117.98259,50.50519],[-117.98263,50.50525],[-117.98266,50.5053],[-117.98272,50.50538],[-117.98276,50.50546],[-117.98281,50.50554],[-117.98285,50.50561],[-117.9829,50.50569],[-117.98294,50.50573],[-117.98297,50.50579],[-117.98301,50.50585],[-117.98306,50.50591],[-117.98308,50.50595],[-117.9831,50.506],[-117.98313,50.50606],[-117.98314,50.50612],[-117.98316,50.50619],[-117.98318,50.50625],[-117.98321,50.50632],[-117.98322,50.50638],[-117.98324,50.50645],[-117.98325,50.50651],[-117.98327,50.50656],[-117.98328,50.50663],[-117.98327,50.50669],[-117.98327,50.50677],[-117.98327,50.50683],[-117.98326,50.5069],[-117.98326,50.50695],[-117.98326,50.50701],[-117.98326,50.50709],[-117.98325,50.50717],[-117.98325,50.50724],[-117.98324,50.50731],[-117.98324,50.50737],[-117.98323,50.50744],[-117.98322,50.50749],[-117.98322,50.50754],[-117.98325,50.50761],[-117.98328,50.50769],[-117.98332,50.50777],[-117.98336,50.50784],[-117.98341,50.50791],[-117.98342,50.50796],[-117.98342,50.508],[-117.98342,50.50806],[-117.98341,50.5081],[-117.98338,50.50816],[-117.98334,50.50822],[-117.98332,50.50827],[-117.98328,50.50833],[-117.98322,50.50838],[-117.98319,50.50843],[-117.98317,50.50851],[-117.98317,50.50859],[-117.98317,50.50867],[-117.98319,50.50875],[-117.9832,50.50882],[-117.9832,50.50887],[-117.98322,50.50892],[-117.98323,50.50899],[-117.98325,50.50906],[-117.98326,50.50912],[-117.98329,50.5092],[-117.98331,50.50927],[-117.98332,50.50934],[-117.98335,50.50941],[-117.98337,50.50947],[-117.98337,50.50956],[-117.98339,50.50966],[-117.98339,50.50976],[-117.98339,50.50986],[-117.98339,50.50995],[-117.98339,50.51002],[-117.9834,50.5101],[-117.98338,50.51019],[-117.98339,50.51028],[-117.98337,50.51038],[-117.98336,50.51046],[-117.98336,50.51054],[-117.98335,50.51061],[-117.98334,50.51067],[-117.98334,50.51073],[-117.98333,50.51078],[-117.98333,50.51085],[-117.98332,50.51094],[-117.9833,50.51103],[-117.98329,50.51113],[-117.98328,50.5112],[-117.98328,50.51126],[-117.98327,50.51131],[-117.98327,50.51137],[-117.98327,50.51143],[-117.98327,50.5115],[-117.98327,50.51157],[-117.98327,50.51165],[-117.98327,50.51171],[-117.98328,50.51177],[-117.98328,50.51182],[-117.98328,50.51187],[-117.98328,50.51192],[-117.98328,50.51197],[-117.98328,50.51203],[-117.98328,50.5121],[-117.98328,50.51216],[-117.98329,50.51222],[-117.98329,50.51228],[-117.9833,50.51235],[-117.9833,50.5124],[-117.98333,50.51246],[-117.98336,50.51253],[-117.98339,50.5126],[-117.98344,50.51268],[-117.98348,50.51272],[-117.98351,50.51277],[-117.98354,50.5128],[-117.98357,50.51284],[-117.9836,50.51287],[-117.98364,50.51291],[-117.9837,50.51295],[-117.98374,50.51298],[-117.9838,50.51303],[-117.98385,50.51306],[-117.98388,50.51308],[-117.9839,50.5131],[-117.98395,50.51311],[-117.984,50.51311],[-117.98405,50.5131],[-117.98411,50.51309],[-117.98415,50.51308],[-117.98419,50.51305],[-117.98422,50.51302],[-117.98426,50.51297],[-117.98429,50.51291],[-117.9843,50.51286],[-117.98431,50.5128],[-117.98431,50.51275],[-117.98431,50.51271],[-117.98432,50.51266],[-117.98432,50.51261],[-117.98435,50.51254],[-117.98438,50.51248],[-117.98442,50.51238],[-117.98446,50.51231],[-117.98448,50.51225],[-117.98453,50.51218],[-117.98457,50.51212],[-117.98462,50.51204],[-117.98469,50.51195],[-117.98477,50.51186],[-117.98484,50.51178],[-117.9849,50.51171],[-117.98494,50.51166],[-117.98499,50.5116],[-117.98506,50.51154],[-117.98515,50.51147],[-117.98523,50.51139],[-117.9853,50.51131],[-117.98537,50.51125],[-117.98542,50.5112],[-117.98548,50.51113],[-117.98555,50.51108],[-117.98562,50.51101],[-117.98571,50.51092],[-117.9858,50.51085],[-117.98586,50.51079],[-117.98592,50.51074],[-117.98598,50.5107],[-117.98603,50.51065],[-117.9861,50.51059],[-117.98618,50.51052],[-117.98627,50.51045],[-117.98636,50.51038],[-117.98643,50.51032],[-117.98652,50.51027],[-117.98659,50.51022],[-117.98667,50.51017],[-117.98675,50.51011],[-117.98684,50.51003],[-117.98686,50.51001],[-117.98692,50.50996],[-117.98696,50.50991],[-117.987,50.50987],[-117.98749,50.50958],[-117.98833,50.50917],[-117.98893,50.50879],[-117.98951,50.50835],[-117.98997,50.50804],[-117.99011,50.50801],[-117.99025,50.50808],[-117.99031,50.50814],[-117.99029,50.50839],[-117.99028,50.50873],[-117.99022,50.50917],[-117.99022,50.50979],[-117.99021,50.51035],[-117.99016,50.5111],[-117.99013,50.51169],[-117.99012,50.51217]]}}
]}
