{"type":"FeatureCollection","features":[
{"type":"Feature","properties":{"spotId":"G-camp-camp-0037","kind":"walk","km":0.22,"climbM":1,"name":"By Illecillewaet River","flags":["Route crosses private land (ParcelMap BC, updated 2026-09-25): get permission first or go around."]},"geometry":{"type":"LineString","coordinates":[[-118.06069,51.01792],[-118.06169,51.01977]]}},
{"type":"Feature","properties":{"spotId":"G-deer-atv-0017","kind":"ride","km":1.45,"climbM":16,"name":"630 m NW of Illecillewaet River","flags":[]},"geometry":{"type":"LineString","coordinates":[[-118.10476,51.01308],[-118.10491,51.01297],[-118.10508,51.01288],[-118.1052,51.01278],[-118.10528,51.01266],[-118.10532,51.01254],[-118.10525,51.01235],[-118.10513,51.01203],[-118.10507,51.01185],[-118.10506,51.01174],[-118.10512,51.01168],[-118.10521,51.01159],[-118.10551,51.01151],[-118.10585,51.01143],[-118.10624,51.01129],[-118.10657,51.01119],[-118.10692,51.01114],[-118.10714,51.01106],[-118.10741,51.01094],[-118.10744,51.01093],[-118.10751,51.01087],[-118.1076,51.01078],[-118.10781,51.01062],[-118.10793,51.01053],[-118.1082,51.01043],[-118.10875,51.0102],[-118.10913,51.01004],[-118.10926,51.01003],[-118.10975,51.00998],[-118.11028,51.00991],[-118.11053,51.00988],[-118.11073,51.00988],[-118.1111,51.00988],[-118.11143,51.00988],[-118.11158,51.00987],[-118.11187,51.00985],[-118.11204,51.00982],[-118.11223,51.00981],[-118.11241,51.00981],[-118.11258,51.00981],[-118.11268,51.00979],[-118.11287,51.00972],[-118.11308,51.0096],[-118.11324,51.00947],[-118.11344,51.00929],[-118.11357,51.00917],[-118.11375,51.00908],[-118.11393,51.00903],[-118.1142,51.00897],[-118.11444,51.0089],[-118.11465,51.00881],[-118.11503,51.00862],[-118.11532,51.00847],[-118.11555,51.00834],[-118.11569,51.00824],[-118.11577,51.00813],[-118.11582,51.00803],[-118.11581,51.00795],[-118.11579,51.0079],[-118.11573,51.00785],[-118.11563,51.00782],[-118.11542,51.00782],[-118.11523,51.00784],[-118.11496,51.00785],[-118.11487,51.00784],[-118.11459,51.0078],[-118.11422,51.00773],[-118.11409,51.00762],[-118.11435,51.00754],[-118.11478,51.00731],[-118.11488,51.00728],[-118.11505,51.00709],[-118.11513,51.00693],[-118.1151,51.00684],[-118.115,51.00677],[-118.11485,51.00668],[-118.1147,51.00659],[-118.11444,51.00652],[-118.11415,51.00648],[-118.11399,51.00642],[-118.11391,51.00638],[-118.1138,51.00625]]}},
{"type":"Feature","properties":{"spotId":"G-deer-drive-0035","kind":"walk","km":0.23,"climbM":76,"name":"280 m NW of Illecillewaet River","flags":[]},"geometry":{"type":"LineString","coordinates":[[-118.09687,51.01078],[-118.09871,51.01244]]}},
{"type":"Feature","properties":{"spotId":"G-deer-drive-0066","kind":"walk","km":0.03,"climbM":7,"name":"310 m NW of Illecillewaet River","flags":[]},"geometry":{"type":"LineString","coordinates":[[-118.02492,51.03138],[-118.0251,51.03163]]}},
{"type":"Feature","properties":{"spotId":"G-deer-walk-0080","kind":"walk","km":0.31,"climbM":83,"name":"450 m NW of Illecillewaet River","flags":[]},"geometry":{"type":"LineString","coordinates":[[-118.12002,51.00163],[-118.12347,51.00335]]}},
{"type":"Feature","properties":{"spotId":"G-duck-drive-0013","kind":"walk","km":0.13,"climbM":0,"name":"Hanner Lake","flags":[]},"geometry":{"type":"LineString","coordinates":[[-118.01447,51.03524],[-118.01373,51.03414]]}},
{"type":"Feature","properties":{"spotId":"G-duck-drive-0019","kind":"walk","km":0.06,"climbM":0,"name":"Unnamed wetland 330 m NE of Illecillewaet River","flags":[]},"geometry":{"type":"LineString","coordinates":[[-118.03566,51.02843],[-118.03534,51.0279]]}},
{"type":"Feature","properties":{"spotId":"G-duck-drive-0021","kind":"walk","km":0.02,"climbM":0,"name":"Unnamed wetland by Illecillewaet River","flags":[]},"geometry":{"type":"LineString","coordinates":[[-118.09244,51.01228],[-118.09257,51.01245]]}},
{"type":"Feature","properties":{"spotId":"G-duck-walk-0004","kind":"walk","km":0.32,"climbM":0,"name":"Unnamed lake by Illecillewaet River","flags":[]},"geometry":{"type":"LineString","coordinates":[[-118.02282,51.03188],[-118.02101,51.02925]]}},
{"type":"Feature","properties":{"spotId":"G-grouse-atv-0029","kind":"ride","km":5.43,"climbM":298,"name":"320 m SE of Revelstoke Lake","flags":[]},"geometry":{"type":"LineString","coordinates":[[-118.19144,51.21896],[-118.1914,51.21896],[-118.19133,51.21895],[-118.19126,51.21895],[-118.19119,51.21894],[-118.19105,51.21893],[-118.19092,51.2189],[-118.19084,51.21888],[-118.1907,51.21883],[-118.19063,51.21882],[-118.1905,51.21877],[-118.19037,51.21876],[-118.19024,51.21875],[-118.19012,51.21876],[-118.19001,51.21879],[-118.18991,51.21884],[-118.1898,51.21888],[-118.18973,51.21891],[-118.18964,51.21893],[-118.18957,51.21895],[-118.18949,51.21896],[-118.1894,51.21897],[-118.18933,51.21897],[-118.18924,51.21897],[-118.18917,51.21897],[-118.18909,51.21898],[-118.189,51.21899],[-118.18893,51.21898],[-118.1888,51.21898],[-118.18868,51.21898],[-118.18857,51.21899],[-118.18847,51.21899],[-118.18836,51.21899],[-118.18827,51.219],[-118.18817,51.219],[-118.18808,51.21899],[-118.18798,51.219],[-118.18788,51.219],[-118.18777,51.219],[-118.18767,51.219],[-118.18755,51.219],[-118.18745,51.21901],[-118.18735,51.21902],[-118.18725,51.21904],[-118.18715,51.21905],[-118.18705,51.21906],[-118.18695,51.21905],[-118.18685,51.21904],[-118.18675,51.21904],[-118.18665,51.21904],[-118.18655,51.21904],[-118.18645,51.21903],[-118.18635,51.21902],[-118.18624,51.21901],[-118.18612,51.21901],[-118.18601,51.21901],[-118.18591,51.219],[-118.18579,51.21899],[-118.18568,51.21897],[-118.18559,51.21897],[-118.18549,51.21895],[-118.18539,51.21894],[-118.1853,51.21893],[-118.18522,51.21892],[-118.18513,51.21893],[-118.18505,51.21893],[-118.18497,51.21892],[-118.1849,51.21892],[-118.1848,51.21892],[-118.18472,51.21891],[-118.18463,51.21889],[-118.18454,51.21889],[-118.1844,51.21887],[-118.18431,51.21886],[-118.18424,51.21886],[-118.18414,51.21885],[-118.18404,51.21886],[-118.18394,51.21885],[-118.18355,51.21884],[-118.18335,51.21885],[-118.18325,51.21887],[-118.18315,51.21889],[-118.18305,51.2189],[-118.18297,51.21891],[-118.18285,51.21892],[-118.18277,51.21893],[-118.18267,51.21895],[-118.18258,51.21898],[-118.1825,51.21901],[-118.18241,51.21902],[-118.18231,51.21905],[-118.18223,51.21907],[-118.18214,51.2191],[-118.18206,51.21912],[-118.18197,51.21913],[-118.1819,51.21915],[-118.18182,51.21916],[-118.18174,51.21916],[-118.18166,51.21916],[-118.18159,51.21916],[-118.1815,51.21915],[-118.18141,51.21916],[-118.18133,51.21917],[-118.18124,51.21919],[-118.18116,51.21923],[-118.18107,51.21925],[-118.18092,51.21932],[-118.18085,51.21935],[-118.18076,51.21938],[-118.18068,51.21941],[-118.18059,51.21944],[-118.18049,51.21945],[-118.18039,51.21946],[-118.18032,51.21947],[-118.18025,51.21948],[-118.18018,51.21949],[-118.18009,51.2195],[-118.18002,51.21952],[-118.17993,51.21953],[-118.17985,51.21955],[-118.17975,51.21956],[-118.17966,51.21958],[-118.17956,51.21961],[-118.17947,51.21964],[-118.17937,51.21966],[-118.17927,51.21969],[-118.17917,51.21971],[-118.17907,51.21972],[-118.17897,51.21974],[-118.17887,51.21975],[-118.17875,51.21976],[-118.17867,51.21976],[-118.17857,51.21977],[-118.1784,51.21979],[-118.17827,51.2198],[-118.17815,51.21981],[-118.17807,51.2198],[-118.17797,51.21978],[-118.17789,51.21975],[-118.17781,51.21974],[-118.17772,51.21973],[-118.17762,51.21973],[-118.17753,51.21973],[-118.17745,51.21972],[-118.17733,51.21972],[-118.17725,51.21972],[-118.17715,51.21972],[-118.17706,51.21971],[-118.17699,51.21972],[-118.17692,51.21973],[-118.17683,51.21974],[-118.17676,51.21976],[-118.17661,51.21979],[-118.17655,51.21981],[-118.17646,51.21983],[-118.17639,51.21984],[-118.17632,51.21984],[-118.17623,51.21984],[-118.17615,51.21984],[-118.17606,51.21984],[-118.17591,51.21988],[-118.17579,51.21994],[-118.17567,51.22],[-118.17554,51.22005],[-118.17545,51.22006],[-118.17538,51.22008],[-118.1753,51.22008],[-118.1752,51.22009],[-118.17511,51.2201],[-118.17502,51.2201],[-118.17494,51.2201],[-118.17484,51.2201],[-118.17475,51.22011],[-118.17467,51.22011],[-118.17458,51.22011],[-118.17449,51.22012],[-118.17441,51.22013],[-118.17432,51.22014],[-118.17415,51.22016],[-118.17405,51.22018],[-118.17395,51.22018],[-118.17385,51.22019],[-118.17375,51.2202],[-118.17365,51.22021],[-118.17357,51.22021],[-118.17348,51.22021],[-118.17341,51.22021],[-118.17334,51.22021],[-118.17321,51.22021],[-118.17314,51.22022],[-118.17309,51.22023],[-118.17295,51.22025],[-118.17288,51.22026],[-118.17279,51.22026],[-118.17272,51.22026],[-118.17264,51.22027],[-118.17256,51.22026],[-118.17249,51.22026],[-118.17242,51.22026],[-118.17235,51.22025],[-118.17228,51.22025],[-118.17219,51.22024],[-118.17212,51.22023],[-118.17205,51.22022],[-118.17192,51.2202],[-118.17183,51.22019],[-118.17176,51.22019],[-118.17169,51.22018],[-118.1716,51.22019],[-118.17153,51.22018],[-118.17146,51.22017],[-118.17139,51.22016],[-118.17132,51.22016],[-118.17119,51.22015],[-118.17112,51.22015],[-118.17103,51.22015],[-118.17094,51.22015],[-118.17087,51.22014],[-118.17079,51.22014],[-118.1707,51.22013],[-118.17061,51.22013],[-118.17053,51.22013],[-118.17044,51.22013],[-118.17036,51.22013],[-118.17027,51.22012],[-118.17018,51.22011],[-118.1701,51.22009],[-118.17003,51.22008],[-118.16988,51.22005],[-118.16975,51.22002],[-118.16961,51.21999],[-118.16946,51.21996],[-118.16935,51.21995],[-118.16928,51.21994],[-118.16919,51.21994],[-118.16909,51.21994],[-118.16898,51.21993],[-118.16889,51.21993],[-118.16879,51.21993],[-118.16869,51.21993],[-118.16856,51.21993],[-118.16843,51.21992],[-118.1683,51.21991],[-118.16823,51.2199],[-118.16809,51.2199],[-118.16802,51.21989],[-118.16794,51.21989],[-118.16787,51.21989],[-118.1678,51.21988],[-118.16773,51.21988],[-118.16764,51.21987],[-118.16756,51.21987],[-118.16749,51.21986],[-118.1674,51.21985],[-118.16731,51.21984],[-118.16723,51.21983],[-118.16714,51.21983],[-118.16705,51.21981],[-118.16698,51.2198],[-118.16691,51.21979],[-118.16682,51.21977],[-118.16675,51.21976],[-118.16662,51.21972],[-118.16649,51.21971],[-118.16636,51.21967],[-118.16626,51.21966],[-118.16618,51.21965],[-118.16609,51.21964],[-118.16602,51.21963],[-118.16595,51.21963],[-118.16582,51.21962],[-118.16575,51.21962],[-118.16567,51.21962],[-118.16559,51.21962],[-118.16552,51.21962],[-118.16545,51.21961],[-118.16532,51.21961],[-118.16522,51.21962],[-118.16513,51.21965],[-118.165,51.21968],[-118.16493,51.21969],[-118.16486,51.2197],[-118.16479,51.21971],[-118.16472,51.21972],[-118.16463,51.21972],[-118.16455,51.21973],[-118.16439,51.21972],[-118.16426,51.21971],[-118.16413,51.21971],[-118.16404,51.2197],[-118.16396,51.21969],[-118.16387,51.21967],[-118.1638,51.21965],[-118.16373,51.21963],[-118.16358,51.21959],[-118.16347,51.21956],[-118.16335,51.21953],[-118.16324,51.2195],[-118.16314,51.21945],[-118.16302,51.21941],[-118.16288,51.21937],[-118.16275,51.21934],[-118.16263,51.2193],[-118.16252,51.21925],[-118.16239,51.21921],[-118.16226,51.21915],[-118.16213,51.2191],[-118.162,51.21906],[-118.16188,51.21901],[-118.16178,51.219],[-118.16166,51.21899],[-118.16155,51.219],[-118.16145,51.21903],[-118.16134,51.21907],[-118.16124,51.2191],[-118.16117,51.2191],[-118.16108,51.2191],[-118.16094,51.21909],[-118.16081,51.21904],[-118.16066,51.219],[-118.16059,51.21897],[-118.16052,51.21895],[-118.16043,51.21892],[-118.16034,51.2189],[-118.16027,51.2189],[-118.16011,51.21888],[-118.16004,51.21888],[-118.15997,51.21888],[-118.15983,51.21887],[-118.15976,51.21887],[-118.15963,51.21887],[-118.15948,51.21887],[-118.15941,51.21886],[-118.15934,51.21886],[-118.15925,51.21885],[-118.15918,51.21885],[-118.15905,51.21884],[-118.15892,51.21882],[-118.1588,51.2188],[-118.15867,51.21878],[-118.15855,51.21875],[-118.15842,51.21871],[-118.15835,51.21869],[-118.15826,51.21867],[-118.15819,51.21866],[-118.1581,51.21866],[-118.15802,51.21865],[-118.15793,51.21864],[-118.15786,51.21863],[-118.1577,51.21862],[-118.15759,51.21862],[-118.15749,51.21862],[-118.1574,51.21865],[-118.15732,51.21869],[-118.15723,51.21874],[-118.15715,51.21877],[-118.15706,51.2188],[-118.15699,51.21886],[-118.15695,51.21891],[-118.15691,51.21896],[-118.15687,51.21903],[-118.15683,51.21909],[-118.15676,51.21915],[-118.15669,51.21919],[-118.15662,51.21922],[-118.1565,51.21926],[-118.15643,51.21927],[-118.15633,51.21929],[-118.15624,51.2193],[-118.15614,51.21931],[-118.15602,51.21932],[-118.15593,51.21933],[-118.15579,51.21934],[-118.15567,51.21935],[-118.15557,51.21935],[-118.1555,51.21936],[-118.15542,51.21937],[-118.15533,51.21938],[-118.15499,51.21941],[-118.15487,51.21941],[-118.15467,51.21942],[-118.1546,51.21943],[-118.15449,51.21944],[-118.15436,51.21947],[-118.15426,51.21948],[-118.15417,51.2195],[-118.15407,51.21951],[-118.15396,51.21952],[-118.15386,51.21953],[-118.15374,51.21954],[-118.15367,51.21954],[-118.15347,51.21954],[-118.15337,51.21953],[-118.15327,51.21953],[-118.15316,51.21952],[-118.15303,51.21952],[-118.15294,51.2195],[-118.15287,51.21947],[-118.1528,51.21945],[-118.1527,51.21938],[-118.15261,51.21933],[-118.15251,51.21931],[-118.15239,51.21932],[-118.15228,51.21935],[-118.15215,51.21944],[-118.15204,51.21949],[-118.15197,51.2195],[-118.15187,51.21948],[-118.15177,51.21947],[-118.15165,51.21944],[-118.15157,51.21941],[-118.15145,51.2194],[-118.15135,51.21937],[-118.15122,51.21935],[-118.15112,51.21934],[-118.15099,51.21932],[-118.15088,51.2193],[-118.15075,51.2193],[-118.15063,51.21929],[-118.1505,51.21927],[-118.1504,51.21926],[-118.15027,51.21926],[-118.15017,51.21925],[-118.15006,51.21924],[-118.14996,51.21923],[-118.14986,51.21922],[-118.14977,51.21921],[-118.14966,51.21919],[-118.14955,51.21917],[-118.14945,51.21915],[-118.14938,51.21912],[-118.14931,51.21906],[-118.14929,51.21904],[-118.14921,51.219],[-118.14909,51.21899],[-118.14898,51.21899],[-118.14886,51.219],[-118.14873,51.219],[-118.14863,51.219],[-118.14849,51.21899],[-118.1484,51.21899],[-118.14828,51.21899],[-118.14819,51.21898],[-118.14806,51.21897],[-118.14799,51.21896],[-118.14787,51.21895],[-118.14777,51.21893],[-118.14766,51.21891],[-118.14753,51.2189],[-118.14744,51.21889],[-118.14734,51.21889],[-118.14727,51.21888],[-118.14714,51.21888],[-118.14707,51.21888],[-118.14696,51.21887],[-118.14681,51.21885],[-118.14668,51.2188],[-118.14661,51.21879],[-118.14652,51.21879],[-118.14642,51.2188],[-118.14632,51.21881],[-118.14625,51.21883],[-118.14622,51.21884],[-118.14615,51.21887],[-118.14604,51.21895],[-118.14596,51.21903],[-118.14584,51.21911],[-118.14577,51.21914],[-118.14559,51.21917],[-118.14552,51.21916],[-118.14542,51.21915],[-118.14532,51.21915],[-118.14521,51.21914],[-118.14507,51.21915],[-118.14499,51.21915],[-118.14487,51.21917],[-118.14479,51.2192],[-118.14466,51.21923],[-118.14454,51.21926],[-118.14439,51.2193],[-118.14419,51.21936],[-118.14409,51.21939],[-118.144,51.21942],[-118.14391,51.21944],[-118.14381,51.21947],[-118.14372,51.21949],[-118.14363,51.21952],[-118.14355,51.21955],[-118.14346,51.21958],[-118.14338,51.21961],[-118.14328,51.21965],[-118.14318,51.21968],[-118.14307,51.21971],[-118.14295,51.21975],[-118.14281,51.21978],[-118.14271,51.21979],[-118.14258,51.21981],[-118.14247,51.21982],[-118.14235,51.21984],[-118.14224,51.21985],[-118.14213,51.21985],[-118.14201,51.21984],[-118.14187,51.21983],[-118.1418,51.21983],[-118.14165,51.21982],[-118.14151,51.21981],[-118.14142,51.21981],[-118.14131,51.21981],[-118.14121,51.21985],[-118.14107,51.21987],[-118.14097,51.21988],[-118.14089,51.21989],[-118.14068,51.21988],[-118.14059,51.21986],[-118.14045,51.21984],[-118.14033,51.21981],[-118.14023,51.21979],[-118.14013,51.21977],[-118.14003,51.21975],[-118.13996,51.21974],[-118.13987,51.21974],[-118.13977,51.21974],[-118.13967,51.21974],[-118.13957,51.21974],[-118.13946,51.21974],[-118.13936,51.21975],[-118.13923,51.21976],[-118.13912,51.21979],[-118.13897,51.21982],[-118.13889,51.21985],[-118.13876,51.21989],[-118.13866,51.21993],[-118.13855,51.21996],[-118.13846,51.21997],[-118.13833,51.21997],[-118.13822,51.21995],[-118.13809,51.21991],[-118.13799,51.21988],[-118.13787,51.21985],[-118.13776,51.21985],[-118.13764,51.21986],[-118.13754,51.21989],[-118.13742,51.21994],[-118.13732,51.21997],[-118.1372,51.22001],[-118.1371,51.22004],[-118.137,51.22007],[-118.13692,51.22011],[-118.13682,51.22013],[-118.13673,51.22016],[-118.13663,51.22018],[-118.13653,51.22019],[-118.13642,51.2202],[-118.13632,51.22019],[-118.1362,51.22017],[-118.1361,51.22016],[-118.13599,51.22016],[-118.13588,51.22018],[-118.13573,51.2202],[-118.13565,51.22021],[-118.13553,51.22022],[-118.13543,51.22021],[-118.1353,51.2202],[-118.13522,51.22019],[-118.13512,51.22019],[-118.13497,51.22017],[-118.13489,51.22015],[-118.13479,51.22013],[-118.13467,51.22012],[-118.13456,51.22011],[-118.1344,51.22012],[-118.1343,51.22012],[-118.13414,51.22013],[-118.13406,51.22014],[-118.13391,51.22014],[-118.1338,51.22014],[-118.13363,51.22014],[-118.13353,51.22014],[-118.1332,51.22015],[-118.13303,51.22016],[-118.13291,51.22015],[-118.13281,51.22015],[-118.1327,51.22015],[-118.1326,51.22015],[-118.13248,51.22015],[-118.1324,51.22015],[-118.1323,51.22015],[-118.1322,51.22017],[-118.1321,51.22018],[-118.13195,51.2202],[-118.13188,51.22021],[-118.13175,51.22023],[-118.13158,51.22023],[-118.13145,51.22023],[-118.13134,51.22023],[-118.13118,51.22021],[-118.13104,51.22019],[-118.13089,51.22016],[-118.13075,51.22014],[-118.13068,51.22012],[-118.13053,51.2201],[-118.13045,51.22007],[-118.13037,51.22004],[-118.13029,51.22002],[-118.1302,51.21997],[-118.13013,51.21992],[-118.13007,51.21989],[-118.13003,51.21985],[-118.12995,51.21983],[-118.12985,51.21981],[-118.12978,51.21981],[-118.12968,51.21985],[-118.1296,51.21992],[-118.1296,51.21997],[-118.1296,51.22002],[-118.12962,51.22009],[-118.12965,51.22014],[-118.12972,51.22023],[-118.12978,51.22027],[-118.12982,51.22032],[-118.12985,51.22037],[-118.1299,51.22042],[-118.12993,51.22049],[-118.12998,51.22053],[-118.13004,51.22058],[-118.13017,51.22066],[-118.13032,51.22073],[-118.13039,51.22077],[-118.13046,51.22081],[-118.13055,51.22083],[-118.13064,51.22086],[-118.13072,51.22088],[-118.1308,51.2209],[-118.13094,51.22097],[-118.13103,51.22101],[-118.1311,51.22104],[-118.13117,51.22108],[-118.13133,51.22113],[-118.13142,51.22115],[-118.1315,51.22116],[-118.13159,51.22118],[-118.13168,51.22121],[-118.13176,51.22122],[-118.13186,51.22122],[-118.13195,51.22122],[-118.13205,51.22122],[-118.13214,51.22122],[-118.13221,51.22121],[-118.13228,51.2212],[-118.13236,51.22119],[-118.13243,51.22118],[-118.13252,51.22118],[-118.13262,51.22117],[-118.13271,51.22115],[-118.13282,51.22115],[-118.13294,51.22115],[-118.13305,51.22115],[-118.13312,51.22116],[-118.13321,51.22117],[-118.13332,51.22118],[-118.13345,51.22119],[-118.13354,51.22121],[-118.13364,51.22125],[-118.13371,51.22128],[-118.13381,51.22131],[-118.1339,51.22134],[-118.13401,51.22137],[-118.1341,51.22139],[-118.13419,51.22141],[-118.1343,51.22144],[-118.13442,51.22148],[-118.13451,51.22151],[-118.13458,51.22156],[-118.13467,51.22161],[-118.13467,51.22166],[-118.13458,51.22167],[-118.13448,51.22166],[-118.13439,51.22164],[-118.13428,51.22162],[-118.13421,51.22162],[-118.13408,51.2216],[-118.13395,51.22156],[-118.13388,51.22155],[-118.13377,51.22152],[-118.13365,51.2215],[-118.13353,51.2215],[-118.13342,51.2215],[-118.13334,51.2215],[-118.13323,51.2215],[-118.1331,51.22152],[-118.13302,51.22154],[-118.13287,51.22156],[-118.13272,51.2216],[-118.13259,51.22163],[-118.1325,51.22163],[-118.13243,51.22163],[-118.13236,51.22164],[-118.13227,51.22165],[-118.1322,51.22166],[-118.13207,51.22167],[-118.13199,51.22167],[-118.13189,51.22168],[-118.1318,51.22168],[-118.13172,51.22168],[-118.13162,51.22168],[-118.13154,51.22167],[-118.13147,51.22166],[-118.13139,51.22165],[-118.1313,51.22164],[-118.13117,51.22161],[-118.13108,51.22158],[-118.131,51.22155],[-118.13088,51.22149],[-118.13074,51.22146],[-118.13067,51.22144],[-118.13058,51.22143],[-118.13046,51.2214],[-118.13036,51.22136],[-118.13026,51.2213],[-118.1302,51.22124],[-118.1301,51.22121],[-118.13001,51.22118],[-118.12993,51.22116],[-118.12984,51.22116],[-118.12974,51.22116],[-118.12966,51.22117],[-118.12957,51.2212],[-118.12946,51.22123],[-118.12934,51.22125],[-118.12927,51.22127],[-118.12919,51.22131],[-118.12912,51.22136],[-118.12905,51.2214],[-118.12899,51.22146],[-118.12896,51.2215]]}},
{"type":"Feature","properties":{"spotId":"G-grouse-drive-0005","kind":"roadside","km":4.18,"climbM":4,"name":"420 m SW of La Forme Creek","flags":[]},"geometry":{"type":"LineString","coordinates":[[-118.09249,51.17223],[-118.09259,51.17237],[-118.09275,51.17283],[-118.09313,51.17322],[-118.09338,51.17344],[-118.09364,51.17358],[-118.09404,51.17373],[-118.0945,51.17383],[-118.09519,51.17397],[-118.09572,51.1742],[-118.09624,51.17441],[-118.09646,51.1745],[-118.09672,51.17474],[-118.09681,51.17498],[-118.09692,51.17515],[-118.09728,51.17561],[-118.09728,51.17583],[-118.09685,51.17641],[-118.09619,51.17714],[-118.09603,51.17738],[-118.09598,51.17771],[-118.09605,51.1779],[-118.09622,51.17816],[-118.09647,51.17835],[-118.0966,51.17857],[-118.09651,51.17866],[-118.09627,51.17865],[-118.09605,51.17858],[-118.09574,51.17841],[-118.09513,51.1779],[-118.09461,51.17762],[-118.0944,51.17771],[-118.09442,51.17782],[-118.09523,51.17863],[-118.09541,51.17892],[-118.0959,51.17945],[-118.09624,51.17975],[-118.09665,51.18031],[-118.09681,51.18084],[-118.09691,51.18168],[-118.09689,51.18206],[-118.09694,51.18249],[-118.09703,51.18303],[-118.09702,51.18332],[-118.09716,51.1837],[-118.09725,51.18411],[-118.09767,51.18537],[-118.09785,51.18577],[-118.09793,51.18611],[-118.09816,51.1867],[-118.09868,51.18711],[-118.0987,51.18746],[-118.09893,51.18841],[-118.09897,51.18935],[-118.09905,51.19005],[-118.09904,51.19039],[-118.09923,51.19129],[-118.09934,51.19161],[-118.09983,51.19276],[-118.09995,51.19299],[-118.10025,51.19351],[-118.10054,51.19437],[-118.10086,51.19486],[-118.1009,51.195],[-118.10115,51.19553],[-118.10129,51.19575],[-118.10162,51.19613],[-118.10183,51.19647],[-118.102,51.19672],[-118.10216,51.19702],[-118.10241,51.19743],[-118.10279,51.19781],[-118.103,51.19812],[-118.10301,51.19837],[-118.10304,51.19856],[-118.10312,51.19869],[-118.10329,51.19881],[-118.10354,51.1991],[-118.10429,51.19958],[-118.10476,51.19994],[-118.10493,51.20027],[-118.10529,51.20072],[-118.10584,51.20137],[-118.10617,51.20182],[-118.10696,51.20318],[-118.10725,51.2035]]}},
{"type":"Feature","properties":{"spotId":"G-grouse-drive-0012","kind":"roadside","km":4.18,"climbM":154,"name":"By La Forme Creek","flags":[]},"geometry":{"type":"LineString","coordinates":[[-118.10725,51.2035],[-118.10799,51.20431],[-118.10913,51.20495],[-118.11088,51.20631],[-118.11162,51.20678],[-118.1123,51.20692],[-118.11304,51.20719],[-118.11406,51.20769],[-118.11466,51.20775],[-118.11602,51.20853],[-118.11684,51.2091],[-118.11768,51.20959],[-118.11798,51.20983],[-118.11852,51.20989],[-118.11889,51.21003],[-118.11948,51.21032],[-118.12017,51.2107],[-118.12105,51.21148],[-118.12123,51.21175],[-118.12151,51.21199],[-118.12151,51.21219],[-118.12146,51.21279],[-118.12177,51.21328],[-118.12236,51.21385],[-118.12315,51.2142],[-118.12355,51.21434],[-118.12449,51.2146],[-118.12627,51.21514],[-118.12753,51.21567],[-118.12822,51.2161],[-118.1289,51.2165],[-118.12911,51.21657],[-118.12985,51.21685],[-118.13047,51.21739],[-118.13094,51.2176],[-118.13156,51.21787],[-118.13251,51.21805],[-118.13327,51.21816],[-118.13384,51.2182],[-118.13446,51.21823],[-118.13538,51.2182],[-118.1363,51.21817],[-118.1371,51.21813],[-118.13779,51.21812],[-118.13845,51.21821],[-118.14017,51.21822],[-118.1412,51.21811],[-118.14178,51.2181],[-118.1421,51.21793],[-118.14244,51.21773],[-118.14368,51.21764],[-118.14425,51.21752],[-118.14502,51.2173],[-118.1455,51.21722],[-118.14584,51.2172],[-118.14641,51.21725],[-118.14752,51.21736],[-118.1491,51.2175],[-118.14957,51.21755],[-118.15074,51.21766],[-118.15119,51.21768],[-118.1516,51.21774],[-118.15237,51.21765],[-118.15289,51.21773],[-118.15343,51.21779],[-118.1541,51.21779],[-118.15493,51.21775],[-118.15534,51.21769],[-118.15572,51.2176],[-118.15592,51.21741]]}},
{"type":"Feature","properties":{"spotId":"G-grouse-drive-0027","kind":"roadside","km":4.83,"climbM":211,"name":"480 m SE of Hanner Lake","flags":["Route crosses private land (ParcelMap BC, updated 2026-09-25): get permission first or go around."]},"geometry":{"type":"LineString","coordinates":[[-118.00517,51.03005],[-118.00516,51.03007],[-118.0051,51.03012],[-118.00497,51.0302],[-118.00489,51.03023],[-118.00479,51.03025],[-118.00467,51.03028],[-118.00453,51.0303],[-118.00439,51.03032],[-118.00425,51.03035],[-118.00409,51.03037],[-118.00392,51.03039],[-118.00378,51.03041],[-118.00364,51.03043],[-118.00349,51.03044],[-118.00334,51.03044],[-118.00318,51.03044],[-118.00302,51.03045],[-118.00285,51.03045],[-118.0027,51.03046],[-118.00254,51.03045],[-118.00237,51.03044],[-118.00223,51.03045],[-118.00207,51.03045],[-118.00195,51.03044],[-118.00183,51.03043],[-118.0017,51.0304],[-118.00157,51.03038],[-118.00144,51.03036],[-118.00134,51.03036],[-118.00123,51.03037],[-118.00108,51.03035],[-118.00098,51.03032],[-118.00088,51.03028],[-118.00078,51.03026],[-118.00068,51.03024],[-118.00062,51.03023],[-118.00055,51.03029],[-118.00047,51.03038],[-118.00041,51.03043],[-118.0003,51.03049],[-118.00022,51.03054],[-118.0,51.03054],[-117.99987,51.03055],[-117.99976,51.03055],[-117.99973,51.03049],[-117.99967,51.03043],[-117.99957,51.03037],[-117.9995,51.03032],[-117.99941,51.03029],[-117.9993,51.03027],[-117.99916,51.03026],[-117.99911,51.03026],[-117.999,51.03025],[-117.99884,51.0302],[-117.99864,51.03016],[-117.99848,51.03014],[-117.99834,51.03012],[-117.99823,51.03012],[-117.9981,51.03013],[-117.99798,51.03013],[-117.99791,51.03012],[-117.99771,51.0301],[-117.99754,51.03009],[-117.99744,51.03009],[-117.99734,51.03009],[-117.99726,51.03008],[-117.99714,51.03007],[-117.99706,51.03006],[-117.99697,51.03005],[-117.99676,51.03005],[-117.99667,51.03005],[-117.99653,51.03006],[-117.99636,51.03007],[-117.99601,51.03009],[-117.99589,51.0301],[-117.9958,51.03013],[-117.99566,51.0302],[-117.99546,51.03028],[-117.99535,51.0303],[-117.99528,51.0303],[-117.99518,51.0303],[-117.99506,51.03031],[-117.99496,51.03032],[-117.99485,51.03032],[-117.99457,51.03036],[-117.99435,51.03043],[-117.99427,51.03046],[-117.9942,51.03051],[-117.99407,51.03051],[-117.99391,51.03052],[-117.99384,51.03052],[-117.99373,51.03054],[-117.9936,51.03058],[-117.99344,51.03062],[-117.99332,51.03066],[-117.99323,51.03068],[-117.99315,51.03071],[-117.99302,51.03079],[-117.99294,51.03082],[-117.99272,51.03088],[-117.99251,51.03098],[-117.99233,51.03107],[-117.99223,51.0311],[-117.99203,51.03117],[-117.99173,51.03127],[-117.99155,51.03135],[-117.99142,51.03142],[-117.99137,51.0315],[-117.99128,51.03157],[-117.99113,51.03167],[-117.9911,51.03168],[-117.99103,51.03172],[-117.99096,51.0318],[-117.99093,51.03186],[-117.99078,51.03197],[-117.99051,51.03211],[-117.99041,51.03219],[-117.9903,51.0323],[-117.99024,51.03235],[-117.99022,51.0324],[-117.99019,51.03245],[-117.99011,51.03253],[-117.99006,51.03258],[-117.98997,51.03268],[-117.98991,51.03272],[-117.98985,51.03278],[-117.98986,51.03282],[-117.98974,51.03289],[-117.98949,51.03301],[-117.98936,51.0331],[-117.98929,51.03314],[-117.98918,51.03319],[-117.98909,51.03322],[-117.98885,51.03333],[-117.98871,51.03336],[-117.98861,51.03338],[-117.9884,51.0334],[-117.9882,51.03341],[-117.98813,51.03341],[-117.98797,51.03343],[-117.98776,51.0335],[-117.98753,51.03356],[-117.98743,51.03359],[-117.98733,51.0336],[-117.98723,51.03362],[-117.98715,51.03363],[-117.98706,51.03363],[-117.98695,51.03363],[-117.98678,51.03364],[-117.98668,51.03364],[-117.98655,51.03365],[-117.98646,51.03365],[-117.98638,51.03365],[-117.98628,51.03365],[-117.98608,51.03366],[-117.98601,51.03366],[-117.98579,51.03367],[-117.98569,51.03368],[-117.98561,51.03368],[-117.98551,51.03368],[-117.98534,51.03369],[-117.98525,51.03369],[-117.98514,51.03369],[-117.98501,51.03367],[-117.98474,51.03367],[-117.98464,51.03368],[-117.9844,51.03369],[-117.98428,51.03369],[-117.98421,51.0337],[-117.98414,51.0337],[-117.98401,51.0337],[-117.98371,51.03371],[-117.98348,51.03372],[-117.98334,51.03372],[-117.9833,51.03373],[-117.98324,51.03373],[-117.98314,51.03373],[-117.98299,51.03374],[-117.9829,51.03375],[-117.98277,51.03377],[-117.98269,51.03379],[-117.98257,51.03385],[-117.98242,51.03392],[-117.98215,51.03406],[-117.98198,51.03414],[-117.9819,51.03418],[-117.98181,51.0342],[-117.98161,51.03427],[-117.98151,51.03429],[-117.98143,51.0343],[-117.98132,51.03432],[-117.98127,51.03434],[-117.98115,51.03436],[-117.98105,51.03441],[-117.98093,51.03443],[-117.98079,51.03445],[-117.98061,51.03445],[-117.98051,51.03445],[-117.98042,51.03446],[-117.98021,51.03446],[-117.98005,51.03446],[-117.97996,51.03441],[-117.97988,51.03437],[-117.9797,51.03432],[-117.97949,51.03426],[-117.9794,51.03424],[-117.97933,51.03424],[-117.97919,51.03423],[-117.97903,51.03424],[-117.97895,51.03424],[-117.97885,51.03425],[-117.97866,51.03426],[-117.97856,51.03426],[-117.97845,51.03426],[-117.97832,51.03427],[-117.97813,51.03429],[-117.97798,51.03431],[-117.97782,51.03435],[-117.97762,51.03439],[-117.97748,51.03441],[-117.9773,51.03442],[-117.97683,51.03443],[-117.97674,51.03443],[-117.97658,51.03444],[-117.9765,51.03445],[-117.9764,51.03445],[-117.97616,51.03446],[-117.97608,51.03446],[-117.976,51.03446],[-117.97584,51.03448],[-117.97557,51.03452],[-117.97537,51.03458],[-117.97526,51.03464],[-117.97515,51.03467],[-117.97508,51.0347],[-117.97498,51.03473],[-117.97488,51.03476],[-117.97465,51.03484],[-117.97452,51.03491],[-117.97445,51.03497],[-117.97438,51.03504],[-117.97434,51.0351],[-117.97432,51.03516],[-117.97427,51.03521],[-117.97411,51.03534],[-117.97394,51.03547],[-117.97387,51.03554],[-117.97381,51.03562],[-117.97376,51.03567],[-117.9736,51.03576],[-117.9735,51.03583],[-117.97345,51.03588],[-117.97332,51.03596],[-117.97321,51.036],[-117.97314,51.03602],[-117.97299,51.03603],[-117.97285,51.03607],[-117.97274,51.03612],[-117.97265,51.03617],[-117.97258,51.0362],[-117.97244,51.03622],[-117.97236,51.03623],[-117.97224,51.03623],[-117.97204,51.03624],[-117.97186,51.03625],[-117.97171,51.03625],[-117.9716,51.03626],[-117.97152,51.03626],[-117.97134,51.03627],[-117.97126,51.03627],[-117.97112,51.03627],[-117.97095,51.03628],[-117.97087,51.03627],[-117.97067,51.03623],[-117.9706,51.03622],[-117.97046,51.03621],[-117.9704,51.03615],[-117.97027,51.03613],[-117.9702,51.03613],[-117.97013,51.03612],[-117.96994,51.03611],[-117.96987,51.03611],[-117.96981,51.03606],[-117.96973,51.03604],[-117.9696,51.036],[-117.96947,51.036],[-117.96938,51.03599],[-117.9693,51.03594],[-117.96911,51.03594],[-117.96896,51.03595],[-117.96887,51.03595],[-117.9687,51.03595],[-117.96858,51.03595],[-117.96844,51.0359],[-117.96833,51.03585],[-117.9682,51.03585],[-117.96813,51.03584],[-117.96804,51.03582],[-117.96797,51.03576],[-117.96778,51.03572],[-117.96762,51.03571],[-117.96752,51.03572],[-117.96745,51.03572],[-117.96738,51.03572],[-117.96717,51.03573],[-117.96698,51.03573],[-117.96687,51.03574],[-117.96677,51.03574],[-117.96658,51.03574],[-117.96643,51.03575],[-117.96633,51.03575],[-117.96624,51.03575],[-117.96603,51.03572],[-117.96591,51.03567],[-117.96583,51.03563],[-117.96575,51.03558],[-117.96565,51.03555],[-117.96549,51.03551],[-117.96524,51.0355],[-117.96472,51.03551],[-117.96463,51.03551],[-117.96448,51.03552],[-117.96433,51.03551],[-117.96423,51.03551],[-117.96414,51.03551],[-117.96395,51.03549],[-117.96377,51.03545],[-117.96364,51.03543],[-117.96348,51.03542],[-117.96332,51.03541],[-117.96311,51.0354],[-117.963,51.0354],[-117.9629,51.03539],[-117.96271,51.03538],[-117.96258,51.03535],[-117.96252,51.0353],[-117.96242,51.03525],[-117.96224,51.03522],[-117.96211,51.03519],[-117.96195,51.0352],[-117.96179,51.03519],[-117.96171,51.03519],[-117.96161,51.03519],[-117.96152,51.03519],[-117.96144,51.03519],[-117.96135,51.0352],[-117.9612,51.0352],[-117.96105,51.0352],[-117.96095,51.03521],[-117.96078,51.03521],[-117.96065,51.03521],[-117.96057,51.03522],[-117.96038,51.03523],[-117.96028,51.03523],[-117.96014,51.03523],[-117.96003,51.03524],[-117.95994,51.03524],[-117.95981,51.03524],[-117.95973,51.03525],[-117.9596,51.03526],[-117.95953,51.0353],[-117.95949,51.03537],[-117.95949,51.03539],[-117.95945,51.0354],[-117.95937,51.03541],[-117.95925,51.03543],[-117.95916,51.03545],[-117.95906,51.03547],[-117.95893,51.03553],[-117.95885,51.03554],[-117.95874,51.03555],[-117.95862,51.03558],[-117.95849,51.03563],[-117.95841,51.03566],[-117.95832,51.03568],[-117.95821,51.03572],[-117.95813,51.03574],[-117.95804,51.03576],[-117.95791,51.03579],[-117.95783,51.0358],[-117.95764,51.03584],[-117.95749,51.03588],[-117.9574,51.03589],[-117.9573,51.03589],[-117.9572,51.03588],[-117.95709,51.03586],[-117.957,51.03585],[-117.9569,51.03581],[-117.95683,51.03577],[-117.95677,51.03572],[-117.95668,51.03568],[-117.95658,51.03565],[-117.95643,51.03561],[-117.95624,51.03557],[-117.95604,51.03551],[-117.95595,51.03549],[-117.95587,51.03547],[-117.95578,51.03546],[-117.95568,51.03545],[-117.95558,51.03545],[-117.95551,51.03544],[-117.95541,51.03541],[-117.95532,51.03537],[-117.95518,51.0353],[-117.95505,51.03522],[-117.95492,51.03516],[-117.9548,51.03511],[-117.9547,51.03507],[-117.95456,51.035],[-117.95449,51.03496],[-117.95442,51.03492],[-117.95433,51.03487],[-117.95423,51.03484],[-117.95416,51.03482],[-117.95408,51.03481],[-117.95397,51.03478],[-117.95386,51.03478],[-117.95377,51.03475],[-117.9536,51.03476],[-117.9535,51.03476],[-117.95343,51.03477],[-117.95334,51.0348],[-117.95319,51.03485],[-117.9531,51.0349],[-117.95303,51.03495],[-117.95299,51.03501],[-117.95291,51.0351],[-117.95285,51.03516],[-117.95281,51.03522],[-117.95277,51.03527],[-117.9527,51.03535],[-117.95263,51.0354],[-117.95251,51.03543],[-117.9524,51.03545],[-117.95233,51.03546],[-117.95223,51.03547],[-117.95212,51.03551],[-117.95203,51.03555],[-117.95189,51.03558],[-117.95179,51.03562],[-117.95166,51.03566],[-117.95155,51.03569],[-117.95148,51.03571],[-117.95141,51.03573],[-117.95129,51.03574],[-117.95122,51.03572],[-117.95115,51.03569],[-117.95108,51.03563],[-117.95105,51.03557],[-117.95103,51.03549],[-117.95105,51.03543],[-117.95109,51.03538],[-117.95119,51.03531],[-117.95126,51.03526],[-117.95131,51.03521],[-117.95141,51.03517],[-117.95151,51.03515],[-117.9516,51.03513],[-117.95168,51.03511],[-117.95175,51.0351],[-117.95184,51.03508],[-117.95198,51.03504],[-117.95208,51.03502],[-117.95215,51.03498],[-117.9522,51.03493],[-117.95225,51.03487],[-117.95226,51.03482],[-117.95226,51.03475],[-117.95226,51.03469],[-117.95224,51.03464],[-117.95221,51.03455],[-117.95215,51.0345],[-117.95208,51.03448],[-117.952,51.03447],[-117.95187,51.0345],[-117.95175,51.03453],[-117.95166,51.03457],[-117.95157,51.03461],[-117.95149,51.03468],[-117.95137,51.03474],[-117.95126,51.03478],[-117.95119,51.03479],[-117.95106,51.0348],[-117.95096,51.03481],[-117.95085,51.03482],[-117.95076,51.03482],[-117.95068,51.03483],[-117.95056,51.03483],[-117.95048,51.03483],[-117.95035,51.03484],[-117.95026,51.03484],[-117.95018,51.03484],[-117.95009,51.0348],[-117.95013,51.03475],[-117.9502,51.03469],[-117.95026,51.03464],[-117.95034,51.03457],[-117.95041,51.03452],[-117.95046,51.03447],[-117.95054,51.03442],[-117.95062,51.03434],[-117.95069,51.0343],[-117.95076,51.03425],[-117.95083,51.03419],[-117.9509,51.03414],[-117.95098,51.03409],[-117.95106,51.03403],[-117.95114,51.03399],[-117.95124,51.03394],[-117.95131,51.03391],[-117.95145,51.03382],[-117.95155,51.03377],[-117.95165,51.03372],[-117.95178,51.03366],[-117.95186,51.03361],[-117.95191,51.03354],[-117.95199,51.03351],[-117.95207,51.03347],[-117.95219,51.03341],[-117.95229,51.03337],[-117.95237,51.03331],[-117.95246,51.03328],[-117.95257,51.03325]]}},
{"type":"Feature","properties":{"spotId":"G-grouse-drive-0064","kind":"roadside","km":4.18,"climbM":303,"name":"320 m SE of Revelstoke Lake","flags":[]},"geometry":{"type":"LineString","coordinates":[[-118.19144,51.21896],[-118.19139,51.21888],[-118.19141,51.21882],[-118.19144,51.21875],[-118.19148,51.2186],[-118.19164,51.21839],[-118.19204,51.21804],[-118.19235,51.21771],[-118.19272,51.21741],[-118.19295,51.21707],[-118.19306,51.21674],[-118.19305,51.21635],[-118.19299,51.21603],[-118.19293,51.21559],[-118.19284,51.21527],[-118.1928,51.21455],[-118.19284,51.21407],[-118.19287,51.21384],[-118.19288,51.21373],[-118.1928,51.21329],[-118.19264,51.21295],[-118.1925,51.21271],[-118.1924,51.21239],[-118.19238,51.21211],[-118.19247,51.2119],[-118.19264,51.21166],[-118.19278,51.21143],[-118.19276,51.2111],[-118.19271,51.21079],[-118.19269,51.21036],[-118.19273,51.21008],[-118.19283,51.20978],[-118.19291,51.20959],[-118.19298,51.20941],[-118.19296,51.20926],[-118.19285,51.20921],[-118.19272,51.20919],[-118.19251,51.20929],[-118.19235,51.20951],[-118.19223,51.20982],[-118.19206,51.21],[-118.19187,51.21016],[-118.19165,51.21033],[-118.19129,51.21048],[-118.19087,51.2107],[-118.19054,51.21098],[-118.19028,51.21145],[-118.18999,51.21203],[-118.18983,51.2123],[-118.18945,51.21264],[-118.18938,51.2127],[-118.18905,51.21306],[-118.18877,51.21358],[-118.1883,51.21432],[-118.18803,51.21463],[-118.18775,51.21476],[-118.18729,51.21497],[-118.18676,51.21513],[-118.18629,51.21529],[-118.18625,51.21531],[-118.18571,51.21536],[-118.18514,51.21535],[-118.18457,51.2153],[-118.18381,51.21526],[-118.18319,51.21525],[-118.18266,51.21528],[-118.18214,51.21538],[-118.18172,51.21553],[-118.18135,51.21571],[-118.18096,51.21591],[-118.18056,51.21599],[-118.18017,51.21604],[-118.17933,51.21622],[-118.17888,51.21635],[-118.17852,51.21641],[-118.17812,51.21642],[-118.1774,51.2164],[-118.17656,51.21636],[-118.17584,51.21636],[-118.17508,51.21632],[-118.17363,51.21631],[-118.17244,51.21633],[-118.17167,51.2162],[-118.17122,51.21632],[-118.17046,51.21645],[-118.16976,51.21653],[-118.16891,51.21667],[-118.16813,51.21661],[-118.16698,51.21664],[-118.16595,51.21669],[-118.16538,51.21671],[-118.16478,51.21671],[-118.16402,51.21664],[-118.1627,51.21661],[-118.16115,51.21654],[-118.16051,51.21654],[-118.1594,51.21669],[-118.15865,51.21682],[-118.1582,51.21691],[-118.15746,51.21698],[-118.15696,51.21696],[-118.15659,51.21702],[-118.15625,51.21716],[-118.15592,51.21741]]}},
{"type":"Feature","properties":{"spotId":"G-grouse-walk-0021","kind":"walk","km":2.07,"climbM":688,"name":"1.9 km NE of Jordan River","flags":[]},"geometry":{"type":"LineString","coordinates":[[-118.27133,51.04278],[-118.24755,51.05383]]}},
{"type":"Feature","properties":{"spotId":"G-grouse-walk-0021","kind":"roadside","km":4.88,"climbM":324,"name":"1.9 km NE of Jordan River","flags":[]},"geometry":{"type":"LineString","coordinates":[[-118.24755,51.05383],[-118.24763,51.05371],[-118.24779,51.05355],[-118.24795,51.05339],[-118.24818,51.05328],[-118.2484,51.05318],[-118.24868,51.05299],[-118.24895,51.05276],[-118.24939,51.0523],[-118.24966,51.05202],[-118.25011,51.05169],[-118.25056,51.05126],[-118.25086,51.05104],[-118.25123,51.05087],[-118.25154,51.05069],[-118.25202,51.0505],[-118.25234,51.05056],[-118.25226,51.05094],[-118.25218,51.05125],[-118.25216,51.05155],[-118.25217,51.05185],[-118.25212,51.05207],[-118.25206,51.05229],[-118.25209,51.05252],[-118.2522,51.05276],[-118.25229,51.0531],[-118.25238,51.05342],[-118.25244,51.05381],[-118.25244,51.0541],[-118.25243,51.05443],[-118.25255,51.05469],[-118.25252,51.05506],[-118.25254,51.05547],[-118.2525,51.05587],[-118.25249,51.05614],[-118.25252,51.05637],[-118.25248,51.0568],[-118.25245,51.05711],[-118.25245,51.0574],[-118.25235,51.0576],[-118.25226,51.05789],[-118.25211,51.05803],[-118.25184,51.05815],[-118.2517,51.05825],[-118.25155,51.05845],[-118.2515,51.0587],[-118.25157,51.05898],[-118.25167,51.05926],[-118.25163,51.05955],[-118.25153,51.0599],[-118.25134,51.06023],[-118.25124,51.06064],[-118.25118,51.06113],[-118.25107,51.06172],[-118.25101,51.06214],[-118.25109,51.06239],[-118.25123,51.06266],[-118.25136,51.06286],[-118.25155,51.06301],[-118.25185,51.06318],[-118.25207,51.06338],[-118.25226,51.06352],[-118.25231,51.06381],[-118.25224,51.06402],[-118.25213,51.06434],[-118.25195,51.06467],[-118.25189,51.06483],[-118.25196,51.06498],[-118.25214,51.06502],[-118.25239,51.06493],[-118.25272,51.06473],[-118.25304,51.06454],[-118.25319,51.0644],[-118.25346,51.06406],[-118.25378,51.06365],[-118.25386,51.06334],[-118.25388,51.0631],[-118.25396,51.06286],[-118.25426,51.06245],[-118.25464,51.06209],[-118.25488,51.06187],[-118.25519,51.06161],[-118.25558,51.06132],[-118.25584,51.06109],[-118.2562,51.061],[-118.2565,51.06087],[-118.25683,51.06065],[-118.25712,51.06043],[-118.2575,51.06005],[-118.25778,51.05982],[-118.25803,51.05965],[-118.25848,51.05951],[-118.25888,51.0593],[-118.25934,51.0591],[-118.25944,51.05923],[-118.2595,51.05954],[-118.25944,51.05992],[-118.25923,51.06032],[-118.25911,51.0607],[-118.25917,51.06105],[-118.25913,51.06154],[-118.25912,51.06196],[-118.25921,51.06229],[-118.2592,51.06258],[-118.25933,51.06272],[-118.25958,51.06272],[-118.25974,51.06262],[-118.25997,51.06232],[-118.26019,51.06195],[-118.26041,51.06172],[-118.26064,51.0614],[-118.2609,51.06116],[-118.26125,51.06112],[-118.26154,51.06119],[-118.26166,51.06133],[-118.26169,51.06154],[-118.26166,51.06179],[-118.26166,51.06214],[-118.26168,51.06234],[-118.26172,51.0627],[-118.26184,51.06316],[-118.26187,51.06359],[-118.26191,51.06407],[-118.26194,51.06467],[-118.26201,51.06527],[-118.26215,51.06569],[-118.2623,51.06614],[-118.26229,51.06641],[-118.26226,51.06664],[-118.26228,51.06687],[-118.26222,51.0672],[-118.26213,51.06764],[-118.262,51.06814],[-118.26183,51.06846],[-118.26159,51.06875],[-118.26138,51.06894],[-118.26119,51.06912],[-118.26101,51.06935],[-118.26076,51.06978],[-118.26057,51.07025],[-118.26049,51.07046],[-118.26044,51.07088],[-118.26046,51.07118]]}},
{"type":"Feature","properties":{"spotId":"G-grouse-walk-0065","kind":"walk","km":1.62,"climbM":113,"name":"1.8 km W of Revelstoke Lake","flags":["Route touches city limits: City of Revelstoke. Local firearm bylaw applies."]},"geometry":{"type":"LineString","coordinates":[[-118.20116,51.06418],[-118.22281,51.05899]]}},
{"type":"Feature","properties":{"spotId":"G-grouse-walk-0065","kind":"roadside","km":4.06,"climbM":408,"name":"1.8 km W of Revelstoke Lake","flags":["Route touches city limits: City of Revelstoke. Local firearm bylaw applies."]},"geometry":{"type":"LineString","coordinates":[[-118.22281,51.05899],[-118.22282,51.0591],[-118.22296,51.05917],[-118.22305,51.05929],[-118.22302,51.05954],[-118.22298,51.05986],[-118.22293,51.06021],[-118.22288,51.0605],[-118.22286,51.06085],[-118.22292,51.0612],[-118.22302,51.06148],[-118.22314,51.06181],[-118.22318,51.0621],[-118.22319,51.06235],[-118.22321,51.06274],[-118.22325,51.06309],[-118.22335,51.06339],[-118.22353,51.06374],[-118.22373,51.06403],[-118.22405,51.06429],[-118.22436,51.06444],[-118.22463,51.06448],[-118.22485,51.06446],[-118.22506,51.06436],[-118.22526,51.06419],[-118.22541,51.06398],[-118.22554,51.06377],[-118.22572,51.06366],[-118.22596,51.06364],[-118.22619,51.06371],[-118.22632,51.06388],[-118.22641,51.06417],[-118.22646,51.0645],[-118.2266,51.06478],[-118.22664,51.06509],[-118.22663,51.0654],[-118.22668,51.06574],[-118.22677,51.06601],[-118.22686,51.06622],[-118.22683,51.06644],[-118.22695,51.06662],[-118.22722,51.06674],[-118.22756,51.06682],[-118.228,51.06685],[-118.22853,51.06683],[-118.22906,51.06676],[-118.22951,51.06662],[-118.22982,51.06651],[-118.22999,51.06635],[-118.2301,51.06611],[-118.23024,51.0658],[-118.2304,51.06529],[-118.23054,51.0649],[-118.23065,51.06462],[-118.23073,51.06433],[-118.2308,51.06398],[-118.2309,51.06366],[-118.23102,51.06339],[-118.23121,51.06316],[-118.23141,51.06298],[-118.23167,51.06278],[-118.23193,51.06257],[-118.23221,51.06235],[-118.23246,51.06215],[-118.23268,51.06194],[-118.23298,51.06171],[-118.23336,51.06145],[-118.23372,51.0613],[-118.23407,51.06132],[-118.23434,51.06136],[-118.23467,51.06141],[-118.2349,51.06137],[-118.23523,51.06118],[-118.23573,51.06088],[-118.23599,51.06069],[-118.23629,51.0605],[-118.23654,51.06033],[-118.23676,51.06015],[-118.237,51.06003],[-118.23722,51.05987],[-118.23744,51.05969],[-118.23766,51.05956],[-118.23786,51.05948],[-118.23813,51.05935],[-118.23833,51.0592],[-118.23853,51.05904],[-118.23869,51.05886],[-118.23885,51.05874],[-118.23903,51.05863],[-118.23922,51.05847],[-118.23939,51.05819],[-118.23955,51.05796],[-118.23965,51.05776],[-118.23978,51.05749],[-118.23989,51.05732],[-118.24005,51.05717],[-118.24027,51.05703],[-118.24052,51.05687],[-118.24066,51.05672],[-118.24081,51.05659],[-118.24099,51.05641],[-118.24124,51.05618],[-118.24146,51.05596],[-118.24167,51.05579],[-118.24198,51.05561],[-118.24233,51.05548],[-118.24253,51.05539],[-118.2427,51.05537],[-118.24295,51.05543],[-118.24294,51.05565],[-118.24283,51.05599],[-118.24273,51.05627],[-118.24265,51.05654],[-118.24257,51.0568],[-118.24252,51.05698],[-118.24265,51.05705],[-118.24282,51.05706],[-118.2431,51.05695],[-118.24327,51.05684],[-118.2437,51.05665],[-118.244,51.05649],[-118.24443,51.05628],[-118.24481,51.05603],[-118.24506,51.05575],[-118.24519,51.05557],[-118.24518,51.05535],[-118.24518,51.05503],[-118.24513,51.05478],[-118.24506,51.05461],[-118.24512,51.05439],[-118.24517,51.05414],[-118.24522,51.05387],[-118.24535,51.05366],[-118.2455,51.05352],[-118.24562,51.05336],[-118.24559,51.05322],[-118.24552,51.05303],[-118.24551,51.05289],[-118.24556,51.05268],[-118.24572,51.05253],[-118.24604,51.05239],[-118.24636,51.05234],[-118.24664,51.05241],[-118.24684,51.05264],[-118.24692,51.05291],[-118.24694,51.05323],[-118.247,51.05352],[-118.24712,51.05374],[-118.2474,51.05381],[-118.24755,51.05383]]}},
{"type":"Feature","properties":{"spotId":"G-moose-atv-0059","kind":"ride","km":1.92,"climbM":30,"name":"410 m S of Hamilton Creek","flags":["Route crosses private land (ParcelMap BC, updated 2026-09-25): get permission first or go around."]},"geometry":{"type":"LineString","coordinates":[[-118.0881,51.00809],[-118.0881,51.00808],[-118.08808,51.00801],[-118.08805,51.00793],[-118.08799,51.00785],[-118.08795,51.00778],[-118.08789,51.00771],[-118.08783,51.00767],[-118.08774,51.00762],[-118.08767,51.00755],[-118.08761,51.00751],[-118.08761,51.0075],[-118.08752,51.00745],[-118.08745,51.0074],[-118.08738,51.00734],[-118.08732,51.00728],[-118.08725,51.00724],[-118.08718,51.00718],[-118.08712,51.00712],[-118.08707,51.00707],[-118.08703,51.00699],[-118.08699,51.00695],[-118.08694,51.00691],[-118.08693,51.00688],[-118.08691,51.00685],[-118.08687,51.00678],[-118.08682,51.00673],[-118.08675,51.00668],[-118.08666,51.00663],[-118.08658,51.00659],[-118.08651,51.00659],[-118.08642,51.0066],[-118.08632,51.00661],[-118.08624,51.00662],[-118.08617,51.00662],[-118.08608,51.00663],[-118.08607,51.00663],[-118.08598,51.00664],[-118.08591,51.00665],[-118.08582,51.00666],[-118.08574,51.00667],[-118.08563,51.00668],[-118.08553,51.00668],[-118.08544,51.00669],[-118.08533,51.0067],[-118.08523,51.00671],[-118.08513,51.00672],[-118.08501,51.00673],[-118.08493,51.00675],[-118.08484,51.00676],[-118.08477,51.00677],[-118.08469,51.00678],[-118.08462,51.00679],[-118.08453,51.0068],[-118.08442,51.0068],[-118.08433,51.0068],[-118.08425,51.00681],[-118.08416,51.00682],[-118.08409,51.00685],[-118.084,51.00687],[-118.08393,51.00689],[-118.08386,51.00691],[-118.08378,51.00693],[-118.08371,51.00695],[-118.08364,51.00697],[-118.08357,51.00699],[-118.08349,51.00701],[-118.08341,51.00703],[-118.0833,51.00705],[-118.08323,51.00707],[-118.08314,51.00711],[-118.08306,51.00714],[-118.08297,51.00717],[-118.08289,51.0072],[-118.0828,51.00723],[-118.0827,51.00726],[-118.08262,51.00729],[-118.08253,51.00731],[-118.08245,51.00732],[-118.08238,51.00735],[-118.08228,51.00737],[-118.08216,51.00739],[-118.08206,51.0074],[-118.08195,51.00742],[-118.08187,51.00744],[-118.08178,51.00745],[-118.08165,51.00747],[-118.08152,51.00747],[-118.08141,51.00749],[-118.08128,51.00752],[-118.0812,51.00756],[-118.08107,51.00759],[-118.08097,51.00762],[-118.08087,51.00765],[-118.08077,51.00767],[-118.08066,51.0077],[-118.08056,51.00773],[-118.08048,51.00777],[-118.08038,51.00779],[-118.08028,51.00782],[-118.08021,51.00786],[-118.08014,51.00789],[-118.08005,51.00793],[-118.07994,51.00799],[-118.07988,51.00803],[-118.07984,51.0081],[-118.07977,51.00816],[-118.0797,51.00822],[-118.07965,51.00828],[-118.07959,51.00834],[-118.07952,51.0084],[-118.07945,51.00846],[-118.07938,51.0085],[-118.0793,51.00853],[-118.07923,51.00855],[-118.07915,51.00856],[-118.07907,51.00857],[-118.07898,51.00858],[-118.0789,51.0086],[-118.07879,51.00863],[-118.0787,51.00865],[-118.07862,51.00866],[-118.07853,51.00866],[-118.07829,51.0087],[-118.07823,51.00873],[-118.07815,51.00875],[-118.07806,51.00876],[-118.07799,51.00877],[-118.07789,51.00878],[-118.07782,51.00879],[-118.07771,51.00879],[-118.07761,51.0088],[-118.07751,51.00881],[-118.07742,51.00883],[-118.07732,51.00885],[-118.07721,51.00888],[-118.07711,51.00892],[-118.07704,51.00894],[-118.07691,51.00897],[-118.07678,51.009],[-118.07667,51.00903],[-118.07656,51.00907],[-118.07644,51.00911],[-118.07643,51.00911],[-118.07636,51.00913],[-118.07625,51.00916],[-118.07615,51.00918],[-118.07605,51.0092],[-118.07592,51.00922],[-118.07579,51.00924],[-118.07566,51.00927],[-118.07559,51.00929],[-118.07552,51.0093],[-118.07544,51.00931],[-118.0753,51.00933],[-118.07522,51.00934],[-118.07515,51.00935],[-118.07501,51.00936],[-118.07487,51.00939],[-118.07478,51.0094],[-118.07471,51.00941],[-118.07464,51.00942],[-118.07457,51.00944],[-118.07443,51.00946],[-118.0743,51.00948],[-118.07419,51.00949],[-118.07406,51.00951],[-118.07399,51.00952],[-118.07395,51.00953],[-118.07383,51.00955],[-118.07372,51.00959],[-118.07359,51.00964],[-118.07348,51.00967],[-118.07335,51.0097],[-118.07322,51.00975],[-118.07311,51.00979],[-118.07303,51.00983],[-118.07294,51.00987],[-118.07287,51.0099],[-118.07279,51.00993],[-118.07269,51.00998],[-118.07262,51.01003],[-118.07255,51.01009],[-118.07245,51.01014],[-118.07246,51.01016],[-118.07254,51.01022],[-118.07257,51.01027],[-118.07261,51.01033],[-118.07264,51.01039],[-118.0727,51.01045],[-118.07274,51.01051],[-118.07279,51.01057],[-118.07283,51.01061],[-118.07285,51.01063],[-118.07292,51.01067],[-118.073,51.01069],[-118.07309,51.01072],[-118.07316,51.01074],[-118.07323,51.01076],[-118.07333,51.01076],[-118.07343,51.01078],[-118.07355,51.0108],[-118.07365,51.01081],[-118.07375,51.01082],[-118.07383,51.01083],[-118.07395,51.01084],[-118.07405,51.01086],[-118.07415,51.01087],[-118.07425,51.01087],[-118.07438,51.01088],[-118.07449,51.0109],[-118.07459,51.0109],[-118.07472,51.0109],[-118.07479,51.01092],[-118.0749,51.01092],[-118.075,51.01093],[-118.0751,51.01094],[-118.0752,51.01095],[-118.07532,51.01097],[-118.07545,51.01099],[-118.07558,51.011],[-118.0757,51.01101],[-118.0758,51.01102],[-118.07593,51.01103],[-118.07603,51.01104],[-118.07615,51.01105],[-118.07625,51.01106],[-118.07636,51.01107],[-118.07648,51.01108],[-118.07659,51.01108],[-118.07669,51.01109],[-118.07679,51.0111],[-118.07689,51.01111],[-118.07698,51.01113],[-118.07706,51.01112],[-118.07713,51.01112],[-118.07722,51.01114],[-118.07729,51.01119],[-118.07736,51.01122],[-118.07739,51.01127],[-118.07742,51.01132],[-118.07745,51.01138],[-118.07747,51.01143],[-118.0775,51.01148],[-118.07751,51.01153],[-118.07756,51.01159],[-118.07759,51.01164],[-118.07762,51.0117],[-118.07765,51.01177],[-118.07768,51.01182],[-118.07771,51.01189],[-118.07774,51.01195],[-118.07777,51.01202],[-118.07781,51.01209],[-118.07784,51.01217],[-118.07787,51.01225],[-118.07789,51.01232],[-118.07792,51.01241],[-118.07795,51.01246],[-118.07796,51.0125],[-118.07798,51.01255],[-118.07801,51.01264],[-118.07804,51.01272],[-118.07808,51.0128],[-118.07813,51.01288],[-118.07814,51.01293],[-118.07816,51.01298],[-118.07818,51.01304],[-118.07819,51.01308],[-118.07823,51.01313],[-118.07826,51.01317]]}},
{"type":"Feature","properties":{"spotId":"G-moose-walk-0068","kind":"walk","km":0.36,"climbM":1,"name":"By Illecillewaet River","flags":["Route crosses private land (ParcelMap BC, updated 2026-09-25): get permission first or go around."]},"geometry":{"type":"LineString","coordinates":[[-118.04353,51.02064],[-118.0423,51.02382]]}}
]}
