{"type":"FeatureCollection","features":[
{"type":"Feature","properties":{"spotId":"G-duck-drive-0169","kind":"walk","km":0.18,"climbM":0,"name":"Unnamed lake 140 m S of Revelstoke Lake","flags":[]},"geometry":{"type":"LineString","coordinates":[[-118.48826,51.46961],[-118.48647,51.47076]]}},
{"type":"Feature","properties":{"spotId":"G-grouse-atv-0014","kind":"walk","km":0.28,"climbM":0,"name":"130 m N of Keystone Creek","flags":[]},"geometry":{"type":"LineString","coordinates":[[-118.41652,51.44778],[-118.41696,51.44532]]}},
{"type":"Feature","properties":{"spotId":"G-grouse-atv-0014","kind":"ride","km":6.06,"climbM":969,"name":"130 m N of Keystone Creek","flags":[]},"geometry":{"type":"LineString","coordinates":[[-118.41696,51.44532],[-118.41566,51.44545],[-118.41432,51.44547],[-118.41307,51.4453],[-118.41214,51.44518],[-118.41151,51.44502],[-118.4112,51.445],[-118.41046,51.44493],[-118.40961,51.44476],[-118.40881,51.44465],[-118.40747,51.44467],[-118.40515,51.44478],[-118.40113,51.44501],[-118.39876,51.4453],[-118.39594,51.44555],[-118.39328,51.44581],[-118.38907,51.44574],[-118.38577,51.44545],[-118.38357,51.44528],[-118.38243,51.44519],[-118.38175,51.44503],[-118.38033,51.44446],[-118.37927,51.44417],[-118.37849,51.44395],[-118.37683,51.44366],[-118.37478,51.44309],[-118.37297,51.44275],[-118.37151,51.44262],[-118.37025,51.44252],[-118.36903,51.4423],[-118.36822,51.44202],[-118.36744,51.44192],[-118.36661,51.44189],[-118.36588,51.44192],[-118.36435,51.44161],[-118.36331,51.44135],[-118.36241,51.44116],[-118.36153,51.44099],[-118.36005,51.44076],[-118.35905,51.44079],[-118.35728,51.44123],[-118.35516,51.44204],[-118.35354,51.44314],[-118.35299,51.44381],[-118.35237,51.44431],[-118.35113,51.44462],[-118.3493,51.44477],[-118.34829,51.44475],[-118.34747,51.44491],[-118.34696,51.44498],[-118.3451,51.44495],[-118.3433,51.44467],[-118.3415,51.44446],[-118.34043,51.4444],[-118.33953,51.44444],[-118.33913,51.44447],[-118.33854,51.44448],[-118.33823,51.44444],[-118.33788,51.44444],[-118.33759,51.44452],[-118.33729,51.44481],[-118.33708,51.44508],[-118.33694,51.4453],[-118.33683,51.44562],[-118.33682,51.44584],[-118.3369,51.44605],[-118.33699,51.44624],[-118.337,51.44639],[-118.33698,51.44663]]}},
{"type":"Feature","properties":{"spotId":"G-grouse-atv-0034","kind":"ride","km":6.35,"climbM":277,"name":"590 m SW of Revelstoke Lake","flags":[]},"geometry":{"type":"LineString","coordinates":[[-118.47511,51.39718],[-118.47485,51.39691],[-118.47475,51.39606],[-118.47451,51.39576],[-118.47452,51.39546],[-118.475,51.39498],[-118.4753,51.39436],[-118.4756,51.39407],[-118.47639,51.39386],[-118.47719,51.39353],[-118.47815,51.39359],[-118.47924,51.39331],[-118.48052,51.39282],[-118.48108,51.39238],[-118.48297,51.39207],[-118.48467,51.39179],[-118.48615,51.39141],[-118.48773,51.39113],[-118.48887,51.39093],[-118.49046,51.39084],[-118.49305,51.39051],[-118.49379,51.39062],[-118.49466,51.39068],[-118.49544,51.39049],[-118.49653,51.39057],[-118.49744,51.39066],[-118.4979,51.39063],[-118.49836,51.39059],[-118.49869,51.39054],[-118.49911,51.39045],[-118.49943,51.39039],[-118.49988,51.39031],[-118.50022,51.39029],[-118.50062,51.39027],[-118.50096,51.39025],[-118.5012,51.3902],[-118.50145,51.3902],[-118.50213,51.39019],[-118.5026,51.3902],[-118.50324,51.39024],[-118.50383,51.39018],[-118.504,51.39014],[-118.50433,51.39007],[-118.5047,51.39],[-118.50494,51.38996],[-118.50522,51.3899],[-118.50565,51.38986],[-118.50607,51.38983],[-118.50641,51.38978],[-118.50658,51.38971],[-118.50696,51.38936],[-118.50735,51.3892],[-118.50773,51.38909],[-118.50805,51.38905],[-118.50838,51.38901],[-118.5086,51.38899],[-118.50887,51.38897],[-118.5091,51.38896],[-118.50926,51.38896],[-118.50943,51.38895],[-118.50978,51.38897],[-118.51008,51.389],[-118.51044,51.38902],[-118.51069,51.38899],[-118.51121,51.3889],[-118.51141,51.38884],[-118.5118,51.38866],[-118.5121,51.38852],[-118.51245,51.38841],[-118.51276,51.38836],[-118.51312,51.38828],[-118.51342,51.38823],[-118.51389,51.38815],[-118.5142,51.38808],[-118.51459,51.388],[-118.51482,51.38797],[-118.51511,51.38786],[-118.51545,51.38773],[-118.51573,51.3876],[-118.51635,51.38755],[-118.51676,51.38757],[-118.51727,51.38744],[-118.51822,51.3871],[-118.51896,51.38686],[-118.51936,51.38663],[-118.51979,51.38651],[-118.52051,51.38612],[-118.52135,51.38579],[-118.52181,51.38547],[-118.5223,51.38535],[-118.52279,51.38504],[-118.52323,51.38457],[-118.52377,51.38418],[-118.52383,51.38379],[-118.52403,51.38323],[-118.52437,51.38266],[-118.52505,51.38248],[-118.52548,51.38243],[-118.5262,51.3821],[-118.5269,51.38178],[-118.52769,51.38141],[-118.52789,51.38108],[-118.52825,51.38072],[-118.52856,51.38049],[-118.52896,51.38035],[-118.52949,51.38032],[-118.53019,51.38004],[-118.53071,51.37987],[-118.53106,51.37978],[-118.53138,51.37959],[-118.53152,51.37928],[-118.53176,51.37913],[-118.53183,51.37853],[-118.53241,51.37826],[-118.53263,51.37809],[-118.53303,51.37789],[-118.53365,51.37785],[-118.53426,51.37786],[-118.53499,51.37765],[-118.53624,51.37703],[-118.53687,51.37662],[-118.53751,51.37607],[-118.53828,51.37564],[-118.53888,51.37545],[-118.53997,51.37502],[-118.54148,51.37397],[-118.5424,51.37349],[-118.54281,51.37328],[-118.5434,51.37308],[-118.54374,51.37301],[-118.54415,51.37295],[-118.54509,51.37276],[-118.54548,51.3725],[-118.54562,51.37232],[-118.54581,51.37214],[-118.54603,51.37184],[-118.54619,51.37168],[-118.54627,51.37159],[-118.5464,51.37148],[-118.5465,51.37136],[-118.54654,51.37128],[-118.54665,51.3712],[-118.54691,51.37119]]}},
{"type":"Feature","properties":{"spotId":"G-grouse-atv-0078","kind":"ride","km":4.79,"climbM":287,"name":"By Revelstoke Lake","flags":[]},"geometry":{"type":"LineString","coordinates":[[-118.26551,51.29155],[-118.26549,51.29157],[-118.26546,51.29161],[-118.2655,51.29168],[-118.26559,51.29174],[-118.26566,51.29181],[-118.26575,51.29187],[-118.26585,51.29194],[-118.26594,51.29199],[-118.26602,51.29203],[-118.26611,51.29209],[-118.2662,51.29215],[-118.26626,51.29223],[-118.26626,51.29231],[-118.26625,51.29234],[-118.26622,51.29239],[-118.26614,51.29244],[-118.26605,51.29247],[-118.26596,51.29248],[-118.26585,51.29247],[-118.26576,51.29244],[-118.26565,51.29241],[-118.2655,51.29238],[-118.26542,51.29236],[-118.26537,51.29235],[-118.2653,51.29235],[-118.26523,51.29235],[-118.26516,51.29235],[-118.26507,51.29235],[-118.265,51.29235],[-118.26491,51.29236],[-118.26484,51.29236],[-118.26477,51.29237],[-118.26466,51.2924],[-118.26459,51.29244],[-118.2645,51.29249],[-118.26442,51.29259],[-118.26438,51.29264],[-118.26434,51.29269],[-118.26429,51.29274],[-118.26425,51.2928],[-118.26423,51.29286],[-118.26418,51.29292],[-118.26414,51.29297],[-118.2641,51.29303],[-118.26404,51.29308],[-118.264,51.29313],[-118.26395,51.2932],[-118.26389,51.29326],[-118.26385,51.29332],[-118.26381,51.29338],[-118.26375,51.29345],[-118.26371,51.2935],[-118.26366,51.29356],[-118.2636,51.29362],[-118.26354,51.29368],[-118.2635,51.29374],[-118.26346,51.29381],[-118.26342,51.29388],[-118.26339,51.29393],[-118.26337,51.294],[-118.26334,51.29407],[-118.26331,51.29412],[-118.26329,51.2942],[-118.26327,51.29427],[-118.26328,51.29433],[-118.26328,51.29438],[-118.26328,51.29444],[-118.26328,51.29449],[-118.26328,51.29454],[-118.26328,51.29456],[-118.26328,51.29459],[-118.2633,51.29463],[-118.26334,51.29471],[-118.26343,51.29479],[-118.26353,51.29482],[-118.26363,51.29485],[-118.26375,51.29487],[-118.26384,51.29492],[-118.26387,51.29499],[-118.26384,51.29509],[-118.26383,51.29513],[-118.26382,51.2952],[-118.26379,51.29524],[-118.26375,51.29529],[-118.26368,51.29537],[-118.26356,51.29542],[-118.26349,51.29544],[-118.26335,51.29547],[-118.26326,51.29547],[-118.26316,51.29548],[-118.26306,51.29548],[-118.26298,51.29548],[-118.26286,51.29548],[-118.26278,51.29549],[-118.26269,51.2955],[-118.26262,51.2955],[-118.26253,51.2955],[-118.26245,51.29551],[-118.26238,51.29552],[-118.26228,51.29554],[-118.26208,51.29557],[-118.26198,51.2956],[-118.26189,51.29564],[-118.26179,51.29567],[-118.26165,51.29567],[-118.26156,51.29567],[-118.26148,51.29567],[-118.2614,51.29565],[-118.26129,51.29561],[-118.26116,51.29561],[-118.26102,51.29564],[-118.26093,51.29566],[-118.26085,51.29566],[-118.26075,51.29567],[-118.26066,51.29567],[-118.26056,51.29567],[-118.26046,51.29567],[-118.26034,51.29567],[-118.26026,51.29567],[-118.26016,51.29568],[-118.26004,51.29568],[-118.25994,51.29568],[-118.25981,51.29568],[-118.25974,51.29568],[-118.25964,51.29569],[-118.25954,51.29569],[-118.25944,51.29568],[-118.25934,51.29568],[-118.25925,51.29568],[-118.25918,51.29566],[-118.25905,51.29562],[-118.25892,51.29562],[-118.25885,51.29564],[-118.25877,51.29565],[-118.25867,51.29568],[-118.25859,51.29571],[-118.25849,51.29573],[-118.25841,51.29575],[-118.25831,51.29575],[-118.25819,51.29575],[-118.25812,51.29574],[-118.25799,51.29573],[-118.25789,51.29573],[-118.25781,51.29572],[-118.25771,51.29571],[-118.25762,51.29571],[-118.25752,51.29571],[-118.25743,51.2957],[-118.25736,51.2957],[-118.25729,51.29568],[-118.2572,51.29566],[-118.25712,51.29565],[-118.25704,51.29563],[-118.25693,51.29561],[-118.25678,51.29558],[-118.2567,51.29557],[-118.25661,51.29558],[-118.25651,51.29559],[-118.25641,51.29561],[-118.25634,51.29563],[-118.25626,51.29565],[-118.25617,51.29567],[-118.25607,51.29568],[-118.25595,51.29568],[-118.25585,51.29569],[-118.25575,51.29569],[-118.25567,51.29567],[-118.25557,51.29565],[-118.25548,51.29564],[-118.25539,51.29563],[-118.25532,51.29563],[-118.25522,51.29563],[-118.25514,51.29563],[-118.25504,51.29563],[-118.25494,51.29563],[-118.25486,51.29563],[-118.25476,51.29564],[-118.25466,51.29565],[-118.25458,51.29566],[-118.25449,51.29569],[-118.25441,51.29571],[-118.25432,51.29573],[-118.25424,51.29574],[-118.25415,51.29575],[-118.25405,51.29575],[-118.25395,51.29575],[-118.25385,51.29575],[-118.25375,51.29574],[-118.25365,51.29575],[-118.25353,51.29575],[-118.25343,51.29575],[-118.25335,51.29574],[-118.25327,51.29572],[-118.25319,51.29573],[-118.25309,51.29575],[-118.25302,51.29577],[-118.25293,51.2958],[-118.25285,51.29583],[-118.25275,51.29584],[-118.25252,51.29587],[-118.25237,51.29586],[-118.2523,51.29584],[-118.25223,51.29581],[-118.2521,51.29576],[-118.25198,51.29571],[-118.25185,51.29567],[-118.25178,51.29566],[-118.25171,51.29564],[-118.25162,51.29564],[-118.25155,51.29565],[-118.25145,51.29567],[-118.25137,51.2957],[-118.25127,51.29573],[-118.25117,51.29576],[-118.2511,51.29579],[-118.25095,51.29586],[-118.25081,51.29594],[-118.25069,51.29601],[-118.25056,51.29608],[-118.25043,51.29617],[-118.2503,51.29624],[-118.25023,51.29627],[-118.25016,51.29628],[-118.25008,51.29629],[-118.25,51.29629],[-118.2499,51.29629],[-118.24982,51.29631],[-118.24973,51.29633],[-118.24965,51.29634],[-118.24955,51.29635],[-118.24945,51.29635],[-118.24933,51.29635],[-118.24923,51.29635],[-118.2491,51.29635],[-118.24899,51.29636],[-118.24887,51.29636],[-118.24876,51.29636],[-118.24864,51.29637],[-118.24854,51.29638],[-118.24843,51.29638],[-118.24833,51.29638],[-118.24823,51.29638],[-118.24811,51.29637],[-118.24801,51.29636],[-118.24787,51.29635],[-118.24775,51.29633],[-118.24765,51.29631],[-118.24755,51.2963],[-118.24745,51.29628],[-118.24734,51.29626],[-118.24723,51.29624],[-118.24713,51.2962],[-118.24703,51.29618],[-118.24693,51.29615],[-118.24684,51.29611],[-118.24674,51.2961],[-118.24664,51.29609],[-118.24657,51.29609],[-118.24644,51.29609],[-118.24636,51.29609],[-118.24626,51.29611],[-118.24617,51.29614],[-118.24609,51.29618],[-118.24599,51.29623],[-118.2459,51.29629],[-118.2458,51.29634],[-118.24572,51.29639],[-118.24562,51.29643],[-118.24553,51.29648],[-118.24545,51.29653],[-118.24536,51.29657],[-118.24528,51.29661],[-118.24519,51.29665],[-118.24511,51.2967],[-118.24503,51.29675],[-118.24494,51.29682],[-118.24484,51.29687],[-118.24476,51.29693],[-118.24464,51.29697],[-118.24453,51.29701],[-118.24443,51.29705],[-118.24433,51.29709],[-118.24423,51.29712],[-118.24415,51.29716],[-118.24406,51.2972],[-118.24398,51.29723],[-118.24389,51.29728],[-118.24381,51.29732],[-118.24371,51.29736],[-118.24362,51.29741],[-118.24352,51.29745],[-118.24342,51.29749],[-118.24332,51.29752],[-118.24321,51.29752],[-118.24311,51.29751],[-118.24299,51.2975],[-118.24288,51.2975],[-118.24278,51.29749],[-118.24252,51.29746],[-118.24245,51.29747],[-118.24232,51.29747],[-118.2422,51.29747],[-118.24209,51.29746],[-118.24199,51.29744],[-118.24189,51.29742],[-118.24179,51.29738],[-118.2417,51.29735],[-118.24161,51.29731],[-118.24153,51.29729],[-118.24143,51.29728],[-118.24133,51.2973],[-118.24123,51.29733],[-118.24118,51.29734],[-118.24111,51.29736],[-118.241,51.29739],[-118.2409,51.2974],[-118.24078,51.2974],[-118.24067,51.29739],[-118.24055,51.29737],[-118.24044,51.29734],[-118.24031,51.29733],[-118.24019,51.29732],[-118.24006,51.29731],[-118.23995,51.29729],[-118.23983,51.29726],[-118.23972,51.29722],[-118.2396,51.29717],[-118.23951,51.29712],[-118.23943,51.29707],[-118.23935,51.297],[-118.23931,51.29695],[-118.23925,51.29689],[-118.23909,51.29684],[-118.23897,51.29684],[-118.23885,51.29685],[-118.23877,51.29685],[-118.2386,51.29685],[-118.23849,51.29685],[-118.23837,51.29686],[-118.23829,51.29686],[-118.23813,51.29685],[-118.23803,51.29681],[-118.2379,51.29678],[-118.23783,51.29676],[-118.23767,51.29671],[-118.23755,51.29667],[-118.23743,51.29665],[-118.23733,51.29662],[-118.23722,51.2966],[-118.23712,51.2966],[-118.237,51.29661],[-118.23693,51.29662],[-118.23678,51.29664],[-118.23668,51.29667],[-118.23656,51.29669],[-118.23645,51.29671],[-118.23633,51.29673],[-118.2362,51.29674],[-118.23586,51.29674],[-118.23579,51.29674],[-118.23569,51.29671],[-118.23557,51.29668],[-118.23548,51.29667],[-118.23533,51.29665],[-118.2352,51.29665],[-118.23504,51.29666],[-118.23493,51.29668],[-118.23477,51.29671],[-118.2346,51.29674],[-118.23444,51.29676],[-118.2343,51.29677],[-118.23414,51.29677],[-118.23398,51.29677],[-118.23382,51.29677],[-118.23365,51.2968],[-118.23347,51.29685],[-118.23334,51.2969],[-118.2332,51.29695],[-118.23313,51.29697],[-118.23303,51.29699],[-118.23287,51.29701],[-118.23271,51.29704],[-118.23261,51.29706],[-118.23241,51.2971],[-118.23226,51.29714],[-118.23211,51.29719],[-118.23201,51.29721],[-118.2318,51.29726],[-118.23164,51.2973],[-118.2315,51.29734],[-118.23142,51.29736],[-118.23134,51.29738],[-118.23123,51.29741],[-118.2311,51.29746],[-118.23099,51.29751],[-118.23086,51.29755],[-118.23073,51.29759],[-118.23059,51.29763],[-118.23043,51.29766],[-118.23029,51.29768],[-118.23013,51.29771],[-118.22996,51.29774],[-118.22985,51.29774],[-118.22973,51.29774],[-118.22968,51.29774],[-118.22909,51.29769],[-118.22893,51.29767],[-118.22878,51.29767],[-118.2287,51.29768],[-118.22849,51.29774],[-118.22833,51.29779],[-118.22816,51.29786],[-118.22797,51.29791],[-118.22789,51.29794],[-118.22777,51.29798],[-118.22759,51.29802],[-118.2274,51.29805],[-118.22733,51.29806],[-118.22723,51.29807],[-118.22703,51.29808],[-118.22683,51.29809],[-118.22674,51.29809],[-118.22664,51.2981],[-118.22647,51.29812],[-118.22632,51.29814],[-118.22614,51.29814],[-118.22593,51.29813],[-118.22571,51.29812],[-118.22553,51.29809],[-118.22537,51.29807],[-118.22521,51.29803],[-118.22506,51.29803],[-118.22491,51.29803],[-118.22484,51.29803],[-118.22472,51.29805],[-118.22452,51.29805],[-118.22433,51.29804],[-118.22426,51.29803],[-118.22415,51.29802],[-118.22397,51.29799],[-118.22379,51.29797],[-118.22371,51.29796],[-118.22358,51.29794],[-118.22337,51.29789],[-118.22317,51.29787],[-118.22308,51.29785],[-118.22298,51.29783],[-118.22281,51.2978],[-118.22262,51.29776],[-118.22253,51.29775],[-118.22242,51.29774],[-118.2222,51.29771],[-118.22201,51.29767],[-118.22194,51.29766],[-118.22183,51.29765],[-118.22165,51.29762],[-118.22147,51.29761],[-118.22138,51.29761],[-118.22125,51.2976],[-118.22104,51.29759],[-118.22084,51.29758],[-118.22075,51.29757],[-118.22063,51.29756],[-118.22045,51.29754],[-118.22023,51.29753],[-118.22013,51.29753],[-118.22,51.29751],[-118.21976,51.2975],[-118.21957,51.29748],[-118.21948,51.29747],[-118.21935,51.29746],[-118.21915,51.29743],[-118.21892,51.2974],[-118.21882,51.29738],[-118.21869,51.29736],[-118.21849,51.29732],[-118.2183,51.29729],[-118.21823,51.29726],[-118.21813,51.29724],[-118.21793,51.29721],[-118.2177,51.29718],[-118.2176,51.29716],[-118.21747,51.29714],[-118.21727,51.2971],[-118.21706,51.29706],[-118.21698,51.29704],[-118.21686,51.29701],[-118.21663,51.29697],[-118.21641,51.29691],[-118.21633,51.29689],[-118.21621,51.29687],[-118.21601,51.29683],[-118.21581,51.29678],[-118.21572,51.29677],[-118.21561,51.29675],[-118.21538,51.29671],[-118.21517,51.29667],[-118.21509,51.29666],[-118.21499,51.29666],[-118.21481,51.29663],[-118.21463,51.29661],[-118.21456,51.29659],[-118.21444,51.29656],[-118.21424,51.2965],[-118.21401,51.29642],[-118.21388,51.29639],[-118.21369,51.29633],[-118.2135,51.29628],[-118.21343,51.29625],[-118.21333,51.29622],[-118.21314,51.29615],[-118.21295,51.29608],[-118.21286,51.29606],[-118.21278,51.29602],[-118.21259,51.29595],[-118.21241,51.29589],[-118.21233,51.29586],[-118.21223,51.29581],[-118.21202,51.29574],[-118.21183,51.29567],[-118.21175,51.29564],[-118.21165,51.29559],[-118.21146,51.29552],[-118.21128,51.29545],[-118.2112,51.29543],[-118.2111,51.29538],[-118.21091,51.2953],[-118.2107,51.29523],[-118.21049,51.29513],[-118.21034,51.29507],[-118.21018,51.29499],[-118.21004,51.29491],[-118.20988,51.29484],[-118.20973,51.29477],[-118.20961,51.29469],[-118.20954,51.29462],[-118.20951,51.29455],[-118.20951,51.29449],[-118.20951,51.29445],[-118.20942,51.29438],[-118.20933,51.29435],[-118.20922,51.29435],[-118.20913,51.29438],[-118.20905,51.29441],[-118.20895,51.29444],[-118.20883,51.29446],[-118.20873,51.29446],[-118.20866,51.29442],[-118.20859,51.29436],[-118.20851,51.2943],[-118.20846,51.29425],[-118.20831,51.29418],[-118.20826,51.29415]]}},
{"type":"Feature","properties":{"spotId":"G-grouse-drive-0058","kind":"roadside","km":3.85,"climbM":53,"name":"By Revelstoke Lake","flags":[]},"geometry":{"type":"LineString","coordinates":[[-118.46156,51.39518],[-118.46156,51.39523],[-118.46158,51.39528],[-118.46158,51.39536],[-118.4616,51.39542],[-118.4616,51.39546],[-118.46163,51.39558],[-118.46166,51.39566],[-118.46166,51.39571],[-118.46168,51.39576],[-118.46168,51.39585],[-118.46171,51.39593],[-118.46175,51.39605],[-118.46178,51.39611],[-118.46185,51.39616],[-118.46194,51.39621],[-118.46204,51.39624],[-118.46217,51.39627],[-118.46246,51.3963],[-118.4626,51.3963],[-118.46267,51.3963],[-118.46289,51.39633],[-118.46303,51.39634],[-118.46329,51.39639],[-118.46342,51.3964],[-118.46355,51.39644],[-118.4637,51.39646],[-118.46383,51.3965],[-118.46405,51.39657],[-118.46422,51.39664],[-118.46446,51.39683],[-118.46452,51.39688],[-118.46456,51.39694],[-118.46458,51.397],[-118.46458,51.39705],[-118.46457,51.39713],[-118.46454,51.39718],[-118.46444,51.39728],[-118.46439,51.39741],[-118.46436,51.39747],[-118.46434,51.39759],[-118.46433,51.39767],[-118.46433,51.39781],[-118.46435,51.39788],[-118.46439,51.39796],[-118.46444,51.39803],[-118.46448,51.39808],[-118.46456,51.39815],[-118.46465,51.39821],[-118.46473,51.39826],[-118.46484,51.39828],[-118.46526,51.39836],[-118.46553,51.39837],[-118.46583,51.39837],[-118.46595,51.39839],[-118.46612,51.3984],[-118.46626,51.39841],[-118.46644,51.39842],[-118.46671,51.39847],[-118.46709,51.39854],[-118.46735,51.39857],[-118.46745,51.39859],[-118.46769,51.39868],[-118.46794,51.39877],[-118.46828,51.39889],[-118.46838,51.39894],[-118.46847,51.399],[-118.46856,51.39906],[-118.46863,51.39913],[-118.4687,51.39921],[-118.46879,51.39935],[-118.46891,51.39946],[-118.46908,51.39963],[-118.46915,51.39972],[-118.46932,51.39989],[-118.4694,51.4],[-118.46945,51.40007],[-118.4695,51.40013],[-118.46951,51.40018],[-118.46954,51.40024],[-118.46956,51.40029],[-118.46959,51.40035],[-118.46965,51.40046],[-118.4697,51.40054],[-118.46973,51.40063],[-118.46974,51.40068],[-118.46977,51.40073],[-118.4698,51.4008],[-118.46986,51.4009],[-118.4699,51.40095],[-118.46994,51.40103],[-118.46997,51.40109],[-118.47002,51.40115],[-118.47005,51.40123],[-118.47008,51.40129],[-118.47014,51.4014],[-118.47017,51.40144],[-118.47024,51.40153],[-118.47028,51.40159],[-118.47032,51.40164],[-118.47038,51.40173],[-118.47043,51.40178],[-118.47049,51.40186],[-118.47053,51.40193],[-118.47056,51.40199],[-118.47061,51.40207],[-118.47062,51.40212],[-118.47074,51.40231],[-118.4708,51.40237],[-118.47079,51.40243],[-118.47089,51.4025],[-118.47095,51.40258],[-118.47101,51.40267],[-118.47106,51.40273],[-118.47109,51.4028],[-118.47115,51.40289],[-118.47118,51.40294],[-118.4712,51.403],[-118.47123,51.40306],[-118.47126,51.40312],[-118.47129,51.40317],[-118.47133,51.40321],[-118.47136,51.40326],[-118.47138,51.40333],[-118.47141,51.40338],[-118.47144,51.40343],[-118.47147,51.40349],[-118.47152,51.40355],[-118.47156,51.4036],[-118.47161,51.40366],[-118.47164,51.40372],[-118.47167,51.40376],[-118.4717,51.40383],[-118.47173,51.40388],[-118.47174,51.40392],[-118.47176,51.40399],[-118.47179,51.40404],[-118.47181,51.40409],[-118.47184,51.40417],[-118.4719,51.40425],[-118.47193,51.4043],[-118.47196,51.40435],[-118.47199,51.40441],[-118.47204,51.4045],[-118.47207,51.40457],[-118.47211,51.40467],[-118.47214,51.40472],[-118.4722,51.40481],[-118.47225,51.40485],[-118.47234,51.40493],[-118.47241,51.405],[-118.47243,51.405],[-118.4725,51.40507],[-118.47258,51.40517],[-118.47261,51.40523],[-118.47264,51.40533],[-118.47268,51.40539],[-118.47274,51.4055],[-118.47277,51.40555],[-118.47279,51.40561],[-118.47285,51.40574],[-118.4729,51.40581],[-118.47294,51.40586],[-118.47297,51.40591],[-118.47303,51.40599],[-118.47315,51.40615],[-118.47318,51.40621],[-118.47321,51.40625],[-118.47324,51.40632],[-118.47335,51.40644],[-118.47341,51.40654],[-118.47346,51.4066],[-118.47349,51.40666],[-118.47356,51.40677],[-118.47359,51.40684],[-118.47362,51.40689],[-118.47365,51.40695],[-118.4737,51.40699],[-118.47373,51.40706],[-118.47377,51.4071],[-118.47382,51.40715],[-118.47385,51.40722],[-118.47391,51.40731],[-118.474,51.40742],[-118.47404,51.40747],[-118.47412,51.40757],[-118.47416,51.40763],[-118.47423,51.40773],[-118.47427,51.40778],[-118.4743,51.40783],[-118.4743,51.40788],[-118.47433,51.40792],[-118.4745,51.40821],[-118.47456,51.40829],[-118.47461,51.4084],[-118.47464,51.40846],[-118.47474,51.40863],[-118.47485,51.40877],[-118.47494,51.4089],[-118.47504,51.40904],[-118.47506,51.40909],[-118.47512,51.40916],[-118.47516,51.40923],[-118.47522,51.4093],[-118.47532,51.40948],[-118.47538,51.40968],[-118.47549,51.40984],[-118.47564,51.41002],[-118.47567,51.41007],[-118.47568,51.41016],[-118.47574,51.41025],[-118.47584,51.41041],[-118.47588,51.41055],[-118.47589,51.41071],[-118.47586,51.4108],[-118.47584,51.41085],[-118.47581,51.41094],[-118.47578,51.411],[-118.47577,51.41104],[-118.47573,51.41113],[-118.47568,51.41133],[-118.47565,51.41137],[-118.47562,51.41146],[-118.4756,51.41152],[-118.47556,51.41171],[-118.47553,51.41177],[-118.47552,51.41183],[-118.47548,51.41197],[-118.47544,51.41206],[-118.47542,51.41218],[-118.47536,51.41229],[-118.47535,51.41234],[-118.47523,51.41258],[-118.47522,51.41263],[-118.47521,51.41273],[-118.47521,51.41285],[-118.47524,51.41294],[-118.4753,51.41302],[-118.47538,51.41324],[-118.47546,51.41338],[-118.47546,51.41343],[-118.47551,51.41357],[-118.47555,51.41374],[-118.47565,51.41392],[-118.47574,51.41405],[-118.47577,51.41415],[-118.4758,51.4142],[-118.47581,51.4145],[-118.4758,51.41467],[-118.4758,51.41474],[-118.47572,51.41488],[-118.47565,51.41497],[-118.47548,51.41534],[-118.47544,51.41552],[-118.47541,51.41561],[-118.47542,51.41577],[-118.47548,51.41598],[-118.47551,51.41604],[-118.47554,51.41609],[-118.47556,51.41613],[-118.47559,51.41619],[-118.47564,51.41628],[-118.47573,51.41642],[-118.47579,51.41653],[-118.47588,51.41661],[-118.47592,51.41667],[-118.47635,51.41706],[-118.47644,51.41716],[-118.47651,51.41722],[-118.47682,51.41737],[-118.47694,51.41742],[-118.47703,51.41748],[-118.47714,51.41758],[-118.4772,51.41764],[-118.47729,51.41772],[-118.47737,51.4178],[-118.47746,51.41788],[-118.47757,51.41797],[-118.47768,51.41803],[-118.47778,51.41808],[-118.47788,51.41813],[-118.478,51.41816],[-118.47813,51.41819],[-118.47824,51.41822],[-118.47842,51.41829],[-118.47849,51.41833],[-118.47858,51.41838],[-118.47864,51.41842],[-118.47864,51.41849],[-118.47856,51.41856],[-118.47849,51.41865],[-118.47848,51.4187],[-118.47841,51.41882],[-118.47832,51.41888],[-118.47821,51.41893],[-118.47807,51.41899],[-118.478,51.41901],[-118.47782,51.41903],[-118.47774,51.41905],[-118.47764,51.41906],[-118.47731,51.41913],[-118.47692,51.41921],[-118.47667,51.41927],[-118.47652,51.4193],[-118.47627,51.41933],[-118.47618,51.41938],[-118.47604,51.41949],[-118.47592,51.41961],[-118.47586,51.41968],[-118.47585,51.41973],[-118.47575,51.41992],[-118.47569,51.42017],[-118.47564,51.42039],[-118.47564,51.42053],[-118.47562,51.42062],[-118.47562,51.42067],[-118.47559,51.42078],[-118.4756,51.42084],[-118.47558,51.4209],[-118.47559,51.42106],[-118.47562,51.42118],[-118.47562,51.42128],[-118.47564,51.42134],[-118.47564,51.4214],[-118.47566,51.42146],[-118.47569,51.42157],[-118.47572,51.42163],[-118.47574,51.42168],[-118.47577,51.42174],[-118.47587,51.42208],[-118.47587,51.42228],[-118.47589,51.42235],[-118.47589,51.42241],[-118.47592,51.42251],[-118.47593,51.42258],[-118.47594,51.42263],[-118.47594,51.42274],[-118.47596,51.42278],[-118.47597,51.42296],[-118.47598,51.42302],[-118.476,51.42366],[-118.476,51.42368]]}},
{"type":"Feature","properties":{"spotId":"G-grouse-walk-0040","kind":"walk","km":2.77,"climbM":1299,"name":"1.7 km E of Frisby Creek","flags":[]},"geometry":{"type":"LineString","coordinates":[[-118.26517,51.26634],[-118.29666,51.25121]]}},
{"type":"Feature","properties":{"spotId":"G-grouse-walk-0040","kind":"roadside","km":5.7,"climbM":298,"name":"1.7 km E of Frisby Creek","flags":[]},"geometry":{"type":"LineString","coordinates":[[-118.29666,51.25121],[-118.29649,51.25111],[-118.29643,51.25102],[-118.29635,51.25094],[-118.29622,51.25087],[-118.29604,51.2508],[-118.29592,51.2507],[-118.29574,51.25054],[-118.29568,51.25046],[-118.29549,51.25029],[-118.29523,51.25006],[-118.29494,51.24981],[-118.29472,51.24962],[-118.29445,51.24938],[-118.29424,51.24918],[-118.29407,51.24904],[-118.29385,51.24889],[-118.29366,51.24876],[-118.29349,51.24867],[-118.29328,51.24852],[-118.29307,51.24838],[-118.29287,51.24823],[-118.29266,51.2481],[-118.29245,51.24802],[-118.2923,51.24792],[-118.29214,51.2478],[-118.29196,51.24766],[-118.29194,51.24747],[-118.29196,51.24725],[-118.29192,51.24712],[-118.29183,51.247],[-118.29184,51.24685],[-118.29194,51.24668],[-118.29204,51.24653],[-118.29211,51.24635],[-118.29212,51.24619],[-118.29205,51.24605],[-118.29199,51.24592],[-118.29193,51.24574],[-118.29194,51.24558],[-118.29196,51.24538],[-118.29199,51.24514],[-118.29195,51.24497],[-118.29184,51.24482],[-118.29175,51.2447],[-118.29167,51.24458],[-118.29157,51.24446],[-118.29144,51.24434],[-118.29142,51.24424],[-118.29144,51.24409],[-118.29146,51.24395],[-118.29146,51.24381],[-118.29148,51.2437],[-118.29149,51.24356],[-118.29142,51.24342],[-118.29129,51.24328],[-118.29129,51.24315],[-118.29131,51.24301],[-118.29132,51.24286],[-118.29131,51.24269],[-118.29133,51.24255],[-118.29136,51.2424],[-118.29138,51.24227],[-118.29131,51.24214],[-118.29123,51.24201],[-118.29117,51.2419],[-118.29107,51.24174],[-118.29094,51.24163],[-118.29079,51.2415],[-118.29069,51.24139],[-118.29066,51.24133],[-118.29054,51.24122],[-118.29047,51.24105],[-118.29046,51.24089],[-118.29032,51.24065],[-118.29015,51.2405],[-118.29,51.24038],[-118.28996,51.24021],[-118.28991,51.24007],[-118.28974,51.24],[-118.28959,51.23987],[-118.28947,51.23976],[-118.28941,51.23959],[-118.28941,51.23944],[-118.28945,51.23923],[-118.2895,51.23912],[-118.28951,51.23905],[-118.28953,51.23891],[-118.28945,51.23873],[-118.28931,51.23857],[-118.28917,51.23847],[-118.28893,51.23841],[-118.28884,51.23831],[-118.28879,51.23809],[-118.28872,51.23789],[-118.28865,51.23775],[-118.28866,51.23759],[-118.28869,51.23741],[-118.28867,51.23725],[-118.28861,51.23712],[-118.28863,51.23694],[-118.2887,51.23684],[-118.28879,51.2367],[-118.28885,51.23664],[-118.28888,51.23653],[-118.28884,51.23638],[-118.28873,51.23622],[-118.2887,51.23607],[-118.28872,51.2359],[-118.28874,51.23574],[-118.28875,51.23559],[-118.28878,51.23546],[-118.28882,51.23532],[-118.28889,51.2352],[-118.28894,51.23503],[-118.28906,51.23489],[-118.2891,51.23468],[-118.2891,51.23451],[-118.28909,51.23434],[-118.2891,51.23423],[-118.28913,51.23405],[-118.28917,51.23381],[-118.28921,51.23361],[-118.28928,51.23343],[-118.28927,51.23328],[-118.28924,51.23316],[-118.28926,51.233],[-118.28936,51.23287],[-118.28944,51.23277],[-118.28947,51.23266],[-118.28965,51.23256],[-118.28976,51.23249],[-118.28985,51.23234],[-118.28999,51.23222],[-118.29007,51.23207],[-118.29009,51.23189],[-118.29003,51.23176],[-118.28986,51.23165],[-118.28972,51.23156],[-118.28959,51.23147],[-118.2895,51.23138],[-118.2894,51.23129],[-118.28928,51.2312],[-118.28914,51.23116],[-118.28892,51.23115],[-118.28872,51.23115],[-118.28848,51.23113],[-118.28833,51.23107],[-118.28822,51.23095],[-118.28814,51.23086],[-118.28806,51.23079],[-118.28788,51.23064],[-118.28774,51.23051],[-118.28761,51.23039],[-118.28755,51.23025],[-118.28757,51.23012],[-118.28749,51.22993],[-118.28737,51.22974],[-118.28716,51.22955],[-118.28699,51.22942],[-118.28677,51.2293],[-118.28658,51.22922],[-118.28637,51.22911],[-118.28624,51.22899],[-118.28617,51.22884],[-118.28621,51.22869],[-118.28629,51.22852],[-118.28636,51.2283],[-118.28639,51.2281],[-118.28642,51.22789],[-118.28644,51.22779],[-118.28659,51.22764],[-118.28666,51.2275],[-118.28677,51.22735],[-118.28689,51.22727],[-118.28691,51.22716],[-118.28689,51.22703],[-118.28688,51.22691],[-118.28693,51.22681],[-118.28695,51.22664],[-118.28698,51.22645],[-118.28701,51.22629],[-118.28706,51.22613],[-118.28712,51.22595],[-118.28721,51.22579],[-118.28728,51.22563],[-118.2872,51.22549],[-118.28706,51.22531],[-118.28694,51.22514],[-118.28683,51.22498],[-118.28669,51.22487],[-118.28661,51.22474],[-118.28652,51.22464],[-118.28646,51.22449],[-118.28646,51.22439],[-118.28638,51.22433],[-118.2863,51.22425],[-118.28617,51.22416],[-118.28604,51.22413],[-118.28604,51.22402],[-118.28606,51.22393],[-118.28608,51.22383],[-118.28612,51.22376],[-118.28624,51.2237],[-118.28628,51.22361],[-118.28622,51.2235],[-118.28621,51.2234],[-118.28623,51.22329],[-118.2862,51.22311],[-118.28617,51.22297],[-118.28614,51.22281],[-118.28606,51.22265],[-118.28595,51.22253],[-118.28582,51.22244],[-118.28571,51.22234],[-118.28559,51.22223],[-118.28541,51.22212],[-118.2853,51.22201],[-118.28502,51.22191],[-118.28481,51.22187],[-118.28466,51.22183],[-118.28455,51.22178],[-118.28443,51.22168],[-118.28432,51.22156],[-118.28419,51.22145],[-118.28404,51.22138],[-118.28393,51.22129],[-118.28384,51.22119],[-118.28377,51.22107],[-118.28374,51.22098],[-118.2837,51.22087],[-118.28368,51.22072],[-118.28365,51.22061],[-118.28368,51.22049],[-118.28378,51.22036],[-118.28391,51.22023],[-118.28392,51.22011],[-118.28392,51.21996],[-118.28392,51.21977],[-118.28391,51.21956],[-118.28392,51.2194],[-118.28389,51.21925],[-118.2839,51.21902],[-118.2839,51.21888],[-118.28387,51.21877],[-118.28386,51.21867],[-118.28386,51.21855],[-118.28386,51.21837],[-118.28389,51.21817],[-118.2839,51.218],[-118.28392,51.21787],[-118.28389,51.21777],[-118.28383,51.21763],[-118.28381,51.21744],[-118.28383,51.21723],[-118.28382,51.21707],[-118.28382,51.21697],[-118.28383,51.21686],[-118.28385,51.21671],[-118.28385,51.21666],[-118.28381,51.21656],[-118.28371,51.21639],[-118.28357,51.21622],[-118.28339,51.21606],[-118.28327,51.21595],[-118.28317,51.21583],[-118.28306,51.21572],[-118.28295,51.21561],[-118.28289,51.21552],[-118.28275,51.2154],[-118.28265,51.21531],[-118.28254,51.21521],[-118.28243,51.21512],[-118.28242,51.21503],[-118.28249,51.21495],[-118.2825,51.21482],[-118.2825,51.21469],[-118.28253,51.21457],[-118.28258,51.21442],[-118.2826,51.21437],[-118.28268,51.21426],[-118.2828,51.21412],[-118.28297,51.21398],[-118.28313,51.21383],[-118.28314,51.21367],[-118.28317,51.21346],[-118.28318,51.21333],[-118.28324,51.2132],[-118.28321,51.21305],[-118.28313,51.21291],[-118.28296,51.21275],[-118.28284,51.21262],[-118.28285,51.2125],[-118.28288,51.21235],[-118.28291,51.21217],[-118.28285,51.21198],[-118.28272,51.21182],[-118.28254,51.21171],[-118.28234,51.21165],[-118.28209,51.21158],[-118.28179,51.21149],[-118.28155,51.2114],[-118.28134,51.21131],[-118.28112,51.21125],[-118.2809,51.21115],[-118.28071,51.21101],[-118.28052,51.21086],[-118.28035,51.21071],[-118.28021,51.2106],[-118.28011,51.21048],[-118.28001,51.21033],[-118.2799,51.21023],[-118.27979,51.21014],[-118.2797,51.21005],[-118.27964,51.20995],[-118.27956,51.20984],[-118.27948,51.20973],[-118.2795,51.20958],[-118.27955,51.20943],[-118.27958,51.20926],[-118.2796,51.20914],[-118.27967,51.20905],[-118.27968,51.20894],[-118.27966,51.20887],[-118.27962,51.20876],[-118.27962,51.20859],[-118.27955,51.20845],[-118.27946,51.20834],[-118.2793,51.2082],[-118.27915,51.20802],[-118.27905,51.20791],[-118.27898,51.20776],[-118.27891,51.20771],[-118.27877,51.20759],[-118.2786,51.20747],[-118.27831,51.2073],[-118.27812,51.20715],[-118.27792,51.20698],[-118.27778,51.20683],[-118.27762,51.20664],[-118.27746,51.20645],[-118.27737,51.2063],[-118.27732,51.20624]]}},
{"type":"Feature","properties":{"spotId":"G-grouse-walk-0074","kind":"walk","km":7.17,"climbM":1193,"name":"480 m N of Standard Peak","flags":[]},"geometry":{"type":"LineString","coordinates":[[-118.35713,51.37469],[-118.25465,51.38177]]}},
{"type":"Feature","properties":{"spotId":"G-grouse-walk-0074","kind":"roadside","km":6.62,"climbM":320,"name":"480 m N of Standard Peak","flags":[]},"geometry":{"type":"LineString","coordinates":[[-118.25465,51.38177],[-118.2549,51.38165],[-118.25507,51.38153],[-118.25519,51.38143],[-118.2553,51.38131],[-118.25535,51.3812],[-118.25536,51.38104],[-118.25539,51.38091],[-118.25543,51.38081],[-118.25549,51.38065],[-118.25554,51.38044],[-118.25563,51.38026],[-118.25576,51.38014],[-118.25589,51.38003],[-118.25612,51.37991],[-118.25631,51.37984],[-118.25654,51.37982],[-118.25681,51.3798],[-118.25708,51.37983],[-118.25724,51.37986],[-118.25742,51.37995],[-118.2576,51.38004],[-118.25778,51.38017],[-118.25793,51.38029],[-118.25811,51.38039],[-118.25822,51.38047],[-118.25842,51.38062],[-118.25858,51.38072],[-118.2588,51.38083],[-118.25899,51.38095],[-118.25916,51.38104],[-118.25934,51.38115],[-118.25956,51.38127],[-118.25983,51.3814],[-118.26008,51.38152],[-118.26028,51.38162],[-118.2605,51.38174],[-118.26073,51.38187],[-118.26095,51.38194],[-118.26122,51.38204],[-118.26145,51.38214],[-118.26172,51.38224],[-118.26188,51.38228],[-118.26215,51.38235],[-118.26235,51.38236],[-118.26258,51.38236],[-118.2629,51.3823],[-118.26309,51.38222],[-118.26332,51.3821],[-118.26353,51.38199],[-118.26376,51.38186],[-118.26394,51.38178],[-118.26416,51.38165],[-118.26443,51.38155],[-118.26459,51.38149],[-118.26469,51.38146],[-118.26484,51.38142],[-118.26501,51.38142],[-118.26514,51.38142],[-118.26535,51.38143],[-118.2656,51.38144],[-118.26573,51.38147],[-118.26591,51.38152],[-118.26611,51.38157],[-118.26642,51.38179],[-118.26655,51.3819],[-118.26668,51.38201],[-118.26679,51.38218],[-118.26699,51.38232],[-118.26727,51.38248],[-118.26764,51.38267],[-118.26783,51.38276],[-118.2682,51.3829],[-118.2684,51.38298],[-118.26859,51.38306],[-118.26883,51.38318],[-118.26903,51.38327],[-118.26912,51.38339],[-118.26914,51.38348],[-118.26921,51.38363],[-118.26926,51.38381],[-118.26926,51.38397],[-118.26927,51.38412],[-118.26927,51.38428],[-118.26928,51.3845],[-118.26928,51.38471],[-118.26929,51.38497],[-118.2693,51.38522],[-118.26929,51.38543],[-118.26927,51.38564],[-118.26926,51.38582],[-118.26927,51.38595],[-118.26927,51.38613],[-118.26926,51.3863],[-118.26924,51.38644],[-118.26924,51.38655],[-118.26925,51.38671],[-118.26925,51.38689],[-118.26926,51.38708],[-118.26926,51.38724],[-118.26927,51.38743],[-118.26927,51.3876],[-118.26927,51.38771],[-118.26929,51.38783],[-118.26933,51.38803],[-118.26938,51.38821],[-118.2695,51.3884],[-118.26957,51.38857],[-118.26968,51.38873],[-118.26981,51.38888],[-118.26993,51.38907],[-118.27002,51.38928],[-118.27014,51.38954],[-118.27018,51.38975],[-118.27025,51.38996],[-118.27031,51.39014],[-118.27036,51.39035],[-118.27042,51.39049],[-118.27047,51.39072],[-118.27048,51.39093],[-118.27048,51.39114],[-118.27054,51.39137],[-118.27058,51.39161],[-118.27065,51.39181],[-118.27069,51.39197],[-118.27074,51.39213],[-118.27075,51.39233],[-118.27075,51.39255],[-118.27076,51.39272],[-118.27076,51.39284],[-118.2708,51.39298],[-118.2708,51.39313],[-118.27086,51.39326],[-118.27093,51.39343],[-118.27099,51.39357],[-118.27104,51.3937],[-118.27107,51.39385],[-118.27107,51.39404],[-118.27108,51.39422],[-118.27104,51.3944],[-118.27095,51.39457],[-118.27085,51.39476],[-118.27082,51.39491],[-118.27079,51.39507],[-118.27072,51.39523],[-118.27067,51.39543],[-118.27056,51.39561],[-118.27053,51.39576],[-118.27047,51.39589],[-118.27042,51.39605],[-118.27037,51.3962],[-118.2703,51.39638],[-118.27025,51.39649],[-118.27016,51.39663],[-118.27007,51.39674],[-118.26998,51.39689],[-118.26983,51.39703],[-118.2697,51.39719],[-118.26958,51.39731],[-118.26943,51.3974],[-118.26933,51.39745],[-118.26916,51.39754],[-118.26901,51.39763],[-118.26887,51.39771],[-118.26876,51.3978],[-118.26867,51.39788],[-118.26858,51.398],[-118.2685,51.39811],[-118.26838,51.39822],[-118.26827,51.39832],[-118.26815,51.3984],[-118.26795,51.39855],[-118.26783,51.39866],[-118.26768,51.39875],[-118.26752,51.39887],[-118.26739,51.39896],[-118.26733,51.39904],[-118.26724,51.39913],[-118.26711,51.39924],[-118.26705,51.39933],[-118.267,51.39942],[-118.26694,51.39951],[-118.26687,51.39961],[-118.26685,51.39969],[-118.26681,51.39978],[-118.2668,51.39984],[-118.26679,51.39992],[-118.26679,51.40006],[-118.2668,51.40018],[-118.26685,51.40034],[-118.26691,51.4005],[-118.26699,51.40062],[-118.26711,51.40076],[-118.26724,51.40086],[-118.2674,51.40096],[-118.26767,51.40106],[-118.26783,51.40111],[-118.26806,51.40116],[-118.26827,51.40123],[-118.26843,51.40125],[-118.26869,51.40132],[-118.26881,51.40135],[-118.26891,51.40141],[-118.269,51.40147],[-118.269,51.40153],[-118.26894,51.40159],[-118.26886,51.40166],[-118.26875,51.40171],[-118.26862,51.40178],[-118.26853,51.40186],[-118.26853,51.40195],[-118.26859,51.40205],[-118.26863,51.40218],[-118.26867,51.40229],[-118.26867,51.40238],[-118.26862,51.40248],[-118.26852,51.4026],[-118.26845,51.40268],[-118.26833,51.40278],[-118.26823,51.40288],[-118.26814,51.403],[-118.26812,51.40317],[-118.26813,51.40329],[-118.26819,51.40343],[-118.26825,51.40353],[-118.26837,51.40363],[-118.26848,51.40375],[-118.26853,51.40384],[-118.26859,51.40392],[-118.26868,51.40402],[-118.26877,51.4041],[-118.2689,51.40417],[-118.26895,51.40424],[-118.26899,51.40431],[-118.26901,51.40443],[-118.26901,51.40453],[-118.26899,51.40462],[-118.2689,51.40472],[-118.26881,51.40482],[-118.26871,51.40488],[-118.26856,51.40494],[-118.26844,51.405],[-118.26828,51.40505],[-118.26818,51.40509],[-118.26802,51.40516],[-118.26785,51.4052],[-118.2677,51.40526],[-118.26764,51.40532],[-118.2676,51.4054],[-118.26758,51.40552],[-118.26758,51.40561],[-118.26759,51.40574],[-118.26759,51.40587],[-118.26754,51.40597],[-118.26745,51.40604],[-118.26728,51.40613],[-118.26712,51.4062],[-118.26698,51.40629],[-118.26681,51.4064],[-118.26676,51.40644],[-118.2667,51.40648],[-118.26664,51.40655],[-118.26651,51.40667],[-118.26642,51.40674],[-118.26632,51.40682],[-118.26617,51.40693],[-118.26609,51.40702],[-118.26601,51.40709],[-118.26595,51.40717],[-118.26585,51.40726],[-118.2658,51.40734],[-118.26576,51.40741],[-118.26568,51.40748],[-118.26558,51.40756],[-118.26548,51.40766],[-118.26539,51.40775],[-118.26532,51.40784],[-118.26523,51.40793],[-118.26515,51.40802],[-118.26511,51.40808],[-118.26505,51.40818],[-118.26498,51.40831],[-118.26493,51.40841],[-118.26492,51.40849],[-118.26489,51.40863],[-118.26486,51.40873],[-118.26477,51.40883],[-118.26468,51.40891],[-118.26461,51.40903],[-118.26453,51.40914],[-118.26449,51.40918],[-118.26445,51.40924],[-118.26438,51.4093],[-118.26431,51.40936],[-118.26422,51.40942],[-118.26414,51.40949],[-118.26405,51.40955],[-118.26395,51.40961],[-118.26388,51.40966],[-118.26378,51.40973],[-118.26372,51.40978],[-118.26366,51.40982],[-118.2636,51.40988],[-118.26355,51.40998],[-118.26356,51.41008],[-118.26355,51.41016],[-118.26355,51.4103],[-118.26355,51.41039],[-118.26355,51.41049],[-118.26354,51.41062],[-118.26355,51.41072],[-118.26356,51.4108],[-118.26363,51.41091],[-118.26366,51.41096],[-118.26371,51.41103],[-118.2638,51.41117],[-118.26384,51.41128],[-118.26389,51.41144],[-118.26391,51.41151],[-118.26396,51.41161],[-118.264,51.41172],[-118.26406,51.41185],[-118.26412,51.41194],[-118.26418,51.41204],[-118.26421,51.41211],[-118.26425,51.41219],[-118.26434,51.4123],[-118.26439,51.41235],[-118.2645,51.41246],[-118.26459,51.41253],[-118.26471,51.41262],[-118.26482,51.41272],[-118.26492,51.41284],[-118.26502,51.41292],[-118.26508,51.41299],[-118.26518,51.41309],[-118.26528,51.41318],[-118.26535,51.41324],[-118.26542,51.41331],[-118.26548,51.41337],[-118.26556,51.41346],[-118.2657,51.41359],[-118.26578,51.41366],[-118.26585,51.41373],[-118.26594,51.41382],[-118.26602,51.4139],[-118.2661,51.41398],[-118.26619,51.41409],[-118.26626,51.41418],[-118.26633,51.41429],[-118.26639,51.41439],[-118.26645,51.41452],[-118.26652,51.41465],[-118.26657,51.41473],[-118.26664,51.41487],[-118.26675,51.41502],[-118.26686,51.41515],[-118.26698,51.41525],[-118.2671,51.41536],[-118.26723,51.41546],[-118.26731,51.41553],[-118.26736,51.41562],[-118.26738,51.41572],[-118.26739,51.41584],[-118.26739,51.416],[-118.26739,51.41614],[-118.26744,51.41626],[-118.26747,51.41634],[-118.26751,51.41644],[-118.26754,51.41657],[-118.26758,51.41668],[-118.26761,51.4168],[-118.26766,51.4169],[-118.26772,51.41702],[-118.26778,51.41713],[-118.26782,51.41725],[-118.26789,51.41739],[-118.2679,51.41749],[-118.2679,51.41759],[-118.26793,51.41773],[-118.26793,51.41783],[-118.26794,51.41793],[-118.26794,51.41801],[-118.26793,51.41815],[-118.26793,51.41824],[-118.26796,51.41833],[-118.26802,51.41841],[-118.26811,51.41848],[-118.26823,51.41859],[-118.26836,51.41869],[-118.26847,51.41878],[-118.2686,51.41886],[-118.26871,51.41895],[-118.26889,51.41908],[-118.269,51.41919],[-118.2691,51.41928],[-118.26915,51.41939],[-118.26915,51.41951],[-118.26915,51.41963],[-118.26917,51.41974],[-118.26924,51.41989],[-118.26931,51.41995],[-118.26939,51.42003],[-118.26951,51.42013],[-118.26965,51.42019],[-118.26974,51.42025],[-118.26989,51.42032],[-118.27003,51.42043],[-118.27016,51.42052],[-118.27021,51.42058],[-118.27024,51.42066],[-118.2703,51.42078],[-118.27033,51.42091],[-118.27037,51.42103],[-118.2704,51.42113],[-118.27043,51.42123],[-118.27053,51.4214],[-118.27063,51.42151],[-118.27072,51.42161],[-118.27079,51.42171],[-118.27086,51.42177],[-118.27093,51.42189],[-118.27099,51.42196],[-118.27107,51.42204],[-118.27118,51.42214],[-118.27132,51.42219],[-118.27139,51.42224],[-118.27155,51.42226],[-118.27176,51.42226],[-118.27191,51.42225],[-118.27209,51.4222],[-118.27224,51.42215],[-118.27234,51.42208],[-118.27247,51.42197],[-118.2726,51.42186],[-118.27273,51.42173],[-118.27284,51.42159],[-118.27291,51.42151],[-118.27307,51.42142],[-118.27319,51.42136],[-118.27337,51.42131],[-118.27354,51.4213],[-118.27371,51.4213],[-118.27388,51.4213],[-118.27397,51.42132],[-118.27409,51.42135],[-118.27421,51.4214],[-118.27439,51.42148],[-118.27462,51.42158],[-118.27476,51.42166],[-118.27494,51.42171],[-118.27518,51.42177],[-118.27563,51.42183],[-118.27593,51.42187],[-118.27628,51.42192]]}}
]}
