{"type":"FeatureCollection","features":[
{"type":"Feature","properties":{"spotId":"G-grouse-atv-0002","kind":"walk","km":1.37,"climbM":0,"name":"By Fissure Creek","flags":[]},"geometry":{"type":"LineString","coordinates":[[-118.57592,51.51784],[-118.5751,51.50558]]}},
{"type":"Feature","properties":{"spotId":"G-grouse-atv-0002","kind":"ride","km":4.51,"climbM":294,"name":"By Fissure Creek","flags":[]},"geometry":{"type":"LineString","coordinates":[[-118.5751,51.50558],[-118.5751,51.50546],[-118.57511,51.50536],[-118.57514,51.50522],[-118.57518,51.50513],[-118.57531,51.50502],[-118.57545,51.5049],[-118.57555,51.50484],[-118.57569,51.50477],[-118.57579,51.5047],[-118.57595,51.50462],[-118.57601,51.50453],[-118.5761,51.50451],[-118.57614,51.50449],[-118.57616,51.50441],[-118.5764,51.50439],[-118.57655,51.50435],[-118.57676,51.50421],[-118.57706,51.50414],[-118.57713,51.5041],[-118.57725,51.504],[-118.57741,51.50381],[-118.57762,51.50373],[-118.57784,51.50363],[-118.57805,51.50345],[-118.57838,51.5032],[-118.57872,51.50298],[-118.57895,51.50275],[-118.57922,51.50266],[-118.57931,51.50258],[-118.5796,51.50244],[-118.57974,51.50236],[-118.58002,51.50224],[-118.58032,51.5021],[-118.58066,51.50194],[-118.58091,51.50175],[-118.58111,51.5016],[-118.58135,51.50147],[-118.58333,51.50064],[-118.58354,51.50048],[-118.58499,51.5001],[-118.58603,51.5],[-118.58615,51.49991],[-118.58715,51.49966],[-118.58767,51.49961],[-118.58808,51.49942],[-118.58833,51.49914],[-118.58886,51.49889],[-118.58961,51.49858],[-118.59012,51.49847],[-118.59084,51.49818],[-118.591,51.49803],[-118.59117,51.49795],[-118.59231,51.49765],[-118.59269,51.49755],[-118.5933,51.49744],[-118.59382,51.49722],[-118.59401,51.49711],[-118.59459,51.49689],[-118.59522,51.49665],[-118.59557,51.49645],[-118.59641,51.49616],[-118.59674,51.49588],[-118.59707,51.49569],[-118.59743,51.49552],[-118.59767,51.4954],[-118.59798,51.49529],[-118.59881,51.49522],[-118.59943,51.49504],[-118.59967,51.49492],[-118.59974,51.49469],[-118.59971,51.49444],[-118.6,51.49419],[-118.60022,51.49398],[-118.60047,51.49384],[-118.60057,51.49379],[-118.60121,51.49356],[-118.60171,51.4934],[-118.60211,51.49331],[-118.60238,51.49326],[-118.60275,51.49316],[-118.60315,51.49303],[-118.60357,51.49295],[-118.60397,51.49294],[-118.60446,51.4928],[-118.60464,51.49272],[-118.60503,51.49278],[-118.60523,51.49278],[-118.60544,51.49277],[-118.60563,51.49275],[-118.60602,51.4927],[-118.60624,51.4927],[-118.60673,51.49267],[-118.60691,51.49261],[-118.60762,51.4927],[-118.60822,51.49275],[-118.60907,51.49275],[-118.6094,51.49278],[-118.61008,51.49273],[-118.61077,51.49268],[-118.61124,51.49261],[-118.61228,51.4925],[-118.61275,51.49246],[-118.61315,51.49235],[-118.61404,51.49232],[-118.61441,51.49232],[-118.61607,51.4922],[-118.61662,51.49216],[-118.61679,51.49218],[-118.61704,51.49218],[-118.61794,51.49213],[-118.61853,51.492],[-118.61916,51.49202],[-118.61954,51.49205],[-118.62033,51.49205],[-118.62063,51.49199],[-118.62109,51.49184],[-118.62139,51.49175],[-118.62175,51.49163],[-118.62223,51.49151],[-118.62256,51.49136],[-118.62282,51.4913],[-118.62303,51.49126],[-118.62323,51.49124],[-118.62362,51.49123],[-118.62404,51.49122],[-118.62436,51.49111],[-118.62477,51.49101],[-118.62495,51.49099],[-118.62552,51.49097],[-118.62606,51.49095],[-118.62656,51.49087],[-118.62707,51.49071],[-118.62729,51.49061],[-118.62767,51.49047],[-118.62805,51.49035],[-118.62872,51.49012],[-118.62908,51.48996],[-118.62935,51.48987],[-118.62948,51.48982],[-118.62957,51.48975],[-118.6297,51.48971],[-118.63005,51.48962],[-118.63007,51.48961],[-118.63022,51.4896],[-118.6304,51.48949],[-118.63057,51.48932]]}},
{"type":"Feature","properties":{"spotId":"G-grouse-atv-0007","kind":"ride","km":3.19,"climbM":182,"name":"160 m NW of Fissure Creek","flags":[]},"geometry":{"type":"LineString","coordinates":[[-118.5622,51.53018],[-118.56244,51.53008],[-118.56273,51.52998],[-118.56287,51.52993],[-118.56319,51.52989],[-118.56333,51.52986],[-118.56358,51.52975],[-118.56378,51.52967],[-118.56384,51.52964],[-118.5641,51.52952],[-118.5644,51.52948],[-118.56471,51.52949],[-118.56502,51.52949],[-118.56534,51.52951],[-118.56548,51.5295],[-118.56561,51.52945],[-118.56562,51.52936],[-118.5656,51.52929],[-118.5656,51.52926],[-118.56548,51.52918],[-118.56525,51.52907],[-118.56504,51.52892],[-118.56479,51.52879],[-118.56454,51.52868],[-118.56425,51.5286],[-118.56412,51.52854],[-118.56402,51.52847],[-118.56397,51.52837],[-118.56408,51.52829],[-118.56437,51.52817],[-118.56448,51.52811],[-118.56455,51.52802],[-118.56456,51.52784],[-118.56455,51.52774],[-118.56458,51.52765],[-118.56465,51.52755],[-118.56487,51.52737],[-118.565,51.5272],[-118.565,51.52702],[-118.56501,51.52682],[-118.56501,51.52661],[-118.56506,51.52643],[-118.56517,51.52624],[-118.56526,51.52579],[-118.56541,51.52551],[-118.56542,51.52549],[-118.56562,51.52508],[-118.56578,51.52482],[-118.56581,51.52443],[-118.56578,51.52412],[-118.56581,51.52394],[-118.56565,51.52358],[-118.56566,51.52331],[-118.56582,51.52305],[-118.5661,51.52284],[-118.56633,51.52188],[-118.56655,51.5215],[-118.56697,51.52117],[-118.56735,51.52065],[-118.5677,51.52007],[-118.56786,51.51988],[-118.56801,51.51967],[-118.56815,51.51954],[-118.56852,51.51929],[-118.56874,51.51908],[-118.56893,51.51887],[-118.5691,51.51874],[-118.56912,51.51844],[-118.56914,51.51816],[-118.5692,51.51804],[-118.56946,51.5179],[-118.56977,51.51771],[-118.57027,51.51731],[-118.57032,51.51709],[-118.57029,51.51694],[-118.5702,51.51683],[-118.57012,51.51645],[-118.57005,51.51614],[-118.57013,51.51562],[-118.57025,51.51534],[-118.57043,51.51494],[-118.57061,51.51423],[-118.57063,51.51411],[-118.57072,51.51384],[-118.57083,51.5136],[-118.57115,51.51317],[-118.57126,51.51306],[-118.57136,51.51282],[-118.57144,51.51255],[-118.57149,51.51236],[-118.57153,51.51223],[-118.57162,51.51203],[-118.57185,51.51181],[-118.57208,51.5116],[-118.57228,51.51146],[-118.57283,51.51129],[-118.5732,51.51113],[-118.57332,51.51102],[-118.57338,51.51075],[-118.5736,51.51051],[-118.5738,51.51026],[-118.57385,51.50984],[-118.57412,51.50937],[-118.57431,51.50882],[-118.57441,51.50818],[-118.57443,51.50774],[-118.57479,51.50683],[-118.57487,51.50617],[-118.5749,51.50592],[-118.57502,51.50564],[-118.5751,51.50558]]}},
{"type":"Feature","properties":{"spotId":"G-grouse-drive-0075","kind":"roadside","km":5.29,"climbM":21,"name":"670 m W of Fissure Creek","flags":[]},"geometry":{"type":"LineString","coordinates":[[-118.57371,51.52647],[-118.57377,51.52652],[-118.57384,51.52656],[-118.57393,51.52659],[-118.57403,51.52661],[-118.57412,51.52661],[-118.5742,51.52661],[-118.5743,51.52661],[-118.5744,51.52661],[-118.57452,51.5266],[-118.57462,51.5266],[-118.57472,51.52659],[-118.57484,51.52657],[-118.57497,51.52657],[-118.57509,51.52656],[-118.5752,51.52656],[-118.5753,51.52656],[-118.57541,51.52656],[-118.57553,51.52655],[-118.57566,51.52655],[-118.57577,51.52656],[-118.57587,51.52657],[-118.57597,51.52658],[-118.57609,51.52658],[-118.57621,51.5266],[-118.57631,51.52663],[-118.5764,51.52665],[-118.57647,51.52669],[-118.57656,51.52671],[-118.57664,51.52673],[-118.57675,51.52675],[-118.57685,51.52679],[-118.57693,51.52681],[-118.57704,51.52685],[-118.57714,51.52688],[-118.57726,51.52691],[-118.57734,51.52694],[-118.57742,51.52696],[-118.57749,51.52699],[-118.57756,51.52701],[-118.57765,51.52703],[-118.57775,51.52706],[-118.57785,51.5271],[-118.57795,51.52712],[-118.57806,51.52714],[-118.57817,51.52718],[-118.57829,51.52721],[-118.57839,51.52725],[-118.57848,51.5273],[-118.57858,51.52735],[-118.57867,51.5274],[-118.57874,51.52745],[-118.5788,51.52749],[-118.57886,51.52754],[-118.57894,51.52759],[-118.57902,51.52761],[-118.57913,51.52766],[-118.5792,51.52767],[-118.57929,51.52771],[-118.57939,51.52775],[-118.57946,51.5278],[-118.57955,51.52783],[-118.57964,51.52786],[-118.57971,51.5279],[-118.57978,51.52794],[-118.57987,51.52796],[-118.57996,51.528],[-118.58006,51.52803],[-118.58016,51.52808],[-118.58025,51.5281],[-118.58035,51.52813],[-118.58045,51.52814],[-118.58054,51.52816],[-118.58061,51.52818],[-118.5807,51.52818],[-118.5808,51.52818],[-118.5809,51.5282],[-118.58099,51.52822],[-118.58108,51.52824],[-118.58115,51.52826],[-118.58125,51.5283],[-118.58134,51.52835],[-118.5814,51.52839],[-118.58143,51.52844],[-118.5814,51.5285],[-118.58133,51.52853],[-118.58125,51.52853],[-118.58116,51.52852],[-118.58107,51.5285],[-118.58099,51.52848],[-118.58088,51.52845],[-118.58077,51.52843],[-118.58064,51.5284],[-118.58052,51.52838],[-118.58042,51.52837],[-118.58033,51.52835],[-118.58023,51.52833],[-118.58013,51.52832],[-118.58003,51.52828],[-118.57993,51.52826],[-118.57981,51.52823],[-118.57971,51.52821],[-118.57961,51.52818],[-118.57952,51.52815],[-118.57943,51.52812],[-118.57936,51.52809],[-118.57927,51.52805],[-118.5792,51.52803],[-118.57909,51.52798],[-118.57901,51.52796],[-118.5789,51.52793],[-118.5788,51.5279],[-118.57873,51.52788],[-118.57866,51.52785],[-118.57857,51.52783],[-118.57848,51.5278],[-118.5784,51.52778],[-118.57831,51.52777],[-118.57822,51.52775],[-118.57812,51.52773],[-118.57803,51.52773],[-118.57792,51.52773],[-118.57782,51.52773],[-118.57773,51.52773],[-118.57763,51.52773],[-118.57753,51.52773],[-118.57744,51.52774],[-118.57733,51.52775],[-118.5772,51.52776],[-118.5771,51.52778],[-118.577,51.52779],[-118.5769,51.5278],[-118.5768,51.5278],[-118.57669,51.52779],[-118.57659,51.52778],[-118.57645,51.52777],[-118.57635,51.52778],[-118.57625,51.52777],[-118.57615,51.52775],[-118.57606,51.52773],[-118.57597,51.52772],[-118.57587,51.5277],[-118.57577,51.52769],[-118.57568,51.52769],[-118.57561,51.5277],[-118.57551,51.52771],[-118.57541,51.52773],[-118.57541,51.52778],[-118.5755,51.52781],[-118.57561,51.52783],[-118.57569,51.52785],[-118.57577,51.52786],[-118.57588,51.52789],[-118.57596,51.52792],[-118.57607,51.52794],[-118.57614,51.52797],[-118.57621,51.52799],[-118.57633,51.52805],[-118.57643,51.52809],[-118.5765,51.52812],[-118.57659,51.52815],[-118.57668,51.52818],[-118.57677,51.52821],[-118.57684,51.52825],[-118.57693,51.52828],[-118.577,51.52832],[-118.57706,51.52837],[-118.57713,51.5284],[-118.57722,51.52844],[-118.57732,51.52848],[-118.57741,51.52853],[-118.57751,51.52859],[-118.57757,51.52863],[-118.57763,51.52868],[-118.57771,51.52875],[-118.57775,51.52881],[-118.5778,51.52885],[-118.57784,51.5289],[-118.57789,51.52895],[-118.57796,51.529],[-118.57807,51.52907],[-118.57815,51.52911],[-118.57824,51.52914],[-118.57834,51.52916],[-118.57843,51.52918],[-118.57853,51.5292],[-118.57863,51.52922],[-118.57873,51.52923],[-118.57883,51.52923],[-118.57894,51.52925],[-118.57904,51.52927],[-118.57914,51.52928],[-118.57925,51.52928],[-118.57934,51.5293],[-118.57943,51.52931],[-118.57952,51.52932],[-118.57962,51.52933],[-118.5797,51.52935],[-118.57981,51.52938],[-118.57988,51.52943],[-118.57995,51.52949],[-118.58,51.52954],[-118.58006,51.52958],[-118.58006,51.52962],[-118.58005,51.52967],[-118.58001,51.52973],[-118.57993,51.52978],[-118.57985,51.52981],[-118.57978,51.52983],[-118.57969,51.52987],[-118.57959,51.52993],[-118.57949,51.52997],[-118.57939,51.53],[-118.57931,51.53003],[-118.57921,51.53006],[-118.57911,51.53009],[-118.57901,51.5301],[-118.57891,51.53013],[-118.57878,51.53015],[-118.57869,51.53017],[-118.57859,51.53019],[-118.57849,51.53021],[-118.57838,51.53023],[-118.57828,51.53025],[-118.57819,51.53026],[-118.57808,51.53028],[-118.57798,51.53029],[-118.57789,51.5303],[-118.57782,51.53031],[-118.5777,51.53032],[-118.57762,51.53033],[-118.57753,51.53035],[-118.57743,51.53036],[-118.57736,51.53039],[-118.57726,51.53041],[-118.57718,51.53044],[-118.57706,51.5305],[-118.57696,51.53056],[-118.57689,51.53058],[-118.57679,51.53064],[-118.57672,51.53067],[-118.57664,51.5307],[-118.57652,51.53075],[-118.57642,51.53081],[-118.57635,51.53084],[-118.57628,51.53086],[-118.57621,51.53088],[-118.57611,51.53092],[-118.57604,51.53094],[-118.57597,51.53095],[-118.5759,51.53097],[-118.57582,51.53098],[-118.57575,51.531],[-118.57568,51.53102],[-118.57558,51.53104],[-118.57551,51.53106],[-118.57544,51.5311],[-118.57537,51.53113],[-118.5753,51.53117],[-118.57523,51.53123],[-118.57517,51.53127],[-118.575,51.53135],[-118.57486,51.53141],[-118.57477,51.53143],[-118.57472,51.53143],[-118.57469,51.53144],[-118.57459,51.53144],[-118.5745,51.53144],[-118.57441,51.53143],[-118.57431,51.53142],[-118.57424,51.53141],[-118.57412,51.53141],[-118.57404,51.53141],[-118.57392,51.53141],[-118.57378,51.53142],[-118.57366,51.53143],[-118.57355,51.53143],[-118.57346,51.53144],[-118.57335,51.53145],[-118.57323,51.53146],[-118.5731,51.53147],[-118.573,51.53147],[-118.57291,51.53148],[-118.57283,51.53149],[-118.57273,51.53151],[-118.57263,51.53153],[-118.57254,51.53155],[-118.5725,51.53157],[-118.57247,51.53158],[-118.57237,51.5316],[-118.57226,51.53162],[-118.57217,51.53163],[-118.57207,51.53165],[-118.57195,51.53166],[-118.57184,51.53167],[-118.57174,51.53169],[-118.57165,51.5317],[-118.57157,51.53171],[-118.57147,51.53173],[-118.57137,51.53175],[-118.57125,51.53176],[-118.57117,51.53177],[-118.57108,51.53179],[-118.57098,51.5318],[-118.57091,51.53182],[-118.57082,51.53183],[-118.57075,51.53184],[-118.57066,51.53186],[-118.57056,51.53187],[-118.57048,51.53189],[-118.57038,51.53191],[-118.57028,51.53193],[-118.57019,51.53194],[-118.5701,51.53194],[-118.57002,51.53195],[-118.56995,51.53195],[-118.56986,51.53195],[-118.56977,51.53196],[-118.56967,51.53196],[-118.56957,51.53195],[-118.56947,51.53192],[-118.5694,51.53188],[-118.56941,51.53183],[-118.56948,51.5318],[-118.56956,51.53176],[-118.56964,51.53172],[-118.56972,51.5317],[-118.56981,51.53168],[-118.56988,51.53166],[-118.56996,51.53165],[-118.57005,51.53163],[-118.57014,51.5316],[-118.57022,51.53157],[-118.57031,51.53154],[-118.57039,51.53152],[-118.57049,51.53149],[-118.57061,51.53146],[-118.57072,51.53144],[-118.57082,51.5314],[-118.57091,51.53137],[-118.57101,51.53135],[-118.57108,51.53133],[-118.57116,51.5313],[-118.57125,51.53127],[-118.57134,51.53125],[-118.57141,51.53123],[-118.57149,51.5312],[-118.57156,51.53118],[-118.57163,51.53114],[-118.5717,51.53109],[-118.57176,51.53104],[-118.57176,51.53098],[-118.57167,51.53095],[-118.57157,51.53094],[-118.57148,51.53094],[-118.5714,51.53095],[-118.57131,51.53095],[-118.57121,51.53096],[-118.57111,51.53097],[-118.57104,51.53098],[-118.57095,51.53099],[-118.57088,51.531],[-118.57081,51.53101],[-118.57074,51.53102],[-118.57064,51.53104],[-118.57053,51.53104],[-118.57043,51.53105],[-118.57033,51.53105],[-118.57023,51.53105],[-118.5702,51.53106],[-118.57012,51.53106],[-118.57003,51.53106],[-118.56994,51.53106],[-118.56984,51.53106],[-118.56976,51.53107],[-118.56967,51.53106],[-118.56958,51.53106],[-118.5695,51.53106],[-118.5694,51.53106],[-118.56931,51.53106],[-118.56922,51.53106],[-118.56915,51.53106],[-118.56908,51.53106],[-118.56899,51.53105],[-118.56888,51.53103],[-118.56876,51.53103],[-118.56865,51.53102],[-118.56854,51.53101],[-118.56846,51.531],[-118.56841,51.53099],[-118.56836,51.53099],[-118.56826,51.53099],[-118.56818,51.53098],[-118.56808,51.53098],[-118.56798,51.53098],[-118.56787,51.53098],[-118.56775,51.53098],[-118.56762,51.53099],[-118.56751,51.53099],[-118.5674,51.531],[-118.56732,51.531],[-118.56725,51.531],[-118.56716,51.531],[-118.56709,51.531],[-118.56697,51.531],[-118.56689,51.531],[-118.56677,51.53101],[-118.56667,51.53101],[-118.56657,51.53101],[-118.56647,51.53101],[-118.5664,51.53101],[-118.56631,51.531],[-118.56624,51.531],[-118.56615,51.53101],[-118.56606,51.53101],[-118.56596,51.53102],[-118.56585,51.53102],[-118.56575,51.53102],[-118.56565,51.53103],[-118.56556,51.53104],[-118.56548,51.53107],[-118.5654,51.53109],[-118.56532,51.53112],[-118.56522,51.53113],[-118.56512,51.53113],[-118.56503,51.53115],[-118.56495,51.53116],[-118.56486,51.53117],[-118.56479,51.53118],[-118.5647,51.53119],[-118.56461,51.5312],[-118.56453,51.5312],[-118.56441,51.53122],[-118.56431,51.53123],[-118.56421,51.53125],[-118.5641,51.53126],[-118.564,51.53128],[-118.56391,51.5313],[-118.56381,51.53132],[-118.56373,51.53133],[-118.56365,51.53136],[-118.56357,51.53138],[-118.56347,51.53139],[-118.56337,51.53141],[-118.56325,51.53142],[-118.56314,51.53143],[-118.56304,51.53144],[-118.56294,51.53146],[-118.56284,51.53146],[-118.56275,51.53147],[-118.56265,51.53149],[-118.56255,51.53149],[-118.56245,51.5315],[-118.56239,51.53151],[-118.56228,51.53152],[-118.5622,51.53153],[-118.56212,51.53154],[-118.56203,51.53155],[-118.56193,51.53156],[-118.56183,51.53157],[-118.56174,51.53159],[-118.56163,51.5316],[-118.56153,51.53162],[-118.5614,51.53164],[-118.56131,51.53165],[-118.56121,51.53166],[-118.5611,51.53168],[-118.56098,51.53169],[-118.56087,51.53171],[-118.56078,51.53172],[-118.56068,51.53173],[-118.56058,51.53175],[-118.56048,51.53177],[-118.5604,51.5318],[-118.56033,51.53182],[-118.56022,51.53183],[-118.56012,51.53186],[-118.56002,51.53188],[-118.55991,51.5319],[-118.55981,51.53193],[-118.55971,51.53195],[-118.55962,51.53196],[-118.55954,51.53198],[-118.55944,51.53201],[-118.55937,51.53202],[-118.55927,51.53204],[-118.55918,51.53206],[-118.55909,51.53208],[-118.55899,51.53209],[-118.55888,51.5321],[-118.55871,51.53211],[-118.55863,51.53212],[-118.55853,51.53212],[-118.55846,51.53213],[-118.55838,51.53213],[-118.5583,51.53214],[-118.55822,51.53214],[-118.5582,51.53208],[-118.55827,51.53205],[-118.55836,51.53202],[-118.55844,51.53201],[-118.55851,51.53199],[-118.5586,51.53197],[-118.55869,51.53195],[-118.55877,51.53193],[-118.55886,51.53191],[-118.55893,51.53188],[-118.55901,51.53187],[-118.55909,51.53184],[-118.55917,51.5318],[-118.5592,51.53179],[-118.55926,51.53177],[-118.55934,51.53174],[-118.55941,51.53172],[-118.55951,51.53168],[-118.55958,51.53165],[-118.55967,51.53162],[-118.55975,51.53156],[-118.55983,51.53153],[-118.55991,51.5315],[-118.55998,51.53146],[-118.56005,51.53141],[-118.56014,51.53138],[-118.56022,51.53135],[-118.56032,51.53134],[-118.56041,51.5313],[-118.56049,51.53126],[-118.56058,51.53121],[-118.56065,51.53117],[-118.56073,51.53112],[-118.56082,51.53109],[-118.56095,51.53107],[-118.56105,51.53105],[-118.56113,51.53102],[-118.56121,51.531],[-118.56129,51.53098],[-118.56136,51.53097],[-118.56146,51.53095],[-118.56155,51.53093],[-118.56162,51.53092],[-118.56171,51.53091],[-118.56181,51.5309],[-118.56191,51.53088],[-118.56201,51.53086],[-118.56211,51.53083],[-118.56221,51.53081],[-118.56231,51.53078],[-118.56238,51.53075],[-118.56245,51.53072],[-118.56254,51.53068],[-118.56256,51.53066],[-118.56262,51.53062],[-118.5627,51.53057],[-118.56276,51.53052],[-118.56286,51.5304],[-118.56286,51.53035],[-118.56285,51.53029],[-118.56279,51.53023],[-118.56268,51.53019],[-118.5626,51.53017],[-118.56253,51.53016],[-118.56245,51.53016],[-118.5623,51.53017],[-118.5622,51.53018],[-118.56214,51.53018],[-118.56204,51.53018],[-118.56193,51.53018],[-118.56184,51.53019],[-118.56173,51.5302],[-118.56163,51.5302],[-118.56152,51.53021],[-118.56141,51.53021],[-118.56131,51.53022],[-118.56121,51.53022],[-118.56112,51.53021],[-118.56103,51.5302],[-118.56096,51.53019],[-118.56089,51.53018],[-118.5608,51.53017],[-118.56072,51.53017],[-118.56064,51.53017],[-118.56053,51.53017],[-118.56043,51.53018],[-118.56033,51.5302],[-118.56024,51.53023],[-118.56017,51.53025],[-118.5601,51.53029],[-118.56,51.53034],[-118.55992,51.5304],[-118.55982,51.53045],[-118.55973,51.53049],[-118.55963,51.53054],[-118.55956,51.53057],[-118.55948,51.5306],[-118.55939,51.53065],[-118.55931,51.5307],[-118.55922,51.53072],[-118.55914,51.53075],[-118.55906,51.53078],[-118.55898,51.5308],[-118.55888,51.53083],[-118.55879,51.53087],[-118.55869,51.5309],[-118.55861,51.53092],[-118.55849,51.53094],[-118.55839,51.53096],[-118.55828,51.53098],[-118.55819,51.531],[-118.55809,51.53102],[-118.55799,51.53105],[-118.55791,51.53107],[-118.55781,51.5311],[-118.55772,51.53113],[-118.55762,51.53116],[-118.55752,51.53117],[-118.55742,51.53118],[-118.55732,51.53119],[-118.5572,51.5312],[-118.55709,51.5312],[-118.55699,51.5312],[-118.55687,51.53122],[-118.55677,51.53124],[-118.55667,51.53127],[-118.55659,51.53129],[-118.5565,51.53133],[-118.5564,51.53137],[-118.55632,51.5314],[-118.55623,51.53143],[-118.55613,51.53145],[-118.55605,51.5315],[-118.55596,51.53153],[-118.55586,51.53157],[-118.55579,51.5316],[-118.55569,51.53164],[-118.55562,51.53166],[-118.55552,51.53169],[-118.55545,51.53172],[-118.55535,51.53174],[-118.55523,51.53176],[-118.55515,51.53178],[-118.55505,51.53181],[-118.55496,51.53184],[-118.55486,51.53188],[-118.55483,51.53188],[-118.55478,51.5319],[-118.55468,51.53193],[-118.55458,51.53196],[-118.55448,51.53198],[-118.55438,51.53201],[-118.55428,51.53204],[-118.55415,51.53206],[-118.55402,51.53209],[-118.55391,51.53212],[-118.55381,51.53215],[-118.55369,51.53217],[-118.55358,51.53219],[-118.55348,51.53222],[-118.55338,51.53223],[-118.55325,51.53224],[-118.55315,51.53226],[-118.55304,51.53226],[-118.55293,51.53227],[-118.55274,51.53229],[-118.55264,51.5323],[-118.55256,51.53232],[-118.55246,51.53234],[-118.55239,51.53237],[-118.55231,51.5324],[-118.55223,51.53245],[-118.55217,51.5325],[-118.5521,51.53254],[-118.55202,51.53259],[-118.55195,51.53263],[-118.55186,51.53268],[-118.55181,51.53272],[-118.55175,51.53278],[-118.55171,51.53283],[-118.55162,51.53289],[-118.55157,51.53294],[-118.55153,51.53301],[-118.55149,51.53307],[-118.55145,51.53313],[-118.5514,51.53319],[-118.55136,51.53324],[-118.55132,51.5333],[-118.55127,51.53336],[-118.55121,51.53343],[-118.55117,51.53348],[-118.55113,51.53354],[-118.55107,51.53361],[-118.551,51.53367],[-118.5509,51.53373],[-118.55082,51.53375],[-118.55075,51.5338],[-118.55066,51.53386],[-118.55058,51.53392],[-118.55051,51.53397],[-118.55042,51.534],[-118.55032,51.53405],[-118.55025,51.53408],[-118.55018,51.5341],[-118.55008,51.53414],[-118.55001,51.53417],[-118.54991,51.53419],[-118.5498,51.53422],[-118.5497,51.53425],[-118.54961,51.53427],[-118.54952,51.5343],[-118.54944,51.53432],[-118.54934,51.53434],[-118.54927,51.53437],[-118.54918,51.53441],[-118.5491,51.53444],[-118.549,51.5345],[-118.54891,51.53454],[-118.54883,51.5346],[-118.54874,51.53465],[-118.54869,51.53472],[-118.54865,51.53478],[-118.5486,51.53484],[-118.54855,51.5349],[-118.54852,51.53494],[-118.54847,51.53501],[-118.54838,51.53505],[-118.5483,51.53511],[-118.54821,51.53515],[-118.54814,51.53518],[-118.54806,51.53521],[-118.54803,51.53523],[-118.54797,51.53526],[-118.54789,51.5353],[-118.5478,51.53533],[-118.54771,51.53535],[-118.54761,51.53539],[-118.54753,51.53541],[-118.54746,51.53543],[-118.54739,51.53545],[-118.54731,51.53546],[-118.54721,51.53548],[-118.54711,51.53551],[-118.54701,51.53554],[-118.54694,51.53556],[-118.54689,51.53559],[-118.54677,51.53563],[-118.54667,51.53564],[-118.5466,51.53565],[-118.54653,51.53565],[-118.54644,51.53566],[-118.54635,51.53567],[-118.54625,51.53567],[-118.54618,51.53567],[-118.5461,51.53567],[-118.54601,51.53567],[-118.54592,51.53567],[-118.54582,51.53567],[-118.54572,51.53567],[-118.54562,51.53568],[-118.54555,51.53568],[-118.54546,51.53568],[-118.54538,51.53569],[-118.54529,51.53569],[-118.54517,51.53571]]}},
{"type":"Feature","properties":{"spotId":"G-moose-walk-0065","kind":"walk","km":1.4,"climbM":145,"name":"2.1 km SE of Kirbyville Creek","flags":[]},"geometry":{"type":"LineString","coordinates":[[-118.6571,51.60331],[-118.67632,51.59947]]}}
]}
