{"type":"FeatureCollection","features":[
{"type":"Feature","properties":{"spotId":"G-camp-camp-0004","kind":"walk","km":0.16,"climbM":0,"name":"150 m NE of Seymour River","flags":[]},"geometry":{"type":"LineString","coordinates":[[-118.89558,51.29177],[-118.89758,51.29239]]}},
{"type":"Feature","properties":{"spotId":"G-camp-camp-0009","kind":"walk","km":0.1,"climbM":0,"name":"By Seymour River","flags":[]},"geometry":{"type":"LineString","coordinates":[[-118.90482,51.26564],[-118.90332,51.26568]]}},
{"type":"Feature","properties":{"spotId":"G-duck-drive-0008","kind":"walk","km":0.07,"climbM":0,"name":"Unnamed wetland 450 m NE of Seymour River","flags":[]},"geometry":{"type":"LineString","coordinates":[[-118.91724,51.265],[-118.91768,51.26441]]}},
{"type":"Feature","properties":{"spotId":"G-duck-drive-0009","kind":"walk","km":0.04,"climbM":0,"name":"Unnamed wetland 210 m S of Seymour River","flags":[]},"geometry":{"type":"LineString","coordinates":[[-118.89723,51.27253],[-118.89757,51.27281]]}},
{"type":"Feature","properties":{"spotId":"G-duck-drive-0011","kind":"walk","km":0.22,"climbM":0,"name":"Unnamed wetland 310 m N of Ratchford Creek","flags":[]},"geometry":{"type":"LineString","coordinates":[[-118.85942,51.36295],[-118.85699,51.3617]]}},
{"type":"Feature","properties":{"spotId":"G-duck-drive-0014","kind":"walk","km":0.21,"climbM":1,"name":"Unnamed wetland by Seymour River","flags":[]},"geometry":{"type":"LineString","coordinates":[[-118.90897,51.25482],[-118.90639,51.25386]]}},
{"type":"Feature","properties":{"spotId":"G-duck-drive-0015","kind":"walk","km":0.05,"climbM":0,"name":"Unnamed wetland 300 m NW of Ratchford Creek","flags":[]},"geometry":{"type":"LineString","coordinates":[[-118.83432,51.36536],[-118.83395,51.36501]]}},
{"type":"Feature","properties":{"spotId":"G-duck-drive-0020","kind":"walk","km":0.27,"climbM":2,"name":"Unnamed wetland by Ratchford Creek","flags":[]},"geometry":{"type":"LineString","coordinates":[[-118.77067,51.36708],[-118.77034,51.36469]]}},
{"type":"Feature","properties":{"spotId":"G-duck-drive-0026","kind":"walk","km":0.02,"climbM":0,"name":"Unnamed wetland 300 m SE of Celista Creek","flags":[]},"geometry":{"type":"LineString","coordinates":[[-118.99954,51.27926],[-118.99985,51.27937]]}},
{"type":"Feature","properties":{"spotId":"G-duck-drive-0072","kind":"walk","km":0.05,"climbM":0,"name":"Unnamed wetland 750 m NE of Seymour River","flags":[]},"geometry":{"type":"LineString","coordinates":[[-118.92258,51.36168],[-118.9232,51.3614]]}},
{"type":"Feature","properties":{"spotId":"G-duck-drive-0087","kind":"walk","km":0.02,"climbM":0,"name":"Unnamed wetland 910 m E of McNomee Creek","flags":[]},"geometry":{"type":"LineString","coordinates":[[-118.92906,51.2724],[-118.92916,51.27259]]}},
{"type":"Feature","properties":{"spotId":"G-duck-drive-0105","kind":"walk","km":0.12,"climbM":0,"name":"Unnamed wetland 1.2 km SE of Ratchford Creek","flags":[]},"geometry":{"type":"LineString","coordinates":[[-118.8796,51.3044],[-118.87824,51.30513]]}},
{"type":"Feature","properties":{"spotId":"G-duck-drive-0110","kind":"walk","km":0.08,"climbM":0,"name":"Unnamed lake 190 m W of Anstey River","flags":[]},"geometry":{"type":"LineString","coordinates":[[-118.84427,51.29584],[-118.84346,51.29528]]}},
{"type":"Feature","properties":{"spotId":"G-duck-drive-0114","kind":"walk","km":0.13,"climbM":0,"name":"Unnamed lake 1.2 km SW of McNomee Creek","flags":[]},"geometry":{"type":"LineString","coordinates":[[-118.98985,51.36049],[-118.98802,51.36019]]}},
{"type":"Feature","properties":{"spotId":"G-duck-drive-0146","kind":"walk","km":0.08,"climbM":0,"name":"Unnamed wetland 2.5 km E of Cayenne Creek","flags":[]},"geometry":{"type":"LineString","coordinates":[[-118.99572,51.4746],[-118.99687,51.47459]]}},
{"type":"Feature","properties":{"spotId":"G-duck-drive-0155","kind":"walk","km":0.19,"climbM":0,"name":"Unnamed wetland by Ratchford Creek","flags":[]},"geometry":{"type":"LineString","coordinates":[[-118.79155,51.36646],[-118.79149,51.36478]]}},
{"type":"Feature","properties":{"spotId":"G-duck-walk-0022","kind":"walk","km":0.46,"climbM":0,"name":"Unnamed wetland 1.1 km SE of Ratchford Creek","flags":[]},"geometry":{"type":"LineString","coordinates":[[-118.8687,51.31005],[-118.87476,51.31161]]}},
{"type":"Feature","properties":{"spotId":"G-duck-walk-0024","kind":"walk","km":0.54,"climbM":7,"name":"Unnamed wetland 170 m SE of McNomee Creek","flags":["Route crosses private land (ParcelMap BC, updated 2026-09-25): get permission first or go around."]},"geometry":{"type":"LineString","coordinates":[[-118.9413,51.26386],[-118.93972,51.26864]]}},
{"type":"Feature","properties":{"spotId":"G-duck-walk-0027","kind":"walk","km":0.54,"climbM":17,"name":"Unnamed wetland 680 m SE of McNomee Creek","flags":[]},"geometry":{"type":"LineString","coordinates":[[-118.92944,51.27233],[-118.93054,51.27263],[-118.92887,51.27659]]}},
{"type":"Feature","properties":{"spotId":"G-duck-walk-0028","kind":"walk","km":0.43,"climbM":16,"name":"Unnamed wetland 3.5 km E of Humamilt Lake East rec site","flags":[]},"geometry":{"type":"LineString","coordinates":[[-118.98386,51.28673],[-118.97826,51.2851]]}},
{"type":"Feature","properties":{"spotId":"G-duck-walk-0048","kind":"walk","km":0.35,"climbM":66,"name":"Unnamed wetland 4.3 km N of Smoky House Creek","flags":[]},"geometry":{"type":"LineString","coordinates":[[-118.9671,51.47927],[-118.9624,51.4803]]}},
{"type":"Feature","properties":{"spotId":"G-duck-walk-0064","kind":"walk","km":0.56,"climbM":1,"name":"Unnamed wetland 250 m E of Seymour River","flags":[]},"geometry":{"type":"LineString","coordinates":[[-118.91914,51.35442],[-118.9266,51.35249]]}},
{"type":"Feature","properties":{"spotId":"G-duck-walk-0072","kind":"walk","km":0.63,"climbM":0,"name":"Unnamed wetland by Ratchford Creek","flags":[]},"geometry":{"type":"LineString","coordinates":[[-118.88557,51.35692],[-118.88166,51.35182]]}},
{"type":"Feature","properties":{"spotId":"G-duck-walk-0073","kind":"walk","km":1.15,"climbM":0,"name":"Unnamed wetland by Ratchford Creek","flags":[]},"geometry":{"type":"LineString","coordinates":[[-118.86432,51.32524],[-118.88084,51.32517]]}},
{"type":"Feature","properties":{"spotId":"G-grouse-atv-0024","kind":"walk","km":0.73,"climbM":5,"name":"By Anstey River","flags":[]},"geometry":{"type":"LineString","coordinates":[[-118.82493,51.30219],[-118.82223,51.30848]]}},
{"type":"Feature","properties":{"spotId":"G-grouse-atv-0024","kind":"ride","km":3.93,"climbM":31,"name":"By Anstey River","flags":[]},"geometry":{"type":"LineString","coordinates":[[-118.82223,51.30848],[-118.82255,51.30844],[-118.82262,51.30844],[-118.82279,51.30842],[-118.82287,51.30839],[-118.82311,51.30827],[-118.8233,51.3082],[-118.82338,51.30815],[-118.82345,51.3081],[-118.82356,51.30799],[-118.82362,51.3079],[-118.82364,51.30783],[-118.82368,51.30778],[-118.82371,51.30771],[-118.82374,51.30766],[-118.82389,51.3075],[-118.82397,51.30745],[-118.82404,51.30741],[-118.82423,51.30737],[-118.82431,51.30733],[-118.82438,51.30727],[-118.82444,51.30722],[-118.82466,51.30707],[-118.8247,51.30702],[-118.82478,51.30696],[-118.82497,51.30689],[-118.82515,51.30679],[-118.82538,51.30673],[-118.82562,51.30666],[-118.8258,51.30662],[-118.82616,51.30651],[-118.82626,51.3065],[-118.82636,51.30648],[-118.8267,51.3064],[-118.82678,51.30637],[-118.82705,51.30632],[-118.82715,51.30631],[-118.82723,51.30628],[-118.82741,51.30624],[-118.82757,51.30618],[-118.82775,51.3061],[-118.82783,51.30604],[-118.82793,51.30599],[-118.82827,51.30577],[-118.82834,51.30572],[-118.82839,51.30566],[-118.82855,51.30555],[-118.82863,51.30551],[-118.82873,51.30541],[-118.8288,51.30536],[-118.82888,51.30531],[-118.82913,51.3052],[-118.8292,51.30516],[-118.82929,51.30512],[-118.82946,51.30503],[-118.82967,51.30493],[-118.82977,51.30488],[-118.82987,51.30484],[-118.82996,51.30479],[-118.83015,51.30469],[-118.83029,51.30459],[-118.83045,51.30449],[-118.83064,51.3044],[-118.83078,51.30433],[-118.8311,51.30411],[-118.83127,51.30395],[-118.83147,51.30379],[-118.83161,51.30365],[-118.83169,51.30359],[-118.8318,51.30345],[-118.83187,51.30333],[-118.83195,51.30322],[-118.83198,51.30317],[-118.83213,51.303],[-118.83217,51.30293],[-118.83242,51.30262],[-118.83249,51.30257],[-118.83262,51.30244],[-118.83268,51.30238],[-118.83289,51.30218],[-118.83308,51.30202],[-118.83321,51.3019],[-118.83326,51.30184],[-118.83336,51.30171],[-118.83344,51.30157],[-118.83351,51.30136],[-118.83368,51.30114],[-118.8337,51.30108],[-118.83373,51.30097],[-118.83377,51.30092],[-118.83385,51.30086],[-118.83406,51.30075],[-118.83413,51.30071],[-118.83417,51.30065],[-118.83424,51.3006],[-118.83437,51.30042],[-118.83442,51.3003],[-118.83446,51.30024],[-118.83451,51.30011],[-118.83455,51.30004],[-118.83455,51.3],[-118.83458,51.29992],[-118.8346,51.29986],[-118.8347,51.29973],[-118.8348,51.29947],[-118.83494,51.29928],[-118.83502,51.29915],[-118.83507,51.2991],[-118.83528,51.29886],[-118.83533,51.29876],[-118.83537,51.29871],[-118.83539,51.29866],[-118.83544,51.29856],[-118.83548,51.29852],[-118.83556,51.29837],[-118.83567,51.29824],[-118.83582,51.29807],[-118.83584,51.29803],[-118.83594,51.29782],[-118.83595,51.29777],[-118.83607,51.29754],[-118.83616,51.29732],[-118.83621,51.29717],[-118.83636,51.29681],[-118.83659,51.29636],[-118.83661,51.29629],[-118.83669,51.29615],[-118.8368,51.29585],[-118.83681,51.29578],[-118.83687,51.29564],[-118.83688,51.29558],[-118.83692,51.29551],[-118.83703,51.29525],[-118.83709,51.29491],[-118.83708,51.29484],[-118.83712,51.29471],[-118.83713,51.29457],[-118.83714,51.29452],[-118.83729,51.29422],[-118.83729,51.29416],[-118.83731,51.29407],[-118.83731,51.29401],[-118.83732,51.29397],[-118.83732,51.29387],[-118.83733,51.29382],[-118.83732,51.29365],[-118.83733,51.29354],[-118.83724,51.29335],[-118.83724,51.29327],[-118.83726,51.29322],[-118.83731,51.29305],[-118.83738,51.29289],[-118.83744,51.29275],[-118.83746,51.29268],[-118.8375,51.29261],[-118.8375,51.29255],[-118.83751,51.2925],[-118.83753,51.29244],[-118.83756,51.29238],[-118.83759,51.29231],[-118.8376,51.29223],[-118.83761,51.29215],[-118.83763,51.29208],[-118.83763,51.29204],[-118.83764,51.29199],[-118.83764,51.29195],[-118.83766,51.2919],[-118.83765,51.29186],[-118.83765,51.29181],[-118.83763,51.29173],[-118.8376,51.29164],[-118.83758,51.29156],[-118.8376,51.29149],[-118.83761,51.29142],[-118.8376,51.29135],[-118.83762,51.29127],[-118.83763,51.2912],[-118.83764,51.29113],[-118.83764,51.29104],[-118.83765,51.29096],[-118.83764,51.29088],[-118.83766,51.29081],[-118.83765,51.29074],[-118.83766,51.29068],[-118.83766,51.29061],[-118.83766,51.29054],[-118.83766,51.29049],[-118.83764,51.29044],[-118.83762,51.29038],[-118.83759,51.29032],[-118.83755,51.29025],[-118.83751,51.29017],[-118.8375,51.29014],[-118.83747,51.29011],[-118.83744,51.29004],[-118.83741,51.28999],[-118.83738,51.28992],[-118.83736,51.28986],[-118.83734,51.28979],[-118.83733,51.28973],[-118.83732,51.28965],[-118.83733,51.28957],[-118.83732,51.2895],[-118.83728,51.28943],[-118.83727,51.28938],[-118.83724,51.28932],[-118.83722,51.28926],[-118.83723,51.28919],[-118.83723,51.28911],[-118.83723,51.28904],[-118.83724,51.28898],[-118.83724,51.28892],[-118.83723,51.28884],[-118.83721,51.28876],[-118.83718,51.28868],[-118.83715,51.28861],[-118.83713,51.28855],[-118.83712,51.28848],[-118.8371,51.28841],[-118.83707,51.28834],[-118.83704,51.28827],[-118.83701,51.2882],[-118.83699,51.28813],[-118.83697,51.28805],[-118.83694,51.28797],[-118.83692,51.28791],[-118.83689,51.28785],[-118.83686,51.28778],[-118.83684,51.28772],[-118.83685,51.28764],[-118.83687,51.28758],[-118.83688,51.28752],[-118.83689,51.28746],[-118.8369,51.2874],[-118.8369,51.28733],[-118.83691,51.28725],[-118.83692,51.28716],[-118.83693,51.28708],[-118.83693,51.287],[-118.83694,51.28693],[-118.83695,51.28688],[-118.83696,51.28681],[-118.83698,51.28674],[-118.83697,51.28666],[-118.837,51.28658],[-118.83701,51.2865],[-118.83701,51.28642],[-118.83702,51.28635],[-118.83703,51.28628],[-118.83704,51.28622],[-118.83705,51.28615],[-118.83706,51.28608],[-118.83709,51.28601],[-118.8371,51.28594],[-118.83713,51.28587],[-118.83715,51.2858],[-118.83719,51.28575],[-118.83725,51.28569],[-118.83732,51.28563],[-118.8374,51.28557],[-118.83749,51.28551],[-118.83754,51.28545],[-118.83763,51.28539],[-118.83769,51.28533],[-118.83778,51.28525],[-118.83786,51.28518],[-118.83794,51.28511],[-118.838,51.28503],[-118.83804,51.28495],[-118.83806,51.2849],[-118.83808,51.28484],[-118.83809,51.28477],[-118.8381,51.28471],[-118.83811,51.28462],[-118.83811,51.28457],[-118.83809,51.28453],[-118.83809,51.28448],[-118.83809,51.28443],[-118.83809,51.28438],[-118.83808,51.28433],[-118.83808,51.28428],[-118.83807,51.28423],[-118.83808,51.28419],[-118.83808,51.28413],[-118.83809,51.28408],[-118.8381,51.28402],[-118.8381,51.28393],[-118.83811,51.28388],[-118.83811,51.28383],[-118.83812,51.28378],[-118.83813,51.28373],[-118.83813,51.28368],[-118.83814,51.28364],[-118.83814,51.28359],[-118.83815,51.2835],[-118.83818,51.28342],[-118.83819,51.28334],[-118.8382,51.28326],[-118.83823,51.28318],[-118.83826,51.28309],[-118.83828,51.28303],[-118.83829,51.28295],[-118.83831,51.28289],[-118.83834,51.28282],[-118.83837,51.28274],[-118.83838,51.28265],[-118.83839,51.28258],[-118.83841,51.2825],[-118.83844,51.28242],[-118.83846,51.28233],[-118.83848,51.28228],[-118.83847,51.28223],[-118.8385,51.28214],[-118.83851,51.28207],[-118.83854,51.282],[-118.83856,51.28191],[-118.83859,51.28185],[-118.8386,51.28181],[-118.83861,51.28176],[-118.83865,51.28167],[-118.83869,51.28159],[-118.83872,51.28152],[-118.83873,51.28148],[-118.83876,51.28145],[-118.83878,51.28138],[-118.83881,51.28132],[-118.83884,51.28124],[-118.83885,51.28116],[-118.83886,51.28109],[-118.83888,51.28102],[-118.83891,51.28095],[-118.83894,51.28087],[-118.83898,51.28081],[-118.83903,51.28075],[-118.83909,51.28069],[-118.83916,51.28063],[-118.83921,51.28056],[-118.83925,51.28051],[-118.83926,51.28049],[-118.83933,51.28044],[-118.8394,51.28038],[-118.83946,51.28033],[-118.83953,51.28026],[-118.8396,51.28019],[-118.83964,51.28012],[-118.83968,51.28005],[-118.83972,51.27999],[-118.83972,51.27996],[-118.83973,51.27992],[-118.83974,51.27985],[-118.83975,51.2798],[-118.83977,51.27974],[-118.83978,51.27967],[-118.83979,51.27958],[-118.8398,51.27953],[-118.83981,51.27947],[-118.83982,51.2794],[-118.83981,51.27935],[-118.83979,51.27931],[-118.83976,51.27925],[-118.83973,51.2792],[-118.8397,51.27915],[-118.8397,51.2791],[-118.83968,51.27905],[-118.83969,51.27899],[-118.83969,51.27895],[-118.83972,51.27889],[-118.83977,51.27884],[-118.83983,51.27877],[-118.83987,51.27872],[-118.83991,51.27866],[-118.83995,51.2786],[-118.84,51.27855],[-118.84006,51.27849],[-118.84012,51.27845],[-118.8402,51.27837],[-118.84025,51.27833],[-118.84034,51.27826],[-118.84039,51.27821],[-118.84043,51.27816],[-118.8405,51.2781],[-118.84057,51.27804],[-118.84064,51.27799],[-118.84071,51.27793],[-118.84078,51.27789],[-118.84088,51.27785],[-118.84091,51.27784]]}},
{"type":"Feature","properties":{"spotId":"G-grouse-atv-0036","kind":"walk","km":0.86,"climbM":293,"name":"630 m W of Seymour River","flags":[]},"geometry":{"type":"LineString","coordinates":[[-118.90151,51.31073],[-118.91368,51.3096]]}},
{"type":"Feature","properties":{"spotId":"G-grouse-atv-0036","kind":"ride","km":3.1,"climbM":31,"name":"630 m W of Seymour River","flags":[]},"geometry":{"type":"LineString","coordinates":[[-118.91368,51.3096],[-118.91368,51.30942],[-118.91362,51.30921],[-118.91352,51.30889],[-118.9136,51.3088],[-118.91389,51.30847],[-118.91403,51.30831],[-118.91416,51.30814],[-118.91424,51.30805],[-118.9143,51.30796],[-118.91447,51.30769],[-118.91466,51.30733],[-118.91471,51.30723],[-118.91501,51.30679],[-118.91522,51.30654],[-118.91537,51.30638],[-118.91551,51.30611],[-118.91555,51.30601],[-118.91569,51.30584],[-118.9161,51.30544],[-118.9166,51.30505],[-118.91668,51.30496],[-118.9168,51.30477],[-118.91687,51.30468],[-118.91691,51.30459],[-118.91692,51.3042],[-118.91692,51.30411],[-118.917,51.30383],[-118.91703,51.30373],[-118.91724,51.30326],[-118.91747,51.3028],[-118.91751,51.30271],[-118.91753,51.30262],[-118.91753,51.30252],[-118.91737,51.30206],[-118.91734,51.30197],[-118.91711,51.30163],[-118.91693,51.30148],[-118.91683,51.30141],[-118.91671,51.30135],[-118.91659,51.30131],[-118.91645,51.30127],[-118.9163,51.30127],[-118.91581,51.30147],[-118.91569,51.30153],[-118.91558,51.3016],[-118.91524,51.30192],[-118.91514,51.30199],[-118.91502,51.30205],[-118.91489,51.30209],[-118.91445,51.30215],[-118.91417,51.3022],[-118.91328,51.30224],[-118.91221,51.30222],[-118.91168,51.30215],[-118.91119,51.30195],[-118.91116,51.30182],[-118.91094,51.3015],[-118.91074,51.30123],[-118.91065,51.30098],[-118.91073,51.30063],[-118.91099,51.30009],[-118.91127,51.29978],[-118.91154,51.29956],[-118.91172,51.29933],[-118.91198,51.29901],[-118.91237,51.29886],[-118.91288,51.29875],[-118.91323,51.29857],[-118.91392,51.29836],[-118.91421,51.29821],[-118.91441,51.29797],[-118.91452,51.29775],[-118.91444,51.29743],[-118.91429,51.29717],[-118.9142,51.29679],[-118.9142,51.2963],[-118.91432,51.29589],[-118.91448,51.29546],[-118.91463,51.29517],[-118.91488,51.295],[-118.91526,51.29475],[-118.91551,51.29456],[-118.91569,51.2944],[-118.91575,51.29409],[-118.9159,51.29379],[-118.91605,51.29356],[-118.9163,51.29341],[-118.91652,51.29318],[-118.91664,51.29289],[-118.91684,51.29257],[-118.91734,51.29199],[-118.91764,51.2916],[-118.91786,51.29135],[-118.91789,51.29107],[-118.91795,51.29072],[-118.91795,51.2904],[-118.91799,51.29001],[-118.91811,51.28973],[-118.9183,51.2895],[-118.91848,51.28928],[-118.91858,51.2891],[-118.91865,51.28898],[-118.91871,51.28886]]}},
{"type":"Feature","properties":{"spotId":"G-grouse-drive-0014","kind":"roadside","km":3.9,"climbM":76,"name":"220 m E of Seymour River","flags":[]},"geometry":{"type":"LineString","coordinates":[[-118.90052,51.25633],[-118.90052,51.25637],[-118.90054,51.25645],[-118.90054,51.25651],[-118.90054,51.25657],[-118.90053,51.25663],[-118.90053,51.25669],[-118.90053,51.25674],[-118.90051,51.2568],[-118.90047,51.25691],[-118.90044,51.257],[-118.90042,51.25706],[-118.9004,51.2571],[-118.90038,51.25716],[-118.90032,51.25722],[-118.90025,51.25729],[-118.9002,51.25736],[-118.90016,51.25743],[-118.90015,51.25751],[-118.90015,51.25757],[-118.90015,51.25761],[-118.90015,51.25766],[-118.90014,51.25771],[-118.90014,51.25776],[-118.90015,51.25781],[-118.90015,51.25786],[-118.90015,51.25792],[-118.90017,51.25796],[-118.9002,51.25802],[-118.90021,51.25807],[-118.90023,51.25811],[-118.90025,51.25817],[-118.90026,51.25822],[-118.90028,51.25828],[-118.9003,51.25833],[-118.90031,51.25838],[-118.90036,51.25847],[-118.90039,51.25852],[-118.90042,51.25856],[-118.90048,51.25864],[-118.90056,51.25872],[-118.90062,51.2588],[-118.90066,51.25886],[-118.90074,51.25895],[-118.9008,51.259],[-118.90086,51.25904],[-118.9009,51.25909],[-118.90095,51.25915],[-118.90098,51.25919],[-118.90107,51.25927],[-118.90114,51.25931],[-118.90121,51.25937],[-118.9013,51.25942],[-118.90138,51.25947],[-118.90145,51.25953],[-118.90148,51.25959],[-118.90151,51.25965],[-118.90153,51.2597],[-118.90153,51.25976],[-118.90152,51.2598],[-118.90148,51.25986],[-118.90142,51.25991],[-118.90114,51.26004],[-118.90107,51.26007],[-118.90096,51.26008],[-118.90084,51.26008],[-118.90057,51.26011],[-118.9005,51.26013],[-118.90037,51.26014],[-118.90011,51.26017],[-118.9,51.26018],[-118.89989,51.2602],[-118.89979,51.26023],[-118.89958,51.26033],[-118.89951,51.26037],[-118.89939,51.26043],[-118.89928,51.26049],[-118.89921,51.26055],[-118.89912,51.26062],[-118.89905,51.26069],[-118.89901,51.26075],[-118.89895,51.26083],[-118.8989,51.2609],[-118.89884,51.26097],[-118.89877,51.26104],[-118.89872,51.2611],[-118.89868,51.26116],[-118.89861,51.26122],[-118.89856,51.2613],[-118.8985,51.26138],[-118.89843,51.26148],[-118.8984,51.26157],[-118.89836,51.26166],[-118.89834,51.26171],[-118.89828,51.26181],[-118.89821,51.2619],[-118.89814,51.26198],[-118.89811,51.26202],[-118.89806,51.2621],[-118.89802,51.26218],[-118.89799,51.26223],[-118.89798,51.26228],[-118.89795,51.26234],[-118.89791,51.26244],[-118.89788,51.26254],[-118.89782,51.26262],[-118.89778,51.26268],[-118.89776,51.26275],[-118.89768,51.26309],[-118.89767,51.26316],[-118.89767,51.26323],[-118.89766,51.2633],[-118.89767,51.26338],[-118.89767,51.26345],[-118.89767,51.26352],[-118.89768,51.26358],[-118.89771,51.26365],[-118.89772,51.26373],[-118.89776,51.26379],[-118.89777,51.26386],[-118.8978,51.26393],[-118.89784,51.264],[-118.89785,51.26408],[-118.89787,51.26416],[-118.8979,51.26424],[-118.89798,51.2644],[-118.898,51.26445],[-118.898,51.26451],[-118.89802,51.26458],[-118.89803,51.26465],[-118.89805,51.26471],[-118.89805,51.26475],[-118.89807,51.26483],[-118.89809,51.2649],[-118.89811,51.26499],[-118.89811,51.26503],[-118.89812,51.26508],[-118.89813,51.26517],[-118.89814,51.26522],[-118.89815,51.26527],[-118.89815,51.26532],[-118.89815,51.26537],[-118.89815,51.26546],[-118.89816,51.26551],[-118.89816,51.26556],[-118.89816,51.26561],[-118.89816,51.26567],[-118.89815,51.26573],[-118.89815,51.26578],[-118.89816,51.26585],[-118.89817,51.2659],[-118.89816,51.26595],[-118.89816,51.26602],[-118.89816,51.26607],[-118.89815,51.26612],[-118.89816,51.26621],[-118.89815,51.26631],[-118.89815,51.26638],[-118.89814,51.26644],[-118.89814,51.2665],[-118.89813,51.26657],[-118.89813,51.26662],[-118.89813,51.26668],[-118.89813,51.26673],[-118.89814,51.26678],[-118.89814,51.26684],[-118.89814,51.2669],[-118.89814,51.26694],[-118.89816,51.267],[-118.89816,51.26706],[-118.89818,51.26712],[-118.8982,51.26718],[-118.89823,51.26723],[-118.89826,51.26728],[-118.8983,51.26734],[-118.89835,51.26738],[-118.89844,51.26746],[-118.89853,51.26754],[-118.89862,51.26762],[-118.8987,51.26769],[-118.89878,51.26776],[-118.89888,51.26785],[-118.89894,51.26792],[-118.89902,51.268],[-118.89903,51.26804],[-118.89905,51.26809],[-118.89905,51.26814],[-118.89905,51.26819],[-118.89904,51.26824],[-118.89903,51.26829],[-118.899,51.26834],[-118.89898,51.2684],[-118.89895,51.26846],[-118.89891,51.26851],[-118.89887,51.26858],[-118.89884,51.26862],[-118.89882,51.26869],[-118.89881,51.26874],[-118.89879,51.26879],[-118.89877,51.26884],[-118.89874,51.26891],[-118.89871,51.26897],[-118.89869,51.26901],[-118.89865,51.26908],[-118.89862,51.26913],[-118.89859,51.26918],[-118.89858,51.26924],[-118.89858,51.2693],[-118.89859,51.26935],[-118.89859,51.26937],[-118.8986,51.26944],[-118.89862,51.26949],[-118.89862,51.26954],[-118.89864,51.2696],[-118.89864,51.26965],[-118.89866,51.2697],[-118.89868,51.26977],[-118.89869,51.26983],[-118.89871,51.26989],[-118.89871,51.26996],[-118.89871,51.27002],[-118.89873,51.27008],[-118.89874,51.27017],[-118.89875,51.27027],[-118.89876,51.27035],[-118.89878,51.27048],[-118.89879,51.27052],[-118.89881,51.2706],[-118.89881,51.27065],[-118.89883,51.27072],[-118.89883,51.27078],[-118.89883,51.27083],[-118.89885,51.2709],[-118.89885,51.27095],[-118.89886,51.27101],[-118.89886,51.27108],[-118.89885,51.27114],[-118.89884,51.2712],[-118.89882,51.27127],[-118.89883,51.27134],[-118.8988,51.2714],[-118.89879,51.27147],[-118.89875,51.27152],[-118.89868,51.2716],[-118.89861,51.27168],[-118.89853,51.27177],[-118.89843,51.27183],[-118.89818,51.27196],[-118.89805,51.27203],[-118.89796,51.27212],[-118.89789,51.27216],[-118.89782,51.27221],[-118.8977,51.27228],[-118.89755,51.27235],[-118.89747,51.2724],[-118.89731,51.27249],[-118.89723,51.27253],[-118.89714,51.27257],[-118.89706,51.2726],[-118.89699,51.27263],[-118.8969,51.27266],[-118.89682,51.27268],[-118.89672,51.27271],[-118.89663,51.27273],[-118.89655,51.27275],[-118.89645,51.27277],[-118.89635,51.2728],[-118.89625,51.27282],[-118.89615,51.27285],[-118.89607,51.27287],[-118.89599,51.27289],[-118.89589,51.27291],[-118.89581,51.27293],[-118.89574,51.27296],[-118.89565,51.27299],[-118.89557,51.27302],[-118.89553,51.27304],[-118.8955,51.27305],[-118.89541,51.27307],[-118.89533,51.2731],[-118.89524,51.27312],[-118.89516,51.27315],[-118.89513,51.27316],[-118.89509,51.27318],[-118.89498,51.27324],[-118.89486,51.27329],[-118.89478,51.27333],[-118.89471,51.27337],[-118.8946,51.27344],[-118.89449,51.27351],[-118.89443,51.27357],[-118.89433,51.27365],[-118.89429,51.2737],[-118.89424,51.27374],[-118.89415,51.27382],[-118.89411,51.27387],[-118.89406,51.27392],[-118.89392,51.27401],[-118.89382,51.27408],[-118.89374,51.27417],[-118.8937,51.27422],[-118.89367,51.27427],[-118.89365,51.27435],[-118.89361,51.27444],[-118.89355,51.27452],[-118.89345,51.27459],[-118.89336,51.27466],[-118.89323,51.27472],[-118.89311,51.2748],[-118.89304,51.27489],[-118.893,51.27493],[-118.89297,51.27499],[-118.89294,51.27505],[-118.89292,51.2751],[-118.89289,51.27516],[-118.89286,51.2752],[-118.89284,51.27525],[-118.89281,51.27529],[-118.89278,51.27538],[-118.89277,51.27544],[-118.89278,51.27549],[-118.89276,51.27554],[-118.89276,51.27559],[-118.89277,51.27565],[-118.89277,51.27571],[-118.89277,51.27576],[-118.8928,51.27586],[-118.89282,51.27592],[-118.89288,51.27599],[-118.89294,51.27608],[-118.89299,51.27618],[-118.89301,51.27623],[-118.89302,51.27629],[-118.89303,51.27635],[-118.89303,51.27641],[-118.89302,51.27647],[-118.89299,51.27651],[-118.89294,51.27661],[-118.89291,51.27667],[-118.89288,51.27671],[-118.89286,51.27676],[-118.89286,51.2768],[-118.89285,51.27689],[-118.89285,51.27694],[-118.89284,51.27699],[-118.89284,51.27705],[-118.89284,51.27711],[-118.89284,51.27716],[-118.89285,51.27723],[-118.89285,51.27728],[-118.89285,51.27731],[-118.89285,51.27733],[-118.89287,51.27739],[-118.89287,51.27744],[-118.8929,51.27749],[-118.89293,51.27754],[-118.89296,51.27759],[-118.89299,51.27765],[-118.89302,51.27769],[-118.89307,51.27775],[-118.8931,51.27779],[-118.89314,51.27784],[-118.89317,51.27789],[-118.89322,51.27794],[-118.89325,51.27799],[-118.89328,51.27804],[-118.89331,51.27808],[-118.89336,51.27813],[-118.89347,51.27821],[-118.89356,51.27827],[-118.89365,51.27834],[-118.89376,51.27842],[-118.89386,51.2785],[-118.89395,51.27857],[-118.89404,51.27863],[-118.89411,51.27868],[-118.89418,51.27873],[-118.89426,51.27881],[-118.89432,51.27889],[-118.89434,51.27893],[-118.89435,51.27898],[-118.89438,51.27904],[-118.89441,51.27909],[-118.89443,51.27914],[-118.89446,51.27918],[-118.89448,51.27922],[-118.89451,51.27928],[-118.89454,51.27932],[-118.89457,51.27937],[-118.89459,51.27941],[-118.89463,51.2795],[-118.89466,51.27954],[-118.89471,51.27963],[-118.89474,51.27969],[-118.89477,51.27973],[-118.8948,51.27979],[-118.89483,51.27983],[-118.89486,51.27987],[-118.89489,51.27993],[-118.89491,51.27998],[-118.89493,51.28004],[-118.89496,51.28009],[-118.89499,51.28014],[-118.89506,51.28023],[-118.89511,51.28028],[-118.8952,51.28036],[-118.89527,51.28043],[-118.89536,51.2805],[-118.89544,51.28057],[-118.8955,51.28063],[-118.89558,51.2807],[-118.89566,51.28078],[-118.89573,51.28087],[-118.89577,51.28092],[-118.8958,51.28097],[-118.89583,51.28103],[-118.89584,51.28107],[-118.89587,51.28112],[-118.89592,51.28119],[-118.89597,51.28126],[-118.89601,51.28133],[-118.89604,51.28138],[-118.89606,51.28144],[-118.89609,51.28149],[-118.89612,51.28154],[-118.89615,51.28161],[-118.89617,51.28168],[-118.89619,51.28173],[-118.8962,51.28179],[-118.89622,51.28184],[-118.89624,51.28188],[-118.89624,51.28193],[-118.89624,51.28198],[-118.89626,51.28203],[-118.89617,51.28207],[-118.89607,51.28212],[-118.89602,51.28218],[-118.89599,51.28223],[-118.89594,51.28229],[-118.89591,51.28235],[-118.89588,51.28241],[-118.89584,51.28247],[-118.89583,51.28248],[-118.8958,51.28253],[-118.89579,51.2826],[-118.89578,51.28268],[-118.89578,51.28276],[-118.89579,51.28282],[-118.8958,51.28289],[-118.89581,51.28296],[-118.89581,51.28304],[-118.89583,51.28311],[-118.89585,51.2832],[-118.89585,51.28325],[-118.89586,51.28329],[-118.89588,51.28334],[-118.89591,51.28341],[-118.89594,51.28347],[-118.89596,51.28353],[-118.89598,51.2836],[-118.89598,51.28365],[-118.89599,51.2837],[-118.896,51.28374],[-118.896,51.28379],[-118.89599,51.28387],[-118.89596,51.28395],[-118.89597,51.28403],[-118.89598,51.28408],[-118.896,51.28413],[-118.89607,51.2842],[-118.89615,51.28426],[-118.89625,51.28431],[-118.89632,51.28436],[-118.89643,51.28443],[-118.89646,51.28447],[-118.89649,51.28452],[-118.8965,51.28456],[-118.89651,51.28461],[-118.89651,51.28467],[-118.89652,51.28472],[-118.89653,51.28478],[-118.89653,51.28482],[-118.89653,51.28487],[-118.89652,51.28493],[-118.89652,51.28498],[-118.89651,51.28504],[-118.8965,51.28509],[-118.89647,51.28518],[-118.89648,51.28527],[-118.89648,51.28536],[-118.8965,51.28541],[-118.89654,51.28549],[-118.89659,51.28557],[-118.89661,51.28564],[-118.89661,51.28571],[-118.8966,51.28579],[-118.89659,51.28587],[-118.89657,51.28594],[-118.89656,51.28598],[-118.89655,51.28603],[-118.89652,51.28609],[-118.89651,51.28613],[-118.8965,51.28622],[-118.8965,51.28628],[-118.89649,51.28633],[-118.89649,51.28638],[-118.89651,51.28646],[-118.89651,51.28654],[-118.8965,51.28662],[-118.8965,51.28667],[-118.89649,51.28672],[-118.89648,51.28677],[-118.89648,51.28682],[-118.89647,51.28691],[-118.89646,51.28699],[-118.89646,51.28706]]}},
{"type":"Feature","properties":{"spotId":"G-grouse-drive-0021","kind":"roadside","km":5.62,"climbM":264,"name":"By Ratchford Creek","flags":[]},"geometry":{"type":"LineString","coordinates":[[-118.90094,51.31105],[-118.90085,51.31109],[-118.90078,51.31111],[-118.90071,51.31116],[-118.90069,51.31118],[-118.90064,51.3112],[-118.90059,51.31126],[-118.90056,51.31132],[-118.90056,51.31137],[-118.90058,51.31142],[-118.90061,51.31146],[-118.90064,51.31152],[-118.90066,51.31156],[-118.9007,51.31163],[-118.90074,51.31169],[-118.90074,51.31175],[-118.90074,51.31179],[-118.90074,51.31184],[-118.90074,51.31189],[-118.90075,51.31195],[-118.90075,51.312],[-118.90074,51.31206],[-118.90074,51.31211],[-118.90074,51.31216],[-118.90073,51.31222],[-118.90073,51.31227],[-118.90072,51.31234],[-118.90072,51.31239],[-118.9007,51.31248],[-118.9007,51.31253],[-118.90069,51.31259],[-118.90069,51.31264],[-118.90069,51.31271],[-118.90068,51.31278],[-118.90068,51.31284],[-118.90069,51.3129],[-118.90067,51.31295],[-118.90066,51.313],[-118.90065,51.31306],[-118.90064,51.31312],[-118.90063,51.31317],[-118.90061,51.31322],[-118.90057,51.31327],[-118.90053,51.31332],[-118.9005,51.31337],[-118.90046,51.31342],[-118.90044,51.31347],[-118.90038,51.31353],[-118.90034,51.31358],[-118.9003,51.31364],[-118.90027,51.31369],[-118.90025,51.31375],[-118.90022,51.3138],[-118.90019,51.31386],[-118.90018,51.31393],[-118.90018,51.31398],[-118.90019,51.31404],[-118.90019,51.31409],[-118.90022,51.31414],[-118.90025,51.3142],[-118.90027,51.31427],[-118.90029,51.31433],[-118.90033,51.31439],[-118.90039,51.31445],[-118.90044,51.3145],[-118.90048,51.31454],[-118.90056,51.3146],[-118.90063,51.31467],[-118.90067,51.31472],[-118.90073,51.31477],[-118.90078,51.31482],[-118.90082,51.31486],[-118.90085,51.31491],[-118.90089,51.31497],[-118.9009,51.31503],[-118.90092,51.31507],[-118.90092,51.31513],[-118.90094,51.31518],[-118.90096,51.31525],[-118.90099,51.31532],[-118.901,51.31537],[-118.90103,51.31542],[-118.90105,51.31548],[-118.90108,51.31553],[-118.90108,51.3156],[-118.9011,51.31566],[-118.9011,51.31572],[-118.90111,51.31578],[-118.90111,51.31585],[-118.90113,51.31591],[-118.90114,51.31596],[-118.90114,51.316],[-118.90114,51.31602],[-118.90119,51.31608],[-118.90125,51.31614],[-118.90129,51.31618],[-118.90136,51.31625],[-118.9014,51.31631],[-118.90142,51.31636],[-118.90145,51.31641],[-118.90148,51.31647],[-118.9015,51.31653],[-118.90153,51.3166],[-118.90154,51.31666],[-118.90158,51.31673],[-118.90158,51.31679],[-118.9016,51.31685],[-118.90161,51.31691],[-118.90163,51.31698],[-118.90165,51.31704],[-118.90165,51.31711],[-118.90167,51.31718],[-118.90168,51.31723],[-118.9017,51.31727],[-118.90172,51.31733],[-118.90173,51.31738],[-118.90173,51.31744],[-118.90177,51.3175],[-118.90178,51.31755],[-118.9018,51.31761],[-118.90182,51.31766],[-118.90183,51.31773],[-118.90185,51.31778],[-118.90187,51.31784],[-118.90187,51.3179],[-118.9019,51.31796],[-118.90192,51.31803],[-118.90193,51.31809],[-118.90197,51.3182],[-118.902,51.31826],[-118.90201,51.31831],[-118.90203,51.31836],[-118.90206,51.3184],[-118.90208,51.31845],[-118.90211,51.3185],[-118.90212,51.31854],[-118.90214,51.3186],[-118.90217,51.31864],[-118.90219,51.31869],[-118.9022,51.31874],[-118.90224,51.3188],[-118.90225,51.31886],[-118.90228,51.3189],[-118.9023,51.31895],[-118.90233,51.31902],[-118.90235,51.31908],[-118.90236,51.31913],[-118.9024,51.3192],[-118.9024,51.31926],[-118.90241,51.31932],[-118.90245,51.31939],[-118.90246,51.31946],[-118.9025,51.31953],[-118.90253,51.31959],[-118.90254,51.31965],[-118.90256,51.31972],[-118.90258,51.3198],[-118.90261,51.31986],[-118.90264,51.31993],[-118.90267,51.31998],[-118.90269,51.32005],[-118.90272,51.32012],[-118.90275,51.32018],[-118.90278,51.32023],[-118.90281,51.3203],[-118.90285,51.32037],[-118.90286,51.32042],[-118.90288,51.32047],[-118.9029,51.32055],[-118.90291,51.32061],[-118.90294,51.32068],[-118.90296,51.32074],[-118.90298,51.32081],[-118.90301,51.32086],[-118.90304,51.32091],[-118.90309,51.32097],[-118.90313,51.32101],[-118.90316,51.32107],[-118.90319,51.32112],[-118.90322,51.32117],[-118.90325,51.32123],[-118.90329,51.32129],[-118.90332,51.32134],[-118.90335,51.32141],[-118.90337,51.32148],[-118.90338,51.32155],[-118.9034,51.32161],[-118.90342,51.32166],[-118.90343,51.32172],[-118.90345,51.32178],[-118.90345,51.32184],[-118.90345,51.32191],[-118.90347,51.32198],[-118.90348,51.32206],[-118.90349,51.32213],[-118.90352,51.3222],[-118.90353,51.32227],[-118.90354,51.32233],[-118.90358,51.32239],[-118.90361,51.32245],[-118.90365,51.32253],[-118.90368,51.3226],[-118.9037,51.32268],[-118.90373,51.32275],[-118.90377,51.32282],[-118.9038,51.32288],[-118.90384,51.32295],[-118.90389,51.32299],[-118.90393,51.32305],[-118.90396,51.32309],[-118.90398,51.32315],[-118.904,51.32321],[-118.90401,51.32328],[-118.90402,51.32333],[-118.90402,51.3234],[-118.90405,51.32345],[-118.90408,51.3235],[-118.90411,51.32355],[-118.90416,51.32359],[-118.9042,51.32365],[-118.90423,51.32369],[-118.90426,51.32375],[-118.90428,51.32381],[-118.9043,51.32388],[-118.90431,51.32393],[-118.90433,51.32398],[-118.90433,51.32407],[-118.90435,51.32417],[-118.90435,51.32423],[-118.90436,51.32431],[-118.90436,51.32436],[-118.90435,51.32442],[-118.90434,51.32449],[-118.90434,51.32456],[-118.90434,51.32463],[-118.90432,51.3247],[-118.9043,51.32475],[-118.90429,51.3248],[-118.90427,51.32486],[-118.90425,51.32493],[-118.90423,51.32499],[-118.90422,51.32507],[-118.90419,51.32513],[-118.90418,51.32518],[-118.90418,51.32524],[-118.90418,51.3253],[-118.90419,51.32537],[-118.90419,51.32544],[-118.90419,51.32551],[-118.9042,51.32558],[-118.90421,51.32563],[-118.90421,51.3257],[-118.90422,51.32577],[-118.90422,51.32585],[-118.90424,51.32593],[-118.90427,51.326],[-118.9043,51.32605],[-118.90432,51.32613],[-118.90434,51.32619],[-118.90437,51.32625],[-118.90441,51.32631],[-118.90444,51.32637],[-118.90447,51.32642],[-118.90451,51.32647],[-118.90454,51.32654],[-118.90457,51.32659],[-118.90461,51.32665],[-118.90464,51.32671],[-118.90469,51.32678],[-118.90474,51.32684],[-118.90477,51.32689],[-118.90481,51.32694],[-118.90483,51.32701],[-118.90486,51.32706],[-118.90486,51.32711],[-118.90486,51.32716],[-118.90487,51.32722],[-118.90487,51.32729],[-118.90487,51.32735],[-118.90486,51.32741],[-118.90485,51.32747],[-118.90482,51.32752],[-118.90479,51.32757],[-118.90478,51.32764],[-118.90477,51.32769],[-118.90477,51.32775],[-118.90478,51.32781],[-118.90478,51.32788],[-118.90478,51.32793],[-118.90478,51.32798],[-118.9048,51.32803],[-118.90483,51.32809],[-118.90486,51.32814],[-118.90491,51.32819],[-118.90495,51.32824],[-118.90501,51.3283],[-118.90503,51.32836],[-118.90506,51.32843],[-118.90508,51.3285],[-118.90509,51.32858],[-118.90513,51.32866],[-118.90514,51.32873],[-118.90517,51.32878],[-118.90519,51.32883],[-118.90522,51.32888],[-118.90524,51.32895],[-118.90526,51.32901],[-118.90524,51.32908],[-118.90523,51.32914],[-118.90524,51.3292],[-118.90525,51.32925],[-118.90527,51.32932],[-118.90529,51.32938],[-118.90533,51.32944],[-118.90536,51.32949],[-118.90539,51.32957],[-118.90541,51.32965],[-118.90543,51.3297],[-118.90545,51.32976],[-118.90545,51.3298],[-118.90546,51.32985],[-118.90548,51.3299],[-118.90551,51.32996],[-118.90554,51.33001],[-118.9056,51.33006],[-118.90565,51.33011],[-118.90572,51.33018],[-118.90576,51.33019],[-118.90582,51.33025],[-118.90585,51.33029],[-118.90596,51.33034],[-118.906,51.3304],[-118.90605,51.33044],[-118.90609,51.33049],[-118.90615,51.33054],[-118.90618,51.3306],[-118.9062,51.33065],[-118.9062,51.33071],[-118.9062,51.33076],[-118.90621,51.33083],[-118.90621,51.33088],[-118.90621,51.33093],[-118.90623,51.33098],[-118.90624,51.33103],[-118.90626,51.3311],[-118.90626,51.33116],[-118.90628,51.33122],[-118.90631,51.33127],[-118.90634,51.33133],[-118.90637,51.33139],[-118.90639,51.33144],[-118.90642,51.3315],[-118.90645,51.33155],[-118.90651,51.33161],[-118.90659,51.33166],[-118.90665,51.33171],[-118.9067,51.33175],[-118.90678,51.3318],[-118.90685,51.33185],[-118.90691,51.33191],[-118.90699,51.33196],[-118.90705,51.33202],[-118.90709,51.33206],[-118.90714,51.33211],[-118.90715,51.33219],[-118.90717,51.33225],[-118.90716,51.3323],[-118.90716,51.33237],[-118.90716,51.33243],[-118.90717,51.3325],[-118.90717,51.33256],[-118.90717,51.33263],[-118.90719,51.33269],[-118.90719,51.33276],[-118.90721,51.33281],[-118.90722,51.33287],[-118.90724,51.33293],[-118.90726,51.333],[-118.90728,51.33306],[-118.90729,51.33314],[-118.9073,51.33321],[-118.90731,51.33327],[-118.90732,51.33333],[-118.9073,51.3334],[-118.90731,51.33347],[-118.90731,51.33355],[-118.90731,51.33362],[-118.90732,51.33371],[-118.90732,51.33378],[-118.90732,51.33386],[-118.90733,51.33395],[-118.90733,51.33402],[-118.90733,51.33409],[-118.90734,51.33416],[-118.90732,51.33423],[-118.90733,51.33431],[-118.90733,51.33439],[-118.90733,51.33445],[-118.90734,51.33451],[-118.90734,51.33457],[-118.90734,51.33466],[-118.90734,51.33472],[-118.90735,51.33476],[-118.90735,51.33482],[-118.90735,51.33487],[-118.90735,51.33493],[-118.90734,51.33498],[-118.90734,51.33504],[-118.90735,51.33511],[-118.90735,51.3352],[-118.90735,51.33527],[-118.90736,51.33532],[-118.90736,51.33538],[-118.90736,51.33545],[-118.90738,51.33551],[-118.90738,51.33557],[-118.90738,51.33562],[-118.9074,51.33569],[-118.90742,51.33576],[-118.90743,51.33582],[-118.90744,51.33589],[-118.90744,51.33595],[-118.90744,51.33601],[-118.90743,51.33607],[-118.90743,51.33614],[-118.90743,51.33618],[-118.90744,51.33623],[-118.90744,51.33632],[-118.90746,51.33639],[-118.90749,51.33645],[-118.90752,51.33652],[-118.90752,51.33659],[-118.90754,51.33666],[-118.90754,51.3367],[-118.90755,51.33679],[-118.90755,51.33684],[-118.90755,51.33688],[-118.90755,51.33693],[-118.90757,51.33698],[-118.90757,51.33704],[-118.9076,51.33712],[-118.90763,51.3372],[-118.90764,51.33725],[-118.90765,51.33729],[-118.90767,51.33738],[-118.9077,51.33747],[-118.90774,51.33755],[-118.90777,51.33763],[-118.9078,51.33771],[-118.90782,51.33779],[-118.90783,51.33783],[-118.90785,51.33788],[-118.90787,51.33796],[-118.90787,51.33802],[-118.90787,51.33807],[-118.90789,51.33815],[-118.90791,51.33821],[-118.90792,51.33825],[-118.90794,51.33834],[-118.90796,51.33841],[-118.90796,51.33849],[-118.90799,51.33856],[-118.90801,51.33864],[-118.90804,51.33872],[-118.90806,51.33876],[-118.90806,51.33882],[-118.90808,51.33886],[-118.90808,51.33894],[-118.90811,51.33901],[-118.90814,51.33911],[-118.90818,51.3392],[-118.90819,51.33925],[-118.9082,51.3393],[-118.90821,51.33937],[-118.90822,51.33947],[-118.90825,51.33955],[-118.90828,51.33963],[-118.9083,51.33965],[-118.90833,51.33971],[-118.90834,51.33977],[-118.90835,51.33981],[-118.90835,51.33984],[-118.90838,51.3399],[-118.90839,51.33994],[-118.90844,51.34002],[-118.90849,51.34009],[-118.90852,51.34016],[-118.90854,51.34023],[-118.90854,51.3403],[-118.90853,51.34036],[-118.9085,51.34042],[-118.90849,51.34048],[-118.90846,51.34055],[-118.90844,51.34059],[-118.90842,51.34065],[-118.90843,51.34071],[-118.90839,51.34077],[-118.90833,51.34084],[-118.90831,51.3409],[-118.90831,51.34094],[-118.90831,51.34097],[-118.90831,51.341],[-118.90831,51.34105],[-118.9083,51.34111],[-118.90829,51.34116],[-118.90828,51.34121],[-118.90826,51.34126],[-118.90825,51.3413],[-118.90822,51.34135],[-118.90821,51.3414],[-118.9082,51.34146],[-118.90819,51.34151],[-118.90818,51.34158],[-118.90818,51.34164],[-118.90818,51.3417],[-118.90818,51.34176],[-118.90819,51.34183],[-118.9082,51.34189],[-118.90822,51.34194],[-118.90824,51.34199],[-118.90824,51.34201],[-118.90824,51.34205],[-118.90827,51.34212],[-118.9083,51.34218],[-118.90835,51.34224],[-118.90838,51.34232],[-118.90841,51.3424],[-118.90844,51.34246],[-118.90847,51.34251],[-118.9085,51.34256],[-118.90852,51.34262],[-118.90854,51.34269],[-118.90857,51.34277],[-118.90859,51.34284],[-118.9086,51.34293],[-118.90861,51.343],[-118.90862,51.34306],[-118.90866,51.34313],[-118.90869,51.34321],[-118.90872,51.34328],[-118.90875,51.34335],[-118.90878,51.34342],[-118.90883,51.34349],[-118.90886,51.34355],[-118.90891,51.34363],[-118.90892,51.34368],[-118.90894,51.34372],[-118.90896,51.34377],[-118.90899,51.34385],[-118.90903,51.34393],[-118.90908,51.344],[-118.90913,51.34407],[-118.90917,51.34413],[-118.90922,51.34418],[-118.90925,51.34423],[-118.90928,51.34428],[-118.90935,51.34435],[-118.9094,51.34441],[-118.90946,51.34445],[-118.90952,51.34451],[-118.90959,51.34458],[-118.90967,51.34464],[-118.90977,51.34468],[-118.90987,51.34472],[-118.90999,51.34477],[-118.91009,51.34482],[-118.91019,51.34485],[-118.91031,51.34489],[-118.91042,51.34491],[-118.91051,51.34494],[-118.91059,51.34498],[-118.91067,51.34503],[-118.91078,51.34509],[-118.91086,51.34512],[-118.91095,51.34517],[-118.91104,51.34523],[-118.91127,51.3455],[-118.91133,51.34554],[-118.91137,51.34559],[-118.91143,51.34565],[-118.91149,51.34571],[-118.91157,51.34577],[-118.91167,51.34584],[-118.91174,51.34592],[-118.91179,51.34597],[-118.91182,51.34601],[-118.91185,51.34606],[-118.9119,51.3461],[-118.91196,51.34619],[-118.91202,51.34627],[-118.91208,51.34634],[-118.91214,51.34643],[-118.9122,51.34651],[-118.91226,51.34659],[-118.91234,51.34666],[-118.91241,51.34673],[-118.91247,51.3468],[-118.91255,51.34687],[-118.91265,51.34694],[-118.91274,51.34701],[-118.91284,51.34707],[-118.91291,51.34711],[-118.91299,51.34716],[-118.91306,51.34722],[-118.91314,51.34729],[-118.91321,51.34734],[-118.91329,51.3474],[-118.91337,51.34745],[-118.91349,51.34751],[-118.91359,51.34757],[-118.91367,51.34763],[-118.91374,51.34769],[-118.91382,51.34775],[-118.91389,51.34782],[-118.91395,51.34789],[-118.914,51.34797],[-118.91401,51.34802],[-118.91403,51.34807],[-118.91403,51.34813],[-118.91404,51.34817],[-118.91405,51.34822],[-118.91407,51.3483],[-118.9141,51.34838],[-118.91412,51.34846],[-118.91414,51.3485],[-118.91414,51.34856],[-118.91415,51.34861],[-118.91417,51.34865],[-118.91419,51.34874],[-118.91419,51.3488],[-118.91421,51.34887],[-118.91423,51.34894],[-118.91423,51.34902],[-118.91426,51.34911],[-118.91429,51.34919],[-118.91434,51.34925],[-118.9144,51.34932],[-118.91446,51.34937],[-118.91453,51.34942],[-118.91458,51.34948],[-118.91462,51.34954],[-118.91467,51.34959],[-118.91472,51.34966],[-118.91476,51.34972],[-118.91483,51.34978],[-118.91491,51.34981],[-118.915,51.34985],[-118.91508,51.34988],[-118.91517,51.34992],[-118.91524,51.34997],[-118.91535,51.35002],[-118.91542,51.35005],[-118.91549,51.35011],[-118.9156,51.35016],[-118.91571,51.35018],[-118.91582,51.35022],[-118.9159,51.35024],[-118.916,51.35027],[-118.91608,51.3503],[-118.91615,51.35034],[-118.91622,51.35037],[-118.91633,51.35044],[-118.91637,51.35049],[-118.9164,51.35056],[-118.91644,51.35063],[-118.91645,51.35071],[-118.91647,51.35078],[-118.9165,51.35086],[-118.91655,51.35093],[-118.91658,51.351],[-118.91661,51.35106],[-118.91665,51.35109],[-118.91667,51.35111],[-118.91673,51.35117],[-118.91678,51.35124],[-118.91682,51.35128],[-118.91685,51.35134],[-118.9169,51.35141],[-118.91694,51.35146],[-118.91699,51.35151],[-118.91704,51.35158],[-118.91708,51.35164],[-118.91711,51.3517],[-118.91711,51.35176],[-118.91712,51.35183],[-118.91712,51.35189],[-118.91709,51.35195],[-118.91705,51.35201],[-118.91701,51.35206],[-118.917,51.35211],[-118.91702,51.35217],[-118.91705,51.35223],[-118.91707,51.35229],[-118.9171,51.35236],[-118.91711,51.35241],[-118.91713,51.35247],[-118.91716,51.35254],[-118.91721,51.35262],[-118.91725,51.35269],[-118.91729,51.35275],[-118.9173,51.35281],[-118.91733,51.35287],[-118.91737,51.35295],[-118.91738,51.35302],[-118.91741,51.3531],[-118.91745,51.35316],[-118.91749,51.35323],[-118.91754,51.35329],[-118.91758,51.35336],[-118.91761,51.35342],[-118.91765,51.35348],[-118.91768,51.35354],[-118.91769,51.35361],[-118.91771,51.35368],[-118.91772,51.35376],[-118.91772,51.35384],[-118.91772,51.35392],[-118.91773,51.35399],[-118.91773,51.35405],[-118.91773,51.35411],[-118.91773,51.35416],[-118.91773,51.35422],[-118.91777,51.35428],[-118.91778,51.35434],[-118.9178,51.35441],[-118.91782,51.35449],[-118.91783,51.35456],[-118.91787,51.35461],[-118.91791,51.35467],[-118.91793,51.35473],[-118.91793,51.35479],[-118.91793,51.35485],[-118.91795,51.35492],[-118.91798,51.355],[-118.91801,51.35508],[-118.91805,51.35515],[-118.91806,51.35523],[-118.91807,51.35529],[-118.91807,51.35536],[-118.91807,51.35542],[-118.91805,51.35548],[-118.91803,51.35554],[-118.91805,51.35561],[-118.91807,51.35567],[-118.91809,51.35573],[-118.91813,51.35579],[-118.91816,51.35586],[-118.91818,51.35592],[-118.9182,51.35599],[-118.91821,51.35607],[-118.9182,51.35616],[-118.91821,51.35624],[-118.91821,51.35632],[-118.91821,51.3564],[-118.91822,51.35648],[-118.91822,51.35656],[-118.91822,51.35665],[-118.91823,51.35673],[-118.91823,51.35681],[-118.91823,51.35687],[-118.91822,51.35693],[-118.91822,51.35701],[-118.91823,51.35709],[-118.91823,51.35713],[-118.91823,51.35718],[-118.91824,51.35727],[-118.91822,51.35735],[-118.91821,51.35741],[-118.91822,51.35747],[-118.9182,51.35754],[-118.91819,51.35761],[-118.9182,51.35769],[-118.9182,51.35776],[-118.9182,51.35782],[-118.9182,51.3579],[-118.91821,51.35797],[-118.9182,51.35804],[-118.9182,51.35809],[-118.91821,51.35813],[-118.91822,51.35817]]}},
{"type":"Feature","properties":{"spotId":"G-grouse-drive-0025","kind":"roadside","km":5.54,"climbM":101,"name":"190 m N of Seymour River","flags":["Route crosses private land (ParcelMap BC, updated 2026-09-25): get permission first or go around."]},"geometry":{"type":"LineString","coordinates":[[-118.92583,51.26372],[-118.92484,51.26399],[-118.9245,51.26403],[-118.92421,51.26401],[-118.92362,51.26389],[-118.92306,51.26385],[-118.92202,51.26391],[-118.92149,51.26402],[-118.92091,51.26425],[-118.92041,51.26452],[-118.91967,51.26507],[-118.91944,51.2652],[-118.91918,51.26527],[-118.91886,51.2653],[-118.91839,51.26528],[-118.91805,51.26522],[-118.91791,51.2652],[-118.91672,51.26485],[-118.91637,51.26433],[-118.91618,51.26402],[-118.91619,51.26374],[-118.91609,51.26353],[-118.9157,51.26311],[-118.91569,51.26291],[-118.91569,51.26256],[-118.91568,51.26228],[-118.91549,51.26191],[-118.91474,51.26109],[-118.91438,51.26059],[-118.91436,51.26051],[-118.91423,51.26006],[-118.91432,51.25948],[-118.91407,51.25885],[-118.91395,51.25833],[-118.91389,51.25792],[-118.91384,51.25735],[-118.91353,51.2567],[-118.91344,51.25614],[-118.91338,51.25544],[-118.91333,51.25481],[-118.91311,51.25433],[-118.91247,51.25394],[-118.91203,51.25361],[-118.91179,51.2534],[-118.91139,51.25332],[-118.9111,51.25338],[-118.91074,51.25355],[-118.91038,51.25389],[-118.90993,51.25423],[-118.90949,51.2545],[-118.90897,51.25482],[-118.90855,51.25538],[-118.90835,51.25578],[-118.90802,51.25619],[-118.90786,51.25645],[-118.90779,51.25656],[-118.90741,51.257],[-118.90698,51.2576],[-118.90682,51.25791],[-118.90675,51.2581],[-118.90654,51.25828],[-118.90613,51.2587],[-118.90572,51.25935],[-118.90557,51.26024],[-118.90545,51.26131],[-118.90528,51.26216],[-118.90513,51.26266],[-118.90505,51.26307],[-118.90489,51.26368],[-118.9048,51.26411],[-118.90474,51.26468],[-118.90483,51.26577],[-118.90473,51.26636],[-118.90467,51.26672],[-118.90472,51.26715],[-118.90456,51.26788],[-118.90437,51.26856],[-118.90411,51.26942],[-118.90391,51.27027],[-118.90378,51.27119],[-118.90366,51.27223],[-118.90355,51.27309],[-118.90348,51.27336],[-118.9031,51.27389],[-118.90285,51.2746],[-118.90265,51.27524],[-118.90213,51.2761],[-118.90191,51.27655],[-118.90175,51.27673],[-118.90165,51.27712],[-118.90146,51.27752],[-118.90145,51.27779],[-118.90155,51.27816],[-118.90133,51.27842],[-118.90089,51.27873],[-118.90068,51.27882],[-118.89992,51.27918],[-118.89934,51.27946],[-118.89862,51.27981],[-118.8983,51.28017],[-118.89807,51.28037],[-118.89792,51.28061],[-118.89767,51.28097],[-118.89757,51.28135],[-118.89738,51.28153],[-118.8971,51.28171]]}},
{"type":"Feature","properties":{"spotId":"G-grouse-drive-0026","kind":"roadside","km":5.69,"climbM":118,"name":"By Cotton Creek","flags":[]},"geometry":{"type":"LineString","coordinates":[[-118.84324,51.36601],[-118.84316,51.36603],[-118.84308,51.36605],[-118.84299,51.36606],[-118.84289,51.36608],[-118.84279,51.36609],[-118.84272,51.36608],[-118.84263,51.36607],[-118.84255,51.36605],[-118.84246,51.36605],[-118.84236,51.36605],[-118.84227,51.36603],[-118.84218,51.36602],[-118.84206,51.36602],[-118.84194,51.36601],[-118.84184,51.36601],[-118.84176,51.36601],[-118.84166,51.366],[-118.84155,51.36601],[-118.84143,51.36602],[-118.84131,51.36603],[-118.84121,51.36603],[-118.84113,51.36604],[-118.84105,51.36605],[-118.84097,51.36605],[-118.84085,51.36606],[-118.84074,51.36607],[-118.84062,51.36607],[-118.84051,51.36608],[-118.84038,51.36608],[-118.84025,51.36608],[-118.84014,51.36608],[-118.83999,51.36608],[-118.83983,51.36608],[-118.83974,51.36607],[-118.8396,51.36606],[-118.83947,51.36605],[-118.8394,51.36604],[-118.83933,51.36603],[-118.83918,51.36602],[-118.83906,51.36601],[-118.83894,51.366],[-118.83882,51.36599],[-118.83872,51.36599],[-118.83864,51.36597],[-118.83854,51.36595],[-118.83846,51.36593],[-118.83838,51.36591],[-118.8383,51.36588],[-118.8382,51.36583],[-118.83814,51.36578],[-118.8381,51.36572],[-118.83804,51.36566],[-118.83798,51.36559],[-118.83791,51.36551],[-118.83786,51.36546],[-118.83775,51.36541],[-118.83765,51.36536],[-118.83755,51.36531],[-118.83714,51.36519],[-118.83691,51.36515],[-118.83656,51.36514],[-118.83577,51.36515],[-118.83519,51.36518],[-118.83473,51.36523],[-118.83453,51.36528],[-118.83427,51.36538],[-118.83404,51.36562],[-118.83386,51.36587],[-118.83371,51.36605],[-118.83349,51.36622],[-118.83315,51.36643],[-118.8329,51.36665],[-118.83264,51.36694],[-118.8326,51.36701],[-118.8324,51.3673],[-118.83222,51.36752],[-118.83204,51.36768],[-118.8316,51.36783],[-118.83129,51.36788],[-118.83103,51.36784],[-118.83067,51.36769],[-118.83031,51.36751],[-118.83005,51.36745],[-118.82992,51.36741],[-118.82969,51.36737],[-118.8296,51.36736],[-118.82938,51.36737],[-118.82915,51.36735],[-118.82862,51.36741],[-118.82838,51.36741],[-118.82781,51.36725],[-118.82765,51.36709],[-118.82731,51.36684],[-118.82699,51.36676],[-118.82663,51.36678],[-118.82619,51.3669],[-118.82577,51.36692],[-118.82537,51.36683],[-118.82502,51.36674],[-118.8247,51.3667],[-118.82434,51.36667],[-118.82405,51.36662],[-118.82387,51.36661],[-118.82369,51.3666],[-118.82321,51.36649],[-118.82297,51.36641],[-118.82255,51.36643],[-118.82238,51.36646],[-118.82214,51.36658],[-118.82186,51.3667],[-118.82164,51.36676],[-118.82143,51.3668],[-118.82134,51.36679],[-118.82103,51.36673],[-118.82091,51.36673],[-118.82047,51.36674],[-118.81968,51.36683],[-118.81905,51.36696],[-118.81892,51.36699],[-118.81845,51.36711],[-118.81819,51.36727],[-118.81802,51.36739],[-118.81792,51.36744],[-118.81761,51.36754],[-118.81716,51.36756],[-118.81676,51.36746],[-118.8165,51.36745],[-118.81641,51.36747],[-118.81612,51.36756],[-118.81553,51.36773],[-118.81472,51.36784],[-118.81462,51.36786],[-118.81453,51.36788],[-118.81442,51.3679],[-118.81431,51.36794],[-118.81419,51.36796],[-118.81401,51.36802],[-118.81334,51.36822],[-118.81323,51.36824],[-118.81311,51.36826],[-118.81281,51.36826],[-118.81258,51.36827],[-118.81248,51.36829],[-118.81218,51.36838],[-118.8121,51.36842],[-118.812,51.36846],[-118.81152,51.36856],[-118.81143,51.36858],[-118.81122,51.3686],[-118.81109,51.36862],[-118.81099,51.36864],[-118.81089,51.36863],[-118.8108,51.36861],[-118.81071,51.36856],[-118.81062,51.36852],[-118.81053,51.36847],[-118.81049,51.36842],[-118.81035,51.36821],[-118.81027,51.36806],[-118.81024,51.36801],[-118.81018,51.36796],[-118.81014,51.36792],[-118.81009,51.36785],[-118.80991,51.36769],[-118.80986,51.36762],[-118.80979,51.36755],[-118.80973,51.36749],[-118.80965,51.36744],[-118.80956,51.36738],[-118.80945,51.36731],[-118.80934,51.36725],[-118.80925,51.36718],[-118.80916,51.36712],[-118.80909,51.36705],[-118.80903,51.36699],[-118.80897,51.36696],[-118.80894,51.36695],[-118.80886,51.3669],[-118.80876,51.36686],[-118.80866,51.36681],[-118.80854,51.36674],[-118.80841,51.36668],[-118.80831,51.36662],[-118.8082,51.36657],[-118.8081,51.36654],[-118.80801,51.36649],[-118.80794,51.36646],[-118.80784,51.36641],[-118.80777,51.36638],[-118.80766,51.36635],[-118.80758,51.36632],[-118.80749,51.36628],[-118.8074,51.36624],[-118.80731,51.36621],[-118.80728,51.36619],[-118.8072,51.36615],[-118.80707,51.36612],[-118.80695,51.36608],[-118.80686,51.36603],[-118.80677,51.36599],[-118.80667,51.36596],[-118.80656,51.36592],[-118.80645,51.36591],[-118.80632,51.3659],[-118.80622,51.3659],[-118.80617,51.36591],[-118.80605,51.36591],[-118.80597,51.36591],[-118.80588,51.36591],[-118.80578,51.36592],[-118.80571,51.36593],[-118.80562,51.36594],[-118.80548,51.36597],[-118.80537,51.36598],[-118.80528,51.36599],[-118.80519,51.36601],[-118.80509,51.36602],[-118.80501,51.36602],[-118.80491,51.36604],[-118.80482,51.36605],[-118.80471,51.36607],[-118.80458,51.36609],[-118.80445,51.36611],[-118.80437,51.36612],[-118.80425,51.36614],[-118.80417,51.36615],[-118.80404,51.36617],[-118.80392,51.36619],[-118.80381,51.36621],[-118.80369,51.36623],[-118.80357,51.36624],[-118.80349,51.36625],[-118.80335,51.36626],[-118.80325,51.36627],[-118.80316,51.36628],[-118.80304,51.3663],[-118.80291,51.36633],[-118.80284,51.36634],[-118.80275,51.36635],[-118.80268,51.36636],[-118.80261,51.36636],[-118.80252,51.36637],[-118.80244,51.36638],[-118.80236,51.36638],[-118.80229,51.36639],[-118.80222,51.36639],[-118.80215,51.36639],[-118.80206,51.3664],[-118.80198,51.36641],[-118.80191,51.36642],[-118.80183,51.36643],[-118.80175,51.36644],[-118.80168,51.36645],[-118.80159,51.36645],[-118.80152,51.36646],[-118.80145,51.36647],[-118.80132,51.36648],[-118.80118,51.36652],[-118.80111,51.36653],[-118.80102,51.36654],[-118.80092,51.36655],[-118.80083,51.36655],[-118.80073,51.36655],[-118.80065,51.36656],[-118.80058,51.36657],[-118.80049,51.36658],[-118.80036,51.3666],[-118.80026,51.36661],[-118.80016,51.36662],[-118.80003,51.36663],[-118.8,51.36664],[-118.79992,51.36664],[-118.79977,51.36666],[-118.79969,51.36667],[-118.79957,51.36668],[-118.79949,51.36669],[-118.79942,51.3667],[-118.79939,51.36671],[-118.79935,51.36671],[-118.79926,51.36672],[-118.79917,51.36672],[-118.79909,51.36673],[-118.799,51.36673],[-118.79889,51.36673],[-118.79877,51.36674],[-118.79864,51.36676],[-118.79856,51.36676],[-118.79847,51.36677],[-118.79836,51.36678],[-118.79827,51.36679],[-118.79819,51.36679],[-118.79804,51.36679],[-118.79797,51.36679],[-118.79785,51.36678],[-118.79771,51.36679],[-118.7976,51.36678],[-118.7975,51.36677],[-118.79742,51.36676],[-118.79734,51.36675],[-118.79719,51.36674],[-118.79705,51.36672],[-118.79693,51.36672],[-118.79686,51.36672],[-118.79677,51.36672],[-118.79669,51.36671],[-118.7966,51.36671],[-118.7965,51.36671],[-118.79642,51.36671],[-118.79634,51.36671],[-118.79621,51.36671],[-118.79608,51.36671],[-118.796,51.36671],[-118.79593,51.36671],[-118.79583,51.36672],[-118.79574,51.36671],[-118.79565,51.36671],[-118.79557,51.36671],[-118.7955,51.36672],[-118.79535,51.36672],[-118.79522,51.36673],[-118.79509,51.36672],[-118.79502,51.36672],[-118.79495,51.36671],[-118.79488,51.36671],[-118.79479,51.36671],[-118.79465,51.36672],[-118.79452,51.36672],[-118.7944,51.36671],[-118.79427,51.36671],[-118.79415,51.36671],[-118.79407,51.36672],[-118.794,51.36673],[-118.79393,51.36673],[-118.7938,51.36673],[-118.79366,51.36672],[-118.79354,51.36671],[-118.79343,51.36668],[-118.79328,51.36667],[-118.79315,51.36665],[-118.79304,51.36663],[-118.79292,51.36662],[-118.79281,51.3666],[-118.7927,51.36658],[-118.7926,51.36658],[-118.7925,51.36657],[-118.79234,51.36655],[-118.79229,51.36655],[-118.79221,51.36654],[-118.79213,51.36653],[-118.79204,51.36651],[-118.79195,51.3665],[-118.79185,51.36648],[-118.79177,51.36646],[-118.79165,51.36647],[-118.79155,51.36646],[-118.79145,51.36646],[-118.79138,51.36646],[-118.79125,51.36646],[-118.79118,51.36647],[-118.79109,51.36648],[-118.79101,51.36651],[-118.79093,51.36652],[-118.79083,51.36655],[-118.79075,51.36657],[-118.79066,51.3666],[-118.79058,51.36663],[-118.79051,51.36664],[-118.79041,51.36666],[-118.79031,51.36666],[-118.79019,51.36667],[-118.79009,51.36668],[-118.78998,51.3667],[-118.78986,51.36671],[-118.78976,51.36672],[-118.78962,51.36672],[-118.78948,51.36671],[-118.78935,51.36672],[-118.78923,51.36671],[-118.7891,51.36669],[-118.78897,51.36668],[-118.78883,51.36666],[-118.78876,51.36665],[-118.78867,51.36665],[-118.78858,51.36664],[-118.7884,51.36663],[-118.78827,51.36662],[-118.78819,51.36662],[-118.78811,51.36662],[-118.78804,51.36662],[-118.78795,51.36661],[-118.78788,51.36661],[-118.78781,51.36661],[-118.78766,51.36661],[-118.78755,51.36661],[-118.78742,51.3666],[-118.78733,51.3666],[-118.78726,51.3666],[-118.78713,51.3666],[-118.78706,51.3666],[-118.78699,51.3666],[-118.78684,51.36661],[-118.78671,51.36661],[-118.78661,51.36663],[-118.78653,51.36666],[-118.78644,51.36669],[-118.78634,51.3667],[-118.78626,51.36672],[-118.78614,51.36673],[-118.78601,51.36673],[-118.78593,51.36672],[-118.78581,51.36673],[-118.78573,51.36673],[-118.78564,51.36672],[-118.78554,51.36672],[-118.78544,51.36672],[-118.78532,51.36671],[-118.78524,51.36672],[-118.78515,51.36671],[-118.78505,51.36669],[-118.78494,51.36668],[-118.78485,51.36667],[-118.78476,51.36665],[-118.78468,51.36664],[-118.78459,51.36664],[-118.78449,51.36662],[-118.78439,51.3666],[-118.7843,51.36658],[-118.78423,51.36655],[-118.78414,51.36653],[-118.78405,51.36652],[-118.78394,51.36651],[-118.78382,51.3665],[-118.78372,51.36651],[-118.78364,51.3665],[-118.78356,51.3665],[-118.78348,51.3665],[-118.78339,51.36649],[-118.78329,51.3665],[-118.78321,51.36651],[-118.78313,51.36652],[-118.78303,51.36655],[-118.78293,51.36657],[-118.78282,51.36657],[-118.7827,51.36657],[-118.78259,51.36658],[-118.78249,51.36658],[-118.78245,51.36659],[-118.78237,51.36659],[-118.78227,51.3666],[-118.78217,51.36661],[-118.7821,51.36662],[-118.782,51.36664],[-118.7819,51.36665],[-118.78179,51.36666],[-118.78169,51.36667],[-118.78159,51.36668],[-118.78152,51.36668],[-118.78143,51.36668],[-118.78134,51.36668],[-118.78126,51.36668],[-118.78116,51.36669],[-118.78104,51.3667],[-118.78091,51.36671],[-118.78078,51.36671],[-118.78066,51.36671],[-118.78056,51.36672],[-118.78044,51.36673],[-118.78035,51.36674],[-118.78028,51.36674],[-118.7802,51.36674],[-118.78012,51.36673],[-118.78004,51.36673],[-118.77995,51.36673],[-118.77988,51.36674],[-118.77975,51.36675],[-118.77964,51.36675],[-118.77957,51.36676],[-118.77948,51.36676],[-118.77942,51.36677],[-118.77935,51.36678],[-118.77921,51.36679],[-118.77909,51.36681],[-118.77899,51.36683],[-118.77888,51.36685],[-118.77872,51.36687],[-118.77864,51.36688],[-118.77854,51.36689],[-118.77842,51.3669],[-118.77831,51.36692],[-118.77819,51.36694],[-118.77809,51.36696],[-118.77801,51.36698],[-118.77792,51.36699],[-118.77785,51.36699],[-118.77776,51.36699],[-118.77769,51.36699],[-118.77759,51.36699],[-118.77749,51.36696],[-118.77739,51.36694],[-118.77729,51.36692],[-118.77721,51.3669],[-118.77713,51.36689],[-118.77703,51.36688],[-118.77691,51.36686],[-118.7768,51.36684],[-118.77667,51.36684],[-118.77659,51.36683],[-118.77646,51.36681],[-118.77633,51.36681],[-118.77622,51.3668],[-118.77609,51.3668],[-118.77602,51.36679],[-118.77593,51.36679],[-118.77582,51.36678],[-118.77572,51.36677],[-118.77559,51.36676],[-118.77544,51.36676],[-118.7753,51.36676],[-118.77523,51.36675],[-118.77514,51.36675],[-118.775,51.36675],[-118.77487,51.36675],[-118.77475,51.36675],[-118.77464,51.36675],[-118.77452,51.36676],[-118.77441,51.36677],[-118.77428,51.36677],[-118.77418,51.36678],[-118.77409,51.36678],[-118.77402,51.36678],[-118.77389,51.36678],[-118.77379,51.3668],[-118.77372,51.36681],[-118.77364,51.36683],[-118.77354,51.36685],[-118.77342,51.36687],[-118.77331,51.36688],[-118.77321,51.36689],[-118.77312,51.36691],[-118.77304,51.36693],[-118.77294,51.36694],[-118.77284,51.36695],[-118.77275,51.36697],[-118.77265,51.36699],[-118.77258,51.36701],[-118.77249,51.36704],[-118.77238,51.36707],[-118.77231,51.36709],[-118.77225,51.36709],[-118.77222,51.3671],[-118.77215,51.3671],[-118.77207,51.3671],[-118.77198,51.3671],[-118.77191,51.3671],[-118.77181,51.3671],[-118.77169,51.36709],[-118.77158,51.36709],[-118.77149,51.36709],[-118.77139,51.36709],[-118.77129,51.36708],[-118.77119,51.36708],[-118.7711,51.36708],[-118.771,51.36708],[-118.7709,51.36708],[-118.77077,51.36708],[-118.77067,51.36708],[-118.77056,51.36709],[-118.77044,51.36709],[-118.77033,51.3671],[-118.77024,51.36712],[-118.77014,51.36714],[-118.77003,51.36716],[-118.76993,51.36717],[-118.76981,51.36719],[-118.76971,51.36721],[-118.76961,51.36724],[-118.76951,51.36727],[-118.76943,51.3673],[-118.76934,51.36732],[-118.76926,51.36733],[-118.76916,51.36734],[-118.76909,51.36734],[-118.76897,51.36735],[-118.76887,51.36736],[-118.76876,51.36737]]}},
{"type":"Feature","properties":{"spotId":"G-grouse-drive-0071","kind":"roadside","km":5.26,"climbM":296,"name":"2.5 km E of Cayenne Creek","flags":[]},"geometry":{"type":"LineString","coordinates":[[-118.99873,51.46632],[-118.99869,51.46654],[-118.99867,51.46671],[-118.99852,51.46679],[-118.99819,51.46683],[-118.99765,51.46685],[-118.99717,51.46689],[-118.99664,51.467],[-118.996,51.46719],[-118.9956,51.46731],[-118.99522,51.46748],[-118.99474,51.46766],[-118.99436,51.46788],[-118.99373,51.46826],[-118.99284,51.46878],[-118.99224,51.46914],[-118.99186,51.46937],[-118.99169,51.46944],[-118.99138,51.46953],[-118.99115,51.46956],[-118.99087,51.46948],[-118.99045,51.46941],[-118.98992,51.46936],[-118.98947,51.46936],[-118.98908,51.4694],[-118.98874,51.46946],[-118.9884,51.46957],[-118.98806,51.46969],[-118.9879,51.46977],[-118.98772,51.46988],[-118.98758,51.47001],[-118.98754,51.4703],[-118.98738,51.4707],[-118.98719,51.47093],[-118.98701,51.47113],[-118.98673,51.47133],[-118.98651,51.4714],[-118.98617,51.47149],[-118.98587,51.47155],[-118.98557,51.47164],[-118.98529,51.47182],[-118.985,51.47215],[-118.98489,51.47239],[-118.98467,51.47277],[-118.98447,51.47327],[-118.98441,51.47356],[-118.98436,51.47375],[-118.98439,51.47402],[-118.98429,51.47436],[-118.98416,51.47473],[-118.984,51.4751],[-118.98401,51.47535],[-118.98405,51.47536],[-118.98425,51.47543],[-118.98464,51.47548],[-118.98508,51.47542],[-118.98557,51.47535],[-118.98608,51.47519],[-118.98701,51.47498],[-118.98755,51.47491],[-118.98792,51.47479],[-118.98829,51.47469],[-118.98877,51.47434],[-118.989,51.47416],[-118.98924,51.47404],[-118.98944,51.47393],[-118.98971,51.47389],[-118.99031,51.47374],[-118.99097,51.47364],[-118.99155,51.47355],[-118.99214,51.47345],[-118.99248,51.47341],[-118.9928,51.47342],[-118.99309,51.47341],[-118.99339,51.47348],[-118.99374,51.47358],[-118.99442,51.47378],[-118.99497,51.47393],[-118.99526,51.4741],[-118.99552,51.47429],[-118.99562,51.47437],[-118.99572,51.4746],[-118.99554,51.47515],[-118.99525,51.47565],[-118.99495,51.47584],[-118.9942,51.47618],[-118.99381,51.47646],[-118.99352,51.47663],[-118.99321,51.47685],[-118.99291,51.47727],[-118.99283,51.47753],[-118.99289,51.47772],[-118.99301,51.47785],[-118.99274,51.47818],[-118.99237,51.47859],[-118.99205,51.47876],[-118.9909,51.47913],[-118.99011,51.47945],[-118.98922,51.47981],[-118.98858,51.48011],[-118.98813,51.48035],[-118.98775,51.48065],[-118.98726,51.48105],[-118.98689,51.48142],[-118.98663,51.48168],[-118.98629,51.48189],[-118.98589,51.48207],[-118.9854,51.48217],[-118.985,51.48221],[-118.98397,51.48229],[-118.98343,51.48228],[-118.98281,51.4822],[-118.9822,51.48209],[-118.98136,51.48206],[-118.98093,51.48208],[-118.98042,51.48217],[-118.97981,51.48237],[-118.97928,51.48253],[-118.97891,51.48264],[-118.97866,51.48279],[-118.97815,51.48319],[-118.97812,51.4832],[-118.97794,51.48335],[-118.97759,51.48343],[-118.97723,51.48344],[-118.97676,51.48335],[-118.97648,51.48332],[-118.97622,51.48324],[-118.97601,51.48314],[-118.97589,51.48301],[-118.97558,51.48283],[-118.97523,51.48266],[-118.97491,51.48248],[-118.97452,51.48231],[-118.97382,51.48197],[-118.97343,51.48188],[-118.97305,51.48187],[-118.97273,51.48193],[-118.97231,51.482],[-118.9721,51.48195],[-118.97198,51.48182],[-118.97172,51.48168],[-118.97119,51.48156],[-118.97085,51.48143],[-118.97063,51.48134],[-118.9703,51.481],[-118.97015,51.48083],[-118.96998,51.48051],[-118.9699,51.48038],[-118.96964,51.48021],[-118.96944,51.47997],[-118.96924,51.4798],[-118.96907,51.47964],[-118.96877,51.47958],[-118.9685,51.47959],[-118.96779,51.47946],[-118.96725,51.47937],[-118.9671,51.47927]]}},
{"type":"Feature","properties":{"spotId":"G-moose-atv-0001","kind":"ride","km":4.76,"climbM":33,"name":"860 m W of Seymour River","flags":[]},"geometry":{"type":"LineString","coordinates":[[-118.9146,51.30213],[-118.91445,51.30215],[-118.91417,51.3022],[-118.91328,51.30224],[-118.91221,51.30222],[-118.91168,51.30215],[-118.91119,51.30195],[-118.91116,51.30182],[-118.91094,51.3015],[-118.91074,51.30123],[-118.91065,51.30098],[-118.91073,51.30063],[-118.91099,51.30009],[-118.91127,51.29978],[-118.91154,51.29956],[-118.91172,51.29933],[-118.91198,51.29901],[-118.91237,51.29886],[-118.91288,51.29875],[-118.91323,51.29857],[-118.91392,51.29836],[-118.91421,51.29821],[-118.91441,51.29797],[-118.91452,51.29775],[-118.91444,51.29743],[-118.91429,51.29717],[-118.9142,51.29679],[-118.9142,51.2963],[-118.91432,51.29589],[-118.91448,51.29546],[-118.91463,51.29517],[-118.91488,51.295],[-118.91526,51.29475],[-118.91551,51.29456],[-118.91569,51.2944],[-118.91575,51.29409],[-118.9159,51.29379],[-118.91605,51.29356],[-118.9163,51.29341],[-118.91652,51.29318],[-118.91664,51.29289],[-118.91684,51.29257],[-118.91734,51.29199],[-118.91764,51.2916],[-118.91786,51.29135],[-118.91789,51.29107],[-118.91795,51.29072],[-118.91795,51.2904],[-118.91799,51.29001],[-118.91811,51.28973],[-118.9183,51.2895],[-118.91848,51.28928],[-118.91858,51.2891],[-118.91865,51.28898],[-118.91871,51.28886],[-118.91873,51.28871],[-118.91879,51.28857],[-118.91886,51.2884],[-118.91897,51.2883],[-118.91899,51.28819],[-118.919,51.28797],[-118.91897,51.28777],[-118.91891,51.28758],[-118.91885,51.28743],[-118.91883,51.28726],[-118.91882,51.28709],[-118.91882,51.28689],[-118.91876,51.28661],[-118.91868,51.28631],[-118.91863,51.2859],[-118.91863,51.28567],[-118.91862,51.28546],[-118.91861,51.28527],[-118.91864,51.28511],[-118.91861,51.28498],[-118.91852,51.28486],[-118.91836,51.28477],[-118.91815,51.28468],[-118.91788,51.28455],[-118.91769,51.28449],[-118.91751,51.28432],[-118.91736,51.28413],[-118.91727,51.28402],[-118.91717,51.28393],[-118.91697,51.28387],[-118.91677,51.28381],[-118.91656,51.28376],[-118.91643,51.28367],[-118.91637,51.28357],[-118.91637,51.28343],[-118.91639,51.28326],[-118.91644,51.28312],[-118.91652,51.28295],[-118.91654,51.28279],[-118.91663,51.28267],[-118.9168,51.28256],[-118.91696,51.28244],[-118.91703,51.28232],[-118.9171,51.28208],[-118.91722,51.28179],[-118.91724,51.28164],[-118.91719,51.28141],[-118.91717,51.2812],[-118.91705,51.28087],[-118.91697,51.28057],[-118.91684,51.28024],[-118.91672,51.27993],[-118.9166,51.27968],[-118.91645,51.27948],[-118.91631,51.27932],[-118.9163,51.27917],[-118.91638,51.27895],[-118.91643,51.27874],[-118.91651,51.27834],[-118.91664,51.27814],[-118.91679,51.27798],[-118.9169,51.27785],[-118.9169,51.2777],[-118.91684,51.27759],[-118.91665,51.27745],[-118.91644,51.27739],[-118.91618,51.27736],[-118.91581,51.27736],[-118.91562,51.27735],[-118.91545,51.27731],[-118.91533,51.27727],[-118.91527,51.27715],[-118.91526,51.27696],[-118.91533,51.27671],[-118.9155,51.27642],[-118.91565,51.2762],[-118.91578,51.27591],[-118.91589,51.27544],[-118.91599,51.27515],[-118.91605,51.27485],[-118.91613,51.27451],[-118.91619,51.27449],[-118.91626,51.27444],[-118.91629,51.27436],[-118.91631,51.27428],[-118.91632,51.27422],[-118.91633,51.27417],[-118.91635,51.27412],[-118.91634,51.27406],[-118.91636,51.274],[-118.91637,51.27395],[-118.91638,51.27389],[-118.91639,51.27384],[-118.91641,51.2738],[-118.91642,51.27374],[-118.91643,51.27369],[-118.91644,51.27363],[-118.91645,51.27356],[-118.91645,51.2735],[-118.91646,51.27344],[-118.91646,51.27338],[-118.91647,51.27332],[-118.91648,51.27326],[-118.91648,51.27321],[-118.91649,51.27316],[-118.91649,51.27311],[-118.91649,51.27307],[-118.91649,51.27301],[-118.91648,51.27295],[-118.91647,51.27289],[-118.91646,51.27282],[-118.91646,51.27276],[-118.91645,51.2727],[-118.91644,51.27264],[-118.91646,51.27259],[-118.91645,51.27253],[-118.91646,51.27247],[-118.91646,51.27243],[-118.91647,51.27237],[-118.91647,51.27232],[-118.91648,51.27226],[-118.91648,51.2722],[-118.91648,51.27215],[-118.91648,51.27209],[-118.91647,51.27203],[-118.91649,51.27197],[-118.91648,51.27192],[-118.91648,51.27186],[-118.91649,51.27178],[-118.91651,51.27173],[-118.9165,51.27169],[-118.91652,51.27163],[-118.91653,51.27157],[-118.91654,51.27151],[-118.91655,51.27145],[-118.91656,51.27139],[-118.91657,51.2713],[-118.91657,51.27125],[-118.91658,51.27117],[-118.91658,51.27112],[-118.91659,51.27106],[-118.9165,51.27099],[-118.91638,51.27085],[-118.91635,51.27079],[-118.91632,51.27073],[-118.9163,51.27068],[-118.91629,51.27061],[-118.91627,51.27056],[-118.91625,51.27051],[-118.91625,51.27045],[-118.91626,51.2704],[-118.91628,51.27035],[-118.91632,51.27028],[-118.91638,51.27021],[-118.91645,51.27013],[-118.91651,51.27007],[-118.91658,51.26999],[-118.9166,51.26994],[-118.91663,51.2699],[-118.91666,51.26983],[-118.91667,51.26978],[-118.91669,51.26969],[-118.91672,51.26961],[-118.91673,51.26955],[-118.91673,51.26949],[-118.91673,51.26943],[-118.91671,51.26937],[-118.91668,51.26927],[-118.91666,51.26921],[-118.91666,51.26917],[-118.91664,51.26912],[-118.91662,51.26907],[-118.91661,51.26901],[-118.91659,51.26895],[-118.91659,51.26888],[-118.91657,51.26882],[-118.91657,51.26874],[-118.91657,51.26868],[-118.91656,51.26861],[-118.91656,51.26854],[-118.91656,51.26847],[-118.91655,51.26841],[-118.91655,51.26834],[-118.91653,51.26828],[-118.91653,51.26821],[-118.91653,51.26815],[-118.91651,51.26806],[-118.91651,51.268],[-118.91651,51.26793],[-118.9165,51.26784],[-118.9165,51.26777],[-118.9165,51.26773],[-118.9165,51.26771],[-118.91649,51.26764],[-118.91649,51.26759],[-118.91649,51.26753],[-118.91647,51.26746],[-118.91647,51.26739],[-118.91647,51.26732],[-118.91645,51.26726],[-118.91645,51.26719],[-118.91644,51.26713],[-118.91643,51.26707],[-118.91641,51.26701],[-118.91641,51.26695],[-118.91639,51.2669],[-118.91639,51.26684],[-118.91639,51.26678],[-118.91637,51.26673],[-118.91637,51.26667],[-118.91635,51.26662],[-118.91633,51.26657],[-118.91632,51.26651],[-118.9163,51.26646],[-118.91628,51.2664],[-118.91627,51.26633],[-118.91625,51.26628],[-118.91623,51.26623],[-118.91622,51.26617],[-118.91621,51.26611],[-118.91623,51.26604],[-118.91624,51.26595],[-118.91625,51.2659],[-118.91626,51.26584],[-118.91627,51.26578],[-118.91628,51.26572],[-118.91631,51.26566],[-118.91632,51.2656],[-118.91635,51.26555],[-118.91639,51.26549],[-118.91641,51.26543],[-118.91645,51.26538],[-118.91649,51.26532],[-118.9165,51.2653]]}},
{"type":"Feature","properties":{"spotId":"G-moose-atv-0001","kind":"walk","km":0.04,"climbM":5,"name":"860 m W of Seymour River","flags":[]},"geometry":{"type":"LineString","coordinates":[[-118.9146,51.30213],[-118.91471,51.30248]]}},
{"type":"Feature","properties":{"spotId":"G-moose-atv-0002","kind":"ride","km":7.26,"climbM":241,"name":"520 m W of McNomee Creek","flags":[]},"geometry":{"type":"LineString","coordinates":[[-118.94584,51.30094],[-118.94591,51.30089],[-118.94598,51.30084],[-118.94605,51.30078],[-118.94608,51.30076],[-118.94613,51.30072],[-118.9462,51.3007],[-118.94629,51.30066],[-118.94636,51.30062],[-118.94644,51.30058],[-118.94654,51.30055],[-118.94662,51.3005],[-118.94672,51.30045],[-118.94679,51.30039],[-118.94688,51.30033],[-118.94695,51.30027],[-118.94703,51.30022],[-118.94711,51.30018],[-118.94718,51.30013],[-118.94728,51.30009],[-118.94735,51.30008],[-118.94744,51.30006],[-118.94751,51.30004],[-118.9476,51.30003],[-118.94765,51.30003],[-118.94777,51.3],[-118.94831,51.29988],[-118.94839,51.29983],[-118.94846,51.2998],[-118.94853,51.29978],[-118.94862,51.29974],[-118.94863,51.29972],[-118.94871,51.29967],[-118.94877,51.29962],[-118.94882,51.29956],[-118.94888,51.29951],[-118.94892,51.29946],[-118.94896,51.29939],[-118.949,51.29933],[-118.94904,51.29927],[-118.9491,51.29923],[-118.94917,51.29917],[-118.94925,51.29912],[-118.9493,51.29905],[-118.94937,51.29898],[-118.94941,51.29889],[-118.94944,51.29884],[-118.94946,51.29879],[-118.94952,51.29871],[-118.94956,51.29866],[-118.94963,51.29858],[-118.94967,51.2985],[-118.94972,51.29842],[-118.94975,51.29836],[-118.94976,51.29831],[-118.94979,51.29826],[-118.9498,51.29821],[-118.94981,51.29816],[-118.94985,51.29808],[-118.94988,51.29801],[-118.9499,51.29794],[-118.94994,51.29787],[-118.94997,51.29781],[-118.95001,51.29775],[-118.95002,51.2977],[-118.95002,51.29765],[-118.95005,51.29759],[-118.95006,51.29755],[-118.95007,51.29749],[-118.95008,51.29744],[-118.95009,51.29739],[-118.95012,51.29735],[-118.95015,51.2973],[-118.9502,51.29724],[-118.95023,51.29719],[-118.95027,51.29712],[-118.95031,51.29707],[-118.95035,51.297],[-118.95039,51.29694],[-118.95043,51.29688],[-118.95048,51.2968],[-118.95057,51.29673],[-118.95064,51.29666],[-118.95072,51.29659],[-118.95078,51.29655],[-118.95083,51.2965],[-118.95091,51.29645],[-118.95112,51.29633],[-118.95128,51.29627],[-118.95134,51.29622],[-118.95139,51.29617],[-118.95145,51.29612],[-118.95149,51.29606],[-118.95153,51.296],[-118.95157,51.29594],[-118.95161,51.29588],[-118.95163,51.2958],[-118.95166,51.29574],[-118.95168,51.29567],[-118.95171,51.2956],[-118.95174,51.29551],[-118.95175,51.29545],[-118.95176,51.29538],[-118.95179,51.29532],[-118.9518,51.29526],[-118.95182,51.29522],[-118.95186,51.29516],[-118.95191,51.29512],[-118.95196,51.29505],[-118.952,51.29501],[-118.95204,51.29495],[-118.95211,51.29489],[-118.95219,51.29482],[-118.95228,51.29479],[-118.95235,51.29474],[-118.9524,51.29469],[-118.95249,51.29461],[-118.95253,51.29457],[-118.95261,51.29452],[-118.95267,51.29447],[-118.95274,51.29442],[-118.95282,51.29436],[-118.95289,51.29431],[-118.95296,51.29425],[-118.95301,51.29419],[-118.95308,51.29411],[-118.95314,51.29403],[-118.95316,51.29399],[-118.95323,51.29391],[-118.95326,51.29383],[-118.9533,51.29375],[-118.95338,51.29368],[-118.95343,51.29363],[-118.95352,51.29357],[-118.95359,51.29351],[-118.95367,51.29346],[-118.95375,51.2934],[-118.95385,51.29334],[-118.95396,51.29326],[-118.95406,51.29319],[-118.95414,51.29312],[-118.95421,51.29304],[-118.95428,51.29297],[-118.95434,51.2929],[-118.95439,51.29282],[-118.95442,51.29276],[-118.95446,51.29271],[-118.95448,51.29266],[-118.95452,51.29257],[-118.95455,51.29253],[-118.9546,51.29245],[-118.95466,51.29238],[-118.95471,51.29231],[-118.95475,51.29224],[-118.95478,51.29219],[-118.95482,51.29214],[-118.95489,51.29207],[-118.95494,51.29203],[-118.95498,51.29196],[-118.95503,51.29191],[-118.95508,51.29183],[-118.95509,51.29178],[-118.95512,51.29173],[-118.95514,51.29166],[-118.9552,51.29159],[-118.95527,51.29153],[-118.95532,51.29145],[-118.95538,51.29137],[-118.95542,51.29132],[-118.95546,51.29125],[-118.95551,51.2912],[-118.95557,51.29112],[-118.95562,51.29105],[-118.95569,51.29098],[-118.95576,51.29091],[-118.95578,51.29085],[-118.95584,51.29079],[-118.95585,51.29074],[-118.95588,51.29069],[-118.9559,51.29064],[-118.95596,51.29056],[-118.95601,51.2905],[-118.95607,51.29043],[-118.95612,51.29035],[-118.9562,51.29028],[-118.95627,51.29022],[-118.95634,51.29015],[-118.9564,51.29008],[-118.95646,51.28999],[-118.95648,51.28994],[-118.95652,51.28987],[-118.95656,51.2898],[-118.95661,51.28972],[-118.95666,51.28966],[-118.95673,51.28959],[-118.9568,51.28951],[-118.95687,51.28946],[-118.95694,51.28941],[-118.95701,51.28936],[-118.95708,51.28929],[-118.95715,51.28924],[-118.95722,51.28918],[-118.95729,51.28912],[-118.95739,51.28907],[-118.95748,51.28902],[-118.95758,51.28895],[-118.95764,51.28889],[-118.95768,51.28881],[-118.95772,51.28873],[-118.95777,51.28864],[-118.95784,51.28856],[-118.95786,51.28851],[-118.95792,51.28843],[-118.95797,51.28835],[-118.95801,51.28826],[-118.95805,51.28818],[-118.95808,51.28813],[-118.95812,51.28809],[-118.9582,51.28802],[-118.95826,51.28797],[-118.9583,51.28792],[-118.95838,51.28784],[-118.95842,51.28779],[-118.95846,51.28774],[-118.9585,51.28769],[-118.95853,51.28765],[-118.95856,51.28759],[-118.95857,51.28754],[-118.95858,51.28749],[-118.95859,51.28743],[-118.95862,51.28734],[-118.95864,51.2873],[-118.95871,51.28721],[-118.95881,51.28716],[-118.9589,51.28714],[-118.95898,51.28711],[-118.95907,51.28708],[-118.95915,51.28704],[-118.95923,51.28698],[-118.95932,51.2869],[-118.95937,51.28685],[-118.95945,51.28676],[-118.95951,51.28669],[-118.95956,51.28661],[-118.95957,51.28656],[-118.95959,51.28651],[-118.9596,51.28646],[-118.95961,51.28642],[-118.95961,51.28637],[-118.95961,51.28632],[-118.9596,51.28626],[-118.9596,51.28622],[-118.9596,51.28617],[-118.9596,51.28613],[-118.95961,51.28608],[-118.95961,51.286],[-118.9596,51.28591],[-118.95958,51.28581],[-118.95957,51.28577],[-118.95955,51.28572],[-118.95954,51.28568],[-118.95954,51.28566],[-118.95947,51.28557],[-118.9594,51.2855],[-118.95933,51.28546],[-118.95924,51.28542],[-118.95914,51.28539],[-118.95902,51.28535],[-118.95895,51.28532],[-118.9589,51.2853],[-118.9588,51.28525],[-118.95876,51.2852],[-118.95872,51.28513],[-118.95872,51.28507],[-118.95871,51.28503],[-118.9587,51.28497],[-118.95871,51.28491],[-118.95874,51.28486],[-118.95893,51.28467],[-118.95916,51.28457],[-118.95942,51.2845],[-118.95967,51.28446],[-118.96,51.28438],[-118.95995,51.28432],[-118.95985,51.2843],[-118.95932,51.28421],[-118.9592,51.28418],[-118.95911,51.28417],[-118.95904,51.28416],[-118.95897,51.28415],[-118.95888,51.28415],[-118.95875,51.28416],[-118.95864,51.28419],[-118.95853,51.28424],[-118.95843,51.2843],[-118.9583,51.28436],[-118.95819,51.28443],[-118.95807,51.28449],[-118.95792,51.28455],[-118.95781,51.28461],[-118.95771,51.28467],[-118.95763,51.28471],[-118.95752,51.28478],[-118.95742,51.28482],[-118.95731,51.28485],[-118.95719,51.28492],[-118.9571,51.28499],[-118.95703,51.28507],[-118.95697,51.28514],[-118.95688,51.28521],[-118.95678,51.28529],[-118.95673,51.28536],[-118.95669,51.28541],[-118.95663,51.28549],[-118.9566,51.28554],[-118.95656,51.28559],[-118.95648,51.28568],[-118.95645,51.28572],[-118.95641,51.28577],[-118.95636,51.28586],[-118.95632,51.28591],[-118.95631,51.28597],[-118.95628,51.28601],[-118.95624,51.2861],[-118.95623,51.28614],[-118.95618,51.28623],[-118.95615,51.28629],[-118.95611,51.28633],[-118.95608,51.28639],[-118.95604,51.28644],[-118.95594,51.28653],[-118.95583,51.28661],[-118.95576,51.28665],[-118.95567,51.28673],[-118.95558,51.28681],[-118.9555,51.28688],[-118.95546,51.28693],[-118.95536,51.28702],[-118.95532,51.28706],[-118.95528,51.28711],[-118.95518,51.2872],[-118.95509,51.28727],[-118.95505,51.28732],[-118.95495,51.2874],[-118.95489,51.28745],[-118.95485,51.2875],[-118.95481,51.28755],[-118.95477,51.28759],[-118.95474,51.28765],[-118.95468,51.28774],[-118.95459,51.28782],[-118.95457,51.28787],[-118.9545,51.28796],[-118.95444,51.28801],[-118.95434,51.28802],[-118.95433,51.28793],[-118.95434,51.28789],[-118.95435,51.28784],[-118.95439,51.28776],[-118.95442,51.2877],[-118.95443,51.28765],[-118.95445,51.2876],[-118.95447,51.28754],[-118.95449,51.28747],[-118.95452,51.28742],[-118.95455,51.28736],[-118.95456,51.28731],[-118.95458,51.28727],[-118.95461,51.28721],[-118.95464,51.28715],[-118.95469,51.28706],[-118.95476,51.28697],[-118.95478,51.28693],[-118.95484,51.28688],[-118.95492,51.2868],[-118.95499,51.28671],[-118.95503,51.28666],[-118.95506,51.28661],[-118.95511,51.28652],[-118.95512,51.28644],[-118.95512,51.28639],[-118.95513,51.28631],[-118.95513,51.28626],[-118.95513,51.28616],[-118.95512,51.28611],[-118.95514,51.28606],[-118.95513,51.28601],[-118.95513,51.28596],[-118.95514,51.2859],[-118.95514,51.28582],[-118.95515,51.28574],[-118.95515,51.28565],[-118.95514,51.2856],[-118.95514,51.28556],[-118.95514,51.28548],[-118.95514,51.28543],[-118.95513,51.28538],[-118.95506,51.2853],[-118.95496,51.2853],[-118.95488,51.28534],[-118.95481,51.2854],[-118.95475,51.28547],[-118.95471,51.28555],[-118.95467,51.28563],[-118.95465,51.28571],[-118.95461,51.2858],[-118.95457,51.28588],[-118.95454,51.28595],[-118.95452,51.28602],[-118.95448,51.2861],[-118.95445,51.28617],[-118.95433,51.28629],[-118.95421,51.28646],[-118.95414,51.28651],[-118.95407,51.28654],[-118.95399,51.28656],[-118.95392,51.28658],[-118.95382,51.28661],[-118.95375,51.28664],[-118.95364,51.28667],[-118.95353,51.28668],[-118.9534,51.28669],[-118.95331,51.28669],[-118.95323,51.28668],[-118.95312,51.28665],[-118.95301,51.28661],[-118.9529,51.28656],[-118.9528,51.28649],[-118.95271,51.28643],[-118.95264,51.28638],[-118.95258,51.28633],[-118.95253,51.28626],[-118.9525,51.28617],[-118.95247,51.2861],[-118.95245,51.28605],[-118.95242,51.28601],[-118.95239,51.28593],[-118.95236,51.28585],[-118.95233,51.28578],[-118.9523,51.28571],[-118.95228,51.28565],[-118.95228,51.28559],[-118.95227,51.28552],[-118.95228,51.28547],[-118.95234,51.28542],[-118.95242,51.28538],[-118.9525,51.28536],[-118.95258,51.28535],[-118.95267,51.28533],[-118.95275,51.28529],[-118.95281,51.28524],[-118.95282,51.28517],[-118.9528,51.2851],[-118.95277,51.28505],[-118.9527,51.28499],[-118.95261,51.28498],[-118.95252,51.285],[-118.95245,51.28503],[-118.95235,51.28509],[-118.95229,51.28515],[-118.9522,51.28521],[-118.95212,51.28526],[-118.95203,51.28532],[-118.95192,51.28536],[-118.95179,51.28539],[-118.95167,51.28543],[-118.95155,51.28547],[-118.95143,51.2855],[-118.95135,51.28552],[-118.95123,51.28553],[-118.95113,51.28552],[-118.95102,51.28548],[-118.95098,51.28541],[-118.95092,51.28534],[-118.95086,51.28527],[-118.95077,51.2852],[-118.95069,51.28514],[-118.95061,51.28511],[-118.9505,51.28507],[-118.9504,51.28503],[-118.9503,51.28501],[-118.95017,51.28501],[-118.95006,51.28502],[-118.94994,51.28503],[-118.94984,51.28505],[-118.94973,51.28508],[-118.94962,51.28511],[-118.9495,51.28513],[-118.94939,51.28515],[-118.94928,51.28519],[-118.94915,51.28523],[-118.94902,51.28527],[-118.94892,51.28533],[-118.94881,51.28539],[-118.9487,51.28544],[-118.9486,51.28551],[-118.94849,51.28558],[-118.94836,51.28562],[-118.94823,51.28565],[-118.94816,51.28566],[-118.94806,51.28567],[-118.94799,51.28566],[-118.94789,51.28564],[-118.94786,51.28563],[-118.94773,51.2856],[-118.94761,51.28555],[-118.9475,51.28551],[-118.94738,51.28549],[-118.94722,51.28549],[-118.94711,51.28549],[-118.94702,51.28549],[-118.94692,51.28548],[-118.94678,51.28545],[-118.94669,51.28545],[-118.94658,51.28546],[-118.94649,51.28546],[-118.94645,51.28546],[-118.94633,51.28545],[-118.94622,51.28545],[-118.9461,51.28545],[-118.946,51.28546],[-118.9459,51.28546],[-118.94577,51.28548],[-118.94568,51.28552],[-118.94563,51.28556],[-118.94561,51.28561],[-118.9456,51.28566],[-118.94561,51.28571],[-118.94561,51.28576],[-118.94562,51.28581],[-118.94562,51.28588],[-118.94564,51.28593],[-118.94564,51.286],[-118.94564,51.28606],[-118.94566,51.2861],[-118.94565,51.28618],[-118.94564,51.28625],[-118.94558,51.28631],[-118.94553,51.28638],[-118.94544,51.28646],[-118.94534,51.28651],[-118.94525,51.28659],[-118.94516,51.28667],[-118.94508,51.28673],[-118.94498,51.2868],[-118.94487,51.28685],[-118.94474,51.2869],[-118.94462,51.28695],[-118.94451,51.28702],[-118.94444,51.28705],[-118.94435,51.28708],[-118.94428,51.28709],[-118.94419,51.28712],[-118.94412,51.28715],[-118.944,51.28718],[-118.94388,51.28719],[-118.94375,51.2872],[-118.94364,51.2872],[-118.94351,51.28721],[-118.94338,51.28721],[-118.94329,51.28721],[-118.94322,51.28721],[-118.94309,51.28721],[-118.94301,51.28721],[-118.94288,51.2872],[-118.94279,51.28719],[-118.94272,51.28718],[-118.94263,51.28717],[-118.94256,51.28715],[-118.94246,51.28712],[-118.94237,51.28709],[-118.94227,51.28706],[-118.94218,51.28704],[-118.94211,51.28703],[-118.94207,51.28703],[-118.94194,51.28703],[-118.94185,51.28704],[-118.94175,51.28704],[-118.94164,51.28704],[-118.94152,51.28704],[-118.94141,51.28704],[-118.94134,51.28704],[-118.94127,51.28705],[-118.94115,51.28705],[-118.94108,51.28705],[-118.94099,51.28705],[-118.94092,51.28706],[-118.94085,51.28706],[-118.94078,51.28706],[-118.94064,51.28707],[-118.94056,51.28706],[-118.94043,51.28705],[-118.9403,51.28704],[-118.94017,51.28701],[-118.94003,51.28697],[-118.93993,51.28692],[-118.93985,51.28684],[-118.93983,51.28676],[-118.93982,51.28668],[-118.93981,51.28661],[-118.93982,51.28655],[-118.93982,51.28648],[-118.93982,51.2864],[-118.9398,51.28634],[-118.93978,51.28628],[-118.93975,51.28621],[-118.93974,51.28614],[-118.93972,51.28609],[-118.93972,51.28602],[-118.93973,51.28597],[-118.93978,51.28591],[-118.93987,51.28584],[-118.93995,51.28575],[-118.93999,51.28568],[-118.94001,51.2856],[-118.94004,51.28552],[-118.94005,51.28545],[-118.94005,51.2854],[-118.94005,51.28532],[-118.94004,51.28525],[-118.94003,51.28518],[-118.93999,51.28509],[-118.93996,51.28501],[-118.93996,51.28496],[-118.93993,51.28489],[-118.9399,51.28482],[-118.93986,51.28478],[-118.93982,51.28473],[-118.93979,51.28468],[-118.93971,51.28461],[-118.93967,51.28454],[-118.93961,51.28446],[-118.93958,51.28441],[-118.93953,51.28437],[-118.93949,51.28429],[-118.93944,51.28423],[-118.93939,51.28415],[-118.93938,51.2841],[-118.93932,51.28402],[-118.93929,51.28398],[-118.93924,51.2839],[-118.93919,51.28381],[-118.93915,51.28373],[-118.93913,51.28368],[-118.9391,51.28362],[-118.93908,51.28357],[-118.93907,51.28351],[-118.93905,51.28347],[-118.93905,51.2834],[-118.93903,51.28333],[-118.93903,51.28328],[-118.93902,51.28321],[-118.93902,51.28316],[-118.939,51.28306],[-118.939,51.28301],[-118.939,51.28296],[-118.939,51.2829],[-118.93898,51.28284],[-118.93898,51.28279],[-118.93898,51.28275],[-118.93897,51.2827],[-118.93896,51.28261],[-118.93895,51.28255],[-118.93894,51.2825],[-118.93892,51.28244],[-118.93888,51.28239],[-118.93881,51.2823],[-118.93875,51.28222],[-118.93865,51.28212],[-118.93859,51.28205],[-118.93848,51.28198],[-118.93835,51.28192],[-118.93822,51.28189],[-118.93811,51.28186],[-118.93799,51.28183],[-118.93785,51.28179],[-118.9377,51.28175],[-118.93757,51.28171],[-118.93742,51.28166],[-118.93735,51.28163],[-118.93728,51.28161],[-118.93716,51.28155],[-118.93705,51.2815],[-118.93694,51.28148],[-118.93684,51.28145],[-118.93677,51.28145],[-118.93664,51.2814],[-118.93657,51.28139],[-118.93647,51.28134],[-118.93636,51.28131],[-118.9363,51.28128],[-118.93626,51.28126],[-118.9362,51.2812],[-118.93616,51.28114],[-118.93614,51.28108],[-118.93612,51.281],[-118.93609,51.28094],[-118.93607,51.28085],[-118.93604,51.28078],[-118.93602,51.28071],[-118.93599,51.28065],[-118.93597,51.2806],[-118.93593,51.28054],[-118.93585,51.28047],[-118.9358,51.28042],[-118.93572,51.28036],[-118.93563,51.2803],[-118.93554,51.28023],[-118.93546,51.28019],[-118.93537,51.28014],[-118.93531,51.28007],[-118.93525,51.27999],[-118.9352,51.2799],[-118.93518,51.27983],[-118.93517,51.27978],[-118.93516,51.27973],[-118.93516,51.27968],[-118.93516,51.27964],[-118.93517,51.27959],[-118.93518,51.27954],[-118.93518,51.27951],[-118.93521,51.27944],[-118.93523,51.27936],[-118.93526,51.27929],[-118.93529,51.2792],[-118.93531,51.27913],[-118.93535,51.27905],[-118.93538,51.279],[-118.93539,51.27896],[-118.93544,51.27888],[-118.9355,51.2788],[-118.93552,51.27873],[-118.93562,51.27866],[-118.93565,51.27859],[-118.9357,51.27851],[-118.93576,51.27844],[-118.93579,51.27834],[-118.93583,51.27827],[-118.9359,51.2782],[-118.93596,51.27812],[-118.93601,51.27807],[-118.93608,51.278],[-118.93615,51.27793],[-118.93619,51.27786],[-118.93623,51.27777],[-118.93627,51.27769],[-118.93629,51.27762],[-118.93636,51.27755],[-118.93645,51.27748],[-118.93654,51.27741],[-118.93667,51.27735],[-118.93677,51.27728],[-118.93684,51.27724],[-118.93685,51.27717],[-118.93689,51.2771],[-118.93693,51.27705],[-118.93693,51.277],[-118.93695,51.27694],[-118.93699,51.27687],[-118.93703,51.27682],[-118.93706,51.27676],[-118.93709,51.27668],[-118.9371,51.27662],[-118.9371,51.27656],[-118.93711,51.2765],[-118.93712,51.27643],[-118.93713,51.27636],[-118.93713,51.27631],[-118.93714,51.27626],[-118.93715,51.27621],[-118.93716,51.27616],[-118.93716,51.27611],[-118.93719,51.27603],[-118.93719,51.27599],[-118.93721,51.27593],[-118.93724,51.27584],[-118.93728,51.27576],[-118.93732,51.27567],[-118.93731,51.27562],[-118.93733,51.27556],[-118.93732,51.27552],[-118.93734,51.27546],[-118.93733,51.27542],[-118.93734,51.27533],[-118.93737,51.27528],[-118.93738,51.27519],[-118.93739,51.27514],[-118.93743,51.27506],[-118.93745,51.275],[-118.93747,51.27494],[-118.93747,51.27488],[-118.93745,51.27482],[-118.93744,51.27478],[-118.93742,51.27473],[-118.93742,51.27467],[-118.9374,51.27463],[-118.9374,51.27457],[-118.93741,51.27452],[-118.93741,51.27447],[-118.93742,51.27443],[-118.93743,51.27438],[-118.93746,51.27433],[-118.93747,51.27428],[-118.93748,51.27421],[-118.93748,51.27417],[-118.93749,51.27411],[-118.93751,51.27407],[-118.93752,51.27398],[-118.93752,51.27393],[-118.93751,51.27388],[-118.93751,51.27383],[-118.93749,51.27377],[-118.93746,51.27365],[-118.93743,51.27357],[-118.93741,51.27353],[-118.9374,51.27348],[-118.93739,51.27342],[-118.93739,51.27337],[-118.93739,51.27332],[-118.93739,51.27328],[-118.9374,51.27322],[-118.93741,51.27318],[-118.93742,51.27313],[-118.93742,51.27307],[-118.93743,51.27303],[-118.93743,51.27298],[-118.93744,51.27293],[-118.93744,51.27287],[-118.93744,51.27282],[-118.93744,51.27277],[-118.93742,51.27272],[-118.93742,51.27268],[-118.9374,51.2726],[-118.9374,51.27251],[-118.93738,51.27245],[-118.93736,51.2724],[-118.93735,51.27234],[-118.93735,51.27228],[-118.93734,51.2722],[-118.93733,51.27216],[-118.93732,51.27211],[-118.93732,51.27203],[-118.93727,51.27196],[-118.9372,51.27189],[-118.9371,51.27184],[-118.93701,51.27181],[-118.93691,51.27175],[-118.93679,51.27169],[-118.93667,51.27161],[-118.93656,51.27155],[-118.93644,51.27148],[-118.93632,51.27141],[-118.9362,51.27136],[-118.93607,51.27132],[-118.93597,51.27131],[-118.93586,51.2713],[-118.93574,51.27127],[-118.9356,51.27126],[-118.93552,51.27125],[-118.93538,51.27126],[-118.93524,51.27131],[-118.93511,51.27137],[-118.935,51.27146],[-118.93491,51.27154],[-118.93481,51.27163],[-118.93478,51.27168],[-118.93474,51.27172],[-118.93466,51.27181],[-118.93455,51.2719],[-118.93442,51.27198],[-118.9343,51.27206],[-118.93416,51.27213],[-118.93407,51.27216],[-118.93399,51.27219],[-118.93386,51.27224],[-118.93373,51.27229],[-118.93362,51.27232],[-118.93349,51.27235],[-118.93342,51.27236],[-118.93334,51.27237],[-118.93326,51.27238],[-118.93318,51.27239],[-118.93309,51.2724],[-118.93302,51.27241],[-118.93294,51.27244],[-118.93285,51.27245],[-118.93277,51.27247],[-118.9327,51.27249],[-118.93261,51.27252],[-118.93253,51.27254],[-118.93244,51.27256],[-118.93235,51.27257],[-118.93225,51.27257],[-118.93217,51.27257],[-118.93207,51.27258],[-118.932,51.27258],[-118.93191,51.27257],[-118.93182,51.27256],[-118.93175,51.27255],[-118.93166,51.27254],[-118.93154,51.27253],[-118.93139,51.27252],[-118.93093,51.2725],[-118.93071,51.27255],[-118.93054,51.27263],[-118.92944,51.27233]]}},
{"type":"Feature","properties":{"spotId":"G-moose-atv-0002","kind":"walk","km":0.04,"climbM":0,"name":"520 m W of McNomee Creek","flags":[]},"geometry":{"type":"LineString","coordinates":[[-118.94584,51.30094],[-118.94528,51.30079]]}},
{"type":"Feature","properties":{"spotId":"G-moose-atv-0014","kind":"ride","km":1.64,"climbM":98,"name":"1.1 km E of Celista Creek","flags":[]},"geometry":{"type":"LineString","coordinates":[[-119.01019,51.24445],[-119.01011,51.24446],[-119.01001,51.24448],[-119.00993,51.24451],[-119.00984,51.24453],[-119.00974,51.24455],[-119.00967,51.24457],[-119.00956,51.2446],[-119.00944,51.24463],[-119.00932,51.24465],[-119.00919,51.24468],[-119.00906,51.24472],[-119.00898,51.24474],[-119.00891,51.24475],[-119.00882,51.24476],[-119.00875,51.24477],[-119.00863,51.24477],[-119.00849,51.24478],[-119.00842,51.24478],[-119.00833,51.24478],[-119.00825,51.24479],[-119.00818,51.2448],[-119.00811,51.24482],[-119.00804,51.24484],[-119.00795,51.24486],[-119.00784,51.2449],[-119.00772,51.24493],[-119.00763,51.24497],[-119.00751,51.24502],[-119.00739,51.24507],[-119.00727,51.24513],[-119.00718,51.24521],[-119.00712,51.24526],[-119.00701,51.24534],[-119.00691,51.2454],[-119.0068,51.24547],[-119.00668,51.24554],[-119.00658,51.2456],[-119.0065,51.24567],[-119.00644,51.24573],[-119.00639,51.24577],[-119.00629,51.24586],[-119.00619,51.24592],[-119.00607,51.24599],[-119.00594,51.24604],[-119.00581,51.24609],[-119.00567,51.24612],[-119.00554,51.24615],[-119.0054,51.24617],[-119.00527,51.24621],[-119.00514,51.24623],[-119.00502,51.24627],[-119.00495,51.24629],[-119.00488,51.2463],[-119.00476,51.24634],[-119.00465,51.2464],[-119.00455,51.24645],[-119.00443,51.24652],[-119.00431,51.24657],[-119.00419,51.24664],[-119.0041,51.24668],[-119.00403,51.24672],[-119.00391,51.2468],[-119.0038,51.24688],[-119.00367,51.24695],[-119.00356,51.24699],[-119.00343,51.247],[-119.00332,51.24701],[-119.00319,51.247],[-119.0031,51.247],[-119.00303,51.24699],[-119.00296,51.24699],[-119.00287,51.247],[-119.00277,51.24702],[-119.00264,51.24704],[-119.00252,51.24709],[-119.00241,51.24717],[-119.00226,51.24722],[-119.00218,51.24723],[-119.00211,51.24725],[-119.00201,51.24726],[-119.00194,51.24726],[-119.00185,51.24727],[-119.00177,51.24728],[-119.00169,51.24729],[-119.00161,51.2473],[-119.00154,51.24731],[-119.00145,51.24732],[-119.00137,51.24733],[-119.00128,51.24733],[-119.00119,51.24734],[-119.00111,51.24735],[-119.00102,51.24736],[-119.00095,51.24736],[-119.00088,51.24737],[-119.00081,51.24738],[-119.00072,51.24739],[-119.00064,51.2474],[-119.00034,51.24748],[-119.00021,51.24751],[-119.00013,51.24753],[-119.00004,51.24756],[-119.0,51.24758],[-118.99997,51.24759],[-118.99989,51.24764],[-118.99982,51.24769],[-118.99975,51.24775],[-118.9997,51.2478],[-118.99964,51.24785],[-118.9996,51.2479],[-118.99949,51.24797],[-118.99936,51.24804],[-118.99926,51.24808],[-118.99918,51.24811],[-118.99909,51.24814],[-118.99895,51.2482],[-118.99884,51.24827],[-118.99875,51.24835],[-118.99868,51.24844],[-118.99865,51.2485],[-118.99864,51.24855],[-118.99864,51.24861],[-118.99864,51.24866],[-118.99865,51.2487],[-118.99866,51.24876],[-118.99866,51.2488],[-118.99867,51.24886],[-118.99867,51.24891],[-118.99867,51.24897],[-118.99865,51.24903],[-118.9986,51.24907],[-118.99856,51.24912],[-118.99852,51.24917],[-118.99838,51.24926],[-118.99826,51.24932],[-118.99816,51.24937],[-118.99808,51.24943],[-118.99801,51.24952],[-118.99793,51.24961],[-118.99788,51.24966],[-118.99786,51.24972],[-118.9978,51.24977],[-118.99776,51.24983],[-118.99774,51.2499],[-118.99771,51.24996],[-118.99769,51.25002],[-118.9976,51.25002],[-118.99753,51.25002],[-118.99744,51.25003],[-118.99737,51.25003],[-118.9973,51.25004],[-118.99721,51.25004],[-118.99707,51.25005],[-118.997,51.25005],[-118.99691,51.25006],[-118.99683,51.25007],[-118.99674,51.25007],[-118.99664,51.25007],[-118.99654,51.25008],[-118.99646,51.25008],[-118.99637,51.25009],[-118.99627,51.25009],[-118.99617,51.2501],[-118.99607,51.25012],[-118.99598,51.25012],[-118.99588,51.25014],[-118.99577,51.25015],[-118.99567,51.25016],[-118.99556,51.25017],[-118.99544,51.25019],[-118.99533,51.2502],[-118.99523,51.25021],[-118.99514,51.25022],[-118.99506,51.25023],[-118.99497,51.25024],[-118.99489,51.25025],[-118.99482,51.25026],[-118.99473,51.25027],[-118.99464,51.25028],[-118.99454,51.25029],[-118.99443,51.25031],[-118.99425,51.25033],[-118.99417,51.25033],[-118.9941,51.25038],[-118.99399,51.25048],[-118.99391,51.25056],[-118.99386,51.25061],[-118.99382,51.25066],[-118.99376,51.25071],[-118.99369,51.25077],[-118.99365,51.25082],[-118.99358,51.2509],[-118.99353,51.25095],[-118.99349,51.251],[-118.99343,51.25107],[-118.99338,51.25114],[-118.99332,51.2512],[-118.99327,51.25125],[-118.99321,51.25131],[-118.99317,51.25137],[-118.99315,51.25142],[-118.99312,51.25148],[-118.99311,51.25154],[-118.9931,51.25161],[-118.9931,51.25169],[-118.99309,51.25176],[-118.99306,51.25182],[-118.99304,51.25189],[-118.99301,51.25194],[-118.99297,51.252],[-118.99293,51.25208],[-118.99289,51.25215],[-118.99285,51.25222]]}},
{"type":"Feature","properties":{"spotId":"G-moose-atv-0014","kind":"walk","km":0.17,"climbM":6,"name":"1.1 km E of Celista Creek","flags":[]},"geometry":{"type":"LineString","coordinates":[[-118.99285,51.25222],[-118.99514,51.25274]]}},
{"type":"Feature","properties":{"spotId":"G-moose-drive-0001","kind":"walk","km":0.17,"climbM":3,"name":"870 m SE of McNomee Creek","flags":[]},"geometry":{"type":"LineString","coordinates":[[-118.92875,51.2725],[-118.92927,51.27398]]}},
{"type":"Feature","properties":{"spotId":"G-moose-drive-0002","kind":"walk","km":0.14,"climbM":6,"name":"370 m SE of Seymour River","flags":[]},"geometry":{"type":"LineString","coordinates":[[-118.89581,51.27293],[-118.89477,51.27182]]}},
{"type":"Feature","properties":{"spotId":"G-moose-drive-0006","kind":"walk","km":0.02,"climbM":0,"name":"170 m NE of Seymour River","flags":[]},"geometry":{"type":"LineString","coordinates":[[-118.91421,51.2592],[-118.91445,51.25916]]}},
{"type":"Feature","properties":{"spotId":"G-moose-drive-0044","kind":"walk","km":0.11,"climbM":54,"name":"340 m E of Seymour River","flags":[]},"geometry":{"type":"LineString","coordinates":[[-118.89896,51.40982],[-118.89745,51.40966]]}},
{"type":"Feature","properties":{"spotId":"G-moose-walk-0001","kind":"walk","km":0.62,"climbM":21,"name":"600 m SE of McNomee Creek","flags":[]},"geometry":{"type":"LineString","coordinates":[[-118.92944,51.27233],[-118.93054,51.27263],[-118.92926,51.27741]]}},
{"type":"Feature","properties":{"spotId":"G-moose-walk-0004","kind":"walk","km":2.49,"climbM":145,"name":"850 m W of McNomee Creek","flags":[]},"geometry":{"type":"LineString","coordinates":[[-118.92944,51.27233],[-118.94601,51.29217]]}},
{"type":"Feature","properties":{"spotId":"G-moose-walk-0041","kind":"walk","km":0.34,"climbM":0,"name":"1.4 km N of Blais Creek","flags":[]},"geometry":{"type":"LineString","coordinates":[[-118.874,51.48665],[-118.87672,51.48413]]}}
]}
