{"type":"FeatureCollection","features":[
{"type":"Feature","properties":{"spotId":"G-grouse-atv-0077","kind":"walk","km":1.21,"climbM":320,"name":"1.4 km E of Seymour River","flags":[]},"geometry":{"type":"LineString","coordinates":[[-118.90741,51.56408],[-118.8906,51.56705]]}},
{"type":"Feature","properties":{"spotId":"G-grouse-atv-0077","kind":"ride","km":3.31,"climbM":261,"name":"1.4 km E of Seymour River","flags":[]},"geometry":{"type":"LineString","coordinates":[[-118.8906,51.56705],[-118.89054,51.56694],[-118.89044,51.5668],[-118.8904,51.56673],[-118.89048,51.56656],[-118.89048,51.56636],[-118.89044,51.5662],[-118.89041,51.56588],[-118.89045,51.56574],[-118.89049,51.56545],[-118.89061,51.56499],[-118.89063,51.56447],[-118.89057,51.56442],[-118.89039,51.56432],[-118.89036,51.56431],[-118.89023,51.56431],[-118.89015,51.56433],[-118.88996,51.5644],[-118.88976,51.56449],[-118.88944,51.56473],[-118.88932,51.56487],[-118.88916,51.56502],[-118.889,51.56513],[-118.88837,51.56568],[-118.88809,51.56597],[-118.88766,51.56636],[-118.88755,51.56648],[-118.88727,51.56674],[-118.88715,51.56686],[-118.88684,51.56712],[-118.88669,51.56722],[-118.88643,51.56734],[-118.88621,51.56764],[-118.88599,51.56793],[-118.88594,51.56806],[-118.88586,51.5682],[-118.88564,51.5685],[-118.88554,51.56866],[-118.88544,51.56883],[-118.88528,51.56916],[-118.88522,51.56932],[-118.88519,51.56946],[-118.88517,51.56961],[-118.88518,51.56995],[-118.88516,51.57014],[-118.88513,51.5703],[-118.88508,51.57058],[-118.88495,51.57089],[-118.88485,51.57105],[-118.88471,51.57116],[-118.88467,51.57117],[-118.88447,51.57128],[-118.88432,51.57139],[-118.88419,51.5715],[-118.88397,51.57174],[-118.88388,51.5719],[-118.8837,51.5725],[-118.88364,51.57267],[-118.88349,51.57296],[-118.88338,51.57308],[-118.88331,51.57313],[-118.88317,51.57315],[-118.88311,51.57312],[-118.88308,51.57308],[-118.88307,51.57289],[-118.8831,51.57226],[-118.88309,51.57133],[-118.88307,51.57116],[-118.88303,51.57102],[-118.88301,51.57086],[-118.88298,51.57072],[-118.88292,51.57026],[-118.88287,51.57008],[-118.8828,51.56994],[-118.88269,51.56977],[-118.88257,51.56964],[-118.88249,51.56948],[-118.88247,51.56933],[-118.88239,51.56916],[-118.88222,51.56889],[-118.88186,51.56835],[-118.88178,51.56821],[-118.88166,51.56805],[-118.88147,51.56776],[-118.88124,51.5675],[-118.88112,51.56734],[-118.88104,51.56721],[-118.88095,51.5671],[-118.88088,51.56697],[-118.88071,51.56674],[-118.88069,51.56671],[-118.88045,51.56641],[-118.88004,51.56587],[-118.87993,51.5657],[-118.87987,51.56557],[-118.87976,51.56539],[-118.8796,51.56508],[-118.8795,51.56479],[-118.87947,51.56466],[-118.87946,51.56449],[-118.87947,51.56434],[-118.87945,51.5642],[-118.8794,51.56409],[-118.87934,51.56407],[-118.87927,51.56406],[-118.87921,51.56409],[-118.87919,51.56411],[-118.8791,51.56425],[-118.87905,51.5644],[-118.87899,51.56454],[-118.87893,51.56469],[-118.87888,51.56487],[-118.87888,51.56502],[-118.87893,51.5652],[-118.8791,51.56551],[-118.87919,51.56564],[-118.87925,51.5658],[-118.87929,51.56598],[-118.87938,51.56629],[-118.87949,51.5666],[-118.87954,51.56678],[-118.87961,51.56709],[-118.87963,51.56723],[-118.87964,51.56738],[-118.87963,51.56743],[-118.87953,51.5676],[-118.87949,51.56779],[-118.87944,51.56792],[-118.87941,51.56808],[-118.87929,51.56838],[-118.87925,51.56855],[-118.8792,51.56871],[-118.87916,51.56885],[-118.87914,51.56902],[-118.87907,51.56934],[-118.87894,51.56964],[-118.87875,51.56995],[-118.87854,51.57023],[-118.87846,51.57037],[-118.8784,51.57051],[-118.8782,51.57066],[-118.87812,51.57076]]}},
{"type":"Feature","properties":{"spotId":"G-moose-atv-0060","kind":"ride","km":4.54,"climbM":499,"name":"1.3 km NE of Seymour River","flags":[]},"geometry":{"type":"LineString","coordinates":[[-118.90416,51.55661],[-118.90387,51.55719],[-118.90372,51.55763],[-118.90365,51.55779],[-118.90359,51.55794],[-118.90349,51.55809],[-118.90337,51.55825],[-118.90327,51.55842],[-118.90318,51.55857],[-118.90307,51.55868],[-118.90294,51.55879],[-118.90276,51.55891],[-118.90262,51.55903],[-118.90251,51.55916],[-118.9024,51.55931],[-118.90226,51.5596],[-118.90224,51.55968],[-118.90227,51.55983],[-118.9023,51.55999],[-118.90241,51.56029],[-118.9024,51.56034],[-118.90229,51.56046],[-118.90206,51.56051],[-118.9019,51.5603],[-118.90172,51.55984],[-118.90167,51.55967],[-118.90163,51.55949],[-118.90158,51.55934],[-118.90154,51.55906],[-118.90144,51.55877],[-118.90141,51.55859],[-118.90132,51.55826],[-118.90117,51.55775],[-118.9011,51.55758],[-118.90098,51.55741],[-118.9008,51.55732],[-118.90058,51.55725],[-118.90041,51.55715],[-118.90036,51.55711],[-118.90033,51.55697],[-118.90028,51.55683],[-118.9002,51.55667],[-118.90007,51.55637],[-118.9,51.55614],[-118.9,51.556],[-118.89995,51.5559],[-118.89992,51.55587],[-118.89979,51.55576],[-118.89967,51.55564],[-118.89959,51.5555],[-118.89954,51.55532],[-118.89952,51.555],[-118.8995,51.55486],[-118.89947,51.55472],[-118.89946,51.55455],[-118.89936,51.55406],[-118.89934,51.55378],[-118.89932,51.55365],[-118.89927,51.55346],[-118.89918,51.55333],[-118.8991,51.55319],[-118.89902,51.55288],[-118.89907,51.5527],[-118.89903,51.55256],[-118.89902,51.55253],[-118.89885,51.55241],[-118.89882,51.55238],[-118.89877,51.55223],[-118.89881,51.55205],[-118.89899,51.55187],[-118.899,51.55183],[-118.89898,51.55167],[-118.8989,51.55152],[-118.89886,51.55123],[-118.89876,51.55107],[-118.89865,51.55095],[-118.89843,51.55082],[-118.89835,51.5508],[-118.89828,51.55081],[-118.89821,51.55083],[-118.89811,51.55089],[-118.89805,51.55105],[-118.89805,51.55108],[-118.89813,51.55122],[-118.89822,51.55135],[-118.8983,51.55149],[-118.89835,51.55164],[-118.89834,51.55177],[-118.89827,51.55193],[-118.89818,51.55206],[-118.89805,51.55218],[-118.89793,51.55236],[-118.89792,51.55241],[-118.89798,51.55257],[-118.89808,51.55277],[-118.89802,51.55304],[-118.89782,51.5533],[-118.89765,51.55357],[-118.8975,51.55385],[-118.89741,51.55399],[-118.89724,51.55427],[-118.89706,51.55468],[-118.89696,51.55482],[-118.89684,51.55495],[-118.89674,51.55509],[-118.8966,51.55524],[-118.89645,51.55536],[-118.89636,51.55551],[-118.89616,51.55592],[-118.89608,51.55621],[-118.89604,51.55651],[-118.8959,51.55684],[-118.89579,51.55716],[-118.89572,51.55731],[-118.89562,51.55745],[-118.89554,51.55761],[-118.89535,51.5579],[-118.89525,51.55807],[-118.89514,51.55821],[-118.89504,51.55837],[-118.89495,51.55852],[-118.89458,51.55895],[-118.89429,51.55925],[-118.89418,51.55938],[-118.894,51.55965],[-118.89379,51.55993],[-118.89366,51.56005],[-118.89294,51.56049],[-118.89259,51.56067],[-118.89244,51.56079],[-118.8919,51.56114],[-118.89158,51.56136],[-118.8912,51.56155],[-118.89103,51.56167],[-118.89085,51.56178],[-118.89069,51.56189],[-118.89048,51.56202],[-118.89028,51.56213],[-118.89012,51.56224],[-118.89002,51.56228],[-118.88993,51.56227],[-118.88988,51.56223],[-118.88988,51.56218],[-118.8899,51.56214],[-118.88999,51.56201],[-118.8901,51.5619],[-118.89044,51.56168],[-118.89059,51.56153],[-118.89095,51.56113],[-118.8912,51.56086],[-118.89131,51.5607],[-118.89136,51.56054],[-118.89137,51.56048],[-118.89148,51.56034],[-118.89157,51.56017],[-118.89167,51.56005],[-118.89182,51.5599],[-118.89217,51.55948],[-118.89244,51.55906],[-118.89246,51.55904],[-118.89249,51.55894],[-118.89249,51.55892],[-118.89243,51.55886],[-118.89223,51.55862],[-118.89208,51.55851],[-118.89188,51.55839],[-118.89178,51.55826],[-118.89175,51.55823],[-118.89172,51.55807],[-118.89173,51.55791],[-118.89189,51.55745],[-118.89196,51.55732],[-118.89206,51.55699],[-118.89213,51.55665],[-118.89214,51.5565],[-118.89225,51.55616],[-118.89228,51.55599],[-118.89236,51.55585],[-118.89245,51.55563],[-118.89227,51.55574],[-118.89223,51.55579],[-118.89208,51.55593],[-118.89177,51.55624],[-118.89155,51.55656],[-118.89143,51.55668],[-118.89126,51.55682],[-118.891,51.55706],[-118.89083,51.55719],[-118.89033,51.55755],[-118.89014,51.5577],[-118.8898,51.55803],[-118.8897,51.55822],[-118.88959,51.55835],[-118.88918,51.55878],[-118.88897,51.5589],[-118.88878,51.55898],[-118.88859,51.55908],[-118.88839,51.55916],[-118.88817,51.55923],[-118.88778,51.55945],[-118.8876,51.55955],[-118.88713,51.55972],[-118.88677,51.55987]]}},
{"type":"Feature","properties":{"spotId":"G-moose-atv-0060","kind":"walk","km":0.09,"climbM":0,"name":"1.3 km NE of Seymour River","flags":[]},"geometry":{"type":"LineString","coordinates":[[-118.88677,51.55987],[-118.88752,51.56057]]}},
{"type":"Feature","properties":{"spotId":"G-moose-atv-0062","kind":"ride","km":1.88,"climbM":61,"name":"1.7 km W of Seymour River","flags":[]},"geometry":{"type":"LineString","coordinates":[[-118.92608,51.50133],[-118.92609,51.50129],[-118.92609,51.50122],[-118.92609,51.50115],[-118.92606,51.50107],[-118.92604,51.50099],[-118.92603,51.50093],[-118.92603,51.5008],[-118.92603,51.50076],[-118.92601,51.5007],[-118.92601,51.50062],[-118.92603,51.50055],[-118.92609,51.50049],[-118.92613,51.50043],[-118.92616,51.50037],[-118.92615,51.50034],[-118.92615,51.50029],[-118.92615,51.50021],[-118.92613,51.50013],[-118.9261,51.50006],[-118.92608,51.5],[-118.92608,51.49998],[-118.92606,51.49991],[-118.92605,51.49986],[-118.92602,51.49978],[-118.92597,51.49969],[-118.92592,51.4996],[-118.92587,51.49952],[-118.92586,51.49943],[-118.92581,51.49935],[-118.92578,51.49928],[-118.92575,51.4992],[-118.92573,51.49915],[-118.92573,51.4991],[-118.92573,51.49905],[-118.92572,51.49896],[-118.92572,51.49887],[-118.92571,51.49878],[-118.92573,51.49874],[-118.92571,51.49869],[-118.92571,51.49865],[-118.92568,51.49857],[-118.92563,51.49851],[-118.92558,51.49844],[-118.92554,51.4984],[-118.92548,51.49835],[-118.92542,51.4983],[-118.92535,51.49828],[-118.92526,51.49826],[-118.92516,51.49827],[-118.92509,51.49832],[-118.92506,51.49837],[-118.92507,51.49843],[-118.92507,51.49851],[-118.92507,51.49857],[-118.92507,51.49865],[-118.92508,51.49871],[-118.92508,51.49878],[-118.92508,51.49886],[-118.92507,51.49893],[-118.92506,51.499],[-118.92506,51.49906],[-118.92507,51.49914],[-118.92505,51.49921],[-118.92503,51.49928],[-118.92502,51.49935],[-118.92501,51.49943],[-118.925,51.4995],[-118.92498,51.49958],[-118.92497,51.49964],[-118.92498,51.49971],[-118.92495,51.49977],[-118.92485,51.49982],[-118.92478,51.49983],[-118.92469,51.49983],[-118.9246,51.49982],[-118.92453,51.49977],[-118.92446,51.49972],[-118.9244,51.49968],[-118.92431,51.49962],[-118.92428,51.49956],[-118.92423,51.4995],[-118.9242,51.49944],[-118.92418,51.49937],[-118.92415,51.49931],[-118.92413,51.49924],[-118.92413,51.49918],[-118.92411,51.49911],[-118.92408,51.49905],[-118.92404,51.49899],[-118.92398,51.49892],[-118.92392,51.49887],[-118.92384,51.4988],[-118.92378,51.49874],[-118.92374,51.49868],[-118.92368,51.49863],[-118.92362,51.49858],[-118.92357,51.49853],[-118.92351,51.49848],[-118.92345,51.49842],[-118.9234,51.49835],[-118.92337,51.49829],[-118.92334,51.49823],[-118.9233,51.49817],[-118.92325,51.49813],[-118.92318,51.49808],[-118.9231,51.49805],[-118.92303,51.49805],[-118.92299,51.49797],[-118.92295,51.49793],[-118.92292,51.49788],[-118.92288,51.49783],[-118.92282,51.49778],[-118.92277,51.49772],[-118.92274,51.49768],[-118.92271,51.49764],[-118.92268,51.49758],[-118.92264,51.49753],[-118.92259,51.49748],[-118.92254,51.49743],[-118.9225,51.49737],[-118.92247,51.49732],[-118.92244,51.49727],[-118.92241,51.49722],[-118.92238,51.49716],[-118.92236,51.49711],[-118.92234,51.49706],[-118.92227,51.49703],[-118.9222,51.49701],[-118.92209,51.49695],[-118.922,51.49689],[-118.92196,51.49685],[-118.92194,51.49679],[-118.92191,51.49673],[-118.92188,51.49669],[-118.92186,51.49662],[-118.92183,51.49658],[-118.9218,51.49652],[-118.92177,51.49646],[-118.92174,51.49642],[-118.92172,51.49637],[-118.92173,51.49632],[-118.92173,51.49626],[-118.92177,51.4962],[-118.92181,51.49615],[-118.92183,51.49609],[-118.92181,51.49605],[-118.92176,51.496],[-118.92168,51.49595],[-118.92159,51.49592],[-118.92153,51.49587],[-118.9215,51.49586],[-118.92145,51.49582],[-118.92141,51.49578],[-118.92135,51.49572],[-118.92132,51.49566],[-118.9213,51.49561],[-118.9213,51.49555],[-118.9213,51.49549],[-118.92129,51.49544],[-118.92128,51.49539],[-118.92125,51.49534],[-118.9212,51.4953],[-118.92111,51.49523],[-118.9211,51.49518],[-118.92109,51.49512],[-118.92113,51.49506],[-118.92118,51.49502],[-118.92122,51.49497],[-118.9212,51.49492],[-118.92113,51.49487],[-118.92105,51.4948],[-118.92098,51.49474],[-118.92093,51.49469],[-118.92091,51.49463],[-118.92091,51.49455],[-118.92091,51.49451],[-118.92092,51.49445],[-118.92092,51.4944],[-118.92089,51.49436],[-118.92081,51.4943],[-118.92075,51.49424],[-118.92071,51.49419],[-118.92061,51.49413],[-118.92053,51.49407],[-118.92047,51.49402],[-118.92038,51.49397],[-118.92027,51.49393],[-118.92018,51.49389],[-118.9201,51.49387],[-118.92,51.49382],[-118.91991,51.49376],[-118.91988,51.4937],[-118.91985,51.49364],[-118.91982,51.49359],[-118.91979,51.49354],[-118.91977,51.49349],[-118.91975,51.49343],[-118.91975,51.49339],[-118.91975,51.49332],[-118.91975,51.49328],[-118.91975,51.49322],[-118.91974,51.49318],[-118.91974,51.49311],[-118.91972,51.49305],[-118.91971,51.49299],[-118.91968,51.49294],[-118.91965,51.49288],[-118.91961,51.49283],[-118.91957,51.49278],[-118.91952,51.49273],[-118.91943,51.49267],[-118.91933,51.49262],[-118.91929,51.49257],[-118.91924,51.49249],[-118.91919,51.49244],[-118.91913,51.4924],[-118.91909,51.49235],[-118.91906,51.49229],[-118.91903,51.49224],[-118.91901,51.49217],[-118.91899,51.49211],[-118.91896,51.49207],[-118.91895,51.49201],[-118.91891,51.49196],[-118.9189,51.49192],[-118.91888,51.49191],[-118.91884,51.49184],[-118.91879,51.49179],[-118.91876,51.49173],[-118.91873,51.49167],[-118.9187,51.4916],[-118.91865,51.49152],[-118.91861,51.49145],[-118.91856,51.49138],[-118.91853,51.49131],[-118.91848,51.49125],[-118.91844,51.4912],[-118.91839,51.49115],[-118.91835,51.49111],[-118.91829,51.49104],[-118.91823,51.491],[-118.91815,51.49095],[-118.91806,51.4909],[-118.918,51.49086],[-118.91792,51.49081],[-118.91783,51.49075],[-118.91774,51.49069],[-118.91768,51.49065],[-118.91763,51.4906],[-118.91757,51.49052],[-118.91751,51.49045],[-118.91745,51.49041],[-118.91741,51.49035],[-118.91738,51.49029],[-118.91734,51.49022],[-118.9173,51.49016],[-118.91728,51.49009],[-118.91726,51.49003],[-118.91726,51.48997],[-118.91726,51.48991],[-118.91726,51.48986],[-118.91725,51.4898],[-118.91727,51.48974],[-118.91726,51.48969],[-118.91726,51.48964],[-118.91726,51.48958]]}},
{"type":"Feature","properties":{"spotId":"G-moose-atv-0062","kind":"walk","km":0.3,"climbM":149,"name":"1.7 km W of Seymour River","flags":[]},"geometry":{"type":"LineString","coordinates":[[-118.92608,51.50133],[-118.93036,51.50192]]}},
{"type":"Feature","properties":{"spotId":"G-moose-drive-0062","kind":"walk","km":0.05,"climbM":17,"name":"130 m E of Seymour River","flags":[]},"geometry":{"type":"LineString","coordinates":[[-118.90357,51.55516],[-118.9029,51.55522]]}},
{"type":"Feature","properties":{"spotId":"G-moose-walk-0062","kind":"walk","km":0.58,"climbM":70,"name":"350 m W of Seymour River","flags":["Route crosses provincial park: Upper Seymour River Park. Hunting only where that park allows it, in open season. Check its bcparks.ca page (synopsis page 9, 99%)."]},"geometry":{"type":"LineString","coordinates":[[-118.90766,51.56334],[-118.91597,51.56416]]}}
]}
