{"type":"FeatureCollection","features":[
{"type":"Feature","properties":{"spotId":"G-camp-camp-0043","kind":"walk","km":0.14,"climbM":0,"name":"610 m W of Shuswap Lake","flags":[]},"geometry":{"type":"LineString","coordinates":[[-119.06874,51.0422],[-119.06672,51.0422]]}},
{"type":"Feature","properties":{"spotId":"G-deer-atv-0025","kind":"ride","km":6.87,"climbM":170,"name":"450 m E of Shuswap Lake","flags":[]},"geometry":{"type":"LineString","coordinates":[[-119.03178,51.04756],[-119.03179,51.04765],[-119.03184,51.04788],[-119.03194,51.04816],[-119.03206,51.04842],[-119.03222,51.04839],[-119.03239,51.0484],[-119.03255,51.04844],[-119.03263,51.04849],[-119.03268,51.04861],[-119.03276,51.04861],[-119.0328,51.0487],[-119.03281,51.04874],[-119.03283,51.04878],[-119.03285,51.04885],[-119.03286,51.04895],[-119.03291,51.04906],[-119.03302,51.04913],[-119.03313,51.04919],[-119.0331,51.04924],[-119.03305,51.04958],[-119.03307,51.04966],[-119.03312,51.04974],[-119.0332,51.04983],[-119.03326,51.0499],[-119.03343,51.05001],[-119.03374,51.05022],[-119.03397,51.05038],[-119.03419,51.05044],[-119.03422,51.05045],[-119.03446,51.05045],[-119.03454,51.05042],[-119.03478,51.05037],[-119.03509,51.05039],[-119.03534,51.05049],[-119.03547,51.05062],[-119.03547,51.05073],[-119.03538,51.05082],[-119.03542,51.05105],[-119.03553,51.05117],[-119.03537,51.05163],[-119.03544,51.05185],[-119.03543,51.05203],[-119.03538,51.05228],[-119.03536,51.05255],[-119.03544,51.05274],[-119.03526,51.05292],[-119.03528,51.05316],[-119.03545,51.05341],[-119.03542,51.05353],[-119.03535,51.05381],[-119.03514,51.05403],[-119.03496,51.0543],[-119.03487,51.05457],[-119.0347,51.0549],[-119.03439,51.05504],[-119.03419,51.05512],[-119.03411,51.05528],[-119.03388,51.05548],[-119.03367,51.05561],[-119.03343,51.05582],[-119.0333,51.05598],[-119.03318,51.05614],[-119.03301,51.05632],[-119.0329,51.05652],[-119.03275,51.05665],[-119.03256,51.05685],[-119.03233,51.05706],[-119.0321,51.05714],[-119.03193,51.05733],[-119.03185,51.05736],[-119.03165,51.05761],[-119.03144,51.05775],[-119.0312,51.05786],[-119.03093,51.05802],[-119.03067,51.0582],[-119.03055,51.05836],[-119.03035,51.05849],[-119.03011,51.05868],[-119.02992,51.05876],[-119.02977,51.05881],[-119.02962,51.05905],[-119.0293,51.05946],[-119.02909,51.05985],[-119.02878,51.06022],[-119.02853,51.06063],[-119.02839,51.06098],[-119.02821,51.06128],[-119.02789,51.06157],[-119.02763,51.06184],[-119.02728,51.06207],[-119.02699,51.06235],[-119.02675,51.06255],[-119.02642,51.06284],[-119.02602,51.06303],[-119.02565,51.06322],[-119.02509,51.06342],[-119.02475,51.06367],[-119.02433,51.06393],[-119.02397,51.06407],[-119.02354,51.06425],[-119.02326,51.06443],[-119.02302,51.06459],[-119.02283,51.06483],[-119.02261,51.06488],[-119.02238,51.06494],[-119.02211,51.0651],[-119.02199,51.06528],[-119.02185,51.06555],[-119.02164,51.06589],[-119.02151,51.06615],[-119.02126,51.06637],[-119.02101,51.06666],[-119.02065,51.06718],[-119.02064,51.06736],[-119.02062,51.06767],[-119.0206,51.06795],[-119.0203,51.06844],[-119.02015,51.06874],[-119.0199,51.06906],[-119.01973,51.06932],[-119.0195,51.06952],[-119.01924,51.06971],[-119.01901,51.06992],[-119.01873,51.07026],[-119.01841,51.07069],[-119.0182,51.07095],[-119.01817,51.07107],[-119.01823,51.07114],[-119.01834,51.07117],[-119.01855,51.0712],[-119.01889,51.07131],[-119.01909,51.07147],[-119.01922,51.07165],[-119.01928,51.07186],[-119.01951,51.07201],[-119.01985,51.07208],[-119.02028,51.07206],[-119.02074,51.07203],[-119.02112,51.07197],[-119.0215,51.07182],[-119.02179,51.07171],[-119.02215,51.07164],[-119.02253,51.0716],[-119.02283,51.07162],[-119.02323,51.07154],[-119.02349,51.07136],[-119.02364,51.07128],[-119.0238,51.07127],[-119.0239,51.07142],[-119.02394,51.0717],[-119.02397,51.07186],[-119.02404,51.07218],[-119.02411,51.07245],[-119.0241,51.07275],[-119.02394,51.07317],[-119.0238,51.07353],[-119.02381,51.07387],[-119.02376,51.07447],[-119.02378,51.07485],[-119.02379,51.07517],[-119.02386,51.07531],[-119.024,51.07552],[-119.02407,51.07602],[-119.0241,51.07643],[-119.02405,51.07668],[-119.02395,51.07692],[-119.02382,51.07732],[-119.0238,51.07739],[-119.02373,51.07769],[-119.02362,51.07842],[-119.0237,51.07917],[-119.02366,51.07987],[-119.02357,51.0807],[-119.02352,51.08126],[-119.02356,51.08184],[-119.02363,51.08212],[-119.0236,51.08232],[-119.02351,51.0825],[-119.02346,51.08269],[-119.02338,51.08296],[-119.02333,51.08315],[-119.02323,51.08332],[-119.02309,51.08346],[-119.02285,51.08363],[-119.02258,51.08382],[-119.02221,51.08406],[-119.0216,51.08447],[-119.02091,51.08482],[-119.02058,51.08497],[-119.02013,51.08518],[-119.01976,51.08535],[-119.01921,51.08544],[-119.01875,51.08566],[-119.01829,51.08585],[-119.01794,51.08589],[-119.01763,51.08591],[-119.01739,51.08597],[-119.0171,51.08615],[-119.01691,51.08634],[-119.01673,51.08657],[-119.01646,51.08693],[-119.01588,51.08784],[-119.01568,51.08822],[-119.0156,51.0884],[-119.01545,51.08866],[-119.01535,51.08884],[-119.01524,51.089],[-119.01512,51.08914],[-119.01502,51.0893],[-119.01489,51.08945],[-119.01476,51.08963],[-119.01458,51.08984],[-119.01448,51.09],[-119.01436,51.09017],[-119.01428,51.09027],[-119.01421,51.09039],[-119.01415,51.0905],[-119.01406,51.09063],[-119.01393,51.09075],[-119.01381,51.09084],[-119.01366,51.09096],[-119.01348,51.09109],[-119.01328,51.09121],[-119.01315,51.0913],[-119.01303,51.09141],[-119.01282,51.09152],[-119.0127,51.09157],[-119.0125,51.09163],[-119.01225,51.09174],[-119.01209,51.09185],[-119.01192,51.09202],[-119.0116,51.0924],[-119.01137,51.09278],[-119.01123,51.09303],[-119.01109,51.09329],[-119.0108,51.09388],[-119.01053,51.09443],[-119.01038,51.09479],[-119.01029,51.09522],[-119.01014,51.0955],[-119.01006,51.09556],[-119.00996,51.09561],[-119.00986,51.09568],[-119.0097,51.0958],[-119.00963,51.09586],[-119.00938,51.09604],[-119.00931,51.09612],[-119.0092,51.09621]]}},
{"type":"Feature","properties":{"spotId":"G-deer-atv-0025","kind":"walk","km":0.1,"climbM":0,"name":"450 m E of Shuswap Lake","flags":[]},"geometry":{"type":"LineString","coordinates":[[-119.03178,51.04756],[-119.0332,51.04731]]}},
{"type":"Feature","properties":{"spotId":"G-deer-walk-0060","kind":"walk","km":1.73,"climbM":8,"name":"By Shuswap Lake","flags":[]},"geometry":{"type":"LineString","coordinates":[[-119.06442,51.05779],[-119.03977,51.05857]]}},
{"type":"Feature","properties":{"spotId":"G-deer-walk-0079","kind":"walk","km":0.45,"climbM":26,"name":"130 m N of Shuswap Lake","flags":[]},"geometry":{"type":"LineString","coordinates":[[-119.05338,51.00572],[-119.04844,51.00317]]}},
{"type":"Feature","properties":{"spotId":"G-duck-drive-0042","kind":"walk","km":0.01,"climbM":0,"name":"Unnamed lake 120 m E of Nellie Lake rec site","flags":[]},"geometry":{"type":"LineString","coordinates":[[-119.00245,51.22003],[-119.00245,51.21991]]}},
{"type":"Feature","properties":{"spotId":"G-duck-drive-0054","kind":"walk","km":0.14,"climbM":12,"name":"Unnamed wetland 260 m NE of Blueberry Creek","flags":[]},"geometry":{"type":"LineString","coordinates":[[-119.01803,51.21218],[-119.01967,51.21294]]}},
{"type":"Feature","properties":{"spotId":"G-duck-drive-0090","kind":"walk","km":0.21,"climbM":0,"name":"Unnamed wetland 1.4 km NE of Shuswap Lake","flags":[]},"geometry":{"type":"LineString","coordinates":[[-119.01552,51.03713],[-119.01747,51.03567]]}},
{"type":"Feature","properties":{"spotId":"G-duck-drive-0139","kind":"walk","km":0.13,"climbM":0,"name":"Unnamed wetland 590 m NE of Scotch Creek","flags":[]},"geometry":{"type":"LineString","coordinates":[[-119.12389,51.18956],[-119.12358,51.18844]]}},
{"type":"Feature","properties":{"spotId":"G-duck-drive-0144","kind":"walk","km":0.1,"climbM":0,"name":"Unnamed wetland 120 m NW of Blueberry Creek","flags":[]},"geometry":{"type":"LineString","coordinates":[[-119.10577,51.19498],[-119.10507,51.19422]]}},
{"type":"Feature","properties":{"spotId":"G-grouse-atv-0020","kind":"ride","km":4.07,"climbM":107,"name":"By Scotch Creek","flags":[]},"geometry":{"type":"LineString","coordinates":[[-119.18492,51.15226],[-119.18469,51.15217],[-119.18417,51.15185],[-119.18407,51.15181],[-119.18376,51.15183],[-119.18304,51.15201],[-119.1826,51.15206],[-119.18191,51.15214],[-119.18094,51.15236],[-119.18057,51.15249],[-119.17974,51.15293],[-119.17934,51.15327],[-119.17889,51.15355],[-119.17836,51.15405],[-119.17801,51.1543],[-119.17737,51.1549],[-119.17694,51.15523],[-119.17676,51.15543],[-119.17648,51.15567],[-119.17631,51.15574],[-119.17508,51.15692],[-119.17471,51.15715],[-119.17419,51.15759],[-119.17361,51.15799],[-119.17327,51.15829],[-119.17306,51.15841],[-119.17248,51.15898],[-119.17219,51.15936],[-119.17219,51.15948],[-119.17207,51.15954],[-119.17184,51.15978],[-119.17158,51.1601],[-119.17122,51.16045],[-119.17085,51.16097],[-119.16969,51.16186],[-119.16925,51.16225],[-119.1688,51.16288],[-119.16848,51.16319],[-119.16756,51.1638],[-119.16715,51.16415],[-119.16685,51.16431],[-119.16647,51.16441],[-119.16532,51.16459],[-119.16524,51.16464],[-119.16511,51.1647],[-119.1647,51.16505],[-119.16446,51.16531],[-119.16401,51.16559],[-119.16376,51.16594],[-119.16368,51.16615],[-119.16364,51.16659],[-119.16376,51.16696],[-119.16396,51.16731],[-119.16398,51.16765],[-119.16385,51.16799],[-119.16309,51.16917],[-119.16303,51.16942],[-119.16303,51.16996],[-119.16258,51.17083],[-119.16196,51.17158],[-119.16167,51.1718],[-119.16104,51.17217],[-119.16031,51.17277],[-119.1602,51.17284],[-119.15972,51.17301],[-119.15924,51.17312],[-119.15799,51.17333],[-119.15725,51.17358],[-119.15695,51.17376],[-119.15664,51.17405],[-119.15656,51.17419],[-119.15657,51.1744],[-119.1567,51.17452],[-119.15701,51.17465],[-119.15709,51.17481],[-119.15713,51.17507],[-119.15713,51.17575],[-119.15686,51.17603],[-119.15684,51.17611],[-119.15684,51.17627],[-119.15703,51.17684],[-119.15702,51.17706],[-119.15678,51.17746],[-119.15533,51.1791],[-119.15517,51.17946]]}},
{"type":"Feature","properties":{"spotId":"G-grouse-atv-0042","kind":"ride","km":3.06,"climbM":39,"name":"250 m NW of Scotch Creek","flags":[]},"geometry":{"type":"LineString","coordinates":[[-119.21011,51.13644],[-119.2102,51.13697],[-119.21064,51.1377],[-119.2106,51.13785],[-119.2105,51.13801],[-119.2101,51.13831],[-119.2098,51.13864],[-119.20974,51.13883],[-119.20959,51.13906],[-119.20901,51.13947],[-119.20877,51.1396],[-119.20747,51.14009],[-119.20706,51.14033],[-119.20695,51.14044],[-119.20684,51.14068],[-119.20676,51.14112],[-119.20655,51.14158],[-119.20655,51.14247],[-119.20624,51.14293],[-119.20597,51.14359],[-119.20562,51.14402],[-119.20466,51.14487],[-119.2042,51.14538],[-119.20403,51.14571],[-119.20347,51.1462],[-119.20309,51.14662],[-119.20287,51.1469],[-119.2028,51.1471],[-119.20224,51.14797],[-119.20209,51.14811],[-119.20128,51.14863],[-119.2,51.14901],[-119.19935,51.14924],[-119.19876,51.14966],[-119.19821,51.15013],[-119.19772,51.15068],[-119.19739,51.15091],[-119.19692,51.15134],[-119.1967,51.15144],[-119.19637,51.15151],[-119.19567,51.15176],[-119.19524,51.15202],[-119.19477,51.15222],[-119.19432,51.15255],[-119.19413,51.1526],[-119.19347,51.15304],[-119.19294,51.15331],[-119.19264,51.1534],[-119.19243,51.15341],[-119.19188,51.15355],[-119.19142,51.15363],[-119.19084,51.1537],[-119.18933,51.15379],[-119.18884,51.15375],[-119.18874,51.15369],[-119.1886,51.15348],[-119.18843,51.15317],[-119.1881,51.15287],[-119.1876,51.15229],[-119.18714,51.152],[-119.18679,51.15191],[-119.18632,51.15191],[-119.18597,51.15204],[-119.18562,51.15224],[-119.18549,51.1524],[-119.18532,51.1524]]}},
{"type":"Feature","properties":{"spotId":"G-grouse-atv-0057","kind":"walk","km":2.13,"climbM":350,"name":"820 m NW of Grice-Hutchinson, Mount","flags":[]},"geometry":{"type":"LineString","coordinates":[[-118.98517,51.05441],[-119.01371,51.06105]]}},
{"type":"Feature","properties":{"spotId":"G-grouse-atv-0057","kind":"ride","km":3.4,"climbM":36,"name":"820 m NW of Grice-Hutchinson, Mount","flags":[]},"geometry":{"type":"LineString","coordinates":[[-119.01371,51.06105],[-119.01366,51.06118],[-119.01358,51.06134],[-119.01344,51.06159],[-119.01331,51.06185],[-119.01324,51.06217],[-119.0132,51.06246],[-119.0131,51.06274],[-119.01305,51.06301],[-119.01308,51.06375],[-119.01311,51.06403],[-119.01305,51.0643],[-119.01284,51.06451],[-119.01254,51.06472],[-119.01228,51.06497],[-119.01206,51.06524],[-119.0119,51.06547],[-119.01162,51.06575],[-119.01153,51.06602],[-119.01137,51.06629],[-119.01125,51.06641],[-119.01091,51.06665],[-119.01063,51.06688],[-119.01037,51.06706],[-119.01014,51.06728],[-119.00993,51.06753],[-119.00981,51.06777],[-119.00952,51.06799],[-119.00915,51.06871],[-119.009,51.06893],[-119.00888,51.06915],[-119.00864,51.06938],[-119.00847,51.06956],[-119.00834,51.06974],[-119.00811,51.06998],[-119.00796,51.07027],[-119.00797,51.0705],[-119.00801,51.07075],[-119.00795,51.071],[-119.00791,51.07145],[-119.00782,51.072],[-119.00753,51.07259],[-119.00732,51.07282],[-119.00717,51.07307],[-119.00698,51.07333],[-119.00653,51.07381],[-119.00634,51.07401],[-119.00618,51.07425],[-119.00606,51.07449],[-119.00583,51.0747],[-119.00571,51.0748],[-119.00545,51.07502],[-119.00534,51.07527],[-119.00522,51.07539],[-119.00485,51.07621],[-119.00474,51.07646],[-119.00466,51.07671],[-119.00459,51.0772],[-119.00455,51.07747],[-119.00462,51.07771],[-119.00469,51.0779],[-119.00469,51.07815],[-119.00477,51.07835],[-119.00488,51.07857],[-119.00506,51.07899],[-119.00516,51.07887],[-119.00534,51.07866],[-119.00569,51.07817],[-119.00582,51.07795],[-119.00606,51.07766],[-119.00629,51.07753],[-119.00672,51.07739],[-119.00699,51.07725],[-119.00717,51.07709],[-119.00754,51.07665],[-119.00771,51.07646],[-119.00803,51.07623],[-119.0083,51.07609],[-119.00865,51.07587],[-119.0093,51.0756],[-119.00964,51.07544],[-119.00988,51.07529],[-119.01016,51.07517],[-119.01036,51.0748],[-119.01057,51.07432],[-119.01067,51.07403],[-119.01091,51.0738],[-119.01123,51.07357],[-119.01154,51.07341],[-119.01177,51.07341],[-119.01187,51.07353],[-119.01182,51.07363],[-119.0117,51.07389],[-119.01175,51.07436],[-119.01171,51.0746],[-119.01171,51.07487],[-119.01166,51.07514],[-119.01166,51.07542],[-119.01166,51.07569],[-119.01181,51.0759],[-119.01216,51.07637],[-119.01227,51.07661],[-119.01234,51.07685],[-119.01248,51.07714]]}},
{"type":"Feature","properties":{"spotId":"G-grouse-drive-0056","kind":"roadside","km":3.87,"climbM":7,"name":"140 m N of Blueberry Creek","flags":[]},"geometry":{"type":"LineString","coordinates":[[-119.09113,51.19883],[-119.0911,51.19882],[-119.09097,51.19881],[-119.09089,51.19882],[-119.09082,51.19883],[-119.09069,51.19884],[-119.0906,51.19885],[-119.09052,51.19886],[-119.09042,51.19886],[-119.09028,51.19885],[-119.09015,51.19884],[-119.08999,51.19882],[-119.0899,51.19882],[-119.08982,51.19882],[-119.08973,51.19882],[-119.08966,51.19882],[-119.08952,51.19883],[-119.08944,51.19883],[-119.08936,51.19883],[-119.08924,51.19884],[-119.0891,51.19886],[-119.08903,51.19886],[-119.08896,51.19887],[-119.08883,51.19889],[-119.08872,51.1989],[-119.08863,51.19892],[-119.08856,51.19893],[-119.08845,51.19895],[-119.08832,51.19897],[-119.08819,51.199],[-119.08808,51.19903],[-119.08799,51.19904],[-119.08792,51.19904],[-119.08779,51.19905],[-119.08768,51.19905],[-119.08761,51.19905],[-119.08752,51.19905],[-119.08745,51.19905],[-119.08733,51.19904],[-119.08726,51.19904],[-119.08719,51.19903],[-119.08706,51.19902],[-119.08693,51.199],[-119.08685,51.199],[-119.08676,51.19899],[-119.08667,51.19898],[-119.08659,51.19897],[-119.0865,51.19897],[-119.08643,51.19896],[-119.0863,51.19895],[-119.08623,51.19894],[-119.08611,51.19893],[-119.08604,51.19892],[-119.08591,51.19891],[-119.0858,51.19891],[-119.08573,51.1989],[-119.08561,51.19888],[-119.08551,51.19887],[-119.08541,51.19884],[-119.08531,51.19882],[-119.08521,51.1988],[-119.08508,51.1988],[-119.08498,51.1988],[-119.08491,51.19881],[-119.08481,51.19883],[-119.08472,51.19884],[-119.08464,51.19886],[-119.08457,51.19888],[-119.08447,51.19891],[-119.08438,51.19896],[-119.08428,51.19901],[-119.08419,51.19905],[-119.08409,51.19911],[-119.08396,51.19917],[-119.08387,51.19924],[-119.08377,51.1993],[-119.08368,51.19935],[-119.08359,51.1994],[-119.08352,51.19942],[-119.08343,51.19944],[-119.08332,51.19945],[-119.08323,51.19944],[-119.08317,51.19938],[-119.08315,51.19933],[-119.08319,51.19928],[-119.08325,51.19922],[-119.0833,51.19917],[-119.08336,51.19911],[-119.08341,51.19907],[-119.08348,51.19902],[-119.08354,51.19896],[-119.08355,51.19892],[-119.08355,51.19887],[-119.08355,51.19882],[-119.08352,51.19878],[-119.08348,51.19872],[-119.08335,51.1987],[-119.08325,51.1987],[-119.08314,51.19872],[-119.08301,51.19873],[-119.08287,51.19875],[-119.0828,51.19876],[-119.08273,51.19877],[-119.08257,51.19878],[-119.0825,51.19879],[-119.08237,51.19881],[-119.08224,51.19881],[-119.08211,51.19881],[-119.08201,51.19881],[-119.0819,51.19881],[-119.08178,51.19881],[-119.08168,51.19879],[-119.0816,51.19877],[-119.08151,51.19877],[-119.0814,51.19876],[-119.08125,51.19876],[-119.08107,51.19878],[-119.081,51.19878],[-119.08085,51.19878],[-119.08078,51.19877],[-119.08065,51.19875],[-119.08054,51.19873],[-119.08039,51.19873],[-119.08029,51.19873],[-119.08019,51.19875],[-119.08012,51.19876],[-119.08001,51.19881],[-119.0799,51.19886],[-119.07978,51.1989],[-119.07967,51.19894],[-119.07957,51.19899],[-119.07948,51.19902],[-119.07936,51.19904],[-119.07926,51.19907],[-119.07914,51.19911],[-119.07899,51.19914],[-119.07892,51.19915],[-119.07882,51.19916],[-119.07872,51.19918],[-119.07864,51.19919],[-119.07855,51.19919],[-119.07847,51.1992],[-119.0784,51.19921],[-119.07831,51.19922],[-119.0782,51.19923],[-119.07811,51.19923],[-119.07804,51.19923],[-119.07794,51.19924],[-119.07784,51.19923],[-119.07772,51.19922],[-119.07759,51.19921],[-119.07749,51.19919],[-119.07741,51.19915],[-119.07732,51.19915],[-119.07726,51.19913],[-119.07718,51.19912],[-119.07709,51.19912],[-119.0769,51.1991],[-119.07682,51.1991],[-119.07669,51.1991],[-119.07662,51.19912],[-119.07652,51.19913],[-119.07643,51.19915],[-119.07635,51.19916],[-119.07627,51.19916],[-119.0762,51.19916],[-119.07607,51.19916],[-119.07597,51.19915],[-119.0759,51.19915],[-119.0758,51.19916],[-119.07567,51.19915],[-119.0756,51.19916],[-119.07553,51.19916],[-119.07536,51.19917],[-119.07527,51.19917],[-119.0752,51.19918],[-119.07513,51.19918],[-119.07499,51.19915],[-119.07487,51.19914],[-119.0748,51.19913],[-119.07467,51.19913],[-119.07458,51.19913],[-119.0745,51.19916],[-119.07437,51.19921],[-119.0743,51.19925],[-119.07423,51.19927],[-119.07415,51.1993],[-119.07408,51.19931],[-119.07401,51.19932],[-119.07391,51.19936],[-119.07382,51.19938],[-119.07374,51.1994],[-119.07365,51.19942],[-119.07357,51.19945],[-119.07343,51.19948],[-119.07331,51.19951],[-119.07319,51.19954],[-119.0731,51.19955],[-119.07303,51.19957],[-119.07296,51.19958],[-119.07286,51.19959],[-119.07276,51.1996],[-119.07266,51.1996],[-119.07259,51.19961],[-119.07247,51.19961],[-119.0724,51.19962],[-119.07232,51.19963],[-119.07223,51.19964],[-119.07216,51.19964],[-119.07203,51.19965],[-119.07192,51.19966],[-119.07183,51.19966],[-119.07173,51.19966],[-119.07165,51.19966],[-119.07156,51.19966],[-119.07149,51.19966],[-119.0714,51.19966],[-119.07132,51.19966],[-119.07123,51.19966],[-119.0711,51.19964],[-119.07097,51.19963],[-119.07081,51.19961],[-119.07068,51.19961],[-119.07057,51.19962],[-119.07046,51.19966],[-119.07036,51.1997],[-119.07025,51.19974],[-119.07015,51.19977],[-119.07005,51.1998],[-119.06996,51.19982],[-119.06985,51.19985],[-119.06977,51.19987],[-119.06961,51.19991],[-119.0695,51.19996],[-119.06937,51.2],[-119.06863,51.20011],[-119.06856,51.20015],[-119.06846,51.20019],[-119.06836,51.20021],[-119.06828,51.20025],[-119.06819,51.20028],[-119.06811,51.20032],[-119.06801,51.20036],[-119.06793,51.20039],[-119.06784,51.20042],[-119.06774,51.20047],[-119.06763,51.20051],[-119.06752,51.20055],[-119.06745,51.20058],[-119.06732,51.20061],[-119.06724,51.20063],[-119.06717,51.20064],[-119.06705,51.20067],[-119.06693,51.2007],[-119.06685,51.20072],[-119.06675,51.20073],[-119.06663,51.20075],[-119.06656,51.20076],[-119.06641,51.20075],[-119.06627,51.20074],[-119.06615,51.20071],[-119.06604,51.20069],[-119.06598,51.20067],[-119.06595,51.20066],[-119.06586,51.20064],[-119.06578,51.20061],[-119.06566,51.20059],[-119.06559,51.20057],[-119.0655,51.20056],[-119.06542,51.20055],[-119.06529,51.20056],[-119.06517,51.20057],[-119.06504,51.20059],[-119.06493,51.20063],[-119.06481,51.20067],[-119.06468,51.20072],[-119.06461,51.20075],[-119.06447,51.20081],[-119.06433,51.20087],[-119.06426,51.20089],[-119.06417,51.20092],[-119.06403,51.20097],[-119.06392,51.20101],[-119.06379,51.20103],[-119.06365,51.20104],[-119.06358,51.20105],[-119.06345,51.20106],[-119.06335,51.20107],[-119.06326,51.20109],[-119.06316,51.20112],[-119.06305,51.20115],[-119.06292,51.20117],[-119.0628,51.2012],[-119.06267,51.20122],[-119.06256,51.20125],[-119.06244,51.20129],[-119.06233,51.20136],[-119.06223,51.20144],[-119.06209,51.20152],[-119.06201,51.20159],[-119.06191,51.20166],[-119.0618,51.2017],[-119.06176,51.20177],[-119.06167,51.20184],[-119.06157,51.2019],[-119.06146,51.20196],[-119.06131,51.20201],[-119.06124,51.20203],[-119.06115,51.20206],[-119.06102,51.20209],[-119.0609,51.20212],[-119.06078,51.20213],[-119.06063,51.20214],[-119.06051,51.20215],[-119.06042,51.20215],[-119.06031,51.20216],[-119.06023,51.20217],[-119.06016,51.20217],[-119.06002,51.20217],[-119.05989,51.20218],[-119.05978,51.2022],[-119.05966,51.20223],[-119.05958,51.20228],[-119.0595,51.20233],[-119.0594,51.20238],[-119.05926,51.20243],[-119.05919,51.20244],[-119.05912,51.20246],[-119.05905,51.20247],[-119.05896,51.20249],[-119.05887,51.2025],[-119.05873,51.20253],[-119.05866,51.20254],[-119.05859,51.20255],[-119.0585,51.20256],[-119.05835,51.20257],[-119.05826,51.20256],[-119.05815,51.20254],[-119.058,51.20255],[-119.05793,51.20255],[-119.05785,51.20255],[-119.05776,51.20256],[-119.05769,51.20256],[-119.05762,51.20257],[-119.05753,51.20258],[-119.05746,51.20259],[-119.05738,51.2026],[-119.0573,51.20261],[-119.05722,51.20262],[-119.05712,51.20263],[-119.05701,51.20264],[-119.05693,51.20264],[-119.05683,51.20265],[-119.05675,51.20265],[-119.05668,51.20266],[-119.05659,51.20266],[-119.05652,51.20266],[-119.05638,51.20267],[-119.05629,51.20268],[-119.05615,51.2027],[-119.05606,51.20271],[-119.05599,51.20272],[-119.05591,51.20273],[-119.05584,51.20274],[-119.05575,51.20275],[-119.05564,51.20276],[-119.05558,51.20276],[-119.05548,51.20276],[-119.05538,51.20276],[-119.05531,51.20276],[-119.05522,51.20275],[-119.05513,51.20274],[-119.05503,51.20272],[-119.05493,51.2027],[-119.05486,51.20269],[-119.05477,51.20268],[-119.0547,51.20266],[-119.05459,51.20262],[-119.05448,51.20259],[-119.05438,51.20257],[-119.05427,51.20255],[-119.0542,51.20254],[-119.05411,51.20253],[-119.05402,51.20253],[-119.05391,51.20253],[-119.05384,51.20254],[-119.05375,51.20254],[-119.05368,51.20255],[-119.05359,51.20256],[-119.05352,51.20257],[-119.05345,51.2026],[-119.05333,51.20264],[-119.05321,51.20268],[-119.05309,51.20271],[-119.053,51.20272],[-119.05291,51.20273],[-119.05283,51.20274],[-119.05274,51.20276],[-119.05266,51.20277],[-119.05257,51.20278],[-119.05249,51.20279],[-119.0524,51.20281],[-119.05232,51.20282],[-119.05223,51.20283],[-119.05215,51.20284],[-119.05205,51.20285],[-119.05195,51.20286],[-119.05185,51.20288],[-119.05176,51.20289],[-119.05168,51.20291],[-119.05159,51.20291],[-119.05145,51.20292],[-119.05136,51.20293],[-119.05129,51.20294],[-119.05122,51.20295],[-119.05111,51.20298],[-119.051,51.20302],[-119.05087,51.20308],[-119.05077,51.20311],[-119.05057,51.20319],[-119.05045,51.20325],[-119.05032,51.2033],[-119.05021,51.20335],[-119.05012,51.2034],[-119.05001,51.20343],[-119.04988,51.20346],[-119.0498,51.20349],[-119.04971,51.20351],[-119.04964,51.20353],[-119.0495,51.20358],[-119.04943,51.20361],[-119.04932,51.20364],[-119.04919,51.20365],[-119.04912,51.20364],[-119.04895,51.20366],[-119.04887,51.20362],[-119.04879,51.20357],[-119.04869,51.20356],[-119.0486,51.20352],[-119.04847,51.20349],[-119.0483,51.20348],[-119.0481,51.20349],[-119.04788,51.20352],[-119.04771,51.20355],[-119.04756,51.20358],[-119.04744,51.2036],[-119.04731,51.20362],[-119.04721,51.20361],[-119.04717,51.20362],[-119.04709,51.20362],[-119.047,51.20362],[-119.04691,51.20362],[-119.04683,51.20362],[-119.04676,51.20361],[-119.04668,51.20359],[-119.04661,51.20356],[-119.04648,51.20351],[-119.04638,51.20344],[-119.04629,51.20336],[-119.0462,51.2033],[-119.04617,51.20324],[-119.04615,51.20321],[-119.04608,51.20314],[-119.04605,51.20309],[-119.046,51.20304],[-119.04597,51.20298],[-119.04595,51.20293],[-119.04592,51.20288],[-119.04589,51.20283],[-119.04588,51.20281],[-119.04585,51.20279],[-119.04576,51.20272],[-119.04565,51.20267],[-119.04558,51.20267],[-119.04554,51.20267],[-119.0454,51.20268],[-119.04533,51.20269],[-119.04525,51.2027],[-119.04517,51.20272],[-119.0451,51.20275],[-119.045,51.20278],[-119.04489,51.20282],[-119.04475,51.20283],[-119.04467,51.20284],[-119.04459,51.20285],[-119.04443,51.20287],[-119.04435,51.20287],[-119.04426,51.20288],[-119.04417,51.20288],[-119.04409,51.20289],[-119.044,51.20289],[-119.04392,51.2029],[-119.04385,51.20291],[-119.04376,51.20292],[-119.04369,51.20294],[-119.04356,51.20299],[-119.04344,51.20303],[-119.04335,51.20305],[-119.04327,51.20307],[-119.04318,51.20309],[-119.0431,51.20311],[-119.043,51.20313],[-119.04291,51.20314],[-119.04281,51.20315],[-119.04273,51.20317],[-119.04266,51.20317],[-119.04257,51.20318],[-119.04247,51.20318],[-119.04238,51.20319],[-119.04229,51.2032],[-119.04219,51.20321],[-119.04209,51.20321],[-119.042,51.20322],[-119.04189,51.20323],[-119.04179,51.20323],[-119.04167,51.20322],[-119.04158,51.20321],[-119.04145,51.2032],[-119.04134,51.20319],[-119.0413,51.2032]]}},
{"type":"Feature","properties":{"spotId":"G-grouse-drive-0080","kind":"roadside","km":5.21,"climbM":138,"name":"420 m W of Shuswap Lake","flags":[]},"geometry":{"type":"LineString","coordinates":[[-119.06455,51.05866],[-119.06451,51.05979],[-119.06459,51.06004],[-119.0648,51.06024],[-119.06546,51.06054],[-119.06558,51.06066],[-119.06563,51.06071],[-119.06577,51.06121],[-119.06583,51.06141],[-119.06618,51.06179],[-119.06639,51.06203],[-119.06691,51.06241],[-119.06704,51.06268],[-119.06704,51.06324],[-119.06636,51.0649],[-119.06625,51.06588],[-119.06633,51.06616],[-119.06655,51.06655],[-119.06741,51.06753],[-119.06749,51.0677],[-119.06749,51.06793],[-119.06733,51.06834],[-119.06673,51.06899],[-119.06627,51.06933],[-119.06539,51.06999],[-119.06506,51.07063],[-119.065,51.07121],[-119.06499,51.07219],[-119.06513,51.07247],[-119.0657,51.07305],[-119.06578,51.07324],[-119.06576,51.07353],[-119.06551,51.07439],[-119.06527,51.07472],[-119.06495,51.07495],[-119.06434,51.07517],[-119.064,51.07546],[-119.06243,51.07806],[-119.06231,51.07854],[-119.06234,51.07888],[-119.06246,51.07902],[-119.06265,51.07911],[-119.06327,51.07916],[-119.06338,51.0792],[-119.06354,51.07927],[-119.06375,51.07948],[-119.06382,51.07979],[-119.06378,51.08093],[-119.0636,51.08137],[-119.06333,51.08165],[-119.06268,51.08211],[-119.06221,51.08257],[-119.06195,51.08298],[-119.06174,51.0837],[-119.06175,51.08388],[-119.06175,51.084],[-119.06168,51.08416],[-119.06161,51.08424],[-119.06156,51.08431],[-119.06121,51.08457],[-119.06107,51.08463],[-119.0609,51.08478],[-119.06073,51.085],[-119.05878,51.08866],[-119.05824,51.09048],[-119.05807,51.09079],[-119.05712,51.09179],[-119.05636,51.09277],[-119.05583,51.09375],[-119.0555,51.09483],[-119.0551,51.09574],[-119.05463,51.09756],[-119.05432,51.09829],[-119.05385,51.09906],[-119.05314,51.1],[-119.05279,51.10046],[-119.05267,51.10063],[-119.05225,51.10139]]}},
{"type":"Feature","properties":{"spotId":"G-moose-atv-0024","kind":"ride","km":1.11,"climbM":4,"name":"1.4 km W of Shuswap Lake","flags":[]},"geometry":{"type":"MultiLineString","coordinates":[[[-119.04463,51.19625],[-119.04453,51.19646],[-119.04442,51.19676],[-119.04433,51.19709],[-119.04421,51.19734],[-119.04419,51.1975],[-119.04411,51.19774],[-119.044,51.19794],[-119.04385,51.19809],[-119.04379,51.19823],[-119.04383,51.1984],[-119.04393,51.19855],[-119.04395,51.1986]],[[-119.04461,51.19625],[-119.04457,51.19625],[-119.04446,51.19628],[-119.04438,51.19629],[-119.04427,51.19632],[-119.04419,51.19638],[-119.04409,51.19645],[-119.04402,51.1965],[-119.04373,51.19673],[-119.04362,51.19682],[-119.04357,51.19688],[-119.0435,51.19695],[-119.04344,51.19699],[-119.0434,51.19705],[-119.04336,51.1971],[-119.04335,51.19716],[-119.04332,51.19721],[-119.04328,51.19727],[-119.0432,51.19736],[-119.04315,51.19744],[-119.04308,51.19753],[-119.04305,51.19758],[-119.04301,51.19766],[-119.04296,51.19772],[-119.0429,51.19779],[-119.04285,51.19786],[-119.04282,51.19793],[-119.04279,51.19801],[-119.04276,51.19806],[-119.04269,51.19816],[-119.04267,51.1982],[-119.04261,51.19827],[-119.04259,51.19835],[-119.04255,51.19843],[-119.04251,51.19847],[-119.04246,51.19853],[-119.04241,51.19858],[-119.04237,51.19864],[-119.04233,51.1987],[-119.04229,51.19877],[-119.04225,51.19883],[-119.04221,51.19889],[-119.04217,51.19895],[-119.04211,51.199],[-119.04207,51.19905],[-119.04205,51.1991],[-119.04199,51.19917],[-119.04191,51.19923],[-119.0418,51.19931],[-119.04167,51.19939],[-119.04162,51.19944],[-119.04156,51.1995],[-119.04151,51.19956],[-119.04147,51.19963],[-119.04144,51.1997],[-119.04143,51.19976],[-119.04143,51.19982],[-119.04142,51.19986],[-119.04138,51.19997],[-119.04137,51.20001],[-119.04125,51.20022],[-119.04124,51.20027],[-119.0412,51.20034],[-119.04116,51.2004],[-119.04113,51.20048],[-119.04112,51.20055],[-119.0411,51.2006],[-119.04107,51.2007],[-119.04106,51.20076],[-119.04103,51.2008],[-119.04101,51.20086],[-119.04098,51.20098],[-119.041,51.20103],[-119.041,51.2011],[-119.04102,51.20114],[-119.04104,51.2012],[-119.04105,51.20126],[-119.04109,51.20131],[-119.0411,51.20137],[-119.04113,51.20143],[-119.04115,51.20149],[-119.04118,51.20158],[-119.0412,51.20164],[-119.0412,51.2017],[-119.04122,51.20174],[-119.04122,51.2018],[-119.04122,51.20188],[-119.04123,51.20195],[-119.04123,51.202],[-119.04123,51.20206],[-119.04125,51.20215],[-119.04125,51.20222],[-119.04127,51.20228],[-119.04127,51.20235],[-119.04126,51.20242],[-119.04127,51.20247],[-119.04125,51.20256],[-119.04124,51.20261],[-119.04123,51.20267],[-119.04123,51.20271],[-119.04121,51.2028],[-119.04121,51.20287],[-119.0412,51.20293],[-119.04119,51.20301],[-119.04121,51.20308]]]}},
{"type":"Feature","properties":{"spotId":"G-moose-atv-0024","kind":"walk","km":0.02,"climbM":0,"name":"1.4 km W of Shuswap Lake","flags":[]},"geometry":{"type":"LineString","coordinates":[[-119.04395,51.1986],[-119.04363,51.19865]]}},
{"type":"Feature","properties":{"spotId":"G-moose-atv-0063","kind":"ride","km":4.53,"climbM":21,"name":"1.4 km NW of Blueberry Creek","flags":["Route crosses private land (ParcelMap BC, updated 2026-09-25): get permission first or go around."]},"geometry":{"type":"LineString","coordinates":[[-119.04504,51.22185],[-119.04509,51.22182],[-119.04523,51.22173],[-119.04532,51.22163],[-119.04556,51.2215],[-119.04558,51.22139],[-119.04569,51.22127],[-119.04578,51.22108],[-119.04586,51.22097],[-119.04605,51.22081],[-119.04614,51.22074],[-119.04638,51.22053],[-119.04655,51.22028],[-119.04665,51.22021],[-119.04674,51.22005],[-119.0468,51.21992],[-119.04686,51.21983],[-119.04696,51.21977],[-119.047,51.2197],[-119.04713,51.21957],[-119.04719,51.21949],[-119.04725,51.21937],[-119.04739,51.21924],[-119.04741,51.21914],[-119.04739,51.21885],[-119.04733,51.21858],[-119.04731,51.21833],[-119.04733,51.21808],[-119.04733,51.21792],[-119.04741,51.21775],[-119.04749,51.21761],[-119.04756,51.21745],[-119.0476,51.2173],[-119.04768,51.21708],[-119.04773,51.21692],[-119.04779,51.21671],[-119.04781,51.21657],[-119.04778,51.21646],[-119.04768,51.2164],[-119.04745,51.21637],[-119.04728,51.21643],[-119.04715,51.21651],[-119.04716,51.21662],[-119.04704,51.21671],[-119.04693,51.21681],[-119.04686,51.21686],[-119.0468,51.21691],[-119.04672,51.21697],[-119.04665,51.21702],[-119.04655,51.21708],[-119.04648,51.21714],[-119.04641,51.21718],[-119.04631,51.21723],[-119.04623,51.21728],[-119.04615,51.21732],[-119.04606,51.21737],[-119.04598,51.21743],[-119.0459,51.21748],[-119.04581,51.21754],[-119.04574,51.2176],[-119.04568,51.21768],[-119.04562,51.21775],[-119.04549,51.21779],[-119.04541,51.21779],[-119.04532,51.21773],[-119.0453,51.21767],[-119.04533,51.21762],[-119.04537,51.21756],[-119.04547,51.21747],[-119.04549,51.21743],[-119.04555,51.21736],[-119.04562,51.2173],[-119.04567,51.21724],[-119.04572,51.21718],[-119.04578,51.21711],[-119.04585,51.21704],[-119.0459,51.21699],[-119.04597,51.21688],[-119.046,51.21682],[-119.04607,51.21667],[-119.04614,51.21659],[-119.04618,51.21651],[-119.04624,51.21644],[-119.04626,51.21636],[-119.04629,51.21629],[-119.04631,51.21621],[-119.04637,51.21612],[-119.04642,51.21605],[-119.04647,51.21598],[-119.04653,51.21591],[-119.04658,51.21584],[-119.04665,51.21577],[-119.0467,51.2157],[-119.04676,51.21564],[-119.04683,51.21557],[-119.0469,51.2155],[-119.04695,51.21543],[-119.04701,51.21538],[-119.04703,51.21532],[-119.04704,51.21528],[-119.04704,51.21522],[-119.04698,51.21515],[-119.04689,51.21514],[-119.04681,51.21515],[-119.04672,51.21516],[-119.04664,51.21518],[-119.04655,51.21521],[-119.04646,51.21524],[-119.04636,51.21527],[-119.04626,51.2153],[-119.04614,51.21534],[-119.04605,51.21538],[-119.04593,51.21542],[-119.04585,51.21548],[-119.04577,51.21552],[-119.04567,51.21558],[-119.0456,51.21563],[-119.04552,51.21569],[-119.04545,51.21574],[-119.04538,51.21579],[-119.04529,51.21585],[-119.0452,51.21589],[-119.0451,51.21596],[-119.045,51.216],[-119.04492,51.21604],[-119.04483,51.21609],[-119.04475,51.21613],[-119.04466,51.21617],[-119.04458,51.21621],[-119.04451,51.21625],[-119.04441,51.21629],[-119.04433,51.21633],[-119.04424,51.21638],[-119.04416,51.21641],[-119.04407,51.21645],[-119.04399,51.2165],[-119.04392,51.21654],[-119.04377,51.21664],[-119.04366,51.21672],[-119.04354,51.21677],[-119.04342,51.21683],[-119.04331,51.21691],[-119.04321,51.21697],[-119.04293,51.21712],[-119.04285,51.21716],[-119.04276,51.21719],[-119.04268,51.21724],[-119.04259,51.21729],[-119.04252,51.21732],[-119.04244,51.21738],[-119.04234,51.21743],[-119.04224,51.21747],[-119.04213,51.21752],[-119.04202,51.21757],[-119.04192,51.21761],[-119.04184,51.21766],[-119.04177,51.2177],[-119.04168,51.21773],[-119.0416,51.21777],[-119.04151,51.21782],[-119.04144,51.21785],[-119.04136,51.21789],[-119.04126,51.21795],[-119.04118,51.218],[-119.0411,51.21808],[-119.04103,51.21814],[-119.04097,51.21819],[-119.0409,51.21824],[-119.04085,51.2183],[-119.04079,51.21835],[-119.04075,51.21842],[-119.04071,51.21847],[-119.04066,51.21853],[-119.0406,51.21861],[-119.04056,51.21868],[-119.04052,51.21875],[-119.04048,51.21883],[-119.04047,51.2189],[-119.04046,51.21897],[-119.04045,51.21903],[-119.04034,51.21913],[-119.04027,51.21916],[-119.04014,51.21923],[-119.04002,51.21929],[-119.03991,51.21935],[-119.03978,51.21942],[-119.03967,51.21951],[-119.0396,51.21956],[-119.03955,51.21962],[-119.03945,51.21971],[-119.03935,51.21977],[-119.03927,51.21983],[-119.03913,51.21992],[-119.03906,51.21995],[-119.03899,51.21998],[-119.03891,51.22002],[-119.03882,51.22006],[-119.03874,51.22011],[-119.03867,51.22014],[-119.0386,51.2202],[-119.03854,51.22026],[-119.03847,51.22033],[-119.03841,51.22039],[-119.03835,51.22044],[-119.0383,51.22049],[-119.03823,51.22054],[-119.03816,51.22058],[-119.03807,51.22062],[-119.038,51.22068],[-119.03793,51.22073],[-119.03788,51.22079],[-119.03782,51.22085],[-119.03777,51.22091],[-119.03772,51.22097],[-119.03765,51.22103],[-119.03759,51.22109],[-119.0375,51.22119],[-119.03743,51.22124],[-119.03734,51.22127],[-119.0373,51.22134],[-119.0372,51.22139],[-119.03711,51.22144],[-119.03699,51.22147],[-119.03688,51.22148],[-119.03676,51.22148],[-119.03665,51.22146],[-119.03658,51.22145],[-119.03645,51.22142],[-119.03636,51.22138],[-119.03627,51.22134],[-119.0362,51.22127],[-119.03617,51.22121],[-119.03612,51.22114],[-119.03607,51.22108],[-119.03603,51.22101],[-119.036,51.22094],[-119.03596,51.22086],[-119.03593,51.22079],[-119.03591,51.22073],[-119.03588,51.22066],[-119.03585,51.22059],[-119.03582,51.2205],[-119.03577,51.22043],[-119.03574,51.22035],[-119.03571,51.22027],[-119.03569,51.2202],[-119.03567,51.22012],[-119.03566,51.22006],[-119.03564,51.22],[-119.03562,51.21994],[-119.0356,51.21986],[-119.03559,51.2198],[-119.03557,51.21975],[-119.03555,51.21969],[-119.03555,51.21965],[-119.03554,51.2196],[-119.03552,51.21954],[-119.03552,51.21949],[-119.0355,51.21943],[-119.0355,51.21934],[-119.03551,51.21924],[-119.03549,51.21916],[-119.03548,51.2191],[-119.03548,51.21904],[-119.03548,51.21898],[-119.03548,51.2189],[-119.03546,51.21884],[-119.03546,51.21876],[-119.03545,51.21869],[-119.03544,51.21863],[-119.03543,51.21854],[-119.03543,51.21846],[-119.03541,51.21839],[-119.03541,51.21832],[-119.03538,51.21827],[-119.03536,51.2182],[-119.03534,51.21814],[-119.0353,51.21809],[-119.03524,51.21804],[-119.03519,51.21797],[-119.03515,51.21792],[-119.03507,51.21783],[-119.03503,51.21778],[-119.03498,51.21773],[-119.03492,51.21769],[-119.03488,51.21764],[-119.03482,51.21758],[-119.03476,51.21753],[-119.0347,51.21748],[-119.03465,51.21743],[-119.03459,51.21738],[-119.03455,51.21734],[-119.03449,51.21729],[-119.03443,51.21724],[-119.03428,51.21716],[-119.03417,51.2171],[-119.03406,51.21702],[-119.03403,51.217],[-119.03394,51.21693],[-119.03387,51.21689],[-119.03377,51.21686],[-119.03368,51.21681],[-119.03358,51.21678],[-119.03349,51.21674],[-119.0334,51.2167],[-119.03334,51.21667],[-119.03314,51.21658],[-119.03297,51.21652],[-119.03278,51.21645],[-119.03272,51.2164],[-119.03253,51.21635],[-119.0324,51.2163],[-119.03237,51.2163],[-119.03228,51.21629],[-119.03218,51.21629],[-119.03208,51.21627],[-119.03194,51.21625],[-119.03182,51.21622],[-119.03169,51.21619],[-119.03158,51.21618],[-119.03145,51.21619],[-119.0313,51.2162],[-119.03119,51.21619],[-119.03116,51.21618],[-119.03103,51.21618],[-119.03087,51.21616],[-119.03076,51.21614],[-119.03066,51.21611],[-119.03055,51.21608],[-119.03047,51.21606],[-119.03035,51.21606],[-119.03024,51.21607],[-119.03018,51.21607],[-119.03014,51.21607],[-119.03004,51.21606],[-119.02995,51.21599],[-119.02989,51.2159],[-119.02986,51.21585],[-119.02986,51.21584],[-119.02984,51.2158],[-119.02982,51.21576],[-119.02982,51.2157],[-119.02981,51.21566],[-119.02979,51.21556],[-119.02978,51.21551],[-119.02977,51.21547],[-119.02977,51.21542],[-119.02973,51.21533],[-119.02969,51.21527],[-119.0296,51.21519],[-119.0295,51.21515],[-119.02935,51.21513],[-119.02928,51.21514],[-119.02914,51.21515],[-119.02904,51.21517],[-119.0289,51.21521],[-119.02881,51.21523],[-119.02871,51.21526],[-119.02864,51.21529],[-119.02852,51.21534],[-119.02838,51.21539],[-119.02829,51.21542],[-119.02821,51.21545],[-119.02812,51.21548],[-119.02804,51.2155],[-119.02795,51.21551],[-119.02787,51.21553],[-119.02771,51.21555],[-119.02761,51.21558],[-119.02753,51.21561],[-119.02743,51.21564],[-119.02736,51.21567],[-119.02724,51.21571],[-119.02713,51.2158],[-119.02708,51.21586],[-119.02704,51.21591],[-119.027,51.21597],[-119.02696,51.21602],[-119.02692,51.21608],[-119.02689,51.21615],[-119.02685,51.21621],[-119.02683,51.21627],[-119.02679,51.21636],[-119.02675,51.21644],[-119.02673,51.21649],[-119.02668,51.21659],[-119.02659,51.21669],[-119.02648,51.21676],[-119.02633,51.21679],[-119.02618,51.21681],[-119.02608,51.2168],[-119.02595,51.21678],[-119.02586,51.21677],[-119.02579,51.21671],[-119.0257,51.21662],[-119.02559,51.21653],[-119.02547,51.21639],[-119.02544,51.21628],[-119.02544,51.21619],[-119.02545,51.21601],[-119.02541,51.21586],[-119.0253,51.21564],[-119.02527,51.21542],[-119.02521,51.21519],[-119.02513,51.21503],[-119.02482,51.21492],[-119.02444,51.21485],[-119.02414,51.21475],[-119.02376,51.21468],[-119.02347,51.21462],[-119.02327,51.21454],[-119.02307,51.21443],[-119.02288,51.21419],[-119.02278,51.21393],[-119.02255,51.21369],[-119.02237,51.21351],[-119.02212,51.21335],[-119.02188,51.21325],[-119.02159,51.21306],[-119.02139,51.2129],[-119.02113,51.21269],[-119.02095,51.21251],[-119.02075,51.2124],[-119.02052,51.21229],[-119.02032,51.21228],[-119.01986,51.21227],[-119.01942,51.21226],[-119.01909,51.21226],[-119.01889,51.21225],[-119.01877,51.21228],[-119.01853,51.21237],[-119.01824,51.21248],[-119.01808,51.2126],[-119.01779,51.21272],[-119.01776,51.21273],[-119.01765,51.21274],[-119.01754,51.21275],[-119.01746,51.21275],[-119.0174,51.21274],[-119.01732,51.21272],[-119.01727,51.21268],[-119.01724,51.21264],[-119.0172,51.2126],[-119.01719,51.21256],[-119.01714,51.21248]]}},
{"type":"Feature","properties":{"spotId":"G-moose-atv-0063","kind":"walk","km":0.06,"climbM":20,"name":"1.4 km NW of Blueberry Creek","flags":["Route crosses private land (ParcelMap BC, updated 2026-09-25): get permission first or go around."]},"geometry":{"type":"LineString","coordinates":[[-119.04504,51.22185],[-119.04568,51.22223]]}},
{"type":"Feature","properties":{"spotId":"G-moose-backcountry-0001","kind":"backcountry","km":5.55,"climbM":1123,"name":"2.5 km NE of Pukeashun Mountain","flags":[]},"geometry":{"type":"LineString","coordinates":[[-119.24257,51.27243],[-119.21881,51.22491]]}},
{"type":"Feature","properties":{"spotId":"G-moose-backcountry-0003","kind":"backcountry","km":5.09,"climbM":1124,"name":"5.9 km S of Humamilt Lake West rec site","flags":[]},"geometry":{"type":"LineString","coordinates":[[-119.15034,51.28546],[-119.17923,51.24352]]}},
{"type":"Feature","properties":{"spotId":"G-moose-walk-0009","kind":"walk","km":0.37,"climbM":33,"name":"290 m NE of Blueberry Creek","flags":[]},"geometry":{"type":"LineString","coordinates":[[-119.01714,51.21248],[-119.01719,51.21256],[-119.0172,51.2126],[-119.01724,51.21264],[-119.01727,51.21268],[-119.01732,51.21272],[-119.0174,51.21274],[-119.01746,51.21275],[-119.01754,51.21275],[-119.01765,51.21274],[-119.01776,51.21273],[-119.02158,51.21407]]}},
{"type":"Feature","properties":{"spotId":"G-moose-walk-0064","kind":"walk","km":4.24,"climbM":1344,"name":"830 m NE of Angle Mountain","flags":["Route crosses private land (ParcelMap BC, updated 2026-09-25): get permission first or go around."]},"geometry":{"type":"LineString","coordinates":[[-119.10154,50.98314],[-119.1295,51.0169]]}}
]}
