{"type":"FeatureCollection","features":[
{"type":"Feature","properties":{"spotId":"G-camp-camp-0020","kind":"walk","km":0.13,"climbM":0,"name":"1.5 km E of Adams River","flags":[]},"geometry":{"type":"LineString","coordinates":[[-119.24284,51.57797],[-119.24475,51.57787]]}},
{"type":"Feature","properties":{"spotId":"G-camp-camp-0021","kind":"walk","km":0.04,"climbM":0,"name":"240 m SE of Upper Harbour Lake","flags":[]},"geometry":{"type":"LineString","coordinates":[[-119.15967,51.56185],[-119.16014,51.56199]]}},
{"type":"Feature","properties":{"spotId":"G-camp-camp-0022","kind":"walk","km":0.14,"climbM":0,"name":"190 m NE of Harbour Creek","flags":[]},"geometry":{"type":"LineString","coordinates":[[-119.23241,51.53413],[-119.23397,51.53486]]}},
{"type":"Feature","properties":{"spotId":"G-duck-drive-0034","kind":"walk","km":0.1,"climbM":0,"name":"Unnamed wetland 1.1 km E of Adams River","flags":[]},"geometry":{"type":"LineString","coordinates":[[-119.24591,51.58263],[-119.2473,51.58234]]}},
{"type":"Feature","properties":{"spotId":"G-duck-drive-0044","kind":"walk","km":0.22,"climbM":0,"name":"Unnamed wetland by Harbour Creek","flags":[]},"geometry":{"type":"LineString","coordinates":[[-119.20223,51.52792],[-119.20083,51.52968]]}},
{"type":"Feature","properties":{"spotId":"G-duck-drive-0048","kind":"walk","km":0.13,"climbM":0,"name":"Harbour Lake","flags":[]},"geometry":{"type":"LineString","coordinates":[[-119.17526,51.54093],[-119.17674,51.54159]]}},
{"type":"Feature","properties":{"spotId":"G-duck-drive-0055","kind":"walk","km":0.04,"climbM":0,"name":"Unnamed wetland 310 m NW of Meadow Creek","flags":[]},"geometry":{"type":"LineString","coordinates":[[-119.17626,51.50919],[-119.17571,51.50918]]}},
{"type":"Feature","properties":{"spotId":"G-duck-drive-0064","kind":"walk","km":0.05,"climbM":0,"name":"Unnamed wetland 2.1 km NE of Harbour Creek","flags":[]},"geometry":{"type":"LineString","coordinates":[[-119.24974,51.56226],[-119.24915,51.56251]]}},
{"type":"Feature","properties":{"spotId":"G-duck-drive-0097","kind":"walk","km":0.14,"climbM":0,"name":"Unnamed wetland 300 m NE of Harbour Creek","flags":[]},"geometry":{"type":"LineString","coordinates":[[-119.23241,51.53413],[-119.23241,51.53536]]}},
{"type":"Feature","properties":{"spotId":"G-duck-drive-0107","kind":"walk","km":0.23,"climbM":0,"name":"Unnamed wetland 290 m S of Bryan Lake","flags":[]},"geometry":{"type":"LineString","coordinates":[[-119.167,51.5497],[-119.17024,51.55027]]}},
{"type":"Feature","properties":{"spotId":"G-duck-drive-0126","kind":"walk","km":0.04,"climbM":2,"name":"Unnamed wetland 1.2 km W of Seymour Range","flags":[]},"geometry":{"type":"LineString","coordinates":[[-119.08512,51.50264],[-119.08468,51.50245]]}},
{"type":"Feature","properties":{"spotId":"G-duck-drive-0131","kind":"walk","km":0.19,"climbM":0,"name":"Unnamed wetland 3.4 km NW of Seymour Range","flags":[]},"geometry":{"type":"LineString","coordinates":[[-119.10699,51.52108],[-119.10437,51.52056]]}},
{"type":"Feature","properties":{"spotId":"G-duck-drive-0153","kind":"walk","km":0.15,"climbM":0,"name":"Unnamed wetland 200 m W of Dudgeon Creek","flags":[]},"geometry":{"type":"LineString","coordinates":[[-119.1331,51.58739],[-119.13475,51.5882]]}},
{"type":"Feature","properties":{"spotId":"G-duck-walk-0008","kind":"walk","km":0.35,"climbM":0,"name":"Unnamed wetland 460 m SE of Harbour Lake","flags":[]},"geometry":{"type":"LineString","coordinates":[[-119.19055,51.52637],[-119.18787,51.52903]]}},
{"type":"Feature","properties":{"spotId":"G-duck-walk-0029","kind":"walk","km":0.62,"climbM":12,"name":"Unnamed wetland by Pigeon Creek","flags":["Route crosses provincial park: Harbour-Dudgeon Lakes Park. Hunting only where that park allows it, in open season. Check its bcparks.ca page (synopsis page 9, 99%)."]},"geometry":{"type":"LineString","coordinates":[[-119.16455,51.55919],[-119.17126,51.5628]]}},
{"type":"Feature","properties":{"spotId":"G-duck-walk-0030","kind":"walk","km":0.31,"climbM":0,"name":"Unnamed wetland 1.6 km NW of Seymour Range","flags":[]},"geometry":{"type":"LineString","coordinates":[[-119.0827,51.50665],[-119.08598,51.50848]]}},
{"type":"Feature","properties":{"spotId":"G-duck-walk-0040","kind":"walk","km":0.45,"climbM":1,"name":"Unnamed wetland 3.1 km NW of Seymour Range","flags":[]},"geometry":{"type":"LineString","coordinates":[[-119.10693,51.51678],[-119.10092,51.51823]]}},
{"type":"Feature","properties":{"spotId":"G-duck-walk-0055","kind":"walk","km":0.33,"climbM":24,"name":"Unnamed wetland 2.4 km S of Bower Creek","flags":[]},"geometry":{"type":"LineString","coordinates":[[-119.13192,51.51638],[-119.12725,51.51602]]}},
{"type":"Feature","properties":{"spotId":"G-grouse-atv-0001","kind":"ride","km":3.8,"climbM":9,"name":"By Dudgeon Creek","flags":[]},"geometry":{"type":"LineString","coordinates":[[-119.08229,51.57965],[-119.08276,51.57967],[-119.08336,51.57974],[-119.08385,51.57983],[-119.08413,51.57988],[-119.08444,51.5799],[-119.08505,51.58001],[-119.08549,51.58019],[-119.08586,51.5804],[-119.08614,51.58052],[-119.08677,51.58068],[-119.08701,51.58071],[-119.08742,51.58076],[-119.08765,51.5808],[-119.0877,51.58085],[-119.08778,51.58104],[-119.08794,51.58119],[-119.08818,51.58133],[-119.08853,51.58146],[-119.08901,51.58139],[-119.0892,51.58128],[-119.0894,51.58124],[-119.08964,51.58124],[-119.08972,51.58124],[-119.09028,51.58124],[-119.09085,51.58125],[-119.09152,51.58131],[-119.09205,51.58135],[-119.09274,51.5815],[-119.09316,51.58163],[-119.0935,51.58174],[-119.09382,51.58181],[-119.0942,51.58189],[-119.09439,51.5819],[-119.09453,51.58194],[-119.09487,51.58199],[-119.09539,51.58206],[-119.09587,51.58214],[-119.09653,51.58203],[-119.09683,51.58192],[-119.09713,51.58184],[-119.09741,51.58174],[-119.09797,51.5817],[-119.09877,51.58178],[-119.09928,51.58188],[-119.09954,51.58193],[-119.09969,51.58196],[-119.10002,51.58205],[-119.10036,51.58223],[-119.10064,51.58236],[-119.10085,51.58249],[-119.10117,51.58262],[-119.10135,51.58271],[-119.10157,51.58279],[-119.10188,51.58283],[-119.10261,51.58281],[-119.10287,51.58273],[-119.10301,51.58267],[-119.10314,51.58259],[-119.10336,51.58241],[-119.10365,51.58218],[-119.10396,51.5821],[-119.10421,51.58203],[-119.10435,51.58201],[-119.10452,51.58198],[-119.10468,51.58193],[-119.10517,51.58192],[-119.10545,51.58198],[-119.10573,51.5821],[-119.10579,51.58213],[-119.10621,51.58231],[-119.10652,51.58239],[-119.10668,51.58248],[-119.10693,51.5826],[-119.10724,51.58276],[-119.10758,51.5829],[-119.10783,51.58301],[-119.10801,51.58309],[-119.10818,51.58309],[-119.1085,51.58306],[-119.10936,51.58304],[-119.10972,51.58303],[-119.10984,51.58303],[-119.10995,51.583],[-119.11031,51.58299],[-119.11057,51.583],[-119.11075,51.58304],[-119.11101,51.58303],[-119.11115,51.58304],[-119.11123,51.58306],[-119.11134,51.58306],[-119.11146,51.58309],[-119.11172,51.58311],[-119.11188,51.58311],[-119.11198,51.58311],[-119.11205,51.58312],[-119.11213,51.58315],[-119.11217,51.58315],[-119.11249,51.58315],[-119.11281,51.58318],[-119.11315,51.58319],[-119.11344,51.5832],[-119.11353,51.58321],[-119.1136,51.58321],[-119.1137,51.58324],[-119.11391,51.58323],[-119.11395,51.58325],[-119.11412,51.58325],[-119.11434,51.58328],[-119.11463,51.58331],[-119.11491,51.58334],[-119.11512,51.58338],[-119.11517,51.58338],[-119.11549,51.58341],[-119.11584,51.58348],[-119.11589,51.58347],[-119.11607,51.58353],[-119.11631,51.58366],[-119.11644,51.58375],[-119.11672,51.58393],[-119.11694,51.58402],[-119.11715,51.58409],[-119.1174,51.58417],[-119.11753,51.58422],[-119.11772,51.58427],[-119.118,51.58435],[-119.11819,51.58434],[-119.11833,51.58437],[-119.11865,51.58441],[-119.11877,51.5844],[-119.11919,51.5844],[-119.11939,51.58441],[-119.11963,51.58444],[-119.11996,51.58452],[-119.12031,51.5846],[-119.12055,51.58461],[-119.12089,51.58465],[-119.12108,51.58473],[-119.12127,51.58482],[-119.12139,51.58493],[-119.12147,51.58506],[-119.12154,51.5851],[-119.12156,51.58513],[-119.12162,51.58518],[-119.12168,51.58526],[-119.12189,51.58541],[-119.1219,51.58543],[-119.12195,51.58546],[-119.12208,51.58558],[-119.12231,51.58572],[-119.12241,51.58581],[-119.12262,51.5859],[-119.12284,51.586],[-119.12294,51.58606],[-119.12309,51.58611],[-119.12321,51.58619],[-119.12334,51.58625],[-119.12339,51.58627],[-119.12363,51.58633],[-119.12375,51.58638],[-119.12377,51.5864],[-119.12384,51.58642],[-119.12387,51.58644],[-119.12396,51.58647],[-119.12406,51.58652],[-119.12441,51.58663],[-119.12446,51.58666],[-119.12468,51.58672],[-119.12493,51.5868],[-119.12519,51.58688],[-119.12534,51.58691],[-119.12541,51.58691],[-119.12566,51.58693],[-119.12579,51.58697],[-119.12611,51.58704],[-119.12623,51.58708],[-119.12647,51.58715],[-119.12659,51.5872],[-119.12694,51.58728],[-119.12726,51.58737],[-119.12738,51.58742],[-119.12748,51.58745],[-119.12774,51.58759],[-119.1279,51.58763],[-119.12823,51.58776],[-119.12844,51.5878],[-119.12869,51.58786],[-119.12883,51.58791],[-119.12888,51.58792],[-119.12898,51.58797],[-119.1291,51.58799],[-119.12913,51.588],[-119.12929,51.588],[-119.12936,51.58802],[-119.12949,51.58808],[-119.12971,51.58811],[-119.12988,51.58811],[-119.13007,51.58812],[-119.13011,51.58811],[-119.13043,51.5881],[-119.13046,51.58809],[-119.13067,51.58807],[-119.1307,51.58805],[-119.13082,51.58803],[-119.13086,51.58802],[-119.13099,51.588],[-119.13109,51.58798],[-119.13154,51.58797]]}},
{"type":"Feature","properties":{"spotId":"G-grouse-atv-0017","kind":"walk","km":2.18,"climbM":603,"name":"2.0 km NE of Cunningham, Mount","flags":[]},"geometry":{"type":"LineString","coordinates":[[-119.18972,51.61261],[-119.18109,51.59383]]}},
{"type":"Feature","properties":{"spotId":"G-grouse-atv-0017","kind":"ride","km":3.47,"climbM":118,"name":"2.0 km NE of Cunningham, Mount","flags":[]},"geometry":{"type":"LineString","coordinates":[[-119.18109,51.59383],[-119.18113,51.5937],[-119.18131,51.59343],[-119.1814,51.59322],[-119.18125,51.59294],[-119.18102,51.59273],[-119.18101,51.59263],[-119.18117,51.59223],[-119.18091,51.59145],[-119.18092,51.5908],[-119.18053,51.59025],[-119.18051,51.58971],[-119.18022,51.58917],[-119.18022,51.58858],[-119.18047,51.58818],[-119.18081,51.58699],[-119.181,51.58679],[-119.18133,51.58661],[-119.18147,51.58646],[-119.18153,51.58639],[-119.18153,51.58636],[-119.18152,51.58622],[-119.18156,51.58566],[-119.18164,51.58536],[-119.18172,51.58468],[-119.1816,51.58435],[-119.18162,51.58403],[-119.18159,51.58354],[-119.18163,51.58294],[-119.18167,51.58251],[-119.18164,51.58229],[-119.18196,51.58184],[-119.18233,51.58147],[-119.18257,51.58092],[-119.18313,51.57984],[-119.18339,51.57919],[-119.18358,51.57862],[-119.18377,51.57838],[-119.18435,51.57804],[-119.18492,51.5778],[-119.18555,51.57747],[-119.18603,51.57729],[-119.18653,51.577],[-119.18706,51.57667],[-119.1875,51.57626],[-119.18778,51.57597],[-119.1883,51.57574],[-119.18913,51.57546],[-119.1897,51.57539],[-119.18972,51.57539],[-119.19013,51.57537],[-119.19022,51.57536],[-119.19032,51.5753],[-119.19036,51.57526],[-119.19033,51.57521],[-119.19026,51.57486],[-119.19011,51.57444],[-119.19024,51.57397],[-119.19046,51.57342],[-119.19079,51.57307],[-119.19128,51.57268],[-119.19174,51.5723],[-119.19204,51.57198],[-119.19253,51.57127],[-119.19285,51.5709],[-119.19324,51.57063],[-119.19411,51.57025],[-119.19495,51.56995],[-119.19535,51.56964],[-119.19572,51.56951],[-119.1965,51.56929],[-119.19731,51.56894],[-119.19783,51.56868],[-119.19848,51.56841],[-119.19932,51.56822]]}},
{"type":"Feature","properties":{"spotId":"G-grouse-atv-0071","kind":"walk","km":1.77,"climbM":194,"name":"2.0 km S of Cunningham, Mount","flags":[]},"geometry":{"type":"LineString","coordinates":[[-119.21211,51.5487],[-119.21207,51.5646]]}},
{"type":"Feature","properties":{"spotId":"G-grouse-atv-0071","kind":"ride","km":4.07,"climbM":106,"name":"2.0 km S of Cunningham, Mount","flags":[]},"geometry":{"type":"LineString","coordinates":[[-119.21207,51.5646],[-119.21181,51.56468],[-119.21145,51.56471],[-119.21091,51.5648],[-119.21067,51.56491],[-119.21047,51.56508],[-119.21024,51.56514],[-119.21003,51.56521],[-119.20958,51.56518],[-119.2093,51.56515],[-119.20906,51.56514],[-119.20881,51.56519],[-119.20852,51.56525],[-119.20814,51.56538],[-119.2078,51.56553],[-119.20746,51.56574],[-119.20714,51.56583],[-119.20679,51.56583],[-119.20666,51.56589],[-119.20656,51.56601],[-119.20608,51.56608],[-119.20574,51.56605],[-119.20535,51.56601],[-119.20511,51.566],[-119.20491,51.56609],[-119.20465,51.56626],[-119.20428,51.56636],[-119.20407,51.56638],[-119.20359,51.5663],[-119.20312,51.56623],[-119.2027,51.56624],[-119.20202,51.56617],[-119.20179,51.56621],[-119.20152,51.56637],[-119.2014,51.56652],[-119.20116,51.5668],[-119.20082,51.56723],[-119.20046,51.56751],[-119.20014,51.56781],[-119.1999,51.56791],[-119.19958,51.5681],[-119.19932,51.56822],[-119.19912,51.56847],[-119.19873,51.56876],[-119.19849,51.56902],[-119.19818,51.56918],[-119.19785,51.56934],[-119.19758,51.56963],[-119.19737,51.57006],[-119.19721,51.57046],[-119.19703,51.57065],[-119.19692,51.57075],[-119.19642,51.57099],[-119.19594,51.57127],[-119.19557,51.57149],[-119.19518,51.57164],[-119.195,51.5718],[-119.19477,51.57219],[-119.19452,51.57271],[-119.19415,51.57315],[-119.19395,51.57359],[-119.19387,51.5739],[-119.19381,51.57419],[-119.19403,51.57469],[-119.19427,51.5753],[-119.19467,51.57582],[-119.19502,51.57621],[-119.19521,51.57641],[-119.19521,51.57658],[-119.19495,51.57671],[-119.19431,51.57689],[-119.19388,51.57713],[-119.19326,51.57739],[-119.19268,51.57761],[-119.19213,51.57775],[-119.1916,51.57803],[-119.19132,51.5783],[-119.19095,51.5787],[-119.19074,51.57907],[-119.19081,51.57953],[-119.19075,51.57983],[-119.19064,51.58019],[-119.19065,51.58055],[-119.19071,51.58108],[-119.19064,51.58154],[-119.19046,51.58187],[-119.19036,51.58214],[-119.19049,51.58263],[-119.19044,51.58312],[-119.1905,51.58354],[-119.19055,51.58392],[-119.19049,51.58428],[-119.19038,51.58466],[-119.19034,51.5851],[-119.19045,51.5857],[-119.19058,51.58615],[-119.1908,51.58662],[-119.19116,51.58736],[-119.19135,51.58799],[-119.19154,51.58841],[-119.19161,51.58889],[-119.192,51.58973],[-119.19205,51.58994],[-119.1922,51.59024],[-119.19237,51.59071],[-119.19232,51.59113],[-119.1927,51.59169],[-119.19294,51.59211]]}},
{"type":"Feature","properties":{"spotId":"G-grouse-drive-0043","kind":"roadside","km":3.68,"climbM":253,"name":"By Bower Creek","flags":[]},"geometry":{"type":"LineString","coordinates":[[-119.12141,51.5401],[-119.12134,51.54015],[-119.12128,51.54018],[-119.12116,51.54031],[-119.12113,51.54032],[-119.1211,51.54035],[-119.12108,51.54037],[-119.12093,51.54043],[-119.12085,51.54046],[-119.12079,51.54049],[-119.12071,51.54052],[-119.12067,51.54054],[-119.12061,51.54055],[-119.12051,51.54059],[-119.12044,51.54065],[-119.1204,51.54068],[-119.12033,51.54071],[-119.12026,51.54074],[-119.12021,51.54075],[-119.12002,51.54082],[-119.11993,51.54084],[-119.1198,51.54086],[-119.11974,51.54088],[-119.11959,51.54097],[-119.11951,51.54102],[-119.11942,51.54105],[-119.11929,51.54114],[-119.11914,51.5412],[-119.11905,51.54123],[-119.11904,51.54123],[-119.11884,51.54123],[-119.11868,51.54123],[-119.11862,51.54122],[-119.11858,51.54121],[-119.11826,51.54112],[-119.11789,51.54106],[-119.11764,51.54098],[-119.11747,51.54093],[-119.11732,51.54086],[-119.11725,51.54083],[-119.11716,51.54081],[-119.11704,51.54076],[-119.11701,51.54076],[-119.11693,51.54075],[-119.11678,51.54075],[-119.11668,51.54077],[-119.11651,51.54079],[-119.11647,51.5408],[-119.1164,51.54083],[-119.11625,51.54085],[-119.11617,51.54088],[-119.11615,51.54089],[-119.11605,51.54091],[-119.11595,51.54095],[-119.1159,51.54096],[-119.11581,51.54096],[-119.11575,51.54097],[-119.11549,51.54098],[-119.11528,51.54098],[-119.11492,51.54098],[-119.11479,51.54098],[-119.11473,51.54097],[-119.11466,51.54097],[-119.11454,51.54095],[-119.11441,51.54096],[-119.11414,51.54095],[-119.11399,51.54097],[-119.11386,51.54098],[-119.11381,51.54098],[-119.11371,51.541],[-119.11351,51.54103],[-119.11336,51.54104],[-119.11325,51.54104],[-119.11308,51.54106],[-119.11302,51.54106],[-119.11295,51.54107],[-119.11283,51.54108],[-119.11277,51.54109],[-119.1127,51.54111],[-119.11262,51.54112],[-119.11241,51.54113],[-119.1113,51.54112],[-119.11129,51.54113],[-119.11122,51.54114],[-119.11113,51.54117],[-119.11105,51.54119],[-119.11079,51.54124],[-119.11069,51.54127],[-119.11027,51.54127],[-119.1099,51.54127],[-119.10964,51.54128],[-119.10952,51.5413],[-119.10947,51.54131],[-119.10931,51.54132],[-119.10909,51.54131],[-119.10902,51.5413],[-119.10898,51.5413],[-119.10892,51.54127],[-119.10887,51.54126],[-119.1088,51.54125],[-119.10876,51.54124],[-119.10871,51.54123],[-119.10863,51.54122],[-119.10852,51.5412],[-119.10841,51.5412],[-119.10828,51.54118],[-119.10813,51.54116],[-119.10809,51.54114],[-119.10797,51.54112],[-119.1079,51.54109],[-119.10787,51.54109],[-119.1078,51.54105],[-119.10777,51.541],[-119.10769,51.54094],[-119.10766,51.54092],[-119.10757,51.54085],[-119.10756,51.54083],[-119.10748,51.54076],[-119.10745,51.54072],[-119.1074,51.54066],[-119.10731,51.54055],[-119.10728,51.54051],[-119.10718,51.54029],[-119.10717,51.54024],[-119.10712,51.54017],[-119.1071,51.54011],[-119.10704,51.54004],[-119.10701,51.53988],[-119.10697,51.5398],[-119.10696,51.53978],[-119.10694,51.53964],[-119.10695,51.53957],[-119.10695,51.53953],[-119.10693,51.53951],[-119.10688,51.5394],[-119.10688,51.53936],[-119.10682,51.53924],[-119.10671,51.5391],[-119.10666,51.53901],[-119.10662,51.53896],[-119.10659,51.53891],[-119.10656,51.53888],[-119.10653,51.53887],[-119.10644,51.53877],[-119.10632,51.53867],[-119.10627,51.53862],[-119.10624,51.53858],[-119.10622,51.53854],[-119.10619,51.53852],[-119.10616,51.5385],[-119.10604,51.53837],[-119.10601,51.53834],[-119.10592,51.53821],[-119.1059,51.53819],[-119.10574,51.53808],[-119.10562,51.53801],[-119.10559,51.53798],[-119.10554,51.53789],[-119.10547,51.53781],[-119.10544,51.53775],[-119.10536,51.53771],[-119.1053,51.53762],[-119.10521,51.53754],[-119.10511,51.53746],[-119.10506,51.53741],[-119.10492,51.53727],[-119.10482,51.53717],[-119.10477,51.53715],[-119.10464,51.53705],[-119.10455,51.53697],[-119.10449,51.53693],[-119.10442,51.53688],[-119.1043,51.53678],[-119.10419,51.53671],[-119.10412,51.53669],[-119.10399,51.53666],[-119.10391,51.53663],[-119.10387,51.53662],[-119.10377,51.53659],[-119.10372,51.53656],[-119.10365,51.53654],[-119.10356,51.53649],[-119.10352,51.53648],[-119.10343,51.53646],[-119.1033,51.53643],[-119.10315,51.53641],[-119.1031,51.53637],[-119.10293,51.53631],[-119.10289,51.53628],[-119.10287,51.53626],[-119.10284,51.53625],[-119.10282,51.53624],[-119.10273,51.53617],[-119.10251,51.5361],[-119.10233,51.536],[-119.1023,51.53598],[-119.10217,51.53591],[-119.10208,51.53586],[-119.10203,51.53585],[-119.10197,51.5358],[-119.10193,51.53578],[-119.10191,51.53578],[-119.10186,51.53577],[-119.10174,51.53567],[-119.10169,51.53562],[-119.10159,51.53554],[-119.10151,51.53549],[-119.10147,51.53548],[-119.10135,51.53545],[-119.10126,51.53545],[-119.10116,51.53542],[-119.10106,51.5354],[-119.10103,51.5354],[-119.10099,51.53539],[-119.10086,51.53538],[-119.10081,51.53537],[-119.10073,51.53534],[-119.10065,51.53529],[-119.10058,51.53528],[-119.10054,51.53526],[-119.1004,51.53524],[-119.10027,51.53524],[-119.10007,51.53522],[-119.09998,51.53518],[-119.09993,51.53517],[-119.09974,51.53512],[-119.09969,51.53511],[-119.09949,51.53502],[-119.0994,51.53498],[-119.09931,51.53493],[-119.09921,51.53488],[-119.09916,51.53485],[-119.0991,51.53476],[-119.09907,51.53474],[-119.09905,51.53474],[-119.09903,51.53473],[-119.09901,51.53471],[-119.099,51.53471],[-119.09892,51.53465],[-119.09886,51.53458],[-119.0988,51.53452],[-119.09875,51.53445],[-119.09865,51.53434],[-119.09865,51.53433],[-119.0986,51.53426],[-119.09859,51.53426],[-119.09844,51.53414],[-119.0984,51.53408],[-119.09828,51.53395],[-119.09822,51.5339],[-119.09815,51.53381],[-119.09809,51.53375],[-119.09794,51.53363],[-119.09788,51.53357],[-119.0978,51.53352],[-119.09779,51.53349],[-119.09772,51.53341],[-119.09772,51.53339],[-119.09763,51.53327],[-119.09763,51.53324],[-119.09757,51.53314],[-119.09755,51.53308],[-119.09752,51.53306],[-119.09751,51.53303],[-119.09746,51.533],[-119.09734,51.53286],[-119.09729,51.53279],[-119.09725,51.53274],[-119.09714,51.5326],[-119.09712,51.53256],[-119.09703,51.53248],[-119.09697,51.53241],[-119.09686,51.53223],[-119.09682,51.5322],[-119.09677,51.53214],[-119.09668,51.53202],[-119.09666,51.53189],[-119.09663,51.53181],[-119.09664,51.53179],[-119.09668,51.5316],[-119.09667,51.53156],[-119.0967,51.53154],[-119.09674,51.53151],[-119.09677,51.53147],[-119.09684,51.53132],[-119.09683,51.53125],[-119.09684,51.53109],[-119.09682,51.531],[-119.09682,51.53093],[-119.09682,51.53077],[-119.09681,51.5307],[-119.09671,51.53045],[-119.09669,51.53032],[-119.09665,51.53019],[-119.09664,51.53017],[-119.09661,51.53007],[-119.09657,51.53001],[-119.09654,51.52997],[-119.09651,51.52991],[-119.09648,51.52988],[-119.09646,51.52983],[-119.09642,51.52971],[-119.09636,51.52967],[-119.09633,51.52965],[-119.0962,51.52951],[-119.09617,51.52949],[-119.09601,51.52936],[-119.09595,51.52933],[-119.09586,51.52928],[-119.09561,51.52918],[-119.09554,51.52915],[-119.09545,51.5291],[-119.09536,51.52903],[-119.09532,51.529],[-119.09523,51.52897],[-119.09508,51.52894],[-119.09504,51.52892],[-119.09495,51.52889],[-119.09491,51.52887],[-119.09483,51.52883],[-119.09465,51.52871],[-119.09458,51.52868],[-119.09452,51.52864],[-119.09436,51.52856],[-119.09431,51.52854],[-119.09417,51.52843],[-119.09399,51.52833],[-119.0939,51.52829],[-119.09385,51.52826],[-119.09382,51.52824],[-119.09375,51.52813],[-119.0937,51.52802],[-119.09355,51.5279],[-119.09351,51.52788],[-119.09343,51.52785],[-119.09337,51.52777],[-119.09312,51.52755],[-119.09305,51.52746],[-119.09298,51.52739],[-119.09292,51.52732],[-119.09282,51.52719],[-119.09276,51.52711],[-119.09275,51.52706],[-119.09267,51.52697],[-119.09262,51.52688],[-119.09258,51.52681],[-119.09252,51.52674],[-119.09253,51.52664],[-119.09251,51.52656],[-119.0925,51.52647],[-119.09247,51.5263],[-119.09244,51.52625],[-119.09227,51.52608],[-119.09233,51.52605],[-119.09233,51.5259],[-119.09233,51.5258],[-119.09234,51.52565],[-119.09232,51.52559],[-119.09231,51.52543],[-119.0923,51.5254],[-119.09228,51.52534],[-119.09229,51.52519],[-119.09228,51.5251],[-119.09225,51.52498],[-119.09226,51.52496],[-119.09224,51.5249],[-119.09223,51.52486],[-119.09223,51.52481],[-119.09221,51.52469],[-119.09219,51.52466],[-119.0921,51.52466],[-119.09207,51.52465],[-119.09209,51.52462],[-119.09208,51.52452],[-119.092,51.52428],[-119.09197,51.52421],[-119.09192,51.52404],[-119.09187,51.52399],[-119.09184,51.52396],[-119.09181,51.52395],[-119.09174,51.52392],[-119.09169,51.5239],[-119.09165,51.52386],[-119.0916,51.52384],[-119.09146,51.52377],[-119.09136,51.52377],[-119.09127,51.52377],[-119.09123,51.52374],[-119.09121,51.52372],[-119.09114,51.52367],[-119.09102,51.52361],[-119.09093,51.52356],[-119.0908,51.52351],[-119.09047,51.52332],[-119.09041,51.52325],[-119.09032,51.5232],[-119.09022,51.52312],[-119.09019,51.52312],[-119.09013,51.52307],[-119.09001,51.52297],[-119.08993,51.52292],[-119.08983,51.52284],[-119.08974,51.52276],[-119.08971,51.52275],[-119.08964,51.52271],[-119.08961,51.52269],[-119.08956,51.52263],[-119.08945,51.52253],[-119.08936,51.52239],[-119.08932,51.52236],[-119.08925,51.52221],[-119.08924,51.52215],[-119.08923,51.52213]]}},
{"type":"Feature","properties":{"spotId":"G-grouse-drive-0073","kind":"roadside","km":4.51,"climbM":116,"name":"620 m SE of Adams River","flags":[]},"geometry":{"type":"LineString","coordinates":[[-119.24413,51.59525],[-119.24417,51.59524],[-119.24473,51.59497],[-119.24506,51.59485],[-119.24529,51.59475],[-119.24557,51.5946],[-119.24565,51.59457],[-119.24572,51.59453],[-119.24586,51.59447],[-119.24603,51.59434],[-119.24635,51.59382],[-119.2464,51.59372],[-119.24648,51.5935],[-119.24657,51.59334],[-119.24671,51.59313],[-119.2468,51.59293],[-119.24678,51.59277],[-119.24666,51.59255],[-119.24639,51.59196],[-119.24631,51.59185],[-119.24616,51.59167],[-119.24612,51.59156],[-119.2461,51.59139],[-119.24605,51.59122],[-119.24606,51.59105],[-119.24611,51.59087],[-119.2462,51.59066],[-119.24634,51.59045],[-119.24635,51.59035],[-119.24635,51.59029],[-119.24628,51.59012],[-119.24619,51.58996],[-119.24611,51.58975],[-119.24607,51.58958],[-119.24602,51.58923],[-119.24602,51.58907],[-119.24599,51.58889],[-119.24598,51.58884],[-119.24599,51.5885],[-119.24603,51.5884],[-119.24612,51.58827],[-119.24617,51.58818],[-119.24624,51.58799],[-119.24625,51.58789],[-119.2462,51.58777],[-119.24609,51.58756],[-119.24587,51.58731],[-119.24569,51.58711],[-119.24558,51.58695],[-119.24556,51.5869],[-119.24536,51.58659],[-119.24526,51.58642],[-119.24516,51.58626],[-119.24514,51.58625],[-119.24514,51.58624],[-119.24511,51.58622],[-119.245,51.586],[-119.24496,51.5859],[-119.24497,51.58579],[-119.24497,51.5857],[-119.24499,51.58552],[-119.24501,51.58535],[-119.24505,51.58519],[-119.24511,51.58503],[-119.24519,51.58486],[-119.24528,51.58465],[-119.24538,51.58444],[-119.24552,51.58429],[-119.24556,51.58424],[-119.24573,51.58405],[-119.24575,51.58398],[-119.24588,51.58377],[-119.24594,51.58366],[-119.24597,51.58349],[-119.24597,51.58338],[-119.24599,51.5832],[-119.24601,51.58303],[-119.24598,51.58284],[-119.24593,51.58268],[-119.24584,51.5825],[-119.24576,51.58241],[-119.24562,51.58227],[-119.2455,51.58216],[-119.24534,51.58202],[-119.24531,51.58197],[-119.24511,51.58177],[-119.24483,51.58148],[-119.24461,51.58128],[-119.24447,51.58115],[-119.24441,51.58109],[-119.24427,51.58096],[-119.24424,51.58092],[-119.24407,51.58072],[-119.24402,51.58069],[-119.24395,51.58057],[-119.24387,51.5804],[-119.24376,51.58019],[-119.24366,51.58002],[-119.24351,51.57982],[-119.24346,51.57973],[-119.24342,51.57966],[-119.24335,51.57949],[-119.24325,51.57927],[-119.24314,51.57907],[-119.24305,51.5789],[-119.243,51.57874],[-119.24298,51.57846],[-119.24295,51.57834],[-119.24287,51.57818],[-119.24286,51.57812],[-119.24284,51.57796],[-119.2428,51.57778],[-119.24272,51.57757],[-119.24268,51.57741],[-119.24266,51.57719],[-119.24265,51.57701],[-119.24267,51.57684],[-119.24266,51.57671],[-119.24269,51.57661],[-119.24275,51.57644],[-119.24282,51.57628],[-119.24287,51.57611],[-119.24283,51.57594],[-119.24286,51.57577],[-119.2429,51.57559],[-119.24293,51.57539],[-119.24297,51.57521],[-119.24297,51.57504],[-119.24301,51.57487],[-119.24305,51.57466],[-119.24313,51.57444],[-119.24316,51.57427],[-119.2432,51.57409],[-119.2432,51.57391],[-119.24321,51.57374],[-119.24319,51.57368],[-119.2432,51.5735],[-119.24322,51.57329],[-119.24325,51.57308],[-119.24327,51.57291],[-119.24332,51.57274],[-119.24333,51.57269],[-119.24331,51.57258],[-119.24332,51.57253],[-119.24332,51.57235],[-119.24335,51.57217],[-119.24337,51.57195],[-119.24333,51.57174],[-119.2433,51.57117],[-119.24326,51.57101],[-119.24322,51.57096],[-119.24317,51.57079],[-119.24315,51.57073],[-119.2431,51.57052],[-119.24311,51.57046],[-119.2431,51.57029],[-119.24312,51.57013],[-119.24315,51.56995],[-119.24319,51.56974],[-119.2432,51.56962],[-119.2432,51.56945],[-119.24322,51.56924],[-119.2432,51.56884],[-119.24321,51.56866],[-119.24321,51.56846],[-119.24319,51.56829],[-119.24319,51.56807],[-119.24317,51.56773],[-119.24314,51.56757],[-119.24312,51.56745],[-119.24312,51.56727],[-119.24312,51.56725],[-119.24311,51.5669],[-119.24307,51.56672],[-119.24307,51.56655],[-119.24306,51.56635],[-119.24308,51.56633],[-119.24307,51.56628],[-119.24308,51.56607],[-119.24307,51.5659],[-119.24305,51.56557],[-119.243,51.56545],[-119.24295,51.56526],[-119.24294,51.56512],[-119.24286,51.56495],[-119.24286,51.5649],[-119.24282,51.56484],[-119.24273,51.56463],[-119.24274,51.56446],[-119.2428,51.56429],[-119.24282,51.56424],[-119.24284,51.56418],[-119.24286,51.564],[-119.24284,51.56379],[-119.24281,51.56362],[-119.24276,51.5635],[-119.24275,51.56344],[-119.24274,51.56339],[-119.24268,51.56325],[-119.24264,51.56309],[-119.24262,51.56292],[-119.24262,51.5627],[-119.24262,51.56268],[-119.24263,51.56257],[-119.24268,51.5624],[-119.24279,51.56226],[-119.24286,51.5622],[-119.24305,51.56202],[-119.2432,51.56189],[-119.24353,51.56167],[-119.24382,51.56151],[-119.24409,51.56138],[-119.2444,51.5612],[-119.24463,51.56102],[-119.24484,51.56083],[-119.24496,51.56069],[-119.24513,51.56049],[-119.2452,51.56039],[-119.24529,51.56028],[-119.24534,51.56019],[-119.24541,51.56007],[-119.24546,51.55985],[-119.24552,51.55969],[-119.24555,51.55949],[-119.24557,51.55927],[-119.24564,51.55895],[-119.24567,51.55884],[-119.24569,51.55867],[-119.24574,51.55851],[-119.24576,51.55838],[-119.24579,51.55821],[-119.24586,51.55811],[-119.24589,51.55804],[-119.24591,51.55789],[-119.2459,51.55774],[-119.24589,51.5576],[-119.24591,51.55756],[-119.24589,51.55726],[-119.24587,51.55711]]}},
{"type":"Feature","properties":{"spotId":"G-grouse-drive-0078","kind":"roadside","km":4.31,"climbM":6,"name":"1.2 km SE of Upper Harbour Lake","flags":[]},"geometry":{"type":"LineString","coordinates":[[-119.14314,51.5599],[-119.14291,51.56029],[-119.14263,51.56075],[-119.14225,51.56139],[-119.14181,51.56212],[-119.14135,51.56286],[-119.14111,51.56332],[-119.14102,51.56363],[-119.14088,51.56398],[-119.14072,51.56424],[-119.14061,51.56449],[-119.14051,51.56474],[-119.14049,51.56476],[-119.14048,51.56478],[-119.14048,51.5648],[-119.14048,51.56482],[-119.14049,51.56484],[-119.1405,51.56486],[-119.14052,51.56488],[-119.14055,51.5649],[-119.14058,51.56491],[-119.14061,51.56492],[-119.14064,51.56493],[-119.14068,51.56493],[-119.14072,51.56493],[-119.14075,51.56493],[-119.14079,51.56492],[-119.14082,51.5649],[-119.14084,51.56489],[-119.14086,51.56487],[-119.14088,51.56485],[-119.14089,51.56483],[-119.14089,51.56481],[-119.141,51.56468],[-119.14111,51.56452],[-119.14127,51.56439],[-119.14134,51.5643],[-119.14148,51.56413],[-119.14158,51.56403],[-119.14173,51.56386],[-119.14191,51.56372],[-119.14208,51.56356],[-119.14228,51.56342],[-119.14234,51.56339],[-119.14261,51.56322],[-119.1429,51.56307],[-119.14317,51.56292],[-119.14341,51.5627],[-119.14345,51.56269],[-119.1435,51.56268],[-119.14355,51.56268],[-119.1436,51.56268],[-119.14364,51.56269],[-119.14369,51.56271],[-119.14373,51.56272],[-119.14376,51.56275],[-119.14379,51.56277],[-119.14381,51.5628],[-119.14382,51.56283],[-119.14382,51.56286],[-119.14382,51.56289],[-119.1438,51.56292],[-119.14378,51.56295],[-119.14364,51.56319],[-119.14357,51.56331],[-119.14346,51.56342],[-119.14342,51.56351],[-119.14329,51.56361],[-119.14327,51.56369],[-119.14312,51.56392],[-119.14302,51.56404],[-119.14291,51.5642],[-119.14284,51.56428],[-119.14284,51.56437],[-119.14281,51.5645],[-119.14275,51.56469],[-119.14271,51.56478],[-119.14259,51.56499],[-119.14249,51.56512],[-119.14246,51.56523],[-119.14242,51.56532],[-119.14236,51.56542],[-119.14234,51.56551],[-119.14227,51.56561],[-119.14215,51.56569],[-119.14207,51.56582],[-119.14202,51.56592],[-119.14201,51.56595],[-119.14201,51.56597],[-119.14202,51.566],[-119.14203,51.56603],[-119.14206,51.56605],[-119.14208,51.56607],[-119.14212,51.56609],[-119.14215,51.5661],[-119.14219,51.56611],[-119.14223,51.56612],[-119.14228,51.56612],[-119.14232,51.56611],[-119.14236,51.56611],[-119.1424,51.5661],[-119.14244,51.56608],[-119.14247,51.56606],[-119.14249,51.56604],[-119.14251,51.56602],[-119.14265,51.56593],[-119.14271,51.56585],[-119.14284,51.56579],[-119.14295,51.56572],[-119.143,51.56565],[-119.14308,51.5656],[-119.14321,51.56548],[-119.14343,51.56533],[-119.14355,51.56522],[-119.14367,51.56509],[-119.14391,51.56488],[-119.14411,51.56481],[-119.14427,51.56464],[-119.14447,51.5646],[-119.14456,51.56454],[-119.14467,51.56447],[-119.14484,51.56428],[-119.14508,51.56405],[-119.14525,51.56392],[-119.14539,51.56381],[-119.1456,51.5636],[-119.14568,51.56357],[-119.14604,51.56328],[-119.14628,51.56303],[-119.14637,51.56293],[-119.14651,51.56279],[-119.14667,51.56259],[-119.14669,51.56257],[-119.14674,51.56254],[-119.14678,51.56253],[-119.14681,51.56253],[-119.14685,51.56253],[-119.14689,51.56253],[-119.14692,51.56253],[-119.14696,51.56254],[-119.14699,51.56255],[-119.14701,51.56257],[-119.14705,51.56261],[-119.14707,51.56263],[-119.14707,51.56265],[-119.14707,51.56267],[-119.14705,51.56272],[-119.14702,51.56276],[-119.147,51.5628],[-119.14699,51.56282],[-119.14695,51.56295],[-119.14689,51.5631],[-119.14684,51.56329],[-119.14667,51.5635],[-119.14656,51.56371],[-119.14652,51.56388],[-119.14647,51.56401],[-119.14639,51.56426],[-119.14633,51.56448],[-119.14627,51.56468],[-119.14626,51.56484],[-119.14614,51.56501],[-119.14607,51.56516],[-119.14592,51.56534],[-119.14573,51.5655],[-119.14571,51.56559],[-119.14567,51.56563],[-119.14551,51.56575],[-119.14551,51.56582],[-119.14551,51.56588],[-119.14548,51.56593],[-119.14544,51.56599],[-119.14542,51.56606],[-119.14535,51.56612],[-119.14533,51.5662],[-119.14525,51.56632],[-119.1451,51.56661],[-119.14493,51.56682],[-119.14475,51.5671],[-119.14462,51.56728],[-119.14451,51.5675],[-119.14436,51.56777],[-119.14412,51.56804],[-119.14401,51.56827],[-119.14361,51.56867],[-119.14334,51.56894],[-119.14309,51.56917],[-119.14291,51.56935],[-119.1427,51.56957],[-119.14262,51.56977],[-119.14248,51.56994],[-119.14242,51.57022],[-119.14236,51.57048],[-119.14223,51.57092],[-119.14218,51.57108],[-119.14217,51.57132],[-119.14211,51.5715],[-119.14197,51.57182],[-119.14187,51.57195],[-119.14184,51.57213],[-119.14164,51.57261],[-119.14124,51.57321],[-119.14103,51.57357],[-119.14099,51.57369],[-119.1409,51.57378],[-119.14077,51.57407],[-119.14078,51.57412],[-119.14073,51.57428],[-119.14066,51.57444],[-119.14046,51.57462],[-119.14048,51.57478],[-119.14041,51.57491],[-119.14031,51.57509],[-119.14015,51.57531],[-119.14013,51.57542],[-119.14009,51.57556],[-119.13999,51.57567],[-119.1399,51.57591],[-119.13994,51.57603],[-119.13988,51.57616],[-119.13977,51.57626],[-119.13971,51.57638],[-119.13965,51.57646],[-119.13961,51.57658],[-119.13955,51.57665],[-119.1395,51.57683],[-119.13942,51.57696],[-119.13936,51.57699],[-119.1392,51.57711],[-119.13909,51.57729],[-119.13901,51.57738],[-119.13873,51.57759],[-119.13858,51.57774],[-119.13848,51.57806],[-119.13827,51.57832],[-119.13823,51.57865],[-119.13827,51.57877],[-119.13831,51.57888],[-119.13841,51.57896],[-119.13873,51.57912],[-119.13892,51.57937],[-119.13875,51.58007],[-119.13861,51.58027],[-119.13851,51.58045],[-119.13832,51.5807],[-119.13809,51.5809],[-119.138,51.58113],[-119.13778,51.58146],[-119.13773,51.58175],[-119.13785,51.58225],[-119.13796,51.58215],[-119.13799,51.58212],[-119.13804,51.58208],[-119.13807,51.58204],[-119.13814,51.582],[-119.13818,51.58197],[-119.13831,51.58189],[-119.13836,51.58182]]}},
{"type":"Feature","properties":{"spotId":"G-moose-atv-0037","kind":"ride","km":7.31,"climbM":184,"name":"2.0 km W of Dudgeon Lake","flags":[]},"geometry":{"type":"LineString","coordinates":[[-119.17861,51.59687],[-119.17891,51.59672],[-119.17906,51.59654],[-119.17917,51.59635],[-119.17925,51.59613],[-119.17934,51.59601],[-119.17952,51.59587],[-119.17986,51.59569],[-119.18031,51.59561],[-119.18069,51.59558],[-119.18098,51.59556],[-119.18114,51.59547],[-119.18123,51.59535],[-119.18123,51.59519],[-119.18108,51.59501],[-119.18097,51.59485],[-119.18086,51.59464],[-119.18079,51.59444],[-119.18083,51.59431],[-119.18086,51.59422],[-119.18091,51.59407],[-119.18101,51.59392],[-119.18102,51.59391],[-119.18109,51.59383],[-119.18113,51.5937],[-119.18131,51.59343],[-119.1814,51.59322],[-119.18125,51.59294],[-119.18102,51.59273],[-119.18101,51.59263],[-119.18117,51.59223],[-119.18091,51.59145],[-119.18092,51.5908],[-119.18053,51.59025],[-119.18051,51.58971],[-119.18022,51.58917],[-119.18022,51.58858],[-119.18047,51.58818],[-119.18081,51.58699],[-119.181,51.58679],[-119.18133,51.58661],[-119.18147,51.58646],[-119.18153,51.58639],[-119.18153,51.58636],[-119.18152,51.58622],[-119.18156,51.58566],[-119.18164,51.58536],[-119.18172,51.58468],[-119.1816,51.58435],[-119.18162,51.58403],[-119.18159,51.58354],[-119.18163,51.58294],[-119.18167,51.58251],[-119.18164,51.58229],[-119.18196,51.58184],[-119.18233,51.58147],[-119.18257,51.58092],[-119.18313,51.57984],[-119.18339,51.57919],[-119.18358,51.57862],[-119.18377,51.57838],[-119.18435,51.57804],[-119.18492,51.5778],[-119.18555,51.57747],[-119.18603,51.57729],[-119.18653,51.577],[-119.18706,51.57667],[-119.1875,51.57626],[-119.18778,51.57597],[-119.1883,51.57574],[-119.18913,51.57546],[-119.1897,51.57539],[-119.18972,51.57539],[-119.19013,51.57537],[-119.19022,51.57536],[-119.19032,51.5753],[-119.19036,51.57526],[-119.19033,51.57521],[-119.19026,51.57486],[-119.19011,51.57444],[-119.19024,51.57397],[-119.19046,51.57342],[-119.19079,51.57307],[-119.19128,51.57268],[-119.19174,51.5723],[-119.19204,51.57198],[-119.19253,51.57127],[-119.19285,51.5709],[-119.19324,51.57063],[-119.19411,51.57025],[-119.19495,51.56995],[-119.19535,51.56964],[-119.19572,51.56951],[-119.1965,51.56929],[-119.19731,51.56894],[-119.19783,51.56868],[-119.19848,51.56841],[-119.19932,51.56822],[-119.19958,51.5681],[-119.1999,51.56791],[-119.20014,51.56781],[-119.20046,51.56751],[-119.20082,51.56723],[-119.20116,51.5668],[-119.2014,51.56652],[-119.20152,51.56637],[-119.20179,51.56621],[-119.20202,51.56617],[-119.2027,51.56624],[-119.20312,51.56623],[-119.20359,51.5663],[-119.20407,51.56638],[-119.20428,51.56636],[-119.20465,51.56626],[-119.20491,51.56609],[-119.20511,51.566],[-119.20535,51.56601],[-119.20574,51.56605],[-119.20608,51.56608],[-119.20656,51.56601],[-119.20666,51.56589],[-119.20679,51.56583],[-119.20714,51.56583],[-119.20746,51.56574],[-119.2078,51.56553],[-119.20814,51.56538],[-119.20852,51.56525],[-119.20881,51.56519],[-119.20906,51.56514],[-119.2093,51.56515],[-119.20958,51.56518],[-119.21003,51.56521],[-119.21024,51.56514],[-119.21047,51.56508],[-119.21067,51.56491],[-119.21091,51.5648],[-119.21145,51.56471],[-119.21181,51.56468],[-119.21207,51.5646],[-119.21209,51.56453],[-119.2122,51.56429],[-119.21249,51.56414],[-119.21288,51.56403],[-119.21333,51.56402],[-119.21358,51.56401],[-119.2141,51.56397],[-119.21474,51.56397],[-119.21534,51.56402],[-119.2157,51.56387],[-119.21628,51.56366],[-119.21666,51.5635],[-119.21717,51.56332],[-119.21735,51.56317],[-119.21746,51.56311],[-119.21757,51.56305],[-119.21796,51.56291],[-119.21842,51.56279],[-119.21874,51.56265],[-119.21901,51.5625],[-119.21916,51.56234],[-119.21926,51.5621],[-119.21938,51.5618],[-119.21937,51.56148],[-119.21942,51.56119],[-119.21941,51.56079],[-119.21932,51.56054],[-119.21924,51.56037],[-119.21909,51.56012],[-119.2188,51.55981],[-119.21867,51.55948],[-119.21858,51.55906],[-119.21854,51.55869],[-119.21854,51.5583],[-119.21852,51.55783],[-119.21833,51.55761],[-119.21826,51.55742],[-119.21827,51.55716],[-119.21831,51.55691],[-119.2182,51.55666],[-119.21809,51.55646],[-119.21781,51.55623],[-119.21748,51.556],[-119.21735,51.5558],[-119.21726,51.55546],[-119.21714,51.55502],[-119.21703,51.55457],[-119.21682,51.55414],[-119.21671,51.55389],[-119.21655,51.55364],[-119.2164,51.55328],[-119.21629,51.55306],[-119.21621,51.5528],[-119.21613,51.55255],[-119.21599,51.55233],[-119.21603,51.55213],[-119.21607,51.55204],[-119.21611,51.55197],[-119.21621,51.55179],[-119.21632,51.55145],[-119.21635,51.55123],[-119.21618,51.55101],[-119.21591,51.55079],[-119.21583,51.55072],[-119.21578,51.55067],[-119.21574,51.55063],[-119.2157,51.5506],[-119.21538,51.55032],[-119.21511,51.55011],[-119.21482,51.55002],[-119.2146,51.54993],[-119.21431,51.54982],[-119.21402,51.54982],[-119.21378,51.54981],[-119.2135,51.5498],[-119.21302,51.54972],[-119.21276,51.54954],[-119.21262,51.54938],[-119.21244,51.54923],[-119.21223,51.54895],[-119.21211,51.5487]]}},
{"type":"Feature","properties":{"spotId":"G-moose-atv-0037","kind":"walk","km":0.25,"climbM":17,"name":"2.0 km W of Dudgeon Lake","flags":[]},"geometry":{"type":"LineString","coordinates":[[-119.17861,51.59687],[-119.17535,51.59581]]}},
{"type":"Feature","properties":{"spotId":"G-moose-atv-0038","kind":"ride","km":5.11,"climbM":289,"name":"580 m E of Cunningham, Mount","flags":[]},"geometry":{"type":"LineString","coordinates":[[-119.21211,51.5487],[-119.21223,51.54895],[-119.21244,51.54923],[-119.21262,51.54938],[-119.21276,51.54954],[-119.21302,51.54972],[-119.2135,51.5498],[-119.21378,51.54981],[-119.21402,51.54982],[-119.21431,51.54982],[-119.2146,51.54993],[-119.21482,51.55002],[-119.21511,51.55011],[-119.21538,51.55032],[-119.2157,51.5506],[-119.21574,51.55063],[-119.21578,51.55067],[-119.21583,51.55072],[-119.21591,51.55079],[-119.21618,51.55101],[-119.21635,51.55123],[-119.21632,51.55145],[-119.21621,51.55179],[-119.21611,51.55197],[-119.21607,51.55204],[-119.21603,51.55213],[-119.21599,51.55233],[-119.21613,51.55255],[-119.21621,51.5528],[-119.21629,51.55306],[-119.2164,51.55328],[-119.21655,51.55364],[-119.21671,51.55389],[-119.21682,51.55414],[-119.21703,51.55457],[-119.21714,51.55502],[-119.21726,51.55546],[-119.21735,51.5558],[-119.21748,51.556],[-119.21781,51.55623],[-119.21809,51.55646],[-119.2182,51.55666],[-119.21831,51.55691],[-119.21827,51.55716],[-119.21826,51.55742],[-119.21833,51.55761],[-119.21852,51.55783],[-119.21854,51.5583],[-119.21854,51.55869],[-119.21858,51.55906],[-119.21867,51.55948],[-119.2188,51.55981],[-119.21909,51.56012],[-119.21924,51.56037],[-119.21932,51.56054],[-119.21941,51.56079],[-119.21942,51.56119],[-119.21937,51.56148],[-119.21938,51.5618],[-119.21926,51.5621],[-119.21916,51.56234],[-119.21901,51.5625],[-119.21874,51.56265],[-119.21842,51.56279],[-119.21796,51.56291],[-119.21757,51.56305],[-119.21746,51.56311],[-119.21735,51.56317],[-119.21717,51.56332],[-119.21666,51.5635],[-119.21628,51.56366],[-119.2157,51.56387],[-119.21534,51.56402],[-119.21474,51.56397],[-119.2141,51.56397],[-119.21358,51.56401],[-119.21333,51.56402],[-119.21288,51.56403],[-119.21249,51.56414],[-119.2122,51.56429],[-119.21209,51.56453],[-119.21207,51.5646],[-119.21181,51.56468],[-119.21145,51.56471],[-119.21091,51.5648],[-119.21067,51.56491],[-119.21047,51.56508],[-119.21024,51.56514],[-119.21003,51.56521],[-119.20958,51.56518],[-119.2093,51.56515],[-119.20906,51.56514],[-119.20881,51.56519],[-119.20852,51.56525],[-119.20814,51.56538],[-119.2078,51.56553],[-119.20746,51.56574],[-119.20714,51.56583],[-119.20679,51.56583],[-119.20666,51.56589],[-119.20656,51.56601],[-119.20608,51.56608],[-119.20574,51.56605],[-119.20535,51.56601],[-119.20511,51.566],[-119.20491,51.56609],[-119.20465,51.56626],[-119.20428,51.56636],[-119.20407,51.56638],[-119.20359,51.5663],[-119.20312,51.56623],[-119.2027,51.56624],[-119.20202,51.56617],[-119.20179,51.56621],[-119.20152,51.56637],[-119.2014,51.56652],[-119.20116,51.5668],[-119.20082,51.56723],[-119.20046,51.56751],[-119.20014,51.56781],[-119.1999,51.56791],[-119.19958,51.5681],[-119.19932,51.56822],[-119.19912,51.56847],[-119.19873,51.56876],[-119.19849,51.56902],[-119.19818,51.56918],[-119.19785,51.56934],[-119.19758,51.56963],[-119.19737,51.57006],[-119.19721,51.57046],[-119.19703,51.57065],[-119.19692,51.57075],[-119.19642,51.57099],[-119.19594,51.57127],[-119.19557,51.57149],[-119.19518,51.57164],[-119.195,51.5718],[-119.19477,51.57219],[-119.19452,51.57271],[-119.19415,51.57315],[-119.19395,51.57359],[-119.19387,51.5739],[-119.19381,51.57419],[-119.19403,51.57469],[-119.19427,51.5753],[-119.19467,51.57582],[-119.19502,51.57621],[-119.19521,51.57641],[-119.19521,51.57658],[-119.19495,51.57671],[-119.19431,51.57689],[-119.19388,51.57713],[-119.19326,51.57739],[-119.19268,51.57761],[-119.19213,51.57775],[-119.1916,51.57803],[-119.19132,51.5783],[-119.19095,51.5787],[-119.19074,51.57907],[-119.19081,51.57953],[-119.19075,51.57983],[-119.19064,51.58019],[-119.19065,51.58055],[-119.1907,51.58097]]}},
{"type":"Feature","properties":{"spotId":"G-moose-atv-0038","kind":"walk","km":0.34,"climbM":47,"name":"580 m E of Cunningham, Mount","flags":[]},"geometry":{"type":"LineString","coordinates":[[-119.1907,51.58097],[-119.19553,51.58075]]}},
{"type":"Feature","properties":{"spotId":"G-moose-atv-0041","kind":"ride","km":2.71,"climbM":42,"name":"4.0 km W of Seymour Range","flags":[]},"geometry":{"type":"LineString","coordinates":[[-119.12502,51.50174],[-119.12509,51.50173],[-119.12518,51.50172],[-119.12525,51.50166],[-119.12531,51.50162],[-119.1254,51.50151],[-119.12547,51.50139],[-119.12558,51.50126],[-119.1257,51.50115],[-119.12583,51.50102],[-119.12593,51.50088],[-119.12597,51.5008],[-119.12593,51.50065],[-119.12593,51.50058],[-119.12592,51.50045],[-119.12591,51.50026],[-119.12585,51.50013],[-119.12579,51.50001],[-119.12578,51.49988],[-119.12576,51.49979],[-119.12559,51.49969],[-119.12548,51.49964],[-119.12543,51.49957],[-119.12543,51.49951],[-119.1254,51.49939],[-119.12547,51.4993],[-119.12548,51.49923],[-119.12536,51.49902],[-119.12531,51.49891],[-119.12532,51.4988],[-119.12541,51.4987],[-119.12541,51.49859],[-119.12533,51.49832],[-119.12527,51.49815],[-119.12523,51.49796],[-119.12515,51.49774],[-119.12515,51.49754],[-119.12515,51.49727],[-119.12502,51.49694],[-119.12493,51.49669],[-119.12467,51.49659],[-119.12436,51.49654],[-119.12404,51.49637],[-119.12387,51.49632],[-119.1235,51.49623],[-119.12296,51.49612],[-119.12263,51.49608],[-119.12237,51.49599],[-119.12212,51.49575],[-119.12169,51.49563],[-119.12119,51.49535],[-119.12095,51.49524],[-119.12,51.49509],[-119.11966,51.49508],[-119.11939,51.49505],[-119.11917,51.495],[-119.11886,51.49492],[-119.11876,51.4949],[-119.11869,51.49488],[-119.1185,51.49485],[-119.11834,51.49483],[-119.1182,51.49482],[-119.11789,51.49481],[-119.11766,51.4948],[-119.11758,51.49478],[-119.11726,51.49476],[-119.11716,51.49475],[-119.11685,51.49471],[-119.11652,51.4947],[-119.11622,51.49469],[-119.11609,51.49468],[-119.11574,51.49466],[-119.11535,51.49462],[-119.11507,51.49459],[-119.11478,51.49456],[-119.11457,51.49453],[-119.11428,51.49451],[-119.11395,51.49449],[-119.11369,51.49449],[-119.1136,51.4945],[-119.11331,51.49452],[-119.11246,51.49448],[-119.11223,51.49445],[-119.11219,51.49445],[-119.11155,51.49441],[-119.11142,51.49441],[-119.11122,51.4944],[-119.11095,51.49441],[-119.11063,51.49443],[-119.11033,51.49451],[-119.11013,51.49458],[-119.11001,51.49464],[-119.10975,51.49477],[-119.10945,51.49488],[-119.10913,51.49502],[-119.10895,51.49511],[-119.10881,51.49515],[-119.10869,51.49518],[-119.10859,51.49519],[-119.10846,51.49521],[-119.10835,51.49521],[-119.10807,51.49524],[-119.10779,51.49526],[-119.10749,51.49532],[-119.10733,51.49537],[-119.10713,51.49547],[-119.10662,51.49587],[-119.10656,51.49591],[-119.10645,51.49601],[-119.10633,51.49615],[-119.10623,51.49625],[-119.10605,51.49635],[-119.10577,51.49644],[-119.10572,51.49646],[-119.10544,51.4965],[-119.10534,51.49651],[-119.10476,51.49649],[-119.10461,51.49647],[-119.10453,51.49647],[-119.10427,51.49647],[-119.10411,51.49649],[-119.1038,51.49659],[-119.10302,51.49697],[-119.10283,51.49715],[-119.10271,51.49733],[-119.1026,51.49744],[-119.10259,51.49781],[-119.10257,51.49785],[-119.10244,51.49804],[-119.10236,51.4981],[-119.10219,51.49822],[-119.10201,51.49837],[-119.10192,51.49843],[-119.10174,51.49853],[-119.10155,51.49867],[-119.1012,51.49902],[-119.10111,51.49914],[-119.10107,51.49922],[-119.10098,51.49944],[-119.1009,51.49961],[-119.10079,51.49978],[-119.10063,51.5],[-119.10055,51.50011],[-119.10044,51.50022],[-119.10039,51.50025]]}},
{"type":"Feature","properties":{"spotId":"G-moose-atv-0041","kind":"walk","km":0.31,"climbM":7,"name":"4.0 km W of Seymour Range","flags":[]},"geometry":{"type":"LineString","coordinates":[[-119.12502,51.50174],[-119.12571,51.50451]]}},
{"type":"Feature","properties":{"spotId":"G-moose-drive-0045","kind":"walk","km":0.28,"climbM":0,"name":"By Dudgeon Creek","flags":[]},"geometry":{"type":"LineString","coordinates":[[-119.12858,51.59664],[-119.13183,51.59521]]}},
{"type":"Feature","properties":{"spotId":"G-moose-drive-0047","kind":"walk","km":0.18,"climbM":0,"name":"3.3 km NW of Seymour Range","flags":[]},"geometry":{"type":"LineString","coordinates":[[-119.09226,51.52494],[-119.09487,51.52466]]}},
{"type":"Feature","properties":{"spotId":"G-moose-drive-0050","kind":"walk","km":0.18,"climbM":0,"name":"2.0 km SE of Adams River","flags":[]},"geometry":{"type":"LineString","coordinates":[[-119.24923,51.56682],[-119.24679,51.56725]]}},
{"type":"Feature","properties":{"spotId":"G-moose-walk-0044","kind":"walk","km":0.36,"climbM":1,"name":"230 m W of Dudgeon Creek","flags":[]},"geometry":{"type":"LineString","coordinates":[[-119.13198,51.58787],[-119.13391,51.59087]]}},
{"type":"Feature","properties":{"spotId":"G-moose-walk-0045","kind":"walk","km":2.62,"climbM":919,"name":"570 m NE of Cunningham, Mount","flags":[]},"geometry":{"type":"LineString","coordinates":[[-119.21708,51.60564],[-119.19765,51.58551]]}},
{"type":"Feature","properties":{"spotId":"G-moose-walk-0047","kind":"walk","km":1.28,"climbM":6,"name":"3.9 km W of Seymour Range","flags":[]},"geometry":{"type":"LineString","coordinates":[[-119.12062,51.51185],[-119.11225,51.51096],[-119.11215,51.51092],[-119.11203,51.5109],[-119.11196,51.51084],[-119.1119,51.51079],[-119.11182,51.51073],[-119.11179,51.51065],[-119.11174,51.51059],[-119.11169,51.51054],[-119.1116,51.51049],[-119.11148,51.51045],[-119.11138,51.51042],[-119.11133,51.5104],[-119.11126,51.51036],[-119.11121,51.5103],[-119.11115,51.51025],[-119.11107,51.51019],[-119.11099,51.51015],[-119.11086,51.51011],[-119.11075,51.51007],[-119.11066,51.51004],[-119.1106,51.51],[-119.11055,51.50997],[-119.11049,51.50989],[-119.11036,51.50981],[-119.11024,51.50976],[-119.11011,51.50971],[-119.11004,51.50969],[-119.10995,51.50965],[-119.10989,51.50961],[-119.10976,51.50954],[-119.10966,51.50948],[-119.10956,51.50942],[-119.10945,51.50936],[-119.10938,51.50933],[-119.10925,51.50928],[-119.10911,51.50924],[-119.10898,51.50924],[-119.10891,51.50921],[-119.10882,51.50919],[-119.10874,51.50916],[-119.10868,51.50913],[-119.10863,51.50907],[-119.10856,51.50903],[-119.10845,51.509],[-119.10833,51.50893],[-119.10817,51.50887],[-119.10811,51.50885],[-119.10792,51.5088],[-119.10782,51.50887],[-119.10757,51.50899],[-119.10726,51.50909],[-119.1071,51.50911],[-119.10684,51.50911],[-119.10675,51.50912],[-119.10648,51.50912],[-119.10615,51.50913],[-119.10582,51.5091],[-119.10547,51.50905],[-119.10525,51.509],[-119.10513,51.50898],[-119.10488,51.50901],[-119.10479,51.50903],[-119.10465,51.5091],[-119.10461,51.50914],[-119.10427,51.50937],[-119.10419,51.50942]]}}
]}
