{"type":"FeatureCollection","features":[
{"type":"Feature","properties":{"spotId":"G-camp-camp-0016","kind":"walk","km":0.06,"climbM":2,"name":"160 m NE of Spa Creek","flags":[]},"geometry":{"type":"LineString","coordinates":[[-119.39867,50.54852],[-119.39817,50.54891]]}},
{"type":"Feature","properties":{"spotId":"G-camp-camp-0031","kind":"walk","km":0.04,"climbM":1,"name":"1.0 km E of Haines Creek","flags":[]},"geometry":{"type":"LineString","coordinates":[[-119.28594,50.5746],[-119.28654,50.5747]]}},
{"type":"Feature","properties":{"spotId":"G-deer-atv-0029","kind":"ride","km":4.95,"climbM":448,"name":"1.1 km E of Wall Creek","flags":["Route crosses private land (ParcelMap BC, updated 2026-09-25): get permission first or go around."]},"geometry":{"type":"LineString","coordinates":[[-119.35646,50.60634],[-119.35615,50.60641],[-119.35581,50.60654],[-119.35564,50.6066],[-119.3555,50.60667],[-119.35539,50.60674],[-119.3553,50.6068],[-119.35524,50.60686],[-119.35517,50.60693],[-119.35507,50.60708],[-119.35496,50.60718],[-119.35486,50.60721],[-119.35474,50.60724],[-119.35467,50.60724],[-119.35458,50.60721],[-119.35449,50.60716],[-119.35445,50.60709],[-119.35438,50.60695],[-119.35438,50.60682],[-119.35439,50.6067],[-119.35437,50.60657],[-119.35433,50.60651],[-119.35426,50.60647],[-119.35412,50.60646],[-119.35399,50.60646],[-119.35381,50.6065],[-119.35366,50.60658],[-119.35358,50.60665],[-119.35354,50.60674],[-119.35353,50.60687],[-119.35355,50.60699],[-119.35359,50.60714],[-119.35355,50.6073],[-119.35351,50.60736],[-119.35345,50.60741],[-119.35329,50.60746],[-119.35313,50.60749],[-119.35304,50.60749],[-119.35295,50.60747],[-119.35282,50.60737],[-119.35275,50.60728],[-119.35266,50.60715],[-119.35254,50.60704],[-119.35251,50.607],[-119.35246,50.60695],[-119.35234,50.60685],[-119.35226,50.60678],[-119.35217,50.60671],[-119.35202,50.60667],[-119.35175,50.60666],[-119.35147,50.60663],[-119.35134,50.60657],[-119.35125,50.60651],[-119.35116,50.60642],[-119.35104,50.60628],[-119.35088,50.60613],[-119.35065,50.606],[-119.35058,50.60597],[-119.35055,50.60594],[-119.35046,50.60593],[-119.35032,50.60592],[-119.35009,50.60593],[-119.3499,50.60597],[-119.34969,50.60608],[-119.34957,50.60618],[-119.34945,50.60629],[-119.34928,50.6064],[-119.34899,50.60652],[-119.34863,50.6066],[-119.34819,50.60669],[-119.34779,50.60678],[-119.34766,50.60682],[-119.34743,50.60691],[-119.34719,50.60705],[-119.347,50.60717],[-119.3467,50.60734],[-119.34643,50.60752],[-119.3462,50.60772],[-119.34607,50.60781],[-119.34591,50.60793],[-119.34564,50.60809],[-119.34535,50.60824],[-119.34522,50.60832],[-119.34517,50.60839],[-119.34521,50.60843],[-119.34531,50.60846],[-119.34556,50.60858],[-119.34576,50.60868],[-119.34607,50.60884],[-119.34634,50.609],[-119.34656,50.60911],[-119.34677,50.60925],[-119.34691,50.60934],[-119.34699,50.60946],[-119.34701,50.60958],[-119.347,50.60968],[-119.34702,50.60987],[-119.34713,50.61008],[-119.34725,50.61024],[-119.34738,50.61041],[-119.34755,50.61069],[-119.34761,50.61094],[-119.34751,50.61113],[-119.34735,50.61136],[-119.3473,50.61148],[-119.34732,50.61159],[-119.34744,50.61169],[-119.34759,50.61177],[-119.34783,50.61181],[-119.34807,50.61181],[-119.34824,50.61183],[-119.34845,50.61188],[-119.34862,50.61192],[-119.34877,50.61198],[-119.34907,50.61214],[-119.34928,50.6123],[-119.34943,50.61242],[-119.3492,50.61237],[-119.34895,50.61231],[-119.34874,50.61225],[-119.34856,50.61218],[-119.34818,50.61257],[-119.34784,50.61286],[-119.34776,50.61294],[-119.34759,50.6131],[-119.34732,50.61324],[-119.34694,50.61339],[-119.34664,50.61348],[-119.34637,50.61352],[-119.34624,50.61351],[-119.34611,50.61351],[-119.34595,50.61355],[-119.34589,50.61351],[-119.3457,50.61342],[-119.34542,50.61336],[-119.3451,50.61329],[-119.3449,50.61327],[-119.34462,50.61326],[-119.34432,50.61315],[-119.34403,50.61301],[-119.34382,50.6129],[-119.34349,50.61277],[-119.34322,50.61266],[-119.34299,50.61255],[-119.34273,50.61242],[-119.34248,50.61231],[-119.34229,50.61222],[-119.34206,50.61214],[-119.34188,50.61211],[-119.34117,50.61196],[-119.3408,50.61202],[-119.34069,50.6121],[-119.34058,50.61219],[-119.34053,50.61223],[-119.3398,50.61222],[-119.33915,50.61206],[-119.33863,50.61217],[-119.33812,50.61221],[-119.33766,50.61219],[-119.33725,50.61223],[-119.33678,50.61231],[-119.33631,50.61231],[-119.33577,50.61229],[-119.33547,50.61224],[-119.33491,50.61208],[-119.33487,50.61209],[-119.33463,50.61219],[-119.33441,50.61251],[-119.33419,50.61333],[-119.33401,50.61365],[-119.33364,50.61384],[-119.33289,50.61394],[-119.33229,50.61394],[-119.33218,50.61405],[-119.33229,50.61426],[-119.33243,50.61455],[-119.33241,50.61478],[-119.33227,50.61502],[-119.33178,50.61574],[-119.33147,50.6161],[-119.33141,50.61664],[-119.3313,50.61712],[-119.33112,50.61776],[-119.33114,50.61785],[-119.33132,50.61907],[-119.33138,50.61929],[-119.33135,50.61954],[-119.33129,50.61964],[-119.33124,50.61974],[-119.33097,50.61993],[-119.33086,50.62001],[-119.33017,50.62016],[-119.33001,50.62028],[-119.32995,50.62042],[-119.32977,50.62056],[-119.32956,50.62062],[-119.32928,50.62066],[-119.32864,50.62065],[-119.32871,50.62086],[-119.32876,50.62092],[-119.32895,50.62107],[-119.32929,50.62109],[-119.32957,50.6211],[-119.32966,50.62112],[-119.32993,50.6212],[-119.33002,50.62124],[-119.33021,50.62138],[-119.3304,50.62155],[-119.33052,50.62172],[-119.33064,50.6219],[-119.33083,50.62206],[-119.33114,50.62216],[-119.33142,50.62225],[-119.33171,50.62231],[-119.33199,50.62235],[-119.33228,50.62242],[-119.33264,50.62245],[-119.33293,50.62234],[-119.3332,50.62225],[-119.33345,50.62232],[-119.33361,50.6225],[-119.33375,50.62269],[-119.33393,50.62286],[-119.33411,50.62306],[-119.33423,50.62325],[-119.33431,50.62344],[-119.33433,50.62364],[-119.33437,50.62384],[-119.33445,50.62402],[-119.33457,50.6242],[-119.3347,50.62438],[-119.33483,50.62455],[-119.335,50.62472],[-119.33516,50.62487],[-119.33518,50.62488]]}},
{"type":"Feature","properties":{"spotId":"G-deer-atv-0029","kind":"walk","km":0.08,"climbM":16,"name":"1.1 km E of Wall Creek","flags":["Route crosses private land (ParcelMap BC, updated 2026-09-25): get permission first or go around."]},"geometry":{"type":"LineString","coordinates":[[-119.33518,50.62488],[-119.33433,50.62542]]}},
{"type":"Feature","properties":{"spotId":"G-deer-atv-0030","kind":"ride","km":4.57,"climbM":141,"name":"700 m NW of Haines Creek","flags":[]},"geometry":{"type":"LineString","coordinates":[[-119.28429,50.57691],[-119.28444,50.57722],[-119.28454,50.57742],[-119.28471,50.57759],[-119.28494,50.57783],[-119.28518,50.57811],[-119.28535,50.57834],[-119.28556,50.57862],[-119.2858,50.57884],[-119.28608,50.5789],[-119.28651,50.5789],[-119.28678,50.57891],[-119.28699,50.57888],[-119.28712,50.57879],[-119.28722,50.57869],[-119.28745,50.5785],[-119.28786,50.57828],[-119.28828,50.57809],[-119.28862,50.57794],[-119.2888,50.57786],[-119.28887,50.57782],[-119.28908,50.57771],[-119.28924,50.57761],[-119.28949,50.57751],[-119.28974,50.57745],[-119.29007,50.57741],[-119.29043,50.5774],[-119.29079,50.5774],[-119.29102,50.57735],[-119.2913,50.57718],[-119.29147,50.57696],[-119.29169,50.57681],[-119.29177,50.57678],[-119.29183,50.57675],[-119.29208,50.57675],[-119.29259,50.57699],[-119.29299,50.57712],[-119.29335,50.57721],[-119.29362,50.57736],[-119.2939,50.5775],[-119.29423,50.57756],[-119.29461,50.57757],[-119.29506,50.57764],[-119.29554,50.5778],[-119.2958,50.57789],[-119.29603,50.57796],[-119.29639,50.57794],[-119.29657,50.57791],[-119.29684,50.57794],[-119.29716,50.57803],[-119.29729,50.57808],[-119.29742,50.57812],[-119.29761,50.57822],[-119.29775,50.57826],[-119.29794,50.57834],[-119.29809,50.57855],[-119.29816,50.57876],[-119.29815,50.57892],[-119.29803,50.57905],[-119.29788,50.5792],[-119.29789,50.57937],[-119.29811,50.57949],[-119.29833,50.57949],[-119.29856,50.57946],[-119.29881,50.57946],[-119.299,50.57951],[-119.29902,50.57966],[-119.29896,50.57991],[-119.29898,50.58004],[-119.29903,50.58015],[-119.29923,50.58032],[-119.2995,50.5805],[-119.29965,50.58066],[-119.29971,50.58086],[-119.29968,50.58105],[-119.29971,50.58117],[-119.29979,50.5812],[-119.29986,50.5812],[-119.3001,50.58122],[-119.30038,50.58123],[-119.30046,50.58124],[-119.30068,50.58125],[-119.30092,50.58128],[-119.3013,50.58128],[-119.30163,50.58128],[-119.3018,50.58133],[-119.30197,50.58143],[-119.30218,50.5816],[-119.30238,50.58174],[-119.30269,50.58185],[-119.30298,50.5819],[-119.30324,50.58192],[-119.30351,50.58196],[-119.3037,50.58203],[-119.30388,50.58211],[-119.3041,50.58214],[-119.3043,50.58213],[-119.30457,50.58206],[-119.30493,50.58202],[-119.30517,50.58203],[-119.30537,50.58208],[-119.30555,50.58215],[-119.30573,50.58221],[-119.30601,50.5822],[-119.30635,50.58218],[-119.30655,50.58221],[-119.30672,50.58225],[-119.30697,50.58224],[-119.30721,50.58224],[-119.3073,50.58227],[-119.30737,50.58235],[-119.30751,50.58254],[-119.30759,50.58269],[-119.30764,50.58289],[-119.30768,50.58307],[-119.30774,50.58323],[-119.30782,50.58343],[-119.30787,50.58369],[-119.30797,50.58385],[-119.30814,50.58386],[-119.30833,50.58383],[-119.30858,50.58375],[-119.30879,50.58365],[-119.30908,50.58352],[-119.30929,50.58346],[-119.30968,50.58341],[-119.31015,50.58336],[-119.31041,50.58331],[-119.31072,50.58326],[-119.31105,50.5833],[-119.31113,50.58331],[-119.31145,50.5834],[-119.31185,50.58349],[-119.31233,50.58357],[-119.31273,50.58362],[-119.31308,50.58373],[-119.31344,50.58402],[-119.31361,50.58432],[-119.31375,50.58461],[-119.31398,50.58494],[-119.31422,50.58516],[-119.31453,50.58536],[-119.3148,50.5855],[-119.31502,50.58563],[-119.31526,50.58568],[-119.31561,50.58566],[-119.31591,50.58562],[-119.31616,50.58555],[-119.31663,50.58534],[-119.31703,50.58517],[-119.31738,50.58508],[-119.3178,50.58495],[-119.31803,50.58484],[-119.31818,50.58472],[-119.31841,50.58441],[-119.31851,50.58416],[-119.31861,50.58392],[-119.3188,50.58358],[-119.31901,50.58327],[-119.31924,50.58301],[-119.31939,50.58286],[-119.31954,50.5827],[-119.31978,50.58244],[-119.32004,50.5822],[-119.32038,50.58195],[-119.32076,50.58164],[-119.32105,50.58132],[-119.3213,50.58097],[-119.32149,50.58073],[-119.32168,50.58051],[-119.32196,50.58063],[-119.32235,50.5808],[-119.32223,50.58066],[-119.32233,50.58036],[-119.32257,50.58002],[-119.32261,50.5797],[-119.32253,50.57946],[-119.32208,50.57923],[-119.32144,50.57909],[-119.32104,50.57899],[-119.32072,50.57881],[-119.32048,50.57856],[-119.32035,50.5783],[-119.32036,50.57806],[-119.32024,50.57782],[-119.3201,50.57771],[-119.31991,50.57768],[-119.31973,50.57771],[-119.31958,50.57777],[-119.31929,50.57787],[-119.31895,50.57786],[-119.31854,50.57773],[-119.31831,50.57756],[-119.31826,50.5774],[-119.31824,50.57722],[-119.31819,50.57713],[-119.31814,50.57703],[-119.31804,50.57691]]}},
{"type":"Feature","properties":{"spotId":"G-deer-atv-0030","kind":"walk","km":0.21,"climbM":0,"name":"700 m NW of Haines Creek","flags":[]},"geometry":{"type":"LineString","coordinates":[[-119.31804,50.57691],[-119.32041,50.57584]]}},
{"type":"Feature","properties":{"spotId":"G-deer-atv-0033","kind":"ride","km":6.14,"climbM":154,"name":"2.0 km E of Salmon River","flags":[]},"geometry":{"type":"LineString","coordinates":[[-119.28429,50.57691],[-119.28444,50.57722],[-119.28454,50.57742],[-119.28471,50.57759],[-119.28494,50.57783],[-119.28518,50.57811],[-119.28535,50.57834],[-119.28556,50.57862],[-119.2858,50.57884],[-119.28608,50.5789],[-119.28651,50.5789],[-119.28678,50.57891],[-119.28699,50.57888],[-119.28712,50.57879],[-119.28722,50.57869],[-119.28745,50.5785],[-119.28786,50.57828],[-119.28828,50.57809],[-119.28862,50.57794],[-119.2888,50.57786],[-119.28887,50.57782],[-119.28908,50.57771],[-119.28924,50.57761],[-119.28949,50.57751],[-119.28974,50.57745],[-119.29007,50.57741],[-119.29043,50.5774],[-119.29079,50.5774],[-119.29102,50.57735],[-119.2913,50.57718],[-119.29147,50.57696],[-119.29169,50.57681],[-119.29177,50.57678],[-119.29183,50.57675],[-119.29208,50.57675],[-119.29259,50.57699],[-119.29299,50.57712],[-119.29335,50.57721],[-119.29362,50.57736],[-119.2939,50.5775],[-119.29423,50.57756],[-119.29461,50.57757],[-119.29506,50.57764],[-119.29554,50.5778],[-119.2958,50.57789],[-119.29603,50.57796],[-119.29639,50.57794],[-119.29657,50.57791],[-119.29684,50.57794],[-119.29716,50.57803],[-119.29729,50.57808],[-119.29742,50.57812],[-119.29761,50.57822],[-119.29775,50.57826],[-119.29794,50.57834],[-119.29809,50.57855],[-119.29816,50.57876],[-119.29815,50.57892],[-119.29803,50.57905],[-119.29788,50.5792],[-119.29789,50.57937],[-119.29811,50.57949],[-119.29833,50.57949],[-119.29856,50.57946],[-119.29881,50.57946],[-119.299,50.57951],[-119.29902,50.57966],[-119.29896,50.57991],[-119.29898,50.58004],[-119.29903,50.58015],[-119.29923,50.58032],[-119.2995,50.5805],[-119.29965,50.58066],[-119.29971,50.58086],[-119.29968,50.58105],[-119.29971,50.58117],[-119.29979,50.5812],[-119.29986,50.5812],[-119.3001,50.58122],[-119.30038,50.58123],[-119.30046,50.58124],[-119.30068,50.58125],[-119.30092,50.58128],[-119.3013,50.58128],[-119.30163,50.58128],[-119.3018,50.58133],[-119.30197,50.58143],[-119.30218,50.5816],[-119.30238,50.58174],[-119.30269,50.58185],[-119.30298,50.5819],[-119.30324,50.58192],[-119.30351,50.58196],[-119.3037,50.58203],[-119.30388,50.58211],[-119.3041,50.58214],[-119.3043,50.58213],[-119.30457,50.58206],[-119.30493,50.58202],[-119.30517,50.58203],[-119.30537,50.58208],[-119.30555,50.58215],[-119.30573,50.58221],[-119.30601,50.5822],[-119.30635,50.58218],[-119.30655,50.58221],[-119.30672,50.58225],[-119.30697,50.58224],[-119.30721,50.58224],[-119.3073,50.58227],[-119.30737,50.58235],[-119.30751,50.58254],[-119.30759,50.58269],[-119.30764,50.58289],[-119.30768,50.58307],[-119.30774,50.58323],[-119.30782,50.58343],[-119.30787,50.58369],[-119.30797,50.58385],[-119.30814,50.58386],[-119.30833,50.58383],[-119.30858,50.58375],[-119.30879,50.58365],[-119.30908,50.58352],[-119.30929,50.58346],[-119.30968,50.58341],[-119.31015,50.58336],[-119.31041,50.58331],[-119.31072,50.58326],[-119.31105,50.5833],[-119.31113,50.58331],[-119.31145,50.5834],[-119.31185,50.58349],[-119.31233,50.58357],[-119.31273,50.58362],[-119.31308,50.58373],[-119.31344,50.58402],[-119.31361,50.58432],[-119.31375,50.58461],[-119.31398,50.58494],[-119.31422,50.58516],[-119.31453,50.58536],[-119.3148,50.5855],[-119.31502,50.58563],[-119.31526,50.58568],[-119.31522,50.58599],[-119.31518,50.58628],[-119.31517,50.58646],[-119.31529,50.58663],[-119.31538,50.58671],[-119.31569,50.5868],[-119.31581,50.58689],[-119.31586,50.58701],[-119.31595,50.58725],[-119.31598,50.58754],[-119.31625,50.58809],[-119.31633,50.58842],[-119.31625,50.58872],[-119.31616,50.58893],[-119.31624,50.5891],[-119.31639,50.58929],[-119.31645,50.5897],[-119.31651,50.58978],[-119.31662,50.58988],[-119.31675,50.59013],[-119.31674,50.59036],[-119.31676,50.59059],[-119.31674,50.59086],[-119.31679,50.5911],[-119.31692,50.5914],[-119.31695,50.59148],[-119.31698,50.59166],[-119.317,50.59177],[-119.31706,50.59231],[-119.31711,50.59282],[-119.31714,50.59327],[-119.31719,50.59354],[-119.31716,50.59403],[-119.31709,50.59427],[-119.31707,50.59448],[-119.31698,50.59489],[-119.3169,50.59572],[-119.31671,50.59602],[-119.31663,50.59619],[-119.31643,50.5964],[-119.3161,50.59663],[-119.31598,50.59678],[-119.31559,50.5974],[-119.31547,50.59756],[-119.31542,50.59771],[-119.31537,50.59799],[-119.31522,50.59827],[-119.31511,50.5984],[-119.31481,50.59862],[-119.31432,50.59892],[-119.31419,50.59912],[-119.31417,50.59931],[-119.31419,50.59942],[-119.3142,50.59965],[-119.31408,50.59982],[-119.31385,50.59995],[-119.31377,50.60001],[-119.31366,50.60009],[-119.31357,50.60027],[-119.31364,50.60034],[-119.31376,50.60035],[-119.31395,50.60035],[-119.31424,50.6003],[-119.3144,50.60023],[-119.31451,50.60014],[-119.31462,50.60001],[-119.31508,50.5995],[-119.31539,50.59929],[-119.31563,50.59914],[-119.31583,50.59896],[-119.316,50.59879],[-119.31633,50.59859],[-119.31652,50.59851],[-119.31662,50.59845],[-119.31693,50.59832],[-119.31751,50.59801],[-119.31765,50.59792],[-119.31775,50.59783],[-119.31783,50.59776],[-119.31799,50.59766],[-119.31813,50.59761],[-119.31847,50.59724],[-119.31858,50.59705],[-119.31882,50.59694],[-119.31933,50.59665],[-119.31965,50.59642],[-119.3197,50.59632],[-119.32001,50.596],[-119.32079,50.59553],[-119.32119,50.59512],[-119.32145,50.59488],[-119.32164,50.5948],[-119.32188,50.59471],[-119.32214,50.5945],[-119.32223,50.59441],[-119.32231,50.59423],[-119.32256,50.59392],[-119.32296,50.59366],[-119.32304,50.59354],[-119.3231,50.59341],[-119.32329,50.59319],[-119.32354,50.59302],[-119.32362,50.59288],[-119.32369,50.59267],[-119.32379,50.59227],[-119.32379,50.59215],[-119.32377,50.59202],[-119.3238,50.59179],[-119.32388,50.59162],[-119.32394,50.59126],[-119.32403,50.59117]]}},
{"type":"Feature","properties":{"spotId":"G-deer-atv-0033","kind":"walk","km":0.02,"climbM":0,"name":"2.0 km E of Salmon River","flags":[]},"geometry":{"type":"LineString","coordinates":[[-119.32403,50.59117],[-119.32429,50.59123]]}},
{"type":"Feature","properties":{"spotId":"G-deer-atv-0034","kind":"ride","km":4.29,"climbM":308,"name":"2.0 km E of Silver Creek","flags":[]},"geometry":{"type":"LineString","coordinates":[[-119.34251,50.5853],[-119.34231,50.58556],[-119.34228,50.58559],[-119.34212,50.58571],[-119.34196,50.58583],[-119.34185,50.58597],[-119.34176,50.58612],[-119.34165,50.58627],[-119.34156,50.58637],[-119.34145,50.58648],[-119.34136,50.58662],[-119.34128,50.58677],[-119.34122,50.58691],[-119.34123,50.58703],[-119.34127,50.58712],[-119.34135,50.58721],[-119.34141,50.58733],[-119.34143,50.58753],[-119.34139,50.58771],[-119.34131,50.58791],[-119.34125,50.58811],[-119.3412,50.58827],[-119.34118,50.58843],[-119.34119,50.58862],[-119.3412,50.58883],[-119.34118,50.58904],[-119.34115,50.58918],[-119.34113,50.5893],[-119.34113,50.58943],[-119.3412,50.58961],[-119.34128,50.58976],[-119.34135,50.5899],[-119.34139,50.59005],[-119.3414,50.59021],[-119.34143,50.59039],[-119.34148,50.59053],[-119.34155,50.59066],[-119.34158,50.59082],[-119.34158,50.59099],[-119.34154,50.59112],[-119.34153,50.59125],[-119.3416,50.59144],[-119.34168,50.59156],[-119.34156,50.59168],[-119.34155,50.59175],[-119.34157,50.5919],[-119.3416,50.59206],[-119.3416,50.59223],[-119.34163,50.59228],[-119.34167,50.59238],[-119.34182,50.59249],[-119.34185,50.59254],[-119.3419,50.59272],[-119.34185,50.59285],[-119.34182,50.59299],[-119.34183,50.59319],[-119.34167,50.59312],[-119.34163,50.59308],[-119.3415,50.59295],[-119.34134,50.59269],[-119.34123,50.59257],[-119.34108,50.59231],[-119.34101,50.59216],[-119.34098,50.59202],[-119.34093,50.59188],[-119.34082,50.59172],[-119.3407,50.59161],[-119.34048,50.59136],[-119.3401,50.59104],[-119.33954,50.59067],[-119.33939,50.59055],[-119.33896,50.59015],[-119.33867,50.58993],[-119.33854,50.58982],[-119.33841,50.58973],[-119.33832,50.58959],[-119.3381,50.58947],[-119.33797,50.58938],[-119.33783,50.58925],[-119.33768,50.58914],[-119.33742,50.58892],[-119.33709,50.58873],[-119.33667,50.58852],[-119.33646,50.58844],[-119.33625,50.58838],[-119.33606,50.5883],[-119.33586,50.58825],[-119.33569,50.58823],[-119.33546,50.58822],[-119.33539,50.58821],[-119.33519,50.58812],[-119.33502,50.58802],[-119.33487,50.58791],[-119.33474,50.5878],[-119.33462,50.58765],[-119.3345,50.58754],[-119.33442,50.58751],[-119.33436,50.5875],[-119.33414,50.58746],[-119.33391,50.58735],[-119.33374,50.58729],[-119.33353,50.58722],[-119.33326,50.58718],[-119.3333,50.58733],[-119.33331,50.5876],[-119.33321,50.58802],[-119.33306,50.58841],[-119.33302,50.58878],[-119.33306,50.58925],[-119.33306,50.58958],[-119.3331,50.58986],[-119.33327,50.5902],[-119.33354,50.59047],[-119.33385,50.59066],[-119.33418,50.59092],[-119.3345,50.5913],[-119.33469,50.59163],[-119.33491,50.59194],[-119.33511,50.59224],[-119.33517,50.59251],[-119.33517,50.59286],[-119.33515,50.59325],[-119.33516,50.59354],[-119.33536,50.5939],[-119.33564,50.59426],[-119.33576,50.5944],[-119.33585,50.59453],[-119.33607,50.59484],[-119.33634,50.59502],[-119.33665,50.59513],[-119.33692,50.59534],[-119.33697,50.59556],[-119.33694,50.59577],[-119.33685,50.59598],[-119.33683,50.59614],[-119.33696,50.59623],[-119.33715,50.59639],[-119.33732,50.59662],[-119.33734,50.59682],[-119.33725,50.59699],[-119.33709,50.59717],[-119.33699,50.59731],[-119.33705,50.59745],[-119.33774,50.59763],[-119.33784,50.59772],[-119.33792,50.59781],[-119.33798,50.59787],[-119.33798,50.59791],[-119.33794,50.59799],[-119.33789,50.59809],[-119.33776,50.59828],[-119.33764,50.59841],[-119.3376,50.59851],[-119.33763,50.59861],[-119.33771,50.59871],[-119.33781,50.59882],[-119.3379,50.59892],[-119.33795,50.59903],[-119.33791,50.59913],[-119.3378,50.59922],[-119.33769,50.59929],[-119.33757,50.59934],[-119.33739,50.59941],[-119.33724,50.5995],[-119.33713,50.59961],[-119.33711,50.59974],[-119.33711,50.59985],[-119.33714,50.6],[-119.33712,50.60006],[-119.33711,50.60012],[-119.33709,50.60018],[-119.33699,50.60028],[-119.33687,50.60039],[-119.33678,50.60049],[-119.33678,50.6006],[-119.33686,50.60072],[-119.33697,50.60088],[-119.33706,50.60102],[-119.33713,50.60112],[-119.33718,50.60123],[-119.33722,50.60135],[-119.33724,50.60147],[-119.33724,50.6016],[-119.33723,50.60167],[-119.33718,50.60175],[-119.33707,50.60181],[-119.33679,50.60188],[-119.33655,50.60188],[-119.33631,50.60189],[-119.33612,50.60194],[-119.33594,50.60203],[-119.33581,50.60215],[-119.33575,50.60227],[-119.33573,50.60237],[-119.33576,50.60251],[-119.33583,50.60268],[-119.33589,50.60281],[-119.33597,50.60295],[-119.33603,50.60308],[-119.33615,50.6032],[-119.33631,50.60327],[-119.33639,50.60329],[-119.33648,50.60329],[-119.33658,50.60328],[-119.33677,50.60325],[-119.33696,50.60321],[-119.33711,50.60318],[-119.33742,50.60314],[-119.33775,50.60309],[-119.33806,50.60301],[-119.33828,50.60288],[-119.33849,50.60274],[-119.33876,50.60262],[-119.33897,50.60257],[-119.33917,50.60254],[-119.33937,50.60253],[-119.33949,50.60255],[-119.33962,50.60257],[-119.33975,50.60256],[-119.3399,50.60249],[-119.34002,50.60237],[-119.34017,50.60221],[-119.34035,50.60207],[-119.34051,50.60198],[-119.34066,50.6019],[-119.34071,50.60189]]}},
{"type":"Feature","properties":{"spotId":"G-deer-atv-0034","kind":"walk","km":0.06,"climbM":14,"name":"2.0 km E of Silver Creek","flags":[]},"geometry":{"type":"LineString","coordinates":[[-119.34071,50.60189],[-119.34036,50.60139]]}},
{"type":"Feature","properties":{"spotId":"G-deer-atv-0040","kind":"ride","km":5.12,"climbM":192,"name":"2.0 km N of Slack Creek","flags":[]},"geometry":{"type":"LineString","coordinates":[[-119.30435,50.55612],[-119.30457,50.55624],[-119.30479,50.55639],[-119.30495,50.5565],[-119.30511,50.55659],[-119.30528,50.55664],[-119.30544,50.55664],[-119.30559,50.55662],[-119.30572,50.55659],[-119.30587,50.55653],[-119.30605,50.55646],[-119.30626,50.55641],[-119.30647,50.55635],[-119.30669,50.55633],[-119.30689,50.55631],[-119.30706,50.55635],[-119.30721,50.55645],[-119.30724,50.55646],[-119.30733,50.55656],[-119.30739,50.55667],[-119.30745,50.55671],[-119.30758,50.55684],[-119.30777,50.55692],[-119.30794,50.55695],[-119.30812,50.55694],[-119.30828,50.55695],[-119.30852,50.55696],[-119.30879,50.55696],[-119.30904,50.55693],[-119.30923,50.55686],[-119.30941,50.55677],[-119.30963,50.55669],[-119.30983,50.55664],[-119.31004,50.55661],[-119.31019,50.55661],[-119.31031,50.55666],[-119.31044,50.55675],[-119.31056,50.55683],[-119.31082,50.5569],[-119.31115,50.55688],[-119.31153,50.55684],[-119.31186,50.55683],[-119.31214,50.55686],[-119.31235,50.55687],[-119.31257,50.55689],[-119.31282,50.55693],[-119.31285,50.55694],[-119.31314,50.55702],[-119.31342,50.55713],[-119.31368,50.55721],[-119.31395,50.55726],[-119.31425,50.55725],[-119.31454,50.55722],[-119.31478,50.55718],[-119.31498,50.55714],[-119.31523,50.55707],[-119.31549,50.557],[-119.3158,50.55691],[-119.31606,50.55683],[-119.31627,50.55677],[-119.31652,50.55671],[-119.31684,50.55662],[-119.31717,50.55654],[-119.31721,50.55653],[-119.31752,50.55647],[-119.31789,50.55642],[-119.31829,50.55637],[-119.31861,50.55634],[-119.31891,50.55632],[-119.31919,50.55627],[-119.31937,50.55625],[-119.31955,50.55629],[-119.31973,50.55636],[-119.31983,50.55644],[-119.31993,50.55653],[-119.32002,50.55656],[-119.32016,50.55652],[-119.32029,50.55637],[-119.3204,50.55623],[-119.32049,50.55617],[-119.3206,50.55612],[-119.32073,50.55607],[-119.3209,50.55602],[-119.32108,50.55594],[-119.32127,50.55587],[-119.32153,50.55579],[-119.32174,50.55574],[-119.32203,50.55563],[-119.32231,50.55548],[-119.32251,50.55523],[-119.32269,50.55493],[-119.32285,50.55478],[-119.323,50.55466],[-119.32307,50.55462],[-119.32318,50.55452],[-119.32351,50.55439],[-119.32371,50.55414],[-119.32412,50.55384],[-119.32461,50.5535],[-119.32482,50.5532],[-119.32514,50.55307],[-119.32527,50.55309],[-119.32534,50.55313],[-119.32529,50.55327],[-119.32512,50.55345],[-119.32505,50.5537],[-119.32509,50.55396],[-119.32513,50.55419],[-119.32515,50.55437],[-119.32518,50.55471],[-119.32514,50.55509],[-119.32493,50.5554],[-119.32472,50.5557],[-119.32467,50.5559],[-119.32469,50.55599],[-119.3247,50.55608],[-119.32472,50.5563],[-119.32474,50.55634],[-119.32488,50.55638],[-119.32491,50.55636],[-119.32515,50.55617],[-119.32536,50.5561],[-119.32549,50.55612],[-119.32555,50.55625],[-119.32559,50.5564],[-119.32556,50.55671],[-119.32546,50.55703],[-119.32536,50.55744],[-119.32533,50.55775],[-119.32533,50.55777],[-119.32542,50.55762],[-119.32555,50.55734],[-119.32566,50.55707],[-119.32577,50.55687],[-119.32584,50.55659],[-119.32582,50.5562],[-119.32578,50.55595],[-119.32575,50.55574],[-119.32579,50.5554],[-119.32589,50.5551],[-119.32599,50.55487],[-119.32609,50.55459],[-119.32618,50.55417],[-119.32621,50.55374],[-119.3262,50.55341],[-119.32622,50.55315],[-119.3262,50.55282],[-119.32614,50.55242],[-119.3261,50.55217],[-119.3261,50.55193],[-119.32618,50.55143],[-119.32628,50.55105],[-119.32642,50.55072],[-119.32667,50.5503],[-119.32695,50.54984],[-119.32718,50.54941],[-119.32733,50.549],[-119.32745,50.54864],[-119.32747,50.54845],[-119.32742,50.54822],[-119.32734,50.54808],[-119.32729,50.54794],[-119.32735,50.54767],[-119.32753,50.54746],[-119.32766,50.54721],[-119.3277,50.5469],[-119.32768,50.54664],[-119.32765,50.5464],[-119.32771,50.54612],[-119.32784,50.54588],[-119.32792,50.54575],[-119.32795,50.54559],[-119.32794,50.54546],[-119.32794,50.54533],[-119.32804,50.54519],[-119.32819,50.54508],[-119.32823,50.54488],[-119.32799,50.54461],[-119.32769,50.54437],[-119.32747,50.54413],[-119.32731,50.54382],[-119.32726,50.54356],[-119.32726,50.54324],[-119.32724,50.54285],[-119.32711,50.5425],[-119.32709,50.54248],[-119.32683,50.54214],[-119.32655,50.54186],[-119.32636,50.54166],[-119.32594,50.54151],[-119.32531,50.54131],[-119.32486,50.54111],[-119.32451,50.5409],[-119.32427,50.54083],[-119.32398,50.5407],[-119.32394,50.54067],[-119.32374,50.54057],[-119.32358,50.54046],[-119.3235,50.54029],[-119.32337,50.54009],[-119.3232,50.53998],[-119.32314,50.53993],[-119.32299,50.53983],[-119.32288,50.53956],[-119.32281,50.5393],[-119.32267,50.53916],[-119.32237,50.53923],[-119.32237,50.53942],[-119.32226,50.53983],[-119.32216,50.54019],[-119.32214,50.54046],[-119.322,50.5406],[-119.32189,50.54056],[-119.32174,50.54046],[-119.3215,50.54022],[-119.32137,50.54006],[-119.32119,50.5399],[-119.32097,50.53969],[-119.32069,50.53938],[-119.32029,50.53914],[-119.32001,50.53907],[-119.31989,50.53904],[-119.31978,50.5391]]}},
{"type":"Feature","properties":{"spotId":"G-deer-atv-0040","kind":"walk","km":0.25,"climbM":46,"name":"2.0 km N of Slack Creek","flags":[]},"geometry":{"type":"LineString","coordinates":[[-119.31978,50.5391],[-119.31651,50.53816]]}},
{"type":"Feature","properties":{"spotId":"G-deer-atv-0047","kind":"ride","km":1.99,"climbM":87,"name":"1.0 km S of Silver Creek","flags":[]},"geometry":{"type":"LineString","coordinates":[[-119.38397,50.56303],[-119.38383,50.56321],[-119.3837,50.56336],[-119.38353,50.56354],[-119.38341,50.56368],[-119.38332,50.56383],[-119.38318,50.56399],[-119.38309,50.56411],[-119.38297,50.56428],[-119.38292,50.56445],[-119.38283,50.56463],[-119.38278,50.56473],[-119.38272,50.56482],[-119.38266,50.56487],[-119.38254,50.56496],[-119.38246,50.56498],[-119.38239,50.56503],[-119.38238,50.56507],[-119.38236,50.56509],[-119.38238,50.5652],[-119.38246,50.56537],[-119.38261,50.56571],[-119.38265,50.56576],[-119.38273,50.56594],[-119.38277,50.56611],[-119.38282,50.56624],[-119.3829,50.56642],[-119.38309,50.56656],[-119.3833,50.56667],[-119.38349,50.56676],[-119.38359,50.56685],[-119.38363,50.56702],[-119.38358,50.5672],[-119.38354,50.56737],[-119.38347,50.56754],[-119.38349,50.56765],[-119.38356,50.56785],[-119.38364,50.56804],[-119.38364,50.5681],[-119.38369,50.56814],[-119.3837,50.56832],[-119.38371,50.56848],[-119.38371,50.56866],[-119.38367,50.56884],[-119.38358,50.56901],[-119.38336,50.56925],[-119.38323,50.56936],[-119.38267,50.56942],[-119.38209,50.56944],[-119.38149,50.56942],[-119.3809,50.56932],[-119.38074,50.5693],[-119.38063,50.56936],[-119.38036,50.56944],[-119.38011,50.56953],[-119.37987,50.56963],[-119.37966,50.56975],[-119.37958,50.56981],[-119.37944,50.5699],[-119.37932,50.57006],[-119.37927,50.57023],[-119.37924,50.57036],[-119.37919,50.57057],[-119.37917,50.57068],[-119.37919,50.57073],[-119.37925,50.57078],[-119.37934,50.57095],[-119.37931,50.57102],[-119.37928,50.57122],[-119.3792,50.57137],[-119.37918,50.57143],[-119.37918,50.57149],[-119.37911,50.57171],[-119.37899,50.57187],[-119.37889,50.57203],[-119.37884,50.57221],[-119.37876,50.57239],[-119.37869,50.57255],[-119.37858,50.57262],[-119.37861,50.57277],[-119.37856,50.5729],[-119.37848,50.57305],[-119.37846,50.57318],[-119.37847,50.57334],[-119.37851,50.57348],[-119.37854,50.57357],[-119.37877,50.57363],[-119.37881,50.57366],[-119.37888,50.57369],[-119.37896,50.57371],[-119.3792,50.57373],[-119.37928,50.57375],[-119.37934,50.57378],[-119.37937,50.57381],[-119.37939,50.57385],[-119.37941,50.574],[-119.37944,50.57406],[-119.37948,50.57411],[-119.37954,50.57413],[-119.3797,50.57421],[-119.37988,50.57431],[-119.38004,50.5744],[-119.38025,50.57448],[-119.38045,50.57452],[-119.38058,50.57452],[-119.38079,50.5745],[-119.38086,50.57447],[-119.38105,50.57441],[-119.38112,50.57441],[-119.38135,50.57439],[-119.38159,50.57437],[-119.3818,50.57438],[-119.38184,50.57439],[-119.38197,50.57446],[-119.38205,50.57453],[-119.38218,50.57465],[-119.38222,50.57467],[-119.38232,50.5747],[-119.38237,50.57471],[-119.38261,50.5747],[-119.38285,50.57473],[-119.38306,50.57474],[-119.3833,50.57471],[-119.38351,50.57466],[-119.38372,50.5746],[-119.38379,50.5746],[-119.38392,50.5746],[-119.38396,50.57463],[-119.38411,50.57474],[-119.38424,50.57481],[-119.38431,50.57482],[-119.38434,50.57482]]}},
{"type":"Feature","properties":{"spotId":"G-deer-atv-0047","kind":"walk","km":0.04,"climbM":4,"name":"1.0 km S of Silver Creek","flags":[]},"geometry":{"type":"LineString","coordinates":[[-119.38434,50.57482],[-119.3843,50.57516]]}},
{"type":"Feature","properties":{"spotId":"G-deer-atv-0049","kind":"ride","km":2.01,"climbM":1,"name":"1.7 km W of Silver Creek","flags":[]},"geometry":{"type":"LineString","coordinates":[[-119.40608,50.5934],[-119.40572,50.59327],[-119.40522,50.59306],[-119.40498,50.593],[-119.40464,50.59288],[-119.40431,50.59278],[-119.40405,50.59276],[-119.40396,50.59258],[-119.40364,50.59247],[-119.4033,50.59239],[-119.40255,50.59222],[-119.40155,50.5919],[-119.40097,50.59164],[-119.4001,50.5912],[-119.4,50.59113],[-119.3995,50.5908],[-119.39891,50.5904],[-119.39824,50.58992],[-119.39801,50.58972],[-119.39744,50.5893],[-119.39683,50.58881],[-119.39647,50.58858],[-119.39594,50.58817],[-119.39554,50.58787],[-119.39546,50.58791],[-119.39526,50.58789],[-119.395,50.58772],[-119.39495,50.58759],[-119.39509,50.5872],[-119.3952,50.5869],[-119.39519,50.58678],[-119.39512,50.58671],[-119.39493,50.58669],[-119.39477,50.58669],[-119.39456,50.58677],[-119.39432,50.5869],[-119.3942,50.58701],[-119.39389,50.58766],[-119.39355,50.58837],[-119.3934,50.58884],[-119.3933,50.58906],[-119.39302,50.58973],[-119.39261,50.59061],[-119.39224,50.59124],[-119.39185,50.59214],[-119.39152,50.59277],[-119.39119,50.59325],[-119.39113,50.59335],[-119.39112,50.59342],[-119.39109,50.59349],[-119.39103,50.59355],[-119.3909,50.59358],[-119.39082,50.59357]]}},
{"type":"Feature","properties":{"spotId":"G-deer-atv-0049","kind":"walk","km":0.11,"climbM":0,"name":"1.7 km W of Silver Creek","flags":[]},"geometry":{"type":"LineString","coordinates":[[-119.39082,50.59357],[-119.39005,50.59445]]}},
{"type":"Feature","properties":{"spotId":"G-deer-atv-0051","kind":"ride","km":1.93,"climbM":103,"name":"1.9 km S of Haines Creek","flags":[]},"geometry":{"type":"LineString","coordinates":[[-119.31961,50.55144],[-119.31962,50.55157],[-119.31965,50.55172],[-119.31972,50.55187],[-119.3198,50.55202],[-119.31987,50.55218],[-119.31997,50.55236],[-119.32003,50.55252],[-119.32007,50.55268],[-119.32009,50.55282],[-119.32008,50.55299],[-119.32008,50.55313],[-119.32008,50.55329],[-119.32009,50.55346],[-119.3201,50.55363],[-119.32011,50.55379],[-119.3201,50.55395],[-119.3201,50.5541],[-119.32009,50.55426],[-119.31999,50.55444],[-119.31997,50.55448],[-119.31985,50.55462],[-119.3198,50.55468],[-119.3198,50.55474],[-119.31965,50.55489],[-119.31949,50.55502],[-119.31927,50.55516],[-119.31908,50.55528],[-119.31901,50.55532],[-119.31882,50.55544],[-119.31877,50.55548],[-119.31877,50.55555],[-119.319,50.55561],[-119.31926,50.55568],[-119.31951,50.55575],[-119.31961,50.55576],[-119.31977,50.55589],[-119.31992,50.55603],[-119.32002,50.5562],[-119.32003,50.55624],[-119.3202,50.55626],[-119.3204,50.55623],[-119.32029,50.55637],[-119.32016,50.55652],[-119.32002,50.55656],[-119.31993,50.55653],[-119.31983,50.55644],[-119.31973,50.55636],[-119.31955,50.55629],[-119.31937,50.55625],[-119.31919,50.55627],[-119.31891,50.55632],[-119.31861,50.55634],[-119.31829,50.55637],[-119.31789,50.55642],[-119.31752,50.55647],[-119.31721,50.55653],[-119.31717,50.55654],[-119.31684,50.55662],[-119.31652,50.55671],[-119.31627,50.55677],[-119.31606,50.55683],[-119.3158,50.55691],[-119.31549,50.557],[-119.31523,50.55707],[-119.31498,50.55714],[-119.31478,50.55718],[-119.31454,50.55722],[-119.31425,50.55725],[-119.31395,50.55726],[-119.31368,50.55721],[-119.31342,50.55713],[-119.31314,50.55702],[-119.31285,50.55694],[-119.31282,50.55693],[-119.31257,50.55689],[-119.31235,50.55687],[-119.31214,50.55686],[-119.31186,50.55683],[-119.31153,50.55684],[-119.31115,50.55688],[-119.31082,50.5569],[-119.31056,50.55683],[-119.31044,50.55675],[-119.31031,50.55666],[-119.31019,50.55661],[-119.31004,50.55661],[-119.30983,50.55664],[-119.30963,50.55669],[-119.30941,50.55677],[-119.30923,50.55686],[-119.30904,50.55693],[-119.30879,50.55696],[-119.30852,50.55696],[-119.30828,50.55695],[-119.30812,50.55694],[-119.30794,50.55695],[-119.30777,50.55692],[-119.30758,50.55684],[-119.30745,50.55671],[-119.30739,50.55667],[-119.30733,50.55656],[-119.30724,50.55646],[-119.30721,50.55645],[-119.30706,50.55635],[-119.30689,50.55631],[-119.30669,50.55633],[-119.30647,50.55635],[-119.30626,50.55641],[-119.30605,50.55646],[-119.30587,50.55653],[-119.30572,50.55659],[-119.30559,50.55662],[-119.30544,50.55664],[-119.30528,50.55664],[-119.30511,50.55659],[-119.30495,50.5565],[-119.30479,50.55639],[-119.30457,50.55624],[-119.30435,50.55612]]}},
{"type":"Feature","properties":{"spotId":"G-deer-atv-0051","kind":"walk","km":0.01,"climbM":0,"name":"1.9 km S of Haines Creek","flags":[]},"geometry":{"type":"LineString","coordinates":[[-119.31961,50.55144],[-119.3198,50.55144]]}},
{"type":"Feature","properties":{"spotId":"G-deer-atv-0053","kind":"ride","km":3.37,"climbM":216,"name":"1.3 km W of Slack Creek","flags":["Route touches city limits: The Corporation of the Township of Spallumcheen. Local firearm bylaw applies."]},"geometry":{"type":"LineString","coordinates":[[-119.32677,50.51687],[-119.32654,50.51703],[-119.32629,50.51721],[-119.32611,50.51743],[-119.32599,50.5178],[-119.32598,50.51788],[-119.32596,50.5181],[-119.32604,50.51845],[-119.32617,50.51886],[-119.32622,50.5191],[-119.3262,50.5194],[-119.32609,50.51979],[-119.32597,50.52009],[-119.32596,50.52037],[-119.326,50.52067],[-119.32608,50.52087],[-119.32609,50.52106],[-119.32603,50.52119],[-119.32602,50.52121],[-119.32588,50.52138],[-119.32572,50.52159],[-119.32555,50.52172],[-119.32535,50.52173],[-119.32514,50.52172],[-119.32477,50.52175],[-119.32431,50.52186],[-119.32388,50.52196],[-119.32353,50.52202],[-119.32317,50.52207],[-119.32277,50.52213],[-119.32247,50.52219],[-119.32206,50.52224],[-119.32186,50.52226],[-119.32168,50.52227],[-119.32135,50.52237],[-119.32103,50.52248],[-119.32057,50.52258],[-119.31995,50.52266],[-119.31928,50.52275],[-119.31875,50.52286],[-119.31823,50.523],[-119.31773,50.52312],[-119.31741,50.52317],[-119.317,50.52321],[-119.31626,50.52333],[-119.31566,50.52345],[-119.31534,50.52352],[-119.31511,50.52356],[-119.31458,50.52364],[-119.31389,50.52374],[-119.31311,50.5239],[-119.3125,50.52405],[-119.31204,50.52424],[-119.31178,50.52446],[-119.3117,50.52455],[-119.31156,50.52469],[-119.31138,50.52481],[-119.31128,50.52488],[-119.31086,50.52499],[-119.31054,50.52501],[-119.31024,50.525],[-119.30992,50.52496],[-119.30964,50.52497],[-119.3095,50.52513],[-119.3093,50.5253],[-119.30893,50.52534],[-119.30858,50.52532],[-119.30819,50.52538],[-119.30786,50.52549],[-119.30737,50.52561],[-119.30679,50.52566],[-119.30655,50.52565],[-119.30647,50.52564],[-119.3062,50.52561],[-119.30607,50.52558],[-119.30575,50.52553],[-119.30534,50.52548],[-119.30502,50.52553],[-119.30462,50.52564],[-119.3042,50.52575],[-119.30393,50.5258],[-119.30392,50.52591],[-119.30393,50.52598],[-119.30393,50.52611],[-119.30396,50.52627],[-119.30397,50.52634],[-119.30403,50.52653],[-119.30411,50.52677],[-119.30412,50.52703],[-119.30405,50.52737],[-119.30405,50.52764],[-119.30414,50.52776],[-119.30417,50.52781],[-119.30422,50.52789],[-119.30428,50.52802],[-119.3043,50.52831],[-119.30423,50.52862],[-119.3042,50.52896],[-119.30426,50.52921],[-119.30431,50.5294],[-119.30428,50.52963],[-119.30416,50.52977],[-119.30398,50.5299],[-119.30375,50.53005],[-119.3037,50.53008],[-119.30346,50.5302],[-119.30318,50.5303],[-119.30289,50.53042],[-119.30272,50.53047],[-119.3026,50.53051],[-119.30229,50.5306],[-119.3018,50.53071],[-119.30138,50.53078],[-119.30101,50.53086],[-119.30059,50.53096],[-119.30012,50.53114],[-119.2997,50.53138],[-119.29942,50.53168],[-119.29923,50.53198],[-119.299,50.53234],[-119.29884,50.53266],[-119.29882,50.53285],[-119.29879,50.5331],[-119.29871,50.53327],[-119.2986,50.53339],[-119.29852,50.53345],[-119.29845,50.53355],[-119.29842,50.5338],[-119.29852,50.53406],[-119.29854,50.53415]]}},
{"type":"Feature","properties":{"spotId":"G-deer-atv-0053","kind":"walk","km":0.04,"climbM":8,"name":"1.3 km W of Slack Creek","flags":["Route touches city limits: The Corporation of the Township of Spallumcheen. Local firearm bylaw applies."]},"geometry":{"type":"LineString","coordinates":[[-119.32677,50.51687],[-119.32639,50.51664]]}},
{"type":"Feature","properties":{"spotId":"G-deer-drive-0008","kind":"walk","km":0.01,"climbM":4,"name":"760 m E of Salmon River","flags":[]},"geometry":{"type":"LineString","coordinates":[[-119.33923,50.51737],[-119.33903,50.5174]]}},
{"type":"Feature","properties":{"spotId":"G-deer-drive-0046","kind":"walk","km":0.06,"climbM":11,"name":"610 m NW of Allardice Creek","flags":[]},"geometry":{"type":"LineString","coordinates":[[-119.37661,50.55626],[-119.37746,50.55642]]}},
{"type":"Feature","properties":{"spotId":"G-deer-drive-0068","kind":"walk","km":0.12,"climbM":30,"name":"870 m SE of Salmon River","flags":[]},"geometry":{"type":"LineString","coordinates":[[-119.34167,50.5377],[-119.3402,50.53823]]}},
{"type":"Feature","properties":{"spotId":"G-deer-drive-0074","kind":"walk","km":0.13,"climbM":0,"name":"360 m E of Salmon River","flags":[]},"geometry":{"type":"LineString","coordinates":[[-119.34031,50.55343],[-119.34216,50.55369]]}},
{"type":"Feature","properties":{"spotId":"G-deer-walk-0048","kind":"walk","km":0.73,"climbM":16,"name":"1.0 km N of Spa Creek","flags":[]},"geometry":{"type":"LineString","coordinates":[[-119.38892,50.55466],[-119.38782,50.54952],[-119.38787,50.54942],[-119.38804,50.54928],[-119.38825,50.54918],[-119.38852,50.5491],[-119.38877,50.54906],[-119.38881,50.54906],[-119.38906,50.54902],[-119.3893,50.54904],[-119.38935,50.54888],[-119.38939,50.54883]]}},
{"type":"Feature","properties":{"spotId":"G-deer-walk-0061","kind":"walk","km":0.92,"climbM":350,"name":"1.6 km NW of Slack Creek","flags":[]},"geometry":{"type":"LineString","coordinates":[[-119.33253,50.53419],[-119.31965,50.53338]]}},
{"type":"Feature","properties":{"spotId":"G-deer-walk-0065","kind":"walk","km":1.67,"climbM":2,"name":"By Haines Creek","flags":[]},"geometry":{"type":"LineString","coordinates":[[-119.29465,50.56326],[-119.3156,50.57014]]}},
{"type":"Feature","properties":{"spotId":"G-deer-walk-0067","kind":"walk","km":0.78,"climbM":0,"name":"2.0 km W of Silver Creek","flags":[]},"geometry":{"type":"LineString","coordinates":[[-119.40613,50.59363],[-119.39555,50.59568]]}},
{"type":"Feature","properties":{"spotId":"G-deer-walk-0077","kind":"walk","km":0.36,"climbM":84,"name":"790 m E of Salmon River","flags":["Route crosses private land (ParcelMap BC, updated 2026-09-25): get permission first or go around."]},"geometry":{"type":"LineString","coordinates":[[-119.35646,50.60634],[-119.35135,50.60658]]}},
{"type":"Feature","properties":{"spotId":"G-duck-drive-0145","kind":"walk","km":0.01,"climbM":0,"name":"Unnamed wetland 1.1 km SE of Haines Creek","flags":[]},"geometry":{"type":"LineString","coordinates":[[-119.28699,50.57302],[-119.28692,50.57294]]}},
{"type":"Feature","properties":{"spotId":"G-grouse-atv-0065","kind":"walk","km":0.55,"climbM":66,"name":"700 m NW of Salmon River","flags":["Route crosses private land (ParcelMap BC, updated 2026-09-25): get permission first or go around."]},"geometry":{"type":"LineString","coordinates":[[-119.39069,50.64901],[-119.39231,50.65382]]}},
{"type":"Feature","properties":{"spotId":"G-grouse-atv-0065","kind":"ride","km":3.96,"climbM":301,"name":"700 m NW of Salmon River","flags":["Route crosses private land (ParcelMap BC, updated 2026-09-25): get permission first or go around."]},"geometry":{"type":"LineString","coordinates":[[-119.39231,50.65382],[-119.39249,50.65371],[-119.39274,50.65357],[-119.39297,50.65343],[-119.39327,50.65314],[-119.39346,50.65298],[-119.39348,50.65279],[-119.3935,50.65265],[-119.39356,50.65256],[-119.39371,50.65243],[-119.39377,50.65242],[-119.39388,50.65244],[-119.39398,50.6525],[-119.39408,50.65266],[-119.39423,50.65285],[-119.3943,50.65294],[-119.39442,50.65303],[-119.39455,50.65311],[-119.3947,50.65322],[-119.39485,50.65333],[-119.39498,50.65342],[-119.39507,50.65353],[-119.39516,50.65362],[-119.39533,50.65371],[-119.39555,50.65381],[-119.39561,50.65392],[-119.39563,50.65404],[-119.39572,50.65417],[-119.39587,50.65434],[-119.39622,50.65438],[-119.39631,50.65436],[-119.39644,50.65425],[-119.39653,50.65404],[-119.39659,50.65388],[-119.39671,50.65369],[-119.39684,50.65356],[-119.39702,50.65341],[-119.39717,50.65331],[-119.39751,50.65316],[-119.39788,50.65315],[-119.39823,50.65314],[-119.39831,50.65304],[-119.39835,50.65295],[-119.39839,50.65287],[-119.39811,50.6526],[-119.39798,50.6524],[-119.39782,50.6522],[-119.39776,50.65197],[-119.39784,50.65179],[-119.39797,50.65165],[-119.39803,50.65144],[-119.39798,50.65125],[-119.39796,50.65106],[-119.39812,50.65086],[-119.3983,50.65074],[-119.39856,50.65068],[-119.39868,50.65056],[-119.39873,50.65043],[-119.39868,50.6503],[-119.39855,50.6501],[-119.39843,50.64985],[-119.39829,50.64957],[-119.39807,50.64942],[-119.39793,50.6492],[-119.39793,50.64919],[-119.39792,50.64872],[-119.39785,50.64831],[-119.39774,50.64814],[-119.39778,50.64794],[-119.39797,50.64767],[-119.39848,50.64724],[-119.39862,50.64707],[-119.3989,50.64671],[-119.39904,50.64624],[-119.39901,50.6459],[-119.39893,50.64539],[-119.39892,50.64473],[-119.39884,50.64418],[-119.39867,50.64368],[-119.39855,50.64325],[-119.3985,50.6429],[-119.39856,50.6426],[-119.39873,50.6423],[-119.39869,50.64209],[-119.39844,50.64194],[-119.39836,50.64176],[-119.39855,50.64165],[-119.39891,50.64151],[-119.39891,50.64142],[-119.39892,50.64129],[-119.39893,50.6412],[-119.39889,50.64111],[-119.39881,50.64091],[-119.39872,50.64071],[-119.39873,50.64046],[-119.3988,50.64031],[-119.39887,50.64014],[-119.39895,50.64004],[-119.399,50.6399],[-119.39913,50.63971],[-119.39935,50.6396],[-119.39956,50.63948],[-119.3998,50.63939],[-119.39988,50.63906],[-119.39979,50.63879],[-119.3996,50.63856],[-119.3996,50.6383],[-119.39975,50.63825],[-119.40001,50.63821],[-119.40029,50.63825],[-119.40037,50.63837],[-119.40052,50.63856],[-119.40073,50.63886],[-119.40074,50.63908],[-119.40062,50.63945],[-119.40057,50.63989],[-119.40057,50.64015],[-119.40068,50.64034],[-119.40084,50.64067],[-119.40103,50.64077],[-119.40112,50.64073],[-119.40109,50.64059],[-119.40097,50.64042],[-119.40092,50.64011],[-119.40107,50.64001],[-119.40137,50.63973],[-119.40173,50.63956],[-119.4022,50.63946],[-119.40249,50.63952],[-119.40263,50.63977],[-119.40277,50.64021],[-119.40307,50.64055],[-119.40371,50.64094],[-119.40439,50.64119],[-119.40518,50.64147],[-119.40532,50.64148],[-119.40552,50.64147],[-119.40554,50.64131],[-119.40539,50.64123],[-119.40531,50.64119],[-119.40512,50.64109],[-119.40497,50.641],[-119.40479,50.64089],[-119.40476,50.64083],[-119.40457,50.64069],[-119.40438,50.64052],[-119.40429,50.64044],[-119.40423,50.64029],[-119.40426,50.6402],[-119.40439,50.64014],[-119.40457,50.64015],[-119.40478,50.64023],[-119.40495,50.64037],[-119.40504,50.64045],[-119.40513,50.64055],[-119.40528,50.64071],[-119.40541,50.64074],[-119.40555,50.6407],[-119.40563,50.64067],[-119.40567,50.64056],[-119.40576,50.64043],[-119.4059,50.6403],[-119.40597,50.64017],[-119.40604,50.64004],[-119.40612,50.63991],[-119.40621,50.63979],[-119.40635,50.6397],[-119.40643,50.63967],[-119.40667,50.6396],[-119.40686,50.63958],[-119.40706,50.63959],[-119.40721,50.63962],[-119.40737,50.63971],[-119.40745,50.63978],[-119.40756,50.63985],[-119.40779,50.63999]]}},
{"type":"Feature","properties":{"spotId":"G-moose-atv-0009","kind":"ride","km":7.18,"climbM":435,"name":"790 m W of Ida Creek","flags":[]},"geometry":{"type":"LineString","coordinates":[[-119.27115,50.58669],[-119.27125,50.58679],[-119.27132,50.58686],[-119.27129,50.58696],[-119.27131,50.58713],[-119.2713,50.58732],[-119.27121,50.58749],[-119.27112,50.58766],[-119.27109,50.58783],[-119.27114,50.58802],[-119.27118,50.58818],[-119.27117,50.58837],[-119.27117,50.58855],[-119.27114,50.58868],[-119.27107,50.58886],[-119.27098,50.58903],[-119.27094,50.58921],[-119.27095,50.5894],[-119.27097,50.58953],[-119.27098,50.58971],[-119.271,50.58989],[-119.27103,50.59007],[-119.27106,50.59024],[-119.27107,50.59044],[-119.2711,50.59062],[-119.27115,50.59079],[-119.27116,50.59099],[-119.27116,50.59116],[-119.27117,50.5913],[-119.27119,50.59147],[-119.2712,50.59166],[-119.27111,50.59182],[-119.27098,50.59198],[-119.27077,50.59211],[-119.2706,50.59215],[-119.27052,50.59214],[-119.27035,50.59211],[-119.27019,50.59213],[-119.27014,50.59218],[-119.27005,50.59228],[-119.26998,50.59245],[-119.26984,50.59261],[-119.26973,50.59271],[-119.26967,50.59276],[-119.2696,50.59294],[-119.26963,50.59313],[-119.26964,50.59333],[-119.26965,50.59351],[-119.26961,50.59371],[-119.26954,50.59388],[-119.26944,50.59407],[-119.26935,50.59422],[-119.26927,50.59441],[-119.26922,50.59454],[-119.26916,50.59472],[-119.26913,50.59489],[-119.26906,50.59497],[-119.26902,50.595],[-119.26946,50.59528],[-119.26996,50.59555],[-119.27047,50.59581],[-119.27082,50.59605],[-119.27108,50.59639],[-119.27137,50.59687],[-119.27151,50.59718],[-119.27159,50.59745],[-119.27151,50.59769],[-119.27145,50.59794],[-119.27145,50.5982],[-119.27149,50.59847],[-119.27158,50.59888],[-119.27179,50.59913],[-119.27216,50.59928],[-119.27253,50.59953],[-119.27277,50.59974],[-119.27292,50.5999],[-119.27305,50.60009],[-119.27307,50.60019],[-119.27315,50.60045],[-119.27315,50.60066],[-119.27307,50.60084],[-119.27297,50.60097],[-119.27281,50.60108],[-119.27265,50.60125],[-119.27248,50.6014],[-119.2723,50.60157],[-119.27218,50.60174],[-119.27208,50.60192],[-119.27199,50.60213],[-119.27196,50.60231],[-119.27192,50.60252],[-119.27192,50.6027],[-119.27193,50.60288],[-119.27198,50.60306],[-119.27202,50.60326],[-119.27208,50.60345],[-119.27213,50.60364],[-119.2722,50.60383],[-119.27221,50.60403],[-119.27221,50.60406],[-119.27215,50.60427],[-119.2721,50.60449],[-119.272,50.60467],[-119.27189,50.60484],[-119.27185,50.60502],[-119.27194,50.60523],[-119.27213,50.6054],[-119.27234,50.60556],[-119.27251,50.6057],[-119.27266,50.60588],[-119.27276,50.60608],[-119.27294,50.60624],[-119.27311,50.60642],[-119.27316,50.60648],[-119.27325,50.60666],[-119.27337,50.60675],[-119.27355,50.60664],[-119.27369,50.60655],[-119.274,50.60658],[-119.27449,50.60673],[-119.27493,50.60678],[-119.27527,50.60678],[-119.27548,50.60683],[-119.27579,50.6069],[-119.27628,50.60708],[-119.27649,50.60717],[-119.27662,50.6073],[-119.27664,50.60735],[-119.27665,50.60742],[-119.27665,50.60756],[-119.27662,50.60784],[-119.27666,50.6081],[-119.27677,50.60839],[-119.27692,50.60864],[-119.2772,50.60885],[-119.27759,50.60905],[-119.27799,50.60924],[-119.27841,50.60945],[-119.27877,50.60965],[-119.27902,50.60979],[-119.27917,50.61003],[-119.27937,50.61039],[-119.27965,50.61071],[-119.27992,50.61098],[-119.28012,50.61127],[-119.28029,50.61155],[-119.28041,50.61175],[-119.28055,50.61199],[-119.28064,50.6122],[-119.28071,50.61236],[-119.28072,50.61261],[-119.28067,50.61292],[-119.28061,50.6132],[-119.28052,50.6135],[-119.28045,50.61376],[-119.28036,50.61393],[-119.28033,50.61418],[-119.28042,50.61457],[-119.28054,50.61495],[-119.28061,50.61528],[-119.28061,50.61552],[-119.28062,50.6157],[-119.2806,50.616],[-119.28061,50.61637],[-119.28061,50.61663],[-119.28057,50.61689],[-119.28046,50.6172],[-119.28038,50.61745],[-119.28029,50.61764],[-119.28012,50.61792],[-119.27996,50.61818],[-119.27976,50.61836],[-119.27955,50.61845],[-119.2793,50.6185],[-119.27907,50.61858],[-119.2789,50.61873],[-119.2788,50.61886],[-119.27877,50.61897],[-119.27864,50.61923],[-119.27851,50.61948],[-119.27845,50.61964],[-119.27838,50.6198],[-119.27827,50.62017],[-119.27814,50.62058],[-119.27813,50.62066],[-119.27792,50.62123],[-119.2779,50.62127],[-119.27782,50.62158],[-119.27772,50.62194],[-119.27769,50.62207],[-119.27766,50.6222],[-119.27766,50.62231],[-119.27769,50.62243],[-119.27774,50.62254],[-119.27777,50.62257],[-119.27786,50.62268],[-119.27798,50.62283],[-119.2781,50.62301],[-119.27825,50.62316],[-119.27847,50.62329],[-119.27868,50.62339],[-119.27882,50.62348],[-119.27886,50.6235],[-119.27905,50.62368],[-119.27922,50.62388],[-119.27938,50.62399],[-119.27956,50.62406],[-119.27959,50.62407],[-119.27988,50.62412],[-119.28012,50.62416],[-119.28045,50.62419],[-119.28075,50.62421],[-119.28096,50.62426],[-119.28123,50.62435],[-119.28151,50.62447],[-119.28167,50.62456],[-119.28178,50.62462],[-119.28189,50.62471],[-119.28209,50.6249],[-119.28221,50.62502],[-119.28241,50.6252],[-119.28255,50.62535],[-119.2827,50.62553],[-119.2829,50.62574],[-119.28309,50.62598],[-119.2833,50.62613],[-119.28355,50.62629],[-119.28375,50.6264],[-119.28394,50.6265],[-119.28414,50.62662],[-119.28435,50.62677],[-119.28473,50.62706],[-119.28506,50.62726],[-119.28536,50.62748],[-119.28555,50.62771],[-119.28565,50.62792],[-119.28577,50.62806],[-119.28594,50.62815],[-119.28607,50.62818],[-119.28619,50.62822],[-119.28627,50.62823],[-119.28648,50.62816],[-119.28667,50.62806],[-119.28681,50.62803],[-119.28707,50.628],[-119.28725,50.62802],[-119.28742,50.62805],[-119.28772,50.62814],[-119.28814,50.62827],[-119.28842,50.62844],[-119.28861,50.62858],[-119.28873,50.62871],[-119.28878,50.62889],[-119.2888,50.62911],[-119.2888,50.62928],[-119.2888,50.62943],[-119.28888,50.62947],[-119.28914,50.62956],[-119.28946,50.62961],[-119.28976,50.62966],[-119.29005,50.62971],[-119.29033,50.62978],[-119.29072,50.62995],[-119.29097,50.63006],[-119.29118,50.62995],[-119.29134,50.62985],[-119.29146,50.62972],[-119.29155,50.62956],[-119.29162,50.62943],[-119.29168,50.62933],[-119.29178,50.62928],[-119.29198,50.62927],[-119.29233,50.62925],[-119.29267,50.62922],[-119.29291,50.62924],[-119.29301,50.6292],[-119.29311,50.62909],[-119.2932,50.62887],[-119.29317,50.62858],[-119.29321,50.6284],[-119.29321,50.62824],[-119.29318,50.62804],[-119.29311,50.62788],[-119.29303,50.62762],[-119.29291,50.62741],[-119.29283,50.62723],[-119.29283,50.62712],[-119.29289,50.627],[-119.29295,50.62689],[-119.29304,50.62677],[-119.29321,50.62663],[-119.29323,50.62658],[-119.29314,50.62644],[-119.29299,50.62631],[-119.29281,50.62612],[-119.29255,50.62589],[-119.2923,50.62567],[-119.29215,50.62544],[-119.29211,50.62521],[-119.29221,50.62502],[-119.29245,50.62498],[-119.29279,50.625],[-119.29326,50.62513],[-119.29359,50.62521],[-119.29394,50.62511],[-119.29433,50.62494],[-119.29466,50.6248],[-119.29509,50.6247],[-119.29551,50.62465],[-119.29586,50.62472],[-119.29635,50.62496],[-119.29631,50.6248],[-119.29625,50.62467],[-119.2962,50.62444],[-119.29619,50.62423],[-119.29624,50.6241],[-119.29634,50.62399],[-119.29648,50.6239],[-119.2966,50.62379],[-119.29677,50.62367],[-119.297,50.62356],[-119.29718,50.6235]]}},
{"type":"Feature","properties":{"spotId":"G-moose-atv-0009","kind":"walk","km":0.07,"climbM":0,"name":"790 m W of Ida Creek","flags":[]},"geometry":{"type":"LineString","coordinates":[[-119.29718,50.6235],[-119.29772,50.62399]]}},
{"type":"Feature","properties":{"spotId":"G-moose-atv-0023","kind":"ride","km":5.11,"climbM":63,"name":"1.4 km N of Haines Creek","flags":[]},"geometry":{"type":"LineString","coordinates":[[-119.29923,50.58955],[-119.29914,50.58961],[-119.29909,50.58965],[-119.29897,50.58977],[-119.29882,50.58985],[-119.29851,50.59012],[-119.29838,50.59034],[-119.2984,50.59066],[-119.29836,50.59088],[-119.29831,50.59108],[-119.29818,50.59132],[-119.29802,50.59155],[-119.298,50.59167],[-119.29787,50.59197],[-119.29775,50.59217],[-119.29774,50.59223],[-119.29773,50.59241],[-119.29767,50.59255],[-119.29739,50.59284],[-119.29693,50.59311],[-119.29674,50.59337],[-119.29641,50.59371],[-119.2962,50.59377],[-119.29605,50.59385],[-119.29592,50.59396],[-119.29564,50.59408],[-119.29542,50.59419],[-119.29532,50.59425],[-119.29527,50.59433],[-119.29537,50.59462],[-119.29536,50.59472],[-119.29535,50.59492],[-119.29531,50.59512],[-119.29524,50.59531],[-119.29521,50.59542],[-119.29508,50.59552],[-119.2949,50.59557],[-119.29474,50.59563],[-119.29446,50.59577],[-119.29439,50.59592],[-119.29432,50.59603],[-119.29432,50.59627],[-119.29445,50.59664],[-119.29455,50.59671],[-119.29469,50.59679],[-119.29481,50.59683],[-119.29487,50.59687],[-119.29489,50.59699],[-119.29499,50.59714],[-119.29531,50.59726],[-119.29552,50.5973],[-119.29573,50.59729],[-119.296,50.59731],[-119.29609,50.59734],[-119.29623,50.5974],[-119.29643,50.59757],[-119.29645,50.59764],[-119.29646,50.59771],[-119.29644,50.59775],[-119.29636,50.59812],[-119.29608,50.59819],[-119.29587,50.5983],[-119.29561,50.5984],[-119.29536,50.59847],[-119.29518,50.5986],[-119.295,50.59871],[-119.29482,50.59886],[-119.29473,50.59903],[-119.29469,50.59909],[-119.29453,50.59924],[-119.29438,50.5994],[-119.29429,50.59956],[-119.29417,50.59971],[-119.29404,50.59987],[-119.29386,50.60004],[-119.29376,50.60013],[-119.29367,50.60019],[-119.29333,50.6004],[-119.29308,50.60055],[-119.29287,50.60059],[-119.29277,50.60057],[-119.29249,50.60052],[-119.29224,50.60041],[-119.29207,50.60029],[-119.29191,50.60024],[-119.29174,50.60025],[-119.29155,50.60036],[-119.29143,50.60048],[-119.29131,50.6007],[-119.29113,50.60084],[-119.29064,50.60112],[-119.29022,50.60134],[-119.28985,50.60144],[-119.28965,50.60144],[-119.28935,50.6014],[-119.28905,50.60135],[-119.28887,50.60134],[-119.28881,50.60135],[-119.28871,50.60137],[-119.28843,50.60144],[-119.28818,50.60152],[-119.28793,50.60161],[-119.28798,50.6014],[-119.288,50.60131],[-119.28808,50.60111],[-119.28817,50.60095],[-119.28824,50.60074],[-119.28828,50.60037],[-119.28833,50.60018],[-119.28851,50.6],[-119.28857,50.5999],[-119.28873,50.59975],[-119.28881,50.5996],[-119.28897,50.59944],[-119.28914,50.59931],[-119.28928,50.59915],[-119.28939,50.59899],[-119.28951,50.59883],[-119.28957,50.59867],[-119.28966,50.59849],[-119.28974,50.59832],[-119.28983,50.59813],[-119.28999,50.59799],[-119.29011,50.59784],[-119.29027,50.5977],[-119.29032,50.59753],[-119.29038,50.59736],[-119.29043,50.59718],[-119.29047,50.59702],[-119.2905,50.59684],[-119.29048,50.59667],[-119.29047,50.5965],[-119.29048,50.59632],[-119.29051,50.59616],[-119.29057,50.59599],[-119.29062,50.5958],[-119.29066,50.59576],[-119.29072,50.59559],[-119.29076,50.59542],[-119.29079,50.59524],[-119.29082,50.59507],[-119.2909,50.5949],[-119.29095,50.59474],[-119.29096,50.59456],[-119.29095,50.59438],[-119.29094,50.59422],[-119.29094,50.59403],[-119.29095,50.59386],[-119.291,50.59368],[-119.29102,50.5935],[-119.29109,50.59333],[-119.29117,50.59323],[-119.29124,50.59312],[-119.29136,50.59297],[-119.29125,50.59287],[-119.29118,50.5927],[-119.29121,50.59253],[-119.29133,50.59238],[-119.29143,50.59222],[-119.29157,50.59206],[-119.29163,50.59188],[-119.29162,50.5917],[-119.29168,50.59159],[-119.29146,50.59155],[-119.29124,50.59153],[-119.29107,50.59149],[-119.29098,50.59143],[-119.29092,50.59134],[-119.2908,50.59122],[-119.29058,50.59116],[-119.29041,50.59115],[-119.29019,50.59119],[-119.28998,50.59124],[-119.28978,50.59131],[-119.28958,50.59146],[-119.28946,50.59157],[-119.28949,50.59146],[-119.28957,50.59128],[-119.28967,50.59111],[-119.28979,50.59095],[-119.28997,50.59081],[-119.29005,50.59069],[-119.29004,50.59052],[-119.29007,50.59035],[-119.29013,50.59029],[-119.29014,50.59023],[-119.29018,50.59017],[-119.29034,50.59002],[-119.2905,50.58987],[-119.2905,50.58982],[-119.29055,50.58964],[-119.29064,50.58947],[-119.29066,50.58929],[-119.29066,50.5891],[-119.29066,50.58897],[-119.2906,50.58878],[-119.29051,50.5886],[-119.29045,50.5885],[-119.2902,50.58839],[-119.28995,50.58831],[-119.28969,50.58824],[-119.28942,50.5882],[-119.28919,50.58814],[-119.28893,50.58808],[-119.28867,50.58802],[-119.28844,50.58794],[-119.28835,50.58794],[-119.28828,50.58797],[-119.28821,50.58801],[-119.28797,50.58811],[-119.2877,50.58813],[-119.28747,50.58803],[-119.28746,50.58797],[-119.28742,50.5878],[-119.2874,50.58761],[-119.28732,50.58744],[-119.28717,50.58731],[-119.28708,50.5873],[-119.28682,50.5873],[-119.28662,50.58727],[-119.28667,50.58721],[-119.28667,50.58717],[-119.28651,50.58717],[-119.28626,50.58715],[-119.286,50.58706],[-119.2858,50.58701],[-119.28582,50.58694],[-119.28582,50.58676],[-119.28576,50.58659],[-119.28571,50.58641],[-119.28572,50.58622],[-119.2857,50.58604],[-119.28576,50.58587],[-119.28589,50.58572],[-119.28593,50.58562],[-119.28591,50.58544],[-119.28574,50.58529],[-119.28569,50.58524],[-119.28567,50.58519],[-119.28576,50.58508],[-119.2859,50.58494],[-119.28606,50.5848],[-119.28622,50.58467],[-119.28637,50.58452],[-119.2865,50.58437],[-119.28648,50.58421],[-119.28645,50.58416],[-119.28623,50.58405],[-119.28616,50.58401],[-119.28612,50.58398],[-119.28589,50.58387],[-119.28566,50.58377],[-119.2856,50.58372],[-119.28553,50.58355],[-119.2855,50.58337],[-119.28532,50.58324],[-119.28506,50.58317],[-119.28479,50.58317],[-119.28453,50.58322],[-119.28434,50.58324],[-119.28426,50.58325],[-119.28398,50.58324],[-119.28396,50.58311],[-119.28389,50.58293],[-119.28381,50.58275],[-119.28366,50.58259],[-119.28354,50.58243],[-119.28346,50.58226],[-119.28339,50.58209],[-119.28324,50.58193],[-119.28308,50.58187],[-119.28299,50.58186],[-119.28272,50.5818],[-119.28246,50.58174],[-119.28226,50.58162],[-119.28203,50.58151],[-119.28176,50.58147],[-119.28152,50.58141],[-119.28123,50.58136],[-119.28102,50.58135],[-119.28085,50.58134],[-119.28075,50.58133],[-119.28048,50.58131],[-119.28027,50.58127]]}},
{"type":"Feature","properties":{"spotId":"G-moose-atv-0023","kind":"walk","km":0.06,"climbM":6,"name":"1.4 km N of Haines Creek","flags":[]},"geometry":{"type":"LineString","coordinates":[[-119.29923,50.58955],[-119.29987,50.58995]]}},
{"type":"Feature","properties":{"spotId":"G-moose-atv-0027","kind":"ride","km":3.84,"climbM":258,"name":"470 m NW of Wall Creek","flags":["Route crosses private land (ParcelMap BC, updated 2026-09-25): get permission first or go around."]},"geometry":{"type":"LineString","coordinates":[[-119.35646,50.60634],[-119.35615,50.60641],[-119.35581,50.60654],[-119.35564,50.6066],[-119.3555,50.60667],[-119.35539,50.60674],[-119.3553,50.6068],[-119.35524,50.60686],[-119.35517,50.60693],[-119.35507,50.60708],[-119.35496,50.60718],[-119.35486,50.60721],[-119.35474,50.60724],[-119.35467,50.60724],[-119.35458,50.60721],[-119.35449,50.60716],[-119.35445,50.60709],[-119.35438,50.60695],[-119.35438,50.60682],[-119.35439,50.6067],[-119.35437,50.60657],[-119.35433,50.60651],[-119.35426,50.60647],[-119.35412,50.60646],[-119.35399,50.60646],[-119.35381,50.6065],[-119.35366,50.60658],[-119.35358,50.60665],[-119.35354,50.60674],[-119.35353,50.60687],[-119.35355,50.60699],[-119.35359,50.60714],[-119.35355,50.6073],[-119.35351,50.60736],[-119.35345,50.60741],[-119.35329,50.60746],[-119.35313,50.60749],[-119.35304,50.60749],[-119.35295,50.60747],[-119.35282,50.60737],[-119.35275,50.60728],[-119.35266,50.60715],[-119.35254,50.60704],[-119.35251,50.607],[-119.35246,50.60695],[-119.35234,50.60685],[-119.35226,50.60678],[-119.35217,50.60671],[-119.35202,50.60667],[-119.35175,50.60666],[-119.35147,50.60663],[-119.35134,50.60657],[-119.35125,50.60651],[-119.35116,50.60642],[-119.35104,50.60628],[-119.35088,50.60613],[-119.35065,50.606],[-119.35058,50.60597],[-119.35055,50.60594],[-119.35046,50.60593],[-119.35032,50.60592],[-119.35009,50.60593],[-119.3499,50.60597],[-119.34969,50.60608],[-119.34957,50.60618],[-119.34945,50.60629],[-119.34928,50.6064],[-119.34899,50.60652],[-119.34863,50.6066],[-119.34819,50.60669],[-119.34779,50.60678],[-119.34766,50.60682],[-119.34743,50.60691],[-119.34719,50.60705],[-119.347,50.60717],[-119.3467,50.60734],[-119.34643,50.60752],[-119.3462,50.60772],[-119.34607,50.60781],[-119.34591,50.60793],[-119.34564,50.60809],[-119.34535,50.60824],[-119.34522,50.60832],[-119.34517,50.60839],[-119.34521,50.60843],[-119.34531,50.60846],[-119.34556,50.60858],[-119.34576,50.60868],[-119.34607,50.60884],[-119.34634,50.609],[-119.34656,50.60911],[-119.34677,50.60925],[-119.34691,50.60934],[-119.34699,50.60946],[-119.34701,50.60958],[-119.347,50.60968],[-119.34702,50.60987],[-119.34713,50.61008],[-119.34725,50.61024],[-119.34738,50.61041],[-119.34755,50.61069],[-119.34761,50.61094],[-119.34751,50.61113],[-119.34735,50.61136],[-119.3473,50.61148],[-119.34732,50.61159],[-119.34744,50.61169],[-119.34759,50.61177],[-119.34783,50.61181],[-119.34807,50.61181],[-119.34824,50.61183],[-119.34845,50.61188],[-119.34862,50.61192],[-119.34877,50.61198],[-119.34907,50.61214],[-119.34928,50.6123],[-119.34943,50.61242],[-119.3492,50.61237],[-119.34895,50.61231],[-119.34874,50.61225],[-119.34856,50.61218],[-119.34818,50.61257],[-119.34784,50.61286],[-119.34776,50.61294],[-119.34759,50.6131],[-119.34732,50.61324],[-119.34694,50.61339],[-119.34664,50.61348],[-119.34637,50.61352],[-119.34624,50.61351],[-119.34627,50.61355],[-119.34632,50.6137],[-119.34635,50.61384],[-119.34649,50.61399],[-119.34666,50.61413],[-119.3469,50.61424],[-119.34716,50.61434],[-119.34738,50.6144],[-119.34722,50.61456],[-119.3472,50.61464],[-119.3471,50.61512],[-119.34707,50.61565],[-119.34707,50.61628],[-119.34687,50.61659],[-119.34677,50.61673],[-119.34665,50.61737],[-119.34646,50.61776],[-119.34636,50.61832],[-119.34636,50.61869],[-119.3463,50.61887],[-119.34643,50.61918],[-119.34673,50.61934],[-119.34699,50.61946],[-119.34711,50.61952],[-119.34731,50.61962],[-119.34745,50.61976],[-119.34755,50.61983],[-119.34764,50.61997],[-119.34769,50.62017],[-119.34782,50.62043],[-119.3479,50.62057],[-119.34799,50.62069],[-119.34812,50.62076],[-119.34826,50.62087],[-119.34838,50.62098],[-119.3485,50.62113],[-119.34857,50.62131],[-119.34852,50.62146],[-119.34843,50.62167],[-119.34838,50.62185],[-119.3484,50.62224],[-119.34845,50.62254],[-119.3486,50.62282],[-119.34876,50.62324],[-119.34883,50.62349],[-119.3489,50.62369],[-119.34902,50.62389],[-119.34919,50.62412],[-119.34927,50.62427],[-119.34938,50.62445],[-119.34954,50.62459],[-119.34966,50.62472],[-119.34978,50.62478],[-119.34995,50.62486],[-119.35012,50.62495],[-119.35034,50.62508],[-119.3505,50.62524],[-119.35066,50.62545],[-119.35072,50.62553],[-119.35099,50.62588],[-119.351,50.62601],[-119.35099,50.62614],[-119.35104,50.62627],[-119.35113,50.62645],[-119.35119,50.62659],[-119.35127,50.62677],[-119.35132,50.62692],[-119.35141,50.62714],[-119.35144,50.62732],[-119.35146,50.62747],[-119.35147,50.6276],[-119.35146,50.62773]]}},
{"type":"Feature","properties":{"spotId":"G-moose-atv-0027","kind":"walk","km":0.26,"climbM":7,"name":"470 m NW of Wall Creek","flags":["Route crosses private land (ParcelMap BC, updated 2026-09-25): get permission first or go around."]},"geometry":{"type":"LineString","coordinates":[[-119.35146,50.62773],[-119.35504,50.62845]]}},
{"type":"Feature","properties":{"spotId":"G-moose-atv-0029","kind":"ride","km":6.11,"climbM":455,"name":"1.6 km E of Wall Creek","flags":[]},"geometry":{"type":"LineString","coordinates":[[-119.34251,50.5853],[-119.34231,50.58556],[-119.34228,50.58559],[-119.34212,50.58571],[-119.34196,50.58583],[-119.34185,50.58597],[-119.34176,50.58612],[-119.34165,50.58627],[-119.34156,50.58637],[-119.34145,50.58648],[-119.34136,50.58662],[-119.34128,50.58677],[-119.34122,50.58691],[-119.34123,50.58703],[-119.34127,50.58712],[-119.34135,50.58721],[-119.34141,50.58733],[-119.34143,50.58753],[-119.34139,50.58771],[-119.34131,50.58791],[-119.34125,50.58811],[-119.3412,50.58827],[-119.34118,50.58843],[-119.34119,50.58862],[-119.3412,50.58883],[-119.34118,50.58904],[-119.34115,50.58918],[-119.34113,50.5893],[-119.34113,50.58943],[-119.3412,50.58961],[-119.34128,50.58976],[-119.34135,50.5899],[-119.34139,50.59005],[-119.3414,50.59021],[-119.34143,50.59039],[-119.34148,50.59053],[-119.34155,50.59066],[-119.34158,50.59082],[-119.34158,50.59099],[-119.34154,50.59112],[-119.34153,50.59125],[-119.3416,50.59144],[-119.34168,50.59156],[-119.34156,50.59168],[-119.34155,50.59175],[-119.34157,50.5919],[-119.3416,50.59206],[-119.3416,50.59223],[-119.34163,50.59228],[-119.34167,50.59238],[-119.34182,50.59249],[-119.34185,50.59254],[-119.3419,50.59272],[-119.34185,50.59285],[-119.34182,50.59299],[-119.34183,50.59319],[-119.34167,50.59312],[-119.34163,50.59308],[-119.3415,50.59295],[-119.34134,50.59269],[-119.34123,50.59257],[-119.34108,50.59231],[-119.34101,50.59216],[-119.34098,50.59202],[-119.34093,50.59188],[-119.34082,50.59172],[-119.3407,50.59161],[-119.34048,50.59136],[-119.3401,50.59104],[-119.33954,50.59067],[-119.33939,50.59055],[-119.33896,50.59015],[-119.33867,50.58993],[-119.33854,50.58982],[-119.33841,50.58973],[-119.33832,50.58959],[-119.3381,50.58947],[-119.33797,50.58938],[-119.33783,50.58925],[-119.33768,50.58914],[-119.33742,50.58892],[-119.33709,50.58873],[-119.33667,50.58852],[-119.33646,50.58844],[-119.33625,50.58838],[-119.33606,50.5883],[-119.33586,50.58825],[-119.33569,50.58823],[-119.33546,50.58822],[-119.33539,50.58821],[-119.33519,50.58812],[-119.33502,50.58802],[-119.33487,50.58791],[-119.33474,50.5878],[-119.33462,50.58765],[-119.3345,50.58754],[-119.33442,50.58751],[-119.33436,50.5875],[-119.33414,50.58746],[-119.33391,50.58735],[-119.33374,50.58729],[-119.33353,50.58722],[-119.33326,50.58718],[-119.3333,50.58733],[-119.33331,50.5876],[-119.33321,50.58802],[-119.33306,50.58841],[-119.33302,50.58878],[-119.33306,50.58925],[-119.33306,50.58958],[-119.3331,50.58986],[-119.33327,50.5902],[-119.33354,50.59047],[-119.33385,50.59066],[-119.33418,50.59092],[-119.3345,50.5913],[-119.33469,50.59163],[-119.33491,50.59194],[-119.33511,50.59224],[-119.33517,50.59251],[-119.33517,50.59286],[-119.33515,50.59325],[-119.33516,50.59354],[-119.33536,50.5939],[-119.33564,50.59426],[-119.33576,50.5944],[-119.33585,50.59453],[-119.33607,50.59484],[-119.33634,50.59502],[-119.33665,50.59513],[-119.33692,50.59534],[-119.33697,50.59556],[-119.33694,50.59577],[-119.33685,50.59598],[-119.33683,50.59614],[-119.33696,50.59623],[-119.33715,50.59639],[-119.33732,50.59662],[-119.33734,50.59682],[-119.33725,50.59699],[-119.33709,50.59717],[-119.33699,50.59731],[-119.33705,50.59745],[-119.33774,50.59763],[-119.33784,50.59772],[-119.33792,50.59781],[-119.33798,50.59787],[-119.33798,50.59791],[-119.33794,50.59799],[-119.33789,50.59809],[-119.33776,50.59828],[-119.33764,50.59841],[-119.3376,50.59851],[-119.33763,50.59861],[-119.33771,50.59871],[-119.33781,50.59882],[-119.3379,50.59892],[-119.33795,50.59903],[-119.33791,50.59913],[-119.3378,50.59922],[-119.33769,50.59929],[-119.33757,50.59934],[-119.33739,50.59941],[-119.33724,50.5995],[-119.33713,50.59961],[-119.33711,50.59974],[-119.33711,50.59985],[-119.33714,50.6],[-119.33712,50.60006],[-119.33711,50.60012],[-119.33709,50.60018],[-119.33699,50.60028],[-119.33687,50.60039],[-119.33678,50.60049],[-119.33678,50.6006],[-119.33686,50.60072],[-119.33697,50.60088],[-119.33706,50.60102],[-119.33713,50.60112],[-119.33718,50.60123],[-119.33722,50.60135],[-119.33724,50.60147],[-119.33724,50.6016],[-119.33723,50.60167],[-119.33718,50.60175],[-119.33707,50.60181],[-119.33679,50.60188],[-119.33655,50.60188],[-119.33631,50.60189],[-119.33612,50.60194],[-119.33594,50.60203],[-119.33581,50.60215],[-119.33575,50.60227],[-119.33573,50.60237],[-119.33576,50.60251],[-119.33583,50.60268],[-119.33589,50.60281],[-119.33597,50.60295],[-119.33603,50.60308],[-119.33615,50.6032],[-119.33631,50.60327],[-119.33639,50.60329],[-119.33648,50.60329],[-119.33658,50.60328],[-119.33643,50.6034],[-119.33627,50.60367],[-119.33614,50.60388],[-119.33602,50.60401],[-119.3359,50.60416],[-119.33574,50.60433],[-119.33562,50.60443],[-119.33548,50.6045],[-119.33531,50.60458],[-119.33517,50.60461],[-119.33509,50.60461],[-119.33497,50.60458],[-119.33492,50.60454],[-119.33488,50.60442],[-119.33492,50.60431],[-119.33495,50.6042],[-119.33498,50.60408],[-119.33495,50.60387],[-119.33489,50.60371],[-119.33474,50.60353],[-119.33466,50.60347],[-119.33441,50.60346],[-119.33426,50.6035],[-119.33409,50.60359],[-119.33398,50.60367],[-119.33389,50.60378],[-119.33378,50.60396],[-119.33372,50.60407],[-119.33361,50.60416],[-119.33338,50.60436],[-119.33324,50.60448],[-119.33314,50.60458],[-119.33303,50.6047],[-119.33294,50.60481],[-119.33279,50.60499],[-119.33267,50.60507],[-119.33247,50.60515],[-119.33235,50.60519],[-119.33224,50.60527],[-119.3321,50.60541],[-119.33186,50.60563],[-119.33149,50.6059],[-119.33137,50.60597],[-119.33128,50.606],[-119.33092,50.6061],[-119.33061,50.60629],[-119.33037,50.60645],[-119.33023,50.60662],[-119.33008,50.60681],[-119.33,50.60697],[-119.32987,50.60712],[-119.32976,50.60721],[-119.32958,50.60732],[-119.32933,50.60745],[-119.32916,50.60755],[-119.32905,50.60767],[-119.32904,50.60775],[-119.32903,50.60784],[-119.32894,50.60802],[-119.32886,50.60815],[-119.3288,50.60826],[-119.32868,50.60846],[-119.32863,50.60854],[-119.32854,50.6086],[-119.3284,50.60859],[-119.32821,50.60851],[-119.32814,50.60842],[-119.32809,50.6083],[-119.32805,50.60806],[-119.32805,50.60785],[-119.32803,50.60775],[-119.32798,50.60769],[-119.32786,50.60766],[-119.32765,50.60766],[-119.32747,50.60777],[-119.32724,50.608],[-119.32704,50.60825],[-119.32692,50.6084],[-119.32677,50.60856],[-119.32661,50.60876],[-119.32658,50.60885],[-119.32657,50.60891],[-119.32662,50.60905],[-119.32669,50.60919],[-119.32694,50.60939],[-119.32718,50.6096],[-119.32745,50.60985],[-119.32752,50.60992],[-119.32772,50.61021],[-119.32796,50.61053],[-119.32814,50.61079],[-119.32827,50.61099],[-119.32853,50.61123],[-119.32866,50.61133],[-119.32881,50.61144],[-119.32895,50.61154],[-119.32905,50.6116],[-119.32944,50.61183],[-119.32984,50.61204],[-119.33008,50.61223],[-119.33024,50.61254],[-119.33028,50.61287],[-119.33028,50.61315],[-119.33027,50.61341],[-119.33026,50.61363],[-119.33013,50.61383],[-119.32982,50.6141],[-119.32955,50.61437],[-119.32932,50.61459],[-119.32903,50.61479],[-119.32876,50.61494]]}},
{"type":"Feature","properties":{"spotId":"G-moose-atv-0029","kind":"walk","km":0.12,"climbM":26,"name":"1.6 km E of Wall Creek","flags":[]},"geometry":{"type":"LineString","coordinates":[[-119.32876,50.61494],[-119.3275,50.61417]]}},
{"type":"Feature","properties":{"spotId":"G-moose-atv-0057","kind":"ride","km":3.59,"climbM":19,"name":"180 m W of Crossman Creek","flags":["Route touches city limits: City of Salmon Arm. Local firearm bylaw applies."]},"geometry":{"type":"LineString","coordinates":[[-119.27062,50.63424],[-119.2706,50.63434],[-119.27058,50.63452],[-119.27059,50.63472],[-119.27063,50.63491],[-119.27069,50.63509],[-119.27087,50.63526],[-119.27105,50.63542],[-119.27108,50.63557],[-119.27101,50.63575],[-119.2709,50.63593],[-119.27076,50.63611],[-119.27061,50.63629],[-119.27051,50.63647],[-119.27045,50.63657],[-119.27028,50.63674],[-119.27012,50.63692],[-119.27004,50.63712],[-119.26998,50.6373],[-119.26984,50.63742],[-119.26966,50.63752],[-119.26954,50.63759],[-119.26939,50.63767],[-119.2692,50.63776],[-119.26904,50.63783],[-119.26877,50.63793],[-119.26864,50.638],[-119.26851,50.63801],[-119.2684,50.63803],[-119.26823,50.63806],[-119.26794,50.63809],[-119.26763,50.63807],[-119.26734,50.63801],[-119.26707,50.63795],[-119.26677,50.63788],[-119.26671,50.63787],[-119.26634,50.63785],[-119.26622,50.63785],[-119.26589,50.6378],[-119.26575,50.63782],[-119.26571,50.63784],[-119.2656,50.63795],[-119.26547,50.63814],[-119.2654,50.63832],[-119.26534,50.63839],[-119.2651,50.63855],[-119.26499,50.6386],[-119.26468,50.63867],[-119.26443,50.63875],[-119.26439,50.63877],[-119.2642,50.63886],[-119.26394,50.63896],[-119.26366,50.63906],[-119.26362,50.63908],[-119.2634,50.63921],[-119.26319,50.63935],[-119.26301,50.63953],[-119.26287,50.63968],[-119.26269,50.63987],[-119.26257,50.64003],[-119.26244,50.64021],[-119.26233,50.64038],[-119.26215,50.64056],[-119.26186,50.64061],[-119.26162,50.64047],[-119.26147,50.6403],[-119.26135,50.64012],[-119.26122,50.63994],[-119.26107,50.63976],[-119.26091,50.63961],[-119.26075,50.63945],[-119.2606,50.6393],[-119.26044,50.63914],[-119.26024,50.63896],[-119.26008,50.63881],[-119.25989,50.63866],[-119.25971,50.63852],[-119.2596,50.63848],[-119.25949,50.63849],[-119.25933,50.63857],[-119.25921,50.63874],[-119.25914,50.63892],[-119.25912,50.63912],[-119.25914,50.63918],[-119.2592,50.6393],[-119.25931,50.63947],[-119.25934,50.63968],[-119.25926,50.63989],[-119.25924,50.64007],[-119.2592,50.64028],[-119.25917,50.64047],[-119.25915,50.64072],[-119.25913,50.6409],[-119.25909,50.64108],[-119.2591,50.64116],[-119.25918,50.64134],[-119.25932,50.64153],[-119.25948,50.64168],[-119.25954,50.64171],[-119.25976,50.64184],[-119.25996,50.64198],[-119.26004,50.64212],[-119.26009,50.64231],[-119.26015,50.64251],[-119.2601,50.64271],[-119.26008,50.64291],[-119.26,50.64311],[-119.25997,50.64317],[-119.25979,50.64331],[-119.25975,50.64335],[-119.25958,50.64347],[-119.25939,50.64353],[-119.25926,50.64355],[-119.25913,50.64354],[-119.25881,50.64353],[-119.2585,50.64353],[-119.2582,50.64352],[-119.25787,50.64352],[-119.25761,50.64359],[-119.25737,50.64368],[-119.25712,50.64381],[-119.25687,50.64391],[-119.25671,50.64395],[-119.25654,50.64399],[-119.25637,50.64405],[-119.25622,50.64409],[-119.25601,50.64411],[-119.25571,50.64412],[-119.25551,50.64413],[-119.25543,50.64417],[-119.25535,50.64424],[-119.25521,50.64441],[-119.25507,50.64469],[-119.25495,50.64486],[-119.25478,50.64501],[-119.2546,50.64517],[-119.25442,50.64534],[-119.25428,50.64549],[-119.25413,50.64565],[-119.25402,50.64584],[-119.25402,50.64597],[-119.254,50.64615],[-119.25391,50.64635],[-119.25379,50.64655],[-119.25371,50.64674],[-119.25362,50.64691],[-119.25355,50.6471],[-119.25353,50.6473],[-119.2535,50.64751],[-119.25346,50.64773],[-119.25346,50.64792],[-119.25347,50.64814],[-119.25348,50.64834],[-119.25349,50.64852],[-119.2535,50.64871],[-119.25355,50.6489],[-119.25357,50.64908],[-119.25354,50.64927],[-119.25353,50.64947],[-119.25353,50.64968],[-119.25352,50.64987],[-119.25353,50.65005],[-119.25351,50.65024],[-119.25351,50.65047],[-119.25351,50.65067],[-119.25352,50.65088],[-119.25353,50.65109],[-119.25354,50.6513],[-119.25345,50.65148],[-119.25336,50.65166],[-119.25331,50.65185],[-119.25333,50.65206],[-119.25337,50.65227],[-119.25339,50.65249],[-119.25339,50.65267],[-119.25339,50.65268],[-119.25324,50.65275],[-119.25298,50.65274],[-119.25274,50.65262],[-119.2525,50.6525],[-119.25223,50.6524],[-119.25196,50.65232],[-119.25167,50.65225],[-119.25154,50.65224],[-119.25125,50.65224],[-119.25091,50.65228],[-119.25083,50.65233],[-119.25068,50.65253],[-119.25055,50.6527],[-119.2503,50.65281]]}},
{"type":"Feature","properties":{"spotId":"G-moose-atv-0057","kind":"walk","km":0.11,"climbM":0,"name":"180 m W of Crossman Creek","flags":["Route touches city limits: City of Salmon Arm. Local firearm bylaw applies."]},"geometry":{"type":"LineString","coordinates":[[-119.27062,50.63424],[-119.26912,50.63411]]}}
]}
