{"type":"FeatureCollection","features":[
{"type":"Feature","properties":{"spotId":"G-camp-camp-0047","kind":"walk","km":0.11,"climbM":0,"name":"By Kwikoit Creek","flags":[]},"geometry":{"type":"LineString","coordinates":[[-119.31356,51.17488],[-119.31496,51.1745]]}},
{"type":"Feature","properties":{"spotId":"G-grouse-atv-0030","kind":"walk","km":1.73,"climbM":287,"name":"310 m S of Kwikoit Creek","flags":[]},"geometry":{"type":"LineString","coordinates":[[-119.39898,51.17694],[-119.3742,51.17669]]}},
{"type":"Feature","properties":{"spotId":"G-grouse-atv-0030","kind":"ride","km":5.46,"climbM":249,"name":"310 m S of Kwikoit Creek","flags":[]},"geometry":{"type":"LineString","coordinates":[[-119.3742,51.17669],[-119.37409,51.17671],[-119.37396,51.17676],[-119.37383,51.1768],[-119.37376,51.17682],[-119.37368,51.17684],[-119.37361,51.17686],[-119.37352,51.17688],[-119.37345,51.1769],[-119.37337,51.17692],[-119.37328,51.17693],[-119.37318,51.17694],[-119.3731,51.17695],[-119.37303,51.17695],[-119.37288,51.17697],[-119.37281,51.17697],[-119.37273,51.17696],[-119.37261,51.17696],[-119.37251,51.17697],[-119.37241,51.17696],[-119.3723,51.17696],[-119.37217,51.17695],[-119.37205,51.17696],[-119.37192,51.17695],[-119.3718,51.17695],[-119.37165,51.17695],[-119.37151,51.17695],[-119.37138,51.17695],[-119.37127,51.17695],[-119.37114,51.17695],[-119.37104,51.17695],[-119.37092,51.17695],[-119.37082,51.17695],[-119.37071,51.17695],[-119.37059,51.17695],[-119.37051,51.17694],[-119.37041,51.17694],[-119.37031,51.17693],[-119.3702,51.1769],[-119.37012,51.17688],[-119.36996,51.17684],[-119.36976,51.17679],[-119.36967,51.17677],[-119.3696,51.17676],[-119.36951,51.17676],[-119.36937,51.17674],[-119.36929,51.17672],[-119.36921,51.17672],[-119.36912,51.1767],[-119.36899,51.17667],[-119.3689,51.17664],[-119.36882,51.17662],[-119.3687,51.17658],[-119.3686,51.17656],[-119.36851,51.17652],[-119.36842,51.17646],[-119.36833,51.17641],[-119.36819,51.17635],[-119.36807,51.17632],[-119.36796,51.17628],[-119.36788,51.17626],[-119.36778,51.17623],[-119.36767,51.17621],[-119.36755,51.17618],[-119.36743,51.17617],[-119.36732,51.17614],[-119.36722,51.17612],[-119.36712,51.17609],[-119.36703,51.17606],[-119.36694,51.17603],[-119.36685,51.17599],[-119.36677,51.17597],[-119.36668,51.17594],[-119.36658,51.17592],[-119.36648,51.1759],[-119.36638,51.17589],[-119.36627,51.17588],[-119.36619,51.17586],[-119.3661,51.17584],[-119.36602,51.17584],[-119.36594,51.17582],[-119.36586,51.1758],[-119.36577,51.17578],[-119.36568,51.17575],[-119.36558,51.17573],[-119.36548,51.1757],[-119.36535,51.17567],[-119.36523,51.17565],[-119.3651,51.17562],[-119.365,51.1756],[-119.36489,51.17558],[-119.36476,51.17556],[-119.36461,51.17554],[-119.36448,51.17552],[-119.36434,51.17551],[-119.36422,51.1755],[-119.36409,51.17549],[-119.36395,51.17547],[-119.36384,51.17547],[-119.36369,51.17546],[-119.36356,51.17545],[-119.36343,51.17544],[-119.36333,51.17542],[-119.36323,51.1754],[-119.3631,51.17539],[-119.363,51.17539],[-119.3629,51.17539],[-119.36279,51.17538],[-119.36267,51.17538],[-119.36253,51.17538],[-119.3624,51.17538],[-119.36226,51.17537],[-119.36214,51.17537],[-119.36206,51.17537],[-119.36197,51.17537],[-119.36188,51.17537],[-119.3618,51.17537],[-119.36173,51.17537],[-119.36166,51.17537],[-119.36157,51.17537],[-119.36147,51.17537],[-119.36137,51.17536],[-119.36127,51.17537],[-119.36118,51.17537],[-119.36108,51.17536],[-119.361,51.17536],[-119.36084,51.17535],[-119.36077,51.17533],[-119.36069,51.17532],[-119.36062,51.1753],[-119.36054,51.17529],[-119.36045,51.17528],[-119.36036,51.17527],[-119.36028,51.17526],[-119.36018,51.17525],[-119.36006,51.17524],[-119.35996,51.17523],[-119.35986,51.17523],[-119.35977,51.17523],[-119.35969,51.17523],[-119.35946,51.17522],[-119.35934,51.17523],[-119.35924,51.17522],[-119.35914,51.17522],[-119.35904,51.17522],[-119.35893,51.17522],[-119.35881,51.17521],[-119.35871,51.17519],[-119.35861,51.17519],[-119.3585,51.17517],[-119.35838,51.17516],[-119.35828,51.17515],[-119.35818,51.17513],[-119.35808,51.17513],[-119.35799,51.17511],[-119.35789,51.1751],[-119.35779,51.17509],[-119.35772,51.17508],[-119.35763,51.17507],[-119.35755,51.17506],[-119.35746,51.17506],[-119.35738,51.17505],[-119.35729,51.17504],[-119.35719,51.17503],[-119.3571,51.17502],[-119.35702,51.17501],[-119.3569,51.17501],[-119.35679,51.175],[-119.35664,51.17499],[-119.35651,51.175],[-119.35637,51.17499],[-119.35623,51.17498],[-119.3561,51.17498],[-119.35598,51.17497],[-119.35588,51.17496],[-119.35578,51.17496],[-119.35567,51.17495],[-119.35553,51.17495],[-119.3554,51.17495],[-119.35528,51.17494],[-119.35517,51.17493],[-119.35505,51.17493],[-119.35494,51.17493],[-119.35482,51.17492],[-119.35472,51.17491],[-119.35462,51.17491],[-119.35452,51.17491],[-119.35442,51.1749],[-119.35432,51.1749],[-119.35422,51.17491],[-119.35413,51.1749],[-119.35403,51.1749],[-119.35395,51.1749],[-119.35388,51.1749],[-119.35378,51.1749],[-119.35366,51.17488],[-119.35358,51.17487],[-119.3535,51.17486],[-119.35342,51.17483],[-119.35331,51.17481],[-119.35321,51.17478],[-119.35311,51.17476],[-119.35301,51.17474],[-119.35292,51.17472],[-119.35282,51.1747],[-119.35274,51.17468],[-119.35259,51.17464],[-119.3525,51.17463],[-119.35243,51.17462],[-119.35235,51.17461],[-119.35226,51.1746],[-119.35219,51.1746],[-119.35209,51.17459],[-119.35199,51.17459],[-119.35189,51.17458],[-119.3518,51.17457],[-119.35171,51.17456],[-119.35163,51.17455],[-119.3515,51.17455],[-119.3514,51.17454],[-119.3513,51.17453],[-119.35121,51.17453],[-119.35112,51.17451],[-119.35101,51.1745],[-119.35087,51.1745],[-119.35075,51.17449],[-119.35062,51.17449],[-119.35049,51.1745],[-119.35042,51.1745],[-119.35035,51.1745],[-119.35027,51.1745],[-119.35018,51.1745],[-119.35004,51.1745],[-119.34991,51.17451],[-119.34979,51.17452],[-119.34965,51.17453],[-119.34955,51.17455],[-119.3495,51.17456],[-119.34947,51.17454],[-119.34933,51.17448],[-119.34926,51.17446],[-119.34894,51.17436],[-119.34883,51.17434],[-119.34867,51.17429],[-119.34845,51.17424],[-119.34836,51.17421],[-119.3482,51.17416],[-119.34807,51.17409],[-119.34787,51.17402],[-119.34765,51.17391],[-119.34757,51.17389],[-119.34731,51.17381],[-119.34723,51.1738],[-119.34712,51.17376],[-119.34698,51.17372],[-119.34683,51.17367],[-119.34673,51.17364],[-119.34661,51.1736],[-119.34648,51.17357],[-119.34628,51.17353],[-119.34615,51.17349],[-119.34606,51.17346],[-119.34605,51.17345],[-119.34593,51.17341],[-119.34582,51.17336],[-119.34555,51.17329],[-119.34544,51.17326],[-119.34531,51.17323],[-119.34515,51.17321],[-119.34508,51.17319],[-119.34496,51.17318],[-119.3447,51.17311],[-119.34461,51.1731],[-119.3445,51.17308],[-119.34441,51.17305],[-119.34432,51.17302],[-119.34421,51.17299],[-119.34406,51.17295],[-119.34392,51.17293],[-119.34382,51.17289],[-119.34341,51.1728],[-119.34318,51.17274],[-119.34308,51.1727],[-119.34293,51.17266],[-119.34267,51.1726],[-119.34256,51.17257],[-119.34241,51.17255],[-119.3423,51.17255],[-119.34204,51.17255],[-119.34193,51.17256],[-119.34175,51.17257],[-119.34167,51.17258],[-119.3414,51.17258],[-119.34131,51.17257],[-119.34112,51.17255],[-119.34092,51.17252],[-119.34072,51.1725],[-119.34051,51.17248],[-119.34035,51.17247],[-119.34026,51.17247],[-119.34016,51.17246],[-119.33984,51.17242],[-119.33967,51.17237],[-119.33958,51.17234],[-119.33947,51.17232],[-119.33929,51.17227],[-119.33919,51.17226],[-119.33909,51.17226],[-119.33884,51.17228],[-119.33857,51.17232],[-119.33849,51.17231],[-119.33801,51.17232],[-119.33782,51.17234],[-119.33755,51.17234],[-119.33745,51.17236],[-119.33737,51.17239],[-119.33728,51.1724],[-119.33724,51.17241],[-119.33658,51.17243],[-119.33651,51.17242],[-119.33634,51.17242],[-119.33624,51.17239],[-119.33615,51.17236],[-119.33604,51.17235],[-119.33593,51.17232],[-119.33559,51.17225],[-119.33531,51.17224],[-119.33524,51.17225],[-119.33517,51.17227],[-119.33503,51.17229],[-119.3348,51.17229],[-119.33449,51.17233],[-119.33436,51.17232],[-119.33425,51.17232],[-119.33413,51.17231],[-119.33403,51.17233],[-119.33392,51.17236],[-119.33378,51.1724],[-119.33367,51.17244],[-119.33357,51.17248],[-119.33333,51.17254],[-119.33324,51.17256],[-119.33293,51.17259],[-119.33254,51.1726],[-119.33247,51.17259],[-119.33239,51.17259],[-119.33221,51.17258],[-119.33213,51.17256],[-119.33205,51.17254],[-119.33197,51.17252],[-119.33188,51.17251],[-119.33181,51.17251],[-119.33168,51.17252],[-119.33161,51.17253],[-119.33152,51.17255],[-119.33145,51.17256],[-119.33106,51.17269],[-119.33096,51.17273],[-119.33085,51.17279],[-119.33074,51.17284],[-119.33065,51.17289],[-119.33043,51.17298],[-119.33025,51.173],[-119.32988,51.17306],[-119.32981,51.17307],[-119.32945,51.17309],[-119.32925,51.17312],[-119.32917,51.17314],[-119.32898,51.17322],[-119.32891,51.17324],[-119.32879,51.17327],[-119.32869,51.1733],[-119.32846,51.17332],[-119.32813,51.17332],[-119.32801,51.17331],[-119.32791,51.17329],[-119.32768,51.17322],[-119.32759,51.17318],[-119.32751,51.17314],[-119.32742,51.17309],[-119.32735,51.17294],[-119.32735,51.17288],[-119.32737,51.17279],[-119.32741,51.17271],[-119.32747,51.17263],[-119.32752,51.17256],[-119.32769,51.17245],[-119.3278,51.17241],[-119.32791,51.17238],[-119.32804,51.17237],[-119.32811,51.17236],[-119.3282,51.17236],[-119.32827,51.17235],[-119.32869,51.17227],[-119.32882,51.17225],[-119.32891,51.17225],[-119.32899,51.17224],[-119.32906,51.17224],[-119.32942,51.1722],[-119.32949,51.17218],[-119.32962,51.17215],[-119.32984,51.17208],[-119.32994,51.17204],[-119.33005,51.172],[-119.33014,51.17196],[-119.3303,51.1719],[-119.33043,51.17187],[-119.33054,51.17181],[-119.33066,51.17176],[-119.33092,51.17169],[-119.33118,51.17163],[-119.33126,51.17159],[-119.33137,51.17155],[-119.33146,51.17151],[-119.33171,51.17147],[-119.33181,51.17144],[-119.33191,51.17142],[-119.332,51.17139],[-119.33209,51.17137],[-119.33253,51.17128],[-119.33263,51.17126],[-119.33274,51.17122],[-119.33289,51.17118],[-119.33298,51.17112],[-119.33304,51.17106],[-119.33309,51.17099],[-119.33319,51.17091],[-119.33324,51.17082],[-119.33326,51.17074],[-119.33328,51.17067],[-119.33327,51.17059],[-119.3333,51.17051],[-119.3333,51.1704],[-119.33338,51.17023],[-119.33344,51.17016],[-119.3335,51.17011],[-119.33366,51.17002],[-119.33374,51.16997],[-119.33392,51.16986],[-119.33406,51.16982],[-119.33415,51.1698],[-119.33429,51.16974],[-119.3344,51.16968],[-119.33451,51.16962],[-119.33466,51.16953],[-119.33477,51.16945],[-119.33483,51.16939],[-119.33487,51.16932],[-119.33489,51.16926],[-119.3349,51.1692],[-119.3349,51.16912],[-119.33485,51.16902],[-119.33503,51.16889],[-119.33553,51.16876],[-119.3362,51.16871],[-119.33681,51.16873],[-119.33697,51.16875],[-119.33729,51.16871],[-119.33745,51.16866],[-119.33769,51.16858],[-119.33802,51.16857],[-119.33823,51.1686],[-119.33835,51.16861],[-119.33848,51.1686],[-119.33856,51.16861],[-119.33865,51.16861],[-119.33872,51.16861],[-119.33885,51.1686],[-119.33896,51.16854],[-119.3391,51.16847],[-119.33917,51.16844],[-119.33925,51.16839],[-119.33934,51.16835],[-119.33942,51.16831],[-119.33951,51.16826],[-119.33959,51.16821],[-119.33966,51.16817],[-119.33976,51.16812],[-119.33983,51.16808],[-119.33989,51.16803],[-119.33996,51.168],[-119.34003,51.16798],[-119.34013,51.16795],[-119.3402,51.16793],[-119.34034,51.16789],[-119.34042,51.16787],[-119.34049,51.16784],[-119.34056,51.16781],[-119.34065,51.16779],[-119.34072,51.16776],[-119.34081,51.16774],[-119.34091,51.16773],[-119.34099,51.16771],[-119.34106,51.16769],[-119.34115,51.16767],[-119.34129,51.16761],[-119.34136,51.16759],[-119.34144,51.16756],[-119.34154,51.16753],[-119.34164,51.16751],[-119.34173,51.16747],[-119.34181,51.16743],[-119.34189,51.16737],[-119.34199,51.16733],[-119.34207,51.16729],[-119.34216,51.16725],[-119.34223,51.16721],[-119.34231,51.16716],[-119.34241,51.16712],[-119.34249,51.16709],[-119.34259,51.16706],[-119.34266,51.16704],[-119.34275,51.16701],[-119.34284,51.16698],[-119.34294,51.16696],[-119.34306,51.16693],[-119.34317,51.1669],[-119.34328,51.16687],[-119.34338,51.16684],[-119.34348,51.16681],[-119.34358,51.16678],[-119.34366,51.16675],[-119.34375,51.16673],[-119.34383,51.16671],[-119.34393,51.16668],[-119.34402,51.16666],[-119.3441,51.16663],[-119.3442,51.16661],[-119.34428,51.16658],[-119.34437,51.16656],[-119.34449,51.16649],[-119.34462,51.16644],[-119.3447,51.16636],[-119.3448,51.16631],[-119.34491,51.16626],[-119.34502,51.16618],[-119.34508,51.16612],[-119.34513,51.16607],[-119.34518,51.16601],[-119.34523,51.16597],[-119.34529,51.16589],[-119.34536,51.16583],[-119.34544,51.16576],[-119.34554,51.16569],[-119.34564,51.16564],[-119.34575,51.16557],[-119.34586,51.16549],[-119.3459,51.16544],[-119.34594,51.1654],[-119.34601,51.16534],[-119.34605,51.16529],[-119.34607,51.16522],[-119.34607,51.16517],[-119.34608,51.16511],[-119.34608,51.16506],[-119.34609,51.16501],[-119.34609,51.16494],[-119.34607,51.16489],[-119.34604,51.16483],[-119.34602,51.16476],[-119.34601,51.1647],[-119.34597,51.16464],[-119.34594,51.16459],[-119.3459,51.16452],[-119.34585,51.16448],[-119.34579,51.16443],[-119.3457,51.16437],[-119.34558,51.1643],[-119.34552,51.16425],[-119.34546,51.1642],[-119.34539,51.16414],[-119.34534,51.16409],[-119.3453,51.16403],[-119.34525,51.16398],[-119.34519,51.16392],[-119.34515,51.16386],[-119.3451,51.16378],[-119.34504,51.16372],[-119.34498,51.16365],[-119.34492,51.1636],[-119.34486,51.16353],[-119.34478,51.16347],[-119.34472,51.1634],[-119.34468,51.16333],[-119.34463,51.16327],[-119.34457,51.16322],[-119.34453,51.16318],[-119.34447,51.16312],[-119.34439,51.16306],[-119.34435,51.16301],[-119.3443,51.16296],[-119.34424,51.16288],[-119.34419,51.16283],[-119.34418,51.16278],[-119.34413,51.16272],[-119.34407,51.16264]]}},
{"type":"Feature","properties":{"spotId":"G-grouse-atv-0038","kind":"walk","km":1.62,"climbM":28,"name":"410 m S of Kwikoit Creek","flags":["Route enters a Motor Vehicle Closed Area: Thompson, Cariboo and Okanagan Alpines. Closed Year Round. Exemption: Snowmobiles exempt year round (January 1 to December 31). Synopsis map 1-82/24."]},"geometry":{"type":"LineString","coordinates":[[-119.31356,51.17488],[-119.33485,51.16902]]}},
{"type":"Feature","properties":{"spotId":"G-grouse-atv-0038","kind":"ride","km":4.41,"climbM":273,"name":"410 m S of Kwikoit Creek","flags":["Route enters a Motor Vehicle Closed Area: Thompson, Cariboo and Okanagan Alpines. Closed Year Round. Exemption: Snowmobiles exempt year round (January 1 to December 31). Synopsis map 1-82/24."]},"geometry":{"type":"LineString","coordinates":[[-119.33485,51.16902],[-119.33482,51.16897],[-119.33475,51.1689],[-119.33466,51.16885],[-119.33442,51.16876],[-119.33431,51.16871],[-119.33419,51.16868],[-119.33406,51.16865],[-119.3339,51.16863],[-119.33377,51.16862],[-119.3337,51.16862],[-119.33362,51.16862],[-119.33336,51.16861],[-119.33327,51.16861],[-119.33317,51.1686],[-119.33294,51.16861],[-119.3328,51.1686],[-119.3327,51.16861],[-119.33247,51.16861],[-119.33239,51.16863],[-119.33211,51.16863],[-119.33203,51.16862],[-119.33196,51.16863],[-119.33181,51.16862],[-119.33165,51.16858],[-119.33145,51.16851],[-119.33128,51.16847],[-119.33097,51.16844],[-119.33084,51.16843],[-119.33072,51.16843],[-119.3305,51.16848],[-119.33043,51.16851],[-119.33029,51.16854],[-119.33008,51.16864],[-119.32996,51.16869],[-119.32984,51.16874],[-119.32972,51.16877],[-119.3296,51.16879],[-119.32928,51.1688],[-119.32899,51.16877],[-119.32886,51.16876],[-119.3287,51.16874],[-119.32863,51.16872],[-119.3285,51.16871],[-119.32843,51.1687],[-119.32834,51.1687],[-119.32801,51.16867],[-119.32775,51.16865],[-119.32754,51.16863],[-119.32739,51.16862],[-119.32718,51.16862],[-119.32708,51.16861],[-119.32698,51.16863],[-119.32681,51.16863],[-119.32673,51.16862],[-119.32651,51.16863],[-119.32642,51.16862],[-119.32626,51.16862],[-119.32618,51.16861],[-119.32609,51.16862],[-119.32569,51.16858],[-119.32562,51.16858],[-119.32549,51.16857],[-119.32533,51.16858],[-119.32526,51.16857],[-119.32519,51.16858],[-119.32509,51.16858],[-119.325,51.16859],[-119.32493,51.16859],[-119.32483,51.16861],[-119.32472,51.16861],[-119.32462,51.16862],[-119.32453,51.16862],[-119.32445,51.16863],[-119.32397,51.16864],[-119.32364,51.16863],[-119.32356,51.16864],[-119.32336,51.16864],[-119.32326,51.16865],[-119.32316,51.16865],[-119.32306,51.16866],[-119.32287,51.16866],[-119.32277,51.16867],[-119.32269,51.16867],[-119.3226,51.16869],[-119.32242,51.16872],[-119.32233,51.16872],[-119.32208,51.16875],[-119.32199,51.16877],[-119.32191,51.16878],[-119.32182,51.1688],[-119.32167,51.16882],[-119.3216,51.16885],[-119.3215,51.16891],[-119.32141,51.16893],[-119.32134,51.16896],[-119.32125,51.16901],[-119.32115,51.16907],[-119.32105,51.1691],[-119.32097,51.16911],[-119.32078,51.16912],[-119.32071,51.16911],[-119.32061,51.16908],[-119.32059,51.16903],[-119.3206,51.16898],[-119.32065,51.16891],[-119.32074,51.16884],[-119.32091,51.16866],[-119.32109,51.16854],[-119.32116,51.16847],[-119.32126,51.1684],[-119.32133,51.16836],[-119.3214,51.16833],[-119.32148,51.16828],[-119.32155,51.16824],[-119.32162,51.1682],[-119.32177,51.16811],[-119.32184,51.16807],[-119.32194,51.16804],[-119.32203,51.16801],[-119.32219,51.16794],[-119.32229,51.16791],[-119.32246,51.16777],[-119.32248,51.16771],[-119.32254,51.16764],[-119.32258,51.16758],[-119.32263,51.16752],[-119.32285,51.16737],[-119.32309,51.16725],[-119.3232,51.16718],[-119.32331,51.16712],[-119.32348,51.16698],[-119.32359,51.16679],[-119.32362,51.1667],[-119.32364,51.16657],[-119.32364,51.16648],[-119.32365,51.16643],[-119.32365,51.16638],[-119.32383,51.16624],[-119.32389,51.1662],[-119.32399,51.1661],[-119.3241,51.16598],[-119.32417,51.1659],[-119.32426,51.16583],[-119.32437,51.16574],[-119.32448,51.16567],[-119.32462,51.16561],[-119.32473,51.16553],[-119.32477,51.16548],[-119.32483,51.16542],[-119.32492,51.16529],[-119.32499,51.16521],[-119.32504,51.16513],[-119.32525,51.16491],[-119.3253,51.16485],[-119.32535,51.16476],[-119.32545,51.16466],[-119.32549,51.16461],[-119.32554,51.16455],[-119.32562,51.16446],[-119.32572,51.16439],[-119.32582,51.16432],[-119.32591,51.16428],[-119.32598,51.16421],[-119.326,51.16417],[-119.32606,51.16408],[-119.32614,51.164],[-119.32624,51.16393],[-119.3264,51.16376],[-119.32649,51.1637],[-119.32658,51.16365],[-119.32667,51.16362],[-119.32677,51.16357],[-119.32707,51.16341],[-119.32716,51.16334],[-119.32735,51.16321],[-119.32743,51.16312],[-119.32751,51.16304],[-119.32754,51.16299],[-119.32758,51.16295],[-119.32763,51.16287],[-119.32767,51.16278],[-119.32774,51.16269],[-119.32775,51.16264],[-119.32783,51.16249],[-119.32785,51.1624],[-119.32787,51.16228],[-119.3279,51.1622],[-119.3279,51.16215],[-119.32793,51.16201],[-119.32793,51.16197],[-119.32794,51.16192],[-119.32797,51.16188],[-119.32798,51.16182],[-119.32806,51.16169],[-119.32819,51.16154],[-119.32835,51.16131],[-119.32841,51.16127],[-119.32853,51.16113],[-119.32863,51.16105],[-119.32868,51.16097],[-119.32875,51.16092],[-119.3288,51.16085],[-119.32884,51.16078],[-119.32891,51.16064],[-119.32893,51.16056],[-119.32893,51.16051],[-119.32894,51.16046],[-119.32894,51.16038],[-119.32895,51.16033],[-119.32895,51.16028],[-119.32893,51.16022],[-119.32891,51.15991],[-119.32889,51.15982],[-119.32891,51.15977],[-119.3289,51.15964],[-119.32891,51.15958],[-119.3289,51.15944],[-119.32891,51.15935],[-119.32891,51.15926],[-119.32892,51.15921],[-119.32892,51.15915],[-119.32893,51.15911],[-119.32893,51.15906],[-119.32894,51.15896],[-119.32897,51.15881],[-119.32897,51.15876],[-119.32899,51.15867],[-119.32902,51.15854],[-119.32901,51.15846],[-119.32902,51.15838],[-119.32902,51.15833],[-119.32904,51.15818],[-119.32907,51.15799],[-119.32912,51.15785],[-119.32916,51.15779],[-119.32922,51.15773],[-119.32929,51.15767],[-119.32938,51.15761],[-119.32947,51.15754],[-119.32953,51.15747],[-119.32957,51.15739],[-119.32958,51.15732],[-119.32957,51.15724],[-119.32953,51.15713],[-119.3295,51.15708],[-119.3295,51.15703],[-119.32947,51.15696],[-119.32946,51.15691],[-119.32941,51.15674],[-119.32936,51.15665],[-119.32928,51.15659],[-119.32919,51.15654],[-119.32913,51.15648],[-119.32905,51.15642],[-119.32901,51.15634],[-119.32893,51.15627],[-119.3288,51.15616],[-119.32868,51.15611],[-119.32846,51.15603],[-119.32839,51.156],[-119.32829,51.15596],[-119.3282,51.15591],[-119.32817,51.15587],[-119.328,51.15575],[-119.32794,51.15568],[-119.32793,51.15564],[-119.3278,51.1554],[-119.32774,51.15533],[-119.32772,51.15526],[-119.32769,51.15518],[-119.32766,51.15512],[-119.32764,51.15504],[-119.32761,51.155],[-119.32755,51.15493],[-119.32746,51.15488],[-119.32736,51.15487],[-119.32729,51.15486],[-119.3272,51.15486],[-119.32709,51.15492],[-119.32695,51.15504],[-119.32688,51.15511],[-119.32672,51.15524],[-119.32662,51.15529],[-119.32651,51.15532],[-119.3264,51.15535],[-119.32627,51.15537],[-119.32613,51.15539],[-119.32601,51.15541],[-119.32593,51.15542],[-119.32583,51.15543],[-119.32561,51.15543],[-119.32548,51.15544],[-119.32522,51.15548],[-119.32514,51.15551],[-119.32502,51.15555],[-119.32489,51.15563],[-119.3248,51.15567],[-119.32468,51.15572],[-119.32461,51.15578],[-119.32439,51.15584],[-119.32421,51.15592],[-119.32412,51.15598],[-119.32393,51.15608],[-119.32379,51.15615],[-119.32366,51.1562],[-119.32359,51.15622],[-119.32352,51.15625],[-119.32345,51.15628],[-119.32323,51.15639],[-119.3231,51.15643],[-119.32299,51.15647],[-119.32279,51.15653],[-119.32268,51.15657],[-119.32254,51.15661],[-119.32246,51.15663],[-119.32223,51.15666],[-119.32197,51.15672],[-119.32176,51.15674],[-119.32169,51.15674],[-119.32162,51.15673],[-119.32147,51.15674],[-119.32134,51.15672],[-119.32122,51.15672],[-119.32106,51.15672],[-119.32091,51.15671],[-119.32084,51.15671],[-119.32071,51.15671],[-119.32056,51.15671],[-119.32047,51.1567],[-119.32037,51.15671],[-119.32011,51.15669],[-119.31988,51.15667],[-119.3198,51.15665],[-119.31964,51.15664],[-119.31952,51.15665],[-119.31941,51.15669],[-119.3193,51.15675],[-119.31901,51.15688],[-119.31891,51.1569],[-119.31879,51.15691],[-119.31861,51.15691],[-119.31854,51.1569],[-119.31841,51.15688],[-119.31832,51.15687],[-119.31812,51.15682],[-119.31803,51.1568],[-119.31781,51.15676],[-119.3177,51.15674],[-119.31757,51.15674],[-119.3174,51.15676],[-119.3172,51.1568],[-119.3171,51.15683],[-119.31689,51.15687],[-119.31681,51.1569],[-119.31674,51.15694],[-119.31665,51.15697],[-119.31655,51.157],[-119.31647,51.15702],[-119.31623,51.15709],[-119.31603,51.15714],[-119.3158,51.15716],[-119.31572,51.15718],[-119.31563,51.15721],[-119.31545,51.15725],[-119.31538,51.15728],[-119.31527,51.15735],[-119.31516,51.1574],[-119.31505,51.15747],[-119.31495,51.15751],[-119.31486,51.15756],[-119.31477,51.15763],[-119.31467,51.1577],[-119.31456,51.15779],[-119.31447,51.15788],[-119.31439,51.15801],[-119.31433,51.15812],[-119.3143,51.1583],[-119.3143,51.15837],[-119.31434,51.15843],[-119.31438,51.15849],[-119.31441,51.15854],[-119.31456,51.15868],[-119.31464,51.15874],[-119.31471,51.15882],[-119.3148,51.15888],[-119.31494,51.159],[-119.31498,51.15908],[-119.31499,51.15915],[-119.31498,51.15921],[-119.31491,51.15939],[-119.31477,51.15962],[-119.31472,51.15972],[-119.31468,51.15978],[-119.31462,51.15989],[-119.31454,51.15996],[-119.31444,51.16002],[-119.31435,51.1601],[-119.31421,51.16015],[-119.31403,51.16022],[-119.31394,51.16024],[-119.31386,51.16027],[-119.31378,51.16028],[-119.3137,51.1603],[-119.3136,51.16031],[-119.31347,51.16035],[-119.31335,51.16036],[-119.31322,51.16036],[-119.31309,51.16036],[-119.313,51.16036],[-119.31284,51.16033],[-119.31276,51.1603],[-119.31262,51.16022],[-119.31256,51.16018],[-119.3125,51.16013],[-119.31239,51.16004],[-119.31233,51.15999],[-119.31222,51.15992],[-119.31211,51.15986],[-119.31203,51.15985],[-119.31195,51.15982],[-119.31187,51.15981],[-119.31177,51.1598],[-119.31167,51.15977]]}},
{"type":"Feature","properties":{"spotId":"G-grouse-atv-0044","kind":"walk","km":3.01,"climbM":177,"name":"190 m NW of Scotch Creek","flags":[]},"geometry":{"type":"LineString","coordinates":[[-119.37076,51.03023],[-119.36869,51.0572]]}},
{"type":"Feature","properties":{"spotId":"G-grouse-atv-0044","kind":"ride","km":5.15,"climbM":185,"name":"190 m NW of Scotch Creek","flags":[]},"geometry":{"type":"LineString","coordinates":[[-119.36869,51.0572],[-119.36845,51.05735],[-119.36846,51.05765],[-119.36806,51.058],[-119.368,51.05804],[-119.36773,51.05808],[-119.36715,51.05807],[-119.36682,51.05816],[-119.3665,51.05831],[-119.36606,51.05869],[-119.36594,51.05906],[-119.36575,51.05935],[-119.36555,51.05988],[-119.36539,51.06007],[-119.36527,51.06032],[-119.36521,51.06085],[-119.36532,51.06155],[-119.36525,51.06179],[-119.36478,51.06235],[-119.36454,51.06272],[-119.36436,51.06293],[-119.36398,51.06325],[-119.36362,51.0637],[-119.36316,51.06401],[-119.36243,51.06418],[-119.36216,51.06429],[-119.36187,51.06448],[-119.36161,51.06471],[-119.36126,51.06525],[-119.36082,51.06616],[-119.36063,51.06639],[-119.36006,51.06678],[-119.35994,51.06742],[-119.35989,51.06769],[-119.35978,51.06797],[-119.35948,51.06832],[-119.35934,51.06858],[-119.35922,51.0687],[-119.35897,51.06886],[-119.35842,51.06906],[-119.35826,51.06917],[-119.35775,51.06955],[-119.35748,51.06989],[-119.35732,51.07002],[-119.35716,51.07006],[-119.35642,51.07012],[-119.35597,51.07023],[-119.35572,51.07032],[-119.35555,51.07045],[-119.35514,51.07123],[-119.35481,51.07133],[-119.35391,51.07148],[-119.35267,51.07191],[-119.35192,51.07208],[-119.35131,51.07228],[-119.35104,51.07234],[-119.35013,51.07244],[-119.34968,51.0726],[-119.3494,51.07266],[-119.34891,51.07271],[-119.34834,51.07272],[-119.34795,51.07258],[-119.3476,51.07242],[-119.34747,51.07239],[-119.34727,51.07241],[-119.34671,51.07263],[-119.34634,51.0727],[-119.3454,51.07296],[-119.34498,51.07315],[-119.34456,51.07322],[-119.34322,51.07335],[-119.34291,51.07344],[-119.34245,51.07368],[-119.34229,51.07392],[-119.34236,51.07404],[-119.34267,51.07428],[-119.34313,51.07444],[-119.34345,51.07472],[-119.34349,51.07547],[-119.34356,51.07558],[-119.34358,51.07571],[-119.34356,51.07577],[-119.34331,51.0759],[-119.34312,51.07591],[-119.34304,51.07587],[-119.34242,51.07533],[-119.34174,51.07507],[-119.3414,51.07481],[-119.3408,51.07458],[-119.34051,51.07458],[-119.34042,51.0746],[-119.34011,51.07471],[-119.33905,51.0749],[-119.33884,51.07499],[-119.33863,51.07519],[-119.33839,51.07527],[-119.33826,51.07539],[-119.3378,51.07593],[-119.33769,51.07597],[-119.33713,51.07601],[-119.33691,51.07606],[-119.33642,51.07631],[-119.33621,51.07646],[-119.33586,51.07656],[-119.33545,51.07672],[-119.33463,51.07737],[-119.33423,51.0776],[-119.33378,51.07803],[-119.33354,51.07839],[-119.33287,51.07918],[-119.33245,51.08],[-119.33237,51.08032],[-119.33195,51.08091],[-119.33176,51.08109],[-119.33142,51.08131],[-119.33061,51.08193],[-119.33038,51.08221],[-119.3301,51.08244],[-119.32902,51.08314],[-119.32893,51.08323],[-119.32817,51.08354],[-119.32726,51.08413],[-119.3269,51.08444],[-119.32657,51.08461],[-119.32589,51.08531],[-119.32567,51.08546]]}},
{"type":"Feature","properties":{"spotId":"G-grouse-drive-0068","kind":"roadside","km":5.95,"climbM":103,"name":"390 m NW of Scotch Creek","flags":[]},"geometry":{"type":"LineString","coordinates":[[-119.27309,51.11392],[-119.27256,51.114],[-119.27202,51.11401],[-119.27162,51.11407],[-119.27065,51.11433],[-119.27024,51.11439],[-119.2697,51.11455],[-119.26948,51.11463],[-119.26887,51.11476],[-119.26869,51.11484],[-119.26793,51.11529],[-119.26694,51.11564],[-119.26566,51.11607],[-119.26486,51.11653],[-119.26342,51.11721],[-119.26316,51.1174],[-119.26257,51.11794],[-119.26233,51.11828],[-119.26224,51.11851],[-119.26202,51.11873],[-119.2616,51.11895],[-119.26094,51.11915],[-119.26042,51.11924],[-119.25981,51.11939],[-119.25941,51.11942],[-119.25877,51.11943],[-119.25835,51.11936],[-119.25804,51.11935],[-119.25603,51.11944],[-119.25551,51.11942],[-119.25487,51.11945],[-119.2541,51.11942],[-119.25355,51.11959],[-119.25321,51.11976],[-119.25262,51.12019],[-119.25213,51.12066],[-119.25185,51.12076],[-119.25005,51.12082],[-119.24959,51.12079],[-119.24869,51.1206],[-119.24775,51.1203],[-119.24738,51.12029],[-119.24697,51.12035],[-119.24639,51.12048],[-119.24461,51.12063],[-119.24406,51.12057],[-119.24359,51.12046],[-119.24331,51.12047],[-119.2428,51.12057],[-119.24243,51.12057],[-119.2411,51.1205],[-119.24019,51.12039],[-119.23928,51.1201],[-119.23887,51.11984],[-119.23845,51.11971],[-119.23824,51.1196],[-119.23808,51.11943],[-119.23791,51.11904],[-119.23773,51.11882],[-119.23689,51.11826],[-119.23669,51.11818],[-119.23573,51.11825],[-119.23498,51.11843],[-119.23432,51.11855],[-119.23297,51.11874],[-119.23243,51.11886],[-119.23218,51.11897],[-119.23122,51.11914],[-119.22998,51.11958],[-119.22955,51.11979],[-119.22894,51.11998],[-119.22849,51.12017],[-119.22812,51.1204],[-119.2278,51.12068],[-119.22707,51.1212],[-119.22646,51.12158],[-119.22556,51.12248],[-119.22531,51.12266],[-119.22487,51.12288],[-119.22424,51.12326],[-119.22363,51.12401],[-119.2225,51.12482],[-119.22221,51.12519],[-119.22199,51.12557],[-119.22175,51.12587],[-119.22156,51.126],[-119.22131,51.12611],[-119.22099,51.12637],[-119.22066,51.12658],[-119.21983,51.12756],[-119.21927,51.12797],[-119.21909,51.12819],[-119.21865,51.12854],[-119.21757,51.12985],[-119.21718,51.13017],[-119.21674,51.13066],[-119.21639,51.1309],[-119.21629,51.13113],[-119.21614,51.13131],[-119.21609,51.13148],[-119.21587,51.1319],[-119.21564,51.13218],[-119.21533,51.13244],[-119.2151,51.1327],[-119.21493,51.13323],[-119.21477,51.13351],[-119.2145,51.13376],[-119.21434,51.13397],[-119.21413,51.13411],[-119.21402,51.13425],[-119.21389,51.13458],[-119.2135,51.13528],[-119.21322,51.13547],[-119.21286,51.13562],[-119.21212,51.13582],[-119.21178,51.1358],[-119.21087,51.13561],[-119.2106,51.1356],[-119.21034,51.13566],[-119.21015,51.13579],[-119.21012,51.13587],[-119.21008,51.13622],[-119.21011,51.13644]]}},
{"type":"Feature","properties":{"spotId":"G-grouse-walk-0064","kind":"walk","km":4.58,"climbM":394,"name":"1.0 km N of Onyx Creek","flags":["Route enters a Motor Vehicle Closed Area: Thompson, Cariboo and Okanagan Alpines. Closed Year Round. Exemption: Snowmobiles exempt year round (January 1 to December 31). Synopsis map 1-82/24."]},"geometry":{"type":"LineString","coordinates":[[-119.36529,51.03014],[-119.30747,51.04939]]}},
{"type":"Feature","properties":{"spotId":"G-grouse-walk-0064","kind":"roadside","km":5.98,"climbM":491,"name":"1.0 km N of Onyx Creek","flags":["Route enters a Motor Vehicle Closed Area: Thompson, Cariboo and Okanagan Alpines. Closed Year Round. Exemption: Snowmobiles exempt year round (January 1 to December 31). Synopsis map 1-82/24."]},"geometry":{"type":"LineString","coordinates":[[-119.30747,51.04939],[-119.3074,51.04946],[-119.30735,51.04952],[-119.30729,51.04958],[-119.30722,51.04963],[-119.30715,51.04967],[-119.30708,51.04972],[-119.30699,51.04978],[-119.30688,51.04986],[-119.30682,51.04991],[-119.30673,51.04999],[-119.30669,51.05004],[-119.30665,51.05009],[-119.30661,51.05015],[-119.30657,51.0502],[-119.30653,51.05026],[-119.30647,51.0503],[-119.30639,51.05038],[-119.30627,51.05051],[-119.30623,51.05057],[-119.3062,51.05061],[-119.30613,51.05067],[-119.30606,51.05072],[-119.30604,51.05077],[-119.306,51.05083],[-119.30597,51.05089],[-119.30595,51.05094],[-119.30591,51.05101],[-119.30585,51.05105],[-119.30578,51.05112],[-119.3057,51.05118],[-119.30562,51.05126],[-119.30558,51.05131],[-119.30555,51.05136],[-119.3055,51.0514],[-119.30546,51.05145],[-119.30542,51.0515],[-119.30539,51.05157],[-119.30535,51.05162],[-119.30531,51.05168],[-119.30526,51.05173],[-119.30522,51.05178],[-119.30518,51.05183],[-119.30511,51.05189],[-119.30504,51.05195],[-119.30497,51.05201],[-119.3049,51.05205],[-119.30483,51.0521],[-119.30474,51.05215],[-119.30467,51.05219],[-119.30458,51.05222],[-119.30447,51.05228],[-119.3044,51.05234],[-119.30428,51.05241],[-119.30421,51.05243],[-119.30408,51.05247],[-119.30401,51.05249],[-119.30393,51.05252],[-119.30379,51.05259],[-119.30366,51.05265],[-119.30358,51.0527],[-119.3035,51.05274],[-119.30343,51.05277],[-119.30332,51.05286],[-119.30325,51.05291],[-119.30316,51.05296],[-119.30307,51.05301],[-119.303,51.05307],[-119.30294,51.05313],[-119.30289,51.05319],[-119.30284,51.05325],[-119.30277,51.05331],[-119.30271,51.05337],[-119.30265,51.05346],[-119.30255,51.05353],[-119.30244,51.05358],[-119.30233,51.0536],[-119.30224,51.0536],[-119.30217,51.05358],[-119.30211,51.05353],[-119.30209,51.05347],[-119.30209,51.05339],[-119.30208,51.0533],[-119.30208,51.05325],[-119.30208,51.0532],[-119.30208,51.05315],[-119.30207,51.0531],[-119.30207,51.05304],[-119.30207,51.053],[-119.30203,51.0529],[-119.302,51.05285],[-119.30199,51.05279],[-119.30195,51.05274],[-119.30194,51.05269],[-119.30186,51.05261],[-119.3018,51.05258],[-119.30175,51.05256],[-119.3017,51.05257],[-119.30162,51.05258],[-119.30155,51.05262],[-119.30148,51.05268],[-119.30144,51.05273],[-119.3014,51.05281],[-119.30135,51.05288],[-119.30129,51.05295],[-119.30123,51.05302],[-119.30116,51.05308],[-119.30109,51.05314],[-119.30099,51.05318],[-119.3009,51.05324],[-119.30081,51.05329],[-119.30072,51.05335],[-119.30063,51.0534],[-119.30059,51.05346],[-119.30057,51.05351],[-119.30046,51.05361],[-119.3004,51.0537],[-119.30032,51.05377],[-119.3003,51.05382],[-119.29998,51.05425],[-119.29991,51.05433],[-119.29987,51.05438],[-119.29977,51.05442],[-119.29964,51.05445],[-119.29951,51.05447],[-119.29942,51.05451],[-119.29933,51.05456],[-119.29925,51.05463],[-119.29917,51.05467],[-119.29911,51.05474],[-119.29905,51.05481],[-119.29899,51.05489],[-119.29894,51.05498],[-119.29892,51.05508],[-119.29892,51.05513],[-119.29892,51.0552],[-119.29893,51.05526],[-119.29893,51.05532],[-119.29892,51.05537],[-119.29891,51.05543],[-119.29885,51.0555],[-119.2988,51.05556],[-119.29876,51.05562],[-119.29873,51.05567],[-119.29866,51.05575],[-119.29861,51.05582],[-119.29856,51.05589],[-119.29849,51.05595],[-119.29841,51.05602],[-119.29832,51.05608],[-119.29823,51.05613],[-119.29812,51.0562],[-119.29801,51.05625],[-119.29791,51.05634],[-119.29784,51.05642],[-119.29776,51.0565],[-119.29768,51.05657],[-119.2976,51.05663],[-119.29751,51.05667],[-119.29743,51.05671],[-119.29736,51.05676],[-119.29728,51.05679],[-119.29718,51.05684],[-119.29707,51.05687],[-119.29692,51.05691],[-119.2968,51.05696],[-119.29669,51.05702],[-119.29656,51.05707],[-119.29648,51.05715],[-119.29637,51.05722],[-119.2963,51.05729],[-119.29628,51.05736],[-119.29625,51.05743],[-119.29622,51.05747],[-119.29618,51.05753],[-119.29612,51.05759],[-119.29603,51.05765],[-119.29594,51.05771],[-119.29582,51.05775],[-119.29571,51.0578],[-119.29563,51.05784],[-119.29552,51.05789],[-119.29545,51.05795],[-119.29535,51.058],[-119.29527,51.05803],[-119.29517,51.05808],[-119.29507,51.05814],[-119.29496,51.05816],[-119.29487,51.05817],[-119.29476,51.05818],[-119.29465,51.05818],[-119.29456,51.05818],[-119.29445,51.05815],[-119.2943,51.0581],[-119.29417,51.05806],[-119.2941,51.05804],[-119.29395,51.05799],[-119.29387,51.05797],[-119.29378,51.05796],[-119.29368,51.05794],[-119.29356,51.05791],[-119.29345,51.05788],[-119.29338,51.05786],[-119.29325,51.05783],[-119.29312,51.0578],[-119.29297,51.05776],[-119.29285,51.0577],[-119.29277,51.05766],[-119.29266,51.05762],[-119.29258,51.05757],[-119.29246,51.05751],[-119.29234,51.05746],[-119.29227,51.05741],[-119.29219,51.05735],[-119.29209,51.05726],[-119.29203,51.05721],[-119.29194,51.05714],[-119.29189,51.05708],[-119.29183,51.05701],[-119.29183,51.05695],[-119.29183,51.05689],[-119.29181,51.05682],[-119.29181,51.05676],[-119.29182,51.05669],[-119.29183,51.05661],[-119.29183,51.05656],[-119.29185,51.05651],[-119.29188,51.05643],[-119.2919,51.05635],[-119.29191,51.0563],[-119.29191,51.05623],[-119.29189,51.05618],[-119.29188,51.05612],[-119.29186,51.05606],[-119.29184,51.05601],[-119.2918,51.05594],[-119.29175,51.05585],[-119.29173,51.05581],[-119.29172,51.05576],[-119.29171,51.0557],[-119.29171,51.05566],[-119.29171,51.0556],[-119.29169,51.05556],[-119.29169,51.05549],[-119.2917,51.05536],[-119.29169,51.05529],[-119.29166,51.05524],[-119.29159,51.05516],[-119.29153,51.05511],[-119.2915,51.05507],[-119.29139,51.05501],[-119.29126,51.05497],[-119.2911,51.05494],[-119.29103,51.05493],[-119.29092,51.05493],[-119.29079,51.05492],[-119.2907,51.05492],[-119.29063,51.05492],[-119.2905,51.05493],[-119.29042,51.05493],[-119.29028,51.05493],[-119.29019,51.05493],[-119.2901,51.05492],[-119.28997,51.05488],[-119.28989,51.05482],[-119.28985,51.05475],[-119.28985,51.05469],[-119.28982,51.05463],[-119.28982,51.05458],[-119.2898,51.05453],[-119.2898,51.05448],[-119.28981,51.05443],[-119.28982,51.05436],[-119.28983,51.05429],[-119.28986,51.05424],[-119.28987,51.05417],[-119.28986,51.05411],[-119.28986,51.05406],[-119.28986,51.054],[-119.28981,51.05394],[-119.28977,51.05388],[-119.28971,51.05379],[-119.28959,51.05372],[-119.28951,51.05365],[-119.2895,51.05358],[-119.28951,51.05349],[-119.28952,51.05343],[-119.28954,51.05339],[-119.28957,51.05333],[-119.2896,51.05328],[-119.28959,51.05323],[-119.28958,51.05315],[-119.28956,51.0531],[-119.28953,51.05306],[-119.28951,51.053],[-119.28951,51.05294],[-119.28949,51.05286],[-119.28949,51.05279],[-119.28948,51.05272],[-119.28949,51.05265],[-119.2895,51.05259],[-119.2895,51.05253],[-119.28951,51.05246],[-119.28951,51.05242],[-119.28952,51.05235],[-119.28952,51.05227],[-119.28951,51.05221],[-119.28951,51.05213],[-119.28946,51.05206],[-119.28937,51.05198],[-119.28929,51.05191],[-119.28918,51.05184],[-119.28908,51.05178],[-119.28901,51.05175],[-119.28893,51.05173],[-119.28886,51.05172],[-119.28876,51.0517],[-119.28866,51.05167],[-119.28856,51.05165],[-119.28847,51.05163],[-119.28834,51.0516],[-119.28814,51.05161],[-119.28801,51.05161],[-119.28794,51.05162],[-119.28787,51.05163],[-119.28773,51.05165],[-119.28765,51.05166],[-119.28755,51.05167],[-119.28746,51.05169],[-119.28738,51.0517],[-119.28728,51.05171],[-119.28716,51.05171],[-119.28706,51.05172],[-119.28699,51.05172],[-119.28689,51.05172],[-119.28679,51.05172],[-119.28671,51.05173],[-119.28664,51.05173],[-119.28657,51.05174],[-119.28649,51.05175],[-119.28635,51.05177],[-119.28627,51.05179],[-119.28618,51.05181],[-119.28611,51.05184],[-119.28603,51.05187],[-119.28596,51.05189],[-119.2858,51.05192],[-119.28569,51.05194],[-119.28562,51.05195],[-119.28554,51.05197],[-119.28545,51.05198],[-119.28538,51.052],[-119.28531,51.05202],[-119.28524,51.05203],[-119.28514,51.05205],[-119.28504,51.05208],[-119.28494,51.0521],[-119.28484,51.05213],[-119.28475,51.05215],[-119.28466,51.05216],[-119.28456,51.05216],[-119.28443,51.05218],[-119.28429,51.0522],[-119.28422,51.05221],[-119.28415,51.05221],[-119.28406,51.05222],[-119.28396,51.05223],[-119.28388,51.05224],[-119.28379,51.05225],[-119.28369,51.05225],[-119.28362,51.05225],[-119.28352,51.05226],[-119.28344,51.05224],[-119.28332,51.0522],[-119.28319,51.05219],[-119.28306,51.05221],[-119.28292,51.05226],[-119.28285,51.05228],[-119.28277,51.0523],[-119.2827,51.05232],[-119.28261,51.05234],[-119.28254,51.05236],[-119.28247,51.05238],[-119.28233,51.05242],[-119.28223,51.05245],[-119.28215,51.05251],[-119.28211,51.05255],[-119.28204,51.05261],[-119.28194,51.05263],[-119.28183,51.05263],[-119.2817,51.05262],[-119.28161,51.05258],[-119.28154,51.05258],[-119.28146,51.05258],[-119.28139,51.0526],[-119.2813,51.05266],[-119.28119,51.05271],[-119.28109,51.05275],[-119.28101,51.05277],[-119.28092,51.05279],[-119.28084,51.0528],[-119.28077,51.0528],[-119.2807,51.05281],[-119.28062,51.0528],[-119.28052,51.05277],[-119.28046,51.05274],[-119.28039,51.0527],[-119.28039,51.05268],[-119.2804,51.05264],[-119.28044,51.0526],[-119.28051,51.05255],[-119.28057,51.05248],[-119.28061,51.05243],[-119.28069,51.05235],[-119.2808,51.05227],[-119.28088,51.05218],[-119.28093,51.0521],[-119.28097,51.05205],[-119.28098,51.052],[-119.28101,51.05195],[-119.28102,51.05187],[-119.28107,51.05179],[-119.28113,51.05174],[-119.28117,51.05168],[-119.28121,51.05163],[-119.28125,51.05156],[-119.28129,51.05152],[-119.28137,51.05144],[-119.28143,51.0514],[-119.28145,51.05134],[-119.28148,51.05129],[-119.28149,51.05124],[-119.2815,51.05118],[-119.28151,51.05111],[-119.28152,51.05103],[-119.28156,51.05095],[-119.28159,51.0509],[-119.2816,51.05085],[-119.28162,51.05079],[-119.28167,51.05075],[-119.28171,51.05069],[-119.28173,51.05065],[-119.28177,51.05059],[-119.28185,51.05052],[-119.28195,51.05045],[-119.28199,51.0504],[-119.28204,51.05034],[-119.28211,51.0503],[-119.28214,51.05023],[-119.28215,51.05018],[-119.28219,51.05012],[-119.28226,51.05008],[-119.28227,51.05001],[-119.28231,51.04995],[-119.28235,51.04988],[-119.2824,51.04981],[-119.28242,51.04975],[-119.28244,51.04971],[-119.28245,51.04965],[-119.28247,51.04961],[-119.28248,51.04956],[-119.2825,51.04952],[-119.28251,51.04943],[-119.28252,51.04935],[-119.28253,51.04928],[-119.28253,51.04924],[-119.28253,51.04916],[-119.2825,51.04909],[-119.2824,51.04907],[-119.2823,51.04908],[-119.28217,51.04913],[-119.2821,51.04915],[-119.282,51.04917],[-119.28192,51.04918],[-119.28183,51.04918],[-119.28174,51.04915],[-119.2816,51.04907],[-119.28152,51.04902],[-119.28141,51.04896],[-119.28132,51.04892],[-119.28122,51.04887],[-119.28114,51.04881],[-119.28104,51.04877],[-119.28095,51.04874],[-119.28084,51.04868],[-119.28073,51.04861],[-119.28066,51.04854],[-119.28058,51.04846],[-119.28049,51.0484],[-119.28039,51.04832],[-119.28026,51.04825],[-119.28014,51.0482],[-119.28005,51.04816],[-119.27997,51.04811],[-119.27989,51.04806],[-119.2798,51.04799],[-119.27971,51.04793],[-119.27963,51.04789],[-119.27955,51.04785],[-119.27945,51.04775],[-119.2794,51.0477],[-119.27937,51.04764],[-119.27935,51.04757],[-119.27934,51.04752],[-119.27931,51.04746],[-119.27928,51.0474],[-119.27924,51.04733],[-119.27923,51.04729],[-119.27919,51.04722],[-119.27916,51.04716],[-119.27916,51.04711],[-119.27914,51.04704],[-119.27913,51.04699],[-119.27911,51.04693],[-119.27909,51.04683],[-119.27907,51.04678],[-119.27906,51.04673],[-119.279,51.04669],[-119.27897,51.04663],[-119.27892,51.04659],[-119.27888,51.04655],[-119.27877,51.04649],[-119.27865,51.04649],[-119.27855,51.04649],[-119.27847,51.0465],[-119.27836,51.04651],[-119.27823,51.04652],[-119.27816,51.04652],[-119.27806,51.04653],[-119.27795,51.04652],[-119.27783,51.04649],[-119.27776,51.04647],[-119.2777,51.04641],[-119.27764,51.04633],[-119.27762,51.04625],[-119.2776,51.04619],[-119.27757,51.04615],[-119.27756,51.0461],[-119.27751,51.04604],[-119.27747,51.04599],[-119.27735,51.04593],[-119.27723,51.04586],[-119.27711,51.0458],[-119.27703,51.04577],[-119.2769,51.04572],[-119.27681,51.04568],[-119.27671,51.04565],[-119.27658,51.04563],[-119.27646,51.0456],[-119.27638,51.04559],[-119.27629,51.04556],[-119.27619,51.04555],[-119.2761,51.04552],[-119.276,51.04548],[-119.27588,51.04541],[-119.27579,51.04537],[-119.27566,51.0453],[-119.27556,51.04526],[-119.27544,51.04519],[-119.27535,51.04512],[-119.27527,51.04509],[-119.27516,51.04503],[-119.27502,51.04497],[-119.27492,51.04494],[-119.27483,51.04493],[-119.27474,51.04492],[-119.2746,51.04488],[-119.27451,51.04487],[-119.27444,51.04485],[-119.27435,51.04483],[-119.27428,51.04481],[-119.27418,51.04474],[-119.27408,51.04466],[-119.27399,51.04458],[-119.2739,51.04453],[-119.27383,51.0445],[-119.27372,51.04448],[-119.27362,51.04445],[-119.27351,51.0444],[-119.27343,51.04437],[-119.27332,51.04432],[-119.2732,51.04426],[-119.2731,51.04419],[-119.27305,51.04414],[-119.27295,51.04406],[-119.27282,51.04398],[-119.27268,51.04394],[-119.27258,51.04393],[-119.2725,51.04392],[-119.2724,51.0439],[-119.27231,51.0439],[-119.2722,51.0439],[-119.27211,51.04389],[-119.27204,51.04388],[-119.27195,51.04388],[-119.27185,51.04387],[-119.27175,51.04383],[-119.27164,51.04378],[-119.27153,51.04372],[-119.27144,51.04367],[-119.27137,51.04363],[-119.2713,51.04359],[-119.2712,51.04355],[-119.27112,51.0435],[-119.27106,51.04344],[-119.271,51.04339],[-119.27096,51.04335],[-119.27088,51.0433],[-119.27082,51.04325],[-119.27074,51.04322],[-119.27066,51.04318],[-119.27058,51.04314],[-119.27056,51.04309],[-119.27026,51.04288],[-119.27019,51.04284],[-119.27013,51.0428],[-119.27003,51.04273],[-119.26993,51.04268],[-119.26984,51.04267],[-119.26973,51.04264],[-119.26965,51.04262],[-119.26957,51.04258],[-119.26948,51.04255],[-119.26939,51.04253],[-119.26931,51.04252],[-119.26918,51.04252],[-119.26911,51.04252],[-119.26903,51.04252],[-119.26895,51.04252],[-119.26882,51.04252],[-119.26874,51.04253],[-119.26866,51.04254],[-119.26858,51.04254],[-119.26851,51.04254],[-119.26844,51.04254],[-119.26837,51.04254],[-119.26829,51.04252],[-119.26821,51.04248],[-119.2681,51.04245],[-119.26797,51.04241],[-119.26784,51.04236],[-119.26777,51.04235],[-119.26764,51.04231],[-119.26752,51.04228],[-119.26742,51.04226],[-119.26732,51.04225],[-119.26724,51.04222],[-119.26718,51.04218],[-119.26712,51.04213],[-119.26704,51.04208],[-119.26696,51.04203],[-119.2669,51.04198],[-119.26682,51.04192],[-119.26679,51.04186],[-119.26675,51.04181],[-119.26667,51.04175],[-119.26664,51.0417],[-119.26658,51.04166],[-119.26651,51.0416],[-119.2664,51.04154],[-119.26627,51.04146],[-119.2662,51.04143],[-119.26607,51.04137],[-119.26598,51.04134],[-119.26591,51.0413],[-119.26576,51.04124],[-119.26565,51.04122],[-119.26552,51.04122],[-119.26541,51.04125],[-119.26529,51.04129],[-119.26522,51.04133],[-119.26514,51.04135],[-119.26506,51.04137],[-119.26497,51.04138],[-119.26487,51.0414],[-119.2648,51.04139],[-119.26471,51.04134],[-119.26468,51.04129],[-119.26466,51.04125],[-119.26465,51.04118],[-119.26464,51.04112],[-119.26464,51.04107],[-119.26464,51.04102],[-119.26455,51.04098],[-119.26446,51.04095],[-119.26438,51.0409],[-119.26433,51.04085],[-119.26427,51.04077],[-119.26422,51.0407],[-119.26421,51.04063],[-119.26417,51.04058],[-119.26413,51.04054],[-119.26408,51.04047],[-119.26401,51.04041],[-119.26392,51.04037],[-119.26379,51.04032],[-119.26367,51.04026],[-119.26357,51.0402],[-119.26345,51.04014],[-119.26332,51.04007],[-119.26321,51.04002],[-119.2631,51.03998],[-119.263,51.03991],[-119.26287,51.03983],[-119.2628,51.0398],[-119.26272,51.03976],[-119.26259,51.0397],[-119.26253,51.03966],[-119.26243,51.03958],[-119.26237,51.03954],[-119.26234,51.03948],[-119.26231,51.03943],[-119.26228,51.03937],[-119.26224,51.03931],[-119.2622,51.03924],[-119.26217,51.03919],[-119.26214,51.03913],[-119.2621,51.03908],[-119.26207,51.03902],[-119.26204,51.03894],[-119.26202,51.0389],[-119.26202,51.03885],[-119.26199,51.03881],[-119.26197,51.03875],[-119.26196,51.0387],[-119.26195,51.03865],[-119.26194,51.03857],[-119.2619,51.03849],[-119.26189,51.03845],[-119.26187,51.0384],[-119.26186,51.03835],[-119.26182,51.03828],[-119.26179,51.03824],[-119.26176,51.03818],[-119.26172,51.03813],[-119.26167,51.03808],[-119.26164,51.03801],[-119.26159,51.03795],[-119.26158,51.03789],[-119.26154,51.03782],[-119.26151,51.03775],[-119.26148,51.03768],[-119.26145,51.03762],[-119.2614,51.03756],[-119.26136,51.03751],[-119.26128,51.03745],[-119.26118,51.03737],[-119.26108,51.03731],[-119.26099,51.03726],[-119.26083,51.03721],[-119.2607,51.03715],[-119.26061,51.03712],[-119.26048,51.03707],[-119.26035,51.03704],[-119.26026,51.03697],[-119.26014,51.0369],[-119.26007,51.03682],[-119.26004,51.03678],[-119.25999,51.03672],[-119.25998,51.03668],[-119.25991,51.03659],[-119.25985,51.03653],[-119.25954,51.03636]]}},
{"type":"Feature","properties":{"spotId":"G-moose-atv-0045","kind":"ride","km":1.9,"climbM":27,"name":"550 m S of Kwikoit Creek","flags":[]},"geometry":{"type":"LineString","coordinates":[[-119.33644,51.16872],[-119.3362,51.16871],[-119.33553,51.16876],[-119.33503,51.16889],[-119.33485,51.16902],[-119.3349,51.16912],[-119.3349,51.1692],[-119.33489,51.16926],[-119.33487,51.16932],[-119.33483,51.16939],[-119.33477,51.16945],[-119.33466,51.16953],[-119.33451,51.16962],[-119.3344,51.16968],[-119.33429,51.16974],[-119.33415,51.1698],[-119.33406,51.16982],[-119.33392,51.16986],[-119.33374,51.16997],[-119.33366,51.17002],[-119.3335,51.17011],[-119.33344,51.17016],[-119.33338,51.17023],[-119.3333,51.1704],[-119.3333,51.17051],[-119.33327,51.17059],[-119.33328,51.17067],[-119.33326,51.17074],[-119.33324,51.17082],[-119.33319,51.17091],[-119.33309,51.17099],[-119.33304,51.17106],[-119.33298,51.17112],[-119.33289,51.17118],[-119.33274,51.17122],[-119.33263,51.17126],[-119.33253,51.17128],[-119.33209,51.17137],[-119.332,51.17139],[-119.33191,51.17142],[-119.33181,51.17144],[-119.33171,51.17147],[-119.33146,51.17151],[-119.33137,51.17155],[-119.33126,51.17159],[-119.33118,51.17163],[-119.33092,51.17169],[-119.33066,51.17176],[-119.33054,51.17181],[-119.33043,51.17187],[-119.3303,51.1719],[-119.33014,51.17196],[-119.33005,51.172],[-119.32994,51.17204],[-119.32984,51.17208],[-119.32962,51.17215],[-119.32949,51.17218],[-119.32942,51.1722],[-119.32906,51.17224],[-119.32899,51.17224],[-119.32891,51.17225],[-119.32882,51.17225],[-119.32869,51.17227],[-119.32827,51.17235],[-119.3282,51.17236],[-119.32811,51.17236],[-119.32804,51.17237],[-119.32791,51.17238],[-119.3278,51.17241],[-119.32769,51.17245],[-119.32752,51.17256],[-119.32747,51.17263],[-119.32741,51.17271],[-119.32737,51.17279],[-119.32735,51.17288],[-119.32706,51.17287],[-119.32699,51.17286],[-119.32689,51.17285],[-119.3268,51.17284],[-119.32654,51.17279],[-119.32646,51.17278],[-119.32637,51.17277],[-119.32628,51.17277],[-119.32621,51.17276],[-119.32614,51.17276],[-119.326,51.17276],[-119.32593,51.17276],[-119.32583,51.17275],[-119.32535,51.17276],[-119.32527,51.17277],[-119.32507,51.17277],[-119.32497,51.17278],[-119.32486,51.17279],[-119.32476,51.1728],[-119.32461,51.1728],[-119.32451,51.17281],[-119.32433,51.17282],[-119.32424,51.17283],[-119.32417,51.17283],[-119.3241,51.17284],[-119.3237,51.17285],[-119.32363,51.17284],[-119.32343,51.17284],[-119.32336,51.17283],[-119.323,51.17281],[-119.32291,51.17282],[-119.32247,51.17278],[-119.32235,51.17278],[-119.32201,51.17276],[-119.32189,51.17276],[-119.32179,51.17276],[-119.32168,51.17276],[-119.32156,51.17275],[-119.32148,51.17276],[-119.32129,51.17277],[-119.32106,51.17279],[-119.32088,51.17281],[-119.32079,51.17281],[-119.32071,51.17282],[-119.32062,51.17283],[-119.32044,51.17287],[-119.32037,51.17288],[-119.3203,51.1729],[-119.3202,51.17292],[-119.32013,51.17293],[-119.32001,51.17294],[-119.31959,51.17304],[-119.31949,51.17307],[-119.31935,51.17309],[-119.31914,51.17313],[-119.31894,51.17315],[-119.31882,51.17318],[-119.31868,51.17319],[-119.3186,51.1732],[-119.31851,51.1732],[-119.31844,51.17321],[-119.31836,51.17328],[-119.31824,51.17334],[-119.31817,51.17338],[-119.31809,51.17342],[-119.31799,51.17345],[-119.31791,51.17347],[-119.31782,51.17348],[-119.31772,51.1735],[-119.31764,51.17352],[-119.31754,51.17354],[-119.31746,51.17357],[-119.31738,51.17359],[-119.3173,51.17362],[-119.3172,51.17364],[-119.31712,51.17366],[-119.31703,51.1737],[-119.31695,51.17374],[-119.31686,51.17376],[-119.31679,51.17379],[-119.31671,51.17382],[-119.31661,51.17385],[-119.3165,51.17388],[-119.31638,51.17391],[-119.31627,51.17393],[-119.31617,51.17395],[-119.31606,51.17397],[-119.31594,51.17398],[-119.31587,51.17399],[-119.3158,51.174],[-119.31568,51.17403],[-119.31554,51.1741],[-119.31544,51.17413],[-119.31538,51.17419],[-119.31526,51.17426],[-119.31517,51.17428],[-119.3151,51.1743],[-119.31503,51.17432],[-119.31495,51.17434],[-119.31485,51.17436],[-119.31476,51.17438],[-119.31468,51.1744],[-119.31459,51.17442],[-119.31451,51.17444],[-119.31442,51.17446],[-119.31434,51.17448],[-119.31425,51.1745],[-119.31416,51.17454],[-119.31404,51.17458],[-119.31392,51.17461],[-119.3138,51.17465],[-119.31372,51.17468],[-119.31364,51.17472],[-119.31361,51.17476],[-119.3136,51.17482],[-119.31356,51.17488]]}},
{"type":"Feature","properties":{"spotId":"G-moose-atv-0045","kind":"walk","km":0.1,"climbM":14,"name":"550 m S of Kwikoit Creek","flags":[]},"geometry":{"type":"LineString","coordinates":[[-119.33644,51.16872],[-119.33651,51.1678]]}},
{"type":"Feature","properties":{"spotId":"G-moose-atv-0048","kind":"ride","km":4.66,"climbM":222,"name":"2.1 km NE of Cross Creek","flags":[]},"geometry":{"type":"LineString","coordinates":[[-119.31356,51.17488],[-119.3136,51.17482],[-119.31361,51.17476],[-119.31364,51.17472],[-119.31372,51.17468],[-119.3138,51.17465],[-119.31392,51.17461],[-119.31404,51.17458],[-119.31416,51.17454],[-119.31425,51.1745],[-119.31434,51.17448],[-119.31442,51.17446],[-119.31451,51.17444],[-119.31459,51.17442],[-119.31468,51.1744],[-119.31476,51.17438],[-119.31485,51.17436],[-119.31495,51.17434],[-119.31503,51.17432],[-119.3151,51.1743],[-119.31517,51.17428],[-119.31526,51.17426],[-119.31538,51.17419],[-119.31544,51.17413],[-119.31554,51.1741],[-119.31568,51.17403],[-119.3158,51.174],[-119.31587,51.17399],[-119.31594,51.17398],[-119.31606,51.17397],[-119.31617,51.17395],[-119.31627,51.17393],[-119.31638,51.17391],[-119.3165,51.17388],[-119.31661,51.17385],[-119.31671,51.17382],[-119.31679,51.17379],[-119.31686,51.17376],[-119.31695,51.17374],[-119.31703,51.1737],[-119.31712,51.17366],[-119.3172,51.17364],[-119.3173,51.17362],[-119.31738,51.17359],[-119.31746,51.17357],[-119.31754,51.17354],[-119.31764,51.17352],[-119.31772,51.1735],[-119.31782,51.17348],[-119.31791,51.17347],[-119.31799,51.17345],[-119.31809,51.17342],[-119.31817,51.17338],[-119.31824,51.17334],[-119.31836,51.17328],[-119.31844,51.17321],[-119.31851,51.1732],[-119.3186,51.1732],[-119.31868,51.17319],[-119.31882,51.17318],[-119.31894,51.17315],[-119.31914,51.17313],[-119.31935,51.17309],[-119.31949,51.17307],[-119.31959,51.17304],[-119.32001,51.17294],[-119.32013,51.17293],[-119.3202,51.17292],[-119.3203,51.1729],[-119.32037,51.17288],[-119.32044,51.17287],[-119.32062,51.17283],[-119.32071,51.17282],[-119.32079,51.17281],[-119.32088,51.17281],[-119.32106,51.17279],[-119.32129,51.17277],[-119.32148,51.17276],[-119.32156,51.17275],[-119.32168,51.17276],[-119.32179,51.17276],[-119.32189,51.17276],[-119.32201,51.17276],[-119.32235,51.17278],[-119.32247,51.17278],[-119.32291,51.17282],[-119.323,51.17281],[-119.32336,51.17283],[-119.32343,51.17284],[-119.32363,51.17284],[-119.3237,51.17285],[-119.3241,51.17284],[-119.32417,51.17283],[-119.32424,51.17283],[-119.32433,51.17282],[-119.32451,51.17281],[-119.32461,51.1728],[-119.32476,51.1728],[-119.32486,51.17279],[-119.32497,51.17278],[-119.32507,51.17277],[-119.32527,51.17277],[-119.32535,51.17276],[-119.32583,51.17275],[-119.32593,51.17276],[-119.326,51.17276],[-119.32614,51.17276],[-119.32621,51.17276],[-119.32628,51.17277],[-119.32637,51.17277],[-119.32646,51.17278],[-119.32654,51.17279],[-119.3268,51.17284],[-119.32689,51.17285],[-119.32699,51.17286],[-119.32706,51.17287],[-119.32735,51.17288],[-119.32737,51.17279],[-119.32741,51.17271],[-119.32747,51.17263],[-119.32752,51.17256],[-119.32769,51.17245],[-119.3278,51.17241],[-119.32791,51.17238],[-119.32804,51.17237],[-119.32811,51.17236],[-119.3282,51.17236],[-119.32827,51.17235],[-119.32869,51.17227],[-119.32882,51.17225],[-119.32891,51.17225],[-119.32899,51.17224],[-119.32906,51.17224],[-119.32942,51.1722],[-119.32949,51.17218],[-119.32962,51.17215],[-119.32984,51.17208],[-119.32994,51.17204],[-119.33005,51.172],[-119.33014,51.17196],[-119.3303,51.1719],[-119.33043,51.17187],[-119.33054,51.17181],[-119.33066,51.17176],[-119.33092,51.17169],[-119.33118,51.17163],[-119.33126,51.17159],[-119.33137,51.17155],[-119.33146,51.17151],[-119.33171,51.17147],[-119.33181,51.17144],[-119.33191,51.17142],[-119.332,51.17139],[-119.33209,51.17137],[-119.33253,51.17128],[-119.33263,51.17126],[-119.33274,51.17122],[-119.33289,51.17118],[-119.33298,51.17112],[-119.33304,51.17106],[-119.33309,51.17099],[-119.33319,51.17091],[-119.33324,51.17082],[-119.33326,51.17074],[-119.33328,51.17067],[-119.33327,51.17059],[-119.3333,51.17051],[-119.3333,51.1704],[-119.33338,51.17023],[-119.33344,51.17016],[-119.3335,51.17011],[-119.33366,51.17002],[-119.33374,51.16997],[-119.33392,51.16986],[-119.33406,51.16982],[-119.33415,51.1698],[-119.33429,51.16974],[-119.3344,51.16968],[-119.33451,51.16962],[-119.33466,51.16953],[-119.33477,51.16945],[-119.33483,51.16939],[-119.33487,51.16932],[-119.33489,51.16926],[-119.3349,51.1692],[-119.3349,51.16912],[-119.33485,51.16902],[-119.33482,51.16897],[-119.33475,51.1689],[-119.33466,51.16885],[-119.33442,51.16876],[-119.33431,51.16871],[-119.33419,51.16868],[-119.33406,51.16865],[-119.3339,51.16863],[-119.33377,51.16862],[-119.3337,51.16862],[-119.33362,51.16862],[-119.33336,51.16861],[-119.33327,51.16861],[-119.33317,51.1686],[-119.33294,51.16861],[-119.3328,51.1686],[-119.3327,51.16861],[-119.33247,51.16861],[-119.33239,51.16863],[-119.33211,51.16863],[-119.33203,51.16862],[-119.33196,51.16863],[-119.33181,51.16862],[-119.33165,51.16858],[-119.33145,51.16851],[-119.33128,51.16847],[-119.33097,51.16844],[-119.33084,51.16843],[-119.33072,51.16843],[-119.3305,51.16848],[-119.33043,51.16851],[-119.33029,51.16854],[-119.33008,51.16864],[-119.32996,51.16869],[-119.32984,51.16874],[-119.32972,51.16877],[-119.3296,51.16879],[-119.32928,51.1688],[-119.32899,51.16877],[-119.32886,51.16876],[-119.3287,51.16874],[-119.32863,51.16872],[-119.3285,51.16871],[-119.32843,51.1687],[-119.32834,51.1687],[-119.32801,51.16867],[-119.32775,51.16865],[-119.32754,51.16863],[-119.32739,51.16862],[-119.32718,51.16862],[-119.32708,51.16861],[-119.32698,51.16863],[-119.32681,51.16863],[-119.32673,51.16862],[-119.32651,51.16863],[-119.32642,51.16862],[-119.32626,51.16862],[-119.32618,51.16861],[-119.32609,51.16862],[-119.32569,51.16858],[-119.32562,51.16858],[-119.32549,51.16857],[-119.32533,51.16858],[-119.32526,51.16857],[-119.32519,51.16858],[-119.32509,51.16858],[-119.325,51.16859],[-119.32493,51.16859],[-119.32483,51.16861],[-119.32472,51.16861],[-119.32462,51.16862],[-119.32453,51.16862],[-119.32445,51.16863],[-119.32397,51.16864],[-119.32364,51.16863],[-119.32356,51.16864],[-119.32336,51.16864],[-119.32326,51.16865],[-119.32316,51.16865],[-119.32306,51.16866],[-119.32287,51.16866],[-119.32277,51.16867],[-119.32269,51.16867],[-119.3226,51.16869],[-119.32242,51.16872],[-119.32233,51.16872],[-119.32208,51.16875],[-119.32199,51.16877],[-119.32191,51.16878],[-119.32182,51.1688],[-119.32167,51.16882],[-119.3216,51.16885],[-119.3215,51.16891],[-119.32141,51.16893],[-119.32134,51.16896],[-119.32125,51.16901],[-119.32115,51.16907],[-119.32105,51.1691],[-119.32097,51.16911],[-119.32078,51.16912],[-119.32071,51.16911],[-119.32061,51.16908],[-119.32059,51.16903],[-119.3206,51.16898],[-119.32065,51.16891],[-119.32074,51.16884],[-119.32091,51.16866],[-119.32109,51.16854],[-119.32116,51.16847],[-119.32126,51.1684],[-119.32133,51.16836],[-119.3214,51.16833],[-119.32148,51.16828],[-119.32155,51.16824],[-119.32162,51.1682],[-119.32177,51.16811],[-119.32184,51.16807],[-119.32194,51.16804],[-119.32203,51.16801],[-119.32219,51.16794],[-119.32229,51.16791],[-119.32246,51.16777],[-119.32248,51.16771],[-119.32254,51.16764],[-119.32258,51.16758],[-119.32263,51.16752],[-119.32285,51.16737],[-119.32309,51.16725],[-119.3232,51.16718],[-119.32331,51.16712],[-119.32348,51.16698],[-119.32359,51.16679],[-119.32362,51.1667],[-119.32364,51.16657],[-119.32364,51.16648],[-119.32365,51.16643],[-119.32365,51.16638],[-119.32383,51.16624],[-119.32389,51.1662],[-119.32399,51.1661],[-119.3241,51.16598],[-119.32417,51.1659],[-119.32426,51.16583],[-119.32437,51.16574],[-119.32448,51.16567],[-119.32462,51.16561],[-119.32473,51.16553],[-119.32477,51.16548],[-119.32483,51.16542],[-119.32492,51.16529],[-119.32499,51.16521],[-119.32504,51.16513],[-119.32525,51.16491],[-119.3253,51.16485],[-119.32535,51.16476],[-119.32545,51.16466],[-119.32549,51.16461],[-119.32554,51.16455],[-119.32562,51.16446],[-119.32572,51.16439],[-119.32582,51.16432],[-119.32591,51.16428],[-119.32598,51.16421],[-119.326,51.16417],[-119.32606,51.16408],[-119.32614,51.164],[-119.32624,51.16393],[-119.3264,51.16376],[-119.32649,51.1637],[-119.32658,51.16365],[-119.32667,51.16362],[-119.32677,51.16357],[-119.32707,51.16341],[-119.32716,51.16334],[-119.32735,51.16321],[-119.32743,51.16312],[-119.32751,51.16304],[-119.32754,51.16299],[-119.32758,51.16295],[-119.32763,51.16287],[-119.32767,51.16278],[-119.32774,51.16269],[-119.32775,51.16264],[-119.32783,51.16249],[-119.32785,51.1624],[-119.32787,51.16228],[-119.3279,51.1622],[-119.3279,51.16215],[-119.32793,51.16201],[-119.32793,51.16197],[-119.32794,51.16192],[-119.32797,51.16188],[-119.32798,51.16182],[-119.32806,51.16169],[-119.32819,51.16154],[-119.32835,51.16131],[-119.32841,51.16127],[-119.32853,51.16113],[-119.32863,51.16105],[-119.32868,51.16097],[-119.32875,51.16092],[-119.3288,51.16085],[-119.32884,51.16078],[-119.32891,51.16064],[-119.32893,51.16056],[-119.32893,51.16051],[-119.32894,51.16046],[-119.32894,51.16038],[-119.32895,51.16033],[-119.32895,51.16028],[-119.32893,51.16022],[-119.32891,51.15991],[-119.32889,51.15982],[-119.32891,51.15977],[-119.3289,51.15964],[-119.32891,51.15958],[-119.3289,51.15944],[-119.32891,51.15935],[-119.32891,51.15926],[-119.32892,51.15921],[-119.32892,51.15915],[-119.32893,51.15911],[-119.32893,51.15906],[-119.32894,51.15896],[-119.32897,51.15881],[-119.32897,51.15876],[-119.32899,51.15867],[-119.32902,51.15854],[-119.32901,51.15846],[-119.32902,51.15838],[-119.32902,51.15833],[-119.32904,51.15818],[-119.32907,51.15799],[-119.32912,51.15785],[-119.32916,51.15779],[-119.32922,51.15773],[-119.32929,51.15767],[-119.32938,51.15761],[-119.32947,51.15754],[-119.32953,51.15747],[-119.32957,51.15739],[-119.32958,51.15732],[-119.32957,51.15724],[-119.32953,51.15713],[-119.3295,51.15708],[-119.3295,51.15703],[-119.32947,51.15696],[-119.32946,51.15691],[-119.32941,51.15674],[-119.32936,51.15665],[-119.32928,51.15659],[-119.32919,51.15654],[-119.32913,51.15648],[-119.32905,51.15642],[-119.32901,51.15634],[-119.32893,51.15627],[-119.3288,51.15616],[-119.32868,51.15611],[-119.32846,51.15603],[-119.32839,51.156],[-119.32829,51.15596],[-119.3282,51.15591],[-119.32817,51.15587],[-119.328,51.15575],[-119.32794,51.15568],[-119.32793,51.15564],[-119.3278,51.1554],[-119.32774,51.15533],[-119.32772,51.15526],[-119.32769,51.15518],[-119.32766,51.15512],[-119.32764,51.15504],[-119.32761,51.155],[-119.32755,51.15493],[-119.32752,51.15492]]}},
{"type":"Feature","properties":{"spotId":"G-moose-atv-0048","kind":"walk","km":0.22,"climbM":1,"name":"2.1 km NE of Cross Creek","flags":[]},"geometry":{"type":"LineString","coordinates":[[-119.32752,51.15492],[-119.32964,51.15351]]}},
{"type":"Feature","properties":{"spotId":"G-moose-atv-0049","kind":"ride","km":2.79,"climbM":98,"name":"280 m N of Kwikoit Creek","flags":[]},"geometry":{"type":"MultiLineString","coordinates":[[[-119.28916,51.17831],[-119.28937,51.17831],[-119.28967,51.17832],[-119.28999,51.17839],[-119.29039,51.17851],[-119.29055,51.17856],[-119.29085,51.17867],[-119.29124,51.17886],[-119.29139,51.17897],[-119.29161,51.17902],[-119.29181,51.17903],[-119.29196,51.1791],[-119.29209,51.17922],[-119.2922,51.17932],[-119.2925,51.17943],[-119.29275,51.17954],[-119.29327,51.17968],[-119.29341,51.17977],[-119.29352,51.17985],[-119.29362,51.17995],[-119.29388,51.18005],[-119.29419,51.18018],[-119.29439,51.18025],[-119.29468,51.18035],[-119.29492,51.18045],[-119.29511,51.18051],[-119.29522,51.18058],[-119.29545,51.18074],[-119.29561,51.18083],[-119.29576,51.18095],[-119.29596,51.18104],[-119.29613,51.18113],[-119.29628,51.1812],[-119.2965,51.18127],[-119.29665,51.18127],[-119.29686,51.18124],[-119.29716,51.18118],[-119.29747,51.1811],[-119.29776,51.18099],[-119.29795,51.18092],[-119.29823,51.18078],[-119.29848,51.18065],[-119.29876,51.18053],[-119.29907,51.1804],[-119.2994,51.1803],[-119.29971,51.18018],[-119.29997,51.18011],[-119.30035,51.18],[-119.3004,51.17997],[-119.30052,51.1799],[-119.30059,51.17987],[-119.30067,51.17984],[-119.30075,51.17981],[-119.30083,51.1798],[-119.30091,51.1798],[-119.30098,51.17981],[-119.30106,51.17982],[-119.30113,51.17983],[-119.30121,51.17985],[-119.30131,51.17984],[-119.3014,51.17984],[-119.30149,51.17984],[-119.30159,51.17983],[-119.30169,51.17983],[-119.30179,51.17982],[-119.30189,51.17982],[-119.30201,51.17983],[-119.30214,51.17985],[-119.30227,51.17985],[-119.3024,51.17984],[-119.30247,51.17983],[-119.30254,51.17982],[-119.30263,51.17981],[-119.30271,51.1798],[-119.3028,51.17979],[-119.30288,51.17978],[-119.30298,51.17978],[-119.3031,51.17977],[-119.30326,51.17979],[-119.30335,51.17987],[-119.30346,51.17992],[-119.30355,51.17993],[-119.30365,51.17993],[-119.30374,51.17994],[-119.30384,51.17994],[-119.30392,51.17994],[-119.30402,51.17994],[-119.30411,51.17994],[-119.3042,51.17994],[-119.30427,51.17995],[-119.30434,51.17996],[-119.30441,51.17995],[-119.30448,51.17995],[-119.30455,51.17994],[-119.30464,51.17991],[-119.30474,51.17989],[-119.30485,51.17986],[-119.30495,51.17984],[-119.30506,51.17981],[-119.30516,51.17978],[-119.30526,51.17975],[-119.30534,51.17973],[-119.30543,51.17971],[-119.30551,51.17969],[-119.3056,51.17969],[-119.30568,51.17969],[-119.30579,51.17968],[-119.30589,51.17968],[-119.306,51.17968],[-119.3061,51.17968],[-119.3062,51.17969],[-119.30629,51.17968],[-119.30639,51.17968],[-119.3065,51.17968],[-119.3066,51.17968],[-119.3067,51.17968],[-119.30679,51.17967],[-119.30686,51.17967],[-119.30694,51.17967],[-119.30709,51.17967],[-119.30721,51.17967],[-119.30734,51.17966],[-119.30747,51.17967],[-119.30754,51.17967],[-119.30766,51.17967],[-119.30773,51.17966],[-119.30784,51.17967],[-119.30793,51.17967],[-119.30799,51.17968],[-119.30802,51.17967],[-119.30809,51.17966],[-119.30816,51.17966],[-119.30823,51.17963],[-119.30833,51.17959],[-119.30843,51.17956],[-119.30852,51.17953],[-119.30861,51.17949],[-119.30871,51.17943],[-119.30879,51.17937],[-119.30887,51.17931],[-119.30894,51.17926],[-119.30902,51.17923],[-119.30908,51.17917],[-119.30915,51.1791],[-119.30923,51.17902],[-119.30933,51.17895],[-119.30939,51.1789],[-119.31004,51.17838],[-119.31007,51.17836],[-119.31012,51.17831],[-119.31021,51.17825],[-119.3103,51.17818],[-119.3104,51.17812],[-119.31048,51.17806],[-119.31052,51.17802],[-119.31061,51.17795],[-119.31069,51.17791],[-119.31077,51.17786],[-119.31086,51.1778],[-119.31093,51.17776],[-119.31099,51.17768],[-119.31103,51.1776],[-119.31104,51.17755],[-119.31104,51.1775],[-119.31105,51.17745],[-119.31105,51.1774],[-119.31108,51.17735],[-119.31109,51.1773],[-119.31111,51.17724],[-119.31117,51.17716],[-119.31124,51.17711],[-119.31131,51.17708],[-119.31142,51.17706],[-119.31155,51.17703],[-119.31167,51.177],[-119.3118,51.17695],[-119.31193,51.1769],[-119.31204,51.17685],[-119.31215,51.17682],[-119.31224,51.17677],[-119.31232,51.1767],[-119.31239,51.17662],[-119.31245,51.17654],[-119.31251,51.17647],[-119.31255,51.17639],[-119.3126,51.17632],[-119.31261,51.17628],[-119.31262,51.17619],[-119.31262,51.17611],[-119.31261,51.17603],[-119.31263,51.17599],[-119.31262,51.17593],[-119.31262,51.17587],[-119.31263,51.17581],[-119.31263,51.17575],[-119.31263,51.1757],[-119.31264,51.17565],[-119.31263,51.17558],[-119.31263,51.17552],[-119.31264,51.17545],[-119.31267,51.1754],[-119.31268,51.17535],[-119.31275,51.17529],[-119.31283,51.17529],[-119.31292,51.17532],[-119.31302,51.17536],[-119.31312,51.17538],[-119.31325,51.17538],[-119.31332,51.17538],[-119.31341,51.17537],[-119.31346,51.17531],[-119.3135,51.17522],[-119.31351,51.17513],[-119.31352,51.17508],[-119.31354,51.17503]],[[-119.28917,51.17828],[-119.28888,51.17825],[-119.28884,51.17824],[-119.28831,51.17819],[-119.28763,51.1781],[-119.28736,51.17805],[-119.28676,51.17794],[-119.28656,51.17791],[-119.28618,51.17785],[-119.28563,51.17782],[-119.2856,51.17781],[-119.28507,51.17772],[-119.28505,51.17772],[-119.28443,51.17768],[-119.28376,51.17762],[-119.28344,51.17757],[-119.2834,51.17758],[-119.28297,51.17769],[-119.28268,51.17773],[-119.28227,51.1777],[-119.28172,51.17766],[-119.28103,51.17755]]]}},
{"type":"Feature","properties":{"spotId":"G-moose-atv-0049","kind":"walk","km":0.27,"climbM":0,"name":"280 m N of Kwikoit Creek","flags":[]},"geometry":{"type":"LineString","coordinates":[[-119.28103,51.17755],[-119.27916,51.17547]]}},
{"type":"Feature","properties":{"spotId":"G-moose-walk-0052","kind":"walk","km":3.29,"climbM":257,"name":"1.6 km NE of Cross Creek","flags":[]},"geometry":{"type":"LineString","coordinates":[[-119.31356,51.17488],[-119.33198,51.14765]]}}
]}
