{"type":"FeatureCollection","features":[
{"type":"Feature","properties":{"spotId":"G-duck-drive-0035","kind":"walk","km":0.1,"climbM":0,"name":"Unnamed wetland 160 m N of Beaver Creek","flags":[]},"geometry":{"type":"LineString","coordinates":[[-119.28649,51.5355],[-119.28548,51.53489]]}},
{"type":"Feature","properties":{"spotId":"G-duck-drive-0059","kind":"walk","km":0.26,"climbM":0,"name":"Unnamed wetland 640 m SE of Adams River","flags":[]},"geometry":{"type":"LineString","coordinates":[[-119.27375,51.55562],[-119.27209,51.55776]]}},
{"type":"Feature","properties":{"spotId":"G-duck-drive-0088","kind":"walk","km":0.09,"climbM":0,"name":"Unnamed wetland 540 m S of Harbour Creek","flags":[]},"geometry":{"type":"LineString","coordinates":[[-119.27058,51.53996],[-119.27079,51.53917]]}},
{"type":"Feature","properties":{"spotId":"G-duck-drive-0101","kind":"walk","km":0.22,"climbM":0,"name":"Unnamed wetland 870 m NE of Harbour Creek","flags":[]},"geometry":{"type":"LineString","coordinates":[[-119.24712,51.55022],[-119.25026,51.5507]]}},
{"type":"Feature","properties":{"spotId":"G-duck-walk-0010","kind":"walk","km":0.39,"climbM":11,"name":"Unnamed wetland by Harbour Creek","flags":["Route crosses provincial park: Upper Adams River Park. Hunting only where that park allows it, in open season. Check its bcparks.ca page (synopsis page 9, 99%)."]},"geometry":{"type":"LineString","coordinates":[[-119.29284,51.54896],[-119.28855,51.54663]]}},
{"type":"Feature","properties":{"spotId":"G-duck-walk-0013","kind":"walk","km":0.37,"climbM":7,"name":"Unnamed wetland 1.6 km NE of Harbour Creek","flags":[]},"geometry":{"type":"LineString","coordinates":[[-119.24747,51.56039],[-119.2516,51.55835]]}},
{"type":"Feature","properties":{"spotId":"G-grouse-walk-0020","kind":"walk","km":0.14,"climbM":23,"name":"2.0 km E of Goat Creek","flags":["Route enters a Motor Vehicle Closed Area: Thompson, Cariboo and Okanagan Alpines. Closed Year Round. Exemption: Snowmobiles exempt year round (January 1 to December 31). Synopsis map 1-82/24."]},"geometry":{"type":"LineString","coordinates":[[-119.38137,51.55519],[-119.37938,51.55484]]}},
{"type":"Feature","properties":{"spotId":"G-grouse-walk-0020","kind":"roadside","km":5.94,"climbM":195,"name":"2.0 km E of Goat Creek","flags":["Route enters a Motor Vehicle Closed Area: Thompson, Cariboo and Okanagan Alpines. Closed Year Round. Exemption: Snowmobiles exempt year round (January 1 to December 31). Synopsis map 1-82/24."]},"geometry":{"type":"LineString","coordinates":[[-119.37938,51.55484],[-119.37925,51.5549],[-119.37921,51.55495],[-119.37914,51.55498],[-119.379,51.55502],[-119.37893,51.55505],[-119.37883,51.5551],[-119.37873,51.55514],[-119.37857,51.55519],[-119.37843,51.55524],[-119.37832,51.55527],[-119.37822,51.55531],[-119.37808,51.55536],[-119.37799,51.5554],[-119.37777,51.55555],[-119.37764,51.55563],[-119.37726,51.55582],[-119.37715,51.55589],[-119.37715,51.5559],[-119.37707,51.55595],[-119.377,51.55601],[-119.37687,51.55608],[-119.3768,51.55612],[-119.37662,51.55621],[-119.37652,51.55627],[-119.3762,51.55644],[-119.37606,51.55653],[-119.37595,51.5566],[-119.37581,51.55671],[-119.37571,51.55675],[-119.37561,51.55679],[-119.37557,51.55682],[-119.37551,51.55687],[-119.37543,51.55691],[-119.37539,51.55695],[-119.37535,51.55697],[-119.37528,51.55702],[-119.37522,51.55707],[-119.37498,51.55715],[-119.37478,51.55723],[-119.37466,51.55728],[-119.3745,51.55732],[-119.3744,51.55735],[-119.37423,51.55737],[-119.3739,51.55739],[-119.37378,51.55741],[-119.37361,51.55748],[-119.37351,51.55751],[-119.37325,51.55752],[-119.37292,51.55753],[-119.37279,51.55753],[-119.37265,51.55755],[-119.37258,51.55755],[-119.37241,51.55757],[-119.37235,51.55759],[-119.37228,51.55761],[-119.37221,51.55762],[-119.37215,51.55762],[-119.37201,51.55767],[-119.37166,51.55773],[-119.37152,51.55774],[-119.37145,51.55776],[-119.37139,51.55777],[-119.37131,51.55781],[-119.37125,51.55783],[-119.37081,51.55792],[-119.37068,51.55795],[-119.37065,51.55795],[-119.37057,51.55797],[-119.37044,51.55799],[-119.37028,51.55799],[-119.37022,51.558],[-119.36991,51.55803],[-119.36965,51.55804],[-119.36952,51.55803],[-119.36908,51.55804],[-119.36882,51.55804],[-119.36877,51.55805],[-119.36855,51.55811],[-119.36851,51.55814],[-119.36845,51.55816],[-119.36841,51.55819],[-119.36837,51.55823],[-119.36829,51.55825],[-119.36827,51.55827],[-119.36816,51.55836],[-119.36805,51.55842],[-119.36798,51.55848],[-119.36787,51.55859],[-119.36781,51.55862],[-119.36776,51.55865],[-119.36767,51.55868],[-119.36757,51.55871],[-119.36739,51.55878],[-119.3672,51.5588],[-119.36712,51.55882],[-119.36701,51.55886],[-119.36694,51.55891],[-119.36687,51.55897],[-119.3668,51.55903],[-119.36673,51.55909],[-119.36666,51.55915],[-119.36662,51.5592],[-119.36661,51.55922],[-119.36608,51.55946],[-119.36568,51.55967],[-119.36549,51.55978],[-119.36524,51.5599],[-119.36499,51.55999],[-119.36471,51.56005],[-119.36439,51.56011],[-119.3641,51.56017],[-119.36367,51.56022],[-119.36344,51.56027],[-119.36319,51.56038],[-119.36303,51.56046],[-119.36269,51.56056],[-119.36258,51.56058],[-119.36236,51.56063],[-119.36208,51.56066],[-119.36161,51.56076],[-119.36115,51.56094],[-119.36048,51.56121],[-119.35984,51.56144],[-119.35933,51.56159],[-119.35839,51.56194],[-119.35777,51.56214],[-119.35687,51.56244],[-119.35595,51.56272],[-119.35534,51.56288],[-119.35501,51.56298],[-119.35482,51.56309],[-119.35468,51.56326],[-119.35457,51.56342],[-119.35448,51.56368],[-119.35437,51.56392],[-119.3542,51.56411],[-119.35407,51.56422],[-119.35377,51.56441],[-119.35326,51.56483],[-119.35323,51.5649],[-119.35324,51.56498],[-119.35327,51.56504],[-119.35336,51.56512],[-119.35345,51.56519],[-119.35354,51.56524],[-119.3539,51.5654],[-119.35402,51.5655],[-119.35407,51.56561],[-119.35407,51.56572],[-119.35403,51.56585],[-119.35398,51.56596],[-119.35391,51.56604],[-119.35383,51.56613],[-119.35359,51.56628],[-119.35308,51.56643],[-119.35271,51.56651],[-119.35237,51.56657],[-119.3517,51.5668],[-119.35151,51.56691],[-119.35136,51.56708],[-119.35121,51.56729],[-119.35117,51.56733],[-119.35099,51.56762],[-119.35083,51.56788],[-119.35064,51.56805],[-119.35045,51.56815],[-119.3499,51.56853],[-119.3498,51.56857],[-119.34973,51.56861],[-119.34929,51.569],[-119.34907,51.56917],[-119.34883,51.56934],[-119.34858,51.56955],[-119.34845,51.5697],[-119.34834,51.56996],[-119.34821,51.57073],[-119.34814,51.57103],[-119.34809,51.57122],[-119.348,51.57141],[-119.34791,51.57155],[-119.34781,51.57163],[-119.3477,51.5717],[-119.34761,51.57175],[-119.34733,51.57182],[-119.34722,51.57185],[-119.34694,51.57192],[-119.34634,51.57202],[-119.34592,51.57213],[-119.34586,51.57215],[-119.34553,51.57223],[-119.34509,51.5723],[-119.34413,51.57239],[-119.34298,51.57251],[-119.34238,51.57259],[-119.34173,51.57271],[-119.34132,51.57279],[-119.34106,51.57284],[-119.34046,51.57298],[-119.34002,51.57315],[-119.33964,51.57336],[-119.33937,51.57359],[-119.33913,51.57379],[-119.33878,51.57406],[-119.33841,51.57431],[-119.33813,51.57444],[-119.33793,51.57448],[-119.33761,51.57453],[-119.33721,51.57456],[-119.33673,51.57458],[-119.33636,51.5746],[-119.3361,51.57465],[-119.3359,51.5747],[-119.33558,51.57492],[-119.33525,51.57519],[-119.33505,51.57534],[-119.3348,51.57545],[-119.33438,51.5756],[-119.33383,51.57574],[-119.33356,51.57579],[-119.33292,51.57591],[-119.33268,51.57593],[-119.33243,51.57594],[-119.33237,51.57593],[-119.33228,51.57592],[-119.33216,51.57584],[-119.33211,51.5757],[-119.33213,51.57546],[-119.33215,51.5749],[-119.33219,51.5744],[-119.33223,51.57397],[-119.33229,51.57369],[-119.33233,51.57321],[-119.33241,51.57293],[-119.33255,51.57267],[-119.33275,51.57238],[-119.33298,51.57207],[-119.33326,51.57178],[-119.3336,51.57145],[-119.33393,51.57113],[-119.33436,51.57071],[-119.3346,51.57045],[-119.33488,51.57016],[-119.33515,51.56994],[-119.33537,51.56975],[-119.33564,51.56959],[-119.33585,51.5695],[-119.33609,51.56945],[-119.33637,51.5694],[-119.33651,51.56936],[-119.33666,51.56927],[-119.33672,51.56924],[-119.33676,51.56919],[-119.33678,51.56912],[-119.33675,51.569],[-119.33664,51.56892],[-119.33633,51.56878],[-119.33613,51.56871],[-119.3359,51.56868],[-119.33567,51.56871],[-119.33508,51.56887],[-119.33445,51.56919],[-119.33402,51.56945],[-119.33363,51.5697],[-119.33325,51.5699],[-119.3326,51.57021],[-119.33212,51.57038],[-119.3317,51.5705],[-119.33136,51.57063],[-119.33072,51.57094],[-119.33041,51.57107],[-119.33,51.57124],[-119.32955,51.57151],[-119.32914,51.57175]]}},
{"type":"Feature","properties":{"spotId":"G-moose-atv-0039","kind":"ride","km":1.77,"climbM":116,"name":"By Harbour Creek","flags":[]},"geometry":{"type":"LineString","coordinates":[[-119.28008,51.54804],[-119.28013,51.54807],[-119.28035,51.5482],[-119.28049,51.54828],[-119.28061,51.54841],[-119.28071,51.54853],[-119.28084,51.5488],[-119.28091,51.54899],[-119.28096,51.54911],[-119.28105,51.5492],[-119.2812,51.54929],[-119.28126,51.54931],[-119.28113,51.54933],[-119.28106,51.54937],[-119.28102,51.54941],[-119.28094,51.54954],[-119.28085,51.54971],[-119.28066,51.54982],[-119.28059,51.54984],[-119.28018,51.5499],[-119.27998,51.54992],[-119.27977,51.54992],[-119.27948,51.54989],[-119.27937,51.54984],[-119.27925,51.54978],[-119.2791,51.54976],[-119.27881,51.54977],[-119.27855,51.54986],[-119.27833,51.54991],[-119.27812,51.54997],[-119.27783,51.55005],[-119.27756,51.55015],[-119.27749,51.55017],[-119.27733,51.55017],[-119.27726,51.55016],[-119.27711,51.55011],[-119.27705,51.55008],[-119.27697,51.55006],[-119.27675,51.55005],[-119.27653,51.55004],[-119.27632,51.55005],[-119.27625,51.55004],[-119.27606,51.54997],[-119.27609,51.54991],[-119.27612,51.54984],[-119.27614,51.54971],[-119.27613,51.54939],[-119.27608,51.54925],[-119.27605,51.54921],[-119.27604,51.54916],[-119.27601,51.54912],[-119.27582,51.54896],[-119.27567,51.54886],[-119.27522,51.54863],[-119.27505,51.54855],[-119.27488,51.54849],[-119.27475,51.54841],[-119.2746,51.54831],[-119.27429,51.54814],[-119.27413,51.54808],[-119.27371,51.54778],[-119.27357,51.54766],[-119.27343,51.54756],[-119.2733,51.54744],[-119.27324,51.54741],[-119.27314,51.54738],[-119.27301,51.54737],[-119.2728,51.54737],[-119.27257,51.5474],[-119.27213,51.54745],[-119.27192,51.54749],[-119.27171,51.54755],[-119.27155,51.5476],[-119.27134,51.54764],[-119.27128,51.54766],[-119.27118,51.54767],[-119.27079,51.54768],[-119.2706,51.54767],[-119.27037,51.54766],[-119.26988,51.54767],[-119.26967,51.54769],[-119.26958,51.54771],[-119.26951,51.54774],[-119.26943,51.54784],[-119.2694,51.54787],[-119.26932,51.54802],[-119.26926,51.54819],[-119.26924,51.54832],[-119.26926,51.54884],[-119.26921,51.54898],[-119.26906,51.54921],[-119.269,51.54934],[-119.26875,51.54965],[-119.2687,51.54978],[-119.26869,51.54986],[-119.26871,51.55],[-119.26879,51.55013],[-119.26881,51.55018],[-119.26892,51.5503],[-119.26901,51.55043],[-119.26916,51.5506],[-119.26941,51.55089],[-119.26952,51.55107],[-119.26955,51.55115],[-119.26957,51.55151],[-119.26956,51.55164],[-119.26952,51.55178],[-119.26947,51.55192],[-119.26939,51.55205],[-119.26928,51.55218],[-119.26915,51.55229],[-119.26898,51.55238]]}},
{"type":"Feature","properties":{"spotId":"G-moose-atv-0039","kind":"walk","km":0.17,"climbM":0,"name":"By Harbour Creek","flags":[]},"geometry":{"type":"LineString","coordinates":[[-119.28008,51.54804],[-119.28158,51.54689]]}},
{"type":"Feature","properties":{"spotId":"G-moose-atv-0040","kind":"ride","km":1.56,"climbM":37,"name":"280 m NE of Beaver Creek","flags":[]},"geometry":{"type":"LineString","coordinates":[[-119.27237,51.53416],[-119.27249,51.53422],[-119.27262,51.53432],[-119.27269,51.5344],[-119.27276,51.53453],[-119.27282,51.53464],[-119.27303,51.53468],[-119.27317,51.53472],[-119.27338,51.53471],[-119.27358,51.53467],[-119.27377,51.53461],[-119.27402,51.53455],[-119.27418,51.53445],[-119.27431,51.53433],[-119.2745,51.53419],[-119.27465,51.53411],[-119.27496,51.53401],[-119.27506,51.53393],[-119.27522,51.53391],[-119.27539,51.53393],[-119.27558,51.53397],[-119.27565,51.53397],[-119.27578,51.53408],[-119.27576,51.53417],[-119.27578,51.5343],[-119.27573,51.53438],[-119.27571,51.53446],[-119.27578,51.53453],[-119.27586,51.53461],[-119.27583,51.5347],[-119.27589,51.53485],[-119.27597,51.53501],[-119.27605,51.5351],[-119.27611,51.53522],[-119.27615,51.53533],[-119.27614,51.53539],[-119.27609,51.53547],[-119.27607,51.5356],[-119.27602,51.5357],[-119.27603,51.5358],[-119.27604,51.53588],[-119.27612,51.53593],[-119.27625,51.53597],[-119.27639,51.53598],[-119.27657,51.53594],[-119.27675,51.5359],[-119.27685,51.53582],[-119.27694,51.53573],[-119.27698,51.53561],[-119.27694,51.53546],[-119.27694,51.53533],[-119.27704,51.53512],[-119.27704,51.53499],[-119.27708,51.53481],[-119.2772,51.53471],[-119.27736,51.5346],[-119.27744,51.53455],[-119.27767,51.53442],[-119.27786,51.53432],[-119.27808,51.5343],[-119.27823,51.53432],[-119.27833,51.53436],[-119.27844,51.53441],[-119.27853,51.53447],[-119.27856,51.53457],[-119.27865,51.53466],[-119.27875,51.53476],[-119.27864,51.53483],[-119.27847,51.53495],[-119.27833,51.53506],[-119.27825,51.53519],[-119.27816,51.53536],[-119.27806,51.53549],[-119.27798,51.53556],[-119.27798,51.53564],[-119.27801,51.53576],[-119.27808,51.53588],[-119.27812,51.53597],[-119.27814,51.53605],[-119.27813,51.53617],[-119.27812,51.53628],[-119.27814,51.53643],[-119.27817,51.53652],[-119.27822,51.53666],[-119.2783,51.53671],[-119.27839,51.53675],[-119.27849,51.53679],[-119.27867,51.53681],[-119.27886,51.53681],[-119.27921,51.53676],[-119.27936,51.53675],[-119.27957,51.53674],[-119.27974,51.53674],[-119.28001,51.53681],[-119.28015,51.53686],[-119.28029,51.53697],[-119.28054,51.53714],[-119.2807,51.53722],[-119.28079,51.53729],[-119.28098,51.53736],[-119.28107,51.53742],[-119.28118,51.5375],[-119.28128,51.53752],[-119.28146,51.53755],[-119.28165,51.5376],[-119.28183,51.53767],[-119.28199,51.53768],[-119.28217,51.53771],[-119.28228,51.5378],[-119.28242,51.53785],[-119.28261,51.53792],[-119.28276,51.53791],[-119.28293,51.53796],[-119.28321,51.53801],[-119.28347,51.53807],[-119.28358,51.53809],[-119.28363,51.53821],[-119.28366,51.5383],[-119.28364,51.53837]]}},
{"type":"Feature","properties":{"spotId":"G-moose-atv-0040","kind":"walk","km":0.05,"climbM":3,"name":"280 m NE of Beaver Creek","flags":[]},"geometry":{"type":"LineString","coordinates":[[-119.27237,51.53416],[-119.27167,51.53436]]}},
{"type":"Feature","properties":{"spotId":"G-moose-atv-0047","kind":"ride","km":1.98,"climbM":38,"name":"1.0 km E of Adams River","flags":[]},"geometry":{"type":"LineString","coordinates":[[-119.26432,51.56932],[-119.26467,51.56913],[-119.26485,51.56893],[-119.26497,51.5688],[-119.26505,51.56864],[-119.2651,51.56843],[-119.26511,51.56827],[-119.26507,51.56811],[-119.26504,51.56796],[-119.26499,51.56773],[-119.26498,51.56755],[-119.26499,51.56744],[-119.2651,51.56731],[-119.26531,51.56713],[-119.26546,51.567],[-119.26556,51.56693],[-119.26579,51.56673],[-119.26578,51.56669],[-119.26572,51.56658],[-119.26571,51.5665],[-119.26567,51.56645],[-119.26562,51.56638],[-119.26558,51.56631],[-119.26555,51.56623],[-119.26559,51.56598],[-119.26561,51.5659],[-119.26564,51.56574],[-119.26568,51.56568],[-119.26575,51.56561],[-119.2658,51.56554],[-119.26585,51.56542],[-119.26589,51.56536],[-119.26593,51.56528],[-119.26597,51.5652],[-119.26598,51.56511],[-119.26595,51.56498],[-119.26596,51.56488],[-119.26592,51.56473],[-119.26588,51.56464],[-119.26577,51.56458],[-119.26568,51.56452],[-119.2656,51.56449],[-119.2655,51.56446],[-119.26527,51.56436],[-119.26518,51.56429],[-119.26514,51.56426],[-119.26506,51.56421],[-119.26503,51.56416],[-119.26496,51.56412],[-119.2649,51.56407],[-119.26487,51.564],[-119.26483,51.56396],[-119.26481,51.56391],[-119.26479,51.56387],[-119.26478,51.56383],[-119.26477,51.56379],[-119.26477,51.56375],[-119.2648,51.56372],[-119.26482,51.5637],[-119.2649,51.56366],[-119.26499,51.56363],[-119.26505,51.5636],[-119.26509,51.56353],[-119.26511,51.56346],[-119.26507,51.5634],[-119.26501,51.56335],[-119.26496,51.56332],[-119.2649,51.5633],[-119.2648,51.56317],[-119.26473,51.56311],[-119.26464,51.56302],[-119.26459,51.56291],[-119.26453,51.56283],[-119.26445,51.56272],[-119.26441,51.56267],[-119.26436,51.56255],[-119.26434,51.56242],[-119.26432,51.56231],[-119.26422,51.56206],[-119.26418,51.56183],[-119.26418,51.5617],[-119.2642,51.56159],[-119.26423,51.56146],[-119.26428,51.5614],[-119.26447,51.56121],[-119.26465,51.56102],[-119.26478,51.56094],[-119.26485,51.56081],[-119.26498,51.5607],[-119.265,51.56069],[-119.26506,51.5606],[-119.2652,51.56049],[-119.26534,51.56041],[-119.26563,51.56036],[-119.26589,51.56029],[-119.26602,51.56026],[-119.26637,51.56019],[-119.26683,51.56009],[-119.26718,51.55996],[-119.26745,51.55988],[-119.26767,51.55983],[-119.26782,51.55974],[-119.26801,51.55965],[-119.26811,51.55948],[-119.26821,51.55936],[-119.26823,51.55924],[-119.26841,51.55898],[-119.26879,51.55854],[-119.26884,51.55835],[-119.26891,51.5582],[-119.26896,51.55809],[-119.26898,51.55803],[-119.26899,51.55793],[-119.26904,51.55788],[-119.26909,51.5578],[-119.26917,51.55768],[-119.2694,51.55752],[-119.26947,51.55749],[-119.26955,51.55748],[-119.26961,51.55748],[-119.26977,51.55753],[-119.26992,51.55749],[-119.26999,51.55749],[-119.27003,51.55746],[-119.2702,51.55734],[-119.27033,51.55729],[-119.27064,51.55715],[-119.27081,51.55707],[-119.27095,51.55692],[-119.2712,51.5568],[-119.2713,51.55677],[-119.27148,51.55678],[-119.27169,51.55675],[-119.27185,51.55674],[-119.27202,51.55672],[-119.2721,51.55669],[-119.27214,51.55661],[-119.27218,51.55655],[-119.27228,51.55649],[-119.27242,51.5564],[-119.27252,51.55632],[-119.27282,51.55619],[-119.27352,51.55573],[-119.27375,51.55562]]}},
{"type":"Feature","properties":{"spotId":"G-moose-atv-0047","kind":"walk","km":0.12,"climbM":0,"name":"1.0 km E of Adams River","flags":[]},"geometry":{"type":"LineString","coordinates":[[-119.26432,51.56932],[-119.26548,51.57018]]}},
{"type":"Feature","properties":{"spotId":"G-moose-atv-0051","kind":"ride","km":4.97,"climbM":130,"name":"410 m E of Adams River","flags":[]},"geometry":{"type":"LineString","coordinates":[[-119.27375,51.55562],[-119.27352,51.55573],[-119.27282,51.55619],[-119.27252,51.55632],[-119.27242,51.5564],[-119.27228,51.55649],[-119.27218,51.55655],[-119.27214,51.55661],[-119.2721,51.55669],[-119.27202,51.55672],[-119.27185,51.55674],[-119.27169,51.55675],[-119.27148,51.55678],[-119.2713,51.55677],[-119.2712,51.5568],[-119.27095,51.55692],[-119.27081,51.55707],[-119.27064,51.55715],[-119.27033,51.55729],[-119.2702,51.55734],[-119.27003,51.55746],[-119.26999,51.55749],[-119.26992,51.55749],[-119.26977,51.55753],[-119.26961,51.55748],[-119.26955,51.55748],[-119.26947,51.55749],[-119.2694,51.55752],[-119.26917,51.55768],[-119.26909,51.5578],[-119.26904,51.55788],[-119.26899,51.55793],[-119.26898,51.55803],[-119.26896,51.55809],[-119.26891,51.5582],[-119.26884,51.55835],[-119.26879,51.55854],[-119.26841,51.55898],[-119.26823,51.55924],[-119.26821,51.55936],[-119.26811,51.55948],[-119.26801,51.55965],[-119.26782,51.55974],[-119.26767,51.55983],[-119.26745,51.55988],[-119.26718,51.55996],[-119.26683,51.56009],[-119.26637,51.56019],[-119.26602,51.56026],[-119.26589,51.56029],[-119.26563,51.56036],[-119.26534,51.56041],[-119.2652,51.56049],[-119.26506,51.5606],[-119.265,51.56069],[-119.26498,51.5607],[-119.26485,51.56081],[-119.26478,51.56094],[-119.26465,51.56102],[-119.26447,51.56121],[-119.26428,51.5614],[-119.26423,51.56146],[-119.2642,51.56159],[-119.26418,51.5617],[-119.26418,51.56183],[-119.26422,51.56206],[-119.26432,51.56231],[-119.26434,51.56242],[-119.26436,51.56255],[-119.26441,51.56267],[-119.26445,51.56272],[-119.26453,51.56283],[-119.26459,51.56291],[-119.26464,51.56302],[-119.26473,51.56311],[-119.2648,51.56317],[-119.2649,51.5633],[-119.26496,51.56332],[-119.26501,51.56335],[-119.26507,51.5634],[-119.26511,51.56346],[-119.26509,51.56353],[-119.26505,51.5636],[-119.26499,51.56363],[-119.2649,51.56366],[-119.26482,51.5637],[-119.2648,51.56372],[-119.26477,51.56375],[-119.26477,51.56379],[-119.26478,51.56383],[-119.26479,51.56387],[-119.26481,51.56391],[-119.26483,51.56396],[-119.26487,51.564],[-119.2649,51.56407],[-119.26496,51.56412],[-119.26503,51.56416],[-119.26506,51.56421],[-119.26514,51.56426],[-119.26518,51.56429],[-119.26527,51.56436],[-119.2655,51.56446],[-119.2656,51.56449],[-119.26568,51.56452],[-119.26577,51.56458],[-119.26588,51.56464],[-119.26592,51.56473],[-119.26596,51.56488],[-119.26595,51.56498],[-119.26598,51.56511],[-119.26597,51.5652],[-119.26593,51.56528],[-119.26589,51.56536],[-119.26585,51.56542],[-119.2658,51.56554],[-119.26575,51.56561],[-119.26568,51.56568],[-119.26564,51.56574],[-119.26561,51.5659],[-119.26559,51.56598],[-119.26555,51.56623],[-119.26558,51.56631],[-119.26562,51.56638],[-119.26567,51.56645],[-119.26571,51.5665],[-119.26572,51.56658],[-119.26578,51.56669],[-119.26579,51.56673],[-119.26582,51.56678],[-119.26588,51.56687],[-119.26591,51.56695],[-119.26593,51.567],[-119.26598,51.56706],[-119.26599,51.56712],[-119.26602,51.56717],[-119.26613,51.56734],[-119.26617,51.5674],[-119.2662,51.56746],[-119.26623,51.56749],[-119.26627,51.5676],[-119.26631,51.56765],[-119.26635,51.56768],[-119.26639,51.56772],[-119.26646,51.56778],[-119.26655,51.56789],[-119.26683,51.56795],[-119.26745,51.56801],[-119.26763,51.56802],[-119.26781,51.56803],[-119.26814,51.56804],[-119.26821,51.56805],[-119.26837,51.56808],[-119.26852,51.56809],[-119.26859,51.5681],[-119.26865,51.56811],[-119.26875,51.56813],[-119.26883,51.56815],[-119.26894,51.56822],[-119.26903,51.56828],[-119.26913,51.56831],[-119.26921,51.5684],[-119.26931,51.56844],[-119.26934,51.56848],[-119.2694,51.56852],[-119.26947,51.56857],[-119.26953,51.56863],[-119.26957,51.56871],[-119.26961,51.56877],[-119.26964,51.56883],[-119.26966,51.56892],[-119.26967,51.56899],[-119.26971,51.56906],[-119.2697,51.56911],[-119.26973,51.56916],[-119.26976,51.56925],[-119.26984,51.56942],[-119.26993,51.56969],[-119.26996,51.56995],[-119.27001,51.5701],[-119.26999,51.57023],[-119.26997,51.57046],[-119.26995,51.5707],[-119.26994,51.57077],[-119.26995,51.57096],[-119.26991,51.57126],[-119.26983,51.57138],[-119.26975,51.5715],[-119.26963,51.57158],[-119.26951,51.57213],[-119.26937,51.57265],[-119.26879,51.57402],[-119.26855,51.5743],[-119.26756,51.57523],[-119.26631,51.57615],[-119.26514,51.5771],[-119.26459,51.57744],[-119.26441,51.5776],[-119.26404,51.57796],[-119.26359,51.57854],[-119.26316,51.57904],[-119.26272,51.57953],[-119.26178,51.58026],[-119.2614,51.58089],[-119.26115,51.58117],[-119.26091,51.58147],[-119.26061,51.58178],[-119.25996,51.58225],[-119.25979,51.58241],[-119.25953,51.58289],[-119.2592,51.58336],[-119.25884,51.58383],[-119.25858,51.58418],[-119.25822,51.58463],[-119.25798,51.58492],[-119.25784,51.58516],[-119.25775,51.58532],[-119.25784,51.58572],[-119.25811,51.58623],[-119.25827,51.58698],[-119.25807,51.58782],[-119.258,51.58811],[-119.25763,51.5886],[-119.25693,51.58927],[-119.25628,51.58982],[-119.25605,51.59026],[-119.25583,51.59063],[-119.25533,51.59127],[-119.25488,51.59178],[-119.25459,51.59207],[-119.25443,51.59226]]}},
{"type":"Feature","properties":{"spotId":"G-moose-atv-0051","kind":"walk","km":0.27,"climbM":0,"name":"410 m E of Adams River","flags":[]},"geometry":{"type":"LineString","coordinates":[[-119.25443,51.59226],[-119.25378,51.59464]]}},
{"type":"Feature","properties":{"spotId":"G-moose-drive-0046","kind":"walk","km":0.28,"climbM":0,"name":"620 m SE of Adams River","flags":[]},"geometry":{"type":"LineString","coordinates":[[-119.27375,51.55562],[-119.27225,51.55797]]}},
{"type":"Feature","properties":{"spotId":"G-moose-walk-0046","kind":"walk","km":0.62,"climbM":0,"name":"600 m E of Adams River","flags":[]},"geometry":{"type":"LineString","coordinates":[[-119.26507,51.55695],[-119.27048,51.56133]]}}
]}
