{"type":"FeatureCollection","features":[
{"type":"Feature","properties":{"name":"CRANBERRY MARSH/STARRATT WILDLIFE MANAGEMENT AREA"},"geometry":{"type":"MultiPolygon","coordinates":[[[[-119.23444,52.81757],[-119.22874,52.81718],[-119.2252,52.81396],[-119.22412,52.81023],[-119.23445,52.81038],[-119.23446,52.80774],[-119.24207,52.80773],[-119.24701,52.80854],[-119.25331,52.80711],[-119.26554,52.80753],[-119.26996,52.81538],[-119.26039,52.81744],[-119.25667,52.82],[-119.25534,52.81917],[-119.25087,52.82088],[-119.24636,52.82032],[-119.24637,52.82235],[-119.23444,52.81909],[-119.23444,52.81757]]],[[[-119.2786,52.81034],[-119.26773,52.80974],[-119.2667,52.80791],[-119.2759,52.80733],[-119.2786,52.81034]]]]}},
{"type":"Feature","properties":{"name":"PITT-ADDINGTON MARSH WILDLIFE MANAGEMENT AREA"},"geometry":{"type":"MultiPolygon","coordinates":[[[[-122.58105,49.35123],[-122.58484,49.34623],[-122.59112,49.34076],[-122.59131,49.33879],[-122.59356,49.3377],[-122.59338,49.33128],[-122.59618,49.33126],[-122.59616,49.32945],[-122.59896,49.32944],[-122.59895,49.32763],[-122.60018,49.32762],[-122.60001,49.31876],[-122.60275,49.31876],[-122.60277,49.31519],[-122.67455,49.31488],[-122.67288,49.31721],[-122.64433,49.33594],[-122.61777,49.35027],[-122.61777,49.34902],[-122.61367,49.34927],[-122.61367,49.35017],[-122.59058,49.35071],[-122.57978,49.35233],[-122.57943,49.35132],[-122.58105,49.35123]],[[-122.63593,49.3187],[-122.63319,49.3187],[-122.63311,49.32962],[-122.6441,49.32963],[-122.6441,49.31871],[-122.64141,49.3187],[-122.63892,49.31758],[-122.63593,49.3187]]],[[[-122.68908,49.30754],[-122.68033,49.30746],[-122.6744,49.30247],[-122.66654,49.30006],[-122.66022,49.29679],[-122.66023,49.29454],[-122.68921,49.28904],[-122.68908,49.30754]]],[[[-122.67649,49.31841],[-122.68018,49.31591],[-122.68062,49.31419],[-122.68348,49.31408],[-122.68358,49.30767],[-122.6891,49.30772],[-122.6891,49.3113],[-122.69492,49.31128],[-122.69492,49.31487],[-122.6891,49.31483],[-122.6891,49.32025],[-122.68347,49.32022],[-122.68341,49.31842],[-122.67649,49.31841]]],[[[-122.58107,49.35637],[-122.58517,49.3531],[-122.613,49.35266],[-122.61002,49.35312],[-122.60802,49.35498],[-122.60763,49.35705],[-122.60632,49.35711],[-122.60514,49.3583],[-122.60499,49.36158],[-122.60305,49.36215],[-122.60328,49.36352],[-122.59775,49.36707],[-122.59561,49.37025],[-122.59381,49.37125],[-122.59352,49.3728],[-122.59209,49.37288],[-122.58561,49.38082],[-122.56854,49.39413],[-122.56609,49.39324],[-122.5718,49.38343],[-122.58107,49.35637]]],[[[-122.55059,49.39182],[-122.53769,49.39253],[-122.54048,49.3889],[-122.55225,49.38076],[-122.5598,49.3726],[-122.56056,49.37033],[-122.56325,49.36917],[-122.56445,49.36718],[-122.56843,49.36509],[-122.57173,49.36212],[-122.57319,49.36184],[-122.57445,49.36026],[-122.57651,49.35977],[-122.56616,49.38462],[-122.56101,49.39439],[-122.55059,49.39182]]]]}},
{"type":"Feature","properties":{"name":"ROBERTS BANK WILDLIFE MANAGEMENT AREA"},"geometry":{"type":"MultiPolygon","coordinates":[[[[-123.18105,49.09363],[-123.18117,49.08727],[-123.17737,49.08228],[-123.17294,49.08037],[-123.16848,49.07674],[-123.16503,49.07764],[-123.16433,49.07679],[-123.16562,49.07537],[-123.15747,49.07317],[-123.15794,49.06442],[-123.14732,49.0614],[-123.14506,49.05965],[-123.13498,49.05524],[-123.16143,49.03666],[-123.17368,49.04175],[-123.20351,49.02041],[-123.21737,49.02407],[-123.23174,49.03021],[-123.25081,49.03953],[-123.2762,49.05494],[-123.29262,49.06551],[-123.30287,49.07376],[-123.3131,49.08912],[-123.31312,49.09272],[-123.23739,49.12411],[-123.23081,49.12511],[-123.22533,49.12513],[-123.21381,49.12314],[-123.1874,49.11372],[-123.18738,49.1089],[-123.1888,49.10684],[-123.18769,49.10439],[-123.1886,49.10097],[-123.18516,49.09577],[-123.18203,49.09498],[-123.18105,49.09363]]],[[[-123.11817,49.00211],[-123.09641,49.01765],[-123.09256,49.00884],[-123.09102,49.00215],[-123.11817,49.00211]]],[[[-123.13943,49.00507],[-123.15359,49.00752],[-123.13951,49.01603],[-123.14043,49.02601],[-123.12483,49.01541],[-123.13943,49.00507]]]]}},
{"type":"Feature","properties":{"name":"COQUITLAM RIVER WILDLIFE MANAGEMENT AREA"},"geometry":{"type":"MultiPolygon","coordinates":[[[[-122.80429,49.22514],[-122.80537,49.22609],[-122.80132,49.22739],[-122.79603,49.22609],[-122.80429,49.22514]]],[[[-122.80617,49.22514],[-122.8138,49.22426],[-122.81525,49.2253],[-122.81165,49.22486],[-122.80606,49.2259],[-122.80617,49.22514]]],[[[-122.79947,49.2246],[-122.79835,49.22456],[-122.79909,49.22429],[-122.80008,49.22427],[-122.79947,49.2246]]]]}},
{"type":"Feature","properties":{"name":"STURGEON BANK WILDLIFE MANAGEMENT AREA"},"geometry":{"type":"MultiPolygon","coordinates":[[[[-123.2142,49.20694],[-123.21351,49.19793],[-123.21218,49.19721],[-123.21265,49.1951],[-123.2108,49.19476],[-123.21236,49.19351],[-123.21227,49.19143],[-123.22142,49.19249],[-123.22186,49.19087],[-123.21207,49.18974],[-123.21091,49.18783],[-123.20413,49.18683],[-123.20352,49.18618],[-123.2004,49.17182],[-123.20219,49.15553],[-123.19677,49.15558],[-123.19491,49.14384],[-123.19549,49.14009],[-123.20395,49.14007],[-123.20394,49.1376],[-123.20142,49.13761],[-123.20148,49.13654],[-123.1958,49.13656],[-123.19694,49.13592],[-123.19604,49.13368],[-123.1949,49.13362],[-123.19636,49.12971],[-123.22452,49.13594],[-123.23264,49.13635],[-123.23892,49.13565],[-123.24562,49.13363],[-123.30795,49.10813],[-123.3001,49.12986],[-123.29513,49.15797],[-123.2937,49.19717],[-123.20374,49.21596],[-123.20251,49.21574],[-123.20405,49.20683],[-123.2142,49.20694]]],[[[-123.23465,49.22817],[-123.22836,49.22521],[-123.21451,49.2213],[-123.21599,49.21628],[-123.26505,49.20604],[-123.2928,49.20512],[-123.28483,49.2589],[-123.27758,49.25518],[-123.23445,49.22873],[-123.23465,49.22817]]]]}},
{"type":"Feature","properties":{"name":"SKWELWIL'EM SQUAMISH ESTUARY WILDLIFE MANAGEMENT AREA"},"geometry":{"type":"MultiPolygon","coordinates":[[[[-123.14813,49.7332],[-123.15718,49.73166],[-123.16403,49.7265],[-123.16787,49.72003],[-123.16872,49.7097],[-123.17902,49.70044],[-123.18095,49.69712],[-123.18094,49.6949],[-123.17833,49.68556],[-123.17812,49.68631],[-123.18064,49.69491],[-123.18018,49.69826],[-123.16871,49.7091],[-123.16768,49.71134],[-123.1674,49.71898],[-123.1654,49.71887],[-123.1628,49.71562],[-123.15986,49.71497],[-123.15879,49.71395],[-123.15955,49.70878],[-123.16158,49.70749],[-123.16485,49.70694],[-123.16643,49.70301],[-123.16628,49.69993],[-123.16368,49.69843],[-123.16494,49.69082],[-123.16687,49.68901],[-123.17269,49.6895],[-123.17337,49.68716],[-123.17545,49.68716],[-123.1779,49.67913],[-123.19008,49.68161],[-123.18704,49.68239],[-123.18319,49.68571],[-123.18379,49.6879],[-123.186,49.68879],[-123.18783,49.69075],[-123.18835,49.69318],[-123.18778,49.71856],[-123.16921,49.71829],[-123.16945,49.72028],[-123.16451,49.72797],[-123.15603,49.73476],[-123.14891,49.73419],[-123.14813,49.7332]],[[-123.15368,49.7326],[-123.15054,49.73349],[-123.15299,49.73427],[-123.15721,49.73236],[-123.15368,49.7326]]],[[[-123.16752,49.72004],[-123.16688,49.72134],[-123.16634,49.71991],[-123.16762,49.71892],[-123.16752,49.72004]]]]}},
{"type":"Feature","properties":{"name":"CLUXEWE WILDLIFE MANAGEMENT AREA"},"geometry":{"type":"Polygon","coordinates":[[[-127.20234,50.61378],[-127.21045,50.62438],[-127.19759,50.61665],[-127.17928,50.61516],[-127.17976,50.6144],[-127.17423,50.61283],[-127.17736,50.61167],[-127.18041,50.61235],[-127.18599,50.60984],[-127.19575,50.60996],[-127.1978,50.61202],[-127.20234,50.61378]]]}},
{"type":"Feature","properties":{"name":"LAZO MARSH-NORTH EAST COMOX WILDLIFE MANAGEMENT AR"},"geometry":{"type":"Polygon","coordinates":[[[-124.90284,49.68924],[-124.89839,49.68913],[-124.89833,49.69294],[-124.89599,49.69311],[-124.89261,49.69112],[-124.89264,49.68909],[-124.88972,49.68907],[-124.88973,49.68816],[-124.888,49.68743],[-124.89132,49.68168],[-124.88815,49.6791],[-124.89031,49.68012],[-124.88929,49.67772],[-124.89159,49.68078],[-124.89349,49.68173],[-124.89395,49.68431],[-124.89717,49.68783],[-124.8984,49.68784],[-124.89845,49.68534],[-124.90418,49.68541],[-124.90396,49.68927],[-124.90956,49.68936],[-124.90952,49.69315],[-124.9122,49.69518],[-124.91227,49.69698],[-124.89813,49.6968],[-124.89832,49.69299],[-124.90284,49.69306],[-124.90284,49.68924]]]}},
{"type":"Feature","properties":{"name":"HAMLING LAKES WILDLIFE MANAGEMENT AREA"},"geometry":{"type":"Polygon","coordinates":[[[-117.56118,50.22766],[-117.56126,50.2347],[-117.58217,50.23459],[-117.58215,50.23245],[-117.59131,50.23459],[-117.59564,50.23298],[-117.6014,50.23287],[-117.60313,50.23338],[-117.60014,50.23695],[-117.6056,50.23787],[-117.60556,50.23702],[-117.60762,50.23565],[-117.61224,50.23588],[-117.61584,50.23727],[-117.61688,50.23631],[-117.62775,50.23636],[-117.63458,50.23812],[-117.64156,50.24154],[-117.65034,50.24247],[-117.65877,50.24233],[-117.66185,50.24452],[-117.65956,50.24708],[-117.65998,50.24803],[-117.6618,50.24835],[-117.65991,50.25301],[-117.65702,50.25322],[-117.65511,50.2557],[-117.64589,50.26166],[-117.64363,50.26683],[-117.63998,50.26911],[-117.63646,50.26935],[-117.6358,50.27009],[-117.63569,50.27372],[-117.63693,50.27728],[-117.63885,50.27883],[-117.64019,50.28378],[-117.63951,50.28907],[-117.64222,50.29583],[-117.64374,50.29726],[-117.6436,50.29904],[-117.64503,50.2997],[-117.64377,50.30651],[-117.62469,50.30923],[-117.59417,50.32635],[-117.5456,50.33232],[-117.49714,50.36804],[-117.49533,50.40484],[-117.5161,50.42543],[-117.50028,50.42707],[-117.49327,50.42964],[-117.49152,50.43093],[-117.49228,50.43632],[-117.48988,50.44263],[-117.49095,50.44352],[-117.48859,50.44547],[-117.48245,50.442],[-117.47761,50.43761],[-117.47561,50.43753],[-117.4685,50.43407],[-117.4679,50.4312],[-117.45537,50.42507],[-117.45247,50.42488],[-117.45191,50.42418],[-117.45036,50.42488],[-117.44408,50.42351],[-117.43921,50.42346],[-117.43504,50.42225],[-117.43247,50.42257],[-117.42926,50.42127],[-117.42334,50.42054],[-117.41778,50.4215],[-117.415,50.42558],[-117.41121,50.42402],[-117.40956,50.42194],[-117.40552,50.41995],[-117.40027,50.41932],[-117.39946,50.41865],[-117.39765,50.41928],[-117.39195,50.41704],[-117.38117,50.41135],[-117.37687,50.40701],[-117.37438,50.4066],[-117.37066,50.40732],[-117.36466,50.4067],[-117.36301,50.4034],[-117.36278,50.39993],[-117.35937,50.39626],[-117.3596,50.39442],[-117.36202,50.39061],[-117.36682,50.38707],[-117.36918,50.38242],[-117.37486,50.37941],[-117.3745,50.37596],[-117.37669,50.37127],[-117.37464,50.36853],[-117.37616,50.36306],[-117.37546,50.35887],[-117.38152,50.35591],[-117.39084,50.35574],[-117.39996,50.35263],[-117.39904,50.34734],[-117.39509,50.34311],[-117.39034,50.34044],[-117.38594,50.33914],[-117.38421,50.33734],[-117.38462,50.33622],[-117.37921,50.33348],[-117.37713,50.33096],[-117.36943,50.3295],[-117.36651,50.32543],[-117.36089,50.32349],[-117.3638,50.32036],[-117.36354,50.31717],[-117.36477,50.31462],[-117.36405,50.31211],[-117.36585,50.3081],[-117.3672,50.29893],[-117.3684,50.29733],[-117.36783,50.2948],[-117.36974,50.2926],[-117.36824,50.2895],[-117.37235,50.28474],[-117.36909,50.27834],[-117.3694,50.2732],[-117.36449,50.26903],[-117.36334,50.26468],[-117.36686,50.26116],[-117.373,50.25918],[-117.37805,50.25933],[-117.38593,50.26244],[-117.39853,50.26295],[-117.40416,50.26392],[-117.40916,50.26696],[-117.41018,50.27087],[-117.41835,50.2681],[-117.42077,50.26453],[-117.42328,50.26273],[-117.43128,50.26227],[-117.43081,50.25975],[-117.43491,50.25637],[-117.43535,50.25311],[-117.44196,50.25064],[-117.4433,50.2472],[-117.44272,50.24417],[-117.4445,50.24148],[-117.45136,50.24057],[-117.45258,50.23913],[-117.45192,50.23846],[-117.45329,50.23641],[-117.45389,50.22913],[-117.4486,50.22309],[-117.44868,50.22162],[-117.44678,50.22037],[-117.44559,50.21675],[-117.44377,50.21504],[-117.44648,50.20882],[-117.4433,50.2054],[-117.44693,50.2033],[-117.44939,50.20354],[-117.45818,50.20674],[-117.46658,50.21108],[-117.47119,50.20933],[-117.48418,50.2092],[-117.49463,50.19726],[-117.50072,50.20393],[-117.50335,50.20255],[-117.50135,50.19875],[-117.50008,50.20019],[-117.49819,50.20006],[-117.49817,50.19869],[-117.50226,50.19703],[-117.506,50.19956],[-117.5051,50.20114],[-117.50669,50.20104],[-117.50747,50.20232],[-117.51012,50.20212],[-117.51268,50.20341],[-117.51541,50.20824],[-117.51891,50.21054],[-117.52469,50.2126],[-117.52622,50.21417],[-117.53242,50.21413],[-117.53954,50.21711],[-117.54167,50.21688],[-117.5449,50.22091],[-117.5472,50.22125],[-117.5491,50.22397],[-117.5561,50.22572],[-117.56118,50.22766]]]}},
{"type":"Feature","properties":{"name":"MCTAGGART-COWAN/NSEK'INIW'T WILDLIFE MANAGEMENT AR"},"geometry":{"type":"Polygon","coordinates":[[[-119.51522,49.47472],[-119.50732,49.47465],[-119.5062,49.47373],[-119.50959,49.47095],[-119.50673,49.47057],[-119.50502,49.46844],[-119.50254,49.46807],[-119.50097,49.46683],[-119.49842,49.46757],[-119.49782,49.46677],[-119.49133,49.46527],[-119.48531,49.46281],[-119.48122,49.46298],[-119.47975,49.46195],[-119.4762,49.46231],[-119.47393,49.46151],[-119.46808,49.46131],[-119.46718,49.46203],[-119.46461,49.46117],[-119.46198,49.46249],[-119.46192,49.45755],[-119.45079,49.45762],[-119.45073,49.45971],[-119.44405,49.46073],[-119.43683,49.46027],[-119.43355,49.45956],[-119.43166,49.45824],[-119.43169,49.45758],[-119.43409,49.4576],[-119.43418,49.45539],[-119.44217,49.45776],[-119.44853,49.45512],[-119.45395,49.45467],[-119.45655,49.45579],[-119.46324,49.45503],[-119.46213,49.45087],[-119.46292,49.44929],[-119.46831,49.44754],[-119.47639,49.4425],[-119.48032,49.44105],[-119.481,49.43995],[-119.48972,49.43628],[-119.48845,49.43558],[-119.48789,49.43275],[-119.48944,49.43001],[-119.48836,49.42799],[-119.49276,49.42294],[-119.48891,49.42003],[-119.47829,49.41892],[-119.47171,49.4171],[-119.46915,49.41445],[-119.47129,49.40873],[-119.4722,49.39809],[-119.49151,49.37906],[-119.49371,49.37572],[-119.49188,49.36942],[-119.49595,49.36193],[-119.49526,49.3595],[-119.49038,49.35606],[-119.49022,49.35412],[-119.4925,49.35361],[-119.49195,49.34873],[-119.49441,49.35],[-119.4965,49.34769],[-119.50257,49.34639],[-119.50715,49.34648],[-119.50712,49.34874],[-119.5182,49.34881],[-119.51825,49.35626],[-119.52919,49.35614],[-119.52926,49.35981],[-119.53471,49.35983],[-119.5339,49.38432],[-119.53929,49.38441],[-119.53898,49.39213],[-119.55015,49.39229],[-119.54938,49.3981],[-119.55355,49.3982],[-119.5537,49.40481],[-119.55734,49.40486],[-119.55849,49.40923],[-119.56524,49.41026],[-119.5672,49.40883],[-119.56705,49.40788],[-119.56768,49.40817],[-119.56872,49.41046],[-119.5728,49.41227],[-119.57342,49.41541],[-119.57326,49.41613],[-119.56269,49.41622],[-119.5625,49.42231],[-119.56816,49.42246],[-119.56815,49.42715],[-119.54,49.42743],[-119.54016,49.43467],[-119.52353,49.43482],[-119.52368,49.44206],[-119.54587,49.44185],[-119.54579,49.4382],[-119.55134,49.43815],[-119.55126,49.43453],[-119.55834,49.43446],[-119.55855,49.43539],[-119.55748,49.43965],[-119.55469,49.44305],[-119.55455,49.44615],[-119.5502,49.45447],[-119.54888,49.47503],[-119.53782,49.4749],[-119.53769,49.47852],[-119.51514,49.47831],[-119.51522,49.47472]]]}},
{"type":"Feature","properties":{"name":"QUATSE ESTUARY WILDLIFE MANAGEMENT AREA"},"geometry":{"type":"MultiPolygon","coordinates":[[[[-127.46945,50.70249],[-127.47067,50.70085],[-127.47466,50.69907],[-127.47902,50.69882],[-127.47975,50.69996],[-127.48135,50.69905],[-127.47973,50.70169],[-127.4853,50.70797],[-127.4759,50.70859],[-127.47309,50.70805],[-127.47293,50.70556],[-127.47033,50.70462],[-127.46945,50.70249]]],[[[-127.46876,50.70298],[-127.46966,50.70467],[-127.46755,50.70466],[-127.46754,50.70183],[-127.46876,50.70298]]],[[[-127.4675,50.69389],[-127.4687,50.69417],[-127.4692,50.69333],[-127.47304,50.69469],[-127.47305,50.69602],[-127.47055,50.69602],[-127.47028,50.69692],[-127.47128,50.69783],[-127.47306,50.69783],[-127.47359,50.69893],[-127.46993,50.70089],[-127.46905,50.70234],[-127.46753,50.70074],[-127.4675,50.69389]]],[[[-127.48352,50.69184],[-127.48568,50.6931],[-127.48202,50.69878],[-127.48203,50.69027],[-127.48549,50.69032],[-127.48352,50.69184]]],[[[-127.47828,50.69864],[-127.47627,50.69871],[-127.47755,50.69807],[-127.47828,50.69864]]],[[[-127.45334,50.69021],[-127.45602,50.69021],[-127.46734,50.69289],[-127.46633,50.69457],[-127.45347,50.69444],[-127.45334,50.69021]]],[[[-127.46797,50.69247],[-127.46749,50.69235],[-127.46798,50.69019],[-127.46797,50.69247]]],[[[-127.46706,50.69225],[-127.46582,50.69196],[-127.46543,50.69019],[-127.46656,50.69019],[-127.46706,50.69225]]]]}},
{"type":"Feature","properties":{"name":"PARKSVILLE-QUALICUM BEACH WILDLIFE MANAGEMENT AREA"},"geometry":{"type":"MultiPolygon","coordinates":[[[[-124.46695,49.36226],[-124.4584,49.35685],[-124.44728,49.3578],[-124.42428,49.36269],[-124.41671,49.36299],[-124.38666,49.3606],[-124.36187,49.3553],[-124.35759,49.35227],[-124.3604,49.34986],[-124.36051,49.35224],[-124.36468,49.35372],[-124.37012,49.35422],[-124.37258,49.35347],[-124.37824,49.35372],[-124.3933,49.35619],[-124.40207,49.35863],[-124.41676,49.36031],[-124.42668,49.35927],[-124.44757,49.35475],[-124.45763,49.35417],[-124.46347,49.35578],[-124.47878,49.3646],[-124.483,49.368],[-124.48589,49.36904],[-124.48919,49.36778],[-124.49826,49.36721],[-124.49966,49.36653],[-124.49696,49.36595],[-124.4935,49.36657],[-124.49273,49.36561],[-124.49521,49.36551],[-124.49078,49.36336],[-124.49436,49.3648],[-124.5028,49.36517],[-124.5044,49.36611],[-124.51194,49.36723],[-124.51894,49.36938],[-124.51896,49.37029],[-124.50914,49.36973],[-124.49263,49.37203],[-124.48359,49.37046],[-124.46695,49.36226]]],[[[-124.33857,49.27677],[-124.33954,49.27741],[-124.34041,49.27746],[-124.34087,49.27778],[-124.3427,49.2769],[-124.34714,49.27631],[-124.34828,49.27675],[-124.3489,49.27593],[-124.35262,49.27441],[-124.35307,49.27304],[-124.35415,49.27181],[-124.35751,49.27044],[-124.3585,49.26923],[-124.35935,49.2687],[-124.35915,49.26897],[-124.35855,49.26926],[-124.35808,49.27002],[-124.35755,49.27048],[-124.35648,49.27111],[-124.35419,49.27185],[-124.35377,49.27263],[-124.35314,49.27306],[-124.35308,49.27395],[-124.35293,49.27424],[-124.35267,49.27444],[-124.35182,49.27498],[-124.34895,49.27596],[-124.34849,49.27666],[-124.34832,49.27679],[-124.34793,49.27674],[-124.34715,49.27635],[-124.34613,49.27682],[-124.34535,49.27698],[-124.34271,49.27694],[-124.34178,49.2776],[-124.34114,49.27782],[-124.34058,49.27781],[-124.34038,49.2775],[-124.33987,49.27753],[-124.33987,49.2781],[-124.33744,49.27731],[-124.33615,49.27842],[-124.333,49.2781],[-124.33857,49.27677]]],[[[-124.31034,49.27959],[-124.31029,49.2771],[-124.3171,49.27436],[-124.31702,49.27207],[-124.32084,49.27177],[-124.3231,49.27046],[-124.32633,49.27168],[-124.32732,49.27139],[-124.32817,49.27015],[-124.32658,49.26828],[-124.32711,49.26683],[-124.32982,49.26511],[-124.33152,49.26682],[-124.33329,49.26662],[-124.334,49.26516],[-124.33574,49.26438],[-124.33552,49.26251],[-124.3406,49.26134],[-124.34286,49.25753],[-124.34656,49.25593],[-124.34716,49.25271],[-124.35049,49.2527],[-124.34735,49.25396],[-124.34736,49.25694],[-124.34479,49.25888],[-124.34453,49.26138],[-124.34261,49.26299],[-124.34129,49.26359],[-124.33819,49.26263],[-124.337,49.26315],[-124.33704,49.26483],[-124.33482,49.2657],[-124.33366,49.26739],[-124.32988,49.26808],[-124.3283,49.27221],[-124.32656,49.27294],[-124.32526,49.27241],[-124.32285,49.27401],[-124.31755,49.27479],[-124.31175,49.27772],[-124.30995,49.28079],[-124.31239,49.28078],[-124.3172,49.27925],[-124.32038,49.28],[-124.32447,49.27638],[-124.3257,49.27674],[-124.3259,49.27812],[-124.32743,49.27778],[-124.32807,49.27664],[-124.33283,49.27728],[-124.33284,49.27809],[-124.33172,49.27805],[-124.33173,49.27959],[-124.32891,49.27984],[-124.32766,49.27846],[-124.32548,49.27897],[-124.32432,49.27718],[-124.32086,49.28111],[-124.31714,49.27986],[-124.31048,49.28128],[-124.30945,49.28269],[-124.30656,49.2827],[-124.31034,49.27959]]],[[[-124.26513,49.29139],[-124.26359,49.29142],[-124.2638,49.29078],[-124.26628,49.28976],[-124.2705,49.28991],[-124.26975,49.28826],[-124.27538,49.28356],[-124.28011,49.28514],[-124.28084,49.28428],[-124.28263,49.28433],[-124.28255,49.28257],[-124.28405,49.28071],[-124.28645,49.28059],[-124.29315,49.27777],[-124.29281,49.27303],[-124.28816,49.27081],[-124.29181,49.27081],[-124.29456,49.27275],[-124.29541,49.27568],[-124.29768,49.27819],[-124.29521,49.27921],[-124.29212,49.27891],[-124.28993,49.27976],[-124.28842,49.28101],[-124.28857,49.28358],[-124.28337,49.28495],[-124.28025,49.28711],[-124.27717,49.28664],[-124.27661,49.28473],[-124.27437,49.28507],[-124.27363,49.28707],[-124.27462,49.28771],[-124.27267,49.28942],[-124.27249,49.29293],[-124.27037,49.29422],[-124.26774,49.29444],[-124.26526,49.29668],[-124.26513,49.29139]]],[[[-124.28541,49.31603],[-124.28501,49.31599],[-124.28548,49.31545],[-124.28541,49.31603]]],[[[-124.23784,49.30347],[-124.23884,49.30254],[-124.23813,49.30339],[-124.23943,49.30408],[-124.2404,49.30548],[-124.24706,49.30446],[-124.25174,49.30509],[-124.26072,49.31072],[-124.26303,49.31435],[-124.24952,49.31667],[-124.23903,49.30963],[-124.23754,49.30808],[-124.2408,49.30698],[-124.23784,49.30347]]],[[[-124.32394,49.33811],[-124.31206,49.33136],[-124.29497,49.3328],[-124.28346,49.33293],[-124.27428,49.33046],[-124.27553,49.32822],[-124.27947,49.32916],[-124.28485,49.3317],[-124.28997,49.33173],[-124.29257,49.33063],[-124.28925,49.33017],[-124.28903,49.33104],[-124.28678,49.33114],[-124.28682,49.3288],[-124.2846,49.32934],[-124.28314,49.32838],[-124.28605,49.32529],[-124.2872,49.32544],[-124.28707,49.32124],[-124.28483,49.3183],[-124.28492,49.31626],[-124.28511,49.31821],[-124.28786,49.32145],[-124.3048,49.32113],[-124.30335,49.32439],[-124.30452,49.32452],[-124.30495,49.32591],[-124.30628,49.3254],[-124.30608,49.32783],[-124.30287,49.32835],[-124.30293,49.32683],[-124.29819,49.32752],[-124.29642,49.32897],[-124.29701,49.32947],[-124.30012,49.3296],[-124.30683,49.32832],[-124.30928,49.32559],[-124.3145,49.32311],[-124.32005,49.3234],[-124.32326,49.32574],[-124.32955,49.33412],[-124.33357,49.33671],[-124.34159,49.34111],[-124.35724,49.34565],[-124.35745,49.34772],[-124.35284,49.34775],[-124.32394,49.33811]]],[[[-124.3612,49.34948],[-124.36186,49.34898],[-124.36313,49.34891],[-124.3612,49.34948]]]]}},
{"type":"Feature","properties":{"name":"DEWDROP-ROSSEAU WILDLIFE MANAGEMENT AREA"},"geometry":{"type":"Polygon","coordinates":[[[-120.66738,50.75751],[-120.6762,50.75749],[-120.68252,50.75911],[-120.68776,50.75909],[-120.69137,50.76119],[-120.69488,50.76485],[-120.70004,50.76724],[-120.70137,50.76983],[-120.70464,50.7726],[-120.70775,50.7742],[-120.7153,50.77548],[-120.71529,50.781],[-120.72199,50.78126],[-120.72534,50.78305],[-120.72628,50.78525],[-120.72859,50.78639],[-120.73005,50.78852],[-120.73574,50.79037],[-120.73496,50.79495],[-120.74142,50.8013],[-120.74985,50.80085],[-120.74987,50.82336],[-120.70424,50.82247],[-120.70455,50.81614],[-120.69278,50.81591],[-120.69316,50.80806],[-120.65853,50.80737],[-120.65921,50.79392],[-120.62982,50.79332],[-120.63007,50.78826],[-120.60575,50.78776],[-120.60598,50.78324],[-120.58817,50.78287],[-120.58859,50.75545],[-120.58729,50.75462],[-120.57705,50.75463],[-120.57706,50.73573],[-120.59508,50.73673],[-120.59717,50.73794],[-120.60246,50.73809],[-120.61977,50.74213],[-120.62762,50.74261],[-120.63477,50.74515],[-120.63477,50.74658],[-120.62322,50.7466],[-120.62323,50.75024],[-120.64811,50.75021],[-120.65557,50.75293],[-120.6579,50.75268],[-120.66484,50.75436],[-120.66738,50.75751]]]}},
{"type":"Feature","properties":{"name":"SOUTH OKANAGAN WILDLIFE MANAGEMENT AREA"},"geometry":{"type":"MultiPolygon","coordinates":[[[[-119.55237,49.1098],[-119.55164,49.10837],[-119.54887,49.10596],[-119.54945,49.10334],[-119.5455,49.09958],[-119.54207,49.10024],[-119.53421,49.0957],[-119.52651,49.0957],[-119.52175,49.09067],[-119.52131,49.0798],[-119.51592,49.07798],[-119.51247,49.07505],[-119.51756,49.07599],[-119.52342,49.07598],[-119.52577,49.07931],[-119.52592,49.07814],[-119.52819,49.07801],[-119.52808,49.0791],[-119.52993,49.07831],[-119.52987,49.07977],[-119.53109,49.07778],[-119.5337,49.07865],[-119.53276,49.08013],[-119.5337,49.08102],[-119.5317,49.08082],[-119.5321,49.08205],[-119.53075,49.08421],[-119.52878,49.08384],[-119.52271,49.0793],[-119.5221,49.07968],[-119.52393,49.08105],[-119.52184,49.08214],[-119.52361,49.08345],[-119.52565,49.08238],[-119.54622,49.098],[-119.55618,49.10624],[-119.55575,49.10717],[-119.55401,49.10746],[-119.5564,49.10835],[-119.55493,49.10937],[-119.55886,49.11003],[-119.55936,49.10905],[-119.55924,49.11022],[-119.55162,49.11027],[-119.55237,49.1098]]],[[[-119.5886,49.11955],[-119.58529,49.11748],[-119.58551,49.11604],[-119.58369,49.1151],[-119.58166,49.11526],[-119.57886,49.11084],[-119.57355,49.10772],[-119.56459,49.09576],[-119.5707,49.09576],[-119.5707,49.103],[-119.58224,49.10289],[-119.58186,49.11395],[-119.58747,49.11399],[-119.58741,49.11755],[-119.59298,49.11754],[-119.59269,49.12128],[-119.58792,49.12285],[-119.58971,49.12082],[-119.5886,49.11955]]],[[[-119.56896,49.22877],[-119.56357,49.22874],[-119.56358,49.22998],[-119.55586,49.22997],[-119.56244,49.22365],[-119.56419,49.22444],[-119.56538,49.22336],[-119.56363,49.22251],[-119.56477,49.22135],[-119.5649,49.21912],[-119.5706,49.21902],[-119.57055,49.23],[-119.56938,49.23],[-119.56896,49.22877]]],[[[-119.5573,49.19408],[-119.55677,49.19283],[-119.56016,49.19106],[-119.55904,49.18842],[-119.56161,49.18634],[-119.55952,49.18523],[-119.56,49.18485],[-119.56236,49.18648],[-119.56312,49.18931],[-119.56193,49.1895],[-119.56364,49.19042],[-119.56994,49.18722],[-119.57378,49.19045],[-119.56802,49.19351],[-119.56555,49.19351],[-119.56555,49.19849],[-119.56381,49.19845],[-119.56149,49.19313],[-119.5573,49.19408]]],[[[-119.53884,49.09153],[-119.53857,49.08926],[-119.54003,49.08921],[-119.54075,49.09092],[-119.54157,49.09081],[-119.54129,49.08935],[-119.54467,49.09094],[-119.54638,49.0908],[-119.54459,49.09342],[-119.54633,49.09392],[-119.54773,49.09289],[-119.548,49.09398],[-119.55,49.09461],[-119.55047,49.09634],[-119.55278,49.09631],[-119.55438,49.09723],[-119.55508,49.09869],[-119.55202,49.09869],[-119.55563,49.10037],[-119.55531,49.10123],[-119.55644,49.10196],[-119.55611,49.10355],[-119.55515,49.10384],[-119.55774,49.10456],[-119.55608,49.10502],[-119.53884,49.09153]]],[[[-119.55938,49.21201],[-119.55946,49.20921],[-119.56044,49.2092],[-119.56048,49.20168],[-119.56367,49.20133],[-119.56361,49.20252],[-119.56521,49.20254],[-119.56523,49.2081],[-119.57071,49.20809],[-119.57072,49.21174],[-119.5649,49.21174],[-119.56491,49.21339],[-119.56062,49.21349],[-119.56062,49.212],[-119.55938,49.21201]]],[[[-119.53721,49.23879],[-119.54016,49.23893],[-119.54565,49.23753],[-119.55019,49.23853],[-119.55024,49.23559],[-119.55384,49.23391],[-119.55479,49.23572],[-119.55379,49.23792],[-119.55586,49.2401],[-119.55346,49.24085],[-119.5372,49.24072],[-119.53721,49.23879]]],[[[-119.59061,49.18231],[-119.58762,49.18244],[-119.58768,49.18307],[-119.58469,49.18177],[-119.58559,49.1797],[-119.58633,49.18175],[-119.58907,49.18175],[-119.58938,49.17993],[-119.59147,49.17861],[-119.59093,49.17772],[-119.58729,49.17671],[-119.58804,49.17564],[-119.59151,49.17563],[-119.59155,49.17668],[-119.59724,49.17662],[-119.59553,49.17928],[-119.59653,49.181],[-119.59544,49.18353],[-119.59061,49.18231]]],[[[-119.54486,49.22692],[-119.54369,49.22488],[-119.54565,49.21826],[-119.54575,49.21552],[-119.54389,49.21275],[-119.54404,49.20948],[-119.54511,49.20945],[-119.54738,49.21707],[-119.54532,49.22257],[-119.5454,49.2233],[-119.54722,49.22385],[-119.54707,49.22456],[-119.54522,49.22465],[-119.54679,49.22748],[-119.54327,49.22798],[-119.54063,49.23128],[-119.54071,49.23255],[-119.53749,49.23476],[-119.5372,49.23681],[-119.53721,49.23341],[-119.54257,49.22738],[-119.54486,49.22692]],[[-119.54484,49.22604],[-119.54482,49.22612],[-119.54493,49.22607],[-119.54484,49.22604]],[[-119.54516,49.22623],[-119.54511,49.2267],[-119.54566,49.22624],[-119.5448,49.22564],[-119.54516,49.22623]]],[[[-119.56075,49.12086],[-119.56342,49.13192],[-119.56147,49.13194],[-119.56143,49.1286],[-119.55474,49.11759],[-119.56075,49.12086]]],[[[-119.55515,49.23588],[-119.55401,49.23372],[-119.5561,49.23269],[-119.55966,49.23535],[-119.55817,49.23594],[-119.55876,49.23722],[-119.56495,49.23729],[-119.55831,49.23782],[-119.55654,49.2398],[-119.55417,49.23794],[-119.55515,49.23588]]],[[[-119.54554,49.22952],[-119.54687,49.23019],[-119.54747,49.22921],[-119.54916,49.22896],[-119.54984,49.2266],[-119.55245,49.22662],[-119.55465,49.2257],[-119.5543,49.22511],[-119.55072,49.22497],[-119.55059,49.22462],[-119.55232,49.22287],[-119.55386,49.22261],[-119.55342,49.22085],[-119.55165,49.22038],[-119.55146,49.21941],[-119.55607,49.21569],[-119.55349,49.2135],[-119.55466,49.21182],[-119.55272,49.21193],[-119.55132,49.21068],[-119.5517,49.20985],[-119.55331,49.20973],[-119.55209,49.20789],[-119.55271,49.20726],[-119.551,49.207],[-119.55179,49.20571],[-119.55126,49.20523],[-119.54992,49.20575],[-119.54836,49.20519],[-119.54989,49.20552],[-119.54994,49.20424],[-119.55188,49.20531],[-119.55229,49.2062],[-119.55162,49.20685],[-119.5532,49.20717],[-119.55264,49.20807],[-119.55379,49.21012],[-119.55209,49.21045],[-119.55302,49.2115],[-119.55419,49.21118],[-119.55497,49.21166],[-119.55522,49.2129],[-119.55415,49.21277],[-119.55399,49.21366],[-119.55654,49.21566],[-119.55557,49.21702],[-119.55188,49.21968],[-119.55414,49.22079],[-119.55424,49.2234],[-119.55287,49.22293],[-119.55111,49.22425],[-119.55173,49.22478],[-119.55398,49.22406],[-119.55505,49.22582],[-119.55453,49.22673],[-119.55064,49.22691],[-119.55011,49.22906],[-119.54798,49.22949],[-119.54742,49.23057],[-119.54572,49.23026],[-119.54554,49.22952]]],[[[-119.50946,49.04034],[-119.50947,49.03724],[-119.51524,49.03736],[-119.51525,49.04051],[-119.50946,49.04034]]],[[[-119.59898,49.14001],[-119.5885,49.14079],[-119.5871,49.14083],[-119.58663,49.13994],[-119.59942,49.13923],[-119.59898,49.14001]]],[[[-119.48879,49.03955],[-119.48859,49.03798],[-119.4869,49.03715],[-119.4884,49.03668],[-119.49492,49.04087],[-119.49375,49.0417],[-119.49075,49.0396],[-119.48879,49.03955]]],[[[-119.54629,49.31039],[-119.54266,49.30326],[-119.54366,49.30305],[-119.54806,49.31108],[-119.54629,49.31039]]],[[[-119.58592,49.1683],[-119.58579,49.1692],[-119.58872,49.17095],[-119.58605,49.17096],[-119.58413,49.16982],[-119.58475,49.16854],[-119.58592,49.1683]]],[[[-119.57164,49.11676],[-119.56729,49.11428],[-119.56765,49.1135],[-119.56889,49.11341],[-119.56892,49.11287],[-119.56557,49.11198],[-119.56425,49.1101],[-119.56377,49.11184],[-119.56302,49.11092],[-119.56395,49.10994],[-119.56528,49.11019],[-119.56566,49.11178],[-119.56738,49.11177],[-119.56944,49.113],[-119.56917,49.11348],[-119.56747,49.11403],[-119.57182,49.11654],[-119.57147,49.11724],[-119.56975,49.11771],[-119.57164,49.11676]]],[[[-119.54488,49.16982],[-119.54672,49.17159],[-119.54319,49.17201],[-119.54331,49.16986],[-119.54488,49.16982]]],[[[-119.59136,49.12767],[-119.59284,49.12767],[-119.59288,49.13209],[-119.59142,49.13005],[-119.59136,49.12767]]],[[[-119.59695,49.14965],[-119.58819,49.14927],[-119.59703,49.14928],[-119.60018,49.15027],[-119.59695,49.14965]]],[[[-119.5898,49.14458],[-119.59578,49.14457],[-119.59086,49.14612],[-119.5915,49.14672],[-119.58979,49.14643],[-119.59058,49.14508],[-119.5898,49.14458]]],[[[-119.54971,49.16021],[-119.55163,49.15822],[-119.55366,49.15805],[-119.55711,49.1556],[-119.55619,49.15475],[-119.55822,49.15385],[-119.55649,49.15482],[-119.55746,49.15531],[-119.55721,49.15601],[-119.55374,49.15838],[-119.55186,49.15834],[-119.5501,49.16026],[-119.54749,49.16006],[-119.54971,49.16021]]],[[[-119.56898,49.12481],[-119.56875,49.12382],[-119.57033,49.12359],[-119.57229,49.12574],[-119.57092,49.12602],[-119.57032,49.12487],[-119.56898,49.12481]]],[[[-119.57478,49.13196],[-119.57585,49.12863],[-119.57623,49.12999],[-119.57576,49.13192],[-119.57478,49.13196]]],[[[-119.55965,49.15356],[-119.56145,49.15302],[-119.56423,49.15302],[-119.56149,49.15154],[-119.56072,49.15064],[-119.56149,49.15031],[-119.56181,49.15154],[-119.56434,49.15226],[-119.56475,49.15296],[-119.56369,49.15359],[-119.56151,49.15327],[-119.56041,49.15393],[-119.55965,49.15356]]],[[[-119.54454,49.16147],[-119.54403,49.16055],[-119.54636,49.15969],[-119.54454,49.16147]]],[[[-119.555,49.09189],[-119.55597,49.09238],[-119.55372,49.09263],[-119.55297,49.09041],[-119.555,49.09189]]],[[[-119.58703,49.14083],[-119.5841,49.14088],[-119.58365,49.14028],[-119.58656,49.13995],[-119.58703,49.14083]]],[[[-119.55074,49.3144],[-119.55524,49.31683],[-119.55031,49.31452],[-119.54952,49.31323],[-119.55074,49.3144]]],[[[-119.58427,49.14892],[-119.59129,49.14908],[-119.5882,49.14922],[-119.58427,49.14892]]],[[[-119.55027,49.20289],[-119.54801,49.20427],[-119.55091,49.20182],[-119.55041,49.20125],[-119.55184,49.20049],[-119.55027,49.20289]]],[[[-119.57743,49.13198],[-119.57892,49.13204],[-119.57926,49.13275],[-119.5786,49.13403],[-119.57617,49.13488],[-119.57821,49.13385],[-119.57873,49.13237],[-119.57743,49.13198]]],[[[-119.58905,49.13911],[-119.59281,49.13921],[-119.58659,49.13985],[-119.58905,49.13911]]],[[[-119.53529,49.30284],[-119.53611,49.30246],[-119.53684,49.30283],[-119.53663,49.30371],[-119.53623,49.30313],[-119.53527,49.30316],[-119.53529,49.30284]]],[[[-119.57003,49.1429],[-119.56997,49.14232],[-119.57146,49.1418],[-119.57003,49.1429]]],[[[-119.54689,49.31114],[-119.54944,49.31282],[-119.54952,49.31323],[-119.54689,49.31114]]],[[[-119.54673,49.30743],[-119.54578,49.30608],[-119.5467,49.30577],[-119.54673,49.30743]]],[[[-119.57168,49.14159],[-119.57107,49.14117],[-119.57238,49.14088],[-119.57168,49.14159]]],[[[-119.56886,49.1459],[-119.56796,49.14639],[-119.56847,49.14595],[-119.56826,49.14535],[-119.56886,49.1459]]],[[[-119.54985,49.31208],[-119.54985,49.31249],[-119.54889,49.31182],[-119.54807,49.3111],[-119.54985,49.31208]]],[[[-119.55314,49.19729],[-119.55324,49.19787],[-119.55289,49.19648],[-119.55314,49.19729]]],[[[-119.5747,49.13954],[-119.57505,49.13996],[-119.57462,49.13991],[-119.5747,49.13954]]]]}},
{"type":"Feature","properties":{"name":"TODAGIN WILDLIFE MANAGEMENT AREA"},"geometry":{"type":"MultiPolygon","coordinates":[[[[-129.47574,57.60315],[-129.47373,57.58118],[-129.48903,57.53321],[-129.47161,57.52222],[-129.4658,57.47657],[-129.47296,57.46228],[-129.4775,57.42809],[-129.49052,57.38806],[-129.49854,57.38448],[-129.52397,57.37939],[-129.532,57.38082],[-129.54879,57.38096],[-129.55279,57.38401],[-129.5555,57.38302],[-129.55662,57.38393],[-129.55924,57.3839],[-129.56175,57.38479],[-129.56443,57.38373],[-129.56748,57.38493],[-129.57303,57.38401],[-129.57453,57.38513],[-129.57634,57.38402],[-129.58437,57.38326],[-129.5882,57.38376],[-129.60131,57.38281],[-129.61219,57.3852],[-129.61533,57.38371],[-129.617,57.38426],[-129.61907,57.38382],[-129.62507,57.38562],[-129.62904,57.38497],[-129.63739,57.38592],[-129.63894,57.38508],[-129.64041,57.3858],[-129.64324,57.38546],[-129.64474,57.386],[-129.64682,57.38332],[-129.65037,57.38339],[-129.65363,57.38224],[-129.65563,57.38277],[-129.65725,57.38204],[-129.66173,57.38254],[-129.67116,57.38179],[-129.67285,57.38036],[-129.67582,57.38068],[-129.68315,57.37952],[-129.68533,57.3777],[-129.69123,57.3758],[-129.69102,57.37451],[-129.69283,57.3737],[-129.69918,57.37362],[-129.70708,57.37177],[-129.71162,57.37188],[-129.71162,57.37068],[-129.71478,57.36843],[-129.72753,57.36561],[-129.73076,57.36348],[-129.74134,57.36644],[-129.74582,57.36654],[-129.75008,57.3684],[-129.75303,57.36808],[-129.76057,57.36894],[-129.76354,57.37065],[-129.77172,57.37024],[-129.7794,57.37261],[-129.78439,57.3728],[-129.7867,57.37368],[-129.78769,57.37601],[-129.7914,57.3779],[-129.80444,57.38318],[-129.81077,57.38489],[-129.81701,57.38915],[-129.8213,57.39036],[-129.84591,57.39348],[-129.85596,57.39145],[-129.8821,57.39084],[-129.88759,57.38881],[-129.89111,57.38836],[-129.89834,57.38528],[-129.9084,57.38648],[-129.91323,57.39009],[-129.91489,57.39414],[-129.92164,57.39826],[-129.93049,57.39885],[-129.93261,57.39805],[-129.93781,57.39871],[-129.94301,57.40105],[-129.94854,57.40189],[-129.95027,57.40312],[-129.95376,57.40318],[-129.95941,57.40454],[-129.96297,57.40408],[-129.96533,57.40506],[-129.96803,57.40469],[-129.97197,57.40565],[-129.98366,57.40661],[-129.98742,57.40824],[-129.99165,57.40885],[-129.99723,57.41151],[-130.00355,57.41266],[-130.01731,57.41933],[-130.02059,57.41997],[-130.0236,57.41949],[-130.02669,57.42033],[-130.0293,57.42001],[-130.03397,57.42226],[-130.03401,57.42366],[-130.03824,57.42419],[-130.04513,57.42831],[-130.04843,57.4282],[-130.05619,57.43112],[-130.06067,57.4305],[-130.06156,57.43138],[-130.06752,57.43017],[-130.07163,57.4318],[-130.0749,57.43124],[-130.07743,57.43173],[-130.08327,57.43388],[-130.09213,57.43312],[-130.10381,57.43341],[-130.1084,57.43134],[-130.12242,57.4315],[-130.12656,57.43274],[-130.12752,57.43431],[-130.16287,57.44633],[-130.18221,57.47237],[-130.14827,57.49971],[-130.14667,57.51656],[-130.06571,57.58708],[-130.0655,57.58959],[-130.07588,57.60447],[-130.07926,57.61347],[-130.07254,57.62348],[-130.06525,57.62492],[-130.05806,57.62767],[-130.05595,57.62936],[-130.05757,57.64584],[-130.05684,57.64898],[-130.04719,57.65539],[-130.04396,57.66138],[-130.03361,57.67016],[-130.02755,57.68776],[-130.01763,57.69831],[-129.99128,57.71069],[-129.98994,57.70986],[-129.989,57.7103],[-129.99046,57.71117],[-129.9896,57.71213],[-129.98607,57.71154],[-129.98329,57.71691],[-129.98196,57.7171],[-129.97908,57.71585],[-129.97563,57.71608],[-129.97452,57.71743],[-129.97372,57.71707],[-129.97195,57.71853],[-129.96546,57.72069],[-129.96605,57.72145],[-129.96452,57.72186],[-129.96294,57.72134],[-129.96274,57.72267],[-129.95835,57.7242],[-129.95811,57.72527],[-129.95504,57.7254],[-129.95291,57.72634],[-129.95053,57.72575],[-129.94756,57.72647],[-129.94966,57.72826],[-129.94679,57.72918],[-129.94696,57.73043],[-129.9428,57.73008],[-129.94109,57.73145],[-129.94042,57.73089],[-129.93583,57.73121],[-129.936,57.73188],[-129.93295,57.73218],[-129.93166,57.73474],[-129.92885,57.73462],[-129.92835,57.73567],[-129.90581,57.73614],[-129.906,57.74376],[-129.87402,57.74398],[-129.87347,57.72131],[-129.89078,57.72119],[-129.89142,57.70195],[-129.89714,57.68385],[-129.89519,57.66624],[-129.8533,57.66653],[-129.85337,57.6696],[-129.83652,57.66971],[-129.83677,57.68041],[-129.78806,57.68072],[-129.78813,57.68396],[-129.75196,57.68418],[-129.75216,57.69395],[-129.71003,57.69419],[-129.71037,57.71148],[-129.69152,57.71159],[-129.69164,57.71765],[-129.61303,57.67925],[-129.59747,57.66401],[-129.57723,57.64836],[-129.56214,57.64468],[-129.55195,57.64795],[-129.53585,57.64802],[-129.52503,57.64309],[-129.47574,57.60315]],[[-130.05965,57.59926],[-130.05344,57.59807],[-130.05337,57.60802],[-130.07466,57.60806],[-130.07099,57.60624],[-130.07009,57.60435],[-130.06724,57.6028],[-130.0646,57.60301],[-130.06098,57.60164],[-130.05965,57.59926]],[[-129.92854,57.60397],[-129.92168,57.60436],[-129.9198,57.60387],[-129.91395,57.60645],[-129.90785,57.6069],[-129.90484,57.60841],[-129.90207,57.60815],[-129.89903,57.60667],[-129.89625,57.60783],[-129.89474,57.6064],[-129.89205,57.60588],[-129.8914,57.60786],[-129.88665,57.60953],[-129.88706,57.61121],[-129.87633,57.61018],[-129.87272,57.61159],[-129.86966,57.61525],[-129.86694,57.6163],[-129.86504,57.61909],[-129.86167,57.62027],[-129.86163,57.62126],[-129.85815,57.62158],[-129.85759,57.62272],[-129.85339,57.62407],[-129.8546,57.62483],[-129.85416,57.62606],[-129.85172,57.6264],[-129.84971,57.6256],[-129.84966,57.62712],[-129.84727,57.62745],[-129.84765,57.62833],[-129.84296,57.62897],[-129.84289,57.62986],[-129.83951,57.63044],[-129.83859,57.6314],[-129.83604,57.63109],[-129.8187,57.63589],[-129.81456,57.63592],[-129.81294,57.63763],[-129.81328,57.64027],[-129.81475,57.64135],[-129.80997,57.64411],[-129.80615,57.64936],[-129.80722,57.65005],[-129.80394,57.66622],[-129.80628,57.66676],[-129.81168,57.66419],[-129.81783,57.66417],[-129.82654,57.6626],[-129.83346,57.66482],[-129.83556,57.66472],[-129.8383,57.66173],[-129.83926,57.6532],[-129.84247,57.64906],[-129.85805,57.64712],[-129.87206,57.64284],[-129.88197,57.63731],[-129.89042,57.62911],[-129.91086,57.62395],[-130.00929,57.60782],[-130.01466,57.61158],[-130.05393,57.62338],[-130.04731,57.61273],[-130.04476,57.59879],[-130.03772,57.595],[-130.04499,57.59192],[-130.04528,57.59069],[-130.04208,57.59035],[-130.0381,57.58821],[-130.03046,57.58871],[-130.02831,57.58772],[-130.02618,57.58854],[-130.02191,57.58858],[-130.01736,57.58778],[-130.01476,57.58609],[-130.01109,57.58578],[-130.00981,57.58619],[-130.01103,57.58793],[-130.00929,57.58715],[-130.00608,57.58712],[-130.00374,57.5886],[-129.99935,57.58858],[-129.99919,57.59013],[-129.99455,57.58986],[-129.99182,57.59256],[-129.98989,57.59117],[-129.98578,57.59366],[-129.98262,57.59366],[-129.97732,57.59622],[-129.97412,57.5961],[-129.9699,57.59722],[-129.96734,57.59684],[-129.9609,57.60001],[-129.95487,57.60027],[-129.95641,57.60125],[-129.95349,57.60217],[-129.95192,57.60157],[-129.95188,57.60055],[-129.94353,57.60001],[-129.92854,57.60397]]],[[[-129.8314,57.76863],[-129.82384,57.76989],[-129.81112,57.7753],[-129.79729,57.77706],[-129.79314,57.77899],[-129.78641,57.77918],[-129.78343,57.78055],[-129.7816,57.78302],[-129.77648,57.78441],[-129.77332,57.78826],[-129.77125,57.78851],[-129.7644,57.79233],[-129.7611,57.79523],[-129.75781,57.79538],[-129.75742,57.79686],[-129.75999,57.79749],[-129.75814,57.79913],[-129.75913,57.79992],[-129.75671,57.80165],[-129.75086,57.80333],[-129.74784,57.80385],[-129.73862,57.80321],[-129.73726,57.80394],[-129.72858,57.8018],[-129.72454,57.80407],[-129.72219,57.80377],[-129.7225,57.80647],[-129.71393,57.80759],[-129.70466,57.80168],[-129.72879,57.78228],[-129.73943,57.76039],[-129.73874,57.75899],[-129.77754,57.75876],[-129.77725,57.74507],[-129.77248,57.7451],[-129.77239,57.74083],[-129.77556,57.74081],[-129.77544,57.7352],[-129.84021,57.73479],[-129.84042,57.74388],[-129.8567,57.74377],[-129.85691,57.75282],[-129.86817,57.75275],[-129.86823,57.75516],[-129.86095,57.75681],[-129.84497,57.76231],[-129.84355,57.76575],[-129.84078,57.7673],[-129.83306,57.76697],[-129.8314,57.76863]]]]}},
{"type":"Feature","properties":{"name":"EAST SIDE COLUMBIA LAKE WILDLIFE MANAGEMENT AREA"},"geometry":{"type":"MultiPolygon","coordinates":[[[[-115.78209,50.28124],[-115.78073,50.27928],[-115.78412,50.27778],[-115.78437,50.27505],[-115.78687,50.27372],[-115.78691,50.27238],[-115.79124,50.27079],[-115.79448,50.27046],[-115.79542,50.26951],[-115.79597,50.26809],[-115.79304,50.26422],[-115.79221,50.25997],[-115.79254,50.2592],[-115.79554,50.25893],[-115.79865,50.25701],[-115.79984,50.25426],[-115.80173,50.25307],[-115.80272,50.24753],[-115.7929,50.24115],[-115.78897,50.23099],[-115.78818,50.22421],[-115.78534,50.21987],[-115.78598,50.21838],[-115.78475,50.21624],[-115.7854,50.21495],[-115.78446,50.21054],[-115.78187,50.20434],[-115.78338,50.19928],[-115.78198,50.19642],[-115.78227,50.19455],[-115.77449,50.18665],[-115.77405,50.18125],[-115.77215,50.17969],[-115.76788,50.17851],[-115.76292,50.1756],[-115.75738,50.17507],[-115.75571,50.17386],[-115.76066,50.16805],[-115.79659,50.16812],[-115.79662,50.16088],[-115.80185,50.16096],[-115.80781,50.16532],[-115.8106,50.16561],[-115.81722,50.16431],[-115.81638,50.16254],[-115.82821,50.16023],[-115.82736,50.15844],[-115.82858,50.1582],[-115.82744,50.15574],[-115.83253,50.15477],[-115.84828,50.16623],[-115.85243,50.17525],[-115.81339,50.17486],[-115.81381,50.18616],[-115.81882,50.18621],[-115.81906,50.18892],[-115.82283,50.19202],[-115.82565,50.18984],[-115.82982,50.19191],[-115.83173,50.19492],[-115.8335,50.19563],[-115.83889,50.20136],[-115.83993,50.20443],[-115.84263,50.20651],[-115.84297,50.21002],[-115.84188,50.2132],[-115.84335,50.2188],[-115.8457,50.22012],[-115.84721,50.22415],[-115.84703,50.23262],[-115.84922,50.23413],[-115.85215,50.25041],[-115.85468,50.25513],[-115.85419,50.25816],[-115.85763,50.26128],[-115.85665,50.26304],[-115.85691,50.26726],[-115.84162,50.2673],[-115.84179,50.31443],[-115.77943,50.31439],[-115.77942,50.31212],[-115.78255,50.30946],[-115.78236,50.30552],[-115.779,50.30254],[-115.77771,50.29614],[-115.7759,50.29425],[-115.77655,50.29343],[-115.77373,50.29138],[-115.7805,50.28502],[-115.78209,50.28124]],[[-115.79775,50.18402],[-115.79408,50.18398],[-115.79401,50.18669],[-115.79768,50.18673],[-115.79775,50.18402]],[[-115.81739,50.19623],[-115.82372,50.20315],[-115.82691,50.20375],[-115.82804,50.20318],[-115.82838,50.20027],[-115.82132,50.19439],[-115.81739,50.19623]]],[[[-115.83873,50.15315],[-115.84227,50.16098],[-115.83287,50.15419],[-115.83873,50.15315]]],[[[-115.84913,50.29932],[-115.85117,50.297],[-115.85328,50.29657],[-115.85373,50.29461],[-115.85606,50.29377],[-115.85621,50.29459],[-115.85743,50.29436],[-115.85749,50.29113],[-115.8701,50.28923],[-115.86918,50.2906],[-115.8705,50.29064],[-115.86702,50.29507],[-115.86811,50.29884],[-115.86632,50.29749],[-115.86577,50.2992],[-115.86103,50.30138],[-115.86235,50.30388],[-115.86055,50.30398],[-115.85989,50.30477],[-115.86009,50.3085],[-115.85621,50.30853],[-115.85527,50.30795],[-115.8492,50.30056],[-115.84913,50.29932]]]]}},
{"type":"Feature","properties":{"name":"TOFINO MUDFLATS WILDLIFE MANAGEMENT AREA"},"geometry":{"type":"MultiPolygon","coordinates":[[[[-125.86319,49.13149],[-125.84066,49.12693],[-125.83407,49.12247],[-125.83559,49.12203],[-125.83634,49.12075],[-125.83518,49.11917],[-125.83733,49.11771],[-125.83559,49.11628],[-125.83369,49.1161],[-125.83471,49.1155],[-125.83453,49.11428],[-125.83197,49.11401],[-125.82746,49.11096],[-125.82414,49.11055],[-125.82165,49.10924],[-125.824,49.10933],[-125.82382,49.10669],[-125.8215,49.1057],[-125.82116,49.10625],[-125.8202,49.10591],[-125.8183,49.10316],[-125.8162,49.1023],[-125.82019,49.10314],[-125.82319,49.09842],[-125.82356,49.09946],[-125.82286,49.10177],[-125.82492,49.10265],[-125.82629,49.1021],[-125.82501,49.10101],[-125.8254,49.10022],[-125.82773,49.10125],[-125.82762,49.09944],[-125.83008,49.0997],[-125.83163,49.09851],[-125.83262,49.09904],[-125.83276,49.09735],[-125.83438,49.09867],[-125.8358,49.09804],[-125.83711,49.09863],[-125.83789,49.09756],[-125.83903,49.09922],[-125.83912,49.09731],[-125.84465,49.0973],[-125.84464,49.09369],[-125.84884,49.09367],[-125.84885,49.09673],[-125.85023,49.09731],[-125.85021,49.09367],[-125.85576,49.09367],[-125.85576,49.09885],[-125.85684,49.09891],[-125.85475,49.10017],[-125.85633,49.09982],[-125.85828,49.10042],[-125.85832,49.10135],[-125.85952,49.10131],[-125.85779,49.10236],[-125.85668,49.10088],[-125.85509,49.10134],[-125.85353,49.10087],[-125.8531,49.1018],[-125.86187,49.10666],[-125.86193,49.10818],[-125.87044,49.10862],[-125.867,49.10871],[-125.867,49.11182],[-125.87256,49.11182],[-125.87255,49.11448],[-125.87487,49.11408],[-125.87333,49.11306],[-125.87394,49.11255],[-125.8761,49.11328],[-125.8771,49.11259],[-125.87895,49.11313],[-125.87776,49.11328],[-125.87758,49.11434],[-125.88122,49.11767],[-125.88328,49.11866],[-125.88374,49.1179],[-125.88571,49.1185],[-125.88623,49.1218],[-125.88752,49.12244],[-125.88795,49.12448],[-125.88502,49.12328],[-125.88373,49.12511],[-125.88785,49.12512],[-125.88702,49.12704],[-125.88788,49.1281],[-125.88637,49.12814],[-125.88637,49.12877],[-125.89021,49.12877],[-125.89021,49.13239],[-125.88792,49.13225],[-125.87853,49.1377],[-125.86319,49.13149]],[[-125.84112,49.11322],[-125.84159,49.11315],[-125.84135,49.11291],[-125.84112,49.11322]],[[-125.84582,49.11232],[-125.84877,49.11405],[-125.84997,49.11159],[-125.84877,49.10996],[-125.85087,49.11143],[-125.85229,49.11142],[-125.85179,49.11291],[-125.85609,49.11374],[-125.8574,49.11339],[-125.85613,49.11027],[-125.85517,49.10993],[-125.85756,49.10832],[-125.8443,49.10832],[-125.8443,49.1047],[-125.83879,49.1047],[-125.83902,49.09948],[-125.83684,49.09974],[-125.83548,49.09896],[-125.83602,49.10081],[-125.83359,49.10123],[-125.83308,49.10211],[-125.83412,49.1054],[-125.83748,49.10729],[-125.83742,49.10891],[-125.84133,49.11072],[-125.84039,49.11244],[-125.84282,49.11256],[-125.84209,49.11434],[-125.84321,49.11438],[-125.84582,49.11232]]],[[[-125.86587,49.15062],[-125.86167,49.1483],[-125.8588,49.14924],[-125.85561,49.14749],[-125.85591,49.14331],[-125.85747,49.13995],[-125.85439,49.13807],[-125.85352,49.13477],[-125.87255,49.1491],[-125.87019,49.14954],[-125.86845,49.15084],[-125.86587,49.15062]]],[[[-125.86851,49.18503],[-125.86775,49.18362],[-125.8666,49.18392],[-125.86754,49.18156],[-125.86496,49.1799],[-125.86589,49.17707],[-125.86437,49.17627],[-125.86566,49.17297],[-125.86443,49.17139],[-125.86475,49.16797],[-125.86258,49.16478],[-125.86227,49.16154],[-125.85996,49.16025],[-125.86221,49.1577],[-125.86423,49.15685],[-125.86566,49.15834],[-125.86808,49.15842],[-125.86999,49.15946],[-125.87211,49.15804],[-125.87398,49.15862],[-125.87595,49.15789],[-125.87544,49.15879],[-125.88229,49.16617],[-125.88173,49.16771],[-125.88401,49.16802],[-125.88922,49.17373],[-125.88699,49.17718],[-125.86997,49.1852],[-125.87012,49.18449],[-125.86851,49.18503]]]]}},
{"type":"Feature","properties":{"name":"COLUMBIA WETLANDS WILDLIFE MANAGEMENT AREA"},"geometry":{"type":"MultiPolygon","coordinates":[[[[-116.07865,50.56702],[-116.07865,50.56831],[-116.08204,50.56831],[-116.08004,50.56703],[-116.08784,50.56712],[-116.08678,50.57348],[-116.07619,50.57337],[-116.07565,50.58143],[-116.08646,50.58155],[-116.08638,50.58456],[-116.0807,50.58455],[-116.08078,50.58817],[-116.0751,50.58815],[-116.07519,50.59177],[-116.06892,50.59179],[-116.06901,50.59276],[-116.06703,50.59359],[-116.06652,50.59592],[-116.06843,50.59748],[-116.07247,50.59867],[-116.07386,50.60028],[-116.07342,50.60546],[-116.07187,50.60594],[-116.06875,50.60495],[-116.06831,50.606],[-116.09221,50.60629],[-116.09215,50.61696],[-116.09684,50.61664],[-116.09762,50.61753],[-116.0967,50.6192],[-116.0973,50.62021],[-116.10458,50.62037],[-116.10633,50.6213],[-116.10777,50.62489],[-116.11058,50.62489],[-116.11856,50.63683],[-116.11603,50.63681],[-116.116,50.63826],[-116.11852,50.63955],[-116.11847,50.64405],[-116.12942,50.65999],[-116.12927,50.66556],[-116.13268,50.66559],[-116.14426,50.6803],[-116.16673,50.69554],[-116.15376,50.69525],[-116.15353,50.70804],[-116.15746,50.71264],[-116.16472,50.71455],[-116.16632,50.71722],[-116.17502,50.71722],[-116.17584,50.70301],[-116.18696,50.71021],[-116.19736,50.72528],[-116.20941,50.73898],[-116.22807,50.75345],[-116.25084,50.77559],[-116.27321,50.78986],[-116.27305,50.80093],[-116.27548,50.80179],[-116.27581,50.80323],[-116.28411,50.80327],[-116.2845,50.81145],[-116.2817,50.81587],[-116.28404,50.81753],[-116.28524,50.81893],[-116.28532,50.82184],[-116.28495,50.82252],[-116.28319,50.82307],[-116.28834,50.82587],[-116.29262,50.83075],[-116.29315,50.83221],[-116.30698,50.83251],[-116.307,50.83976],[-116.32007,50.8398],[-116.32018,50.84506],[-116.32884,50.84524],[-116.33139,50.84786],[-116.33123,50.85261],[-116.34263,50.85286],[-116.34223,50.8601],[-116.35365,50.86036],[-116.36466,50.86787],[-116.36443,50.88864],[-116.37329,50.89722],[-116.3696,50.90198],[-116.37168,50.90494],[-116.36985,50.90767],[-116.37855,50.90776],[-116.3788,50.8903],[-116.38451,50.89029],[-116.3845,50.90785],[-116.39594,50.90788],[-116.39593,50.91183],[-116.40709,50.91196],[-116.41289,50.92485],[-116.43852,50.94035],[-116.4436,50.94035],[-116.44359,50.94719],[-116.44922,50.95066],[-116.44917,50.95431],[-116.47863,50.97266],[-116.47859,50.97624],[-116.5133,50.99446],[-116.51907,50.99981],[-116.52513,50.99982],[-116.53659,51.00902],[-116.54881,51.00903],[-116.55995,51.01624],[-116.57125,51.01629],[-116.59504,51.03081],[-116.60647,51.03085],[-116.61814,51.03813],[-116.61833,51.04295],[-116.62283,51.04542],[-116.62973,51.04544],[-116.62971,51.0527],[-116.64137,51.05271],[-116.64144,51.05999],[-116.64737,51.06],[-116.64735,51.06363],[-116.65315,51.06365],[-116.65313,51.06729],[-116.66492,51.06724],[-116.66501,51.07084],[-116.66781,51.07243],[-116.66811,51.07454],[-116.67655,51.07452],[-116.67658,51.08182],[-116.69414,51.08183],[-116.69415,51.08363],[-116.69986,51.08363],[-116.69987,51.08549],[-116.70568,51.08911],[-116.70566,51.09082],[-116.71142,51.09083],[-116.71143,51.08916],[-116.71722,51.08917],[-116.72884,51.09633],[-116.72882,51.09996],[-116.75768,51.11818],[-116.80407,51.14001],[-116.81574,51.14001],[-116.82797,51.14728],[-116.85046,51.15457],[-116.89686,51.18369],[-116.89044,51.18371],[-116.89389,51.18677],[-116.88993,51.19216],[-116.89053,51.19675],[-116.88934,51.19823],[-116.90849,51.19824],[-116.90838,51.20549],[-116.90147,51.2055],[-116.90087,51.20774],[-116.90183,51.21128],[-116.90707,51.21276],[-116.90768,51.2151],[-116.90048,51.22094],[-116.89823,51.22396],[-116.90334,51.22983],[-116.90624,51.24077],[-116.91258,51.2433],[-116.91517,51.25166],[-116.92153,51.25238],[-116.92418,51.25654],[-116.92598,51.25626],[-116.93033,51.25356],[-116.93167,51.25363],[-116.93167,51.25268],[-116.94081,51.25248],[-116.94334,51.25327],[-116.94334,51.24909],[-116.94654,51.25303],[-116.94568,51.25425],[-116.94649,51.25684],[-116.9506,51.25948],[-116.95328,51.26365],[-116.95506,51.26365],[-116.95506,51.26733],[-116.95703,51.26784],[-116.95846,51.26724],[-116.96352,51.27275],[-116.9718,51.27833],[-116.96604,51.27832],[-116.96604,51.28059],[-116.9695,51.28021],[-116.97164,51.28101],[-116.97297,51.28485],[-116.9762,51.2867],[-116.98075,51.29113],[-116.9815,51.29419],[-116.98961,51.30231],[-116.98938,51.30489],[-116.99184,51.30839],[-116.9991,51.3155],[-117.00355,51.32151],[-117.00442,51.32416],[-117.00036,51.32993],[-117.00116,51.3314],[-116.99963,51.33319],[-117.00002,51.33501],[-117.00677,51.33795],[-117.01838,51.34027],[-117.02114,51.34378],[-117.02462,51.34378],[-117.02463,51.34742],[-117.03046,51.34741],[-117.03046,51.35106],[-117.03631,51.35105],[-117.0363,51.35833],[-117.04804,51.36569],[-117.04799,51.37631],[-117.05388,51.38021],[-117.05389,51.38747],[-117.05972,51.38747],[-117.05973,51.39474],[-117.06516,51.39474],[-117.06516,51.40207],[-117.07142,51.40206],[-117.07141,51.40932],[-117.14169,51.45292],[-117.1417,51.45662],[-117.14819,51.46026],[-117.13541,51.46068],[-117.13909,51.46402],[-117.13939,51.4655],[-117.1417,51.46606],[-117.1417,51.46757],[-117.14717,51.4678],[-117.14808,51.47012],[-117.15264,51.47491],[-117.15,51.47649],[-117.14787,51.47487],[-117.1435,51.47487],[-117.13572,51.46999],[-117.13,51.46846],[-117.13,51.46759],[-117.12763,51.46637],[-117.12661,51.4639],[-117.12145,51.4628],[-117.09959,51.45025],[-117.09483,51.44408],[-117.08531,51.44107],[-117.07457,51.43438],[-117.07545,51.43174],[-117.08639,51.43016],[-117.08695,51.42925],[-117.08539,51.42594],[-117.08423,51.4257],[-117.07946,51.42777],[-117.07506,51.42827],[-117.07077,51.42995],[-117.0689,51.42893],[-117.0644,51.42824],[-117.0651,51.42773],[-117.06319,51.42834],[-117.07139,51.4239],[-117.08313,51.4239],[-117.08313,51.41883],[-117.08171,51.41758],[-117.07473,51.41298],[-117.06769,51.41213],[-117.06169,51.41252],[-117.05919,51.41146],[-117.05261,51.40448],[-117.05177,51.40205],[-117.053,51.39699],[-117.04873,51.39374],[-117.03624,51.3902],[-117.03624,51.39251],[-117.02938,51.39252],[-117.02689,51.38496],[-117.02302,51.38014],[-117.02415,51.37641],[-117.0217,51.3729],[-117.02259,51.3729],[-117.02179,51.37183],[-117.02458,51.37149],[-117.02458,51.36563],[-117.01671,51.36559],[-117.00114,51.3476],[-117.00047,51.34459],[-116.99308,51.33486],[-116.99047,51.32932],[-116.99881,51.3292],[-117.00155,51.32341],[-116.99654,51.32121],[-116.99595,51.31517],[-116.99172,51.30978],[-116.98621,51.30754],[-116.9858,51.30685],[-116.98887,51.30618],[-116.98844,51.30254],[-116.98627,51.30127],[-116.98468,51.29795],[-116.98058,51.29493],[-116.97657,51.28858],[-116.97268,51.28554],[-116.96499,51.28554],[-116.95035,51.28155],[-116.94864,51.28166],[-116.94238,51.27757],[-116.94238,51.2781],[-116.93318,51.27333],[-116.93113,51.27103],[-116.93502,51.27102],[-116.92857,51.26761],[-116.9267,51.26359],[-116.93116,51.25497],[-116.92997,51.2549],[-116.92587,51.25726],[-116.92269,51.25695],[-116.92077,51.25329],[-116.91656,51.25304],[-116.91325,51.25174],[-116.91072,51.24321],[-116.90415,51.24092],[-116.90191,51.23061],[-116.89705,51.22385],[-116.90657,51.214],[-116.90398,51.21275],[-116.89849,51.21276],[-116.89678,51.20972],[-116.8968,51.20551],[-116.88812,51.20553],[-116.88394,51.20357],[-116.87358,51.19584],[-116.87359,51.19368],[-116.87216,51.19368],[-116.87216,51.19278],[-116.87073,51.19278],[-116.8693,51.19099],[-116.86651,51.19099],[-116.86131,51.1881],[-116.85248,51.18133],[-116.85038,51.17962],[-116.85039,51.17644],[-116.83882,51.17641],[-116.83884,51.17453],[-116.83254,51.1711],[-116.81359,51.1631],[-116.80977,51.16021],[-116.80982,51.14832],[-116.80316,51.14725],[-116.77892,51.14719],[-116.77539,51.14415],[-116.77539,51.13996],[-116.76361,51.13997],[-116.76361,51.13387],[-116.76174,51.1327],[-116.75788,51.13269],[-116.75789,51.13932],[-116.74978,51.13441],[-116.74628,51.1309],[-116.74628,51.12784],[-116.74299,51.12711],[-116.73435,51.12117],[-116.72763,51.1198],[-116.72577,51.1154],[-116.72331,51.11317],[-116.71253,51.10756],[-116.70278,51.10361],[-116.7008,51.10361],[-116.69732,51.09999],[-116.68827,51.09384],[-116.68824,51.0895],[-116.68386,51.08862],[-116.67926,51.08918],[-116.67518,51.08862],[-116.66976,51.08621],[-116.66658,51.08183],[-116.66316,51.07986],[-116.65193,51.07552],[-116.6415,51.07324],[-116.64069,51.0677],[-116.62673,51.06568],[-116.62236,51.06175],[-116.61414,51.0574],[-116.61152,51.05479],[-116.61168,51.05319],[-116.6064,51.05269],[-116.60642,51.04539],[-116.59499,51.04529],[-116.59503,51.0381],[-116.58319,51.03811],[-116.58319,51.0408],[-116.57705,51.04037],[-116.57173,51.03813],[-116.5718,51.03071],[-116.55497,51.03065],[-116.55296,51.02771],[-116.54861,51.02651],[-116.54864,51.02352],[-116.53098,51.02355],[-116.5309,51.0197],[-116.51904,51.01962],[-116.51902,51.0163],[-116.51599,51.0163],[-116.51333,51.01242],[-116.51333,51.00901],[-116.49163,51.00902],[-116.47819,51.0],[-116.47062,50.99706],[-116.46683,50.98964],[-116.46264,50.98671],[-116.4591,50.98138],[-116.45499,50.97758],[-116.45494,50.97261],[-116.44339,50.97258],[-116.44342,50.96975],[-116.44172,50.97037],[-116.43949,50.96573],[-116.42487,50.96518],[-116.42023,50.96319],[-116.42028,50.95796],[-116.43052,50.95797],[-116.42534,50.95565],[-116.41797,50.95059],[-116.41589,50.94375],[-116.41386,50.94107],[-116.41226,50.94024],[-116.40502,50.94019],[-116.40503,50.93669],[-116.40126,50.93298],[-116.38893,50.92869],[-116.38668,50.92584],[-116.38594,50.92051],[-116.38306,50.91876],[-116.3797,50.91837],[-116.37675,50.91691],[-116.37568,50.91279],[-116.37036,50.91008],[-116.3689,50.90827],[-116.37071,50.90467],[-116.3687,50.90197],[-116.37232,50.89732],[-116.36686,50.89182],[-116.35605,50.88536],[-116.35177,50.88439],[-116.35009,50.88234],[-116.34734,50.88349],[-116.34475,50.88304],[-116.34293,50.88028],[-116.33889,50.8781],[-116.3393,50.87535],[-116.33539,50.87237],[-116.33526,50.87133],[-116.32743,50.86931],[-116.32568,50.86646],[-116.31347,50.85941],[-116.30776,50.85145],[-116.30024,50.85053],[-116.29637,50.8481],[-116.28869,50.84518],[-116.28859,50.84137],[-116.28596,50.83786],[-116.2885,50.83471],[-116.28668,50.82896],[-116.28278,50.82775],[-116.2785,50.82435],[-116.27685,50.82058],[-116.27192,50.82056],[-116.27051,50.81711],[-116.27093,50.81308],[-116.26531,50.80981],[-116.26363,50.80983],[-116.26056,50.80452],[-116.26615,50.80472],[-116.27004,50.80658],[-116.27454,50.80935],[-116.27794,50.81394],[-116.28009,50.81393],[-116.2784,50.8124],[-116.27976,50.80905],[-116.27907,50.80788],[-116.27072,50.80148],[-116.25533,50.79749],[-116.24627,50.79363],[-116.24186,50.79338],[-116.23761,50.79041],[-116.23378,50.78256],[-116.22704,50.77741],[-116.2277,50.77277],[-116.22674,50.76661],[-116.22389,50.76128],[-116.22245,50.75544],[-116.21704,50.75063],[-116.21122,50.74804],[-116.20869,50.74576],[-116.20203,50.74561],[-116.20213,50.74199],[-116.19855,50.74192],[-116.19638,50.73964],[-116.19672,50.73469],[-116.19443,50.73198],[-116.18774,50.73198],[-116.1855,50.73046],[-116.18597,50.72501],[-116.17713,50.72479],[-116.16676,50.71825],[-116.16346,50.71508],[-116.15783,50.71357],[-116.15151,50.70593],[-116.1474,50.70358],[-116.14648,50.70102],[-116.14324,50.69777],[-116.13284,50.69062],[-116.13353,50.68023],[-116.12368,50.68008],[-116.12217,50.67825],[-116.12272,50.66599],[-116.10039,50.66545],[-116.1009,50.65593],[-116.10501,50.65599],[-116.10539,50.64796],[-116.09963,50.64786],[-116.09971,50.64658],[-116.0959,50.64524],[-116.09538,50.64369],[-116.09139,50.64257],[-116.09159,50.64029],[-116.08817,50.63809],[-116.09369,50.63794],[-116.09374,50.63309],[-116.09781,50.63204],[-116.09767,50.63053],[-116.09946,50.63001],[-116.09949,50.62838],[-116.10078,50.62758],[-116.10632,50.62717],[-116.10596,50.62429],[-116.10253,50.62129],[-116.09598,50.62021],[-116.09698,50.61788],[-116.09634,50.61705],[-116.09091,50.61742],[-116.08896,50.61451],[-116.08405,50.61177],[-116.07627,50.61075],[-116.06828,50.60674],[-116.06776,50.60457],[-116.06924,50.60447],[-116.07175,50.60559],[-116.07294,50.6049],[-116.07224,50.59928],[-116.06684,50.59749],[-116.05622,50.59741],[-116.0563,50.59324],[-116.04964,50.59319],[-116.04988,50.58291],[-116.04088,50.58278],[-116.04104,50.57844],[-116.03662,50.57838],[-116.03279,50.57205],[-116.04054,50.57214],[-116.04063,50.56831],[-116.04535,50.56837],[-116.04503,50.56677],[-116.04724,50.56398],[-116.04263,50.55587],[-116.04215,50.55327],[-116.04353,50.55132],[-116.0428,50.54958],[-116.04484,50.54636],[-116.04505,50.54305],[-116.04177,50.5405],[-116.03969,50.53989],[-116.03761,50.53445],[-116.03545,50.53396],[-116.03294,50.53075],[-116.033,50.52833],[-116.02661,50.52624],[-116.02316,50.52397],[-116.0215,50.52093],[-116.02228,50.51974],[-116.01981,50.51775],[-116.01891,50.51556],[-116.01975,50.51573],[-116.02048,50.51761],[-116.02551,50.51647],[-116.02651,50.51811],[-116.02872,50.51757],[-116.03038,50.52086],[-116.03183,50.5205],[-116.03185,50.5187],[-116.03931,50.51876],[-116.04524,50.52125],[-116.04214,50.52454],[-116.0419,50.52659],[-116.03963,50.52772],[-116.04196,50.52989],[-116.04153,50.53212],[-116.03898,50.53272],[-116.04623,50.53283],[-116.04619,50.53651],[-116.04791,50.53653],[-116.04778,50.53806],[-116.05252,50.5381],[-116.0539,50.54149],[-116.04383,50.54142],[-116.04602,50.54411],[-116.04535,50.54682],[-116.04325,50.54958],[-116.04391,50.55112],[-116.04325,50.55224],[-116.06483,50.55249],[-116.06494,50.5597],[-116.04602,50.55934],[-116.04774,50.56308],[-116.065,50.56329],[-116.06505,50.56687],[-116.07865,50.56702]],[[-116.04612,50.56663],[-116.04647,50.56914],[-116.05095,50.57394],[-116.06488,50.57412],[-116.06505,50.56687],[-116.04612,50.56663]],[[-116.27234,50.80135],[-116.27505,50.80399],[-116.27468,50.80185],[-116.27234,50.80135]],[[-116.29006,50.82875],[-116.28738,50.82949],[-116.28871,50.83269],[-116.293,50.83256],[-116.29006,50.82875]],[[-116.31366,50.84861],[-116.30251,50.84861],[-116.30251,50.85034],[-116.30711,50.85081],[-116.30924,50.85195],[-116.31366,50.85856],[-116.31366,50.84861]],[[-116.94233,51.26182],[-116.94131,51.26155],[-116.9419,51.26035],[-116.94455,51.25936],[-116.94315,51.25932],[-116.94252,51.25833],[-116.94216,51.25975],[-116.93964,51.26077],[-116.93762,51.25976],[-116.93662,51.2564],[-116.93239,51.25638],[-116.9317,51.26354],[-116.94253,51.26359],[-116.94385,51.26296],[-116.94412,51.26094],[-116.94233,51.26182]],[[-116.28789,50.82594],[-116.28278,50.82319],[-116.28478,50.82215],[-116.28494,50.81932],[-116.28122,50.81562],[-116.28369,50.81267],[-116.2839,50.81098],[-116.28301,50.80922],[-116.28031,50.80814],[-116.27886,50.8121],[-116.28054,50.81453],[-116.27733,50.81937],[-116.27816,50.82275],[-116.28338,50.82768],[-116.28662,50.82843],[-116.28736,50.82931],[-116.28991,50.82859],[-116.28789,50.82594]]],[[[-115.8599,50.35458],[-115.8595,50.35652],[-115.85835,50.3565],[-115.85834,50.3485],[-115.8599,50.35458]]],[[[-115.92595,50.41173],[-115.92498,50.41081],[-115.92352,50.4113],[-115.92298,50.40986],[-115.92479,50.40727],[-115.92846,50.40656],[-115.93517,50.40785],[-115.93447,50.4068],[-115.92947,50.40387],[-115.92102,50.40327],[-115.91893,50.40215],[-115.91379,50.40169],[-115.91093,50.39997],[-115.90785,50.39941],[-115.90905,50.39673],[-115.90762,50.39488],[-115.90947,50.39072],[-115.91169,50.38978],[-115.91137,50.38812],[-115.90902,50.38627],[-115.90371,50.38548],[-115.9019,50.38235],[-115.89723,50.38282],[-115.89213,50.37845],[-115.89303,50.37519],[-115.89924,50.37325],[-115.90158,50.37054],[-115.89843,50.36644],[-115.89728,50.36667],[-115.89547,50.36532],[-115.89622,50.3641],[-115.89518,50.36267],[-115.89109,50.35939],[-115.88822,50.35839],[-115.87819,50.35686],[-115.87675,50.35768],[-115.87682,50.35898],[-115.87541,50.35918],[-115.87426,50.35773],[-115.87545,50.35657],[-115.86397,50.35653],[-115.86399,50.35563],[-115.86151,50.35561],[-115.85964,50.3485],[-115.87204,50.34851],[-115.87244,50.34586],[-115.87348,50.34761],[-115.87123,50.34994],[-115.87497,50.35031],[-115.87685,50.34878],[-115.88098,50.34804],[-115.88259,50.34682],[-115.8891,50.35702],[-115.90385,50.36931],[-115.90762,50.37421],[-115.90935,50.37891],[-115.91623,50.37897],[-115.91575,50.38923],[-115.92215,50.38929],[-115.93114,50.3982],[-115.9267,50.40179],[-115.94244,50.41015],[-115.92944,50.41675],[-115.92604,50.41311],[-115.92595,50.41173]],[[-115.87438,50.35191],[-115.87465,50.35484],[-115.87618,50.3553],[-115.87646,50.35272],[-115.8781,50.35208],[-115.87438,50.35191]],[[-115.86382,50.3503],[-115.86078,50.35027],[-115.86177,50.35349],[-115.86374,50.3535],[-115.86382,50.3503]]],[[[-116.44338,50.97515],[-116.44126,50.9741],[-116.44062,50.97257],[-116.44339,50.97258],[-116.44338,50.97515]]],[[[-116.94512,51.28462],[-116.94211,51.28439],[-116.94139,51.28347],[-116.94238,51.27974],[-116.9513,51.28593],[-116.94638,51.28606],[-116.94512,51.28462]]],[[[-117.02988,51.39556],[-117.03623,51.40183],[-117.03621,51.40932],[-117.02451,51.40934],[-117.02457,51.3948],[-117.01282,51.39476],[-117.01293,51.38784],[-117.02585,51.38749],[-117.02988,51.39556]]]]}},
{"type":"Feature","properties":{"name":"SOUTH ARM MARSHES WILDLIFE MANAGEMENT AREA"},"geometry":{"type":"MultiPolygon","coordinates":[[[[-123.1479,49.10672],[-123.13408,49.10604],[-123.12587,49.10639],[-123.11855,49.10431],[-123.11276,49.10565],[-123.11313,49.10606],[-123.11225,49.10701],[-123.11261,49.10627],[-123.10243,49.11174],[-123.08725,49.11464],[-123.09978,49.09751],[-123.10459,49.09594],[-123.11103,49.09078],[-123.11698,49.0875],[-123.12903,49.08872],[-123.16828,49.11027],[-123.1479,49.10672]],[[-123.11808,49.10093],[-123.11319,49.10134],[-123.11107,49.10231],[-123.11941,49.1014],[-123.12267,49.10169],[-123.11808,49.10093]]],[[[-123.08617,49.10173],[-123.08991,49.10036],[-123.09126,49.09886],[-123.09233,49.09892],[-123.09052,49.10322],[-123.08435,49.11083],[-123.083,49.11198],[-123.0786,49.11283],[-123.07936,49.11114],[-123.08018,49.10221],[-123.08617,49.10173]]],[[[-123.08031,49.0987],[-123.08243,49.09664],[-123.08343,49.09686],[-123.08675,49.09483],[-123.08843,49.0969],[-123.09376,49.09446],[-123.0925,49.09792],[-123.0909,49.0984],[-123.08979,49.09996],[-123.08771,49.10106],[-123.08062,49.10214],[-123.08031,49.0987]]]]}},
{"type":"Feature","properties":{"name":"CHILANKO MARSH WILDLIFE MANAGEMENT AREA"},"geometry":{"type":"Polygon","coordinates":[[[-124.07637,52.1193],[-124.07674,52.11767],[-124.08458,52.1167],[-124.08579,52.11524],[-124.09159,52.11378],[-124.09419,52.11191],[-124.13774,52.10279],[-124.13339,52.09931],[-124.13339,52.09569],[-124.13878,52.09738],[-124.14487,52.09825],[-124.1625,52.09933],[-124.16728,52.10161],[-124.16982,52.1018],[-124.17551,52.10154],[-124.18353,52.09962],[-124.19722,52.09514],[-124.20206,52.09201],[-124.20695,52.09141],[-124.20695,52.09089],[-124.21576,52.09088],[-124.21576,52.09231],[-124.21924,52.09474],[-124.21774,52.09537],[-124.20691,52.09453],[-124.20054,52.09642],[-124.19859,52.09631],[-124.18923,52.10084],[-124.18414,52.10104],[-124.1656,52.10496],[-124.16561,52.10923],[-124.15382,52.10922],[-124.12311,52.11738],[-124.10685,52.11565],[-124.09088,52.1199],[-124.0863,52.11911],[-124.08187,52.11961],[-124.07972,52.12065],[-124.07737,52.12025],[-124.07637,52.1193]]]}},
{"type":"Feature","properties":{"name":"MIDGE CREEK WILDLIFE MANAGEMENT AREA"},"geometry":{"type":"Polygon","coordinates":[[[-116.84252,49.52583],[-116.83727,49.52404],[-116.83493,49.51952],[-116.83491,49.51703],[-116.83661,49.51612],[-116.83481,49.51043],[-116.8354,49.50792],[-116.83773,49.50411],[-116.84022,49.50281],[-116.842,49.49769],[-116.84015,49.49398],[-116.84079,49.49206],[-116.83745,49.48943],[-116.83519,49.48407],[-116.83193,49.48333],[-116.83075,49.48167],[-116.83096,49.4764],[-116.83895,49.46452],[-116.83909,49.45937],[-116.83733,49.45482],[-116.83437,49.45294],[-116.83258,49.44928],[-116.8336,49.44589],[-116.83126,49.44053],[-116.82733,49.4391],[-116.82553,49.43424],[-116.81529,49.43089],[-116.81349,49.42561],[-116.81122,49.42392],[-116.81017,49.42062],[-116.81036,49.42007],[-116.81232,49.42007],[-116.81157,49.41503],[-116.81442,49.41003],[-116.81423,49.40943],[-116.81206,49.40943],[-116.81102,49.40831],[-116.81107,49.40696],[-116.81292,49.40531],[-116.8115,49.40318],[-116.81532,49.40091],[-116.81508,49.397],[-116.8161,49.39486],[-116.80991,49.38611],[-116.80543,49.38428],[-116.80424,49.38227],[-116.81753,49.38228],[-116.81755,49.36419],[-116.90777,49.36436],[-116.90773,49.38608],[-116.91328,49.38608],[-116.91327,49.3897],[-116.92436,49.38971],[-116.92435,49.39695],[-116.94653,49.39696],[-116.94652,49.40058],[-116.95207,49.40058],[-116.95206,49.41144],[-116.9576,49.41144],[-116.9576,49.41506],[-116.97424,49.41506],[-116.97423,49.44402],[-116.97978,49.44402],[-116.97977,49.44764],[-116.98533,49.44764],[-116.98532,49.45126],[-116.99088,49.45126],[-116.99087,49.45488],[-116.99643,49.45488],[-116.99643,49.45849],[-116.97574,49.46468],[-116.97092,49.46951],[-116.97173,49.47271],[-116.97097,49.4733],[-116.96589,49.47605],[-116.95992,49.47749],[-116.95397,49.48014],[-116.94721,49.48433],[-116.95223,49.48768],[-116.95105,49.48875],[-116.93916,49.49126],[-116.9378,49.4936],[-116.93397,49.49533],[-116.93048,49.49444],[-116.9266,49.49556],[-116.92003,49.49442],[-116.90746,49.49515],[-116.90399,49.49289],[-116.8985,49.49286],[-116.89432,49.49107],[-116.89286,49.49618],[-116.88327,49.5023],[-116.87825,49.51866],[-116.86917,49.52554],[-116.86155,49.52823],[-116.85409,49.5296],[-116.84595,49.52996],[-116.84252,49.52583]]]}},
{"type":"Feature","properties":{"name":"GREEN MOUNTAIN WILDLIFE MANAGEMENT AREA"},"geometry":{"type":"Polygon","coordinates":[[[-124.35274,49.06289],[-124.33897,49.06289],[-124.33897,49.06064],[-124.3268,49.06068],[-124.32674,49.05236],[-124.32536,49.05237],[-124.32534,49.04876],[-124.34722,49.04847],[-124.34722,49.04751],[-124.34997,49.04751],[-124.34998,49.05113],[-124.35135,49.05113],[-124.35135,49.05203],[-124.35411,49.05294],[-124.35411,49.05475],[-124.35961,49.05565],[-124.35686,49.05927],[-124.35824,49.05927],[-124.35824,49.06108],[-124.36099,49.06107],[-124.361,49.0656],[-124.35825,49.0656],[-124.35825,49.0665],[-124.35274,49.06651],[-124.35274,49.06289]]]}},
{"type":"Feature","properties":{"name":"TRANQUILLE WILDLIFE MANAGEMENT AREA"},"geometry":{"type":"Polygon","coordinates":[[[-120.49827,50.7234],[-120.49056,50.72255],[-120.49847,50.72255],[-120.50274,50.72023],[-120.49733,50.71731],[-120.49253,50.71241],[-120.49151,50.7127],[-120.49161,50.7119],[-120.48929,50.71164],[-120.48209,50.70784],[-120.47765,50.7073],[-120.4748,50.70614],[-120.47306,50.70517],[-120.47306,50.70331],[-120.5169,50.71247],[-120.51958,50.71801],[-120.51586,50.72062],[-120.50654,50.72492],[-120.50248,50.72535],[-120.49827,50.7234]]]}},
{"type":"Feature","properties":{"name":"S'amunu WILDLIFE MANAGEMENT AREA"},"geometry":{"type":"MultiPolygon","coordinates":[[[[-123.69691,48.80659],[-123.70304,48.79455],[-123.70206,48.79386],[-123.70229,48.79176],[-123.70142,48.79114],[-123.70035,48.79117],[-123.69927,48.79028],[-123.69893,48.78853],[-123.70841,48.78847],[-123.70992,48.78923],[-123.70814,48.79132],[-123.71071,48.78993],[-123.71352,48.7947],[-123.70739,48.79471],[-123.7104,48.79889],[-123.70941,48.80306],[-123.70297,48.80819],[-123.69802,48.80838],[-123.69691,48.80659]]],[[[-123.69858,48.78853],[-123.69831,48.78917],[-123.69506,48.78853],[-123.69858,48.78853]]],[[[-123.69428,48.78985],[-123.69528,48.78888],[-123.69797,48.78943],[-123.69613,48.79024],[-123.69428,48.78985]]],[[[-123.69838,48.78969],[-123.70026,48.79127],[-123.70207,48.79185],[-123.6971,48.79214],[-123.69604,48.7907],[-123.69838,48.78969]]]]}},
{"type":"Feature","properties":{"name":"SWAN LAKE WILDLIFE MANAGEMENT AREA"},"geometry":{"type":"MultiPolygon","coordinates":[[[[-119.24688,50.33607],[-119.24643,50.33498],[-119.2461,50.33492],[-119.24562,50.33395],[-119.24527,50.3323],[-119.24381,50.33053],[-119.24346,50.32875],[-119.25014,50.31737],[-119.25101,50.31106],[-119.24962,50.31025],[-119.25163,50.30429],[-119.25345,50.30121],[-119.2577,50.29803],[-119.25664,50.29774],[-119.25864,50.29561],[-119.26274,50.29414],[-119.26472,50.29428],[-119.26659,50.29466],[-119.26663,50.29656],[-119.26541,50.29656],[-119.26566,50.29926],[-119.26336,50.30442],[-119.2648,50.31486],[-119.26392,50.32273],[-119.26167,50.3277],[-119.26117,50.3326],[-119.25832,50.33644],[-119.2533,50.33844],[-119.24986,50.33752],[-119.24986,50.33868],[-119.2489,50.33855],[-119.2473,50.33639],[-119.24688,50.33607]]]]}},
{"type":"Feature","properties":{"name":"LhAi:lt/HARRISON-CHEHALIS WILDLIFE MANAGEMENT AREA"},"geometry":{"type":"Polygon","coordinates":[[[-121.88341,49.30284],[-121.8849,49.2991],[-121.88335,49.29735],[-121.87773,49.29797],[-121.87576,49.29757],[-121.87585,49.29343],[-121.87929,49.2908],[-121.87929,49.29144],[-121.88589,49.28971],[-121.88856,49.29045],[-121.89106,49.28883],[-121.8916,49.28731],[-121.89487,49.28733],[-121.90553,49.28438],[-121.90793,49.27966],[-121.90795,49.27528],[-121.90749,49.2743],[-121.90637,49.27477],[-121.90643,49.27368],[-121.90529,49.27516],[-121.90445,49.27216],[-121.90534,49.27292],[-121.90593,49.27247],[-121.9045,49.26984],[-121.90482,49.26846],[-121.90693,49.26847],[-121.90868,49.26752],[-121.90887,49.26457],[-121.91146,49.26304],[-121.91237,49.26405],[-121.91449,49.26395],[-121.91465,49.26269],[-121.9163,49.26175],[-121.91849,49.26214],[-121.91885,49.26039],[-121.92258,49.25868],[-121.92412,49.25704],[-121.923,49.25539],[-121.92411,49.25298],[-121.92325,49.2514],[-121.92406,49.25095],[-121.93365,49.24798],[-121.93679,49.24855],[-121.94572,49.24612],[-121.94919,49.2497],[-121.94611,49.25082],[-121.94308,49.25335],[-121.93943,49.25827],[-121.93938,49.2603],[-121.94109,49.26024],[-121.94279,49.26364],[-121.9456,49.26591],[-121.94414,49.26602],[-121.94871,49.26685],[-121.95008,49.26779],[-121.95222,49.26778],[-121.95116,49.27116],[-121.95225,49.27321],[-121.95079,49.27942],[-121.94945,49.2805],[-121.94025,49.28059],[-121.94053,49.2824],[-121.94331,49.28339],[-121.94453,49.28527],[-121.9416,49.28815],[-121.94105,49.29058],[-121.93874,49.29202],[-121.93371,49.29273],[-121.93324,49.2951],[-121.93205,49.2951],[-121.9326,49.29319],[-121.9301,49.29118],[-121.93661,49.28067],[-121.91937,49.27658],[-121.91717,49.27873],[-121.91458,49.27932],[-121.90956,49.28356],[-121.90429,49.28657],[-121.8988,49.2879],[-121.89416,49.29004],[-121.89175,49.29157],[-121.89115,49.29314],[-121.88795,49.29484],[-121.88415,49.29534],[-121.88519,49.29717],[-121.88798,49.29857],[-121.88912,49.30314],[-121.87918,49.31121],[-121.8845,49.30493],[-121.88341,49.30284]]]}},
{"type":"Feature","properties":{"name":"CRESTON VALLEY WILDLIFE MANAGEMENT AREA"},"geometry":{"type":"MultiPolygon","coordinates":[[[[-116.65264,49.27438],[-116.65042,49.27191],[-116.64858,49.26494],[-116.64601,49.25999],[-116.64391,49.25803],[-116.63882,49.25548],[-116.63277,49.25349],[-116.62708,49.24918],[-116.61658,49.2371],[-116.61506,49.23219],[-116.60524,49.22371],[-116.60181,49.2188],[-116.60142,49.21603],[-116.5985,49.21475],[-116.59684,49.21202],[-116.59223,49.20906],[-116.59,49.20255],[-116.58654,49.20102],[-116.5847,49.19689],[-116.58194,49.19541],[-116.5818,49.18884],[-116.57993,49.18731],[-116.57489,49.18552],[-116.56966,49.17741],[-116.56182,49.17306],[-116.56211,49.17261],[-116.56307,49.17324],[-116.56773,49.17066],[-116.57184,49.16989],[-116.57918,49.16549],[-116.57808,49.16658],[-116.57156,49.17047],[-116.56809,49.17092],[-116.56328,49.17337],[-116.56978,49.17674],[-116.57482,49.18495],[-116.58003,49.18704],[-116.58192,49.18833],[-116.59182,49.20211],[-116.59173,49.20356],[-116.59458,49.20623],[-116.59648,49.20565],[-116.60253,49.21114],[-116.60641,49.2023],[-116.61033,49.20171],[-116.61643,49.19892],[-116.62005,49.19811],[-116.62913,49.19847],[-116.6232,49.18853],[-116.61612,49.19068],[-116.61097,49.18927],[-116.61057,49.1877],[-116.6138,49.17778],[-116.61255,49.17592],[-116.60985,49.175],[-116.60544,49.17477],[-116.59736,49.17626],[-116.59094,49.17392],[-116.59041,49.17275],[-116.59246,49.16974],[-116.5989,49.16595],[-116.60308,49.16121],[-116.60509,49.15543],[-116.6046,49.15088],[-116.61015,49.1482],[-116.61029,49.147],[-116.61268,49.14512],[-116.61861,49.14399],[-116.61814,49.14141],[-116.61539,49.13924],[-116.61632,49.13672],[-116.61513,49.13874],[-116.61488,49.13519],[-116.61159,49.13253],[-116.61197,49.13075],[-116.61563,49.12804],[-116.62362,49.12862],[-116.62608,49.1263],[-116.62487,49.12389],[-116.61959,49.12187],[-116.60946,49.12217],[-116.60561,49.11755],[-116.60839,49.11228],[-116.60307,49.1106],[-116.60394,49.10898],[-116.60512,49.10915],[-116.60519,49.10728],[-116.60192,49.10272],[-116.6067,49.1027],[-116.60679,49.08819],[-116.62351,49.09475],[-116.62352,49.11039],[-116.62678,49.1133],[-116.62696,49.11458],[-116.63036,49.11521],[-116.63111,49.11706],[-116.63285,49.11808],[-116.63251,49.11924],[-116.63438,49.12057],[-116.63439,49.1143],[-116.64544,49.11433],[-116.64533,49.13721],[-116.64045,49.1372],[-116.64045,49.1388],[-116.64597,49.14221],[-116.65795,49.14478],[-116.65796,49.14672],[-116.64694,49.14671],[-116.64695,49.14449],[-116.64047,49.14449],[-116.64045,49.15496],[-116.63859,49.15896],[-116.64046,49.15896],[-116.64044,49.16259],[-116.63604,49.16258],[-116.63602,49.17344],[-116.6409,49.17344],[-116.64156,49.18601],[-116.65193,49.18602],[-116.65193,49.18963],[-116.65744,49.18964],[-116.65781,49.19687],[-116.66296,49.19688],[-116.66293,49.20774],[-116.66846,49.20774],[-116.66845,49.21498],[-116.6795,49.21499],[-116.6795,49.2208],[-116.68596,49.22584],[-116.69055,49.22584],[-116.69055,49.22946],[-116.69607,49.22946],[-116.69608,49.24756],[-116.69384,49.24755],[-116.6939,49.24806],[-116.69536,49.25036],[-116.70314,49.25706],[-116.6529,49.28952],[-116.65302,49.28657],[-116.65517,49.28495],[-116.65196,49.27631],[-116.65264,49.27438]]],[[[-116.56856,49.00486],[-116.56691,49.0056],[-116.56648,49.00721],[-116.55849,49.00657],[-116.55162,49.00093],[-116.55216,49.0],[-116.56856,49.0],[-116.56856,49.00486]]],[[[-116.53924,49.08707],[-116.54063,49.09003],[-116.52891,49.09004],[-116.52892,49.0882],[-116.53179,49.0882],[-116.53144,49.084],[-116.53519,49.08396],[-116.53924,49.08707]]]]}},
{"type":"Feature","properties":{"name":"BERT BRINK WILDLIFE MANAGEMENT AREA"},"geometry":{"type":"Polygon","coordinates":[[[-122.07321,49.14498],[-122.07322,49.14731],[-122.07582,49.14811],[-122.0759,49.14249],[-122.07445,49.14249],[-122.07448,49.13862],[-122.09517,49.13836],[-122.06331,49.13837],[-122.09226,49.13299],[-122.09586,49.13301],[-122.09559,49.13689],[-122.09786,49.13882],[-122.12761,49.14028],[-122.13135,49.14183],[-122.13655,49.14264],[-122.14316,49.14123],[-122.15257,49.14077],[-122.16277,49.13781],[-122.17858,49.13554],[-122.19277,49.12915],[-122.19271,49.13303],[-122.18255,49.13795],[-122.17009,49.1404],[-122.17113,49.14262],[-122.16915,49.14447],[-122.1602,49.14841],[-122.16152,49.14919],[-122.16149,49.15101],[-122.14395,49.14713],[-122.13951,49.14708],[-122.13955,49.14446],[-122.1262,49.14496],[-122.11095,49.14942],[-122.10104,49.14971],[-122.10102,49.15108],[-122.0954,49.15104],[-122.07481,49.1551],[-122.0677,49.15463],[-122.06942,49.15361],[-122.06578,49.15271],[-122.06782,49.14639],[-122.07321,49.14498]],[[-122.1504,49.14457],[-122.16143,49.14455],[-122.16145,49.14274],[-122.1504,49.14314],[-122.1504,49.14457]]]}},
{"type":"Feature","properties":{"name":"TSILHQOX QAY NAGUTEN WILDLIFE MANAGEMENT AREA"},"geometry":{"type":"Polygon","coordinates":[[[-124.10203,51.69573],[-124.10222,51.69626],[-124.10328,51.69574],[-124.1074,51.69136],[-124.10757,51.68785],[-124.11161,51.6844],[-124.11024,51.67939],[-124.1038,51.67444],[-124.10353,51.67096],[-124.10579,51.6683],[-124.11029,51.66764],[-124.10808,51.66349],[-124.10879,51.66204],[-124.11565,51.66172],[-124.11889,51.65877],[-124.11788,51.65761],[-124.11473,51.65786],[-124.11031,51.65668],[-124.10653,51.65356],[-124.10635,51.65124],[-124.10992,51.64141],[-124.11508,51.63561],[-124.11917,51.63422],[-124.12077,51.63247],[-124.12475,51.63153],[-124.1327,51.63223],[-124.13421,51.63133],[-124.13393,51.63051],[-124.13876,51.62949],[-124.14088,51.62631],[-124.14072,51.62119],[-124.14434,51.61651],[-124.14442,51.61498],[-124.14741,51.61434],[-124.14835,51.61529],[-124.15063,51.61568],[-124.1513,51.61787],[-124.15164,51.6312],[-124.14029,51.63132],[-124.13785,51.63255],[-124.1443,51.62665],[-124.14624,51.62168],[-124.1437,51.62246],[-124.14319,51.62664],[-124.14084,51.62969],[-124.13773,51.63175],[-124.13754,51.63271],[-124.13495,51.6321],[-124.13068,51.63305],[-124.13267,51.63519],[-124.13082,51.63957],[-124.13819,51.64648],[-124.14107,51.6508],[-124.14066,51.65603],[-124.13782,51.66104],[-124.13908,51.6661],[-124.13865,51.66662],[-124.13608,51.66675],[-124.13587,51.66617],[-124.13528,51.66673],[-124.13177,51.66667],[-124.1318,51.66927],[-124.13693,51.66926],[-124.13675,51.6709],[-124.14351,51.6725],[-124.14658,51.67198],[-124.14712,51.67267],[-124.14574,51.67407],[-124.13652,51.67606],[-124.13366,51.67769],[-124.13149,51.68216],[-124.13164,51.67481],[-124.10845,51.67443],[-124.10853,51.67745],[-124.11105,51.67971],[-124.11218,51.68417],[-124.11139,51.68588],[-124.10912,51.68669],[-124.10881,51.689],[-124.12998,51.68917],[-124.12836,51.69153],[-124.12914,51.6934],[-124.12734,51.69682],[-124.12742,51.69915],[-124.12275,51.70311],[-124.11903,51.70483],[-124.11419,51.71093],[-124.10893,51.71397],[-124.10791,51.71543],[-124.10676,51.71497],[-124.10831,51.71141],[-124.10755,51.70691],[-124.10552,51.70502],[-124.10502,51.70301],[-124.10132,51.70092],[-124.10203,51.69573]],[[-124.14918,51.61868],[-124.14902,51.61946],[-124.15057,51.61889],[-124.15035,51.6183],[-124.14918,51.61868]],[[-124.10539,51.69676],[-124.10844,51.69676],[-124.10874,51.69406],[-124.10539,51.69676]]]}},
{"type":"Feature","properties":{"name":"KISHKOSH SITE-KISHKOSH AND KITKIATA INLETS WMA"},"geometry":{"type":"Polygon","coordinates":[[[-129.33662,53.56012],[-129.32982,53.5541],[-129.32596,53.55398],[-129.3266,53.55583],[-129.32846,53.55698],[-129.32736,53.55804],[-129.32599,53.55711],[-129.32662,53.55609],[-129.32533,53.55465],[-129.32226,53.55456],[-129.31819,53.55335],[-129.31493,53.55133],[-129.3103,53.54671],[-129.30965,53.54474],[-129.30081,53.53693],[-129.30143,53.53592],[-129.29812,53.53051],[-129.29866,53.52748],[-129.29694,53.52529],[-129.29216,53.52279],[-129.2867,53.52296],[-129.2813,53.51918],[-129.27819,53.51922],[-129.27597,53.52035],[-129.27462,53.51932],[-129.27311,53.51946],[-129.2736,53.51823],[-129.27082,53.51893],[-129.26855,53.51784],[-129.249,53.51711],[-129.24688,53.51824],[-129.23528,53.51839],[-129.23164,53.51982],[-129.23532,53.50967],[-129.2384,53.51212],[-129.241,53.51293],[-129.25107,53.51245],[-129.25376,53.51138],[-129.25895,53.51231],[-129.26759,53.51129],[-129.27112,53.51251],[-129.27206,53.51207],[-129.27729,53.51285],[-129.28468,53.51675],[-129.28685,53.51706],[-129.28712,53.51923],[-129.29088,53.51993],[-129.29311,53.5161],[-129.29051,53.51345],[-129.28719,53.5127],[-129.28708,53.51063],[-129.28845,53.51016],[-129.28502,53.50893],[-129.28512,53.50816],[-129.28781,53.5073],[-129.28789,53.50635],[-129.28667,53.50533],[-129.28426,53.5056],[-129.28196,53.50475],[-129.28147,53.50349],[-129.284,53.50522],[-129.28571,53.50491],[-129.28756,53.50543],[-129.28851,53.50744],[-129.28542,53.50865],[-129.28928,53.50996],[-129.28785,53.51219],[-129.2941,53.51315],[-129.29412,53.51542],[-129.2951,53.5148],[-129.29865,53.51604],[-129.29675,53.51762],[-129.29837,53.51782],[-129.29868,53.52012],[-129.30178,53.52283],[-129.30272,53.5256],[-129.30531,53.52654],[-129.3058,53.53007],[-129.30711,53.53029],[-129.30801,53.52869],[-129.30942,53.53008],[-129.30818,53.53152],[-129.30952,53.53307],[-129.30863,53.5339],[-129.31168,53.53832],[-129.319,53.5426],[-129.32082,53.54494],[-129.32539,53.5476],[-129.3306,53.54899],[-129.33328,53.55216],[-129.3363,53.55298],[-129.34173,53.55899],[-129.3437,53.56279],[-129.3471,53.56256],[-129.34866,53.56318],[-129.34915,53.56429],[-129.34723,53.56712],[-129.34609,53.56642],[-129.34413,53.56773],[-129.33878,53.56475],[-129.33662,53.56012]]]}},
{"type":"Feature","properties":{"name":"KITKIATA SITE-KISHKOSH AND KITKIATA INLETS WMA"},"geometry":{"type":"Polygon","coordinates":[[[-129.32855,53.65097],[-129.31355,53.64415],[-129.31115,53.64447],[-129.30275,53.64978],[-129.30054,53.6502],[-129.29627,53.6496],[-129.29307,53.6483],[-129.28592,53.64315],[-129.27338,53.63818],[-129.2728,53.63981],[-129.27038,53.64146],[-129.27385,53.64739],[-129.27282,53.64739],[-129.26879,53.64194],[-129.26892,53.64118],[-129.27192,53.63958],[-129.27201,53.63851],[-129.26524,53.64002],[-129.25741,53.63654],[-129.23151,53.63086],[-129.24016,53.61352],[-129.24686,53.61686],[-129.25667,53.61805],[-129.26103,53.61958],[-129.26424,53.6223],[-129.28191,53.6267],[-129.28043,53.62827],[-129.29541,53.63127],[-129.2974,53.63258],[-129.2972,53.6347],[-129.30156,53.63864],[-129.29906,53.64203],[-129.30002,53.64308],[-129.30081,53.64167],[-129.30417,53.64135],[-129.30426,53.63876],[-129.30633,53.63708],[-129.30762,53.63707],[-129.30485,53.63908],[-129.30507,53.64036],[-129.30443,53.64156],[-129.30056,53.64214],[-129.30094,53.64327],[-129.3005,53.64417],[-129.30206,53.64495],[-129.30115,53.64706],[-129.3056,53.64637],[-129.31081,53.64334],[-129.31326,53.64281],[-129.31326,53.64347],[-129.32196,53.64793],[-129.33017,53.65125],[-129.33016,53.65029],[-129.3324,53.65222],[-129.33605,53.65277],[-129.3393,53.65098],[-129.33931,53.65223],[-129.33704,53.65334],[-129.33099,53.65285],[-129.32855,53.65097]],[[-129.27251,53.6391],[-129.2725,53.63916],[-129.27269,53.63918],[-129.27251,53.6391]],[[-129.27314,53.64679],[-129.27311,53.64699],[-129.27336,53.64691],[-129.27314,53.64679]],[[-129.27256,53.64607],[-129.27243,53.64618],[-129.27297,53.64667],[-129.27256,53.64607]],[[-129.26974,53.64114],[-129.26927,53.64157],[-129.26959,53.64187],[-129.26974,53.64114]],[[-129.27157,53.6441],[-129.27136,53.6433],[-129.27106,53.64366],[-129.27157,53.6441]],[[-129.26949,53.6422],[-129.26963,53.64304],[-129.27035,53.64275],[-129.26949,53.6422]]]}},
{"type":"Feature","properties":{"name":"STELLAKO RIVER WILDLIFE MANAGEMENT AREA"},"geometry":{"type":"Polygon","coordinates":[[[-124.93531,54.04481],[-124.93766,54.04637],[-124.94036,54.04696],[-124.93894,54.04975],[-124.94403,54.04931],[-124.94537,54.0513],[-124.94763,54.05143],[-124.94954,54.04891],[-124.95263,54.04832],[-124.95267,54.04347],[-124.95574,54.04348],[-124.95575,54.03986],[-124.95883,54.03987],[-124.95885,54.03624],[-124.96179,54.03624],[-124.96145,54.02902],[-124.96499,54.02902],[-124.965,54.02182],[-124.96207,54.02181],[-124.96215,54.01796],[-124.96507,54.01791],[-124.96505,54.01459],[-124.97162,54.0146],[-124.97733,54.0134],[-124.97733,54.00739],[-125.00187,54.00745],[-125.00188,54.00315],[-125.00379,54.00413],[-125.00572,54.00295],[-125.01131,54.00549],[-125.01089,54.00837],[-124.99966,54.01118],[-124.99077,54.01187],[-124.98709,54.01489],[-124.98473,54.01473],[-124.98473,54.01631],[-124.97242,54.01628],[-124.97242,54.02351],[-124.96998,54.02351],[-124.96941,54.02478],[-124.97165,54.02665],[-124.9688,54.02715],[-124.9702,54.02822],[-124.96867,54.03074],[-124.9726,54.03074],[-124.97296,54.0383],[-124.97042,54.0383],[-124.97077,54.04552],[-124.96491,54.04553],[-124.96492,54.05094],[-124.95265,54.05114],[-124.95265,54.05276],[-124.93425,54.05268],[-124.93425,54.04899],[-124.92813,54.04909],[-124.92814,54.04409],[-124.93531,54.04481]]]}},
{"type":"Feature","properties":{"name":"PEMBERTON WETLANDS WILDLIFE MANAGEMENT AREA"},"geometry":{"type":"MultiPolygon","coordinates":[[[[-122.79255,50.31319],[-122.79254,50.31426],[-122.7869,50.31159],[-122.7822,50.30613],[-122.77936,50.30627],[-122.77523,50.30782],[-122.7686,50.30825],[-122.76946,50.31015],[-122.76822,50.30898],[-122.76664,50.30835],[-122.76793,50.30739],[-122.77454,50.30725],[-122.77451,50.30672],[-122.77192,50.30629],[-122.77202,50.30516],[-122.77477,50.30515],[-122.77734,50.30373],[-122.78266,50.30312],[-122.77989,50.30268],[-122.77854,50.30148],[-122.7783,50.30062],[-122.77995,50.3],[-122.77903,50.30017],[-122.77936,50.29967],[-122.78164,50.2989],[-122.77996,50.29688],[-122.77465,50.29744],[-122.77465,50.29683],[-122.77275,50.2973],[-122.77177,50.29682],[-122.76636,50.29817],[-122.76341,50.29632],[-122.7599,50.29805],[-122.75916,50.29663],[-122.76192,50.29516],[-122.76223,50.2935],[-122.76407,50.2922],[-122.76732,50.29209],[-122.76956,50.29086],[-122.77758,50.29088],[-122.7808,50.29],[-122.79395,50.29439],[-122.79813,50.29294],[-122.79813,50.29413],[-122.80075,50.29319],[-122.80276,50.29461],[-122.80276,50.29592],[-122.79323,50.30311],[-122.78862,50.30413],[-122.78246,50.30411],[-122.78245,50.30504],[-122.7866,50.30802],[-122.78686,50.31014],[-122.78979,50.31013],[-122.79596,50.31258],[-122.79556,50.3145],[-122.79255,50.31319]],[[-122.78103,50.3027],[-122.78131,50.30272],[-122.7811,50.30219],[-122.78103,50.3027]]],[[[-122.68736,50.30122],[-122.67834,50.30063],[-122.67341,50.29933],[-122.67341,50.29824],[-122.69967,50.3005],[-122.71071,50.30211],[-122.71395,50.30192],[-122.72037,50.29771],[-122.72855,50.29854],[-122.73801,50.29769],[-122.74344,50.29482],[-122.74604,50.29553],[-122.74682,50.2971],[-122.75289,50.29768],[-122.75596,50.29626],[-122.75827,50.29657],[-122.75949,50.29813],[-122.75173,50.29996],[-122.74309,50.29831],[-122.73365,50.29823],[-122.73026,50.30124],[-122.72107,50.30233],[-122.71745,50.30199],[-122.71384,50.30358],[-122.70314,50.30439],[-122.68736,50.30122]]],[[[-122.60695,50.29758],[-122.59757,50.28697],[-122.60348,50.28699],[-122.6059,50.28814],[-122.6133,50.29513],[-122.62099,50.29989],[-122.62464,50.30118],[-122.63809,50.3005],[-122.64105,50.3014],[-122.65256,50.29756],[-122.65978,50.29696],[-122.66091,50.29562],[-122.66211,50.29562],[-122.66211,50.29878],[-122.65798,50.29962],[-122.65251,50.2991],[-122.63831,50.30445],[-122.63465,50.30468],[-122.62943,50.30281],[-122.60695,50.29758]]],[[[-122.87881,50.40568],[-122.88015,50.40786],[-122.89288,50.41716],[-122.88817,50.41612],[-122.87793,50.40943],[-122.87411,50.4055],[-122.87558,50.40462],[-122.87881,50.40568]]],[[[-122.86079,50.38856],[-122.86079,50.39211],[-122.86472,50.39213],[-122.86569,50.39547],[-122.87111,50.39884],[-122.87339,50.40218],[-122.865,50.3976],[-122.86318,50.39441],[-122.8601,50.39353],[-122.85513,50.38856],[-122.86079,50.38856]]],[[[-122.94267,50.48555],[-122.94266,50.48323],[-122.94675,50.48384],[-122.95015,50.48528],[-122.951,50.4866],[-122.95025,50.4866],[-122.95025,50.48983],[-122.94661,50.48882],[-122.94267,50.48555]]],[[[-122.9938,50.50625],[-122.99375,50.5046],[-123.00191,50.50513],[-123.00234,50.51162],[-122.99692,50.50918],[-122.99847,50.50884],[-122.99829,50.50648],[-122.9938,50.50625]]],[[[-122.84854,50.38476],[-122.85513,50.38473],[-122.85513,50.38856],[-122.84854,50.38476]]],[[[-122.8349,50.37598],[-122.83793,50.37411],[-122.83796,50.37856],[-122.83489,50.37675],[-122.8349,50.37598]]],[[[-122.76801,50.30911],[-122.76893,50.31015],[-122.76631,50.31014],[-122.7665,50.30855],[-122.76801,50.30911]]]]}},
{"type":"Feature","properties":{"name":"BOUNDARY BAY WILDLIFE MANAGEMENT AREA"},"geometry":{"type":"Polygon","coordinates":[[[-122.82515,49.08919],[-122.82166,49.08908],[-122.82305,49.08707],[-122.81934,49.0866],[-122.82357,49.08676],[-122.82369,49.08855],[-122.82533,49.08869],[-122.82633,49.08961],[-122.82566,49.09185],[-122.82736,49.09228],[-122.82764,49.08957],[-122.82895,49.08797],[-122.83858,49.08725],[-122.84307,49.08542],[-122.84843,49.08481],[-122.84945,49.08389],[-122.84893,49.08203],[-122.85421,49.07912],[-122.85681,49.07965],[-122.85959,49.07843],[-122.85865,49.06995],[-122.86052,49.06335],[-122.8671,49.05915],[-122.86585,49.05812],[-122.85438,49.06074],[-122.85021,49.06779],[-122.84718,49.06829],[-122.84142,49.06723],[-122.83943,49.06755],[-122.83696,49.07035],[-122.83768,49.07411],[-122.83673,49.075],[-122.83138,49.07479],[-122.82996,49.07209],[-122.82512,49.06944],[-122.8272,49.06989],[-122.83017,49.07173],[-122.83254,49.07434],[-122.83613,49.07433],[-122.83562,49.07018],[-122.83814,49.06712],[-122.84057,49.06607],[-122.84514,49.0671],[-122.84519,49.06639],[-122.84772,49.06682],[-122.85175,49.0613],[-122.85686,49.05845],[-122.86434,49.05615],[-122.86973,49.05541],[-122.87109,49.05704],[-122.87441,49.05717],[-122.87728,49.06268],[-122.88182,49.05973],[-122.88372,49.05924],[-122.88468,49.05972],[-122.88398,49.05907],[-122.88789,49.05684],[-122.88385,49.04829],[-122.88397,49.04302],[-122.87585,49.03259],[-122.8743,49.02905],[-122.86914,49.02546],[-122.86478,49.02426],[-122.83449,49.02512],[-122.83449,49.02432],[-122.83198,49.02432],[-122.83198,49.0253],[-122.82818,49.02535],[-122.81876,49.02407],[-122.80565,49.0203],[-122.80567,49.01695],[-122.80729,49.01771],[-122.80787,49.01717],[-122.80624,49.01642],[-122.80408,49.01641],[-122.80554,49.01679],[-122.80552,49.02048],[-122.77275,49.011],[-122.76484,49.00713],[-122.7578,49.00208],[-123.0352,49.00217],[-123.03551,49.00945],[-123.03689,49.01064],[-123.04073,49.01903],[-123.05503,49.02616],[-123.05575,49.02614],[-123.05429,49.02465],[-123.05788,49.02466],[-123.05177,49.03659],[-123.04931,49.04702],[-123.04737,49.04912],[-123.04466,49.04962],[-123.03957,49.04921],[-123.03547,49.05294],[-123.03526,49.05516],[-123.03115,49.05519],[-123.02409,49.05948],[-123.01781,49.06158],[-123.01302,49.06279],[-123.01299,49.06169],[-123.00837,49.06323],[-123.00742,49.06241],[-123.00134,49.06371],[-122.99993,49.06331],[-123.00117,49.06224],[-122.99891,49.06287],[-122.99851,49.0638],[-122.99568,49.06402],[-122.99593,49.06472],[-122.99074,49.06582],[-122.99073,49.06635],[-122.94827,49.07322],[-122.92561,49.07948],[-122.91349,49.08381],[-122.90355,49.08532],[-122.90278,49.08687],[-122.89962,49.0881],[-122.89851,49.0896],[-122.89476,49.08973],[-122.89231,49.09151],[-122.87473,49.09075],[-122.87215,49.08945],[-122.86698,49.08969],[-122.8653,49.08805],[-122.86219,49.08787],[-122.85941,49.08549],[-122.85628,49.08506],[-122.85215,49.08282],[-122.84867,49.08543],[-122.84303,49.08603],[-122.83863,49.08776],[-122.83514,49.08755],[-122.82877,49.089],[-122.82841,49.09236],[-122.82555,49.09246],[-122.82515,49.08919]]]}},
{"type":"Feature","properties":{"name":"SERPENTINE WILDLIFE MANAGEMENT AREA"},"geometry":{"type":"Polygon","coordinates":[[[-122.83816,49.08725],[-122.82893,49.08788],[-122.82757,49.08965],[-122.82792,49.09188],[-122.82644,49.09224],[-122.82569,49.09147],[-122.82651,49.08961],[-122.82375,49.08847],[-122.82371,49.08674],[-122.81933,49.08659],[-122.82094,49.082],[-122.83085,49.08193],[-122.83816,49.08725]]]}},
{"type":"Feature","properties":{"name":"METEOR LAKE WETLAND WILDLIFE MANAGEMENT AREA"},"geometry":{"type":"MultiPolygon","coordinates":[[[[-121.73259,54.02962],[-121.72686,54.02714],[-121.72084,54.026],[-121.70417,54.02404],[-121.69632,54.02399],[-121.68644,54.02045],[-121.68626,53.98872],[-121.69025,53.98745],[-121.69452,53.98733],[-121.69786,53.99084],[-121.70269,53.99307],[-121.71271,53.98964],[-121.71376,53.98581],[-121.7108,53.98243],[-121.71232,53.98184],[-121.71724,53.98463],[-121.73417,53.98546],[-121.74013,53.98792],[-121.74136,53.99189],[-121.75289,54.0007],[-121.76411,54.00079],[-121.77254,54.00579],[-121.77357,54.01068],[-121.76572,54.01667],[-121.76185,54.01721],[-121.75651,54.02233],[-121.74789,54.02235],[-121.74789,54.02958],[-121.73259,54.02962]]],[[[-121.75726,54.02956],[-121.75819,54.04117],[-121.75706,54.0432],[-121.75523,54.04415],[-121.74705,54.04482],[-121.74343,54.04379],[-121.74,54.03676],[-121.7479,54.03657],[-121.74789,54.02958],[-121.75726,54.02956]]],[[[-121.69998,53.9901],[-121.69865,53.98811],[-121.69865,53.97904],[-121.70736,53.98175],[-121.71088,53.98532],[-121.7094,53.98861],[-121.70572,53.99037],[-121.7026,53.99089],[-121.69998,53.9901]]]]}}
]}
